
___A___
ZPX0001 050000
CH LR PZX0000
CH LR PZX0000
___A___
ZPX0002 050001
GG SLZZYNYX
050000 SLLPYNYX
RESUMEN DIARIO DE NOTAM SERIE C VIGENTES AL 2101050000:
2019:2432 2467 2468 2470 2471 3098
2020:0105 1812 1950 2081 2255 2259 2270 2278 2291 2292 2306 2307
2311 2313 2324 2325 2326 2332 2342 2367 2368 2369 2370 2372
2384 2390 2391 2392 2393 2395 2398 2399 2400 2403 2405 2406
2407 2408 2409 2410 2411 2413 2414 2415 2416 2417 2418 2419
2420 2422 2423 2424 2425 2426 2427 2428 2429 2430
2021:0005 0008 0009
RESUMEN DIARIO DE NOTAM SERIE C VIGENTES AL 2101050000:
2019:2432 2467 2468 2470 2471 3098
2020:0105 1812 1950 2081 2255 2259 2270 2278 2291 2292 2306 2307
2311 2313 2324 2325 2326 2332 2342 2367 2368 2369 2370 2372
2384 2390 2391 2392 2393 2395 2398 2399 2400 2403 2405 2406
2407 2408 2409 2410 2411 2413 2414 2415 2416 2417 2418 2419
2420 2422 2423 2424 2425 2426 2427 2428 2429 2430
2021:0005 0008 0009
___A___
ZPX0003 050003
GG SLLPYGZA
050003 SLLPYFYX
SVC MIS CH 0000 LR PZX0000
SVC MIS CH 0000 LR PZX0000
___A___
ZPX0004 050005
FF SLLPZRZX
050005 SLVRZPZX
(FPL-AZN121-IS
-E190/M-SDFGHIRWY/EB1
-SLVR0130
-N0460F360 SALBI1 SALBI UW29 PAZ
-SLLP0050 SLCB
-PBN/B2B3B4B5D1O1S2 REG/CP3135 SEL/FPJL OPR/AMASZONAS S.A.)
(FPL-AZN121-IS
-E190/M-SDFGHIRWY/EB1
-SLVR0130
-N0460F360 SALBI1 SALBI UW29 PAZ
-SLLP0050 SLCB
-PBN/B2B3B4B5D1O1S2 REG/CP3135 SEL/FPJL OPR/AMASZONAS S.A.)
___A___
ZPX0005 050009
FF SLLPZRZX
050011 SLLPYSYX
(FPL-BOV623-IS
-B737/M-SDFGHIRW/S
-SLLP0110
-N0440F270 UW677
-SLCB0030 SLVR SLLP
-PBN/B1C1D1S1 RMK/RPL)
(FPL-BOV623-IS
-B737/M-SDFGHIRW/S
-SLLP0110
-N0440F270 UW677
-SLCB0030 SLVR SLLP
-PBN/B1C1D1S1 RMK/RPL)
___A___
ZPX0006 050012
FF SLLPZRZX
050012 SLLPYSYX
(FPL-BOV622-IS
-B737/M-SDFGHIRW/S
-SLCB0110
-N0440F280 UW677
-SLLP0030 SLCB SLVR
-PBN/B1C1D1S1 RMK/RPL)
(FPL-BOV622-IS
-B737/M-SDFGHIRW/S
-SLCB0110
-N0440F280 UW677
-SLLP0030 SLCB SLVR
-PBN/B1C1D1S1 RMK/RPL)
___A___
ZPX0007 050014
GG SLLPZRZX
050015 SLLPYGYZ
SPBO SLLP 050015
SPECI SLLP 050015Z 15007KT 110V210 8000 -TSRA SCT015 FEW017CB SCT070
BKN200 10/06 Q1033 A3051 624.7 HR79 CB/ON STN/NE/SW/W/NW NOSIG=
SPBO SLLP 050015
SPECI SLLP 050015Z 15007KT 110V210 8000 -TSRA SCT015 FEW017CB SCT070
BKN200 10/06 Q1033 A3051 624.7 HR79 CB/ON STN/NE/SW/W/NW NOSIG=
___A___
ZPX0008 050015
GG SLZZYMYT
050015 SLLPYGYZ
SPBO SLLP 050015
SPECI SLLP 050015Z 15007KT 110V210 8000 -TSRA SCT015 FEW017CB SCT070
BKN200 10/06 Q1033 A3051 624.7 HR79 CB/ON STN/NE/SW/W/NW NOSIG=
SPBO SLLP 050015
SPECI SLLP 050015Z 15007KT 110V210 8000 -TSRA SCT015 FEW017CB SCT070
BKN200 10/06 Q1033 A3051 624.7 HR79 CB/ON STN/NE/SW/W/NW NOSIG=
___A___
ZPX0009 050016
FF SLLPZRZX
050016 SLLPYSYX
(FPL-BOV654-IS
-B733/M-SDFHIRW/S
-SLCB0115
-N0440F290 UW677
-SLVR0040 SLCB SLLP
-PBN/B3B4B5 RMK/RPL)
(FPL-BOV654-IS
-B733/M-SDFHIRW/S
-SLCB0115
-N0440F290 UW677
-SLVR0040 SLCB SLLP
-PBN/B3B4B5 RMK/RPL)
___A___
ZPX0010 050020
CH LR PZX0000
CH LR PZX0000
___A___
ZPX0011 050023
GG SLLPYGZA
050023 SLLPYFYX
SVC MIS CH 0020 LR PZX0000
SVC MIS CH 0020 LR PZX0000
___A___
ZPX0012 050024
FF SLLPZRZX
050026 SLLPYSYX
(FPL-BOV683-IS
-B737/M-SDFGHIRW/S
-SLVR0125
-N0440F380 UW29
-SLLP0100 SLCB SLVR
-PBN/B1C1D1S1 RMK/RPL)
(FPL-BOV683-IS
-B737/M-SDFGHIRW/S
-SLVR0125
-N0440F380 UW29
-SLLP0100 SLCB SLVR
-PBN/B1C1D1S1 RMK/RPL)
___A___
ZPX0013 050025
FF SLLPZRZX
050025 SLLPZPZX
(FPL-AZN100-IS
-E190/M-SDFGHIRWY/EB1
-SLLP1115
-N0460F350 TERAX1 TERAX UW29 VIR
-SLVR0050 SLCB
-PBN/B2B3B4B5D1O1S2 REG/CP3135)
(FPL-AZN100-IS
-E190/M-SDFGHIRWY/EB1
-SLLP1115
-N0460F350 TERAX1 TERAX UW29 VIR
-SLVR0050 SLCB
-PBN/B2B3B4B5D1O1S2 REG/CP3135)
___A___
ZPX0014 050026
FF SLLPZRZX
050026 SLLPZPZX
(FPL-AZN160-IS
-E190/M-SDFGHIRWY/EB1
-SLLP1130
-N0460F310 UW18 ALC
-SLAL0040 SLCB
-PBN/B2B3B4B5D1O1S1 REG/CP3142)
(FPL-AZN160-IS
-E190/M-SDFGHIRWY/EB1
-SLLP1130
-N0460F310 UW18 ALC
-SLAL0040 SLCB
-PBN/B2B3B4B5D1O1S1 REG/CP3142)
___A___
ZPX0015 050027
FF SLLPZRZX
050027 SLLPZPZX
(FPL-AZN102-IS
-E190/M-SDFGHIRWY/EB1
-SLLP1305
-N0460F350 TERAX1 TERAX UW29 VIR
-SLVR0050 SLCB
-PBN/B2B3B4B5D1O1S2 REG/CP3133)
(FPL-AZN102-IS
-E190/M-SDFGHIRWY/EB1
-SLLP1305
-N0460F350 TERAX1 TERAX UW29 VIR
-SLVR0050 SLCB
-PBN/B2B3B4B5D1O1S2 REG/CP3133)
___A___
ZPX0016 050027
FF SLLPZRZX
050027 SLLPZPZX
(FPL-AZN376-IS
-E190/M-SDFGHIRWY/EB1
-SLLP1455
-N0460F360 ELAMU1 ELAMU UT711 ARKUD DCT
-SLCO0055 SLLP
-PBN/B2B3B4B5O1D1S2 REG/CP3142)
(FPL-AZN376-IS
-E190/M-SDFGHIRWY/EB1
-SLLP1455
-N0460F360 ELAMU1 ELAMU UT711 ARKUD DCT
-SLCO0055 SLLP
-PBN/B2B3B4B5O1D1S2 REG/CP3142)
___A___
ZPX0017 050028
FF SLLPZRZX
050027 SLCBZPZX
(FPL-BOV622-IS
-B737/M-SDFGHIRW/S
-SLCB0200
-N0440F280 TEDOK3 TEDOK UW677 PAZ
-SLLP0030 SLCB
-PBN/B1C1D1S1 REG/CP2924 SEL/DKBQ)
(FPL-BOV622-IS
-B737/M-SDFGHIRW/S
-SLCB0200
-N0440F280 TEDOK3 TEDOK UW677 PAZ
-SLLP0030 SLCB
-PBN/B1C1D1S1 REG/CP2924 SEL/DKBQ)
___A___
ZPX0018 050028
FF SLLPZRZX
050028 SLLPZPZX
(FPL-AZN422-IS
-E190/M-SDFGHIRWY/EB1
-SLLP1505
-N0460F350 TEGUM1 TEGUM UM664 VAGUR UT291 LOBAG DCT IQQ
-SCDA0045 SLLP
-PBN/B2B3B4B5D1O1S2 EET/SCFZ0020 REG/CP3130 SEL/CMJS)
(FPL-AZN422-IS
-E190/M-SDFGHIRWY/EB1
-SLLP1505
-N0460F350 TEGUM1 TEGUM UM664 VAGUR UT291 LOBAG DCT IQQ
-SCDA0045 SLLP
-PBN/B2B3B4B5D1O1S2 EET/SCFZ0020 REG/CP3130 SEL/CMJS)
___A___
ZPX0019 050028
FF SLLPZRZX
050029 SLLPZPZX
(FPL-AZN390-IS
-CRJ2/M-SDFGRW/C
-SLLP1645
-N0440F310 KIGAX1 KIGAX UW568 TRI
-SLTR0040 SLCB
-PBN/B2B3B4D2D3O2O3S1 REG/CP2733)
(FPL-AZN390-IS
-CRJ2/M-SDFGRW/C
-SLLP1645
-N0440F310 KIGAX1 KIGAX UW568 TRI
-SLTR0040 SLCB
-PBN/B2B3B4D2D3O2O3S1 REG/CP2733)
___A___
ZPX0020 050029
FF SLLPZRZX
050029 SLCBZPZX
(FPL-BOV654-IS
-B733/M-SDFHIRW/S
-SLCB0210
-N0440F290 VAREB3 VAREB UW677 VIR
-SLVR0035 SLCB
-PBN/B3B4B5 REG/CP3077 SEL/CDAH)
(FPL-BOV654-IS
-B733/M-SDFHIRW/S
-SLCB0210
-N0440F290 VAREB3 VAREB UW677 VIR
-SLVR0035 SLCB
-PBN/B3B4B5 REG/CP3077 SEL/CDAH)
___A___
ZPX0021 050029
FF SLLPZRZX
050029 SLLPZPZX
(FPL-AZN423-IS
-E190/M-SDFGHIRWY/EB1
-SLLP1845
-N0460F350 TERAX1 TERAX UW29 VIR
-SLVR0050 SLCB
-PBN/B2B3B4B5D1O1S2 REG/CP3130)
(FPL-AZN423-IS
-E190/M-SDFGHIRWY/EB1
-SLLP1845
-N0460F350 TERAX1 TERAX UW29 VIR
-SLVR0050 SLCB
-PBN/B2B3B4B5D1O1S2 REG/CP3130)
___A___
ZPX0022 050030
FF SLLPZRZX
050030 SLLPZPZX
(FPL-AZN168-IS
-E190/M-SDFGHIRWY/EB1
-SLLP2145
-N0460F310 UW18 ALC
-SLAL0040 SLCB
-PBN/B2B3B4B5D1O1S2 REG/CP3133)
(FPL-AZN168-IS
-E190/M-SDFGHIRWY/EB1
-SLLP2145
-N0460F310 UW18 ALC
-SLAL0040 SLCB
-PBN/B2B3B4B5D1O1S2 REG/CP3133)
___A___
ZPX0023 050032
FF SLLPZRZX
050031 SLLPZPZX
(FPL-AZN118-IS
-E190/M-SDFGHIRWY/EB1
-SLLP2135
-N0460F350 TERAX1 TERAX UW29 VIR
-SLVR0050 SLCB
-PBN/B2B3B4B5D1O1S2 REG/CP3130)
(FPL-AZN118-IS
-E190/M-SDFGHIRWY/EB1
-SLLP2135
-N0460F350 TERAX1 TERAX UW29 VIR
-SLVR0050 SLCB
-PBN/B2B3B4B5D1O1S2 REG/CP3130)
___A___
ZPX0024 050033
FF SLLPZRZX
050033 SLLPZPZX
(FPL-AZN120-IS
-E190/M-SDFGHIRWY/EB1
-SLLP0125
-N0460F350 TERAX1 TERAX UW29 VIR
-SLVR0050 SLCB
-PBN/B2B3B4B5D1O1S2 DOF/210106 REG/CP3133)
(FPL-AZN120-IS
-E190/M-SDFGHIRWY/EB1
-SLLP0125
-N0460F350 TERAX1 TERAX UW29 VIR
-SLVR0050 SLCB
-PBN/B2B3B4B5D1O1S2 DOF/210106 REG/CP3133)
___A___
ZPX0025 050036
FF SLLPZRZX
050036 SLLPZPZX
(CNL-AZN168-SLLP2145-SLAL-0)
(CNL-AZN168-SLLP2145-SLAL-0)
___A___
ZPX0026 050037
GG SLZZYMYT
050037 SLVRYGYZ
SPBO SLVR 050037
SPECI SLVR 050037Z 11004KT 7000 -RA SCT007 BKN017 OVC070 23/22 Q1010
A2982 HR97 NOSIG=
SPBO SLVR 050037
SPECI SLVR 050037Z 11004KT 7000 -RA SCT007 BKN017 OVC070 23/22 Q1010
A2982 HR97 NOSIG=
___A___
ZPX0027 050037
FF SLLPZRZX
050037 SLLPZPZX
(FPL-AZN116-IS
-E190/M-SDFGHIRWY/EB1
-SLLP2145
-N0460F350 TERAX1 TERAX UW29 VIR
-SLVR0050 SLCB
-PBN/B2B3B4B5D1O1S2 REG/CP3133)
(FPL-AZN116-IS
-E190/M-SDFGHIRWY/EB1
-SLLP2145
-N0460F350 TERAX1 TERAX UW29 VIR
-SLVR0050 SLCB
-PBN/B2B3B4B5D1O1S2 REG/CP3133)
___A___
ZPX0028 050037
GG SLZZYMYT
050037 SLVRYGYZ
SPBO SLVR 050037
SPECI SLVR 050037Z 11004KT 7000 -RA SCT007 BKN017 OVC070 23/22 Q1010
A2982 HR97 NOSIG=
SPBO SLVR 050037
SPECI SLVR 050037Z 11004KT 7000 -RA SCT007 BKN017 OVC070 23/22 Q1010
A2982 HR97 NOSIG=
___A___
ZPX0029 050040
CH LR PZX0000
CH LR PZX0000
___A___
ZPX0030 050043
GG SLLPYGZA
050043 SLLPYFYX
SVC MIS CH 0040 LR PZX0000
SVC MIS CH 0040 LR PZX0000
___A___
ZPX0031 050045
GG SLLPZRZX
050044 SLLPYGYZ
SPBO SLLP 050044
SPECI SLLP 050044Z 03005KT 9999 VCTS SCT015 FEW017CB SCT070 BKN200 09
/05 Q1033 A3051 624.8 HR80 CB/LT N/NE/E/SE/NW TS NE/E NOSIG=
SPBO SLLP 050044
SPECI SLLP 050044Z 03005KT 9999 VCTS SCT015 FEW017CB SCT070 BKN200 09
/05 Q1033 A3051 624.8 HR80 CB/LT N/NE/E/SE/NW TS NE/E NOSIG=
___A___
ZPX0032 050048
FF SLLPZRZX
050047 SLCBZPZX
(FPL-AZN153-IS
-E190/M-SDFGHIRWY/EB1
-SLCB0140
-N0460F290 VAREB3 VAREB UW677 VIR
-SLVR0035 SLCB
-PBN/B2B3B4B5D1O1S2 REG/CP3145)
(FPL-AZN153-IS
-E190/M-SDFGHIRWY/EB1
-SLCB0140
-N0460F290 VAREB3 VAREB UW677 VIR
-SLVR0035 SLCB
-PBN/B2B3B4B5D1O1S2 REG/CP3145)
___A___
ZPX0033 050053
KK SLLPZRZX
050053 SLALYGYB
AD/SLAL AMPLIAR NOTAM C0008/21 TIL 2101050130.
AD/SLAL AMPLIAR NOTAM C0008/21 TIL 2101050130.
___A___
ZPX0034 050055
GG SLZZYMYT
050055 SLVRYGYZ
SABO SLVR 050100
METAR SLVR 050100Z 10004KT 9000 -RA SCT007 BKN017 OVC070 23/22 Q1010
A2983 HR97 NOSIG=
SABO SLVR 050100
METAR SLVR 050100Z 10004KT 9000 -RA SCT007 BKN017 OVC070 23/22 Q1010
A2983 HR97 NOSIG=
___A___
ZPX0035 050056
FF SLLPZRZX
050056 SLALZPZX
(FPL-BOV579-IS
-B733/M-SDFHIRW/S
-SLAL0100
-N0429F260 ALC UW22 CBA
-SLCB0038 SLVR
-PBN/B3B4B5C3C4D3D4 REG/CP2716 SEL/EGFM PER/C)
(FPL-BOV579-IS
-B733/M-SDFHIRW/S
-SLAL0100
-N0429F260 ALC UW22 CBA
-SLCB0038 SLVR
-PBN/B3B4B5C3C4D3D4 REG/CP2716 SEL/EGFM PER/C)
___A___
ZPX0036 050057
GG SLLPZRZX
050056 SLLPYGYZ
SABO SLLP 050100
METAR SLLP 050100Z 03005KT 350V060 9999 VCTS FEW006 FEW017CB
SCT070 BKN200 09/05 Q1033 A3052 624.9 HR76 CB/LT N/NE/E/SE/NW
TS E/SE NOSIG=
SABO SLLP 050100
METAR SLLP 050100Z 03005KT 350V060 9999 VCTS FEW006 FEW017CB
SCT070 BKN200 09/05 Q1033 A3052 624.9 HR76 CB/LT N/NE/E/SE/NW
TS E/SE NOSIG=
___A___
ZPX0037 050057
GG SLZZYMYT
050056 SLCBYGYZ
SABO SLCB 050100
METAR SLCB 050100Z 12005KT 9999 FEW030 FEW033CB SCT070 BKN200 20/09
Q1018 A3008 746.4 HR47 CB LT/N/NE NOSIG=
SABO SLCB 050100
METAR SLCB 050100Z 12005KT 9999 FEW030 FEW033CB SCT070 BKN200 20/09
Q1018 A3008 746.4 HR47 CB LT/N/NE NOSIG=
___A___
ZPX0038 050058
GG SLZZYMYT
050058 SLCBYGYS
SABO SLCB 050100
METAR SLCB 050100Z 12005KT 9999 FEW030 FEW033CB SCT070 BKN200 20/09
Q1018 A3008 746.4 HR47 CB LT/N/NE NOSIG=
METAR SLAL 050100Z 06006KT 9999 FEW005 BKN010 FEW030CB OVC070 11/10
Q1026 A3030 701.5 HR96 CB/NE/SE/W/NW ST BAJOS/E/SE/S RERA=
SABO SLCB 050100
METAR SLCB 050100Z 12005KT 9999 FEW030 FEW033CB SCT070 BKN200 20/09
Q1018 A3008 746.4 HR47 CB LT/N/NE NOSIG=
METAR SLAL 050100Z 06006KT 9999 FEW005 BKN010 FEW030CB OVC070 11/10
Q1026 A3030 701.5 HR96 CB/NE/SE/W/NW ST BAJOS/E/SE/S RERA=
___A___
ZPX0039 050100
CH LR PZX0000
CH LR PZX0000
___A___
ZPX0040 050101
GG SLZZYNYX
050100 SLLPYNYX
(C0010/21 NOTAMR C0008/21
Q) SLLF/QFAAH/IV/NBO/A/000/999/1914S06508W005
A) SLAL B) 2101050100 C) 2101050130
E) SER ATS/COM/MET/ARO/SEI/SEGURIDAD ATTN EXTD TIL 0130)
(C0010/21 NOTAMR C0008/21
Q) SLLF/QFAAH/IV/NBO/A/000/999/1914S06508W005
A) SLAL B) 2101050100 C) 2101050130
E) SER ATS/COM/MET/ARO/SEI/SEGURIDAD ATTN EXTD TIL 0130)
___A___
ZPX0041 050103
GG SLLPYGZA
050103 SLLPYFYX
SVC MIS CH 0100 LR PZX0000
SVC MIS CH 0100 LR PZX0000
___A___
ZPX0042 050106
FF SLLPZRZX
050105 SLALZTZX
(DEP-BOV579/A1722-SLAL0106-SLCB-REG/CP2716)
(DEP-BOV579/A1722-SLAL0106-SLCB-REG/CP2716)
___A___
ZPX0043 050114
FF SLLPZRZX
050110 SLVRZPZX
(FPL-BOV766-IS
-B763/H-SDFGHIRWXYZ/SB1
-SLVR0315
-N0466F360 VIR UN420 RCO UL417 PUKEN UL417 EGAPO/N0464F360 UL417
LENAX UL795 ALTIB UM347 ZEUSS Y325 FOWEE FLIPR7
-KMIA0634 KTPA KPBI
-PBN/A1B1C1D1O1S1S2 DAT/CPDLCX SUR/260B REG/CP2880 EET/SBAZ0111
SKED0206 SKEC0341 MKJK0439 MUFH0515 KZMA0555 ADIZ0606 SEL/CMBD OPR/
BOA PER/D RALT/SBEG SKBQ)
(FPL-BOV766-IS
-B763/H-SDFGHIRWXYZ/SB1
-SLVR0315
-N0466F360 VIR UN420 RCO UL417 PUKEN UL417 EGAPO/N0464F360 UL417
LENAX UL795 ALTIB UM347 ZEUSS Y325 FOWEE FLIPR7
-KMIA0634 KTPA KPBI
-PBN/A1B1C1D1O1S1S2 DAT/CPDLCX SUR/260B REG/CP2880 EET/SBAZ0111
SKED0206 SKEC0341 MKJK0439 MUFH0515 KZMA0555 ADIZ0606 SEL/CMBD OPR/
BOA PER/D RALT/SBEG SKBQ)
___A___
ZPX0044 050120
CH LR PZX0000
CH LR PZX0000
___A___
ZPX0045 050123
GG SLLPYGZA
050123 SLLPYFYX
SVC MIS CH 0120 LR PZX0000
SVC MIS CH 0120 LR PZX0000
___A___
ZPX0046 050137
GG SLZZYMYT
050137 SLVRYGYZ
SPBO SLVR 050137
SPECI SLVR 050137Z 09003KT 9999 BKN005 BKN015 OVC070 22/22 Q1010
A2985 HR97 NOSIG=
SPBO SLVR 050137
SPECI SLVR 050137Z 09003KT 9999 BKN005 BKN015 OVC070 22/22 Q1010
A2985 HR97 NOSIG=
___A___
ZPX0047 050138
GG SLZZYMYT
050138 SLVRYGYZ
SPBO SLVR 050137
SPECI SLVR 050137Z 09003KT 9999 BKN005 BKN015 OVC070 22/22 Q1010
A2985 HR97 NOSIG=
SPBO SLVR 050137
SPECI SLVR 050137Z 09003KT 9999 BKN005 BKN015 OVC070 22/22 Q1010
A2985 HR97 NOSIG=
___A___
ZPX0048 050140
CH LR PZX0000
CH LR PZX0000
___A___
ZPX0049 050143
GG SLLPYGZA
050143 SLLPYFYX
SVC MIS CH 0140 LR PZX0000
SVC MIS CH 0140 LR PZX0000
___A___
ZPX0050 050157
GG SLZZYMYT
050156 SLCBYGYZ
SABO SLCB 050200
METAR SLCB 050200Z 18004KT 9999 FEW030 FEW033CB SCT070 BKN200 19/10
Q1019 A3011 747.3 HR54 CB LT/N/NE NOSIG=
SABO SLCB 050200
METAR SLCB 050200Z 18004KT 9999 FEW030 FEW033CB SCT070 BKN200 19/10
Q1019 A3011 747.3 HR54 CB LT/N/NE NOSIG=
___A___
ZPX0051 050157
GG SLLPZRZX
050156 SLLPYGYZ
SABO SLLP 050200
METAR SLLP 050200Z 09005KT 4000E VCFG FEW004 FEW017CB SCT070 BKN200
09/06 Q1034 A3053 625.3 HR85 VCFG NE/E/SE CB/LT E/SE/NW RETS NOSIG=
SABO SLLP 050200
METAR SLLP 050200Z 09005KT 4000E VCFG FEW004 FEW017CB SCT070 BKN200
09/06 Q1034 A3053 625.3 HR85 VCFG NE/E/SE CB/LT E/SE/NW RETS NOSIG=
___A___
ZPX0052 050157
GG SLZZYMYT
050158 SLVRYGYZ
SABO SLVR 050200
METAR SLVR 050200Z 11003KT 9999 BKN005 BKN015 OVC070 22/22 Q1010
A2985 HR97 NOSIG=
SABO SLVR 050200
METAR SLVR 050200Z 11003KT 9999 BKN005 BKN015 OVC070 22/22 Q1010
A2985 HR97 NOSIG=
___A___
ZPX0053 050200
CH LR PZX0000
CH LR PZX0000
___A___
ZPX0054 050203
GG SLLPYGZA
050203 SLLPYFYX
SVC MIS CH 0200 LR PZX0000
SVC MIS CH 0200 LR PZX0000
___A___
ZPX0055 050206
FF SLLPZRZX
050207 SABMYMYX
FVAG01 SABM 050210
VA ADVISORY
DTG: 20210105/0210Z
VAAC: BUENOS AIRES
VOLCANO: SABANCAYA 354006
PSN: S1547 W07150
AREA: PERU
SUMMIT ELEV: 19576 FT (5967 M)
ADVISORY NR: 2021/018
INFO SOURCE: GOES-E. GFS. WEBCAM.
AVIATION COLOUR CODE: NOT GIVEN
ERUPTION DETAILS: INTERMITTENT EMISSIONS
EST VA DTG: 05/0120Z
EST VA CLD: SFC/FL250 S1508 W07150 - S1546 W07152
- S1539 W07202 - S1509 W07215 - S1508 W07150 MOV
N 20KT
FCST VA CLD +6 HR: 05/0730Z SFC/FL250 S1459 W07135
- S1546 W07150 - S1537 W07159 - S1459 W07204 -
S1459 W07135
FCST VA CLD +12 HR: 05/1330Z SFC/FL250 S1504
W07159 - S1508 W07123 - S1547 W07145 - S1548
W07153 - S1504 W07159
FCST VA CLD +18 HR: 05/1930Z NOT AVBL
RMK: VA PLUME NOT DETECTED IN STLT IMAGERY DUE WX
CLDS COVER. THERMAL WEBCAM SHOWS INTERMITTENT
EMISSIONS. T+0 EST FM PREVIOUS FORECAST...SMN
NXT ADVISORY: WILL BE ISSUED BY 20210105/0810Z=
FVAG01 SABM 050210
VA ADVISORY
DTG: 20210105/0210Z
VAAC: BUENOS AIRES
VOLCANO: SABANCAYA 354006
PSN: S1547 W07150
AREA: PERU
SUMMIT ELEV: 19576 FT (5967 M)
ADVISORY NR: 2021/018
INFO SOURCE: GOES-E. GFS. WEBCAM.
AVIATION COLOUR CODE: NOT GIVEN
ERUPTION DETAILS: INTERMITTENT EMISSIONS
EST VA DTG: 05/0120Z
EST VA CLD: SFC/FL250 S1508 W07150 - S1546 W07152
- S1539 W07202 - S1509 W07215 - S1508 W07150 MOV
N 20KT
FCST VA CLD +6 HR: 05/0730Z SFC/FL250 S1459 W07135
- S1546 W07150 - S1537 W07159 - S1459 W07204 -
S1459 W07135
FCST VA CLD +12 HR: 05/1330Z SFC/FL250 S1504
W07159 - S1508 W07123 - S1547 W07145 - S1548
W07153 - S1504 W07159
FCST VA CLD +18 HR: 05/1930Z NOT AVBL
RMK: VA PLUME NOT DETECTED IN STLT IMAGERY DUE WX
CLDS COVER. THERMAL WEBCAM SHOWS INTERMITTENT
EMISSIONS. T+0 EST FM PREVIOUS FORECAST...SMN
NXT ADVISORY: WILL BE ISSUED BY 20210105/0810Z=
___A___
ZPX0056 050207
GG SLLPZRZX
050206 KWBCYMYX
FVAG01 SABM 050210
VA ADVISORY
DTG: 20210105/0210Z
VAAC: BUENOS AIRES
VOLCANO: SABANCAYA 354006
PSN: S1547 W07150
AREA: PERU
SUMMIT ELEV: 19576 FT (5967 M)
ADVISORY NR: 2021/018
INFO SOURCE: GOES-E. GFS. WEBCAM.
AVIATION COLOUR CODE: NOT GIVEN
ERUPTION DETAILS: INTERMITTENT EMISSIONS
EST VA DTG: 05/0120Z
EST VA CLD: SFC/FL250 S1508 W07150 - S1546 W07152
- S1539 W07202 - S1509 W07215 - S1508 W07150 MOV
N 20KT
FCST VA CLD +6 HR: 05/0730Z SFC/FL250 S1459 W07135
- S1546 W07150 - S1537 W07159 - S1459 W07204 -
S1459 W07135
FCST VA CLD +12 HR: 05/1330Z SFC/FL250 S1504
W07159 - S1508 W07123 - S1547 W07145 - S1548
W07153 - S1504 W07159
FCST VA CLD +18 HR: 05/1930Z NOT AVBL
RMK: VA PLUME NOT DETECTED IN STLT IMAGERY DUE WX
CLDS COVER. THERMAL WEBCAM SHOWS INTERMITTENT
EMISSIONS. T+0 EST FM PREVIOUS FORECAST...SMN
NXT ADVISORY: WILL BE ISSUED BY 20210105/0810Z=
FVAG01 SABM 050210
VA ADVISORY
DTG: 20210105/0210Z
VAAC: BUENOS AIRES
VOLCANO: SABANCAYA 354006
PSN: S1547 W07150
AREA: PERU
SUMMIT ELEV: 19576 FT (5967 M)
ADVISORY NR: 2021/018
INFO SOURCE: GOES-E. GFS. WEBCAM.
AVIATION COLOUR CODE: NOT GIVEN
ERUPTION DETAILS: INTERMITTENT EMISSIONS
EST VA DTG: 05/0120Z
EST VA CLD: SFC/FL250 S1508 W07150 - S1546 W07152
- S1539 W07202 - S1509 W07215 - S1508 W07150 MOV
N 20KT
FCST VA CLD +6 HR: 05/0730Z SFC/FL250 S1459 W07135
- S1546 W07150 - S1537 W07159 - S1459 W07204 -
S1459 W07135
FCST VA CLD +12 HR: 05/1330Z SFC/FL250 S1504
W07159 - S1508 W07123 - S1547 W07145 - S1548
W07153 - S1504 W07159
FCST VA CLD +18 HR: 05/1930Z NOT AVBL
RMK: VA PLUME NOT DETECTED IN STLT IMAGERY DUE WX
CLDS COVER. THERMAL WEBCAM SHOWS INTERMITTENT
EMISSIONS. T+0 EST FM PREVIOUS FORECAST...SMN
NXT ADVISORY: WILL BE ISSUED BY 20210105/0810Z=
___A___
ZPX0057 050209
FF SLZZYMYT
050210 SLLPYMYX
WSBO31 SLLP 050210
SLLF SIGMET 1 VALID 050210/050610 SLLP-
SLLF LA PAZ FIR EMBD TS OBS AND FCST AT 0200Z WI S0944 W06534 -
S0942 W06522 - S1005 W06522 - S1048 W06527 -
S1137 W06515 - S1150 W06455 - S1155 W06441 -
S1219 W06434 - S1224 W06419 - S1224 W06348 -
S1226 W06331 - S1247 W06309 - S1307 W06235 -
S1307 W06213 - S1307 W06154 - S1412 W06137 -
S1453 W06127 - S1610 W06007 - S1610 W05818 -
S1618 W05818 - S1651 W05835 - S1717 W05809 -
S1740 W05744 - S1803 W05732 - S1839 W05744 -
S1923 W05801 - S1933 W05816 - S1915 W05838 -
S1829 W05931 - S1808 W06031 - S1725 W06110 -
S1732 W06245 - S1735 W06335 - S1623 W06443 -
S1740 W06656 - S1659 W06738 - S1534 W06632 -
S1448 W06708 - S1407 W06811 - S1331 W06845 -
S1117 W06750 - S1140 W06627 - S1143 W06520 -
S1109 W06551 - S1002 W06549 - S0939 W06536 -
TOP FL390 MOV N 06KT NC=
WSBO31 SLLP 050210
SLLF SIGMET 1 VALID 050210/050610 SLLP-
SLLF LA PAZ FIR EMBD TS OBS AND FCST AT 0200Z WI S0944 W06534 -
S0942 W06522 - S1005 W06522 - S1048 W06527 -
S1137 W06515 - S1150 W06455 - S1155 W06441 -
S1219 W06434 - S1224 W06419 - S1224 W06348 -
S1226 W06331 - S1247 W06309 - S1307 W06235 -
S1307 W06213 - S1307 W06154 - S1412 W06137 -
S1453 W06127 - S1610 W06007 - S1610 W05818 -
S1618 W05818 - S1651 W05835 - S1717 W05809 -
S1740 W05744 - S1803 W05732 - S1839 W05744 -
S1923 W05801 - S1933 W05816 - S1915 W05838 -
S1829 W05931 - S1808 W06031 - S1725 W06110 -
S1732 W06245 - S1735 W06335 - S1623 W06443 -
S1740 W06656 - S1659 W06738 - S1534 W06632 -
S1448 W06708 - S1407 W06811 - S1331 W06845 -
S1117 W06750 - S1140 W06627 - S1143 W06520 -
S1109 W06551 - S1002 W06549 - S0939 W06536 -
TOP FL390 MOV N 06KT NC=
___A___
ZPX0058 050220
CH LR PZX0000
CH LR PZX0000
___A___
ZPX0059 050223
GG SLLPYGZA
050223 SLLPYFYX
SVC MIS CH 0220 LR PZX0000
SVC MIS CH 0220 LR PZX0000
___A___
ZPX0060 050240
CH LR PZX0000
CH LR PZX0000
___A___
ZPX0061 050243
GG SLLPYGZA
050243 SLLPYFYX
SVC MIS CH 0240 LR PZX0000
SVC MIS CH 0240 LR PZX0000
___A___
ZPX0062 050245
FF SLLPZRZX
050246 SLVRZPZX
(FPL-AZN101-IS
-E190/M-SDFGHIRWY/EB1
-SLVR1120
-N0460F360 SALBI1 SALBI UW29 PAZ
-SLLP0045 SLCB
-PBN/B2B3B4B5D1O1S2 REG/CP3133 SEL/CDFR OPR/AMASZONAS S.A)
(FPL-AZN101-IS
-E190/M-SDFGHIRWY/EB1
-SLVR1120
-N0460F360 SALBI1 SALBI UW29 PAZ
-SLLP0045 SLCB
-PBN/B2B3B4B5D1O1S2 REG/CP3133 SEL/CDFR OPR/AMASZONAS S.A)
___A___
ZPX0063 050248
FF SLLPZRZX
050247 SLVRZPZX
(FPL-AZN292-IS
-DH8B/M-SDFGR/C
-SLVR1220
-N0270F180 VIR A301 TRI
-SLTR0055 SLVR
-PBN/B2B3B4 REG/CP3092 OPR/AMASZONAS S.A.)
(FPL-AZN292-IS
-DH8B/M-SDFGR/C
-SLVR1220
-N0270F180 VIR A301 TRI
-SLTR0055 SLVR
-PBN/B2B3B4 REG/CP3092 OPR/AMASZONAS S.A.)
___A___
ZPX0064 050248
FF SLLPZRZX
050248 SLVRZPZX
(FPL-AZN170-IS
-E190/M-SDFGHIRWY/EB1
-SLVR1240
-N0460F280 VIR UW14 ALC
-SLAL0030 SLVR SLCB
-PBN/B2B3B4B5D1O1S2 REG/CP3145 SEL/ABHK OPR/AMASZONAS)
(FPL-AZN170-IS
-E190/M-SDFGHIRWY/EB1
-SLVR1240
-N0460F280 VIR UW14 ALC
-SLAL0030 SLVR SLCB
-PBN/B2B3B4B5D1O1S2 REG/CP3145 SEL/ABHK OPR/AMASZONAS)
___A___
ZPX0065 050251
FF SLLPZRZX
050249 SLVRZPZX
(FPL-AZN150-IS
-E190/M-SDFGHIRWY/EB1
-SLVR1250
-N0460F280 KOSBO1 KOSBO UT712 CBA
-SLCB0030 SLVR
-PBN/B2B3B4B5D1O1S2 REG/CP3135 SEL/FPJL OPR/AMASZONAS S.A)
(FPL-AZN150-IS
-E190/M-SDFGHIRWY/EB1
-SLVR1250
-N0460F280 KOSBO1 KOSBO UT712 CBA
-SLCB0030 SLVR
-PBN/B2B3B4B5D1O1S2 REG/CP3135 SEL/FPJL OPR/AMASZONAS S.A)
___A___
ZPX0066 050252
FF SLLPZRZX
050250 SLVRZPZX
(FPL-AZN422-IS
-E190/M-SDFGHIRWY/EB1
-SLVR1320
-N0460F360 SALBI1 SALBI UW29 PAZ
-SLLP0045 SLCB
-PBN/B2B3B4B5D1O1S2 REG/CP3130 SEL/CMJS OPR/AMASZONAS S.A)
(FPL-AZN422-IS
-E190/M-SDFGHIRWY/EB1
-SLVR1320
-N0460F360 SALBI1 SALBI UW29 PAZ
-SLLP0045 SLCB
-PBN/B2B3B4B5D1O1S2 REG/CP3130 SEL/CMJS OPR/AMASZONAS S.A)
___A___
ZPX0067 050252
FF SLLPZRZX
050251 SLVRZPZX
(FPL-AZN190-IS
-E190/M-SDFGHIRWY/EB1
-SLVR1500
-N0460F320 LODAK1 LODAK UW316 TAR
-SLTJ0040 SLVR
-PBN/B2B3B4B5D1O1S2 REG/CP3133 SEL/CDFR OPR/AMASZONAS S.A.)
(FPL-AZN190-IS
-E190/M-SDFGHIRWY/EB1
-SLVR1500
-N0460F320 LODAK1 LODAK UW316 TAR
-SLTJ0040 SLVR
-PBN/B2B3B4B5D1O1S2 REG/CP3133 SEL/CDFR OPR/AMASZONAS S.A.)
___A___
ZPX0068 050255
FF SLLPZRZX
050252 SLVRZPZX
(FPL-AZN154-IS
-E190/M-SDFGHIRWY/EB1
-SLVR1620
-N0460F280 KOSBO1 KOSBO UT712 CBA
-SLCB0030 SLVR
-PBN/B2B3B4B5D1O1S2 REG/CP3145 SEL/ABHK OPR/AMASZONAS S.A)
(FPL-AZN154-IS
-E190/M-SDFGHIRWY/EB1
-SLVR1620
-N0460F280 KOSBO1 KOSBO UT712 CBA
-SLCB0030 SLVR
-PBN/B2B3B4B5D1O1S2 REG/CP3145 SEL/ABHK OPR/AMASZONAS S.A)
___A___
ZPX0069 050256
GG SLZZYMYT
050257 SLVRYGYZ
SABO SLVR 050300
METAR SLVR 050300Z 09003KT 9999 BKN004 BKN015 OVC070 22/21 Q1010
A2985 HR96 NOSIG=
SABO SLVR 050300
METAR SLVR 050300Z 09003KT 9999 BKN004 BKN015 OVC070 22/21 Q1010
A2985 HR96 NOSIG=
___A___
ZPX0070 050257
GG SLZZYMYT
050256 SLCBYGYZ
SABO SLCB 050300
METAR SLCB 050300Z 13010KT 9999 FEW030 FEW033CB BKN070 BKN200 19/11
Q1020 A3014 747.9 HR59 CB LT/N/NE/S NOSIG=
SABO SLCB 050300
METAR SLCB 050300Z 13010KT 9999 FEW030 FEW033CB BKN070 BKN200 19/11
Q1020 A3014 747.9 HR59 CB LT/N/NE/S NOSIG=
___A___
ZPX0071 050257
FF SLLPZRZX
050253 SLVRZPZX
(FPL-AZN430-IS
-E190/M-SDFGHIRWY/EB1
-SLVR1630
-N0460F350 TOMUR1 TOMUR UM415 SIDAK UZ22 ASEPO UM411 PUPSI PUPSI1B
-SBGR0224 SBGL SBKP
-PBN/B2B3B4B5D1O1S2 REG/CP3135 EET/SBCW0044 SBBS0203 SBCW0223
SEL/FPJL OPR/AMASZONAS SA)
(FPL-AZN430-IS
-E190/M-SDFGHIRWY/EB1
-SLVR1630
-N0460F350 TOMUR1 TOMUR UM415 SIDAK UZ22 ASEPO UM411 PUPSI PUPSI1B
-SBGR0224 SBGL SBKP
-PBN/B2B3B4B5D1O1S2 REG/CP3135 EET/SBCW0044 SBBS0203 SBCW0223
SEL/FPJL OPR/AMASZONAS SA)
___A___
ZPX0072 050257
GG SLLPZRZX
050257 SLLPYGYZ
SABO SLLP 050300
METAR SLLP 050300Z VRB02KT 9999 FEW004 FEW017CB BKN200 08/07 Q1034
A3054 625.4 HR94 CB/LT NE/E/SE/NW AC NOSIG=
SABO SLLP 050300
METAR SLLP 050300Z VRB02KT 9999 FEW004 FEW017CB BKN200 08/07 Q1034
A3054 625.4 HR94 CB/LT NE/E/SE/NW AC NOSIG=
___A___
ZPX0073 050259
FF SLLPZRZX
050254 SLVRZPZX
(FPL-AZN290-IS
-CRJ2/M-SDFGRW/C
-SLVR1635
-N0440F280 VIR UN420 TRI
-SLTR0045 SLVR SLCB
-PBN/B2B3B4D2D3O2O3S1 REG/CP2908 SEL/BMLP OPR/AMASZONAS S.A.)
(FPL-AZN290-IS
-CRJ2/M-SDFGRW/C
-SLVR1635
-N0440F280 VIR UN420 TRI
-SLTR0045 SLVR SLCB
-PBN/B2B3B4D2D3O2O3S1 REG/CP2908 SEL/BMLP OPR/AMASZONAS S.A.)
___A___
ZPX0074 050300
CH LR PZX0000
CH LR PZX0000
___A___
ZPX0075 050303
GG SLLPYGZA
050303 SLLPYFYX
SVC MIS CH 0300 LR PZX0000
SVC MIS CH 0300 LR PZX0000
___A___
ZPX0076 050320
CH LR PZX0000
CH LR PZX0000
___A___
ZPX0077 050323
GG SLLPYGZA
050323 SLLPYFYX
SVC MIS CH 0320 LR PZX0000
SVC MIS CH 0320 LR PZX0000
___A___
ZPX0078 050325
FF SLLPZRZX
050324 SLVRZPZX
(FPL-BOV661-IS
-B738/M-DFGHILORVWY/SB1
-SLVR1015
-N0459F380 SALBI1 SALBI UW29 TERAX PAZ
-SLLP0105 SLCB
-PBN/B2B3B4B5C1D1S1 SUR/260B REG/CP3151 SEL/RSKP OPR/BOA PER/C)
(FPL-BOV661-IS
-B738/M-DFGHILORVWY/SB1
-SLVR1015
-N0459F380 SALBI1 SALBI UW29 TERAX PAZ
-SLLP0105 SLCB
-PBN/B2B3B4B5C1D1S1 SUR/260B REG/CP3151 SEL/RSKP OPR/BOA PER/C)
___A___
ZPX0079 050340
CH LR PZX0000
CH LR PZX0000
___A___
ZPX0080 050343
GG SLLPYGZA
050343 SLLPYFYX
SVC MIS CH 0340 LR PZX0000
SVC MIS CH 0340 LR PZX0000
___A___
ZPX0081 050345
FF SLLPZRZX
050339 SLVRZPZX
(FPL-ARG1369-IS
-B738/M-SDFGHIRW/S
-SLVR0610
-N0451F390 KABOM1 KABOM UL404 ISOPO/N0456F390 UT672 MULTA UW24 SNT
SNT6A
-SAEZ0233 SARE SAAR
-PBN/B2B3B4D1O2S1S2T1 NAV/B5 T2 REG/LVFQZ EET/SACF0037 SAEF0150 SEL/
BRGM OPR/ARG PER/C RMK/TCAS II)
(FPL-ARG1369-IS
-B738/M-SDFGHIRW/S
-SLVR0610
-N0451F390 KABOM1 KABOM UL404 ISOPO/N0456F390 UT672 MULTA UW24 SNT
SNT6A
-SAEZ0233 SARE SAAR
-PBN/B2B3B4D1O2S1S2T1 NAV/B5 T2 REG/LVFQZ EET/SACF0037 SAEF0150 SEL/
BRGM OPR/ARG PER/C RMK/TCAS II)
___A___
ZPX0082 050355
GG SLZZYMYT
050355 SLVRYGYZ
SABO SLVR 050400
METAR SLVR 050400Z 08002KT 9999 BKN004 BKN015 OVC070 22/21 Q1010
A2982 HR96 NOSIG=
SABO SLVR 050400
METAR SLVR 050400Z 08002KT 9999 BKN004 BKN015 OVC070 22/21 Q1010
A2982 HR96 NOSIG=
___A___
ZPX0083 050356
GG SLZZYMYT
050355 SLCBYGYZ
SABO SLCB 050400
METAR SLCB 050400Z 00000KT 9999 FEW030 FEW033CB BKN070 BKN200 18/10
Q1020 A3014 747.9 HR58 CB LT/N/NE/S NOSIG=
SABO SLCB 050400
METAR SLCB 050400Z 00000KT 9999 FEW030 FEW033CB BKN070 BKN200 18/10
Q1020 A3014 747.9 HR58 CB LT/N/NE/S NOSIG=
___A___
ZPX0084 050356
GG SLLPZRZX
050356 SLLPYGYZ
SABO SLLP 050400
METAR SLLP 050400Z 23004KT 4000E VCFG FEW004 FEW017CB SCT200
08/04 Q1034 A3054 625.5 HR79 VCFG NE/E/SE CB/LT N/NE/E AC NOSIG=
SABO SLLP 050400
METAR SLLP 050400Z 23004KT 4000E VCFG FEW004 FEW017CB SCT200
08/04 Q1034 A3054 625.5 HR79 VCFG NE/E/SE CB/LT N/NE/E AC NOSIG=
___A___
ZPX0085 050400
CH LR PZX0000
CH LR PZX0000
___A___
ZPX0086 050403
GG SLLPYGZA
050403 SLLPYFYX
SVC MIS CH 0400 LR PZX0000
SVC MIS CH 0400 LR PZX0000
1127
___A___
ZPX0087 050403
GG SLZZYMYT
050405 SLLPYMYX
FABO SLLP 050405
ARFOR VALIDO 050600/060600
SITUACION SINOPTICA: LINEA DE INESTABILIDAD GENERA SISTEMA
CONVECTIVO N LA PAZ AND CHAPARE. VAGUADA LVL MEDIO ALTIPLANO
AND CORDILLLERA ORIENTAL. MASA DE AIRE HUMEDA INESTABLE RESTO DEL
TERRITORIO NTL. DEPRESION S DEL PAIS. LLJ 340DG 030KT LLANOS
ORIENTALES.
WINTEM PROB FL390 FL340 FL300 FL240 FL180
ALTIPLANO/CORDILLERA 33015M52 29025M40 20020M30 30015M17 17005M05
BENI/NORTE DEL PAIS 18010M52 19015M40 19010M30 30005M16 34010M05
LLANOS ORIENTALES 30020M52 30020M40 30015M30 26010M16 32010M04
TIERRAS BAJAS DEL SUR 30015M52 30032M39 30025M30 26020M17 22015M04
PRONOSTICO GENERAL:
ALTIPLANO/CORDILLERA ORIENTAL: BKN/SCT AC/AS 2100 DEBAJO FEW/SCT
SC/CU 500 TEMPO BCFG TEMPO ISOL CB/SHRA OCNL TS.
BENI/NORTE DEL PAIS: BKN/SCT AC/AC 2100 DEBAJO FEW/SCT SC/CU 500
TEMPO ISOL CB/SHRA OCNL TS.
LLANOS ORIENTALES: SCT/BKN AC/AS 2100 DEBAJO SCT/BKN SC/CU 500 TEMPO
ISOL CB/SHRA OCNL TS.
TIERRAS BAJAS DEL S: BKN/SCT AC/AS 2100 DEBAJO BKN/SCT SC/CU 500
TEMPO CB/SHRA OCNL TS=
FABO SLLP 050405
ARFOR VALIDO 050600/060600
SITUACION SINOPTICA: LINEA DE INESTABILIDAD GENERA SISTEMA
CONVECTIVO N LA PAZ AND CHAPARE. VAGUADA LVL MEDIO ALTIPLANO
AND CORDILLLERA ORIENTAL. MASA DE AIRE HUMEDA INESTABLE RESTO DEL
TERRITORIO NTL. DEPRESION S DEL PAIS. LLJ 340DG 030KT LLANOS
ORIENTALES.
WINTEM PROB FL390 FL340 FL300 FL240 FL180
ALTIPLANO/CORDILLERA 33015M52 29025M40 20020M30 30015M17 17005M05
BENI/NORTE DEL PAIS 18010M52 19015M40 19010M30 30005M16 34010M05
LLANOS ORIENTALES 30020M52 30020M40 30015M30 26010M16 32010M04
TIERRAS BAJAS DEL SUR 30015M52 30032M39 30025M30 26020M17 22015M04
PRONOSTICO GENERAL:
ALTIPLANO/CORDILLERA ORIENTAL: BKN/SCT AC/AS 2100 DEBAJO FEW/SCT
SC/CU 500 TEMPO BCFG TEMPO ISOL CB/SHRA OCNL TS.
BENI/NORTE DEL PAIS: BKN/SCT AC/AC 2100 DEBAJO FEW/SCT SC/CU 500
TEMPO ISOL CB/SHRA OCNL TS.
LLANOS ORIENTALES: SCT/BKN AC/AS 2100 DEBAJO SCT/BKN SC/CU 500 TEMPO
ISOL CB/SHRA OCNL TS.
TIERRAS BAJAS DEL S: BKN/SCT AC/AS 2100 DEBAJO BKN/SCT SC/CU 500
TEMPO CB/SHRA OCNL TS=
___A___
ZPX0088 050420
CH LR PZX0000
CH LR PZX0000
___A___
ZPX0089 050423
GG SLLPYGZA
050423 SLLPYFYX
SVC MIS CH 0420 LR PZX0000
SVC MIS CH 0420 LR PZX0000
___A___
ZPX0090 050440
CH LR PZX0000
CH LR PZX0000
___A___
ZPX0091 050443
GG SLLPYGZA
050443 SLLPYFYX
SVC MIS CH 0440 LR PZX0000
SVC MIS CH 0440 LR PZX0000
___A___
ZPX0092 050455
GG SLZZYMYT
050455 SLVRYGYZ
SABO SLVR 050500
METAR SLVR 050500Z 24002KT 9999 SCT004 BKN015 BKN070 22/21 Q1009
A2981 HR95 NOSIG=
SABO SLVR 050500
METAR SLVR 050500Z 24002KT 9999 SCT004 BKN015 BKN070 22/21 Q1009
A2981 HR95 NOSIG=
___A___
ZPX0093 050455
FF SLLPZRZX
050414 SLLPZPZX
(FPL-AVA246-IS
-A319/M-SDE1E2E3FGHIRWXYZ/LB1
-SLLP0605
-N0442F360 ELAMU2 ELAMU UL309 DEXEM/N0439F380 DCT ABIDE DCT EGEPI
EGEP3E
-SKBO0341 SKCL
-PBN/A1B1C1D1O1S2T1 REG/N741AV EET/SBAZ0049 SKED0240 SEL/BQAP OPR/
AVIANCA PER/C RALT/SBEG SKBO)
(FPL-AVA246-IS
-A319/M-SDE1E2E3FGHIRWXYZ/LB1
-SLLP0605
-N0442F360 ELAMU2 ELAMU UL309 DEXEM/N0439F380 DCT ABIDE DCT EGEPI
EGEP3E
-SKBO0341 SKCL
-PBN/A1B1C1D1O1S2T1 REG/N741AV EET/SBAZ0049 SKED0240 SEL/BQAP OPR/
AVIANCA PER/C RALT/SBEG SKBO)
___A___
ZPX0094 050457
GG SLLPZRZX
050456 SLLPYGYZ
SABO SLLP 050500
METAR SLLP 050500Z 06004KT 4000E VCFG FEW004 FEW017CB SCT200 06/05
Q1033 A3052 625.0 HR95 VCFG NE/E/SE CB/LT NE AC NOSIG=
SABO SLLP 050500
METAR SLLP 050500Z 06004KT 4000E VCFG FEW004 FEW017CB SCT200 06/05
Q1033 A3052 625.0 HR95 VCFG NE/E/SE CB/LT NE AC NOSIG=
___A___
ZPX0095 050457
GG SLZZYMYT
050456 SLCBYGYZ
SABO SLCB 050500
METAR SLCB 050500Z 15006KT 9999 FEW027 FEW030CB BKN070 BKN200 18/11
Q1019 A3011 747.3 HR66 CB LT/NE/E/S NOSIG=
SABO SLCB 050500
METAR SLCB 050500Z 15006KT 9999 FEW027 FEW030CB BKN070 BKN200 18/11
Q1019 A3011 747.3 HR66 CB LT/NE/E/S NOSIG=
___A___
ZPX0096 050500
CH LR PZX0000
CH LR PZX0000
___A___
ZPX0097 050503
GG SLLPYGZA
050503 SLLPYFYX
SVC MIS CH 0500 LR PZX0000
SVC MIS CH 0500 LR PZX0000
___A___
ZPX0098 050508
FF SLLPZRZX
050503 SLVRZPZX
(FPL-GLG8385-IS
-A319/M-SDE1E2FGHIRWXY/H
-SLVR0600
-N0447F360 VIR UN420 RCO UL417 PABON DCT SJE DCT EGEPI/N0444F180
EGEP3E
-SKBO0330 SKCL
-PBN/A1B1C1D1S1 REG/HCCSB EET/SBAZ0109 SKED0207 SEL/FSBM CODE/E8407B
OPR/AVIANCA ECUADOR PER/C)
(FPL-GLG8385-IS
-A319/M-SDE1E2FGHIRWXY/H
-SLVR0600
-N0447F360 VIR UN420 RCO UL417 PABON DCT SJE DCT EGEPI/N0444F180
EGEP3E
-SKBO0330 SKCL
-PBN/A1B1C1D1S1 REG/HCCSB EET/SBAZ0109 SKED0207 SEL/FSBM CODE/E8407B
OPR/AVIANCA ECUADOR PER/C)
___A___
ZPX0100 050523
GG SLLPYGZA
050523 SLLPYFYX
SVC MIS CH 0520 LR PZX0000
SVC MIS CH 0520 LR PZX0000
___A___
ZPX0101 050540
CH LR PZX0000
CH LR PZX0000
___A___
ZPX0102 050543
GG SLLPYGZA
050543 SLLPYFYX
SVC MIS CH 0540 LR PZX0000
SVC MIS CH 0540 LR PZX0000
___A___
ZPX0103 050544
FF SLLPZRZX
050542 SLVRZPZX
(FPL-CMP126-IS
-B738/M-SDE1E2E3GHRWIZ/H
-SLVR0643
-N0455F360 VIR UN420 EGBAK/N0452F380 UN420 BUSMO DCT IRATA DCT
ISOKO ISOKO1
-MPTO0418 MPPA
-PBN/A1B1C1D1L1O1S2T1 NAV/RNP2 REG/HP1720 EET/SBAZ0110
SPIM0206 SKED0231 MPZL0348 SEL/DGEH CODE/0C205F OPR/CMP PER/C RMK/
TCAS)
(FPL-CMP126-IS
-B738/M-SDE1E2E3GHRWIZ/H
-SLVR0643
-N0455F360 VIR UN420 EGBAK/N0452F380 UN420 BUSMO DCT IRATA DCT
ISOKO ISOKO1
-MPTO0418 MPPA
-PBN/A1B1C1D1L1O1S2T1 NAV/RNP2 REG/HP1720 EET/SBAZ0110
SPIM0206 SKED0231 MPZL0348 SEL/DGEH CODE/0C205F OPR/CMP PER/C RMK/
TCAS)
___A___
ZPX0104 050555
GG SLZZYMYT
050556 SLVRYGYZ
SABO SLVR 050600
METAR SLVR 050600Z 00000KT 9999 SCT005 BKN015 BKN070 22/21 Q1008
A2979 HR96 NOSIG=
SABO SLVR 050600
METAR SLVR 050600Z 00000KT 9999 SCT005 BKN015 BKN070 22/21 Q1008
A2979 HR96 NOSIG=
___A___
ZPX0105 050558
GG SLLPZRZX
050557 SLLPYGYZ
SABO SLLP 050600
METAR SLLP 050600Z 11003KT 4000E VCFG FEW004 FEW017CB SCT200 06/05
Q1033 A3051 624.7 HR95 VCFG NE/E/SE CB/LT N/NE AC NOSIG=
SABO SLLP 050600
METAR SLLP 050600Z 11003KT 4000E VCFG FEW004 FEW017CB SCT200 06/05
Q1033 A3051 624.7 HR95 VCFG NE/E/SE CB/LT N/NE AC NOSIG=
___A___
ZPX0106 050600
GG SLZZYMYT
050557 SLCBYGYZ
SABO SLCB 050600
METAR SLCB 050600Z 09008KT 8000 -TSRA SCT027 FEW030CB BKN070 BKN200
16/13 Q1019 A3011 747.3 HR81 CB/ON STN/N/NE/E TS/LT/NE NOSIG=
SABO SLCB 050600
METAR SLCB 050600Z 09008KT 8000 -TSRA SCT027 FEW030CB BKN070 BKN200
16/13 Q1019 A3011 747.3 HR81 CB/ON STN/N/NE/E TS/LT/NE NOSIG=
___A___
ZPX0107 050603
GG SLLPYGZA
050603 SLLPYFYX
SVC MIS CH 0600 LR PZX0000
SVC MIS CH 0600 LR PZX0000
___A___
ZPX0108 050608
FF SLZZYMYT
050610 SLLPYMYX
WSBO31 SLLP 050610
SLLF SIGMET 2 VALID 050610/051010 SLLP-
SLLF LA PAZ FIR EMBD TS OBS AND FCST AT 0600Z WI S1427 W06905 -
S1417 W06857 - S1404 W06843 - S1351 W06855 -
S1307 W06902 - S1305 W06838 - S1307 W06716 -
S1343 W06551 - S1409 W06520 - S1526 W06436 -
S1600 W06400 - S1738 W06348 - S1758 W06443 -
S1834 W06500 - S1806 W06615 - S1654 W06632 -
S1608 W06649 - S1544 W06745 - S1524 W06843 -
S1422 W06853 -
TOP FL390 MOV N 06KT NC=
WSBO31 SLLP 050610
SLLF SIGMET 2 VALID 050610/051010 SLLP-
SLLF LA PAZ FIR EMBD TS OBS AND FCST AT 0600Z WI S1427 W06905 -
S1417 W06857 - S1404 W06843 - S1351 W06855 -
S1307 W06902 - S1305 W06838 - S1307 W06716 -
S1343 W06551 - S1409 W06520 - S1526 W06436 -
S1600 W06400 - S1738 W06348 - S1758 W06443 -
S1834 W06500 - S1806 W06615 - S1654 W06632 -
S1608 W06649 - S1544 W06745 - S1524 W06843 -
S1422 W06853 -
TOP FL390 MOV N 06KT NC=
___A___
ZPX0109 050620
CH LR PZX0000
CH LR PZX0000
___A___
ZPX0110 050623
GG SLLPYGZA
050623 SLLPYFYX
SVC MIS CH 0620 LR PZX0000
SVC MIS CH 0620 LR PZX0000
___A___
ZPX0111 050631
GG SLZZYMYT
050630 SLCBYGYZ
SPBO SLCB 050627
SPECI SLCB 050627Z 09005KT 8000 VCSH SCT027 FEW030CB BKN070 BKN200 16
/13 Q1019 A3011 747.3 HR81 CB LT/NE/E/SE SH/NE/E RETSRA NOSIG=
SPBO SLCB 050627
SPECI SLCB 050627Z 09005KT 8000 VCSH SCT027 FEW030CB BKN070 BKN200 16
/13 Q1019 A3011 747.3 HR81 CB LT/NE/E/SE SH/NE/E RETSRA NOSIG=
___A___
ZPX0112 050640
CH LR PZX0000
CH LR PZX0000
___A___
ZPX0113 050643
GG SLLPYGZA
050643 SLLPYFYX
SVC MIS CH 0640 LR PZX0000
SVC MIS CH 0640 LR PZX0000
1044
___A___
ZPX0114 050647
FF SLLPZRZX
050648 SABMYMYX
FVAG01 SABM 050650
VA ADVISORY
DTG: 20210105/0650Z
VAAC: BUENOS AIRES
VOLCANO: SABANCAYA 354006
PSN: S1547 W07150
AREA: PERU
SUMMIT ELEV: 19576 FT (5967 M)
ADVISORY NR: 2021/019
INFO SOURCE: GOES-E. GFS. WEBCAM.
AVIATION COLOUR CODE: NOT GIVEN
ERUPTION DETAILS: INTERMITTENT EMISSIONS
OBS VA DTG: 05/0620Z
OBS VA CLD: SFC/FL270 S1512 W07158 - S1546 W07150
- S1517 W07211 - S1512 W07158 MOV NW 20KT
FCST VA CLD +6 HR: 05/1230Z SFC/FL270 S1507 W07153
- S1517 W07138 - S1546 W07150 - S1516 W07207 -
S1507 W07153
FCST VA CLD +12 HR: 05/1830Z SFC/FL270 S1504
W07147 - S1518 W07132 - S1547 W07150 - S1515
W07205 - S1504 W07147
FCST VA CLD +18 HR: 06/0030Z SFC/FL270 S1511
W07124 - S1524 W07124 - S1538 W07132 - S1546
W07150 - S1534 W07142 - S1513 W07144 - S1511
W07124
RMK: VA PLUME MOV NNW IS DETECTED ON STLT IMAGERY
UNDER PARTIALLY COVERED SKIES. WEBCAM SHOWS VA
EMISSION TL FL270. ...SMN
NXT ADVISORY: WILL BE ISSUED BY 20210105/1250Z=
FVAG01 SABM 050650
VA ADVISORY
DTG: 20210105/0650Z
VAAC: BUENOS AIRES
VOLCANO: SABANCAYA 354006
PSN: S1547 W07150
AREA: PERU
SUMMIT ELEV: 19576 FT (5967 M)
ADVISORY NR: 2021/019
INFO SOURCE: GOES-E. GFS. WEBCAM.
AVIATION COLOUR CODE: NOT GIVEN
ERUPTION DETAILS: INTERMITTENT EMISSIONS
OBS VA DTG: 05/0620Z
OBS VA CLD: SFC/FL270 S1512 W07158 - S1546 W07150
- S1517 W07211 - S1512 W07158 MOV NW 20KT
FCST VA CLD +6 HR: 05/1230Z SFC/FL270 S1507 W07153
- S1517 W07138 - S1546 W07150 - S1516 W07207 -
S1507 W07153
FCST VA CLD +12 HR: 05/1830Z SFC/FL270 S1504
W07147 - S1518 W07132 - S1547 W07150 - S1515
W07205 - S1504 W07147
FCST VA CLD +18 HR: 06/0030Z SFC/FL270 S1511
W07124 - S1524 W07124 - S1538 W07132 - S1546
W07150 - S1534 W07142 - S1513 W07144 - S1511
W07124
RMK: VA PLUME MOV NNW IS DETECTED ON STLT IMAGERY
UNDER PARTIALLY COVERED SKIES. WEBCAM SHOWS VA
EMISSION TL FL270. ...SMN
NXT ADVISORY: WILL BE ISSUED BY 20210105/1250Z=
1087
___A___
ZPX0115 050648
GG SLLPZRZX
050648 KWBCYMYX
FVAG01 SABM 050650
VA ADVISORY
DTG: 20210105/0650Z
VAAC: BUENOS AIRES
VOLCANO: SABANCAYA 354006
PSN: S1547 W07150
AREA: PERU
SUMMIT ELEV: 19576 FT (5967 M)
ADVISORY NR: 2021/019
INFO SOURCE: GOES-E. GFS. WEBCAM.
AVIATION COLOUR CODE: NOT GIVEN
ERUPTION DETAILS: INTERMITTENT EMISSIONS
OBS VA DTG: 05/0620Z
OBS VA CLD: SFC/FL270 S1512 W07158 - S1546 W07150
- S1517 W07211 - S1512 W07158 MOV NW 20KT
FCST VA CLD +6 HR: 05/1230Z SFC/FL270 S1507 W07153
- S1517 W07138 - S1546 W07150 - S1516 W07207 -
S1507 W07153
FCST VA CLD +12 HR: 05/1830Z SFC/FL270 S1504
W07147 - S1518 W07132 - S1547 W07150 - S1515
W07205 - S1504 W07147
FCST VA CLD +18 HR: 06/0030Z SFC/FL270 S1511
W07124 - S1524 W07124 - S1538 W07132 - S1546
W07150 - S1534 W07142 - S1513 W07144 - S1511
W07124
RMK: VA PLUME MOV NNW IS DETECTED ON STLT IMAGERY
UNDER PARTIALLY COVERED SKIES. WEBCAM SHOWS VA
EMISSION TL FL270. ...SMN
NXT ADVISORY: WILL BE ISSUED BY 20210105/1250Z=
FVAG01 SABM 050650
VA ADVISORY
DTG: 20210105/0650Z
VAAC: BUENOS AIRES
VOLCANO: SABANCAYA 354006
PSN: S1547 W07150
AREA: PERU
SUMMIT ELEV: 19576 FT (5967 M)
ADVISORY NR: 2021/019
INFO SOURCE: GOES-E. GFS. WEBCAM.
AVIATION COLOUR CODE: NOT GIVEN
ERUPTION DETAILS: INTERMITTENT EMISSIONS
OBS VA DTG: 05/0620Z
OBS VA CLD: SFC/FL270 S1512 W07158 - S1546 W07150
- S1517 W07211 - S1512 W07158 MOV NW 20KT
FCST VA CLD +6 HR: 05/1230Z SFC/FL270 S1507 W07153
- S1517 W07138 - S1546 W07150 - S1516 W07207 -
S1507 W07153
FCST VA CLD +12 HR: 05/1830Z SFC/FL270 S1504
W07147 - S1518 W07132 - S1547 W07150 - S1515
W07205 - S1504 W07147
FCST VA CLD +18 HR: 06/0030Z SFC/FL270 S1511
W07124 - S1524 W07124 - S1538 W07132 - S1546
W07150 - S1534 W07142 - S1513 W07144 - S1511
W07124
RMK: VA PLUME MOV NNW IS DETECTED ON STLT IMAGERY
UNDER PARTIALLY COVERED SKIES. WEBCAM SHOWS VA
EMISSION TL FL270. ...SMN
NXT ADVISORY: WILL BE ISSUED BY 20210105/1250Z=
___A___
ZPX0116 050655
GG SLZZYMYT
050656 SLVRYGYZ
SABO SLVR 050700
METAR SLVR 050700Z 08002KT 9999 SCT005 BKN015 BKN070 22/22 Q1008
A2979 HR96 NOSIG=
SABO SLVR 050700
METAR SLVR 050700Z 08002KT 9999 SCT005 BKN015 BKN070 22/22 Q1008
A2979 HR96 NOSIG=
___A___
ZPX0117 050656
GG SLLPZRZX
050657 SLLPYGYZ
SABO SLLP 050700
METAR SLLP 050700Z VRB02KT 9999 FEW004 FEW017CB SCT200 06/M01
Q1032 A3050 624.5 HR62 CB/LT N/NE AC NOSIG=
SABO SLLP 050700
METAR SLLP 050700Z VRB02KT 9999 FEW004 FEW017CB SCT200 06/M01
Q1032 A3050 624.5 HR62 CB/LT N/NE AC NOSIG=
___A___
ZPX0118 050658
GG SLZZYMYT
050658 SLCBYGYZ
SABO SLCB 050700
METAR SLCB 050700Z 12004KT 9999 FEW027 FEW030CB BKN070 BKN200 16/13
Q1020 A3012 747.5 HR84 CB LT/NE/E NOSIG=
SABO SLCB 050700
METAR SLCB 050700Z 12004KT 9999 FEW027 FEW030CB BKN070 BKN200 16/13
Q1020 A3012 747.5 HR84 CB LT/NE/E NOSIG=
___A___
ZPX0119 050700
CH LR PZX0000
CH LR PZX0000
___A___
ZPX0120 050703
GG SLLPYGZA
050703 SLLPYFYX
SVC MIS CH 0700 LR PZX0000
SVC MIS CH 0700 LR PZX0000
___A___
ZPX0121 050720
CH LR PZX0000
CH LR PZX0000
___A___
ZPX0122 050723
GG SLLPYGZA
050723 SLLPYFYX
SVC MIS CH 0720 LR PZX0000
SVC MIS CH 0720 LR PZX0000
___A___
ZPX0123 050740
CH LR PZX0000
CH LR PZX0000
___A___
ZPX0124 050743
GG SLLPYGZA
050743 SLLPYFYX
SVC MIS CH 0740 LR PZX0000
SVC MIS CH 0740 LR PZX0000
___A___
ZPX0125 050756
GG SLZZYMYT
050756 SLVRYGYZ
SABO SLVR 050800
METAR SLVR 050800Z VRB02KT 5000 -RADZ BKN004 BKN013 OVC070 22/22
Q1009 A2981 HR97 TEMPO 8000=
SABO SLVR 050800
METAR SLVR 050800Z VRB02KT 5000 -RADZ BKN004 BKN013 OVC070 22/22
Q1009 A2981 HR97 TEMPO 8000=
___A___
ZPX0126 050756
GG SLLPZRZX
050757 SLLPYGYZ
SABO SLLP 050800
METAR SLLP 050800Z VRB02KT 9999 FEW004 FEW017CB SCT200 04/01
Q1032 A3049 624.3 HR76 CB/LT N/NE AC NOSIG=
SABO SLLP 050800
METAR SLLP 050800Z VRB02KT 9999 FEW004 FEW017CB SCT200 04/01
Q1032 A3049 624.3 HR76 CB/LT N/NE AC NOSIG=
___A___
ZPX0127 050758
GG SLZZYMYT
050757 SLCBYGYZ
SABO SLCB 050800
METAR SLCB 050800Z 12008KT 9999 SCT025 FEW027CB BKN070 BKN200 15/11
Q1020 A3013 747.8 HR75 CB LT/N/NE NOSIG=
SABO SLCB 050800
METAR SLCB 050800Z 12008KT 9999 SCT025 FEW027CB BKN070 BKN200 15/11
Q1020 A3013 747.8 HR75 CB LT/N/NE NOSIG=
___A___
ZPX0128 050800
CH LR PZX0000
CH LR PZX0000
___A___
ZPX0129 050803
GG SLLPYGZA
050803 SLLPYFYX
SVC MIS CH 0800 LR PZX0000
SVC MIS CH 0800 LR PZX0000
___A___
ZPX0130 050820
CH LR PZX0000
CH LR PZX0000
___A___
ZPX0131 050823
GG SLLPYGZA
050823 SLLPYFYX
SVC MIS CH 0820 LR PZX0000
SVC MIS CH 0820 LR PZX0000
___A___
ZPX0132 050840
CH LR PZX0000
CH LR PZX0000
___A___
ZPX0133 050843
GG SLLPYGZA
050843 SLLPYFYX
SVC MIS CH 0840 LR PZX0000
SVC MIS CH 0840 LR PZX0000
___A___
ZPX0134 050847
FF SLLPZRZX
050846 SLLPZPZX
(FPL-BOV662-IS
-B738/M-SDFGHIRW/S
-SLLP1045
-N0440F390 TERAX1 TERAX UW29 VIR
-SLVR0100 SLCB
-PBN/B1C1D1S1 REG/CP2926)
(FPL-BOV662-IS
-B738/M-SDFGHIRW/S
-SLLP1045
-N0440F390 TERAX1 TERAX UW29 VIR
-SLVR0100 SLCB
-PBN/B1C1D1S1 REG/CP2926)
___A___
ZPX0135 050847
FF SLLPZRZX
050847 SLLPZPZX
(FPL-BOV603-IS
-B738/M-SDFGHIRW/S
-SLLP1200
-N0440F270 DAKOG1 DAKOG UW677 CBA
-SLCB0030 SLVR
-PBN/B1C1D1S1 REG/CP3138)
(FPL-BOV603-IS
-B738/M-SDFGHIRW/S
-SLLP1200
-N0440F270 DAKOG1 DAKOG UW677 CBA
-SLCB0030 SLVR
-PBN/B1C1D1S1 REG/CP3138)
___A___
ZPX0136 050849
FF SLLPZRZX
050848 SLLPZPZX
(FPL-BOV664-IS
-B738/M-SDFGHIRW/S
-SLLP1210
-N0440F390 TERAX1 TERAX UW29 VIR
-SLVR0100 SLCB
-PBN/B1C1D1S1 REG/CP3151)
(FPL-BOV664-IS
-B738/M-SDFGHIRW/S
-SLLP1210
-N0440F390 TERAX1 TERAX UW29 VIR
-SLVR0100 SLCB
-PBN/B1C1D1S1 REG/CP3151)
___A___
ZPX0137 050850
FF SLLPZRZX
050849 SLLPZPZX
(FPL-BOV607-IS
-B738/M-SDFGHIRW/S
-SLLP1440
-N0440F270 DAKOG1 DAKOG UW677 CBA
-SLCB0030 SLVR
-PBN/B1C1D1S1 REG/CP2926)
(FPL-BOV607-IS
-B738/M-SDFGHIRW/S
-SLLP1440
-N0440F270 DAKOG1 DAKOG UW677 CBA
-SLCB0030 SLVR
-PBN/B1C1D1S1 REG/CP2926)
___A___
ZPX0138 050851
FF SLLPZRZX
050850 SLLPZPZX
(FPL-BOV670-IS
-B738/M-SDFGHIRW/S
-SLLP1700
-N0440F390 TERAX1 TERAX UW29 VIR
-SLVR0100 SLCB
-PBN/B1C1D1S1 REG/CP3138)
(FPL-BOV670-IS
-B738/M-SDFGHIRW/S
-SLLP1700
-N0440F390 TERAX1 TERAX UW29 VIR
-SLVR0100 SLCB
-PBN/B1C1D1S1 REG/CP3138)
___A___
ZPX0139 050851
GG SLZZYMYT
050850 SLPSYGYS
SABO SLPS 050900
METAR SLPS 050900Z 00000KT 8000 SCT012 BKN200 23/23 Q1010 A2983 HR100
BR=
SABO SLPS 050900
METAR SLPS 050900Z 00000KT 8000 SCT012 BKN200 23/23 Q1010 A2983 HR100
BR=
___A___
ZPX0140 050852
GG SLZZYMYT
050853 SLETYMYC
SABO SLET 050900
METAR SLET 050900Z 33005KT 3000 RADZ SCT006 BKN010 FEW027CB OVC070 22
/22 Q1009 A2981 HR98 CB W/NW NOSIG=
SABO SLET 050900
METAR SLET 050900Z 33005KT 3000 RADZ SCT006 BKN010 FEW027CB OVC070 22
/22 Q1009 A2981 HR98 CB W/NW NOSIG=
___A___
ZPX0141 050853
GG SLZZYMYT
050851 SLETYMYC
SIBO SLET 050900
AAXX 04094
85245 41280 83305 10218 20215 39603 40085 53009 75865 8792/
333 56709 58034 84706 86610 81927 88457 555 10094 29098=
SIBO SLET 050900
AAXX 04094
85245 41280 83305 10218 20215 39603 40085 53009 75865 8792/
333 56709 58034 84706 86610 81927 88457 555 10094 29098=
___A___
ZPX0142 050855
GG SLZZYMYT
050855 SLVRYGYZ
SABO SLVR 050900
METAR SLVR 050900Z 03003KT 5000 -RA BKN004 BKN015 OVC070 22/22 Q1009
A2981 HR97 TEMPO 3000=
SABO SLVR 050900
METAR SLVR 050900Z 03003KT 5000 -RA BKN004 BKN015 OVC070 22/22 Q1009
A2981 HR97 TEMPO 3000=
___A___
ZPX0143 050855
GG SLZZYMYT
050855 SLTRYGYZ
SABO SLTR 050900
METAR SLTR 050900Z 02004KT 9999 FEW005 BKN080 24/23 Q1007 A2976
989.2 HR97 NOSIG=
SABO SLTR 050900
METAR SLTR 050900Z 02004KT 9999 FEW005 BKN080 24/23 Q1007 A2976
989.2 HR97 NOSIG=
___A___
ZPX0144 050857
GG SLLPZRZX
050857 SLLPYGYZ
SABO SLLP 050900
METAR SLLP 050900Z VRB02KT 4000E VCFG FEW004 FEW017CB SCT070 BKN200
03/01 Q1033 A3051 624.7 HR90 VCFG NE/E/SE CB/LT DIST/N NOSIG=
SABO SLLP 050900
METAR SLLP 050900Z VRB02KT 4000E VCFG FEW004 FEW017CB SCT070 BKN200
03/01 Q1033 A3051 624.7 HR90 VCFG NE/E/SE CB/LT DIST/N NOSIG=
___A___
ZPX0145 050859
GG SLZZYMYT
050858 SLCBYGYZ
SABO SLCB 050900
METAR SLCB 050900Z 13010KT 8000 VCSH FEW013 SCT025 FEW027CB BKN070 15
/11 Q1020 A3014 748.1 HR80 CB LT/N SC BAJOS W/NW NOSIG=
SABO SLCB 050900
METAR SLCB 050900Z 13010KT 8000 VCSH FEW013 SCT025 FEW027CB BKN070 15
/11 Q1020 A3014 748.1 HR80 CB LT/N SC BAJOS W/NW NOSIG=
___A___
ZPX0146 050900
CH LR PZX0000
CH LR PZX0000
___A___
ZPX0147 050900
GG SLZZYMYT
050900 SLVRYGYU
SABO SLVR 050900
METAR SLVR 050900Z 03003KT 5000 -RA BKN004 BKN015 OVC070 22/22 Q1009
A2981 HR97 TEMPO 3000=
METAR SLET 050900Z 33005KT 3000 RADZ SCT006 BKN010 FEW027CB OVC070 22
/22 Q1009 A2981 HR98 CB W/NW NOSIG=
METAR SLPS 050900Z 00000KT 8000 SCT012 BKN200 23/23 Q1010 A2983 HR100
BR=
SABO SLVR 050900
METAR SLVR 050900Z 03003KT 5000 -RA BKN004 BKN015 OVC070 22/22 Q1009
A2981 HR97 TEMPO 3000=
METAR SLET 050900Z 33005KT 3000 RADZ SCT006 BKN010 FEW027CB OVC070 22
/22 Q1009 A2981 HR98 CB W/NW NOSIG=
METAR SLPS 050900Z 00000KT 8000 SCT012 BKN200 23/23 Q1010 A2983 HR100
BR=
___A___
ZPX0148 050901
GG SLZZYMYT
050900 SLTRYGYS
SABO SLTR 050900
METAR SLTR 050900Z 02004KT 9999 FEW005 BKN080 24/23 Q1007 A2976 989.2
HR97 NOSIG=
METAR SLRI 050900Z NIL=
SABO SLTR 050900
METAR SLTR 050900Z 02004KT 9999 FEW005 BKN080 24/23 Q1007 A2976 989.2
HR97 NOSIG=
METAR SLRI 050900Z NIL=
___A___
ZPX0149 050903
GG SLLPYGZA
050903 SLLPYFYX
SVC MIS CH 0900 LR PZX0000
SVC MIS CH 0900 LR PZX0000
___A___
ZPX0150 050906
FF SLLPZRZX
050906 SLCBZPZX
(FPL-ECO304-IS
-RJ85/M-SDGIR/S
-SLCB1030
-N0360F250 VAREB3 VAREB UM793 VIR
-SLVR0040 SLCB
-PBN/B1 REG/CP2889)
(FPL-ECO304-IS
-RJ85/M-SDGIR/S
-SLCB1030
-N0360F250 VAREB3 VAREB UM793 VIR
-SLVR0040 SLCB
-PBN/B1 REG/CP2889)
___A___
ZPX0151 050910
FF SLLPZRZX
050909 SLCBZPZX
(CHG-ECO304-SLCB1030-SLVR-18/PBN/B1 REG/CP2814)
(CHG-ECO304-SLCB1030-SLVR-18/PBN/B1 REG/CP2814)
___A___
ZPX0152 050911
FF SLLPZRZX
050910 SLCBZPZX
(FPL-BOV600-IS
-B738/M-SDFGHIRW/S
-SLCB1020
-N0440F280 TEDOK3 TEDOK UW677 PAZ
-SLLP0030 SLCB
-PBN/B1C1D1S1 REG/CP3138 SEL/KLCR)
(FPL-BOV600-IS
-B738/M-SDFGHIRW/S
-SLCB1020
-N0440F280 TEDOK3 TEDOK UW677 PAZ
-SLLP0030 SLCB
-PBN/B1C1D1S1 REG/CP3138 SEL/KLCR)
___A___
ZPX0153 050913
FF SLLPZRZX
050913 SLCBZPZX
(FPL-ECO304-IS
-RJ85/M-SDGIR/S
-SLCB1030
-N0360F250 VAREB3 VAREB UM793 VIR
-SLVR0040 SLCB
-PBN/B1 REG/CP2814)
(FPL-ECO304-IS
-RJ85/M-SDGIR/S
-SLCB1030
-N0360F250 VAREB3 VAREB UM793 VIR
-SLVR0040 SLCB
-PBN/B1 REG/CP2814)
___A___
ZPX0154 050914
FF SLLPZRZX
050915 SLLPYSYX
(FPL-BOV600-IS
-B737/M-SDFGHIRW/S
-SLCB1020
-N0440F280 UW677
-SLLP0030 SLCB SLVR
-PBN/B1C1D1S1 RMK/RPL)
(FPL-BOV600-IS
-B737/M-SDFGHIRW/S
-SLCB1020
-N0440F280 UW677
-SLLP0030 SLCB SLVR
-PBN/B1C1D1S1 RMK/RPL)
___A___
ZPX0155 050916
FF SLLPZRZX
050916 SLLPYSYX
(FPL-BOV601-IS
-B737/M-SDFGHIRW/S
-SLLP1015
-N0440F270 UW677
-SLCB0030 SLVR SLLP
-PBN/B1C1D1S1 RMK/RPL)
(FPL-BOV601-IS
-B737/M-SDFGHIRW/S
-SLLP1015
-N0440F270 UW677
-SLCB0030 SLVR SLLP
-PBN/B1C1D1S1 RMK/RPL)
___A___
ZPX0156 050916
FF SLLPZRZX
050917 SLLPYSYX
(FPL-BOV661-IS
-B737/M-SDFGHIRW/S
-SLVR1020
-N0440F380 UW29
-SLLP0100 SLCB SLVR
-PBN/B1C1D1S1 RMK/RPL)
(FPL-BOV661-IS
-B737/M-SDFGHIRW/S
-SLVR1020
-N0440F380 UW29
-SLLP0100 SLCB SLVR
-PBN/B1C1D1S1 RMK/RPL)
___A___
ZPX0157 050918
FF SLLPZRZX
050918 SLLPYSYX
(FPL-BOV660-IS
-B737/M-SDFGHIRW/S
-SLLP1020
-N0440F390 UW29
-SLVR0055 SLCB SLLP
-PBN/B1C1D1S1 RMK/RPL)
(FPL-BOV660-IS
-B737/M-SDFGHIRW/S
-SLLP1020
-N0440F390 UW29
-SLVR0055 SLCB SLLP
-PBN/B1C1D1S1 RMK/RPL)
___A___
ZPX0158 050920
CH LR PZX0000
CH LR PZX0000
___A___
ZPX0159 050920
FF SLLPZRZX
050922 SLLPYSYX
(FPL-BOV631-IS
-B733/M-SDFHIRW/S
-SLVR1025
-N0440F280 UT712
-SLCB0045 SLVR SLLP
-PBN/B3B4B5 RMK/RPL)
(FPL-BOV631-IS
-B733/M-SDFHIRW/S
-SLVR1025
-N0440F280 UT712
-SLCB0045 SLVR SLLP
-PBN/B3B4B5 RMK/RPL)
___A___
ZPX0160 050922
GG SLZZYMYT
050922 SLVRYGYZ
SPBO SLVR 050922
SPECI SLVR 050922Z 03003KT 5000 -TSRA SCT004 BKN015 FEW030CB OVC070
22/22 Q1009 A2981 HR97 CB/TS/LT N/E NOSIG=
SPBO SLVR 050922
SPECI SLVR 050922Z 03003KT 5000 -TSRA SCT004 BKN015 FEW030CB OVC070
22/22 Q1009 A2981 HR97 CB/TS/LT N/E NOSIG=
___A___
ZPX0161 050923
GG SLLPYGZA
050923 SLLPYFYX
SVC MIS CH 0920 LR PZX0000
SVC MIS CH 0920 LR PZX0000
___A___
ZPX0162 050927
FF SLLPZRZX
050928 SLLPYSYX
(FPL-BOV630-IS
-B733/M-SDFHIRW/S
-SLCB1030
-N0440F290 UW677
-SLVR0040 SLCB SLLP
-PBN/B3B4B5 RMK/RPL)
(FPL-BOV630-IS
-B733/M-SDFHIRW/S
-SLCB1030
-N0440F290 UW677
-SLVR0040 SLCB SLLP
-PBN/B3B4B5 RMK/RPL)
___A___
ZPX0163 050935
FF SLLPZRZX
050937 SLLPYSYX
(FPL-BOV662-IS
-B737/M-SDFGHIRW/S
-SLLP1040
-N0440F390 UW29
-SLVR0055 SLCB SLLP
-PBN/B1C1D1S1 RMK/RPL)
(FPL-BOV662-IS
-B737/M-SDFGHIRW/S
-SLLP1040
-N0440F390 UW29
-SLVR0055 SLCB SLLP
-PBN/B1C1D1S1 RMK/RPL)
___A___
ZPX0164 050936
GG SLZZYMYT
050936 SLVRYGYZ
SPBO SLVR 050922
SPECI SLVR 050922Z 03003KT 5000 -TSRA SCT004 BKN015 FEW030CB OVC070
22/22 Q1009 A2981 HR97 CB/TS/LT N/E NOSIG=
SPBO SLVR 050922
SPECI SLVR 050922Z 03003KT 5000 -TSRA SCT004 BKN015 FEW030CB OVC070
22/22 Q1009 A2981 HR97 CB/TS/LT N/E NOSIG=
___A___
ZPX0165 050937
GG SLZZYMYT
050938 SLVRYGYZ
SPBO SLVR 050937
SPECI SLVR 050937Z VRB02KT 2000 TSRA BKN004 BKN015 FEW030CB OVC070 22
/22 Q1009 A2981 HR97 CB/TS/LT N NOSIG=
SPBO SLVR 050937
SPECI SLVR 050937Z VRB02KT 2000 TSRA BKN004 BKN015 FEW030CB OVC070 22
/22 Q1009 A2981 HR97 CB/TS/LT N NOSIG=
___A___
ZPX0166 050940
CH LR PZX0000
CH LR PZX0000
___A___
ZPX0167 050943
GG SLLPYGZA
050943 SLLPYFYX
SVC MIS CH 0940 LR PZX0000
SVC MIS CH 0940 LR PZX0000
___A___
ZPX0168 050947
GG SLZZYMYT
050946 SLVRYGYZ
SPBO SLVR 050937
SPECI SLVR 050937Z VRB02KT 2000 TSRA BKN004 BKN015 FEW030CB OVC070 22
/22 Q1009 A2981 HR97 CB/TS/LT N NOSIG=
SPBO SLVR 050937
SPECI SLVR 050937Z VRB02KT 2000 TSRA BKN004 BKN015 FEW030CB OVC070 22
/22 Q1009 A2981 HR97 CB/TS/LT N NOSIG=
___A___
ZPX0169 050952
GG SLZZYMYT
050950 SLPSYGYS
SABO SLPS 051000
METAR SLPS 051000Z 00000KT 9999 FEW012 SCT070 BKN200 24/24 Q1010
A2983 HR100=
SABO SLPS 051000
METAR SLPS 051000Z 00000KT 9999 FEW012 SCT070 BKN200 24/24 Q1010
A2983 HR100=
___A___
ZPX0170 050952
FF SLLPZRZX
050954 SLLPYSYX
(FPL-BOV632-IS
-B733/M-SDFHIRW/S
-SLCB1055
-N0440F290 UW677
-SLVR0040 SLCB SLLP
-PBN/B3B4B5 RMK/RPL)
(FPL-BOV632-IS
-B733/M-SDFHIRW/S
-SLCB1055
-N0440F290 UW677
-SLVR0040 SLCB SLLP
-PBN/B3B4B5 RMK/RPL)
___A___
ZPX0171 050954
GG SLZZYMYT
050953 SLRBYGYS
SABO SLRB 051000
METAR SLRB 051000Z 00000KT 9999 BKN023 24/21 Q1012 A2988 HR88 RWY NML=
SABO SLRB 051000
METAR SLRB 051000Z 00000KT 9999 BKN023 24/21 Q1012 A2988 HR88 RWY NML=
___A___
ZPX0172 050954
GG SLZZYMYT
050954 SLSAYGYS
SABO SLSA 051000
METAR SLSA 051000Z 36008KT 8000 VCSH FEW005 BKN015 BKN070 24/24
Q1007 A2975 HR97 SH N/NW=
SABO SLSA 051000
METAR SLSA 051000Z 36008KT 8000 VCSH FEW005 BKN015 BKN070 24/24
Q1007 A2975 HR97 SH N/NW=
___A___
ZPX0173 050954
GG SLZZYMYT
050955 SLVRYGYZ
SABO SLVR 051000
METAR SLVR 051000Z VRB02KT 2000 TSRA BKN005 BKN015 FEW030CB OVC070 22
/22 Q1009 A2982 HR97 CB/TS N TEMPO 1000=
SABO SLVR 051000
METAR SLVR 051000Z VRB02KT 2000 TSRA BKN005 BKN015 FEW030CB OVC070 22
/22 Q1009 A2982 HR97 CB/TS N TEMPO 1000=
___A___
ZPX0174 050954
GG SLZZYMYT
050952 SLETYMYC
SABO SLET 051000
METAR SLET 051000Z 35004KT 4000 -RA SCT006 BKN010 FEW027CB 0VC070 23/
22 Q1009 A2981 HR96 CB W/NW NOSIG=
SABO SLET 051000
METAR SLET 051000Z 35004KT 4000 -RA SCT006 BKN010 FEW027CB 0VC070 23/
22 Q1009 A2981 HR96 CB W/NW NOSIG=
___A___
ZPX0175 050955
GG SLZZYMYT
050955 SLCAYGYS
SABO SLCA 051000
METAR SLCA 051000Z 00000KT 9999 SCT080 19/18 Q1013 A2991 HR94 RWY HUM
OPR=
SABO SLCA 051000
METAR SLCA 051000Z 00000KT 9999 SCT080 19/18 Q1013 A2991 HR94 RWY HUM
OPR=
___A___
ZPX0176 050955
GG SLZZYMYT
050955 SLTRYGYZ
SABO SLTR 051000
METAR SLTR 051000Z 03005KT 5000 -RA SCT005 OVC070 24/23 Q1008 A2977
989.6 HR97 TEMPO BKN005=
SABO SLTR 051000
METAR SLTR 051000Z 03005KT 5000 -RA SCT005 OVC070 24/23 Q1008 A2977
989.6 HR97 TEMPO BKN005=
___A___
ZPX0177 050956
GG SLZZYMYT
050955 SLUYYGYS
SABO SLUY 051000
METAR SLUY 051000Z 02004KT 9999 SCT017 03/M04 Q1031 A3045
656.3 HR60 AC/CI/CC=
SABO SLUY 051000
METAR SLUY 051000Z 02004KT 9999 SCT017 03/M04 Q1031 A3045
656.3 HR60 AC/CI/CC=
___A___
ZPX0178 050956
GG SLZZYMYT
050956 SLCOYGYZ
SABO SLCO 051000
METAR SLCO 051000Z 36008KT 9999 BKN005 OVC080 25/23 Q1008 A2977 980.7
HR93=
SABO SLCO 051000
METAR SLCO 051000Z 36008KT 9999 BKN005 OVC080 25/23 Q1008 A2977 980.7
HR93=
___A___
ZPX0179 050957
GG SLZZYMYT
050957 SLLPYGYZ
SABO SLLP 051000
METAR SLLP 051000Z 08003KT 4000E VCFG FEW004 BKN200 03/03
Q1033 A3052 624.9 HR95 P92// VCFG NE/E/SE AC NOSIG=
SABO SLLP 051000
METAR SLLP 051000Z 08003KT 4000E VCFG FEW004 BKN200 03/03
Q1033 A3052 624.9 HR95 P92// VCFG NE/E/SE AC NOSIG=
___A___
ZPX0180 050957
GG SLZZYMYT
050956 SLCBYGYZ
SABO SLCB 051000
METAR SLCB 051000Z 14008KT 8000 VCSH FEW013 BKN023 FEW027CB BKN070 15
/11 Q1021 A3017 748.8 HR79 CB N/NW SH/NW/N/NE TEMPO TS=
SABO SLCB 051000
METAR SLCB 051000Z 14008KT 8000 VCSH FEW013 BKN023 FEW027CB BKN070 15
/11 Q1021 A3017 748.8 HR79 CB N/NW SH/NW/N/NE TEMPO TS=
___A___
ZPX0181 050959
GG SLZZYMYT
051000 SLVRYFYC
SABO SLVR 051000
METAR SLVR 051000Z VRB02KT 2000 TSRA BKN005 BKN015 FEW030CB OVC070 22
/22 Q1009 A2982 HR97 CB/TS N TEMPO 1000=
METAR SLET 051000Z 35004KT 4000 -RA SCT006 BKN010 FEW027CB 0VC070 23/
22 Q1009 A2981 HR96 CB W/NW NOSIG=
METAR SLCP 051000Z 00000KT 9999 OVC006 21/21 Q1013 A2991 HR98 RWY NML
METAR SLSI 051000Z 00000KT 9999 SCT017 BKN070 23/22 Q1010 A2983 HR95
RWY WET OPR=
METAR SLRB 051000Z 00000KT 9999 BKN023 24/21 Q1012 A2988 HR88 RWY NML
METAR SLPS 051000Z 00000KT 9999 FEW012 SCT070 BKN200 24/24 Q1010
A2983 HR100=
METAR SLCA 051000Z 00000KT 9999 SCT080 19/18 Q1013 A2991 HR94 RWY HUM
OPR=
SABO SLVR 051000
METAR SLVR 051000Z VRB02KT 2000 TSRA BKN005 BKN015 FEW030CB OVC070 22
/22 Q1009 A2982 HR97 CB/TS N TEMPO 1000=
METAR SLET 051000Z 35004KT 4000 -RA SCT006 BKN010 FEW027CB 0VC070 23/
22 Q1009 A2981 HR96 CB W/NW NOSIG=
METAR SLCP 051000Z 00000KT 9999 OVC006 21/21 Q1013 A2991 HR98 RWY NML
METAR SLSI 051000Z 00000KT 9999 SCT017 BKN070 23/22 Q1010 A2983 HR95
RWY WET OPR=
METAR SLRB 051000Z 00000KT 9999 BKN023 24/21 Q1012 A2988 HR88 RWY NML
METAR SLPS 051000Z 00000KT 9999 FEW012 SCT070 BKN200 24/24 Q1010
A2983 HR100=
METAR SLCA 051000Z 00000KT 9999 SCT080 19/18 Q1013 A2991 HR94 RWY HUM
OPR=
___A___
ZPX0182 051000
CH LR PZX0000
CH LR PZX0000
___A___
ZPX0183 051000
GG SLZZYMYT
050958 SLSBYSYX
SABO SLSB 051000
METAR SLSB 051000Z 00000KT 2000 -TSRA BKN005 FEW020CB OVC070 24/24
Q1006 A2973 HR100 TS/CB ON STN S SW RWY WET INOP=
SABO SLSB 051000
METAR SLSB 051000Z 00000KT 2000 -TSRA BKN005 FEW020CB OVC070 24/24
Q1006 A2973 HR100 TS/CB ON STN S SW RWY WET INOP=
___A___
ZPX0184 051002
GG SLZZYMYT
051001 SLCBYGYS
SABO SLCB 051000
METAR SLCB 051000Z 14008KT 8000 VCSH FEW013 BKN023 FEW027CB BKN070 15
/11 Q1021 A3017 748.8 HR79 CB N/NW SH/NW/N/NE TEMPO TS=
METAR SLAL 051000Z 00000KT 7000 VCFG SCT010 BKN013 BKN070 10/09 Q1026
A3032 701.7 HR96 VCFG/N/NE/NW=
SABO SLCB 051000
METAR SLCB 051000Z 14008KT 8000 VCSH FEW013 BKN023 FEW027CB BKN070 15
/11 Q1021 A3017 748.8 HR79 CB N/NW SH/NW/N/NE TEMPO TS=
METAR SLAL 051000Z 00000KT 7000 VCFG SCT010 BKN013 BKN070 10/09 Q1026
A3032 701.7 HR96 VCFG/N/NE/NW=
___A___
ZPX0185 051003
GG SLLPYGZA
051003 SLLPYFYX
SVC MIS CH 1000 LR PZX0000
SVC MIS CH 1000 LR PZX0000
___A___
ZPX0186 051003
GG SLZZYMYT
050958 SLLPYFYA
SABO SLRY 051000
METAR SLRY 051000Z 32003KT 2000 -TSRA SCT005 BKN012 FEW023CB
OVC070 23/23 Q1004 A2966 HR100 CB/TS N/NE RWY WET INOP=
SABO SLRY 051000
METAR SLRY 051000Z 32003KT 2000 -TSRA SCT005 BKN012 FEW023CB
OVC070 23/23 Q1004 A2966 HR100 CB/TS N/NE RWY WET INOP=
___A___
ZPX0187 051003
GG SLZZYMYT
051000 SLTRYGYS
SABO SLTR 051000
METAR SLTR 051000Z 03005KT 5000 -RA SCT005 OVC070 24/23 Q1008 A2977
989.6 HR97 TEMPO BKN005=
METAR SLGM 051000Z 02004KT 7000 VCSH SCT005 BKN015 FEW020CB OVC070
24/23 Q1008 A2979 HR96 CB/SH NE/E/NW=
METAR SLRI 051000Z NIL=
METAR SLJO 051000Z 36006KT 7000 VCSH BKN010 FEW023CB OVC070 24/23
Q1006 A2973 HR97 CB/SH N/NE/E RWY HUM OPR=
METAR SLRA 051000Z 36004KT 9999 FEW020 OVC070 24/23 Q1007 A2976 HR96
RWY NML=
METAR SLMG 051000Z NIL=
METAR SLBU 051000Z NIL=
METAR SLSA 051000Z 36008KT 8000 VCSH FEW005 BKN015 BKN070 24/24 Q1007
A2975 HR97 SH N/NW=
METAR SLSR 051000Z 32006KT 7000 -RA SCT008 FEW020CB OVC070 23/23
Q1007 A2974 HR98 CB N/NW RWY WET OPR C206=
METAR SLSM 051000Z NIL=
SABO SLTR 051000
METAR SLTR 051000Z 03005KT 5000 -RA SCT005 OVC070 24/23 Q1008 A2977
989.6 HR97 TEMPO BKN005=
METAR SLGM 051000Z 02004KT 7000 VCSH SCT005 BKN015 FEW020CB OVC070
24/23 Q1008 A2979 HR96 CB/SH NE/E/NW=
METAR SLRI 051000Z NIL=
METAR SLJO 051000Z 36006KT 7000 VCSH BKN010 FEW023CB OVC070 24/23
Q1006 A2973 HR97 CB/SH N/NE/E RWY HUM OPR=
METAR SLRA 051000Z 36004KT 9999 FEW020 OVC070 24/23 Q1007 A2976 HR96
RWY NML=
METAR SLMG 051000Z NIL=
METAR SLBU 051000Z NIL=
METAR SLSA 051000Z 36008KT 8000 VCSH FEW005 BKN015 BKN070 24/24 Q1007
A2975 HR97 SH N/NW=
METAR SLSR 051000Z 32006KT 7000 -RA SCT008 FEW020CB OVC070 23/23
Q1007 A2974 HR98 CB N/NW RWY WET OPR C206=
METAR SLSM 051000Z NIL=
___A___
ZPX0188 051004
GG SLZZYMYT
051004 SLLPYFYA
SABO SLLP 051000
METAR SLLP 051000Z 08003KT 4000E VCFG FEW004 BKN200 03/03
Q1033 A3052 624.9 HR95 P92// VCFG NE/E/SE AC NOSIG=
METAR SLCO 051000Z 36008KT 9999 BKN005 OVC080 25/23 Q1008
A2977 980.7 HR93=
METAR SLRY 051000Z 32003KT 2000 -TSRA SCT005 BKN012 FEW023CB
OVC070 23/23 Q1004 A2966 HR100 CB/TS N/NE RWY WET INOP=
METAR SLRQ 051000Z 31004KT 4000 -RA BKN007 OVC070 23/23 Q1006
A2973 982.6 HR99=
METAR SLAP 051000Z 36010KT 9999 SCT015 OVC070 19/17 Q1013 A2992
854.4 HR89=
METAR SLSB 051000Z 00000KT 2000 -TSRA BKN005 FEW020CB OVC070 24/24
Q1006 A2973 HR100 TS/CB ON STN S SW RWY WET INOP=
METAR SLUY 051000Z 02004KT 9999 SCT017 03/M04 Q1031 A3045
656.3 HR60 AC/CI/CC=
SABO SLLP 051000
METAR SLLP 051000Z 08003KT 4000E VCFG FEW004 BKN200 03/03
Q1033 A3052 624.9 HR95 P92// VCFG NE/E/SE AC NOSIG=
METAR SLCO 051000Z 36008KT 9999 BKN005 OVC080 25/23 Q1008
A2977 980.7 HR93=
METAR SLRY 051000Z 32003KT 2000 -TSRA SCT005 BKN012 FEW023CB
OVC070 23/23 Q1004 A2966 HR100 CB/TS N/NE RWY WET INOP=
METAR SLRQ 051000Z 31004KT 4000 -RA BKN007 OVC070 23/23 Q1006
A2973 982.6 HR99=
METAR SLAP 051000Z 36010KT 9999 SCT015 OVC070 19/17 Q1013 A2992
854.4 HR89=
METAR SLSB 051000Z 00000KT 2000 -TSRA BKN005 FEW020CB OVC070 24/24
Q1006 A2973 HR100 TS/CB ON STN S SW RWY WET INOP=
METAR SLUY 051000Z 02004KT 9999 SCT017 03/M04 Q1031 A3045
656.3 HR60 AC/CI/CC=
___A___
ZPX0189 051006
GG SLZZYMYT
051005 SLTRYGYS
SABO SLTR 051000 RRA
METAR SLTR 051000Z 03005KT 5000 -RA SCT005 OVC070 24/23 Q1008 A2977
989.6 HR97 TEMPO BKN005=
METAR SLGM 051000Z 02004KT 7000 VCSH SCT005 BKN015 FEW020CB OVC070
24/23 Q1008 A2979 HR96 CB/SH NE/E/NW=
METAR SLRI 051000Z NIL=
METAR SLJO 051000Z 36006KT 7000 VCSH BKN010 FEW023CB OVC070 24/23
Q1006 A2973 HR97 CB/SH N/NE/E RWY HUM OPR=
METAR SLRA 051000Z 36004KT 9999 FEW020 OVC070 24/23 Q1007 A2976 HR96
RWY NML=
METAR RTD SLMG 051000Z 00000KT 9999 SCT020 OVC200 24/23 Q1008 A2978
HR97 RWY NML=
METAR SLBU 051000Z NIL=
METAR SLSA 051000Z 36008KT 8000 VCSH FEW005 BKN015 BKN070 24/24 Q1007
A2975 HR97 SH N/NW=
METAR SLSR 051000Z 32006KT 7000 -RA SCT008 FEW020CB OVC070 23/23
Q1007 A2974 HR98 CB N/NW RWY WET OPR C206=
METAR SLSM 051000Z NIL=
SABO SLTR 051000 RRA
METAR SLTR 051000Z 03005KT 5000 -RA SCT005 OVC070 24/23 Q1008 A2977
989.6 HR97 TEMPO BKN005=
METAR SLGM 051000Z 02004KT 7000 VCSH SCT005 BKN015 FEW020CB OVC070
24/23 Q1008 A2979 HR96 CB/SH NE/E/NW=
METAR SLRI 051000Z NIL=
METAR SLJO 051000Z 36006KT 7000 VCSH BKN010 FEW023CB OVC070 24/23
Q1006 A2973 HR97 CB/SH N/NE/E RWY HUM OPR=
METAR SLRA 051000Z 36004KT 9999 FEW020 OVC070 24/23 Q1007 A2976 HR96
RWY NML=
METAR RTD SLMG 051000Z 00000KT 9999 SCT020 OVC200 24/23 Q1008 A2978
HR97 RWY NML=
METAR SLBU 051000Z NIL=
METAR SLSA 051000Z 36008KT 8000 VCSH FEW005 BKN015 BKN070 24/24 Q1007
A2975 HR97 SH N/NW=
METAR SLSR 051000Z 32006KT 7000 -RA SCT008 FEW020CB OVC070 23/23
Q1007 A2974 HR98 CB N/NW RWY WET OPR C206=
METAR SLSM 051000Z NIL=
___A___
ZPX0190 051008
GG SLZZYMYT
051007 SLTRYGYS
SABO SLTR 051000 RRB
METAR SLTR 051000Z 03005KT 5000 -RA SCT005 OVC070 24/23 Q1008 A2977
989.6 HR97 TEMPO BKN005=
METAR SLGM 051000Z 02004KT 7000 VCSH SCT005 BKN015 FEW020CB OVC070
24/23 Q1008 A2979 HR96 CB/SH NE/E/NW=
METAR SLRI 051000Z NIL=
METAR SLJO 051000Z 36006KT 7000 VCSH BKN010 FEW023CB OVC070 24/23
Q1006 A2973 HR97 CB/SH N/NE/E RWY HUM OPR=
METAR SLRA 051000Z 36004KT 9999 FEW020 OVC070 24/23 Q1007 A2976 HR96
RWY NML=
METAR SLMG 051000Z 00000KT 9999 SCT020 OVC200 24/23 Q1008 A2978 HR97
RWY NML=
METAR SLBU 051000Z NIL=
METAR SLSA 051000Z 36008KT 8000 VCSH FEW005 BKN015 BKN070 24/24 Q1007
A2975 HR97 SH N/NW=
METAR SLSR 051000Z 32006KT 7000 -RA SCT008 FEW020CB OVC070 23/23
Q1007 A2974 HR98 CB N/NW RWY WET OPR C206=
METAR RTD SLSM 051000Z 00000KT 8000 -RA BKN017 OVC070 23/23 Q1007
A2975 HR100 RWY WET INOP=
SABO SLTR 051000 RRB
METAR SLTR 051000Z 03005KT 5000 -RA SCT005 OVC070 24/23 Q1008 A2977
989.6 HR97 TEMPO BKN005=
METAR SLGM 051000Z 02004KT 7000 VCSH SCT005 BKN015 FEW020CB OVC070
24/23 Q1008 A2979 HR96 CB/SH NE/E/NW=
METAR SLRI 051000Z NIL=
METAR SLJO 051000Z 36006KT 7000 VCSH BKN010 FEW023CB OVC070 24/23
Q1006 A2973 HR97 CB/SH N/NE/E RWY HUM OPR=
METAR SLRA 051000Z 36004KT 9999 FEW020 OVC070 24/23 Q1007 A2976 HR96
RWY NML=
METAR SLMG 051000Z 00000KT 9999 SCT020 OVC200 24/23 Q1008 A2978 HR97
RWY NML=
METAR SLBU 051000Z NIL=
METAR SLSA 051000Z 36008KT 8000 VCSH FEW005 BKN015 BKN070 24/24 Q1007
A2975 HR97 SH N/NW=
METAR SLSR 051000Z 32006KT 7000 -RA SCT008 FEW020CB OVC070 23/23
Q1007 A2974 HR98 CB N/NW RWY WET OPR C206=
METAR RTD SLSM 051000Z 00000KT 8000 -RA BKN017 OVC070 23/23 Q1007
A2975 HR100 RWY WET INOP=
___A___
ZPX0191 051008
FF SLZZYMYT
051010 SLLPYMYX
WSBO31 SLLP 051010
SLLF SIGMET 3 VALID 051010/051410 SLLP-
SLLF LA PAZ FIR EMBD TS OBS AND FCST AT 1000Z WI S1305 W06857 -
S1252 W06836 - S1255 W06735 - S1313 W06642 -
S1521 W06436 - S1732 W06249 - S1826 W06326 -
S1649 W06608 - S1516 W06711 - S1412 W06811 -
S1425 W06828 - S1354 W06902 - S1341 W06900 -
S1307 W06857 -
TOP FL390 MOV NW 06KT NC=
WSBO31 SLLP 051010
SLLF SIGMET 3 VALID 051010/051410 SLLP-
SLLF LA PAZ FIR EMBD TS OBS AND FCST AT 1000Z WI S1305 W06857 -
S1252 W06836 - S1255 W06735 - S1313 W06642 -
S1521 W06436 - S1732 W06249 - S1826 W06326 -
S1649 W06608 - S1516 W06711 - S1412 W06811 -
S1425 W06828 - S1354 W06902 - S1341 W06900 -
S1307 W06857 -
TOP FL390 MOV NW 06KT NC=
___A___
ZPX0192 051014
GG SLZZYMYT
051014 SLVRYGYZ
SPBO SLVR 051013
SPECI SLVR 051013Z VRB02KT 0900 +TSRA BKN005 BKN015 FEW030CB OVC070
22/22 Q1009 A2982 HR97 CB/TS N/NW TEMPO 2000=
SPBO SLVR 051013
SPECI SLVR 051013Z VRB02KT 0900 +TSRA BKN005 BKN015 FEW030CB OVC070
22/22 Q1009 A2982 HR97 CB/TS N/NW TEMPO 2000=
1114
___A___
ZPX0193 051014
GG SLZZYMYT
051015 SLLPYMYX
FABO SLLP 051015
ARFOR VALIDO 051200/061200
SITUACION SINOPTICA: LINEA DE INESTABILIDAD GENERA SISTEMA
CONVECTIVO N LA PAZ AND N CHAPARE. VAGUADA LVL MEDIO ALTIPLANO
AND CORDILLLERA ORIENTAL. MASA DE AIRE HUMEDA INESTABLE RESTO DEL
TERRITORIO NTL. DEPRESION S DEL PAIS. LLJ 340DG 030KT LLANOS
ORIENTALES.
WINTEM PROB FL390 FL340 FL300 FL240 FL180
ALTIPLANO/CORDILLERA 31020M52 29020M40 26015M30 28015M14 28005M05
BENI/NORTE DEL PAIS 18015M52 19015M40 19010M30 01005M15 34010M05
LLANOS ORIENTALES 30020M52 29020M40 30025M30 30005M16 32010M04
TIERRAS BAJAS DEL SUR 30025M52 30030M39 30025M29 27015M17 20010M05
PRONOSTICO GENERAL:
ALTIPLANO/CORDILLERA ORIENTAL: SCT AC/AS 2100 DEBAJO FEW/SCT
CU/SC 500 TEMPO ISOL CB/SHRA OCNL TS.
BENI/NORTE DEL PAIS: BKN/SCT AC/AC 2100 DEBAJO FEW/SCT CU/SC 500
TEMPO ISOL CB/SHRA OCNL TS.
LLANOS ORIENTALES: SCT/BKN AC/AS 2100 DEBAJO SCT/BKN CU/SC 500 TEMPO
ISOL CB/SHRA OCNL TS.
TIERRAS BAJAS DEL S: BKN/SCT AC/AS 2100 DEBAJO BKN/SCT CU/SC 500
TEMPO CB/SHRA OCNL TS=
FABO SLLP 051015
ARFOR VALIDO 051200/061200
SITUACION SINOPTICA: LINEA DE INESTABILIDAD GENERA SISTEMA
CONVECTIVO N LA PAZ AND N CHAPARE. VAGUADA LVL MEDIO ALTIPLANO
AND CORDILLLERA ORIENTAL. MASA DE AIRE HUMEDA INESTABLE RESTO DEL
TERRITORIO NTL. DEPRESION S DEL PAIS. LLJ 340DG 030KT LLANOS
ORIENTALES.
WINTEM PROB FL390 FL340 FL300 FL240 FL180
ALTIPLANO/CORDILLERA 31020M52 29020M40 26015M30 28015M14 28005M05
BENI/NORTE DEL PAIS 18015M52 19015M40 19010M30 01005M15 34010M05
LLANOS ORIENTALES 30020M52 29020M40 30025M30 30005M16 32010M04
TIERRAS BAJAS DEL SUR 30025M52 30030M39 30025M29 27015M17 20010M05
PRONOSTICO GENERAL:
ALTIPLANO/CORDILLERA ORIENTAL: SCT AC/AS 2100 DEBAJO FEW/SCT
CU/SC 500 TEMPO ISOL CB/SHRA OCNL TS.
BENI/NORTE DEL PAIS: BKN/SCT AC/AC 2100 DEBAJO FEW/SCT CU/SC 500
TEMPO ISOL CB/SHRA OCNL TS.
LLANOS ORIENTALES: SCT/BKN AC/AS 2100 DEBAJO SCT/BKN CU/SC 500 TEMPO
ISOL CB/SHRA OCNL TS.
TIERRAS BAJAS DEL S: BKN/SCT AC/AS 2100 DEBAJO BKN/SCT CU/SC 500
TEMPO CB/SHRA OCNL TS=
___A___
ZPX0194 051016
GG SLZZYMYT
051015 SLCBYGYS
SABO SLCB 051000 RRA
METAR SLCB 051000Z 14008KT 8000 VCSH FEW013 BKN023 FEW027CB BKN070 15
/11 Q1021 A3017 748.8 HR79 CB N/NW SH/NW/N/NE TEMPO TS=
METAR SLAL 051000Z 00000KT 7000 VCFG SCT010 BKN013 BKN070 10/09 Q1026
A3032 701.7 HR96 VCFG/N/NE/NW=
METAR RTD SLVM 051000Z 00000KT 9999 NSC 20/19 Q1008 A2978 HR97 FU CI=
SABO SLCB 051000 RRA
METAR SLCB 051000Z 14008KT 8000 VCSH FEW013 BKN023 FEW027CB BKN070 15
/11 Q1021 A3017 748.8 HR79 CB N/NW SH/NW/N/NE TEMPO TS=
METAR SLAL 051000Z 00000KT 7000 VCFG SCT010 BKN013 BKN070 10/09 Q1026
A3032 701.7 HR96 VCFG/N/NE/NW=
METAR RTD SLVM 051000Z 00000KT 9999 NSC 20/19 Q1008 A2978 HR97 FU CI=
___A___
ZPX0195 051017
FF SLLPZRZX
051016 SLCBYSYX
(DEP-BOV600/A1767-SLCB1014-SLLP-REG/CP3138)
(DEP-BOV600/A1767-SLCB1014-SLLP-REG/CP3138)
___A___
ZPX0196 051020
CH LR PZX0000
CH LR PZX0000
___A___
ZPX0197 051022
FF SLLPZRZX
051022 SLCBYSYX
(DEP-BOV630/A1760-SLCB1021-SLVR-REG/CP3020)
(DEP-BOV630/A1760-SLCB1021-SLVR-REG/CP3020)
___A___
ZPX0198 051023
GG SLLPYGZA
051023 SLLPYFYX
SVC MIS CH 1020 LR PZX0000
SVC MIS CH 1020 LR PZX0000
___A___
ZPX0199 051038
FF SLLPZRZX
051039 SLLPYSYX
(FPL-BOV570-IS
-B733/M-SDFHIRW/S
-SLCB1140
-N0440F250 UW22
-SLAL0030 SLCB SLVR
-PBN/B3B4B5 RMK/RPL)
(FPL-BOV570-IS
-B733/M-SDFHIRW/S
-SLCB1140
-N0440F250 UW22
-SLAL0030 SLCB SLVR
-PBN/B3B4B5 RMK/RPL)
___A___
ZPX0200 051040
CH LR PZX0000
CH LR PZX0000
___A___
ZPX0201 051040
FF SLLPZRZX
051034 SLCBZPZX
(FPL-ECO305-IS
-RJ85/M-SDGIR/S
-SLCB1720
-N0360F270 PUNAV2 PUNAV UW12 TRI/N0360F260 DCT
-SLGM0120 SLCB SLTR
-PBN/B1 REG/CP2814)
(FPL-ECO305-IS
-RJ85/M-SDGIR/S
-SLCB1720
-N0360F270 PUNAV2 PUNAV UW12 TRI/N0360F260 DCT
-SLGM0120 SLCB SLTR
-PBN/B1 REG/CP2814)
___A___
ZPX0202 051042
FF SLLPZRZX
051044 SLLPYSYX
(FPL-BOV633-IS
-B733/M-SDFHIRW/S
-SLVR1145
-N0440F280 UT712
-SLCB0045 SLVR SLLP
-PBN/B3B4B5 RMK/RPL)
(FPL-BOV633-IS
-B733/M-SDFHIRW/S
-SLVR1145
-N0440F280 UT712
-SLCB0045 SLVR SLLP
-PBN/B3B4B5 RMK/RPL)
___A___
ZPX0203 051043
GG SLLPYGZA
051043 SLLPYFYX
SVC MIS CH 1040 LR PZX0000
SVC MIS CH 1040 LR PZX0000
___A___
ZPX0204 051045
FF SLLPZRZX
051041 SLVRZPZX
(FPL-ECO304-IS
-RJ85/M-SDGRI/S
-SLVR1200
-N0360F260 VIR UN420 TRI
-SLTR0045 SLVR SLCB
-PBN/B1 REG/CP2814 OPR/ECOJET)
(FPL-ECO304-IS
-RJ85/M-SDGRI/S
-SLVR1200
-N0360F260 VIR UN420 TRI
-SLTR0045 SLVR SLCB
-PBN/B1 REG/CP2814 OPR/ECOJET)
___A___
ZPX0205 051046
GG SLLPZRZX
051045 SLCBZPZX
AD/SLCB 05/JAN/21 BTN HR 1050 TO 1400 TWY A CLSD
AD/SLCB 05/JAN/21 BTN HR 1050 TO 1400 TWY A CLSD
___A___
ZPX0206 051050
GG SLZZYNYX
051048 SLLPYNYX
(C0011/21 NOTAMN
Q) SLLF/QMXLC/IV/NBO/A/000/999/1725S06610W005
A) SLCB B) 2101051050 C) 2101051400
E) TWY A CLSD)
(C0011/21 NOTAMN
Q) SLLF/QMXLC/IV/NBO/A/000/999/1725S06610W005
A) SLCB B) 2101051050 C) 2101051400
E) TWY A CLSD)
___A___
ZPX0207 051050
GG SLLPZRZX
051048 SLLPYNYX
(A0002/21 NOTAMN
Q) SLLF/QMXLC/IV/NBO/A/000/999/1725S06610W005
A) SLCB B) 2101051050 C) 2101051400
E) TWY A CLSD)
(A0002/21 NOTAMN
Q) SLLF/QMXLC/IV/NBO/A/000/999/1725S06610W005
A) SLCB B) 2101051050 C) 2101051400
E) TWY A CLSD)
___A___
ZPX0208 051052
GG SLZZYMYT
051051 SLPSYGYS
SABO SLPS 051100
METAR SLPS 051100Z 00000KT 9999 SCT010 BKN070 BKN200 24/24 Q1011
A2986 HR100=
SABO SLPS 051100
METAR SLPS 051100Z 00000KT 9999 SCT010 BKN070 BKN200 24/24 Q1011
A2986 HR100=
___A___
ZPX0209 051053
FF SLLPZRZX
051052 SLCBYSYX
(DEP-BOV632/A1762-SLCB1049-SLVR-REG/CP3019)
(DEP-BOV632/A1762-SLCB1049-SLVR-REG/CP3019)
___A___
ZPX0210 051053
GG SLZZYMYT
051054 SLVRYGYZ
SABO SLVR 051100
METAR SLVR 051100Z 34009KT 1800 TSRA BKN005 BKN015 FEW030CB OVC070 22
/21 Q1010 A2984 HR98 CB/TS/LT ON STN/N/S/NW BECMG 3000=
SABO SLVR 051100
METAR SLVR 051100Z 34009KT 1800 TSRA BKN005 BKN015 FEW030CB OVC070 22
/21 Q1010 A2984 HR98 CB/TS/LT ON STN/N/S/NW BECMG 3000=
___A___
ZPX0211 051053
FF SLLPZRZX
051055 SLLPYSYX
(FPL-BOV603-IS
-B737/M-SDFGHIRW/S
-SLLP1155
-N0440F270 UW677
-SLCB0030 SLVR SLLP
-PBN/B1C1D1S1 RMK/RPL)
(FPL-BOV603-IS
-B737/M-SDFGHIRW/S
-SLLP1155
-N0440F270 UW677
-SLCB0030 SLVR SLLP
-PBN/B1C1D1S1 RMK/RPL)
___A___
ZPX0212 051053
GG SLZZYMYT
050953 SLETYMYC
SABO SLET 051100
METAR SLET 051100Z 36004KT 3000 -TSRA SCT006 BKN010 FEW027CB OVC070
23/22 Q1010 A2984 HR97 CB TS W/NW NOSIG=
SABO SLET 051100
METAR SLET 051100Z 36004KT 3000 -TSRA SCT006 BKN010 FEW027CB OVC070
23/22 Q1010 A2984 HR97 CB TS W/NW NOSIG=
___A___
ZPX0213 051054
GG SLZZYMYT
051054 SLCAYGYS
SABO SLCA 051100
METAR SLCA 051100Z 00000KT 9999 BKN080 19/18 Q1013 A2991 HR94 RWY HUM
OPR=
SABO SLCA 051100
METAR SLCA 051100Z 00000KT 9999 BKN080 19/18 Q1013 A2991 HR94 RWY HUM
OPR=
___A___
ZPX0214 051054
FF SLLPZRZX
051049 SGASZQZZ
(DEP-LPE2374-SGAS1047-SPJC-0)
(DEP-LPE2374-SGAS1047-SPJC-0)
___A___
ZPX0215 051054
GG SLZZYMYT
051053 SLRBYGYS
SABO SLRB 051100
METAR SLRB 051100Z 36010KT 9999 BKN023 24/21 Q1012 A2988 HR85 RWY NML=
SABO SLRB 051100
METAR SLRB 051100Z 36010KT 9999 BKN023 24/21 Q1012 A2988 HR85 RWY NML=
___A___
ZPX0216 051054
GG SLZZYMYT
051054 SLSBYSYX
SABO SLSB 051100
METAR SLSB 051100Z 29006KT 2000 -RA BKN005 OVC070 23/23 Q1004 A2967
HR100 RETS RWY WET INOP=
SABO SLSB 051100
METAR SLSB 051100Z 29006KT 2000 -RA BKN005 OVC070 23/23 Q1004 A2967
HR100 RETS RWY WET INOP=
___A___
ZPX0217 051055
GG SLZZYMYT
051055 SLTRYGYZ
SABO SLTR 051100
METAR SLTR 051100Z 02005KT 9999 -RA BKN005 OVC070 24/23 Q1009 A2980
990.7 HR97 NOSIG=
SABO SLTR 051100
METAR SLTR 051100Z 02005KT 9999 -RA BKN005 OVC070 24/23 Q1009 A2980
990.7 HR97 NOSIG=
___A___
ZPX0218 051055
GG SLZZYMYT
051048 SLUYYGYS
SABO SLUY 051100
METAR SLUY 051100Z 03004KT 9999 FEW017 05/M04 Q1031 A3046
656.6 HR51 AC=
SABO SLUY 051100
METAR SLUY 051100Z 03004KT 9999 FEW017 05/M04 Q1031 A3046
656.6 HR51 AC=
___A___
ZPX0219 051055
GG SLZZYMYT
051055 SLCOYGYZ
SABO SLCO 051100
METAR SLCO 051100Z 36005KT 9999 BKN005 BKN080 25/24 Q1009 A2979 981.6
HR94=
SABO SLCO 051100
METAR SLCO 051100Z 36005KT 9999 BKN005 BKN080 25/24 Q1009 A2979 981.6
HR94=
___A___
ZPX0220 051055
GG SLZZYMYT
051055 SLORYGYZ
SABO SLOR 051100
METAR SLOR 051100Z 00000KT 9999 FEW070 SCT200 03/M01 Q1032 A3048 653.
9 HR71=
SABO SLOR 051100
METAR SLOR 051100Z 00000KT 9999 FEW070 SCT200 03/M01 Q1032 A3048 653.
9 HR71=
___A___
ZPX0221 051055
GG SLZZYMYT
051057 SLLPYGYZ
SABO SLLP 051100
METAR SLLP 051100Z 07004KT 4000E VCFG FEW004 BKN200 06/05
Q1034 A3054 625.3 HR95 P92// VCFG NE/E/SE AC NOSIG=
SABO SLLP 051100
METAR SLLP 051100Z 07004KT 4000E VCFG FEW004 BKN200 06/05
Q1034 A3054 625.3 HR95 P92// VCFG NE/E/SE AC NOSIG=
___A___
ZPX0222 051056
GG SLZZYMYT
051055 SLTJYGYZ
SABO SLTJ 051100
METAR SLTJ 051100Z 00000KT 9999 BKN070 BKN200 17/15 Q1018 A3007 813.4
HR83=
SABO SLTJ 051100
METAR SLTJ 051100Z 00000KT 9999 BKN070 BKN200 17/15 Q1018 A3007 813.4
HR83=
___A___
ZPX0223 051056
GG SLZZYMYT
051055 SLSAYGYS
SABO SLSA 051100
METAR SLSA 051100Z 36008KT 8000 VCSH FEW005 BKN015 BKN070 24/24
Q1008 A2977 HR96 SH N/NW=
SABO SLSA 051100
METAR SLSA 051100Z 36008KT 8000 VCSH FEW005 BKN015 BKN070 24/24
Q1008 A2977 HR96 SH N/NW=
___A___
ZPX0224 051056
GG SLZZYMYT
051056 SLCBYGYZ
SABO SLCB 051100
METAR SLCB 051100Z 15004KT 7000 VCSH FEW012 BKN020 FEW030CB BKN070 15
/11 Q1023 A3022 750.1 HR78 CB/NW SH W/NW/N/NE NOSIG=
SABO SLCB 051100
METAR SLCB 051100Z 15004KT 7000 VCSH FEW012 BKN020 FEW030CB BKN070 15
/11 Q1023 A3022 750.1 HR78 CB/NW SH W/NW/N/NE NOSIG=
___A___
ZPX0225 051058
FF SLLPZRZX
051058 SLLPYSYX
(FPL-BOV604-IS
-B737/M-SDFGHIRW/S
-SLCB1155
-N0440F280 UW677
-SLLP0030 SLCB SLVR
-PBN/B1C1D1S1 RMK/RPL)
(FPL-BOV604-IS
-B737/M-SDFGHIRW/S
-SLCB1155
-N0440F280 UW677
-SLLP0030 SLCB SLVR
-PBN/B1C1D1S1 RMK/RPL)
1127
___A___
ZPX0226 051058
GG SLZZYMYT
051059 SLVRYFYC
SABO SLVR 051100
METAR SLVR 051100Z 34009KT 1800 TSRA BKN005 BKN015 FEW030CB OVC070 22
/21 Q1010 A2984 HR98 CB/TS/LT ON STN/N/S/NW BECMG 3000=
METAR SLET 051100Z 36004KT 3000 -TSRA SCT006 BKN010 FEW027CB OVC070
23/22 Q1010 A2984 HR97 CB TS W/NW NOSIG=
METAR SLAS 051100Z 00000KT 8000 VCSH BKN015 FEW030CB OVC200 23/22
Q1012 A2989 HR92 CB/SH/NW/N RWY HUM OPR=
METAR SLJV 051100Z 36005KT 9999 BKN070 21/21 Q1010 A2983 HR97 RWY WET
OPR=
METAR SLCP 051100Z 00000KT 9999 BKN008 BKN070 22/21 Q1013 A2991 HR96
RWY NML=
METAR SLSI 051100Z 00000KT 9999 BKN070 23/22 Q1010 A2983 HR 92 RWY
WET OPR=
METAR SLTI 051100Z 00000KT 9999 BKN070 24/23 Q1015 A2997 HR93 RWY NML
METAR SLJE 051100Z 00000KT 9999 OVC008 23/22 Q1013 A2991 HR93 RWY HUM
OPR=
METAR SLVG 051100Z 00000KT 9999 SCT015 OVC070 14/14 Q1021 A3015 HR99
RWY HUM OPR=
METAR SLRB 051100Z 36010KT 9999 BKN023 24/21 Q1012 A2988 HR85 RWY NML
METAR SLPS 051100Z 00000KT 9999 SCT010 BKN070 BKN200 24/24 Q1011
A2986 HR100=
METAR SLCA 051100Z 00000KT 9999 BKN080 19/18 Q1013 A2991 HR94 RWY HUM
OPR=
SABO SLVR 051100
METAR SLVR 051100Z 34009KT 1800 TSRA BKN005 BKN015 FEW030CB OVC070 22
/21 Q1010 A2984 HR98 CB/TS/LT ON STN/N/S/NW BECMG 3000=
METAR SLET 051100Z 36004KT 3000 -TSRA SCT006 BKN010 FEW027CB OVC070
23/22 Q1010 A2984 HR97 CB TS W/NW NOSIG=
METAR SLAS 051100Z 00000KT 8000 VCSH BKN015 FEW030CB OVC200 23/22
Q1012 A2989 HR92 CB/SH/NW/N RWY HUM OPR=
METAR SLJV 051100Z 36005KT 9999 BKN070 21/21 Q1010 A2983 HR97 RWY WET
OPR=
METAR SLCP 051100Z 00000KT 9999 BKN008 BKN070 22/21 Q1013 A2991 HR96
RWY NML=
METAR SLSI 051100Z 00000KT 9999 BKN070 23/22 Q1010 A2983 HR 92 RWY
WET OPR=
METAR SLTI 051100Z 00000KT 9999 BKN070 24/23 Q1015 A2997 HR93 RWY NML
METAR SLJE 051100Z 00000KT 9999 OVC008 23/22 Q1013 A2991 HR93 RWY HUM
OPR=
METAR SLVG 051100Z 00000KT 9999 SCT015 OVC070 14/14 Q1021 A3015 HR99
RWY HUM OPR=
METAR SLRB 051100Z 36010KT 9999 BKN023 24/21 Q1012 A2988 HR85 RWY NML
METAR SLPS 051100Z 00000KT 9999 SCT010 BKN070 BKN200 24/24 Q1011
A2986 HR100=
METAR SLCA 051100Z 00000KT 9999 BKN080 19/18 Q1013 A2991 HR94 RWY HUM
OPR=
___A___
ZPX0227 051059
GG SLZZYMYT
051059 SLLPYFYA
SABO SLRY 051100
METAR SLRY 051100Z 36003KT 2000 -RA BKN005 BKN012 OVC200 23/23 Q1005
A2968 HR100 RETS RWY WET INOP=
SABO SLRY 051100
METAR SLRY 051100Z 36003KT 2000 -RA BKN005 BKN012 OVC200 23/23 Q1005
A2968 HR100 RETS RWY WET INOP=
___A___
ZPX0228 051100
CH LR PZX0000
CH LR PZX0000
___A___
ZPX0229 051100
GG SLZZYMYT
051100 SLTRYGYS
SABO SLTR 051100
METAR SLTR 051100Z 02005KT 9999 -RA BKN005 OVC070 24/23 Q1009 A2980
990.7 HR97 NOSIG=
METAR SLGM 051100Z 02008KT 9999 FEW005 SCT015 FEW020CB BKN080 24/23
Q1010 A2982 HR92 CB N/NW=
METAR SLRI 051100Z NIL=
METAR SLJO 051100Z 36006KT 5000 -RA BKN010 FEW023CB BKN080 23/23
Q1007 A2974 HR98 CB N/E/SE RWY WET OPR C206=
METAR SLRA 051100Z 36004KT 7000 VCSH SCT008 FEW023CB OVC070 24/23
Q1008 A2977 HR96 CB/SH NE/E RWY NML=
METAR SLMG 051100Z 00000KT 8000 -RA SCT020 OVC070 23/23 Q1009 A2980
HR98 RWY HUM OPR=
METAR SLBU 051100Z NIL=
METAR SLSA 051100Z 36008KT 8000 VCSH FEW005 BKN015 BKN070 24/24
Q1008 A2977 HR96 SH N/NW=
METAR SLSR 051100Z 32006KT 7000 -RA SCT008 FEW020CB OVC070 23/23
Q1007 A2974 HR98 CB N/NW RWY OPR C206=
METAR SLSM 051100Z 00000KT 8000 -RA BKN017 OVC070 24/24 Q1008 A2977
HR100 RWY WET INOP=
SABO SLTR 051100
METAR SLTR 051100Z 02005KT 9999 -RA BKN005 OVC070 24/23 Q1009 A2980
990.7 HR97 NOSIG=
METAR SLGM 051100Z 02008KT 9999 FEW005 SCT015 FEW020CB BKN080 24/23
Q1010 A2982 HR92 CB N/NW=
METAR SLRI 051100Z NIL=
METAR SLJO 051100Z 36006KT 5000 -RA BKN010 FEW023CB BKN080 23/23
Q1007 A2974 HR98 CB N/E/SE RWY WET OPR C206=
METAR SLRA 051100Z 36004KT 7000 VCSH SCT008 FEW023CB OVC070 24/23
Q1008 A2977 HR96 CB/SH NE/E RWY NML=
METAR SLMG 051100Z 00000KT 8000 -RA SCT020 OVC070 23/23 Q1009 A2980
HR98 RWY HUM OPR=
METAR SLBU 051100Z NIL=
METAR SLSA 051100Z 36008KT 8000 VCSH FEW005 BKN015 BKN070 24/24
Q1008 A2977 HR96 SH N/NW=
METAR SLSR 051100Z 32006KT 7000 -RA SCT008 FEW020CB OVC070 23/23
Q1007 A2974 HR98 CB N/NW RWY OPR C206=
METAR SLSM 051100Z 00000KT 8000 -RA BKN017 OVC070 24/24 Q1008 A2977
HR100 RWY WET INOP=
___A___
ZPX0230 051101
FF SLLPZRZX
051100 SLVRZPZX
(CNL-ECO304-SLVR1200-SLTR)
(CNL-ECO304-SLVR1200-SLTR)
___A___
ZPX0231 051101
GG SLZZYMYT
051100 SLCBYGYS
SABO SLCB 051100
METAR SLCB 051100Z 15004KT 7000 VCSH FEW012 BKN020 FEW030CB BKN070
15/11 Q1023 A3022 750.1 HR78 CB/NW SH W/NW/N/NE NOSIG=
METAR SLAL 051100Z 35003KT 7000 VCFG FEW005 BKN013 OVC070 10/09 Q1027
A3034 702.4 HR94 VCFG/N/NE/NW ST BAJOS/S/SW=
METAR SLPO 051100Z 00000KT 9999 FEW013 07/05 Q1034 A3053 635.3 HR91=
METAR SLYA 051100Z 00000KT 9999 NSC 23/22 Q1009 A2982 934.8 HR92 CI=
METAR SLVM 051100Z 00000KT 9999 NSC 22/21 Q1008 A2979 HR90 FU CI=
METAR SLTJ 051100Z 00000KT 9999 BKN070 BKN200 17/15 Q1018 A3007 813.4
HR83=
SABO SLCB 051100
METAR SLCB 051100Z 15004KT 7000 VCSH FEW012 BKN020 FEW030CB BKN070
15/11 Q1023 A3022 750.1 HR78 CB/NW SH W/NW/N/NE NOSIG=
METAR SLAL 051100Z 35003KT 7000 VCFG FEW005 BKN013 OVC070 10/09 Q1027
A3034 702.4 HR94 VCFG/N/NE/NW ST BAJOS/S/SW=
METAR SLPO 051100Z 00000KT 9999 FEW013 07/05 Q1034 A3053 635.3 HR91=
METAR SLYA 051100Z 00000KT 9999 NSC 23/22 Q1009 A2982 934.8 HR92 CI=
METAR SLVM 051100Z 00000KT 9999 NSC 22/21 Q1008 A2979 HR90 FU CI=
METAR SLTJ 051100Z 00000KT 9999 BKN070 BKN200 17/15 Q1018 A3007 813.4
HR83=
___A___
ZPX0232 051101
FF SLLPZRZX
051057 SGASZQZZ
(DEP-AVA214-SGAS1100-SKBO-0)
(DEP-AVA214-SGAS1100-SKBO-0)
___A___
ZPX0233 051102
FF SLLPZRZX
051103 SLLPYSYX
(FPL-BOV663-IS
-B737/M-SDFGHIRW/S
-SLVR1205
-N0440F380 UW29
-SLLP0100 SLCB SLVR
-PBN/B1C1D1S1 RMK/RPL)
(FPL-BOV663-IS
-B737/M-SDFGHIRW/S
-SLVR1205
-N0440F380 UW29
-SLLP0100 SLCB SLVR
-PBN/B1C1D1S1 RMK/RPL)
___A___
ZPX0234 051102
FF SLLPZRZX
051102 SLLPYSYX
(FPL-BOV320-IS
-CRJ2/M-SDFGIRW/S
-SLCB1205
-N0350F220 T714
-SLOR0030 SLVR SLLP SLAL
-PBN/B1C1D1S1 RMK/RPL)
(FPL-BOV320-IS
-CRJ2/M-SDFGIRW/S
-SLCB1205
-N0350F220 T714
-SLOR0030 SLVR SLLP SLAL
-PBN/B1C1D1S1 RMK/RPL)
___A___
ZPX0235 051102
GG SLZZYMYT
051102 SLLPYFYA
SABO SLLP 051100
METAR SLLP 051100Z 07004KT 4000E VCFG FEW004 BKN200 06/05
Q1034 A3054 625.3 HR95 P92// VCFG NE/E/SE AC NOSIG=
METAR SLCO 051100Z 36005KT 9999 BKN005 BKN080 25/24 Q1009 A2979
981.6 HR94=
METAR SLRY 051100Z 36003KT 2000 -RA BKN005 BKN012 OVC200 23/23
Q1005 A2968 HR100 RETS RWY WET INOP=
METAR SLRQ 051100Z 00000KT 3000 -RA BKN005 OVC070 23/23 Q1007 A2975
983.4 HR99=
METAR SLAP 051100Z 36005KT 7000 VCSH SCT015 BKN070 19/18 Q1013
A2994 855.0 HR92 SH N/NE/E/NW=
METAR SLSB 051100Z 29006KT 2000 -RA BKN005 OVC070 23/23 Q1004 A2967
HR100 RETS RWY WET INOP=
METAR SLOR 051100Z 00000KT 9999 FEW070 SCT200 03/M01 Q1032 A3048
653.9 HR71=
METAR SLUY 051100Z 03004KT 9999 FEW017 05/M04 Q1031 A3046
656.6 HR51 AC=
SABO SLLP 051100
METAR SLLP 051100Z 07004KT 4000E VCFG FEW004 BKN200 06/05
Q1034 A3054 625.3 HR95 P92// VCFG NE/E/SE AC NOSIG=
METAR SLCO 051100Z 36005KT 9999 BKN005 BKN080 25/24 Q1009 A2979
981.6 HR94=
METAR SLRY 051100Z 36003KT 2000 -RA BKN005 BKN012 OVC200 23/23
Q1005 A2968 HR100 RETS RWY WET INOP=
METAR SLRQ 051100Z 00000KT 3000 -RA BKN005 OVC070 23/23 Q1007 A2975
983.4 HR99=
METAR SLAP 051100Z 36005KT 7000 VCSH SCT015 BKN070 19/18 Q1013
A2994 855.0 HR92 SH N/NE/E/NW=
METAR SLSB 051100Z 29006KT 2000 -RA BKN005 OVC070 23/23 Q1004 A2967
HR100 RETS RWY WET INOP=
METAR SLOR 051100Z 00000KT 9999 FEW070 SCT200 03/M01 Q1032 A3048
653.9 HR71=
METAR SLUY 051100Z 03004KT 9999 FEW017 05/M04 Q1031 A3046
656.6 HR51 AC=
___A___
ZPX0236 051103
GG SLLPYGZA
051103 SLLPYFYX
SVC MIS CH 1100 LR PZX0000
SVC MIS CH 1100 LR PZX0000
___A___
ZPX0237 051106
FF SLLPZRZX
051106 SLLPYSYX
(FPL-BOV664-IS
-B737/M-SDFGHIRW/S
-SLLP1205
-N0440F390 UW29
-SLVR0055 SLCB SLLP
-PBN/B1C1D1S1 RMK/RPL)
(FPL-BOV664-IS
-B737/M-SDFGHIRW/S
-SLLP1205
-N0440F390 UW29
-SLVR0055 SLCB SLLP
-PBN/B1C1D1S1 RMK/RPL)
___A___
ZPX0238 051110
FF SLLPZRZX
051110 SLLPYSYX
(FPL-BOV634-IS
-B733/M-SDFHIRW/S
-SLCB1210
-N0440F290 UW677
-SLVR0040 SLCB SLLP
-PBN/B3B4B5 RMK/RPL)
(FPL-BOV634-IS
-B733/M-SDFHIRW/S
-SLCB1210
-N0440F290 UW677
-SLVR0040 SLCB SLLP
-PBN/B3B4B5 RMK/RPL)
___A___
ZPX0239 051116
FF SLLPZRZX
051114 SLTRZPZX
(FPL-ECO304-IS
-RJ85/M-SDGR/S
-SLTR1310
-N0360F250 TRI DCT SLGM
-SLGM0050 SLTR SLRI
-PBN/B1 REG/CP2814 OPR/ECOJET)
(FPL-ECO304-IS
-RJ85/M-SDGR/S
-SLTR1310
-N0360F250 TRI DCT SLGM
-SLGM0050 SLTR SLRI
-PBN/B1 REG/CP2814 OPR/ECOJET)
___A___
ZPX0240 051117
FF SLLPZRZX
051118 SLLPYSYX
(FPL-BOV635-IS
-B733/M-SDFHIRW/S
-SLVR1220
-N0440F280 UT712
-SLCB0045 SLVR SLLP
-PBN/B3B4B5 RMK/RPL)
(FPL-BOV635-IS
-B733/M-SDFHIRW/S
-SLVR1220
-N0440F280 UT712
-SLCB0045 SLVR SLLP
-PBN/B3B4B5 RMK/RPL)
___A___
ZPX0241 051117
FF SLLPZRZX
051115 SLTRZPZX
(FPL-ECO305-IS
-RJ85/M-SDGR/S
-SLTR2030
-N0360F250 TRI UN420 VIR
-SLVR0050 SLCB
-PBN/B1 REG/CP2814 OPR/ECOJET)
(FPL-ECO305-IS
-RJ85/M-SDGR/S
-SLTR2030
-N0360F250 TRI UN420 VIR
-SLVR0050 SLCB
-PBN/B1 REG/CP2814 OPR/ECOJET)
___A___
ZPX0242 051117
FF SLLPZRZX
051118 SLVRZPZX
(FPL-ECO304-IS
-RJ85/M-SDGRI/S
-SLVR1200
-N0360F260 VIR UN420 TRI
-SLTR0045 SLVR SLCB
-PBN/B1 REG/CP2814 OPR/ECOJET)
(FPL-ECO304-IS
-RJ85/M-SDGRI/S
-SLVR1200
-N0360F260 VIR UN420 TRI
-SLTR0045 SLVR SLCB
-PBN/B1 REG/CP2814 OPR/ECOJET)
___A___
ZPX0243 051120
CH LR PZX0000
CH LR PZX0000
___A___
ZPX0244 051123
GG SLLPYGZA
051123 SLLPYFYX
SVC MIS CH 1120 LR PZX0000
SVC MIS CH 1120 LR PZX0000
___A___
ZPX0245 051125
FF SLLPZRZX
051124 SLCBYSYX
(DEP-BOV570/A1763-SLCB1123-SLAL-REG/CP2716)
(DEP-BOV570/A1763-SLCB1123-SLAL-REG/CP2716)
___A___
ZPX0246 051132
FF SLLPZRZX
051133 SLLPYSYX
(FPL-BOV665-IS
-B737/M-SDFGHIRW/S
-SLVR1235
-N0440F380 UW29
-SLLP0100 SLCB SLVR
-PBN/B1C1D1S1 RMK/RPL)
(FPL-BOV665-IS
-B737/M-SDFGHIRW/S
-SLVR1235
-N0440F380 UW29
-SLLP0100 SLCB SLVR
-PBN/B1C1D1S1 RMK/RPL)
___A___
ZPX0247 051137
FF SLLPZRZX
051133 SLVRZPZX
(FPL-BOV635-IS
-B733/M-SDFHIRWY/S
-SLVR1225
-N0434F280 KOSBO1 KOSBO UT712 CBA
-SLCB0049 SLAL SLVR
-PBN/B3B4B5C3C4D3D4 REG/CP3020 SEL/EGAJ OPR/BOA PER/C)
(FPL-BOV635-IS
-B733/M-SDFHIRWY/S
-SLVR1225
-N0434F280 KOSBO1 KOSBO UT712 CBA
-SLCB0049 SLAL SLVR
-PBN/B3B4B5C3C4D3D4 REG/CP3020 SEL/EGAJ OPR/BOA PER/C)
___A___
ZPX0248 051140
CH LR PZX0000
CH LR PZX0000
___A___
ZPX0249 051143
GG SLLPYGZA
051143 SLLPYFYX
SVC MIS CH 1140 LR PZX0000
SVC MIS CH 1140 LR PZX0000
___A___
ZPX0250 051145
FF SLLPZRZX
051146 SLLPZPZX
(FPL-FAB81-IM
-C130/M-SDF/C
-SLLP1545
-N0280F250 TERAX1 TERAX UW29 VIR
-SLVR0120 SLCB
-OPR/FAB RMK/CARGO FLT)
(FPL-FAB81-IM
-C130/M-SDF/C
-SLLP1545
-N0280F250 TERAX1 TERAX UW29 VIR
-SLVR0120 SLCB
-OPR/FAB RMK/CARGO FLT)
___A___
ZPX0251 051145
FF SLLPZRZX
051135 SLVRZPZX
(FPL-BOV736-IS
-B733/M-SDFHIRW/S
-SLVR1315
-N0445F330 TOMUR1 TOMUR UM415 SIDAK/N0440F350 UZ22 ESDAD UZ38 MOXEP
ANSUG2B
-SBGR0251 SBKP
-PBN/B3B4B5C3C4D3D4 REG/CP3019 EET/SBCW0048 SBBS0153 SBCW0240 SEL/
CMHK OPR/BOA PER/C)
(FPL-BOV736-IS
-B733/M-SDFHIRW/S
-SLVR1315
-N0445F330 TOMUR1 TOMUR UM415 SIDAK/N0440F350 UZ22 ESDAD UZ38 MOXEP
ANSUG2B
-SBGR0251 SBKP
-PBN/B3B4B5C3C4D3D4 REG/CP3019 EET/SBCW0048 SBBS0153 SBCW0240 SEL/
CMHK OPR/BOA PER/C)
___A___
ZPX0252 051146
FF SLLPZRZX
051145 SLCBYSYX
(DEP-BOV320/A1765-SLCB1145-SLOR-REG/CP2852)
(DEP-BOV320/A1765-SLCB1145-SLOR-REG/CP2852)
___A___
ZPX0253 051149
FF SLLPZRZX
051148 SLCBYSYX
(DEP-BOV604/A1764-SLCB1147-SLLP-REG/CP2924)
(DEP-BOV604/A1764-SLCB1147-SLLP-REG/CP2924)
___A___
ZPX0254 051151
FF SLLPZRZX
051151 SLLPYSYX
(FPL-BOV571-IS
-B733/M-SDFHIRW/S
-SLAL1255
-N0440F260 UW22
-SLCB0030 SLVR SLLP
-PBN/B3B4B5 RMK/RPL)
(FPL-BOV571-IS
-B733/M-SDFHIRW/S
-SLAL1255
-N0440F260 UW22
-SLCB0030 SLVR SLLP
-PBN/B3B4B5 RMK/RPL)
___A___
ZPX0255 051152
GG SLZZYMYT
051152 SLVRYGYZ
SABO SLVR 051200
METAR SLVR 051200Z 32005KT 4000 -TSRA BKN005 BKN017 FEW030CB OVC070
22/21 Q1011 A2985 HR97 CB/TS ON STN/NE/S NOSIG=
SABO SLVR 051200
METAR SLVR 051200Z 32005KT 4000 -TSRA BKN005 BKN017 FEW030CB OVC070
22/21 Q1011 A2985 HR97 CB/TS ON STN/NE/S NOSIG=
___A___
ZPX0256 051153
GG SLZZYMYT
051151 SLPSYGYS
SABO SLPS 051200
METAR SLPS 051200Z 00000KT 9999 BKN010 BKN070 25/24 Q1011 A2986 HR97=
SABO SLPS 051200
METAR SLPS 051200Z 00000KT 9999 BKN010 BKN070 25/24 Q1011 A2986 HR97=
___A___
ZPX0257 051153
GG SLZZYMYT
051152 SLETYMYC
SABO SLET 051200
METAR SLET 051200Z 31006KT 3000 -TSRA SCT006 BKN013 FEW027CB OVC070
23/22 Q1011 A2986 HR97 CB/TS W/NW NOSIG=
SABO SLET 051200
METAR SLET 051200Z 31006KT 3000 -TSRA SCT006 BKN013 FEW027CB OVC070
23/22 Q1011 A2986 HR97 CB/TS W/NW NOSIG=
___A___
ZPX0258 051154
GG SLZZYMYT
051153 SLRBYGYS
SABO SLRB 051200
METAR SLRB 051200Z 36008KT 9999 BKN023 25/22 Q1012 A2988 HR85 RWY NML=
SABO SLRB 051200
METAR SLRB 051200Z 36008KT 9999 BKN023 25/22 Q1012 A2988 HR85 RWY NML=
___A___
ZPX0259 051154
GG SLZZYMYT
051154 SLSBYSYX
SABO SLSB 051200
METAR SLSB 051200Z 00000KT 3000 -RA BKN005 OVC070 24/24 Q1005 A2969
HR100 RWY WET INOP=
SABO SLSB 051200
METAR SLSB 051200Z 00000KT 3000 -RA BKN005 OVC070 24/24 Q1005 A2969
HR100 RWY WET INOP=
___A___
ZPX0260 051154
FF SLLPZRZX
051136 SLVRZPZX
(FPL-BOV708-IS
-B763/H-SDFGHIRWXYZ/SB1
-SLVR1340
-N0453F410 KABOM1 KABOM UL404 PUPON/N0457F400 UL404
QUILI/N0456F410 UL404 ESLED/N0457F400 UL404 ISOPO/N0457F410
UT672 MULTA UW24 SNT SNT6A
-SAEZ0248 SUMU
-PBN/A1B1C1D1O1S1S2 DAT/CPDLCX SUR/260B REG/CP3017 EET/SACF0042
SAEF0154 SEL/FQGH OPR/BOA PER/D)
(FPL-BOV708-IS
-B763/H-SDFGHIRWXYZ/SB1
-SLVR1340
-N0453F410 KABOM1 KABOM UL404 PUPON/N0457F400 UL404
QUILI/N0456F410 UL404 ESLED/N0457F400 UL404 ISOPO/N0457F410
UT672 MULTA UW24 SNT SNT6A
-SAEZ0248 SUMU
-PBN/A1B1C1D1O1S1S2 DAT/CPDLCX SUR/260B REG/CP3017 EET/SACF0042
SAEF0154 SEL/FQGH OPR/BOA PER/D)
___A___
ZPX0261 051155
GG SLZZYMYT
051154 SLORYGYZ
SABO SLOR 051200
METAR SLOR 051200Z 04003KT 9999 FEW070 SCT200 07/M00 Q1032 A3049 654.
3 HR58=
SABO SLOR 051200
METAR SLOR 051200Z 04003KT 9999 FEW070 SCT200 07/M00 Q1032 A3049 654.
3 HR58=
___A___
ZPX0262 051155
GG SLZZYMYT
051155 SLTRYGYZ
SABO SLTR 051200
METAR SLTR 051200Z 36006KT 8000 -RA BKN005 OVC070 24/24 Q1010 A2983
991.5 HR97 NOSIG=
SABO SLTR 051200
METAR SLTR 051200Z 36006KT 8000 -RA BKN005 OVC070 24/24 Q1010 A2983
991.5 HR97 NOSIG=
___A___
ZPX0263 051155
GG SLZZYMYT
051155 SLORYGYZ
SMBO SLOR 051200
AAXX 05124
85242 32870 30403 10073 21003 36543 52004 81031
333 20018 30/// 56000 58001 81357 83070 555 10327 29058=
SMBO SLOR 051200
AAXX 05124
85242 32870 30403 10073 21003 36543 52004 81031
333 20018 30/// 56000 58001 81357 83070 555 10327 29058=
___A___
ZPX0264 051155
GG SLZZYMYT
051155 SLSAYGYS
SABO SLSA 051200
METAR SLSA 051200Z 36008KT 9999 SCT005 BKN015 BKN070 24/23
Q1008 A2979 HR96=
SABO SLSA 051200
METAR SLSA 051200Z 36008KT 9999 SCT005 BKN015 BKN070 24/23
Q1008 A2979 HR96=
___A___
ZPX0265 051156
GG SLZZYMYT
051157 SLLPYGYZ
SABO SLLP 051200
METAR SLLP 051200Z 09006KT 6000 FEW004 SCT015 BKN200 08/05
Q1034 A3055 625.8 HR79 P4352 VIS/RED ST/NE/E/SE AC NOSIG=
SABO SLLP 051200
METAR SLLP 051200Z 09006KT 6000 FEW004 SCT015 BKN200 08/05
Q1034 A3055 625.8 HR79 P4352 VIS/RED ST/NE/E/SE AC NOSIG=
___A___
ZPX0266 051156
GG SLZZYMYT
051156 SLCBYGYZ
SABO SLCB 051200
METAR SLCB 051200Z 15003KT 8000 -RA SCT015 SCT023 FEW030CB OVC070 15/
11 Q1023 A3023 750.3 HR78 CB/NW NOSIG=
SABO SLCB 051200
METAR SLCB 051200Z 15003KT 8000 -RA SCT015 SCT023 FEW030CB OVC070 15/
11 Q1023 A3023 750.3 HR78 CB/NW NOSIG=
___A___
ZPX0267 051157
GG SLZZYMYT
051156 SLCAYGYS
SABO SLCA 051200
METAR SLCA 051200Z 00000KT 9999 BKN080 21/19 Q1014 A2994 HR91 RWY HUM
OPR=
SABO SLCA 051200
METAR SLCA 051200Z 00000KT 9999 BKN080 21/19 Q1014 A2994 HR91 RWY HUM
OPR=
___A___
ZPX0268 051157
GG SLZZYMYT
051156 SLTJYGYZ
SABO SLTJ 051200
METAR SLTJ 051200Z 00000KT 9999 FEW025 SCT070 BKN200 19/15 Q1018
A3006 813.3 HR78=
SABO SLTJ 051200
METAR SLTJ 051200Z 00000KT 9999 FEW025 SCT070 BKN200 19/15 Q1018
A3006 813.3 HR78=
___A___
ZPX0269 051157
GG SLZZYMYT
051153 SLETYMYC
SMBO SLET 051200
AAXX 05124
85245 01230 83106 10225 20220 39619 40100 53016 60284 79596 8692/
333 10254 20215 32/// 56799 58036 70275 84706 85613 81927 88457 555
10111 29097=
SMBO SLET 051200
AAXX 05124
85245 01230 83106 10225 20220 39619 40100 53016 60284 79596 8692/
333 10254 20215 32/// 56799 58036 70275 84706 85613 81927 88457 555
10111 29097=
___A___
ZPX0270 051158
FF SLLPZRZX
051157 SLCBYSYX
(DEP-BOV634/A1766-SLCB1156-SLVR-REG/CP3077)
(DEP-BOV634/A1766-SLCB1156-SLVR-REG/CP3077)
___A___
ZPX0271 051158
GG SLZZYMYT
051158 SLUYYGYS
SABO SLUY 051200
METAR SLUY 051200Z VRB02KT 9999 FEW017 09/M04 Q1031 A3047
656.8 HR41 AC=
SABO SLUY 051200
METAR SLUY 051200Z VRB02KT 9999 FEW017 09/M04 Q1031 A3047
656.8 HR41 AC=
___A___
ZPX0272 051158
GG SLZZYMYT
051158 SLCBYGYS
SABO SLCB 051200
METAR SLCB 051200Z 15003KT 8000 -RA SCT015 SCT023 FEW030CB OVC070 15/
11 Q1023 A3023 750.3 HR78 CB/NW NOSIG=
METAR SLAL 051200Z 35006KT 4000S VCFG FEW005 BKN010 OVC070 11/10
Q1027 A3035 702.7 HR92 VCFG/N/NE/S/SW ST BAJOS SE/S=
METAR SLPO 051200Z 00000KT 9999 FEW013 09/06 Q1034 A3054 635.5 HR80=
METAR SLAG 051200Z NIL=
METAR SLVM 051200Z 00000KT 9999 NSC 26/22 Q1009 A2980 HR77 FU CI=
METAR SLTJ 051200Z 00000KT 9999 FEW025 SCT070 BKN200 19/15 Q1018
A3006 813.3 HR78=
METAR SLYA 051200Z 00000KT 9999 NSC 27/23 Q1010 A2983 935.2 HR78 CI=
METAR SLBJ 051200Z NIL=
METAR SLHI 051200Z NIL=
SABO SLCB 051200
METAR SLCB 051200Z 15003KT 8000 -RA SCT015 SCT023 FEW030CB OVC070 15/
11 Q1023 A3023 750.3 HR78 CB/NW NOSIG=
METAR SLAL 051200Z 35006KT 4000S VCFG FEW005 BKN010 OVC070 11/10
Q1027 A3035 702.7 HR92 VCFG/N/NE/S/SW ST BAJOS SE/S=
METAR SLPO 051200Z 00000KT 9999 FEW013 09/06 Q1034 A3054 635.5 HR80=
METAR SLAG 051200Z NIL=
METAR SLVM 051200Z 00000KT 9999 NSC 26/22 Q1009 A2980 HR77 FU CI=
METAR SLTJ 051200Z 00000KT 9999 FEW025 SCT070 BKN200 19/15 Q1018
A3006 813.3 HR78=
METAR SLYA 051200Z 00000KT 9999 NSC 27/23 Q1010 A2983 935.2 HR78 CI=
METAR SLBJ 051200Z NIL=
METAR SLHI 051200Z NIL=
___A___
ZPX0273 051158
GG SLZZYMYT
051158 SLLPYFYA
SABO SLRY 051200
METAR SLRY 051200Z 00000KT 3000 -RA BKN005 BKN012 OVC070 23/23 Q1005
A2969 HR100 RWY WET INOP=
SABO SLRY 051200
METAR SLRY 051200Z 00000KT 3000 -RA BKN005 BKN012 OVC070 23/23 Q1005
A2969 HR100 RWY WET INOP=
___A___
ZPX0274 051158
GG SLZZYMYT
051157 SLCOYGYZ
SABO SLCO 051200
METAR SLCO 051200Z 36008KT 9999 BKN007 BKN080 25/23 Q1010 A2982 982.6
HR92=
SABO SLCO 051200
METAR SLCO 051200Z 36008KT 9999 BKN007 BKN080 25/23 Q1010 A2982 982.6
HR92=
___A___
ZPX0275 051158
GG SLZZYMYT
051157 SLSAYGYS
SMBO SLSA 051200
AAXX 05124
85123 02265 73608 10244 20234 39915 40082 52013 60024 83750
333 10290 20230 31/// 55010 56770 58002 70024 83705 85615 87357
555 10088 29096=
SMBO SLSA 051200
AAXX 05124
85123 02265 73608 10244 20234 39915 40082 52013 60024 83750
333 10290 20230 31/// 55010 56770 58002 70024 83705 85615 87357
555 10088 29096=
1115
___A___
ZPX0276 051159
GG SLZZYMYT
051200 SLVRYFYC
SABO SLVR 051200
METAR SLVR 051200Z 32005KT 4000 -TSRA BKN005 BKN017 FEW030CB OVC070
22/21 Q1011 A2985 HR97 CB/TS ON STN/NE/S NOSIG=
METAR SLET 051200Z 31006KT 3000 -TSRA SCT006 BKN013 FEW027CB OVC070
23/22 Q1011 A2986 HR97 CB/TS W/NW NOSIG=
METAR SLAS 051200Z 36004KT 8000 VCSH OVC013 23/22 Q1013 A2992 HR95 SH
/NW/N/NE/SE RESH RWY WET OPR=
METAR SLJV 051200Z 36005KT 9999 SCT012 BKN070 22/21 Q1010 A2983 HR96
RWY WET OPR=
METAR SLCP 051200Z 00000KT 9999 BKN008 BKN070 22/21 Q1014 A2994 HR96
RWY NML=
METAR SLSI 051200Z 00000KT 9999 SCT013 BKN070 24/23 Q1011 A2985 HR90
RWY HUM OPR=
METAR SLTI 051200Z 00000KT 9999 BKN070 25/23 Q1015 A2997 HR90 RWY NML
METAR SLJE 051200Z 00000KT 9999 OVC008 24/22 Q1013 A2991 HR93 RWY
HUM OPR=
METAR SLVG 051200Z 00000KT 9999 SCT015 OVC070 15/14 Q1022 A3018 HR95
RWY HUM OPR=
METAR SLRB 051200Z 36008KT 9999 BKN023 25/22 Q1012 A2988 HR85 RWY NML
METAR SLPS 051200Z 00000KT 9999 BKN010 BKN070 25/24 Q1011 A2986 HR97=
METAR SLCA 051200Z 00000KT 9999 BKN080 21/19 Q1014 A2994 HR91 RWY HUM
OPR=
SABO SLVR 051200
METAR SLVR 051200Z 32005KT 4000 -TSRA BKN005 BKN017 FEW030CB OVC070
22/21 Q1011 A2985 HR97 CB/TS ON STN/NE/S NOSIG=
METAR SLET 051200Z 31006KT 3000 -TSRA SCT006 BKN013 FEW027CB OVC070
23/22 Q1011 A2986 HR97 CB/TS W/NW NOSIG=
METAR SLAS 051200Z 36004KT 8000 VCSH OVC013 23/22 Q1013 A2992 HR95 SH
/NW/N/NE/SE RESH RWY WET OPR=
METAR SLJV 051200Z 36005KT 9999 SCT012 BKN070 22/21 Q1010 A2983 HR96
RWY WET OPR=
METAR SLCP 051200Z 00000KT 9999 BKN008 BKN070 22/21 Q1014 A2994 HR96
RWY NML=
METAR SLSI 051200Z 00000KT 9999 SCT013 BKN070 24/23 Q1011 A2985 HR90
RWY HUM OPR=
METAR SLTI 051200Z 00000KT 9999 BKN070 25/23 Q1015 A2997 HR90 RWY NML
METAR SLJE 051200Z 00000KT 9999 OVC008 24/22 Q1013 A2991 HR93 RWY
HUM OPR=
METAR SLVG 051200Z 00000KT 9999 SCT015 OVC070 15/14 Q1022 A3018 HR95
RWY HUM OPR=
METAR SLRB 051200Z 36008KT 9999 BKN023 25/22 Q1012 A2988 HR85 RWY NML
METAR SLPS 051200Z 00000KT 9999 BKN010 BKN070 25/24 Q1011 A2986 HR97=
METAR SLCA 051200Z 00000KT 9999 BKN080 21/19 Q1014 A2994 HR91 RWY HUM
OPR=
___A___
ZPX0277 051200
CH LR PZX0000
CH LR PZX0000
___A___
ZPX0278 051200
GG SLZZYMYT
051200 SLLPYFYA
SABO SLLP 051200
METAR SLLP 051200Z 09006KT 6000 FEW004 SCT015 BKN200 08/05
Q1034 A3055 625.8 HR79 P4352 VIS/RED ST/NE/E/SE AC NOSIG=
METAR SLCO 051200Z 36008KT 9999 BKN007 BKN080 25/23 Q1010 A2982
982.6 HR92=
METAR SLRY 051200Z 00000KT 3000 -RA BKN005 BKN012 OVC070 23/23 Q1005
A2969 HR100 RWY WET INOP=
METAR SLRQ 051200Z 00000KT 3000 -RA BKN005 OVC070 23/23 Q1008 A2977
HR100=
METAR SLAP 051200Z 36005KT 7000 VCSH SCT015 OVC070 19/18 Q1014 A2995
855.2 HR93 SH N/NE/E/SE/W=
METAR SLSB 051200Z 00000KT 3000 -RA BKN005 OVC070 24/24 Q1005 A2969
HR100 RWY WET INOP=
METAR SLOR 051200Z 04003KT 9999 FEW070 SCT200 07/M00 Q1032 A3049
654.3 HR58=
METAR SLUY 051200Z VRB02KT 9999 FEW017 09/M04 Q1031 A3047
656.8 HR41 AC=
SABO SLLP 051200
METAR SLLP 051200Z 09006KT 6000 FEW004 SCT015 BKN200 08/05
Q1034 A3055 625.8 HR79 P4352 VIS/RED ST/NE/E/SE AC NOSIG=
METAR SLCO 051200Z 36008KT 9999 BKN007 BKN080 25/23 Q1010 A2982
982.6 HR92=
METAR SLRY 051200Z 00000KT 3000 -RA BKN005 BKN012 OVC070 23/23 Q1005
A2969 HR100 RWY WET INOP=
METAR SLRQ 051200Z 00000KT 3000 -RA BKN005 OVC070 23/23 Q1008 A2977
HR100=
METAR SLAP 051200Z 36005KT 7000 VCSH SCT015 OVC070 19/18 Q1014 A2995
855.2 HR93 SH N/NE/E/SE/W=
METAR SLSB 051200Z 00000KT 3000 -RA BKN005 OVC070 24/24 Q1005 A2969
HR100 RWY WET INOP=
METAR SLOR 051200Z 04003KT 9999 FEW070 SCT200 07/M00 Q1032 A3049
654.3 HR58=
METAR SLUY 051200Z VRB02KT 9999 FEW017 09/M04 Q1031 A3047
656.8 HR41 AC=
___A___
ZPX0279 051202
FF SLLPZRZX
051203 SLLPYSYX
(FPL-BOV321-IS
-CRJ2/M-SDFGIRW/S
-SLOR1305
-N0350F230 T714
-SLCB0030 SLVR SLLP
-PBN/B1C1D1S1 RMK/RPL)
(FPL-BOV321-IS
-CRJ2/M-SDFGIRW/S
-SLOR1305
-N0350F230 T714
-SLCB0030 SLVR SLLP
-PBN/B1C1D1S1 RMK/RPL)
___A___
ZPX0280 051202
GG SLZZYMYT
051202 SLTRYGYS
SABO SLTR 051200
METAR SLTR 051200Z 36006KT 8000 -RA BKN005 OVC070 24/24 Q1010 A2983
991.5 HR97 NOSIG=
METAR SLGM 051200Z 02008KT 9999 SCT008 BKN080 25/23 Q1010 A2983 HR90=
METAR SLRI 051200Z NIL=
METAR SLJO 051200Z 36006KT 7000 VCSH SCT010 FEW023CB BKN080 24/24
Q1007 A2976 HR97 RERA CB/SH E/SE/S RWY WET OPR C206=
METAR SLRA 051200Z 36006KT 7000 VCSH SCT008 FEW023CB OVC070 24/23
Q1009 A2980 HR97 CB/SH N/SE RWY NML=
METAR SLMG 051200Z 00000KT 8000 VCSH SCT020 OVC070 24/23 Q1009 A2982
HR98 SH SW RWY HUM OPR=
METAR SLBU 051200Z NIL=
METAR SLSA 051200Z 36008KT 9999 SCT005 BKN015 BKN070 24/23
Q1008 A2979 HR96=
METAR SLSR 051200Z 32008KT 5000 -RA BKN008 FEW020CB OVC070 23/23
Q1008 A2978 HR100 CB W/NW RWY WET INOP=
METAR SLSM 051200Z 00000KT 8000 -RA BKN015 OVC070 24/24 Q1008 A2979
HR98 RWY WET INOP=
SABO SLTR 051200
METAR SLTR 051200Z 36006KT 8000 -RA BKN005 OVC070 24/24 Q1010 A2983
991.5 HR97 NOSIG=
METAR SLGM 051200Z 02008KT 9999 SCT008 BKN080 25/23 Q1010 A2983 HR90=
METAR SLRI 051200Z NIL=
METAR SLJO 051200Z 36006KT 7000 VCSH SCT010 FEW023CB BKN080 24/24
Q1007 A2976 HR97 RERA CB/SH E/SE/S RWY WET OPR C206=
METAR SLRA 051200Z 36006KT 7000 VCSH SCT008 FEW023CB OVC070 24/23
Q1009 A2980 HR97 CB/SH N/SE RWY NML=
METAR SLMG 051200Z 00000KT 8000 VCSH SCT020 OVC070 24/23 Q1009 A2982
HR98 SH SW RWY HUM OPR=
METAR SLBU 051200Z NIL=
METAR SLSA 051200Z 36008KT 9999 SCT005 BKN015 BKN070 24/23
Q1008 A2979 HR96=
METAR SLSR 051200Z 32008KT 5000 -RA BKN008 FEW020CB OVC070 23/23
Q1008 A2978 HR100 CB W/NW RWY WET INOP=
METAR SLSM 051200Z 00000KT 8000 -RA BKN015 OVC070 24/24 Q1008 A2979
HR98 RWY WET INOP=
___A___
ZPX0281 051203
GG SLLPYGZA
051203 SLLPYFYX
SVC MIS CH 1200 LR PZX0000
SVC MIS CH 1200 LR PZX0000
___A___
ZPX0282 051208
FF SLLPZRZX
051206 SLCBZPZX
(FPL-BOV570-IS
-B733/M-SDFHIRW/S
-SLCB1300
-N0440F250 CBA UW22 ALC
-SLAL0025 SLVR SLCB
-PBN/B3B4B5 REG/CP2716 SEL/EGFM)
(FPL-BOV570-IS
-B733/M-SDFHIRW/S
-SLCB1300
-N0440F250 CBA UW22 ALC
-SLAL0025 SLVR SLCB
-PBN/B3B4B5 REG/CP2716 SEL/EGFM)
___A___
ZPX0283 051210
FF SLLPZRZX
051212 SLLPYSYX
(FPL-BOV524-IS
-B733/M-SDFHIRW/S
-SLCB1315
-N0440F350 UW22
-SLTJ0050 SLCB SLVR
-PBN/B3B4B5 RMK/RPL)
(FPL-BOV524-IS
-B733/M-SDFHIRW/S
-SLCB1315
-N0440F350 UW22
-SLTJ0050 SLCB SLVR
-PBN/B3B4B5 RMK/RPL)
___A___
ZPX0284 051215
FF SLLPZRZX
051150 SLRIZPZX
(FPL-CP2744-VG
-C210/L-VOF/C
-SLRI1230
-N0140A045 SLRI277160
-SLCO0110 SLRI
-OPR/MARIA R. HAYASHIDA PIC JULIO C. RIVERA LIC 1728837)
(FPL-CP2744-VG
-C210/L-VOF/C
-SLRI1230
-N0140A045 SLRI277160
-SLCO0110 SLRI
-OPR/MARIA R. HAYASHIDA PIC JULIO C. RIVERA LIC 1728837)
___A___
ZPX0285 051215
FF SLLPZRZX
051150 SLRIZPZX
(FPL-CP2744-VG
-C210/L-VOF/C
-SLRI1230
-N0140A045 SLRI277160
-SLCO0110 SLRI
-OPR/MARIA R. HAYASHIDA PIC JULIO C. RIVERA LIC 1728837)
(FPL-CP2744-VG
-C210/L-VOF/C
-SLRI1230
-N0140A045 SLRI277160
-SLCO0110 SLRI
-OPR/MARIA R. HAYASHIDA PIC JULIO C. RIVERA LIC 1728837)
___A___
ZPX0286 051216
FF SLLPZRZX
051216 SLALZPZX
(FPL-AZN161-IS
-E190/M-SDFGHIRWY/EB1
-SLAL1305
-N0460F320 UW18 PAZ
-SLLP0040 SLCB
-PBN/B2B3B4B5D1O1S2 REG/CP3142)
(FPL-AZN161-IS
-E190/M-SDFGHIRWY/EB1
-SLAL1305
-N0460F320 UW18 PAZ
-SLLP0040 SLCB
-PBN/B2B3B4B5D1O1S2 REG/CP3142)
___A___
ZPX0287 051217
FF SLLPZRZX
051158 SLRIZPZX
(FPL-CP2844-VG
-C206/L-VOF/C
-SLRI1300
-N0120A045 SLRI277160
-SLCO0120 SLRI
-OPR/MARIA R. HAYASHIDA PIC CARLOS A. NUNIEZ VELA LIC 1721198)
(FPL-CP2844-VG
-C206/L-VOF/C
-SLRI1300
-N0120A045 SLRI277160
-SLCO0120 SLRI
-OPR/MARIA R. HAYASHIDA PIC CARLOS A. NUNIEZ VELA LIC 1721198)
___A___
ZPX0288 051218
FF SLLPZRZX
051216 SLSAZPZX
(FPL-CP1749-VG
-C206/L-FOV/N
-SLSA1400
-N0120F035 DCT TRI
-SLTR0040 SLSA
-OPR/AERO MOVIMA RMK/PIC MUNIR ANGEL NACIF T.LIC 3121272
CEL 71145311)
(FPL-CP1749-VG
-C206/L-FOV/N
-SLSA1400
-N0120F035 DCT TRI
-SLTR0040 SLSA
-OPR/AERO MOVIMA RMK/PIC MUNIR ANGEL NACIF T.LIC 3121272
CEL 71145311)
___A___
ZPX0289 051220
CH LR PZX0000
CH LR PZX0000
___A___
ZPX0290 051221
FF SLLPZRZX
051223 SLLPYSYX
(FPL-BOV404-IS
-B737/M-SDFGHIRW/S
-SLLP1325
-N0440F380 UT711 AKRUD DCT
-SLCO0100 SLCB SLVR
-PBN/B1C1D1S1 RMK/RPL)
(FPL-BOV404-IS
-B737/M-SDFGHIRW/S
-SLLP1325
-N0440F380 UT711 AKRUD DCT
-SLCO0100 SLCB SLVR
-PBN/B1C1D1S1 RMK/RPL)
___A___
ZPX0291 051223
GG SLLPYGZA
051223 SLLPYFYX
SVC MIS CH 1220 LR PZX0000
SVC MIS CH 1220 LR PZX0000
___A___
ZPX0292 051223
FF SLLPZRZX
051218 SLCBZPZX
(FPL-BOL753-IN
-DC10/H-SDFGHIRWY/LB1
-SLCB1430
-N0482F380 VAREB3 VAREB UM793 VIR
-SLVR0027 SLCB
-PBN/A1B1 SUR/260B REG/CP2791 SEL/AHFM CODE/E940A2 OPR/TAB AIRLINES
CARGO)
(FPL-BOL753-IN
-DC10/H-SDFGHIRWY/LB1
-SLCB1430
-N0482F380 VAREB3 VAREB UM793 VIR
-SLVR0027 SLCB
-PBN/A1B1 SUR/260B REG/CP2791 SEL/AHFM CODE/E940A2 OPR/TAB AIRLINES
CARGO)
___A___
ZPX0293 051236
FF SLLPZRZX
051238 SLLPYSYX
(FPL-BOV584-IS
-B733/M-SDFHIRW/S
-SLVR1340
-N0440F280 UW14
-SLAL0040 SLCB SLVR
-PBN/B3B4B5 RMK/RPL)
(FPL-BOV584-IS
-B733/M-SDFHIRW/S
-SLVR1340
-N0440F280 UW14
-SLAL0040 SLCB SLVR
-PBN/B3B4B5 RMK/RPL)
___A___
ZPX0294 051236
FF SLLPZRZX
051238 SLLPYSYX
(FPL-BOV584-IS
-B733/M-SDFHIRW/S
-SLVR1340
-N0440F280 UW14
-SLAL0040 SLCB SLVR
-PBN/B3B4B5 RMK/RPL)
(FPL-BOV584-IS
-B733/M-SDFHIRW/S
-SLVR1340
-N0440F280 UW14
-SLAL0040 SLCB SLVR
-PBN/B3B4B5 RMK/RPL)
1190
___A___
ZPX0295 051238
FF SLLPZRZX
051238 SABMYMYX
FVAG01 SABM 051250
VA ADVISORY
DTG: 20210105/1250Z
VAAC: BUENOS AIRES
VOLCANO: SABANCAYA 354006
PSN: S1547 W07150
AREA: PERU
SUMMIT ELEV: 19576 FT (5967 M)
ADVISORY NR: 2021/020
INFO SOURCE: GOES-E. WEBCAM. VOLCAT.
AVIATION COLOUR CODE: NOT GIVEN
ERUPTION DETAILS: CONTINUOUS EMISSION OF VA
OBS VA DTG: 05/1220Z
OBS VA CLD: SFC/FL260 S1511 W07155 - S1516 W07144
- S1543 W07143 - S1548 W07150 - S1542 W07159 -
S1520 W07205 - S1511 W07155 MOV N 20KT
FCST VA CLD +6 HR: 05/1830Z SFC/FL260 S1503 W07155
- S1507 W07143 - S1545 W07144 - S1550 W07150 -
S1548 W07155 - S1511 W07208 - S1503 W07155
FCST VA CLD +12 HR: 06/0030Z SFC/FL260 S1502
W07159 - S1506 W07147 - S1544 W07144 - S1550
W07150 - S1543 W07159 - S1514 W07207 - S1502
W07159
FCST VA CLD +18 HR: 06/0630Z SFC/FL260 S1505
W07207 - S1505 W07155 - S1544 W07144 - S1550
W07149 - S1549 W07157 - S1513 W07214 - S1505
W07207
RMK: VA PLUME MOV NNW IS DETECTED ON STLT
IMAGERY. WEBCAM SHOWS CONT EMS OF GASES AND VA
WITH INTERMITTENT PUFFS OF VA. SOME PUFFS OF VA
TL FL260. ...SMN
NXT ADVISORY: WILL BE ISSUED BY 20210105/1850Z=
FVAG01 SABM 051250
VA ADVISORY
DTG: 20210105/1250Z
VAAC: BUENOS AIRES
VOLCANO: SABANCAYA 354006
PSN: S1547 W07150
AREA: PERU
SUMMIT ELEV: 19576 FT (5967 M)
ADVISORY NR: 2021/020
INFO SOURCE: GOES-E. WEBCAM. VOLCAT.
AVIATION COLOUR CODE: NOT GIVEN
ERUPTION DETAILS: CONTINUOUS EMISSION OF VA
OBS VA DTG: 05/1220Z
OBS VA CLD: SFC/FL260 S1511 W07155 - S1516 W07144
- S1543 W07143 - S1548 W07150 - S1542 W07159 -
S1520 W07205 - S1511 W07155 MOV N 20KT
FCST VA CLD +6 HR: 05/1830Z SFC/FL260 S1503 W07155
- S1507 W07143 - S1545 W07144 - S1550 W07150 -
S1548 W07155 - S1511 W07208 - S1503 W07155
FCST VA CLD +12 HR: 06/0030Z SFC/FL260 S1502
W07159 - S1506 W07147 - S1544 W07144 - S1550
W07150 - S1543 W07159 - S1514 W07207 - S1502
W07159
FCST VA CLD +18 HR: 06/0630Z SFC/FL260 S1505
W07207 - S1505 W07155 - S1544 W07144 - S1550
W07149 - S1549 W07157 - S1513 W07214 - S1505
W07207
RMK: VA PLUME MOV NNW IS DETECTED ON STLT
IMAGERY. WEBCAM SHOWS CONT EMS OF GASES AND VA
WITH INTERMITTENT PUFFS OF VA. SOME PUFFS OF VA
TL FL260. ...SMN
NXT ADVISORY: WILL BE ISSUED BY 20210105/1850Z=
1236
___A___
ZPX0296 051238
GG SLLPZRZX
051238 KWBCYMYX
FVAG01 SABM 051250
VA ADVISORY
DTG: 20210105/1250Z
VAAC: BUENOS AIRES
VOLCANO: SABANCAYA 354006
PSN: S1547 W07150
AREA: PERU
SUMMIT ELEV: 19576 FT (5967 M)
ADVISORY NR: 2021/020
INFO SOURCE: GOES-E. WEBCAM. VOLCAT.
AVIATION COLOUR CODE: NOT GIVEN
ERUPTION DETAILS: CONTINUOUS EMISSION OF VA
OBS VA DTG: 05/1220Z
OBS VA CLD: SFC/FL260 S1511 W07155 - S1516 W07144
- S1543 W07143 - S1548 W07150 - S1542 W07159 -
S1520 W07205 - S1511 W07155 MOV N 20KT
FCST VA CLD +6 HR: 05/1830Z SFC/FL260 S1503 W07155
- S1507 W07143 - S1545 W07144 - S1550 W07150 -
S1548 W07155 - S1511 W07208 - S1503 W07155
FCST VA CLD +12 HR: 06/0030Z SFC/FL260 S1502
W07159 - S1506 W07147 - S1544 W07144 - S1550
W07150 - S1543 W07159 - S1514 W07207 - S1502
W07159
FCST VA CLD +18 HR: 06/0630Z SFC/FL260 S1505
W07207 - S1505 W07155 - S1544 W07144 - S1550
W07149 - S1549 W07157 - S1513 W07214 - S1505
W07207
RMK: VA PLUME MOV NNW IS DETECTED ON STLT
IMAGERY. WEBCAM SHOWS CONT EMS OF GASES AND VA
WITH INTERMITTENT PUFFS OF VA. SOME PUFFS OF VA
TL FL260. ...SMN
NXT ADVISORY: WILL BE ISSUED BY 20210105/1850Z=
FVAG01 SABM 051250
VA ADVISORY
DTG: 20210105/1250Z
VAAC: BUENOS AIRES
VOLCANO: SABANCAYA 354006
PSN: S1547 W07150
AREA: PERU
SUMMIT ELEV: 19576 FT (5967 M)
ADVISORY NR: 2021/020
INFO SOURCE: GOES-E. WEBCAM. VOLCAT.
AVIATION COLOUR CODE: NOT GIVEN
ERUPTION DETAILS: CONTINUOUS EMISSION OF VA
OBS VA DTG: 05/1220Z
OBS VA CLD: SFC/FL260 S1511 W07155 - S1516 W07144
- S1543 W07143 - S1548 W07150 - S1542 W07159 -
S1520 W07205 - S1511 W07155 MOV N 20KT
FCST VA CLD +6 HR: 05/1830Z SFC/FL260 S1503 W07155
- S1507 W07143 - S1545 W07144 - S1550 W07150 -
S1548 W07155 - S1511 W07208 - S1503 W07155
FCST VA CLD +12 HR: 06/0030Z SFC/FL260 S1502
W07159 - S1506 W07147 - S1544 W07144 - S1550
W07150 - S1543 W07159 - S1514 W07207 - S1502
W07159
FCST VA CLD +18 HR: 06/0630Z SFC/FL260 S1505
W07207 - S1505 W07155 - S1544 W07144 - S1550
W07149 - S1549 W07157 - S1513 W07214 - S1505
W07207
RMK: VA PLUME MOV NNW IS DETECTED ON STLT
IMAGERY. WEBCAM SHOWS CONT EMS OF GASES AND VA
WITH INTERMITTENT PUFFS OF VA. SOME PUFFS OF VA
TL FL260. ...SMN
NXT ADVISORY: WILL BE ISSUED BY 20210105/1850Z=
___A___
ZPX0297 051240
CH LR PZX0000
CH LR PZX0000
___A___
ZPX0298 051243
GG SLLPYGZA
051243 SLLPYFYX
SVC MIS CH 1240 LR PZX0000
SVC MIS CH 1240 LR PZX0000
___A___
ZPX0299 051244
FF SLLPZRZX
051244 SLVRZPZX
(CHG-BOV708-SLVR1340-SAEZ-16/SAEZ0248 SAAR)
(CHG-BOV708-SLVR1340-SAEZ-16/SAEZ0248 SAAR)
___A___
ZPX0300 051251
GG SLZZYMYT
051251 SLPSYGYS
SABO SLPS 051300
METAR SLPS 051300Z 36004KT 9999 BKN013 BKN070 25/24 Q1011 A2986 HR92=
SABO SLPS 051300
METAR SLPS 051300Z 36004KT 9999 BKN013 BKN070 25/24 Q1011 A2986 HR92=
___A___
ZPX0301 051253
GG SLZZYMYT
051253 SLSBYSYX
SABO SLSB 051300
METAR SLSB 051300Z 35004KT 3000 -RA BKN005 OVC070 23/23 Q1004 A2965
HR99 RWY WET INOP=
SABO SLSB 051300
METAR SLSB 051300Z 35004KT 3000 -RA BKN005 OVC070 23/23 Q1004 A2965
HR99 RWY WET INOP=
___A___
ZPX0302 051253
GG SLZZYMYT
051253 SLSBYSYX
SABO SLSB 051300
METAR SLSB 051300Z 35004KT 3000 -RA BKN005 OVC070 23/23 Q1004 A2965
HR99 RWY WET INOP=
SABO SLSB 051300
METAR SLSB 051300Z 35004KT 3000 -RA BKN005 OVC070 23/23 Q1004 A2965
HR99 RWY WET INOP=
___A___
ZPX0303 051254
GG SLZZYMYT
051255 SLVRYGYZ
SABO SLVR 051300
METAR SLVR 051300Z 05005KT 4000 -RA BKN007 BKN017 FEW030CB OVC070 22/
21 Q1012 A2989 HR95 RETS CB NE/NW NOSIG=
SABO SLVR 051300
METAR SLVR 051300Z 05005KT 4000 -RA BKN007 BKN017 FEW030CB OVC070 22/
21 Q1012 A2989 HR95 RETS CB NE/NW NOSIG=
___A___
ZPX0304 051254
GG SLZZYMYT
051254 SLCAYGYS
SABO SLCA 051300
METAR SLCA 051300Z 00000KT 9999 BKN080 23/21 Q1014 A2994 HR85 RWY HUM
OPR=
SABO SLCA 051300
METAR SLCA 051300Z 00000KT 9999 BKN080 23/21 Q1014 A2994 HR85 RWY HUM
OPR=
___A___
ZPX0305 051255
GG SLZZYMYT
051255 SLORYGYZ
SABO SLOR 051300
METAR SLOR 051300Z 23005KT 9999 FEW070 SCT200 12/01 Q1032 A3049 654.3
HR47=
SABO SLOR 051300
METAR SLOR 051300Z 23005KT 9999 FEW070 SCT200 12/01 Q1032 A3049 654.3
HR47=
___A___
ZPX0306 051255
GG SLZZYMYT
051256 SLUYYGYS
SABO SLUY 051300
METAR SLUY 051300Z 00000KT 9999 FEW017 11/M02 Q1031 A3047
656.7 HR41 AC=
SABO SLUY 051300
METAR SLUY 051300Z 00000KT 9999 FEW017 11/M02 Q1031 A3047
656.7 HR41 AC=
___A___
ZPX0307 051255
GG SLZZYMYT
051254 SLRBYGYS
SABO SLRB 051300
METAR SLRB 051300Z 36010KT 9999 BKN023 27/22 Q1013 A2991 HR74 RWY NML=
SABO SLRB 051300
METAR SLRB 051300Z 36010KT 9999 BKN023 27/22 Q1013 A2991 HR74 RWY NML=
___A___
ZPX0308 051255
GG SLZZYMYT
051254 SLETYMYC
SABO SLET 051300
METAR SLET 051300Z 31006KT 4000 -TSRA SCT006 BKN013 FEW027CB OVC070
23/22 Q1011 A2988 HR96 CB/NW NOSIG=
SABO SLET 051300
METAR SLET 051300Z 31006KT 4000 -TSRA SCT006 BKN013 FEW027CB OVC070
23/22 Q1011 A2988 HR96 CB/NW NOSIG=
___A___
ZPX0309 051255
GG SLZZYMYT
051255 SLCOYGYZ
SABO SLCO 051300
METAR SLCO 051300Z 26010KT 9999 BKN007 BKN080 26/23 Q1010 A2984 983.2
HR81=
SABO SLCO 051300
METAR SLCO 051300Z 26010KT 9999 BKN007 BKN080 26/23 Q1010 A2984 983.2
HR81=
___A___
ZPX0310 051255
FF SLLPZRZX
051255 SLCBYSYX
(DEP-BOV570/A1760-SLCB1253-SLAL-REG/CP2716)
(DEP-BOV570/A1760-SLCB1253-SLAL-REG/CP2716)
___A___
ZPX0311 051256
GG SLZZYMYT
051255 SLLPYGYZ
SABO SLLP 051300
METAR SLLP 051300Z 11004KT 050V150 9999 FEW008 BKN200 10/04 Q1035
A3056 625.9 HR70 P93// AC NOSIG=
SABO SLLP 051300
METAR SLLP 051300Z 11004KT 050V150 9999 FEW008 BKN200 10/04 Q1035
A3056 625.9 HR70 P93// AC NOSIG=
___A___
ZPX0312 051256
GG SLZZYMYT
051255 SLSAYGYS
SABO SLSA 051300
METAR SLSA 051300Z 36010KT 8000 VCSH SCT006 BKN015 BKN070 25/24
Q1009 A2981 HR90 SH S/SW/W=
SABO SLSA 051300
METAR SLSA 051300Z 36010KT 8000 VCSH SCT006 BKN015 BKN070 25/24
Q1009 A2981 HR90 SH S/SW/W=
___A___
ZPX0313 051256
GG SLZZYMYT
051256 SLTJYGYZ
SABO SLTJ 051300
METAR SLTJ 051300Z 15004KT 9999 FEW030 BKN200 20/15 Q1018 A3007 813.5
HR70 AC=
SABO SLTJ 051300
METAR SLTJ 051300Z 15004KT 9999 FEW030 BKN200 20/15 Q1018 A3007 813.5
HR70 AC=
___A___
ZPX0314 051256
GG SLZZYMYT
051256 SLTRYGYZ
SABO SLTR 051300
METAR SLTR 051300Z 02006KT 9999 -RA SCT005 OVC070 25/24 Q1010
A2984 992.0 HR95 TEMPO BKN005=
SABO SLTR 051300
METAR SLTR 051300Z 02006KT 9999 -RA SCT005 OVC070 25/24 Q1010
A2984 992.0 HR95 TEMPO BKN005=
1112
___A___
ZPX0315 051258
GG SLZZYMYT
051258 SLVRYFYC
SABO SLVR 051300
METAR SLVR 051300Z 05005KT 4000 -RA BKN007 BKN017 FEW030CB OVC070 22/
21 Q1012 A2989 HR95 RETS CB NE/NW NOSIG=
METAR SLET 051300Z 31006KT 4000 -TSRA SCT006 BKN013 FEW027CB OVC070
23/22 Q1011 A2988 HR96 CB NW NOSIG=
METAR SLAS 051300Z 00000KT 8000 TS VCSH OVC013 FEW030CB 23/22 Q1013
A2992 HR95 CB/TS/SH SW/W/NW RWY WET OPR=
METAR SLJV 051300Z 36005KT 9999 BKN013 BKN070 23/22 Q1010 A2983 HR93
RWY WET OPR=
METAR SLCP 051300Z 00000KT 9999 BKN013 BKN070 24/23 Q1014 A2994 HR92
RWY NML=
METAR SLSI 051300Z 00000KT 9999 SCT015 BKN070 25/22 Q1012 A2988 HR83
RWY HUM OPR=
METAR SLTI 051300Z 00000KT 9999 BKN070 27/23 Q1015 A2997 HR82 RWY NML
METAR SLJE 051300Z 00000KT 9999 OVC008 25/23 Q1014 A2994 HR90 RWY HUM
OPR=
METAR SLVG 051300Z 00000KT 9999 SCT015 OVC070 16/15 Q1023 A3021 HR90
RWY HUM OPR=
METAR SLRB 051300Z 36010KT 9999 BKN023 27/22 Q1013 A2991 HR74 RWY NML
METAR SLPS 051300Z 36004KT 9999 BKN013 BKN070 25/24 Q1011 A2986 HR92=
METAR SLCA 051300Z 00000KT 9999 BKN080 23/21 Q1014 A2994 HR85 RWY HUM
OPR=
SABO SLVR 051300
METAR SLVR 051300Z 05005KT 4000 -RA BKN007 BKN017 FEW030CB OVC070 22/
21 Q1012 A2989 HR95 RETS CB NE/NW NOSIG=
METAR SLET 051300Z 31006KT 4000 -TSRA SCT006 BKN013 FEW027CB OVC070
23/22 Q1011 A2988 HR96 CB NW NOSIG=
METAR SLAS 051300Z 00000KT 8000 TS VCSH OVC013 FEW030CB 23/22 Q1013
A2992 HR95 CB/TS/SH SW/W/NW RWY WET OPR=
METAR SLJV 051300Z 36005KT 9999 BKN013 BKN070 23/22 Q1010 A2983 HR93
RWY WET OPR=
METAR SLCP 051300Z 00000KT 9999 BKN013 BKN070 24/23 Q1014 A2994 HR92
RWY NML=
METAR SLSI 051300Z 00000KT 9999 SCT015 BKN070 25/22 Q1012 A2988 HR83
RWY HUM OPR=
METAR SLTI 051300Z 00000KT 9999 BKN070 27/23 Q1015 A2997 HR82 RWY NML
METAR SLJE 051300Z 00000KT 9999 OVC008 25/23 Q1014 A2994 HR90 RWY HUM
OPR=
METAR SLVG 051300Z 00000KT 9999 SCT015 OVC070 16/15 Q1023 A3021 HR90
RWY HUM OPR=
METAR SLRB 051300Z 36010KT 9999 BKN023 27/22 Q1013 A2991 HR74 RWY NML
METAR SLPS 051300Z 36004KT 9999 BKN013 BKN070 25/24 Q1011 A2986 HR92=
METAR SLCA 051300Z 00000KT 9999 BKN080 23/21 Q1014 A2994 HR85 RWY HUM
OPR=
___A___
ZPX0316 051258
GG SLZZYMYT
051258 SLCBYGYZ
SABO SLCB 051300
METAR SLCB 051300Z 30003KT 9000 -RA SCT017 SCT025 BKN070 15/14 Q1024
A3024 750.6 HR94 CI NOSIG=
SABO SLCB 051300
METAR SLCB 051300Z 30003KT 9000 -RA SCT017 SCT025 BKN070 15/14 Q1024
A3024 750.6 HR94 CI NOSIG=
___A___
ZPX0317 051300
CH LR PZX0000
CH LR PZX0000
___A___
ZPX0318 051300
GG SLZZYMYT
051300 SLTRYGYS
SABO SLTR 051300
METAR SLTR 051300Z 02006KT 9999 -RA SCT005 OVC070 25/24 Q1010
A2984 992.0 HR95 TEMPO BKN005=
METAR SLGM 051300Z 02012KT 9999 SCT012 BKN080 27/24 Q1010 A2985 HR84=
METAR SLRI 051300Z 03008KT 9999 SCT008 BKN080 25/24 Q1011 A2988 HR92=
METAR SLJO 051300Z 36008KT 7000 VCSH SCT010 FEW023CB BKN080 25/24
Q1008 A2979 HR94 CB/SH SE/S RWY WET OPR C206=
METAR SLRA 051300Z 36008KT 7000 VCSH SCT008 FEW023CB BKN080 25/24
Q1009 A2981 HR92 CB/SH E/SE RWY NML=
METAR SLMG 051300Z 34004KT 9999 SCT008 BKN080 OVC200 24/23 Q1010
A2982 HR94 RWY HUM OPR=
METAR SLBU 051300Z NIL=
METAR SLSA 051300Z 36010KT 8000 VCSH SCT006 BKN015 BKN070 25/24
Q1009 A2981 HR90 SH S/SW/W=
METAR SLSR 051300Z 32008KT 7000 -RA BKN008 FEW020CB OVC070 23/23
Q1009 A2980 HR100 CB W/NW RWY WET INOP=
METAR SLSM 051300Z 00000KT 3000 -RA BKN015 OVC070 24/24 Q1010 A2983
HR99 RWY WET INOP=
SABO SLTR 051300
METAR SLTR 051300Z 02006KT 9999 -RA SCT005 OVC070 25/24 Q1010
A2984 992.0 HR95 TEMPO BKN005=
METAR SLGM 051300Z 02012KT 9999 SCT012 BKN080 27/24 Q1010 A2985 HR84=
METAR SLRI 051300Z 03008KT 9999 SCT008 BKN080 25/24 Q1011 A2988 HR92=
METAR SLJO 051300Z 36008KT 7000 VCSH SCT010 FEW023CB BKN080 25/24
Q1008 A2979 HR94 CB/SH SE/S RWY WET OPR C206=
METAR SLRA 051300Z 36008KT 7000 VCSH SCT008 FEW023CB BKN080 25/24
Q1009 A2981 HR92 CB/SH E/SE RWY NML=
METAR SLMG 051300Z 34004KT 9999 SCT008 BKN080 OVC200 24/23 Q1010
A2982 HR94 RWY HUM OPR=
METAR SLBU 051300Z NIL=
METAR SLSA 051300Z 36010KT 8000 VCSH SCT006 BKN015 BKN070 25/24
Q1009 A2981 HR90 SH S/SW/W=
METAR SLSR 051300Z 32008KT 7000 -RA BKN008 FEW020CB OVC070 23/23
Q1009 A2980 HR100 CB W/NW RWY WET INOP=
METAR SLSM 051300Z 00000KT 3000 -RA BKN015 OVC070 24/24 Q1010 A2983
HR99 RWY WET INOP=
___A___
ZPX0319 051301
GG SLZZYMYT
051259 SLLPYFYA
SABO SLRY 051300
METAR SLRY 051300Z 34003KT 9999 BKN006 BKN012 OVC070 23/23 Q1006
A2971 HR98 SH TODIR RERA RWY WET INOP=
SABO SLRY 051300
METAR SLRY 051300Z 34003KT 9999 BKN006 BKN012 OVC070 23/23 Q1006
A2971 HR98 SH TODIR RERA RWY WET INOP=
___A___
ZPX0320 051301
GG SLZZYMYT
051300 SLCBYGYS
SABO SLCB 051300
METAR SLCB 051300Z 30003KT 9000 -RA SCT017 SCT025 BKN070 15/14 Q1024
A3024 750.6 HR94 CI NOSIG=
METAR SLAL 051300Z 34005KT 6000 FEW005 BKN008 BKN070 11/10 Q1028
A3036 703.0 HR88 VIS RED ST BAJOS/N/S/SW=
METAR SLPO 051300Z 06006KT 9999 SCT015 10/06 Q1034 A3055 635.7 HR77=
METAR SLAG 051300Z NIL=
METAR SLVM 051300Z 00000KT 9999 NSC 29/23 Q1009 A2982 HR71 FU CI=
METAR SLTJ 051300Z 15004KT 9999 FEW030 BKN200 20/15 Q1018 A3007 813.5
HR70 AC=
METAR SLYA 051300Z 00000KT 9999 NSC 28/23 Q1010 A2985 935.6 HR73=
METAR SLBJ 051300Z NIL=
METAR SLHI 051300Z NIL=
SABO SLCB 051300
METAR SLCB 051300Z 30003KT 9000 -RA SCT017 SCT025 BKN070 15/14 Q1024
A3024 750.6 HR94 CI NOSIG=
METAR SLAL 051300Z 34005KT 6000 FEW005 BKN008 BKN070 11/10 Q1028
A3036 703.0 HR88 VIS RED ST BAJOS/N/S/SW=
METAR SLPO 051300Z 06006KT 9999 SCT015 10/06 Q1034 A3055 635.7 HR77=
METAR SLAG 051300Z NIL=
METAR SLVM 051300Z 00000KT 9999 NSC 29/23 Q1009 A2982 HR71 FU CI=
METAR SLTJ 051300Z 15004KT 9999 FEW030 BKN200 20/15 Q1018 A3007 813.5
HR70 AC=
METAR SLYA 051300Z 00000KT 9999 NSC 28/23 Q1010 A2985 935.6 HR73=
METAR SLBJ 051300Z NIL=
METAR SLHI 051300Z NIL=
___A___
ZPX0321 051301
GG SLZZYMYT
051301 SLLPYFYA
SABO SLAP 051300
METAR SLAP 051300Z 36008KT 5000 -RA BKN012 OVC070 17/17 Q1015 A2996
856.3 HR98=
SABO SLAP 051300
METAR SLAP 051300Z 36008KT 5000 -RA BKN012 OVC070 17/17 Q1015 A2996
856.3 HR98=
___A___
ZPX0322 051303
GG SLLPYGZA
051303 SLLPYFYX
SVC MIS CH 1300 LR PZX0000
SVC MIS CH 1300 LR PZX0000
___A___
ZPX0323 051303
GG SLZZYMYT
051303 SLLPYFYA
SABO SLLP 051300
METAR SLLP 051300Z 11004KT 050V150 9999 FEW008 BKN200 10/04 Q1035
A3056 625.9 HR70 P93// AC NOSIG=
METAR SLCO 051300Z 26010KT 9999 BKN007 BKN080 26/23 Q1010 A2984 983.2
HR81=
METAR SLRY 051300Z 34003KT 9999 BKN006 BKN012 OVC070 23/23 Q1006
A2971 HR98 SH TODIR RERA RWY WET INOP=
METAR SLRQ 051300Z 00000KT 5000 -RA SCT005 BKN010 OVC070 24/24 Q1009
A2980 HR100=
METAR SLAP 051300Z 36008KT 5000 -RA BKN012 OVC070 17/17 Q1015 A2996
856.3 HR98=
METAR SLSB 051300Z 35004KT 3000 -RA BKN005 OVC070 23/23 Q1004 A2965
HR99 RWY WET INOP=
METAR SLOR 051300Z 23005KT 9999 FEW070 SCT200 12/01 Q1032 A3049 654.3
HR47=
METAR SLUY 051300Z 00000KT 9999 FEW017 11/M02 Q1031 A3047
656.7 HR41 AC=
SABO SLLP 051300
METAR SLLP 051300Z 11004KT 050V150 9999 FEW008 BKN200 10/04 Q1035
A3056 625.9 HR70 P93// AC NOSIG=
METAR SLCO 051300Z 26010KT 9999 BKN007 BKN080 26/23 Q1010 A2984 983.2
HR81=
METAR SLRY 051300Z 34003KT 9999 BKN006 BKN012 OVC070 23/23 Q1006
A2971 HR98 SH TODIR RERA RWY WET INOP=
METAR SLRQ 051300Z 00000KT 5000 -RA SCT005 BKN010 OVC070 24/24 Q1009
A2980 HR100=
METAR SLAP 051300Z 36008KT 5000 -RA BKN012 OVC070 17/17 Q1015 A2996
856.3 HR98=
METAR SLSB 051300Z 35004KT 3000 -RA BKN005 OVC070 23/23 Q1004 A2965
HR99 RWY WET INOP=
METAR SLOR 051300Z 23005KT 9999 FEW070 SCT200 12/01 Q1032 A3049 654.3
HR47=
METAR SLUY 051300Z 00000KT 9999 FEW017 11/M02 Q1031 A3047
656.7 HR41 AC=
___A___
ZPX0324 051304
FF SLLPZRZX
051305 SLLPYSYX
(FPL-BOV442-IS
-B733/M-SDFHIRW/S
-SLCB1405
-N0440F290 UW12
-SLTR0040 SLCB SLVR
-PBN/B3B4B5 RMK/RPL)
(FPL-BOV442-IS
-B733/M-SDFHIRW/S
-SLCB1405
-N0440F290 UW12
-SLTR0040 SLCB SLVR
-PBN/B3B4B5 RMK/RPL)
___A___
ZPX0325 051304
FF SLLPZRZX
051305 SLLPYSYX
(FPL-BOV608-IS
-B737/M-SDFGHIRW/S
-SLCB1405
-N0440F280 UW677
-SLLP0030 SLCB SLVR
-PBN/B1C1D1S1 RMK/RPL)
(FPL-BOV608-IS
-B737/M-SDFGHIRW/S
-SLCB1405
-N0440F280 UW677
-SLLP0030 SLCB SLVR
-PBN/B1C1D1S1 RMK/RPL)
___A___
ZPX0326 051305
FF SLLPZRZX
051305 SLALZPZX
(FPL-AZN171-IS
-E190/M-SDFGHIRWY/EB1
-SLAL1405
-N0460F270 UW14
-SLVR0030 SLCB
-PBN/B2B3B4B5D1O1S2 REG/CP3145)
(FPL-AZN171-IS
-E190/M-SDFGHIRWY/EB1
-SLAL1405
-N0460F270 UW14
-SLVR0030 SLCB
-PBN/B2B3B4B5D1O1S2 REG/CP3145)
___A___
ZPX0327 051306
FF SLLPZRZX
051303 SLSAZPZX
(FPL-CP1774-VG
-C206/L-VFO/N
-SLSA1400
-N0120F025 DCT VFR
-ZZZZ0020 SLSA
-DEST/QUEBRACHO OPR/PIBES AIR RMK/HDG320 RETORNA PIC JESUS E.
ABULARACH D.LIC 1694807 CEL 71147630)
(FPL-CP1774-VG
-C206/L-VFO/N
-SLSA1400
-N0120F025 DCT VFR
-ZZZZ0020 SLSA
-DEST/QUEBRACHO OPR/PIBES AIR RMK/HDG320 RETORNA PIC JESUS E.
ABULARACH D.LIC 1694807 CEL 71147630)
___A___
ZPX0328 051310
GG SLZZYMYT
051310 SLETYMYC
SABO SLET 051300 CCA
METAR SLET 051300Z 31006KT 4000 -RA SCT006 BKN013 FEW027CB OVC070
23/22 Q1011 A2988 HR96 CB/NW NOSIG=
SABO SLET 051300 CCA
METAR SLET 051300Z 31006KT 4000 -RA SCT006 BKN013 FEW027CB OVC070
23/22 Q1011 A2988 HR96 CB/NW NOSIG=
___A___
ZPX0329 051311
FF SLLPZRZX
051309 SLCBZPZX
(FPL-BOL751-IN
-DC10/H-SDFGHIRWY/LB1
-SLCB1430
-N0517F250 VAREB3 VAREB UM793 VIR
-SLVR0027 SLCB
-PBN/A1B1 SUR/260B REG/CP2791 SEL/AHFM CODE/E940A2 OPR/TAB AIRLINES
PER/D RMK/CARGO)
(FPL-BOL751-IN
-DC10/H-SDFGHIRWY/LB1
-SLCB1430
-N0517F250 VAREB3 VAREB UM793 VIR
-SLVR0027 SLCB
-PBN/A1B1 SUR/260B REG/CP2791 SEL/AHFM CODE/E940A2 OPR/TAB AIRLINES
PER/D RMK/CARGO)
___A___
ZPX0330 051312
FF SLLPZRZX
051311 SLCBZPZX
(CNL-BOL753-SLCB1430-SLVR-0)
(CNL-BOL753-SLCB1430-SLVR-0)
___A___
ZPX0331 051313
FF SLLPZRZX
051310 SLTRZPZX
(FPL-CP1781-VG
-C172/L-OV/C
-SLTR1430
-N0100F025 TRI340070
-SLSA0050 SLTR
-OPR/PIBES AIR RMK/PIC.DANIEL EGUEZ HURTADO LIC 5615812 CEL 72670041)
(FPL-CP1781-VG
-C172/L-OV/C
-SLTR1430
-N0100F025 TRI340070
-SLSA0050 SLTR
-OPR/PIBES AIR RMK/PIC.DANIEL EGUEZ HURTADO LIC 5615812 CEL 72670041)
___A___
ZPX0332 051314
FF SLLPZRZX
051311 SLTRZPZX
(FPL-CP2740-VG
-C206/L-FOV/C
-SLTR1400
-N0120F025 TRI340070
-SLSA0050 SLTR
-OPR/PIBES AIR RMK/PIC.JESUS E. ABULARACH CUELLAR LIC 1920536 CEL
72100206)
(FPL-CP2740-VG
-C206/L-FOV/C
-SLTR1400
-N0120F025 TRI340070
-SLSA0050 SLTR
-OPR/PIBES AIR RMK/PIC.JESUS E. ABULARACH CUELLAR LIC 1920536 CEL
72100206)
___A___
ZPX0333 051316
FF SLLPZRZX
051312 SLTRZPZX
(FPL-CP2948-VG
-C172/L-FOV/C
-SLTR1430
-N0100F025 TRI340070
-SLSA0040 SLTR
-OPR/ANA P. SHIRIQUI RMK/PIC.FELIX TACANA LIC 1698533 TEL 68776011)
(FPL-CP2948-VG
-C172/L-FOV/C
-SLTR1430
-N0100F025 TRI340070
-SLSA0040 SLTR
-OPR/ANA P. SHIRIQUI RMK/PIC.FELIX TACANA LIC 1698533 TEL 68776011)
___A___
ZPX0334 051317
FF SLLPZRZX
051318 SLLPYSYX
(FPL-BOV636-IS
-B733/M-SDFHIRW/S
-SLCB1420
-N0440F290 UW677
-SLVR0040 SLCB SLLP
-PBN/B3B4B5 RMK/RPL)
(FPL-BOV636-IS
-B733/M-SDFHIRW/S
-SLCB1420
-N0440F290 UW677
-SLVR0040 SLCB SLLP
-PBN/B3B4B5 RMK/RPL)
___A___
ZPX0335 051318
FF SLLPZRZX
051313 SLTRZPZX
(FPL-CP2528-VG
-C172/L-FOV/C
-SLTR1500
-N0100F025 TRI340070
-SLSA0050 SLTR
-OPR/ROGERIO CADORE RMK/PIC.DENNIS MERCADO LIC 7598290 TEL 68127649)
(FPL-CP2528-VG
-C172/L-FOV/C
-SLTR1500
-N0100F025 TRI340070
-SLSA0050 SLTR
-OPR/ROGERIO CADORE RMK/PIC.DENNIS MERCADO LIC 7598290 TEL 68127649)
___A___
ZPX0336 051320
CH LR PZX0000
CH LR PZX0000
___A___
ZPX0337 051322
FF SLLPZRZX
051322 SLTRZPZX
(FPL-AZN292-IS
-DH8B/M-SDFGR/C
-SLTR1340
-N0230F190 TRI M653 SLGM
-SLGM0100 SLTR
-PBN/B2B3B4 REG/CP3092 OPR/AMASZONAS S.A.)
(FPL-AZN292-IS
-DH8B/M-SDFGR/C
-SLTR1340
-N0230F190 TRI M653 SLGM
-SLGM0100 SLTR
-PBN/B2B3B4 REG/CP3092 OPR/AMASZONAS S.A.)
___A___
ZPX0338 051323
GG SLLPYGZA
051323 SLLPYFYX
SVC MIS CH 1320 LR PZX0000
SVC MIS CH 1320 LR PZX0000
___A___
ZPX0339 051328
FF SLLPZRZX
051327 SLCBZPZX
(FPL-AZN151-IS
-E190/M-SDFGHIRWY/EB1
-SLCB1415
-N0460F290 VAREB3 VAREB UW677 VIR
-SLVR0035 SLCB
-PBN/B2B3B4B5D1O1S2 REG/CP3135)
(FPL-AZN151-IS
-E190/M-SDFGHIRWY/EB1
-SLCB1415
-N0460F290 VAREB3 VAREB UW677 VIR
-SLVR0035 SLCB
-PBN/B2B3B4B5D1O1S2 REG/CP3135)
___A___
ZPX0340 051329
FF SLLPZRZX
051328 SLCBZPZX
(FPL-AZN155-IS
-E190/M-SDFGHIRWY/EB1
-SLCB1800
-N0460F290 VAREB3 VAREB UW677 VIR
-SLVR0035 SLCB
-PBN/B2B3B4B5D1O1S2 REG/CP3145)
(FPL-AZN155-IS
-E190/M-SDFGHIRWY/EB1
-SLCB1800
-N0460F290 VAREB3 VAREB UW677 VIR
-SLVR0035 SLCB
-PBN/B2B3B4B5D1O1S2 REG/CP3145)
___A___
ZPX0341 051331
FF SLLPZRZX
051325 SLSAZPZX
(FPL-CP1123-VG
-C182/L-FOV/C
-SLSA1400
-N0110F025 DCT VFR
-ZZZZ0025 SLSA
-DEST/SAN CARLOS OPR/HUGO GUITERA RMK/HDG340 RETORNA PIC OSMY ALEXEY
GUARNIZO S.LIC 80815449 CEL 78517824)
(FPL-CP1123-VG
-C182/L-FOV/C
-SLSA1400
-N0110F025 DCT VFR
-ZZZZ0025 SLSA
-DEST/SAN CARLOS OPR/HUGO GUITERA RMK/HDG340 RETORNA PIC OSMY ALEXEY
GUARNIZO S.LIC 80815449 CEL 78517824)
___A___
ZPX0342 051333
FF SLLPZRZX
051331 SLTRZPZX
(FPL-CP1402-VG
-C206/L-FOV/C
-SLTR1430
-N0120F025 TRI340070
-SLSA0040 SLTR
-OPR/PIBES AIR RMK/PIC.LUIS F. ABULARACH LIC 1707341 TEL 71665968)
(FPL-CP1402-VG
-C206/L-FOV/C
-SLTR1430
-N0120F025 TRI340070
-SLSA0040 SLTR
-OPR/PIBES AIR RMK/PIC.LUIS F. ABULARACH LIC 1707341 TEL 71665968)
___A___
ZPX0343 051334
FF SLLPZRZX
051335 SLLPYSYX
(FPL-BOV607-IS
-B737/M-SDFGHIRW/S
-SLLP1435
-N0440F270 UW677
-SLCB0030 SLVR SLLP
-PBN/B1C1D1S1 RMK/RPL)
(FPL-BOV607-IS
-B737/M-SDFGHIRW/S
-SLLP1435
-N0440F270 UW677
-SLCB0030 SLVR SLLP
-PBN/B1C1D1S1 RMK/RPL)
___A___
ZPX0344 051336
FF SLLPZRZX
051338 SLLPYSYX
(FPL-BOV274-IS
-CRJ2/M-SDFGIRW/S
-SLCB1440
-N0350F250 UW22
-SLAL0030 SLVR SLCB
-PBN/B1C1D1S1 RMK/RPL)
(FPL-BOV274-IS
-CRJ2/M-SDFGIRW/S
-SLCB1440
-N0350F250 UW22
-SLAL0030 SLVR SLCB
-PBN/B1C1D1S1 RMK/RPL)
___A___
ZPX0345 051340
CH LR PZX0000
CH LR PZX0000
___A___
ZPX0346 051340
FF SLLPZRZX
051338 SLCBZPZX
(FPL-BOV608-IS
-B738/M-SDFGHIRW/S
-SLCB1515
-N0440F280 TEDOK3 TEDOK UW677 PAZ
-SLLP0030 SLCB
-PBN/B1C1D1S1 REG/CP3138 SEL/KLCR)
(FPL-BOV608-IS
-B738/M-SDFGHIRW/S
-SLCB1515
-N0440F280 TEDOK3 TEDOK UW677 PAZ
-SLLP0030 SLCB
-PBN/B1C1D1S1 REG/CP3138 SEL/KLCR)
___A___
ZPX0347 051343
GG SLLPYGZA
051343 SLLPYFYX
SVC MIS CH 1340 LR PZX0000
SVC MIS CH 1340 LR PZX0000
___A___
ZPX0348 051343
FF SLLPZRZX
051341 SLALZPZX
(FPL-BOV571-IS
-B733/M-SDFHIRW/S
-SLAL1415
-N0435F260 ALC UW22 CBA
-SLCB0038 SLAL
-PBN/B3B4B5C3C4D3D4 REG/CP2716 SEL/EGFM PER/C)
(FPL-BOV571-IS
-B733/M-SDFHIRW/S
-SLAL1415
-N0435F260 ALC UW22 CBA
-SLCB0038 SLAL
-PBN/B3B4B5C3C4D3D4 REG/CP2716 SEL/EGFM PER/C)
___A___
ZPX0349 051347
FF SLLPZRZX
051348 SLLPYSYX
(FPL-BOV527-IS
-B733/M-SDFHIRW/S
-SLTJ1450
-N0440F340 UW22
-SLCB0050 SLVR SLCB
-PBN/B3B4B5 RMK/RPL)
(FPL-BOV527-IS
-B733/M-SDFHIRW/S
-SLTJ1450
-N0440F340 UW22
-SLCB0050 SLVR SLCB
-PBN/B3B4B5 RMK/RPL)
___A___
ZPX0350 051351
GG SLZZYMYT
051350 SLPSYGYS
SABO SLPS 051400
METAR SLPS 051400Z 00000KT 9999 SCT013 BKN070 26/24 Q1011 A2986 HR89=
SABO SLPS 051400
METAR SLPS 051400Z 00000KT 9999 SCT013 BKN070 26/24 Q1011 A2986 HR89=
___A___
ZPX0351 051352
GG SLZZYMYT
051352 SLSBYSYX
SABO SLSB 051400
METAR SLSB 051400Z 36004KT 3000 -RA BKN005 OVC070 23/23 Q1005 A2968
HR98 RWY WET INOP=
SABO SLSB 051400
METAR SLSB 051400Z 36004KT 3000 -RA BKN005 OVC070 23/23 Q1005 A2968
HR98 RWY WET INOP=
___A___
ZPX0352 051352
GG SLZZYMYT
051352 SLSBYSYX
SABO SLSB 051400
METAR SLSB 051400Z 36004KT 3000 -RA BKN005 OVC070 23/23 Q1005 A2968
HR98 RWY WET INOP=
SABO SLSB 051400
METAR SLSB 051400Z 36004KT 3000 -RA BKN005 OVC070 23/23 Q1005 A2968
HR98 RWY WET INOP=
___A___
ZPX0353 051353
GG SLZZYMYT
051355 SLVRYGYZ
SABO SLVR 051400
METAR SLVR 051400Z 04005KT 4000 -RA SCT008 BKN017 FEW030CB OVC070 21/
21 Q1012 A2989 HR95 CB NE/NW NOSIG=
SABO SLVR 051400
METAR SLVR 051400Z 04005KT 4000 -RA SCT008 BKN017 FEW030CB OVC070 21/
21 Q1012 A2989 HR95 CB NE/NW NOSIG=
___A___
ZPX0354 051354
GG SLZZYMYT
051353 SLRBYGYS
SABO SLRB 051400
METAR SLRB 051400Z 36015KT 9999 BKN023 27/21 Q1013 A2991 HR72 RWY NML=
SABO SLRB 051400
METAR SLRB 051400Z 36015KT 9999 BKN023 27/21 Q1013 A2991 HR72 RWY NML=
___A___
ZPX0355 051354
GG SLZZYMYT
051352 SLETYMYC
SABO SLET 051400
METAR SLET 051400Z 12003KT 4000 -RA SCT006 BKN010 FEW027CB OVC070 22/
21 Q1012 A2989 HR97 CB NW/N NOSIG=
SABO SLET 051400
METAR SLET 051400Z 12003KT 4000 -RA SCT006 BKN010 FEW027CB OVC070 22/
21 Q1012 A2989 HR97 CB NW/N NOSIG=
___A___
ZPX0356 051355
GG SLZZYMYT
051354 SLSAYGYS
SABO SLSA 051400
METAR SLSA 051400Z 34006KT 8000 VCSH BKN015 BKN070 26/24
Q1010 A2983 HR89 SH S/SW/W=
SABO SLSA 051400
METAR SLSA 051400Z 34006KT 8000 VCSH BKN015 BKN070 26/24
Q1010 A2983 HR89 SH S/SW/W=
___A___
ZPX0357 051355
GG SLZZYMYT
051355 SLCOYGYZ
SABO SLCO 051300
METAR SLCO 051300Z 35012KT 9999 BKN011 SCT080 28/23 Q1010 A2985 983.3
HR77=
SABO SLCO 051300
METAR SLCO 051300Z 35012KT 9999 BKN011 SCT080 28/23 Q1010 A2985 983.3
HR77=
___A___
ZPX0358 051355
GG SLZZYMYT
051355 SLUYYGYS
SABO SLUY 051400
METAR SLUY 051400Z VRB02KT 9999 FEW023 12/M01 Q1031 A3046
656.6 HR40 AC=
SABO SLUY 051400
METAR SLUY 051400Z VRB02KT 9999 FEW023 12/M01 Q1031 A3046
656.6 HR40 AC=
___A___
ZPX0359 051355
GG SLZZYMYT
051355 SLTRYGYZ
SABO SLTR 051400
METAR SLTR 051400Z 36005KT 5000 -RA SCT005 OVC070 25/24 Q1011 A2986
992.6 HR95 TEMPO 3000 BKN005=
SABO SLTR 051400
METAR SLTR 051400Z 36005KT 5000 -RA SCT005 OVC070 25/24 Q1011 A2986
992.6 HR95 TEMPO 3000 BKN005=
___A___
ZPX0360 051356
FF SLLPZRZX
051355 SLETZPZX
(FPL-CP3144-ZX
-PA34/L-FOV/C
-SLET1450
-N0140F085 VIR353010/N0140F080 DCT 1053S06522W
-SLGM0300 SLVR SLRI
-STS/MEDEVAC OPR/JAVIER SARDAN RMK/PIC. JAVIER SARDAN LIC. 4093601
CEL. 75004310)
(FPL-CP3144-ZX
-PA34/L-FOV/C
-SLET1450
-N0140F085 VIR353010/N0140F080 DCT 1053S06522W
-SLGM0300 SLVR SLRI
-STS/MEDEVAC OPR/JAVIER SARDAN RMK/PIC. JAVIER SARDAN LIC. 4093601
CEL. 75004310)
___A___
ZPX0361 051356
GG SLZZYMYT
051356 SLCBYGYZ
SABO SLCB 051400
METAR SLCB 051400Z 20003KT 9999 SCT020 SCT070 BKN200 17/12 Q1023
A3023 750.5 HR74 NOSIG=
SABO SLCB 051400
METAR SLCB 051400Z 20003KT 9999 SCT020 SCT070 BKN200 17/12 Q1023
A3023 750.5 HR74 NOSIG=
___A___
ZPX0362 051356
GG SLZZYMYT
051355 SLORYGYZ
SABO SLOR 051400
METAR SLOR 051400Z 21008KT 9999 FEW017 SCT200 15/02 Q1032 A3049 654.1
HR41=
SABO SLOR 051400
METAR SLOR 051400Z 21008KT 9999 FEW017 SCT200 15/02 Q1032 A3049 654.1
HR41=
___A___
ZPX0363 051356
GG SLZZYMYT
051356 SLCAYGYS
SABO SLCA 051400
METAR SLCA 051400Z 00000KT 9999 FEW033 BKN080 25/21 Q014 A2994 HR77
RWY HUM OPR=
SABO SLCA 051400
METAR SLCA 051400Z 00000KT 9999 FEW033 BKN080 25/21 Q014 A2994 HR77
RWY HUM OPR=
___A___
ZPX0364 051357
GG SLZZYMYT
051356 SLTJYGYZ
SABO SLTJ 051400
METAR SLTJ 051400Z 12004KT 9999 FEW030 BKN070 22/14 Q1018 A3008 813.7
HR60 CI=
SABO SLTJ 051400
METAR SLTJ 051400Z 12004KT 9999 FEW030 BKN070 22/14 Q1018 A3008 813.7
HR60 CI=
___A___
ZPX0365 051357
GG SLZZYMYT
051355 SLLPYGYZ
SABO SLLP 051400
METAR SLLP 051400Z 12007KT 050V220 9999 FEW013 BKN200 12/05 Q1035
A3057 626.0 HR63 P94// AC NOSIG=
SABO SLLP 051400
METAR SLLP 051400Z 12007KT 050V220 9999 FEW013 BKN200 12/05 Q1035
A3057 626.0 HR63 P94// AC NOSIG=
___A___
ZPX0366 051359
GG SLZZYMYT
051358 SLCOYGYZ
SABO SLCO 051400 CCA
METAR COR SLCO 051400Z 35012KT 9999 BKN011 SCT080 28/23 Q1010 A2985
983.3 HR77=
SABO SLCO 051400 CCA
METAR COR SLCO 051400Z 35012KT 9999 BKN011 SCT080 28/23 Q1010 A2985
983.3 HR77=
___A___
ZPX0367 051359
GG SLZZYMYT
051358 SLTRYGYS
SABO SLTR 051400
METAR SLTR 051400Z 36005KT 5000 -RA SCT005 OVC070 25/24 Q1011 A2986
992.6 HR95 TEMPO 3000 BKN005=
METAR SLGM 051400Z 02012KT 9999 SCT015 BKN080 28/23 Q1011 A2986 HR75=
METAR SLRI 051400Z NIL=
METAR SLJO 051400Z 36010KT 8000 VCSH SCT010 FEW023CB BKN080 26/24
Q1008 A2979 HR89 CB/SH SE RWY HUM OPR=
METAR SLRA 051400Z 36008KT 9999 SCT008 FEW023CB OVC070 26/24 Q1009
A2982 HR91 CB E RWY NML=
METAR SLMG 051400Z 32004KT 9999 SCT010 BKN080 25/24 Q1010 A2984 HR92
RWY HUM OPR=
METAR SLBU 051400Z NIL=
METAR SLSA 051400Z 34006KT 8000 VCSH BKN015 BKN070 26/24
Q1010 A2983 HR89 SH S/SW/W=
METAR SLSR 051400Z 32008KT 8000 -RA FEW008 SCT010 FEW020CB OVC070
23/23 Q1009 A2981 HR98 CB W RWY WET INOP=
METAR SLSM 051400Z 09003KT 3000 -RA BKN015 OVC070 24/24 Q1010 A2984
HR99 RWY WET INOP=
SABO SLTR 051400
METAR SLTR 051400Z 36005KT 5000 -RA SCT005 OVC070 25/24 Q1011 A2986
992.6 HR95 TEMPO 3000 BKN005=
METAR SLGM 051400Z 02012KT 9999 SCT015 BKN080 28/23 Q1011 A2986 HR75=
METAR SLRI 051400Z NIL=
METAR SLJO 051400Z 36010KT 8000 VCSH SCT010 FEW023CB BKN080 26/24
Q1008 A2979 HR89 CB/SH SE RWY HUM OPR=
METAR SLRA 051400Z 36008KT 9999 SCT008 FEW023CB OVC070 26/24 Q1009
A2982 HR91 CB E RWY NML=
METAR SLMG 051400Z 32004KT 9999 SCT010 BKN080 25/24 Q1010 A2984 HR92
RWY HUM OPR=
METAR SLBU 051400Z NIL=
METAR SLSA 051400Z 34006KT 8000 VCSH BKN015 BKN070 26/24
Q1010 A2983 HR89 SH S/SW/W=
METAR SLSR 051400Z 32008KT 8000 -RA FEW008 SCT010 FEW020CB OVC070
23/23 Q1009 A2981 HR98 CB W RWY WET INOP=
METAR SLSM 051400Z 09003KT 3000 -RA BKN015 OVC070 24/24 Q1010 A2984
HR99 RWY WET INOP=
___A___
ZPX0368 051400
CH LR PZX0000
CH LR PZX0000
___A___
ZPX0369 051400
FF SLLPZRZX
051342 SLGMZPZX
(FPL-ECO304-IS
-RJ85/M-DSGR/S
-SLGM1440
-N0360F240 SLGM M653 TRI/UW12 CBA
-SLCB0115 SLVR
-PBN/B1 REG/CP2889 OPR/ECOJET)
(FPL-ECO304-IS
-RJ85/M-DSGR/S
-SLGM1440
-N0360F240 SLGM M653 TRI/UW12 CBA
-SLCB0115 SLVR
-PBN/B1 REG/CP2889 OPR/ECOJET)
1121
___A___
ZPX0370 051400
GG SLZZYMYT
051401 SLVRYFYC
SABO SLVR 051400
METAR SLVR 051400Z 04005KT 4000 -RA SCT008 BKN017 FEW030CB OVC070 21/
21 Q1012 A2989 HR95 CB NE/NW NOSIG=
METAR SLET 051400Z 12003KT 4000 -RA SCT006 BKN010 FEW027CB OVC070 22/
21 Q1012 A2989 HR97 CB NW/N NOSIG=
METAR SLAS 051400Z 00000KT 4000 -TSRA BKN013 FEW030CB OVC070 23/22
Q1014 A2994 HR95 CB/TS S/SW/W RWY WET OPR=
METAR SLJV 051400Z 36005KT 9999 BKN013 BKN070 24/23 Q1011 A2985 HR91
RWY HUM OPR=
METAR SLCP 051400Z 36006KT 9999 BKN013 BKN070 26/23 Q1014 A2994 HR81
RWY NML=
METAR SLSI 051400Z 36006KT 9999 SCT015 BKN070 26/22 Q1012 A2988 HR78
RWY HUM OPR=
METAR SLTI 051400Z 00000KT 9999 SCT070 30/24 Q1015 A2997 HR69 RWY NML
METAR SLJE 051400Z 00000KT 9999 SCT015 BKN070 27/23 Q1015 A2997 HR82
RWY HUM OPR=
METAR SLVG 051400Z 35004KT 9999 SCT017 BKN070 18/14 Q1023 A3021 HR77
RWY HUM OPR=
METAR SLRB 051400Z 36015KT 9999 BKN023 27/21 Q1013 A2991 HR72 RWY NML
METAR SLPS 051400Z 00000KT 9999 SCT013 BKN070 26/24 Q1011 A2986 HR89=
METAR SLCA 051400Z 00000KT 9999 FEW033 BKN080 25/21 Q014 A2994 HR77
RWY HUM OPR=
SABO SLVR 051400
METAR SLVR 051400Z 04005KT 4000 -RA SCT008 BKN017 FEW030CB OVC070 21/
21 Q1012 A2989 HR95 CB NE/NW NOSIG=
METAR SLET 051400Z 12003KT 4000 -RA SCT006 BKN010 FEW027CB OVC070 22/
21 Q1012 A2989 HR97 CB NW/N NOSIG=
METAR SLAS 051400Z 00000KT 4000 -TSRA BKN013 FEW030CB OVC070 23/22
Q1014 A2994 HR95 CB/TS S/SW/W RWY WET OPR=
METAR SLJV 051400Z 36005KT 9999 BKN013 BKN070 24/23 Q1011 A2985 HR91
RWY HUM OPR=
METAR SLCP 051400Z 36006KT 9999 BKN013 BKN070 26/23 Q1014 A2994 HR81
RWY NML=
METAR SLSI 051400Z 36006KT 9999 SCT015 BKN070 26/22 Q1012 A2988 HR78
RWY HUM OPR=
METAR SLTI 051400Z 00000KT 9999 SCT070 30/24 Q1015 A2997 HR69 RWY NML
METAR SLJE 051400Z 00000KT 9999 SCT015 BKN070 27/23 Q1015 A2997 HR82
RWY HUM OPR=
METAR SLVG 051400Z 35004KT 9999 SCT017 BKN070 18/14 Q1023 A3021 HR77
RWY HUM OPR=
METAR SLRB 051400Z 36015KT 9999 BKN023 27/21 Q1013 A2991 HR72 RWY NML
METAR SLPS 051400Z 00000KT 9999 SCT013 BKN070 26/24 Q1011 A2986 HR89=
METAR SLCA 051400Z 00000KT 9999 FEW033 BKN080 25/21 Q014 A2994 HR77
RWY HUM OPR=
___A___
ZPX0371 051402
FF SLLPZRZX
051401 SLCOZPZX
(ARR-BOV404-SLLP1307-SLCO1400)
(ARR-BOV404-SLLP1307-SLCO1400)
___A___
ZPX0372 051402
FF SLLPZRZX
051401 SLALZTZX
(DEP-BOV571/A1721-SLAL1358-SLCB-REG/CP2716)
(DEP-BOV571/A1721-SLAL1358-SLCB-REG/CP2716)
___A___
ZPX0373 051402
GG SLZZYMYT
051401 SLCBYGYS
SABO SLCB 051400
METAR SLCB 051400Z 20003KT 9999 SCT020 SCT070 BKN200 17/12 Q1023
A3023 750.5 HR74 NOSIG=
METAR SLAL 051400Z 35006KT 9999 FEW010 BKN013 13/10 Q1029 A3036
702.8 HR85 AC=
METAR SLPO 051400Z 06008KT 9999 SCT015 12/06 Q1033 A3052 635.2 HR67=
METAR SLAG 051400Z NIL=
METAR SLVM 051400Z 00000KT 9999 NSC 31/22 Q1009 A2982 HR60 FU CI=
METAR SLTJ 051400Z 12004KT 9999 FEW030 BKN070 22/14 Q1018 A3008 813.7
HR60 CI=
METAR SLYA 051400Z 00000KT 9999 SCT023 30/24 Q1011 A2986 935.9 HR68=
METAR SLBJ 051400Z NIL=
METAR SLHI 051400Z NIL=
SABO SLCB 051400
METAR SLCB 051400Z 20003KT 9999 SCT020 SCT070 BKN200 17/12 Q1023
A3023 750.5 HR74 NOSIG=
METAR SLAL 051400Z 35006KT 9999 FEW010 BKN013 13/10 Q1029 A3036
702.8 HR85 AC=
METAR SLPO 051400Z 06008KT 9999 SCT015 12/06 Q1033 A3052 635.2 HR67=
METAR SLAG 051400Z NIL=
METAR SLVM 051400Z 00000KT 9999 NSC 31/22 Q1009 A2982 HR60 FU CI=
METAR SLTJ 051400Z 12004KT 9999 FEW030 BKN070 22/14 Q1018 A3008 813.7
HR60 CI=
METAR SLYA 051400Z 00000KT 9999 SCT023 30/24 Q1011 A2986 935.9 HR68=
METAR SLBJ 051400Z NIL=
METAR SLHI 051400Z NIL=
___A___
ZPX0374 051403
GG SLLPYGZA
051403 SLLPYFYX
SVC MIS CH 1400 LR PZX0000
SVC MIS CH 1400 LR PZX0000
___A___
ZPX0375 051403
FF SLLPZRZX
051402 SLCBYSYX
(DEP-AZN151/A1765-SLCB1358-SLVR-REG/CP3135)
(DEP-AZN151/A1765-SLCB1358-SLVR-REG/CP3135)
___A___
ZPX0376 051404
GG SLZZYMYT
051359 SLLPYFYA
SABO SLRY 051400
METAR SLRY 051400Z 32003KT 4000 -RA SCT006 BKN012 OVC070 23/23 Q1007
A2974 HR98 RWY WET INOP=
SABO SLRY 051400
METAR SLRY 051400Z 32003KT 4000 -RA SCT006 BKN012 OVC070 23/23 Q1007
A2974 HR98 RWY WET INOP=
___A___
ZPX0377 051404
GG SLZZYMYT
051401 SLLPYFYA
SABO SLLP 051400
METAR SLLP 051400Z 12007KT 050V220 9999 FEW013 BKN200 12/05 Q1035
A3057 626.0 HR63 P94// AC NOSIG=
METAR SLCO 051400Z 35012KT 9999 BKN011 SCT080 28/23 Q1010 A2985
983.3 HR77=
METAR SLRY 051400Z 32003KT 4000 -RA SCT006 BKN012 OVC070 23/23 Q1007
A2974 HR98 RWY WET INOP=
METAR SLRQ 051400Z 00000KT 2000 RA SCT005 BKN010 OVC070 24/24 Q1009
A2982 HR100=
METAR SLAP 051400Z 36015KT 7000 VCSH BKN015 OVC070 19/17 Q1015 A2997
856.0 HR91 SH N/SE/S/SW RERA=
METAR SLSB 051400Z 36004KT 3000 -RA BKN005 OVC070 23/23 Q1005 A2968
HR98 RWY WET INOP=
METAR SLUY 051400Z VRB02KT 9999 FEW023 12/M01 Q1031 A3046 656.6 HR40
METAR SLOR 051400Z 21008KT 9999 FEW017 SCT200 15/02 Q1032 A3049 654.1
HR41=
SABO SLLP 051400
METAR SLLP 051400Z 12007KT 050V220 9999 FEW013 BKN200 12/05 Q1035
A3057 626.0 HR63 P94// AC NOSIG=
METAR SLCO 051400Z 35012KT 9999 BKN011 SCT080 28/23 Q1010 A2985
983.3 HR77=
METAR SLRY 051400Z 32003KT 4000 -RA SCT006 BKN012 OVC070 23/23 Q1007
A2974 HR98 RWY WET INOP=
METAR SLRQ 051400Z 00000KT 2000 RA SCT005 BKN010 OVC070 24/24 Q1009
A2982 HR100=
METAR SLAP 051400Z 36015KT 7000 VCSH BKN015 OVC070 19/17 Q1015 A2997
856.0 HR91 SH N/SE/S/SW RERA=
METAR SLSB 051400Z 36004KT 3000 -RA BKN005 OVC070 23/23 Q1005 A2968
HR98 RWY WET INOP=
METAR SLUY 051400Z VRB02KT 9999 FEW023 12/M01 Q1031 A3046 656.6 HR40
METAR SLOR 051400Z 21008KT 9999 FEW017 SCT200 15/02 Q1032 A3049 654.1
HR41=
___A___
ZPX0378 051404
FF SLLPZRZX
051405 SLLPYSYX
(FPL-BOV585-IS
-B733/M-SDFHIRW/S
-SLAL1505
-N0440F290 UW14
-SLVR0040 SLCB SLLP
-PBN/B3B4B5 RMK/RPL)
(FPL-BOV585-IS
-B733/M-SDFHIRW/S
-SLAL1505
-N0440F290 UW14
-SLVR0040 SLCB SLLP
-PBN/B3B4B5 RMK/RPL)
___A___
ZPX0379 051406
FF SLLPZRZX
051406 SLLPYSYX
(FPL-BOV405-IS
-B737/M-DFGHILORVWX/S
-SLCO1505
-N0440F390 UT711
-SLLP0100 SLCB SLVR
-PBN/B1C1D1S1 RMK/RPL)
(FPL-BOV405-IS
-B737/M-DFGHILORVWX/S
-SLCO1505
-N0440F390 UT711
-SLLP0100 SLCB SLVR
-PBN/B1C1D1S1 RMK/RPL)
___A___
ZPX0380 051413
FF SLLPZRZX
051410 SLCBZPZX
(FPL-BOV443-IS
-B733/M-SDFHIRW/S
-SLCB1500
-N0440F290 PUNAV2 PUNAV UW12 TRI
-SLTR0035 SLCB
-PBN/B3B4B5 REG/CP3020 SEL/EGAH)
(FPL-BOV443-IS
-B733/M-SDFHIRW/S
-SLCB1500
-N0440F290 PUNAV2 PUNAV UW12 TRI
-SLTR0035 SLCB
-PBN/B3B4B5 REG/CP3020 SEL/EGAH)
___A___
ZPX0381 051413
FF SLLPZRZX
051413 SLCOZPZX
(ARR-CP2744-SLRI1259-SLCO1413)
(ARR-CP2744-SLRI1259-SLCO1413)
___A___
ZPX0382 051420
CH LR PZX0000
CH LR PZX0000
___A___
ZPX0383 051422
FF SLLPZRZX
051421 SLCBYSYX
(DEP-BOL751/A1766-SLCB1420-SLVR-REG/CP2791)
(DEP-BOL751/A1766-SLCB1420-SLVR-REG/CP2791)
___A___
ZPX0384 051423
GG SLLPYGZA
051423 SLLPYFYX
SVC MIS CH 1420 LR PZX0000
SVC MIS CH 1420 LR PZX0000
___A___
ZPX0385 051424
FF SLLPZRZX
051422 SLSAZPZX
(FPL-CP1774-VG
-C206/L-VFO/N
-SLSA1500
-N0120F025 DCT VFR
-ZZZZ0015 SLSA
-DEST/GARRAPATA OPR/PIBES AIR RMK/HDG240 RETORNA PIC JESUS E.
ABULARACH D.LIC 1694807 CEL 71147630)
(FPL-CP1774-VG
-C206/L-VFO/N
-SLSA1500
-N0120F025 DCT VFR
-ZZZZ0015 SLSA
-DEST/GARRAPATA OPR/PIBES AIR RMK/HDG240 RETORNA PIC JESUS E.
ABULARACH D.LIC 1694807 CEL 71147630)
___A___
ZPX0386 051426
FF SLLPZRZX
051425 SLCBYSYX
(DEP-BOV274/A1760-SLCB1425-SLAL-REG/CP2852)
(DEP-BOV274/A1760-SLCB1425-SLAL-REG/CP2852)
___A___
ZPX0387 051429
FF SLLPZRZX
051400 SLGMZPZX
(FPL-AZN292-IS
-DH8B/M-SDFGR/C
-SLGM1525
-N0230F080 SLGM T532 SLRI
-SLRI0020 SLTR SLGM
-PBN/B2B3B4 REG/CP3092 OPR/AMASZONAS S.A.)
(FPL-AZN292-IS
-DH8B/M-SDFGR/C
-SLGM1525
-N0230F080 SLGM T532 SLRI
-SLRI0020 SLTR SLGM
-PBN/B2B3B4 REG/CP3092 OPR/AMASZONAS S.A.)
___A___
ZPX0388 051434
FF SLLPZRZX
051434 SLCOZPZX
(FPL-CP2744-VG
-C210/L-VOF/C
-SLCO1530
-N0140F075 DCT
-SLRI0110 SLGM
-OPR/M RENE HAYASHIDA RMK/PIC JULIO CESAR RIBERA L LIC 1728837 CEL
77100325)
(FPL-CP2744-VG
-C210/L-VOF/C
-SLCO1530
-N0140F075 DCT
-SLRI0110 SLGM
-OPR/M RENE HAYASHIDA RMK/PIC JULIO CESAR RIBERA L LIC 1728837 CEL
77100325)
___A___
ZPX0389 051435
FF SLLPZRZX
051435 SLLPYSYX
(FPL-BOV609-IS
-B737/M-SDFGHIRW/S
-SLLP1535
-N0440F270 UW677
-SLCB0030 SLVR SLLP
-PBN/B1C1D1S1 RMK/RPL)
(FPL-BOV609-IS
-B737/M-SDFGHIRW/S
-SLLP1535
-N0440F270 UW677
-SLCB0030 SLVR SLLP
-PBN/B1C1D1S1 RMK/RPL)
___A___
ZPX0390 051437
FF SLLPZRZX
051438 SLLPYSYX
(FPL-BOV443-IS
-B733/M-SDFHIRW/S
-SLTR1540
-N0440F280 UW12
-SLCB0040 SLVR SLLP
-PBN/B3B4B5 RMK/RPL)
(FPL-BOV443-IS
-B733/M-SDFHIRW/S
-SLTR1540
-N0440F280 UW12
-SLCB0040 SLVR SLLP
-PBN/B3B4B5 RMK/RPL)
___A___
ZPX0391 051439
FF SLLPZRZX
051439 SLCOZPZX
(DEP-BOV405/A1702-SLCO1439-SLLP-0)
(DEP-BOV405/A1702-SLCO1439-SLLP-0)
___A___
ZPX0392 051440
CH LR PZX0000
CH LR PZX0000
___A___
ZPX0393 051441
FF SLLPZRZX
051441 SLCOZPZX
(ARR-CP2844-SLRI1318-SLCO1441)
(ARR-CP2844-SLRI1318-SLCO1441)
___A___
ZPX0394 051443
GG SLLPYGZA
051443 SLLPYFYX
SVC MIS CH 1440 LR PZX0000
SVC MIS CH 1440 LR PZX0000
___A___
ZPX0395 051444
FF SLLPZRZX
051443 SLYAZTZX
(FPL-CP3016-VG
-BK17/L-S/C
-SLYA1800
-N0120F045 DCT SASJ F055 DCT SASA
-SASA02140 SASJ
-OPR/HELIAMERICA S.R.L. RMK/PIC. DAVID SALAS LIC. 2974740 DGAC/SAL/1/
2021)
(FPL-CP3016-VG
-BK17/L-S/C
-SLYA1800
-N0120F045 DCT SASJ F055 DCT SASA
-SASA02140 SASJ
-OPR/HELIAMERICA S.R.L. RMK/PIC. DAVID SALAS LIC. 2974740 DGAC/SAL/1/
2021)
___A___
ZPX0396 051445
FF SLLPZRZX
051444 SLCBZPZX
(FPL-BOV636-IS
-B733/M-SDFHIRW/S
-SLCB1520
-N0440F290 VAREB3 VAREB UW677 VIR
-SLVR0035 SLCB
-PBN/B3B4B5 REG/CP2716 SEL/EGFM)
(FPL-BOV636-IS
-B733/M-SDFHIRW/S
-SLCB1520
-N0440F290 VAREB3 VAREB UW677 VIR
-SLVR0035 SLCB
-PBN/B3B4B5 REG/CP2716 SEL/EGFM)
___A___
ZPX0397 051451
GG SLZZYNYX
051450 SLLPYNYX
(C0012/21 NOTAMR C2291/20
Q) SLLF/QCAXX/IV/NBO/AE/000/999/1738S06308W005
A) SLVR B) 2101051450 C) 2102052200 EST
E) ATS SER AVBL NXT FREQ DEBIDO PLAN DE CONTIGENCIA COVID-19:
APP (TMA) FREQ 124,9 MHZ
APP (CTR) FREQ 119,7 MHZ
TWR FREQ 118,6 MHZ
SMC FREQ 121,9 MHZ
G/A/G FREQ 6 622 KHZ)
(C0012/21 NOTAMR C2291/20
Q) SLLF/QCAXX/IV/NBO/AE/000/999/1738S06308W005
A) SLVR B) 2101051450 C) 2102052200 EST
E) ATS SER AVBL NXT FREQ DEBIDO PLAN DE CONTIGENCIA COVID-19:
APP (TMA) FREQ 124,9 MHZ
APP (CTR) FREQ 119,7 MHZ
TWR FREQ 118,6 MHZ
SMC FREQ 121,9 MHZ
G/A/G FREQ 6 622 KHZ)
___A___
ZPX0398 051451
FF SLLPZRZX
051451 SLCOZPZX
(FPL-CP2844-VG
-C206/L-FOV/C
-SLCO1600
-N0120F055 DCT
-SLRI0120 SLGM
-OPR/MARIA RENE HAYASHIDA RMK/PIC.CARLOS ANTONIO NUNIEZ VELA
RODRIGUEZ CEL.77841915 LIC.1721198)
(FPL-CP2844-VG
-C206/L-FOV/C
-SLCO1600
-N0120F055 DCT
-SLRI0120 SLGM
-OPR/MARIA RENE HAYASHIDA RMK/PIC.CARLOS ANTONIO NUNIEZ VELA
RODRIGUEZ CEL.77841915 LIC.1721198)
___A___
ZPX0399 051451
GG SLZZYMYT
051451 SLTRYGYS
SABO SLTR 051400 RRA
METAR SLTR 051400Z 36005KT 5000 -RA SCT005 OVC070 25/24 Q1011 A2986
992.6 HR95 TEMPO 3000 BKN005=
METAR SLGM 051400Z 02012KT 9999 SCT015 BKN080 28/23 Q1011 A2986 HR75=
METAR RTD SLRI 051400Z 03006KT 9999 SCT008 BKN080 26/23 Q1012 A2989
HR85=
METAR SLJO 051400Z 36010KT 8000 VCSH SCT010 FEW023CB BKN080 26/24
Q1008 A2979 HR89 CB/SH SE RWY HUM OPR=
METAR SLRA 051400Z 36008KT 9999 SCT008 FEW023CB OVC070 26/24 Q1009
A2982 HR91 CB E RWY NML=
METAR SLMG 051400Z 32004KT 9999 SCT010 BKN080 25/24 Q1010 A2984 HR92
RWY HUM OPR=
METAR SLBU 051400Z NIL=
METAR SLSA 051400Z 34006KT 8000 VCSH BKN015 BKN070 26/24
Q1010 A2983 HR89 SH S/SW/W=
METAR SLSR 051400Z 32008KT 8000 -RA FEW008 SCT010 FEW020CB OVC070
23/23 Q1009 A2981 HR98 CB W RWY WET INOP=
METAR SLSM 051400Z 09003KT 3000 -RA BKN015 OVC070 24/24 Q1010 A2984
HR99 RWY WET INOP=
SABO SLTR 051400 RRA
METAR SLTR 051400Z 36005KT 5000 -RA SCT005 OVC070 25/24 Q1011 A2986
992.6 HR95 TEMPO 3000 BKN005=
METAR SLGM 051400Z 02012KT 9999 SCT015 BKN080 28/23 Q1011 A2986 HR75=
METAR RTD SLRI 051400Z 03006KT 9999 SCT008 BKN080 26/23 Q1012 A2989
HR85=
METAR SLJO 051400Z 36010KT 8000 VCSH SCT010 FEW023CB BKN080 26/24
Q1008 A2979 HR89 CB/SH SE RWY HUM OPR=
METAR SLRA 051400Z 36008KT 9999 SCT008 FEW023CB OVC070 26/24 Q1009
A2982 HR91 CB E RWY NML=
METAR SLMG 051400Z 32004KT 9999 SCT010 BKN080 25/24 Q1010 A2984 HR92
RWY HUM OPR=
METAR SLBU 051400Z NIL=
METAR SLSA 051400Z 34006KT 8000 VCSH BKN015 BKN070 26/24
Q1010 A2983 HR89 SH S/SW/W=
METAR SLSR 051400Z 32008KT 8000 -RA FEW008 SCT010 FEW020CB OVC070
23/23 Q1009 A2981 HR98 CB W RWY WET INOP=
METAR SLSM 051400Z 09003KT 3000 -RA BKN015 OVC070 24/24 Q1010 A2984
HR99 RWY WET INOP=
___A___
ZPX0400 051451
GG SLLPZRZX
051450 SLLPYNYX
(A0003/21 NOTAMR A1212/20
Q) SLLF/QCAXX/IV/NBO/AE/000/999/1738S06308W005
A) SLVR B) 2101051450 C) 2102052200 EST
E) ATS SER AVBL NXT FREQ DUE COVID-19 CONTIGENCY PLAN:
FREQ 124,9 MHZ APP (TMA)
FREQ 119,7 MHZ APP (CTR)
FREQ 118,6 MHZ TWR
FREQ 121,9 MHZ SMC
FREQ 6 622 KHZ G/A/G)
(A0003/21 NOTAMR A1212/20
Q) SLLF/QCAXX/IV/NBO/AE/000/999/1738S06308W005
A) SLVR B) 2101051450 C) 2102052200 EST
E) ATS SER AVBL NXT FREQ DUE COVID-19 CONTIGENCY PLAN:
FREQ 124,9 MHZ APP (TMA)
FREQ 119,7 MHZ APP (CTR)
FREQ 118,6 MHZ TWR
FREQ 121,9 MHZ SMC
FREQ 6 622 KHZ G/A/G)
___A___
ZPX0401 051452
FF SLZZYMYT
051453 SLLPYMYX
WSBO31 SLLP 051450
SLLF SIGMET 4 VALID 051455/051855 SLLP-
SLLF LA PAZ FIR EMBD TS OBS AND FCST AT 1430Z WI S1305 W06857 -
S1252 W06836 - S1255 W06735 - S1313 W06642 -
S1521 W06436 - S1732 W06249 - S1826 W06326 -
S1649 W06608 - S1516 W06711 - S1412 W06811 -
S1425 W06828 - S1354 W06902 - S1341 W06900 -
S1307 W06857 -
TOP FL390 MOV NW 06KT NC=
WSBO31 SLLP 051450
SLLF SIGMET 4 VALID 051455/051855 SLLP-
SLLF LA PAZ FIR EMBD TS OBS AND FCST AT 1430Z WI S1305 W06857 -
S1252 W06836 - S1255 W06735 - S1313 W06642 -
S1521 W06436 - S1732 W06249 - S1826 W06326 -
S1649 W06608 - S1516 W06711 - S1412 W06811 -
S1425 W06828 - S1354 W06902 - S1341 W06900 -
S1307 W06857 -
TOP FL390 MOV NW 06KT NC=
___A___
ZPX0402 051452
GG SLZZYMYT
051453 SLETYMYC
SABO SLET 051500
METAR SLET 051500Z 31004KT 4000 -RA SCT008 BKN015 OVC070 22/21 Q1012
A2989 HR97 NOSIG=
SABO SLET 051500
METAR SLET 051500Z 31004KT 4000 -RA SCT008 BKN015 OVC070 22/21 Q1012
A2989 HR97 NOSIG=
___A___
ZPX0403 051452
GG SLZZYMYT
051450 SLPSYGYS
SABO SLPS 051500
METAR SLPS 051500Z 00000KT 9999 FEW015 BKN070 27/24 Q1011 A2986 HR87=
SABO SLPS 051500
METAR SLPS 051500Z 00000KT 9999 FEW015 BKN070 27/24 Q1011 A2986 HR87=
___A___
ZPX0404 051452
GG SLZZYMYT
051453 SLETYMYC
SIBO SLET 051500
AAXX 05154
85245 41340 83104 10216 20211 39628 40111 50009 76196 8752/
333 56799 58016 84708 86615 88457 555 10120 29097=
SIBO SLET 051500
AAXX 05154
85245 41340 83104 10216 20211 39628 40111 50009 76196 8752/
333 56799 58016 84708 86615 88457 555 10120 29097=
___A___
ZPX0405 051453
FF SLLPZRZX
051448 SLSAZPZX
(FPL-CP2740-VG
-C206/L-VOF/C
-SLSA1530
-N0120F015 DCT TRI
-SLTR0050 SLSA
-OPR/PIBES AIR RMK/PIC JESUS EDUARDO ABULARACH C.LIC 1920536
CEL 72100206)
(FPL-CP2740-VG
-C206/L-VOF/C
-SLSA1530
-N0120F015 DCT TRI
-SLTR0050 SLSA
-OPR/PIBES AIR RMK/PIC JESUS EDUARDO ABULARACH C.LIC 1920536
CEL 72100206)
___A___
ZPX0406 051454
FF SLLPZRZX
051452 SLTRZPZX
(FPL-CP1749-VG
-C206/L-FOV/C
-SLTR1600
-N0120F025 TRI340070
-SLSA0040 SLTR
-OPR/AERO MOVIMA RMK/PIC.MUNIR A. NACIF LIC 3121272 TEL 71145311)
(FPL-CP1749-VG
-C206/L-FOV/C
-SLTR1600
-N0120F025 TRI340070
-SLSA0040 SLTR
-OPR/AERO MOVIMA RMK/PIC.MUNIR A. NACIF LIC 3121272 TEL 71145311)
___A___
ZPX0407 051454
FF SLLPZRZX
051455 SLLPYSYX
(FPL-BOV221-IS
-CRJ2/M-SDFGIRW/S
-SLAL1555
-N0350F270 UW22
-SLTJ0035 SLLP SLCB SLVR
-PBN/B1C1D1S1 RMK/RPL)
(FPL-BOV221-IS
-CRJ2/M-SDFGIRW/S
-SLAL1555
-N0350F270 UW22
-SLTJ0035 SLLP SLCB SLVR
-PBN/B1C1D1S1 RMK/RPL)
___A___
ZPX0408 051454
GG SLZZYMYT
051453 SLRBYGYS
SABO SLRB 051500
METAR SLRB 051500Z 36012KT 9999 BKN023 29/24 Q1013 A2991 HR72 RWY NML=
SABO SLRB 051500
METAR SLRB 051500Z 36012KT 9999 BKN023 29/24 Q1013 A2991 HR72 RWY NML=
___A___
ZPX0409 051454
GG SLZZYMYT
051454 SLSAYGYS
SABO SLSA 051500
METAR SLSA 051500Z 34008KT 9999 BKN015 BKN070 27/24
Q1010 A2983 HR84 SH S/SW=
SABO SLSA 051500
METAR SLSA 051500Z 34008KT 9999 BKN015 BKN070 27/24
Q1010 A2983 HR84 SH S/SW=
___A___
ZPX0410 051454
GG SLZZYMYT
051454 SLCAYGYS
SABO SLCA 051500
METAR SLCA 051500Z 00000KT 9999 FEW033 BKN080 27/21 Q1014 A2994 HR69
RWY NML=
SABO SLCA 051500
METAR SLCA 051500Z 00000KT 9999 FEW033 BKN080 27/21 Q1014 A2994 HR69
RWY NML=
___A___
ZPX0411 051455
GG SLZZYMYT
051455 SLVRYGYZ
SABO SLVR 051500
METAR SLVR 051500Z 04007KT 7000 -RA BKN009 BKN017 FEW030CB OVC070 22/
21 Q1012 A2990 HR95 CB NW NOSIG=
SABO SLVR 051500
METAR SLVR 051500Z 04007KT 7000 -RA BKN009 BKN017 FEW030CB OVC070 22/
21 Q1012 A2990 HR95 CB NW NOSIG=
___A___
ZPX0412 051455
GG SLZZYMYT
051455 SLLPYFYA
SABO SLRY 051500
METAR SLRY 051500Z 33003KT 2000 -RA BKN005 BKN010 OVC070 24/24 Q1007
A2975 HR98 RWY WET INOP=
SABO SLRY 051500
METAR SLRY 051500Z 33003KT 2000 -RA BKN005 BKN010 OVC070 24/24 Q1007
A2975 HR98 RWY WET INOP=
___A___
ZPX0413 051455
GG SLZZYMYT
051455 SLTRYGYZ
SABO SLTR 051500
METAR SLTR 051500Z 35006KT 9999 -RA SCT005 OVC070 25/25 Q1010 A2985
992.2 HR96 NOSIG=
SABO SLTR 051500
METAR SLTR 051500Z 35006KT 9999 -RA SCT005 OVC070 25/25 Q1010 A2985
992.2 HR96 NOSIG=
___A___
ZPX0414 051455
GG SLZZYMYT
051455 SLCBYGYZ
SABO SLCB 051500
METAR SLCB 051500Z 26004KT 9999 SCT025 SCT080 BKN200 20/12 Q1023
A3022 750.0 HR61 NOSIG=
SABO SLCB 051500
METAR SLCB 051500Z 26004KT 9999 SCT025 SCT080 BKN200 20/12 Q1023
A3022 750.0 HR61 NOSIG=
___A___
ZPX0415 051455
GG SLZZYMYT
051454 SLUYYGYS
SABO SLUY 051500
METAR SLUY 051500Z VRB02KT 9999 SCT023 15/00 Q1030 A3044
656.1 HR38 AC=
SABO SLUY 051500
METAR SLUY 051500Z VRB02KT 9999 SCT023 15/00 Q1030 A3044
656.1 HR38 AC=
___A___
ZPX0416 051456
GG SLZZYMYT
051455 SLLPYGYZ
SABO SLLP 051500
METAR SLLP 051500Z 14008KT 060V180 9999 SCT015 BKN200 13/05 Q1034
A3054 625.5 HR61 P94// AC NOSIG=
SABO SLLP 051500
METAR SLLP 051500Z 14008KT 060V180 9999 SCT015 BKN200 13/05 Q1034
A3054 625.5 HR61 P94// AC NOSIG=
___A___
ZPX0417 051456
GG SLZZYMYT
051455 SLCOYGYZ
SABO SLCO 051500
METAR SLCO 051500Z 34010KT 9999 BKN013 BKN080 28/23 Q1010 A2985 983.3
HR74=
SABO SLCO 051500
METAR SLCO 051500Z 34010KT 9999 BKN013 BKN080 28/23 Q1010 A2985 983.3
HR74=
___A___
ZPX0418 051456
GG SLZZYMYT
051455 SLORYGYZ
SABO SLOR 051500
METAR SLOR 051500Z 28005KT 9999 FEW020 SCT200 17/03 Q1031 A3047 653.8
HR37=
SABO SLOR 051500
METAR SLOR 051500Z 28005KT 9999 FEW020 SCT200 17/03 Q1031 A3047 653.8
HR37=
___A___
ZPX0419 051456
GG SLZZYNYX
051455 SLLPYNYX
(C0013/21 NOTAMR C2292/20
Q) SLLF/QCAXX/IV/NBO/AE/000/999/1630S06811W005
A) SLLP B) 2101051455 C) 2102052200 EST
E) ATS SER AVBL NXT FREQ DEBIDO PLAN DE CONTIGENCIA COVID-19:
APP (TMA) FREQ 123,9 MHZ
APP (CTR) FREQ 119,5 MHZ
TWR FREQ 118,3 MHZ
SMC FREQ 121,9 MHZ)
(C0013/21 NOTAMR C2292/20
Q) SLLF/QCAXX/IV/NBO/AE/000/999/1630S06811W005
A) SLLP B) 2101051455 C) 2102052200 EST
E) ATS SER AVBL NXT FREQ DEBIDO PLAN DE CONTIGENCIA COVID-19:
APP (TMA) FREQ 123,9 MHZ
APP (CTR) FREQ 119,5 MHZ
TWR FREQ 118,3 MHZ
SMC FREQ 121,9 MHZ)
___A___
ZPX0420 051456
GG SLZZYMYT
051456 SLSAYGYS
SIBO SLSA 051500
AAXX 05154
85123 41460 73408 10266 20236 39930 40095 51015 71522 85570
333 56770 58010 85615 87357 555 10103 29084=
SIBO SLSA 051500
AAXX 05154
85123 41460 73408 10266 20236 39930 40095 51015 71522 85570
333 56770 58010 85615 87357 555 10103 29084=
___A___
ZPX0421 051457
GG SLLPZRZX
051455 SLLPYNYX
(A0004/21 NOTAMR A1213/20
Q) SLLF/QCAXX/IV/NBO/AE/000/999/1630S06811W005
A) SLLP B) 2101051455 C) 2102052200 EST
E) ATS SER AVBL NXT FREQ DUE COVID-19 CONTIGENCY PLAN:
FREQ 123,9 MHZ APP (TMA)
FREQ 119,5 MHZ APP (CTR)
FREQ 118,3 MHZ TWR
FREQ 121,9 MHZ SMC)
(A0004/21 NOTAMR A1213/20
Q) SLLF/QCAXX/IV/NBO/AE/000/999/1630S06811W005
A) SLLP B) 2101051455 C) 2102052200 EST
E) ATS SER AVBL NXT FREQ DUE COVID-19 CONTIGENCY PLAN:
FREQ 123,9 MHZ APP (TMA)
FREQ 119,5 MHZ APP (CTR)
FREQ 118,3 MHZ TWR
FREQ 121,9 MHZ SMC)
___A___
ZPX0422 051457
FF SLLPZRZX
051457 SLALZTZX
(ARR-BOV274-SLCB-SLAL1456-O)
(ARR-BOV274-SLCB-SLAL1456-O)
___A___
ZPX0423 051458
GG SLZZYMYT
051457 SLORYGYZ
SIBO SLOR 051500
AAXX 05154
85242 42570 32805 10173 20025 36538 50005 81101
333 56000 58005 81820 83070 555 10319 29037=
SIBO SLOR 051500
AAXX 05154
85242 42570 32805 10173 20025 36538 50005 81101
333 56000 58005 81820 83070 555 10319 29037=
___A___
ZPX0424 051459
FF SLLPZRZX
051456 SLSAZPZX
(FPL-CP2532-VG
-C207/L-FOV/C
-SLSA1600
-N0120F035 DCT TRI
-SLTR0040 SLSA
-OPR/ALEJANDRO RODRIGUEZ RMK/PIC JOSE ELIAS EGUEZ H.LIC 5615810
CEL 72614995)
(FPL-CP2532-VG
-C207/L-FOV/C
-SLSA1600
-N0120F035 DCT TRI
-SLTR0040 SLSA
-OPR/ALEJANDRO RODRIGUEZ RMK/PIC JOSE ELIAS EGUEZ H.LIC 5615810
CEL 72614995)
1092
___A___
ZPX0425 051459
GG SLZZYMYT
051500 SLVRYFYC
SABO SLVR 051500
METAR SLVR 051500Z 04007KT 7000 -RA BKN009 BKN017 FEW030CB OVC070 22/
21 Q1012 A2990 HR95 CB NW NOSIG=
METAR SLET 051500Z 31004KT 4000 -RA SCT008 BKN015 OVC070 22/21 Q1012
A2989 HR97 NOSIG=
METAR SLAS 051500Z 00000KT 3000 -RA BKN012 FEW030CB OVC070 23/22
Q1014 A2994 HR95 CB S/SW RETS RWY WET OPR=
METAR SLJV 051500Z 36005KT 9999 SCT015 BKN070 26/23 Q1011 A2985 HR87
RWY HUM OPR=
METAR SLCP 051500Z 36008KT 9999 BKN013 BKN070 27/23 Q1015 A2997 HR78
RWY NML=
METAR SLSI 051500Z 36008KT 9999 SCT017 BKN070 29/22 Q1012 A2988 HR68
RWY NML=
METAR SLTI 051500Z 00000KT 9999 SCT017 32/23 Q1015 A2997 HR62 RWY NML
METAR SLJE 051500Z 35005KT 9999 BKN012 BKN070 28/24 Q1014 A2994 HR76
RWY HUM OPR=
METAR SLVG 051500Z 36007KT 9999 SCT020 BKN070 19/15 Q1023 A3021 HR74
RWY HUM OPR=
METAR SLRB 051500Z 36012KT 9999 BKN023 29/24 Q1013 A2991 HR72 RWY NML
METAR SLPS 051500Z 00000KT 9999 FEW015 BKN070 27/24 Q1011 A2986 HR87=
METAR SLCA 051500Z 00000KT 9999 FEW033 BKN080 27/21 Q1014 A2994 HR69
RWY NML=
SABO SLVR 051500
METAR SLVR 051500Z 04007KT 7000 -RA BKN009 BKN017 FEW030CB OVC070 22/
21 Q1012 A2990 HR95 CB NW NOSIG=
METAR SLET 051500Z 31004KT 4000 -RA SCT008 BKN015 OVC070 22/21 Q1012
A2989 HR97 NOSIG=
METAR SLAS 051500Z 00000KT 3000 -RA BKN012 FEW030CB OVC070 23/22
Q1014 A2994 HR95 CB S/SW RETS RWY WET OPR=
METAR SLJV 051500Z 36005KT 9999 SCT015 BKN070 26/23 Q1011 A2985 HR87
RWY HUM OPR=
METAR SLCP 051500Z 36008KT 9999 BKN013 BKN070 27/23 Q1015 A2997 HR78
RWY NML=
METAR SLSI 051500Z 36008KT 9999 SCT017 BKN070 29/22 Q1012 A2988 HR68
RWY NML=
METAR SLTI 051500Z 00000KT 9999 SCT017 32/23 Q1015 A2997 HR62 RWY NML
METAR SLJE 051500Z 35005KT 9999 BKN012 BKN070 28/24 Q1014 A2994 HR76
RWY HUM OPR=
METAR SLVG 051500Z 36007KT 9999 SCT020 BKN070 19/15 Q1023 A3021 HR74
RWY HUM OPR=
METAR SLRB 051500Z 36012KT 9999 BKN023 29/24 Q1013 A2991 HR72 RWY NML
METAR SLPS 051500Z 00000KT 9999 FEW015 BKN070 27/24 Q1011 A2986 HR87=
METAR SLCA 051500Z 00000KT 9999 FEW033 BKN080 27/21 Q1014 A2994 HR69
RWY NML=
___A___
ZPX0426 051500
GG SLZZYMYT
051459 SLTJYGYZ
SABO SLTJ 051500
METAR SLTJ 051500Z 19005KT 9999 FEW030 FEW036CB SCT070 24/15 Q1018
A3006 813.3 HR56 CB W TCU N/NE CI=
SABO SLTJ 051500
METAR SLTJ 051500Z 19005KT 9999 FEW030 FEW036CB SCT070 24/15 Q1018
A3006 813.3 HR56 CB W TCU N/NE CI=
___A___
ZPX0427 051500
FF SLLPZRZX
051459 SLCBYSYX
(DEP-BOV608/A1764-SLCB1459-SLLP-REG/CP3138)
(DEP-BOV608/A1764-SLCB1459-SLLP-REG/CP3138)
___A___
ZPX0428 051500
GG SLZZYMYT
051500 SLTRYGYS
SABO SLTR 051500
METAR SLTR 051500Z 35006KT 9999 -RA SCT005 OVC070 25/25 Q1010 A2985
992.2 HR96 NOSIG=
METAR SLGM 051500Z 02012KT 9999 SCT017 FEW020CB BKN080 29/24 Q1011
A2985 HR74 CB SW/W=
METAR SLRI 051500Z 36006KT 7000 VCSH BKN015 BKN080 26/24 Q1011 A2987
HR89 RESHRA SH N/NE=
METAR SLJO 051500Z 36010KT 7000 VCSH SCT015 FEW023CB BKN080 27/24
Q1009 A2980 HR84 CB/SH NE/E RWY HUM OPR=
METAR SLRA 051500Z 36008KT 9999 SCT015 OVC070 27/24 Q1010 A2983 HR85
RWY NML=
METAR SLMG 051500Z 00000KT 9999 BKN015 BKN080 26/24 Q1010 A2985 HR86
RWY HUM OPR=
METAR SLBU 051500Z NIL=
METAR SLSA 051500Z 34008KT 9999 BKN015 BKN070 27/24 Q1010 A2983 HR84
SH S/SW=
METAR SLSR 051500Z 32008KT 8000 -RA BKN010 FEW020CB OVC070 24/24
Q1015 A2983 HR98 CB NW RWY WET INOP=
METAR SLSM 051500Z 36003KT 8000 -RA BKN013 OVC070 24/24 Q1010 A2985
HR99 RWY WET INOP=
SABO SLTR 051500
METAR SLTR 051500Z 35006KT 9999 -RA SCT005 OVC070 25/25 Q1010 A2985
992.2 HR96 NOSIG=
METAR SLGM 051500Z 02012KT 9999 SCT017 FEW020CB BKN080 29/24 Q1011
A2985 HR74 CB SW/W=
METAR SLRI 051500Z 36006KT 7000 VCSH BKN015 BKN080 26/24 Q1011 A2987
HR89 RESHRA SH N/NE=
METAR SLJO 051500Z 36010KT 7000 VCSH SCT015 FEW023CB BKN080 27/24
Q1009 A2980 HR84 CB/SH NE/E RWY HUM OPR=
METAR SLRA 051500Z 36008KT 9999 SCT015 OVC070 27/24 Q1010 A2983 HR85
RWY NML=
METAR SLMG 051500Z 00000KT 9999 BKN015 BKN080 26/24 Q1010 A2985 HR86
RWY HUM OPR=
METAR SLBU 051500Z NIL=
METAR SLSA 051500Z 34008KT 9999 BKN015 BKN070 27/24 Q1010 A2983 HR84
SH S/SW=
METAR SLSR 051500Z 32008KT 8000 -RA BKN010 FEW020CB OVC070 24/24
Q1015 A2983 HR98 CB NW RWY WET INOP=
METAR SLSM 051500Z 36003KT 8000 -RA BKN013 OVC070 24/24 Q1010 A2985
HR99 RWY WET INOP=
___A___
ZPX0429 051502
GG SLZZYMYT
051501 SLCBYGYS
SABO SLCB 051500
METAR SLCB 051500Z 26004KT 9999 SCT025 SCT080 BKN200 20/12 Q1023
A3022 750.0 HR61 NOSIG=
METAR SLAL 051500Z 35007KT 9999 FEW010 BKN015 14/10 Q1028 A3036 702.6
HR76 AC=
METAR SLPO 051500Z 07010KT 9999 SCT017 13/06 Q1033 A3050 634.7 HR61
METAR SLAG 051500Z NIL=
METAR SLVM 051500Z 18007KT 9999 SCT030 32/22 Q1009 A2982 HR55 FU CI=
METAR SLTJ 051500Z 19005KT 9999 FEW030 FEW036CB SCT070 24/15 Q1018
A3006 813.3 HR56 CB W TCU N/NE CI=
METAR SLYA 051500Z 21006KT 9999 SCT023 31/24 Q1011 A2986 936.0 HR64=
METAR SLBJ 051500Z NIL=
METAR SLHI 051500Z NIL=
SABO SLCB 051500
METAR SLCB 051500Z 26004KT 9999 SCT025 SCT080 BKN200 20/12 Q1023
A3022 750.0 HR61 NOSIG=
METAR SLAL 051500Z 35007KT 9999 FEW010 BKN015 14/10 Q1028 A3036 702.6
HR76 AC=
METAR SLPO 051500Z 07010KT 9999 SCT017 13/06 Q1033 A3050 634.7 HR61
METAR SLAG 051500Z NIL=
METAR SLVM 051500Z 18007KT 9999 SCT030 32/22 Q1009 A2982 HR55 FU CI=
METAR SLTJ 051500Z 19005KT 9999 FEW030 FEW036CB SCT070 24/15 Q1018
A3006 813.3 HR56 CB W TCU N/NE CI=
METAR SLYA 051500Z 21006KT 9999 SCT023 31/24 Q1011 A2986 936.0 HR64=
METAR SLBJ 051500Z NIL=
METAR SLHI 051500Z NIL=
___A___
ZPX0430 051503
GG SLLPYGZA
051503 SLLPYFYX
SVC MIS CH 1500 LR PZX0000
SVC MIS CH 1500 LR PZX0000
___A___
ZPX0431 051503
GG SLZZYMYT
051501 SLSBYSYX
SABO SLSB 051500
METAR SLSB 051500Z 00000KT 5000 -RA BKN005 OVC070 24/23 Q1007 A2975
HR98 RWY WET INOP=
SABO SLSB 051500
METAR SLSB 051500Z 00000KT 5000 -RA BKN005 OVC070 24/23 Q1007 A2975
HR98 RWY WET INOP=
___A___
ZPX0432 051503
GG SLZZYMYT
051503 SLLPYFYA
SABO SLLP 051500
METAR SLLP 051500Z 14008KT 060V180 9999 SCT015 BKN200 13/05 Q1034
A3054 625.5 HR61 P94// AC NOSIG=
METAR SLCO 051500Z 34010KT 9999 BKN013 BKN080 28/23 Q1010 A2985 983.3
HR74=
METAR SLRY 051500Z 33003KT 2000 -RA BKN005 BKN010 OVC070 24/24 Q1007
A2975 HR98 RWY WET INOP=
METAR SLRQ 051500Z 00000KT 3000 -RA SCT005 BKN010 OVC070 24/24 Q1009
A2980 HR100=
METAR SLAP 051500Z 36015KT 7000 VCSH BKN015 OVC070 18/17 Q1015 A2997
856.0 HR91 SH SE/S/SW=
METAR SLSB 051500Z 00000KT 5000 -RA BKN005 OVC070 24/23 Q1007 A2975
HR98 RWY WET INOP=
METAR SLOR 051500Z 28005KT 9999 FEW020 SCT200 17/03 Q1031 A3047
653.8 HR37=
METAR SLUY 051500Z VRB02KT 9999 SCT023 15/00 Q1030 A3044 656.1 HR38
AC=
SABO SLLP 051500
METAR SLLP 051500Z 14008KT 060V180 9999 SCT015 BKN200 13/05 Q1034
A3054 625.5 HR61 P94// AC NOSIG=
METAR SLCO 051500Z 34010KT 9999 BKN013 BKN080 28/23 Q1010 A2985 983.3
HR74=
METAR SLRY 051500Z 33003KT 2000 -RA BKN005 BKN010 OVC070 24/24 Q1007
A2975 HR98 RWY WET INOP=
METAR SLRQ 051500Z 00000KT 3000 -RA SCT005 BKN010 OVC070 24/24 Q1009
A2980 HR100=
METAR SLAP 051500Z 36015KT 7000 VCSH BKN015 OVC070 18/17 Q1015 A2997
856.0 HR91 SH SE/S/SW=
METAR SLSB 051500Z 00000KT 5000 -RA BKN005 OVC070 24/23 Q1007 A2975
HR98 RWY WET INOP=
METAR SLOR 051500Z 28005KT 9999 FEW020 SCT200 17/03 Q1031 A3047
653.8 HR37=
METAR SLUY 051500Z VRB02KT 9999 SCT023 15/00 Q1030 A3044 656.1 HR38
AC=
___A___
ZPX0433 051510
FF SLLPZRZX
051507 SLCBZPZX
(FPL-BOV738-IS
-B738/M-SDFGHIRW/S
-SLCB1720
-N0440F370 MUNET2 MUNET UT712 VIR UM411 EVLOL UM411 PUPSI PUPSI1A
-SBGR0305 SBKP SBGL
-PBN/B1C1D1S1 REG/CP2926 EET/SBCW0111 SBBS0226 SBCW0252 SEL/FGBC OPR/
BOLIVIANA DE AVIACION)
(FPL-BOV738-IS
-B738/M-SDFGHIRW/S
-SLCB1720
-N0440F370 MUNET2 MUNET UT712 VIR UM411 EVLOL UM411 PUPSI PUPSI1A
-SBGR0305 SBKP SBGL
-PBN/B1C1D1S1 REG/CP2926 EET/SBCW0111 SBBS0226 SBCW0252 SEL/FGBC OPR/
BOLIVIANA DE AVIACION)
___A___
ZPX0434 051515
FF SLLPZRZX
051514 SLCBYSYX
(DEP-BOV636/A1765-SLCB1513-SLVR-REG/CP2716)
(DEP-BOV636/A1765-SLCB1513-SLVR-REG/CP2716)
___A___
ZPX0435 051518
FF SLLPZRZX
051507 SLSAZPZX
(FPL-CP1123-VG
-C182/L-FOV/C
-SLSA1600
-N0110F015 DCT VFR
-ZZZZ0015 SLSA
-DEST/SAN JORGE OPR/HUGO GUITERAS RMK/HDG070 RETORNA PIC JOSE L.
ROSALES A.LIC 10840608 CEL 71147699)
(FPL-CP1123-VG
-C182/L-FOV/C
-SLSA1600
-N0110F015 DCT VFR
-ZZZZ0015 SLSA
-DEST/SAN JORGE OPR/HUGO GUITERAS RMK/HDG070 RETORNA PIC JOSE L.
ROSALES A.LIC 10840608 CEL 71147699)
___A___
ZPX0436 051520
CH LR PZX0000
CH LR PZX0000
___A___
ZPX0437 051520
GG SLZZYMYT
051520 SLCOYGYZ
SPBO SLCO 051519
SPECI SLCO 051519Z 34010KT 9999 SCT015 BKN080 29/24 Q1009 A2981 982.0
HR71=
SPBO SLCO 051519
SPECI SLCO 051519Z 34010KT 9999 SCT015 BKN080 29/24 Q1009 A2981 982.0
HR71=
___A___
ZPX0438 051523
GG SLLPYGZA
051523 SLLPYFYX
SVC MIS CH 1520 LR PZX0000
SVC MIS CH 1520 LR PZX0000
___A___
ZPX0439 051526
FF SLLPZRZX
051526 SLCOZPZX
(DEP-CP2844-SLCO1526-SLRI-0)
(DEP-CP2844-SLCO1526-SLRI-0)
___A___
ZPX0440 051526
FF SLLPZRZX
051527 SLETZPZX
(CNL-CP3144-SLET1450-SLGM0300 SLVR SLRI-0)
(CNL-CP3144-SLET1450-SLGM0300 SLVR SLRI-0)
___A___
ZPX0441 051527
FF SLLPZRZX
051525 SLSAZPZX
(FPL-CP2948-VG
-C172/L-FOV/C
-SLSA2100
-N0100F035 DCT TRI
-SLTR0040 SLSA
-OPR/HUGO PAZ RMK/HDG160 PIC FELIX TACANA LIC 1698053 CEL 68776011)
(FPL-CP2948-VG
-C172/L-FOV/C
-SLSA2100
-N0100F035 DCT TRI
-SLTR0040 SLSA
-OPR/HUGO PAZ RMK/HDG160 PIC FELIX TACANA LIC 1698053 CEL 68776011)
___A___
ZPX0442 051532
FF SLLPZRZX
051532 SCDAZPZX
(FPL-AZN423-IS
-E190/M-SDFGHIRWY/EB1
-SCDA1645
-N0460F340 LOBAG1 LOBAG UT291 VAGUR UM664 TEGUM DCT
-SLLP0043 SLCB
-PBN/B2B3B4B5D1O1S2 REG/CP3130 EET/SLLP0029 SEL/CMJS)
(FPL-AZN423-IS
-E190/M-SDFGHIRWY/EB1
-SCDA1645
-N0460F340 LOBAG1 LOBAG UT291 VAGUR UM664 TEGUM DCT
-SLLP0043 SLCB
-PBN/B2B3B4B5D1O1S2 REG/CP3130 EET/SLLP0029 SEL/CMJS)
___A___
ZPX0443 051537
FF SLLPZRZX
051536 SLTJZPZX
(FPL-AZN191-IS
-E190/M-SDFGHIRWY/EB1
-SLTJ1650
-N0460F330 PULSA1 PULSA UW316 VIR
-SLVR0045 SLCB
-PBN/B2B3B4B5D1O1S2 REG/CP3133 SEL/CDFR OPR/AMASZONAS S.A.)
(FPL-AZN191-IS
-E190/M-SDFGHIRWY/EB1
-SLTJ1650
-N0460F330 PULSA1 PULSA UW316 VIR
-SLVR0045 SLCB
-PBN/B2B3B4B5D1O1S2 REG/CP3133 SEL/CDFR OPR/AMASZONAS S.A.)
___A___
ZPX0444 051537
FF SLLPZRZX
051538 SLLPYSYX
(FPL-BOV638-IS
-B733/M-SDFHIRW/S
-SLCB1640
-N0440F290 UW677
-SLVR0040 SLCB SLLP
-PBN/B3B4B5 RMK/RPL)
(FPL-BOV638-IS
-B733/M-SDFHIRW/S
-SLCB1640
-N0440F290 UW677
-SLVR0040 SLCB SLLP
-PBN/B3B4B5 RMK/RPL)
___A___
ZPX0445 051538
FF SLLPZRZX
051533 SLSAZPZX
(FPL-CP1402-VG
-C206/L-FOV/C
-SLSA1630
-N0120F015 DCT TRI
-SLTR0035 SLSA
-OPR/PIBES AIR RMK/HDG160 PIC LUIS F.ABULARACH V.LIC 1707341
CEL 71665968)
(FPL-CP1402-VG
-C206/L-FOV/C
-SLSA1630
-N0120F015 DCT TRI
-SLTR0035 SLSA
-OPR/PIBES AIR RMK/HDG160 PIC LUIS F.ABULARACH V.LIC 1707341
CEL 71665968)
___A___
ZPX0446 051538
FF SLLPZRZX
051534 SLSAZPZX
(FPL-CP1781-VG
-C172/L-OV/C
-SLSA1630
-N0100F015 DCT TRI
-SLTR0040 SLSA
-OPR/PIBES AIR RMK/PIC DANIEL EGUEZ H.LIC 5613812 CEL 72670041)
(FPL-CP1781-VG
-C172/L-OV/C
-SLSA1630
-N0100F015 DCT TRI
-SLTR0040 SLSA
-OPR/PIBES AIR RMK/PIC DANIEL EGUEZ H.LIC 5613812 CEL 72670041)
___A___
ZPX0447 051540
CH LR PZX0000
CH LR PZX0000
___A___
ZPX0448 051541
FF SLLPZRZX
051541 SLCOZPZX
(FPL-AZN377-IS
-E190/M-SDFGHIRWY/EB1
-SLCO1630
-N0460F350 AKRUD1 AKRUD UT711
-SLLP0050 SLCB
-PBN/B2B3B4B5D1O1S2 REG/CP3142)
(FPL-AZN377-IS
-E190/M-SDFGHIRWY/EB1
-SLCO1630
-N0460F350 AKRUD1 AKRUD UT711
-SLLP0050 SLCB
-PBN/B2B3B4B5D1O1S2 REG/CP3142)
___A___
ZPX0449 051543
GG SLLPYGZA
051543 SLLPYFYX
SVC MIS CH 1540 LR PZX0000
SVC MIS CH 1540 LR PZX0000
___A___
ZPX0450 051551
GG SLZZYMYT
051550 SLPSYGYS
SABO SLPS 051600
METAR SLPS 051600Z 36004KT 9999 SCT015 BKN070 29/25 Q1010 A2983 HR80=
SABO SLPS 051600
METAR SLPS 051600Z 36004KT 9999 SCT015 BKN070 29/25 Q1010 A2983 HR80=
___A___
ZPX0451 051553
GG SLZZYMYT
051555 SLVRYGYZ
SABO SLVR 051600
METAR SLVR 051600Z 01009KT 7000 -RA BKN010 BKN017 OVC070 22/21 Q1012
A2989 HR94 NOSIG=
SABO SLVR 051600
METAR SLVR 051600Z 01009KT 7000 -RA BKN010 BKN017 OVC070 22/21 Q1012
A2989 HR94 NOSIG=
___A___
ZPX0452 051554
GG SLZZYMYT
051554 SLSBYSYX
SABO SLSB 051600
METAR SLSB 051600Z 00000KT 4000 -RA BKN005 OVC070 24/23 Q1007 A2976
HR98 RWY WET INOP=
SABO SLSB 051600
METAR SLSB 051600Z 00000KT 4000 -RA BKN005 OVC070 24/23 Q1007 A2976
HR98 RWY WET INOP=
___A___
ZPX0453 051554
GG SLZZYMYT
051554 SLCAYGYS
SABO SLCA 051600
METAR SLCA 051600Z 00000KT 9999 SCT033 BKN080 29/21 Q1013 A2991 HR63
RWY NML=
SABO SLCA 051600
METAR SLCA 051600Z 00000KT 9999 SCT033 BKN080 29/21 Q1013 A2991 HR63
RWY NML=
___A___
ZPX0454 051554
FF SLLPZRZX
051555 SLLPYSYX
(FPL-BOV670-IS
-B737/M-SDFGHIRW/S
-SLLP1655
-N0440F390 UW29
-SLVR0055 SLCB SLLP
-PBN/B1C1D1S1 RMK/RPL)
(FPL-BOV670-IS
-B737/M-SDFGHIRW/S
-SLLP1655
-N0440F390 UW29
-SLVR0055 SLCB SLLP
-PBN/B1C1D1S1 RMK/RPL)
___A___
ZPX0455 051554
GG SLZZYMYT
051554 SLSAYGYS
SABO SLSA 051600
METAR SLSA 051600Z 34008KT 8000 VCSH BKN015 BKN070 28/23
Q1009 A2981 HR75 SH SW/NW=
SABO SLSA 051600
METAR SLSA 051600Z 34008KT 8000 VCSH BKN015 BKN070 28/23
Q1009 A2981 HR75 SH SW/NW=
___A___
ZPX0456 051555
GG SLZZYMYT
051555 SLTJYGYZ
SABO SLTJ 051600
METAR SLTJ 051600Z 13005KT 9999 SCT033 FEW036CB 25/15 Q1017 A3004 812
.6 HR54 CB N/NE AC=
SABO SLTJ 051600
METAR SLTJ 051600Z 13005KT 9999 SCT033 FEW036CB 25/15 Q1017 A3004 812
.6 HR54 CB N/NE AC=
___A___
ZPX0457 051555
GG SLZZYMYT
051555 SLORYGYZ
SABO SLOR 051600
METAR SLOR 051600Z 20006KT 9999 FEW020 SCT200 18/03 Q1031 A3046 653.4
HR35=
SABO SLOR 051600
METAR SLOR 051600Z 20006KT 9999 FEW020 SCT200 18/03 Q1031 A3046 653.4
HR35=
___A___
ZPX0458 051556
GG SLZZYMYT
051555 SLCOYGYZ
SABO SLCO 051600
METAR SLCO 051600Z 34010KT 9999 BKN017 BKN080 29/23 Q1010 A2983 982.8
HR72 CI=
SABO SLCO 051600
METAR SLCO 051600Z 34010KT 9999 BKN017 BKN080 29/23 Q1010 A2983 982.8
HR72 CI=
___A___
ZPX0459 051556
GG SLZZYMYT
051553 SLRBYGYS
SABO SLRB 051600
METAR SLRB 051600Z 00000KT 9999 VCSH BKN017 27/24 Q1012 A2988 HR85 SH
N/NE/NW RWY NML=
SABO SLRB 051600
METAR SLRB 051600Z 00000KT 9999 VCSH BKN017 27/24 Q1012 A2988 HR85 SH
N/NE/NW RWY NML=
___A___
ZPX0460 051556
GG SLZZYMYT
051556 SLTRYGYZ
SABO SLTR 051600
METAR SLTR 051600Z 31008KT 5000 -RA SCT005 OVC070 25/25 Q1010 A2984
992.0 HR96 TEMPO 3000=
SABO SLTR 051600
METAR SLTR 051600Z 31008KT 5000 -RA SCT005 OVC070 25/25 Q1010 A2984
992.0 HR96 TEMPO 3000=
___A___
ZPX0461 051556
GG SLZZYMYT
051556 SLUYYGYS
SABO SLUY 051600
METAR SLUY 051600Z 22005KT 9999 SCT025 16/M01 Q1030 A3043
655.8 HR30 AC=
SABO SLUY 051600
METAR SLUY 051600Z 22005KT 9999 SCT025 16/M01 Q1030 A3043
655.8 HR30 AC=
___A___
ZPX0462 051556
FF SLLPZRZX
051558 SLLPYSYX
(FPL-BOV611-IS
-B737/M-SDFGHIRW/S
-SLLP1700
-N0440F270 UW677
-SLCB0030 SLVR SLLP
-PBN/B1C1D1S1 RMK/RPL)
(FPL-BOV611-IS
-B737/M-SDFGHIRW/S
-SLLP1700
-N0440F270 UW677
-SLCB0030 SLVR SLLP
-PBN/B1C1D1S1 RMK/RPL)
___A___
ZPX0463 051556
FF SLLPZRZX
051558 SLLPYSYX
(FPL-BOV610-IS
-B737/M-SDFGHIRW/S
-SLCB1700
-N0440F280 UW677
-SLLP0030 SLCB SLVR
-PBN/B1C1D1S1 RMK/RPL)
(FPL-BOV610-IS
-B737/M-SDFGHIRW/S
-SLCB1700
-N0440F280 UW677
-SLLP0030 SLCB SLVR
-PBN/B1C1D1S1 RMK/RPL)
___A___
ZPX0464 051556
GG SLZZYMYT
051556 SLLPYGYZ
SABO SLLP 051600
METAR SLLP 051600Z 13006KT 060V200 9999 SCT020 FEW023 BKN200 14/03
Q1033 A3052 625.0 HR49 P94// CB/N/NE AC NOSIG=
SABO SLLP 051600
METAR SLLP 051600Z 13006KT 060V200 9999 SCT020 FEW023 BKN200 14/03
Q1033 A3052 625.0 HR49 P94// CB/N/NE AC NOSIG=
___A___
ZPX0465 051556
GG SLZZYMYT
051556 SLCBYGYZ
SABO SLCB 051600
METAR SLCB 051600Z 05006KT 9999 SCT025 FEW030CB SCT080 BKN200 20/11
Q1022 A3019 749.3 HR56 CB NW/N SH/NW NOSIG=
SABO SLCB 051600
METAR SLCB 051600Z 05006KT 9999 SCT025 FEW030CB SCT080 BKN200 20/11
Q1022 A3019 749.3 HR56 CB NW/N SH/NW NOSIG=
___A___
ZPX0466 051557
GG SLZZYMYT
051557 SLLPYFYA
SABO SLRY 051600
METAR SLRY 051600Z 33003KT 2000 -RA BKN005 BKN010 OVC070 24/24 Q1007
A2975 HR98 RWY WET INOP=
SABO SLRY 051600
METAR SLRY 051600Z 33003KT 2000 -RA BKN005 BKN010 OVC070 24/24 Q1007
A2975 HR98 RWY WET INOP=
___A___
ZPX0467 051558
GG SLZZYMYT
051559 SLVRYFYC
SABO SLVR 051600
METAR SLVR 051600Z 01009KT 7000 -RA BKN010 BKN017 OVC070 22/21 Q1012
A2989 HR94 NOSIG=
METAR SLET 051600Z 31006KT 6000 -RA BKN010 BKN015 OVC070 22/21 Q1011
A2986 HR94 NOSIG=
METAR SLAS 051600Z 00000KT 3000 -RA OVC012 23/22 Q1014 A2994 HR95 RWY
WET OPR=
METAR SLCP 051600Z 36008KT 9999 BKN017 FEW027CB BKN070 28/23 Q1014
A2994 HR75 CB S RWY NML=
METAR SLSI 051600Z 36006KT 9999 SCT017 BKN070 30/23 Q1011 A2985 HR65
RWY NML=
METAR SLRB 051600Z 00000KT 9999 VCSH BKN017 27/24 Q1012 A2988 HR85 SH
N/NE/NW RWY NML=
METAR SLPS 051600Z 36004KT 9999 SCT015 BKN070 29/25 Q1010 A2983 HR80=
METAR SLCA 051600Z 00000KT 9999 SCT033 BKN080 29/21 Q1013 A2991 HR63
RWY NML=
SABO SLVR 051600
METAR SLVR 051600Z 01009KT 7000 -RA BKN010 BKN017 OVC070 22/21 Q1012
A2989 HR94 NOSIG=
METAR SLET 051600Z 31006KT 6000 -RA BKN010 BKN015 OVC070 22/21 Q1011
A2986 HR94 NOSIG=
METAR SLAS 051600Z 00000KT 3000 -RA OVC012 23/22 Q1014 A2994 HR95 RWY
WET OPR=
METAR SLCP 051600Z 36008KT 9999 BKN017 FEW027CB BKN070 28/23 Q1014
A2994 HR75 CB S RWY NML=
METAR SLSI 051600Z 36006KT 9999 SCT017 BKN070 30/23 Q1011 A2985 HR65
RWY NML=
METAR SLRB 051600Z 00000KT 9999 VCSH BKN017 27/24 Q1012 A2988 HR85 SH
N/NE/NW RWY NML=
METAR SLPS 051600Z 36004KT 9999 SCT015 BKN070 29/25 Q1010 A2983 HR80=
METAR SLCA 051600Z 00000KT 9999 SCT033 BKN080 29/21 Q1013 A2991 HR63
RWY NML=
___A___
ZPX0468 051559
FF SLLPZRZX
051557 SLTRZPZX
(FPL-CP2740-VG
-C206/L-FOV/C
-SLTR1700
-N0120F025 TRI340070
-SLSA0050 SLTR
-OPR/PIBES AIR RMK/PIC.JESUS E. ABULARACH C. LIC 1920536 TEL 72100206)
(FPL-CP2740-VG
-C206/L-FOV/C
-SLTR1700
-N0120F025 TRI340070
-SLSA0050 SLTR
-OPR/PIBES AIR RMK/PIC.JESUS E. ABULARACH C. LIC 1920536 TEL 72100206)
___A___
ZPX0469 051559
GG SLZZYMYT
051559 SLLPYFYA
SABO SLLP 051600
METAR SLLP 051600Z 13006KT 060V200 9999 SCT020 FEW023 BKN200 14/03
Q1033 A3052 625.0 HR49 P94// CB/N/NE AC NOSIG=
METAR SLCO 051600Z 34010KT 9999 BKN017 BKN080 29/23 Q1010 A2983 982.8
HR72 CI=
METAR SLRY 051600Z 33003KT 2000 -RA BKN005 BKN010 OVC070 24/24 Q1007
A2975 HR98 RWY WET INOP=
METAR SLRQ 051600Z 36004KT 1500 RA SCT005 BKN010 OVC070 25/25 Q1009
A2980 HR100=
METAR SLAP 051600Z 36010KT 7000 VCSH BKN015 OVC070 20/18 Q1014 A2996
855.6 HR89 SH SE/S/SW=
METAR SLSB 051600Z 00000KT 4000 -RA BKN005 OVC070 24/23 Q1007 A2976
HR98 RWY WET INOP=
METAR SLOR 051600Z 20006KT 9999 FEW020 SCT200 18/03 Q1031 A3046 653.4
HR35=
METAR SLUY 051600Z 22005KT 9999 SCT025 16/M01 Q1030 A3043 655.8 HR30
AC=
SABO SLLP 051600
METAR SLLP 051600Z 13006KT 060V200 9999 SCT020 FEW023 BKN200 14/03
Q1033 A3052 625.0 HR49 P94// CB/N/NE AC NOSIG=
METAR SLCO 051600Z 34010KT 9999 BKN017 BKN080 29/23 Q1010 A2983 982.8
HR72 CI=
METAR SLRY 051600Z 33003KT 2000 -RA BKN005 BKN010 OVC070 24/24 Q1007
A2975 HR98 RWY WET INOP=
METAR SLRQ 051600Z 36004KT 1500 RA SCT005 BKN010 OVC070 25/25 Q1009
A2980 HR100=
METAR SLAP 051600Z 36010KT 7000 VCSH BKN015 OVC070 20/18 Q1014 A2996
855.6 HR89 SH SE/S/SW=
METAR SLSB 051600Z 00000KT 4000 -RA BKN005 OVC070 24/23 Q1007 A2976
HR98 RWY WET INOP=
METAR SLOR 051600Z 20006KT 9999 FEW020 SCT200 18/03 Q1031 A3046 653.4
HR35=
METAR SLUY 051600Z 22005KT 9999 SCT025 16/M01 Q1030 A3043 655.8 HR30
AC=
___A___
ZPX0470 051559
GG SLZZYMYT
051558 SLETYMYC
SABO SLET 051600
METAR SLET 051600Z 31006KT 6000 -RA BKN010 BKN015 OVC070 22/21 Q1011
A2986 HR94 NOSIG=
SABO SLET 051600
METAR SLET 051600Z 31006KT 6000 -RA BKN010 BKN015 OVC070 22/21 Q1011
A2986 HR94 NOSIG=
___A___
ZPX0471 051559
GG SLZZYMYT
051559 SLTRYGYS
SABO SLTR 051600
METAR SLTR 051600Z 31008KT 5000 -RA SCT005 OVC070 25/25 Q1010 A2984
992.0 HR96 TEMPO 3000=
METAR SLGM 051600Z 02012KT 8000 VCSH SCT017 FEW020CB BKN080 30/24
Q1009 A2981 HR70 CB/SH NE/E/W=
METAR SLRI 051600Z 36006KT 9999 BKN015 FEW020CB BKN080 29/24 Q1010
A2985 HR76 CB N=
METAR SLJO 051600Z 35008KT 5000 -RA SCT015 FEW023CB BKN070 OVC200
26/25 Q1008 A2979 HR90 CB SE/NW RWY WET INOP=
METAR SLRA 051600Z 36010KT 7000 VCSH SCT015 FEW023CB OVC070 28/24
Q1010 A2983 HR82 CB/SH N/NE/NW RWY NML=
METAR SLMG 051600Z 32004KT 9999 BKN015 BKN080 27/24 Q1010 A2985 HR85
RWY HUM OPR=
METAR SLBU 051600Z NIL=
METAR SLSA 051600Z 34008KT 8000 VCSH BKN015 BKN070 28/23 Q1009
A2981 HR75 SH SW/NW=
METAR SLSR 051600Z 32008KT 8000 -RA BKN010 FEW020CB OVC070 24/24
Q1010 A2984 HR97 CB N/NW RWY WET INOP=
METAR SLSM 051600Z 36004KT 8000 -RA BKN013 OVC070 24/23 Q1010 A2984
HR96 RWY WET INOP=
SABO SLTR 051600
METAR SLTR 051600Z 31008KT 5000 -RA SCT005 OVC070 25/25 Q1010 A2984
992.0 HR96 TEMPO 3000=
METAR SLGM 051600Z 02012KT 8000 VCSH SCT017 FEW020CB BKN080 30/24
Q1009 A2981 HR70 CB/SH NE/E/W=
METAR SLRI 051600Z 36006KT 9999 BKN015 FEW020CB BKN080 29/24 Q1010
A2985 HR76 CB N=
METAR SLJO 051600Z 35008KT 5000 -RA SCT015 FEW023CB BKN070 OVC200
26/25 Q1008 A2979 HR90 CB SE/NW RWY WET INOP=
METAR SLRA 051600Z 36010KT 7000 VCSH SCT015 FEW023CB OVC070 28/24
Q1010 A2983 HR82 CB/SH N/NE/NW RWY NML=
METAR SLMG 051600Z 32004KT 9999 BKN015 BKN080 27/24 Q1010 A2985 HR85
RWY HUM OPR=
METAR SLBU 051600Z NIL=
METAR SLSA 051600Z 34008KT 8000 VCSH BKN015 BKN070 28/23 Q1009
A2981 HR75 SH SW/NW=
METAR SLSR 051600Z 32008KT 8000 -RA BKN010 FEW020CB OVC070 24/24
Q1010 A2984 HR97 CB N/NW RWY WET INOP=
METAR SLSM 051600Z 36004KT 8000 -RA BKN013 OVC070 24/23 Q1010 A2984
HR96 RWY WET INOP=
___A___
ZPX0472 051600
CH LR PZX0000
CH LR PZX0000
___A___
ZPX0473 051600
GG SLZZYMYT
051600 SLCBYGYS
SABO SLCB 051600
METAR SLCB 051600Z 05006KT 9999 SCT025 FEW030CB SCT080 BKN200 20/11
Q1022 A3019 749.3 HR56 CB NW/N SH/NW NOSIG=
METAR SLAL 051600Z 05006KT 9999 BKN017 FEW030CB 16/09 Q1027 A3032 702
.2 HR66 CB/E AC=
METAR SLPO 051600Z 06012KT 9999 SCT017 FEW025CB 14/06 Q1032 A3049 634
.5 HR59 CB/SW=
METAR SLAG 051600Z NIL=
METAR SLVM 051600Z 00000KT 9999 SCT030 33/21 Q1009 A2980 HR49 FU CI=
METAR SLTJ 051600Z 13005KT 9999 SCT033 FEW036CB 25/15 Q1017 A3004 812
.6 HR54 CB N/NE AC=
METAR SLYA 051600Z 21006MT 9999 SCT023 32/24 Q1010 A2984 935.4 HR60=
METAR SLBJ 051600Z NIL=
METAR SLHI 051600Z NIL=
SABO SLCB 051600
METAR SLCB 051600Z 05006KT 9999 SCT025 FEW030CB SCT080 BKN200 20/11
Q1022 A3019 749.3 HR56 CB NW/N SH/NW NOSIG=
METAR SLAL 051600Z 05006KT 9999 BKN017 FEW030CB 16/09 Q1027 A3032 702
.2 HR66 CB/E AC=
METAR SLPO 051600Z 06012KT 9999 SCT017 FEW025CB 14/06 Q1032 A3049 634
.5 HR59 CB/SW=
METAR SLAG 051600Z NIL=
METAR SLVM 051600Z 00000KT 9999 SCT030 33/21 Q1009 A2980 HR49 FU CI=
METAR SLTJ 051600Z 13005KT 9999 SCT033 FEW036CB 25/15 Q1017 A3004 812
.6 HR54 CB N/NE AC=
METAR SLYA 051600Z 21006MT 9999 SCT023 32/24 Q1010 A2984 935.4 HR60=
METAR SLBJ 051600Z NIL=
METAR SLHI 051600Z NIL=
___A___
ZPX0474 051601
GG SLZZYMYT
051601 SLLPYGYZ
SABO SLLP 051600 CCA
METAR COR SLLP 051600Z 13006KT 060V200 9999 SCT020 FEW023CB BKN200 14
/03 Q1033 A3052 625.0 HR49 P94// CB/N/NE AC NOSIG=
SABO SLLP 051600 CCA
METAR COR SLLP 051600Z 13006KT 060V200 9999 SCT020 FEW023CB BKN200 14
/03 Q1033 A3052 625.0 HR49 P94// CB/N/NE AC NOSIG=
___A___
ZPX0475 051602
GG SLZZYMYT
051602 SLLPYFYA
SABO SLLP 051600 CCA
METAR COR SLLP 051600Z 13006KT 060V200 9999 SCT020 FEW023CB BKN200
14/03 Q1033 A3052 625.0 HR49 P94// CB/N/NE AC NOSIG=
METAR SLCO 051600Z 34010KT 9999 BKN017 BKN080 29/23 Q1010 A2983 982.8
HR72 CI=
METAR SLRY 051600Z 33003KT 2000 -RA BKN005 BKN010 OVC070 24/24 Q1007
A2975 HR98 RWY WET INOP=
METAR SLRQ 051600Z 36004KT 1500 RA SCT005 BKN010 OVC070 25/25 Q1009
A2980 HR100=
METAR SLAP 051600Z 36010KT 7000 VCSH BKN015 OVC070 20/18 Q1014 A2996
855.6 HR89 SH SE/S/SW=
METAR SLSB 051600Z 00000KT 4000 -RA BKN005 OVC070 24/23 Q1007 A2976
HR98 RWY WET INOP=
METAR SLOR 051600Z 20006KT 9999 FEW020 SCT200 18/03 Q1031 A3046 653.4
HR35=
METAR SLUY 051600Z 22005KT 9999 SCT025 16/M01 Q1030 A3043 655.8 HR30
AC=
SABO SLLP 051600 CCA
METAR COR SLLP 051600Z 13006KT 060V200 9999 SCT020 FEW023CB BKN200
14/03 Q1033 A3052 625.0 HR49 P94// CB/N/NE AC NOSIG=
METAR SLCO 051600Z 34010KT 9999 BKN017 BKN080 29/23 Q1010 A2983 982.8
HR72 CI=
METAR SLRY 051600Z 33003KT 2000 -RA BKN005 BKN010 OVC070 24/24 Q1007
A2975 HR98 RWY WET INOP=
METAR SLRQ 051600Z 36004KT 1500 RA SCT005 BKN010 OVC070 25/25 Q1009
A2980 HR100=
METAR SLAP 051600Z 36010KT 7000 VCSH BKN015 OVC070 20/18 Q1014 A2996
855.6 HR89 SH SE/S/SW=
METAR SLSB 051600Z 00000KT 4000 -RA BKN005 OVC070 24/23 Q1007 A2976
HR98 RWY WET INOP=
METAR SLOR 051600Z 20006KT 9999 FEW020 SCT200 18/03 Q1031 A3046 653.4
HR35=
METAR SLUY 051600Z 22005KT 9999 SCT025 16/M01 Q1030 A3043 655.8 HR30
AC=
___A___
ZPX0476 051603
GG SLLPYGZA
051603 SLLPYFYX
SVC MIS CH 1600 LR PZX0000
SVC MIS CH 1600 LR PZX0000
___A___
ZPX0477 051603
FF SLLPZRZX
051605 SLLPZPZX
(FPL-BOV672-IS
-B738/M-SDFGHIRW/S
-SLLP1905
-N0440F390 TERAX1 TERAX UW29 VIR
-SLVR0100 SLCB
-PBN/B1C1D1S1 REG/CP3151)
(FPL-BOV672-IS
-B738/M-SDFGHIRW/S
-SLLP1905
-N0440F390 TERAX1 TERAX UW29 VIR
-SLVR0100 SLCB
-PBN/B1C1D1S1 REG/CP3151)
___A___
ZPX0478 051604
FF SLLPZRZX
051603 SLTRZPZX
(FPL-AZN392-IS
-DH8B/M-SDFGR/C
-SLTR1830
-N0230F190 TRI M653 SLGM
-SLGM0100 SLTR
-PBN/B2B3B4 REG/CP3092 OPR/AMASZONAS S.A.)
(FPL-AZN392-IS
-DH8B/M-SDFGR/C
-SLTR1830
-N0230F190 TRI M653 SLGM
-SLGM0100 SLTR
-PBN/B2B3B4 REG/CP3092 OPR/AMASZONAS S.A.)
___A___
ZPX0479 051604
FF SLLPZRZX
051604 SLTRZPZX
(FPL-AZN295-IS
-DH8B/M-SDFGR/C
-SLTR2140
-N0230F190 TRI A301 VIR
-SLVR0055 SLCB
-PBN/B2B3B4 REG/CP3092 OPR/AMASZONAS S.A.)
(FPL-AZN295-IS
-DH8B/M-SDFGR/C
-SLTR2140
-N0230F190 TRI A301 VIR
-SLVR0055 SLCB
-PBN/B2B3B4 REG/CP3092 OPR/AMASZONAS S.A.)
___A___
ZPX0480 051605
FF SLLPZRZX
051605 SLLPYSYX
(FPL-BOV639-IS
-B733/M-SDFHIRW/S
-SLVR1705
-N0440F280 UT712
-SLCB0045 SLVR SLLP
-PBN/B3B4B5 RMK/RPL)
(FPL-BOV639-IS
-B733/M-SDFHIRW/S
-SLVR1705
-N0440F280 UT712
-SLCB0045 SLVR SLLP
-PBN/B3B4B5 RMK/RPL)
___A___
ZPX0481 051605
FF SLLPZRZX
051605 SLLPYSYX
(FPL-BOV671-IS
-B737/M-SDFGHIRW/S
-SLVR1705
-N0440F380 UW29
-SLLP0100 SLCB SLVR
-PBN/B1C1D1S1 RMK/RPL)
(FPL-BOV671-IS
-B737/M-SDFGHIRW/S
-SLVR1705
-N0440F380 UW29
-SLLP0100 SLCB SLVR
-PBN/B1C1D1S1 RMK/RPL)
___A___
ZPX0482 051609
FF SLLPZRZX
051610 SLLPYSYX
(FPL-BOV231-IS
-CRJ2/M-SDFGIRW/S
-SLTJ1710
-N0350F190 DCT
-SLYA0030 SLCB SLTJ SLAL SLVR
-PBN/B1C1D1S1 RMK/RPL)
(FPL-BOV231-IS
-CRJ2/M-SDFGIRW/S
-SLTJ1710
-N0350F190 DCT
-SLYA0030 SLCB SLTJ SLAL SLVR
-PBN/B1C1D1S1 RMK/RPL)
___A___
ZPX0483 051614
GG SLZZYMYT
051614 SLCBYGYS
SABO SLCB 051600 RRA
METAR SLCB 051600Z 05006KT 9999 SCT025 FEW030CB SCT080 BKN200 20/11
Q1022 A3019 749.3 HR56 CB NW/N SH/NW NOSIG=
METAR SLAL 051600Z 05006KT 9999 BKN017 FEW030CB 16/09 Q1027 A3032 702
.2 HR66 CB/E AC=
METAR SLPO 051600Z 06012KT 9999 SCT017 FEW025CB 14/06 Q1032 A3049 634
.5 HR59 CB/SW=
METAR SLAG 051600Z NIL=
METAR SLVM 051600Z 00000KT 9999 SCT030 33/21 Q1009 A2980 HR49 FU CI=
METAR SLTJ 051600Z 13005KT 9999 SCT033 FEW036CB 25/15 Q1017 A3004 812
.6 HR54 CB N/NE AC=
METAR COR SLYA 051600Z 21006KT 9999 SCT023 32/24 Q1010 A2984 935.4
HR60=
METAR SLBJ 051600Z NIL=
METAR SLHI 051600Z NIL=
SABO SLCB 051600 RRA
METAR SLCB 051600Z 05006KT 9999 SCT025 FEW030CB SCT080 BKN200 20/11
Q1022 A3019 749.3 HR56 CB NW/N SH/NW NOSIG=
METAR SLAL 051600Z 05006KT 9999 BKN017 FEW030CB 16/09 Q1027 A3032 702
.2 HR66 CB/E AC=
METAR SLPO 051600Z 06012KT 9999 SCT017 FEW025CB 14/06 Q1032 A3049 634
.5 HR59 CB/SW=
METAR SLAG 051600Z NIL=
METAR SLVM 051600Z 00000KT 9999 SCT030 33/21 Q1009 A2980 HR49 FU CI=
METAR SLTJ 051600Z 13005KT 9999 SCT033 FEW036CB 25/15 Q1017 A3004 812
.6 HR54 CB N/NE AC=
METAR COR SLYA 051600Z 21006KT 9999 SCT023 32/24 Q1010 A2984 935.4
HR60=
METAR SLBJ 051600Z NIL=
METAR SLHI 051600Z NIL=
___A___
ZPX0484 051616
FF SLLPZRZX
051616 SLTRZPZX
(FPL-CP2532-VG
-C207/L-FOV/C
-SLTR1800
-N0120F025 TRI340070
-SLSA0040 SLTR
-OPR/A. RODRIGUEZ RMK/PIC.JOSE E. EGUEZ LIC 5615810 TEL 72614995)
(FPL-CP2532-VG
-C207/L-FOV/C
-SLTR1800
-N0120F025 TRI340070
-SLSA0040 SLTR
-OPR/A. RODRIGUEZ RMK/PIC.JOSE E. EGUEZ LIC 5615810 TEL 72614995)
___A___
ZPX0485 051618
FF SLLPZRZX
051618 SLLPYSYX
(FPL-BOV640-IS
-B733/M-SDFHIRW/S
-SLCB1720
-N0440F290 UW677
-SLVR0040 SLCB SLLP
-PBN/B3B4B5 RMK/RPL)
(FPL-BOV640-IS
-B733/M-SDFHIRW/S
-SLCB1720
-N0440F290 UW677
-SLVR0040 SLCB SLLP
-PBN/B3B4B5 RMK/RPL)
___A___
ZPX0486 051620
CH LR PZX0000
CH LR PZX0000
___A___
ZPX0487 051623
GG SLLPYGZA
051623 SLLPYFYX
SVC MIS CH 1620 LR PZX0000
SVC MIS CH 1620 LR PZX0000
___A___
ZPX0488 051625
FF SLLPZRZX
051623 SLTRZPZX
(FPL-FAB413-VM
-C206/L-OV/C
-SLTR1800
-N0120F025 LCA
-SLTR0100 SLTR
-OPR/FAB RMK/FLT INSTRUCCION PIC.TTE. VERGARA)
(FPL-FAB413-VM
-C206/L-OV/C
-SLTR1800
-N0120F025 LCA
-SLTR0100 SLTR
-OPR/FAB RMK/FLT INSTRUCCION PIC.TTE. VERGARA)
___A___
ZPX0489 051638
FF SLLPZRZX
051637 SLCOZPZX
(DEP-AZN377/A1777-SLCO1637-SLLP-0)
(DEP-AZN377/A1777-SLCO1637-SLLP-0)
___A___
ZPX0490 051640
CH LR PZX0000
CH LR PZX0000
___A___
ZPX0491 051641
GG SLZZYMYT
051640 SLLPYMYX
FABO SLLP 051640
ARFOR VALIDO 051800/061800
SITUACION SINOPTICA: DEPRESION SE DEL PAIS. INESTABILIDAD ATMOFERICA
ALTIPLANO/CORDILLERA ORIENTAL. SISTEMA CONVECTIVO EN DISIPACION N DE
COCHABAMBA S/SW DE BENI/W DE LLANOS ORIENTALES.
WINTEM PROB FL390 FL340 FL300 FL240 FL180
ALTIPLANO/CORDILLERA 31030M52 31020M40 28015M30 33010M15 28005M03
BENI/NORTE DEL PAIS 15010M52 14010M40 09005M30 36010M15 34010M04
LLANOS ORIENTALES 31015M53 29015M40 31025M30 33015M16 34015M05
TIERRAS BAJAS DEL SUR 30030M52 31035M40 31030M30 29015M17 34005M05
PRONOSTICO GENERAL:
ALTIPLANO/CORDILLERA ORIENTAL: SCT AC 2100 DEBAJO FEW/SCT CU/SC 500
TEMPO ISOL CB/TSRA.
BENI/NORTE DEL PAIS: BKN/SCT AC/AC 2100 DEBAJO FEW/SCT CU/SC 500
TEMPO OCNL CB/TSRA.
LLANOS ORIENTALES: SCT/BKN AC/AS 2100 DEBAJO SCT/BKN CU/SC 500 TEMPO
ISOL CB/SHRA.
TIERRAS BAJAS DEL S: SCT AC 2100 DEBAJO SCT CU/SC 500.=
FABO SLLP 051640
ARFOR VALIDO 051800/061800
SITUACION SINOPTICA: DEPRESION SE DEL PAIS. INESTABILIDAD ATMOFERICA
ALTIPLANO/CORDILLERA ORIENTAL. SISTEMA CONVECTIVO EN DISIPACION N DE
COCHABAMBA S/SW DE BENI/W DE LLANOS ORIENTALES.
WINTEM PROB FL390 FL340 FL300 FL240 FL180
ALTIPLANO/CORDILLERA 31030M52 31020M40 28015M30 33010M15 28005M03
BENI/NORTE DEL PAIS 15010M52 14010M40 09005M30 36010M15 34010M04
LLANOS ORIENTALES 31015M53 29015M40 31025M30 33015M16 34015M05
TIERRAS BAJAS DEL SUR 30030M52 31035M40 31030M30 29015M17 34005M05
PRONOSTICO GENERAL:
ALTIPLANO/CORDILLERA ORIENTAL: SCT AC 2100 DEBAJO FEW/SCT CU/SC 500
TEMPO ISOL CB/TSRA.
BENI/NORTE DEL PAIS: BKN/SCT AC/AC 2100 DEBAJO FEW/SCT CU/SC 500
TEMPO OCNL CB/TSRA.
LLANOS ORIENTALES: SCT/BKN AC/AS 2100 DEBAJO SCT/BKN CU/SC 500 TEMPO
ISOL CB/SHRA.
TIERRAS BAJAS DEL S: SCT AC 2100 DEBAJO SCT CU/SC 500.=
___A___
ZPX0492 051643
GG SLLPYGZA
051643 SLLPYFYX
SVC MIS CH 1640 LR PZX0000
SVC MIS CH 1640 LR PZX0000
___A___
ZPX0493 051651
FF SLLPZRZX
051650 SCDAZRZX
(EST-AZN423/A5131-SCDA-VAGUR/1700F340-SLLP)
(EST-AZN423/A5131-SCDA-VAGUR/1700F340-SLLP)
___A___
ZPX0494 051652
GG SLZZYMYT
051651 SLCAYGYS
SABO SLCA 051700
METAR SLCA 051700Z 00000KT 9999 SCT033 SCT080 30/19 Q1012 A2988 HR53
RWY NML=
SABO SLCA 051700
METAR SLCA 051700Z 00000KT 9999 SCT033 SCT080 30/19 Q1012 A2988 HR53
RWY NML=
___A___
ZPX0495 051653
GG SLZZYMYT
051653 SLPSYGYS
SABO SLPS 051700
METAR SLPS 051700Z 36003KT 9999 FEW017 BKN070 31/25 Q1009 A2980 HR73=
SABO SLPS 051700
METAR SLPS 051700Z 36003KT 9999 FEW017 BKN070 31/25 Q1009 A2980 HR73=
___A___
ZPX0496 051653
GG SLZZYMYT
051654 SLLPYFYA
SABO SLRY 051700
METAR SLRY 051700Z 32003KT 2000 -RA BKN006 BKN012 OVC070 23/23 Q1006
A2972 HR98 RWY WET INOP=
SABO SLRY 051700
METAR SLRY 051700Z 32003KT 2000 -RA BKN006 BKN012 OVC070 23/23 Q1006
A2972 HR98 RWY WET INOP=
___A___
ZPX0497 051653
GG SLZZYMYT
051653 SLRBYGYS
SABO SLRB 051700
METAR SLRB 051700Z 00000KT 9999 BKN017 27/24 Q1011 A2985 HR85 RWY NML=
SABO SLRB 051700
METAR SLRB 051700Z 00000KT 9999 BKN017 27/24 Q1011 A2985 HR85 RWY NML=
___A___
ZPX0498 051654
GG SLZZYMYT
051654 SLSBYSYX
SABO SLSB 051700
METAR SLSB 051700Z 00000KT 3000 -RA BKN005 OVC070 23/23 Q1007 A2976
HR97 RWY WET INOP=
SABO SLSB 051700
METAR SLSB 051700Z 00000KT 3000 -RA BKN005 OVC070 23/23 Q1007 A2976
HR97 RWY WET INOP=
___A___
ZPX0499 051654
GG SLZZYMYT
051655 SLVRYGYZ
SABO SLVR 051700
METAR SLVR 051700Z 35010KT 7000 -RA BKN010 BKN017 OVC070 22/21 Q1011
A2987 HR94 NOSIG=
SABO SLVR 051700
METAR SLVR 051700Z 35010KT 7000 -RA BKN010 BKN017 OVC070 22/21 Q1011
A2987 HR94 NOSIG=
___A___
ZPX0500 051654
GG SLZZYMYT
051654 SLSBYSYX
SABO SLSB 051700
METAR SLSB 051700Z 00000KT 3000 -RA BKN005 OVC070 23/23 Q1007 A2976
HR97 RWY WET INOP=
SABO SLSB 051700
METAR SLSB 051700Z 00000KT 3000 -RA BKN005 OVC070 23/23 Q1007 A2976
HR97 RWY WET INOP=
___A___
ZPX0501 051654
GG SLZZYMYT
051654 SLSAYGYS
SABO SLSA 051700
METAR SLSA 051700Z 34010KT 5000 -RA FEW005 BKN015 BKN070 27/24
Q1008 A2979 HR84=
SABO SLSA 051700
METAR SLSA 051700Z 34010KT 5000 -RA FEW005 BKN015 BKN070 27/24
Q1008 A2979 HR84=
___A___
ZPX0502 051655
GG SLZZYMYT
051655 SLTJYGYZ
SABO SLTJ 051700
METAR SLTJ 051700Z 09010KT 9999 SCT033 FEW036CB 25/14 Q1016 A3003 812
.3 HR52 CB N/E SH/N=
SABO SLTJ 051700
METAR SLTJ 051700Z 09010KT 9999 SCT033 FEW036CB 25/14 Q1016 A3003 812
.3 HR52 CB N/E SH/N=
___A___
ZPX0503 051655
GG SLZZYMYT
051655 SLLPYGYZ
SABO SLLP 051700
METAR SLLP 051700Z 14007KT 080V240 9999 SCT020 FEW023CB BKN200 15/02
Q1032 A3049 624.3 HR42 P0784 CB/SH N AC NOSIG=
SABO SLLP 051700
METAR SLLP 051700Z 14007KT 080V240 9999 SCT020 FEW023CB BKN200 15/02
Q1032 A3049 624.3 HR42 P0784 CB/SH N AC NOSIG=
___A___
ZPX0504 051655
GG SLZZYMYT
051657 SLUYYGYS
SABO SLUY 051700
METAR SLUY 051700Z 31011KT 9999 SCT027 17/M03 Q1028 A3038
654.7 HR25 AC=
SABO SLUY 051700
METAR SLUY 051700Z 31011KT 9999 SCT027 17/M03 Q1028 A3038
654.7 HR25 AC=
___A___
ZPX0505 051655
GG SLZZYMYT
051653 SLETYMYC
SABO SLET 051700
METAR SLET 051700Z 31007KT 5000 -RA BKN010 BKN015 OVC070 22/21 Q1011
A2986 HR95 NOSIG=
SABO SLET 051700
METAR SLET 051700Z 31007KT 5000 -RA BKN010 BKN015 OVC070 22/21 Q1011
A2986 HR95 NOSIG=
___A___
ZPX0506 051655
GG SLZZYMYT
051655 SLCOYGYZ
SABO SLCO 051700
METAR SLCO 051700Z 33010KT 9999 BKN017 FEW020CB SCT080 30/23 Q1008
A2979 981.3 HR67 CB/SW CI=
SABO SLCO 051700
METAR SLCO 051700Z 33010KT 9999 BKN017 FEW020CB SCT080 30/23 Q1008
A2979 981.3 HR67 CB/SW CI=
___A___
ZPX0507 051655
GG SLZZYMYT
051655 SLORYGYZ
SABO SLOR 051700
METAR SLOR 051700Z 28006KT 9999 FEW020 20/03 Q1030 A3044 653.1 HR33
SABO SLOR 051700
METAR SLOR 051700Z 28006KT 9999 FEW020 20/03 Q1030 A3044 653.1 HR33
___A___
ZPX0508 051656
GG SLZZYMYT
051656 SLCBYGYZ
SABO SLCB 051700
METAR SLCB 051700Z 03007KT 9999 SCT027 FEW030CB BKN080 20/12 Q1021
A3016 748.6 HR59 CB NW/N/NE/E SH N/NE CI NOSIG=
SABO SLCB 051700
METAR SLCB 051700Z 03007KT 9999 SCT027 FEW030CB BKN080 20/12 Q1021
A3016 748.6 HR59 CB NW/N/NE/E SH N/NE CI NOSIG=
___A___
ZPX0509 051656
GG SLZZYMYT
051656 SLTRYGYZ
SABO SLTR 051700
METAR SLTR 051700Z 32004KT 8000 -RA SCT008 FEW020CB OVC070 26/25
Q1009 A2982 991.3 HR95 CB SE/S NOSIG=
SABO SLTR 051700
METAR SLTR 051700Z 32004KT 8000 -RA SCT008 FEW020CB OVC070 26/25
Q1009 A2982 991.3 HR95 CB SE/S NOSIG=
___A___
ZPX0510 051657
GG SLZZYMYT
051657 SLLPYFYA
SABO SLLP 051700
METAR SLLP 051700Z 14007KT 080V240 9999 SCT020 FEW023CB BKN200 15/02
Q1032 A3049 624.3 HR42 P0784 CB/SH N AC NOSIG=
METAR SLCO 051700Z 33010KT 9999 BKN017 FEW020CB SCT080 30/23 Q1008
A2979 981.3 HR67 CB/SW CI=
METAR SLRY 051700Z 32003KT 2000 -RA BKN006 BKN012 OVC070 23/23 Q1006
A2972 HR98 RWY WET INOP=
METAR SLRQ 051700Z 00000KT 1000 +RA BKN005 BKN010 OVC070 24/24 Q1008
A2979 HR100=
METAR SLAP 051700Z 36005KT 6000 VCSH BKN015 OVC070 20/18 Q1014 A2996
855.7 HR86 SH E/SE/S=
METAR SLSB 051700Z 00000KT 3000 -RA BKN005 OVC070 23/23 Q1007 A2976
HR97 RWY WET INOP=
METAR SLOR 051700Z 28006KT 9999 FEW020 20/03 Q1030 A3044 653.1 HR33
METAR SLUY 051700Z 31011KT 9999 SCT027 17/M03 Q1028 A3038 654.7 HR25
SABO SLLP 051700
METAR SLLP 051700Z 14007KT 080V240 9999 SCT020 FEW023CB BKN200 15/02
Q1032 A3049 624.3 HR42 P0784 CB/SH N AC NOSIG=
METAR SLCO 051700Z 33010KT 9999 BKN017 FEW020CB SCT080 30/23 Q1008
A2979 981.3 HR67 CB/SW CI=
METAR SLRY 051700Z 32003KT 2000 -RA BKN006 BKN012 OVC070 23/23 Q1006
A2972 HR98 RWY WET INOP=
METAR SLRQ 051700Z 00000KT 1000 +RA BKN005 BKN010 OVC070 24/24 Q1008
A2979 HR100=
METAR SLAP 051700Z 36005KT 6000 VCSH BKN015 OVC070 20/18 Q1014 A2996
855.7 HR86 SH E/SE/S=
METAR SLSB 051700Z 00000KT 3000 -RA BKN005 OVC070 23/23 Q1007 A2976
HR97 RWY WET INOP=
METAR SLOR 051700Z 28006KT 9999 FEW020 20/03 Q1030 A3044 653.1 HR33
METAR SLUY 051700Z 31011KT 9999 SCT027 17/M03 Q1028 A3038 654.7 HR25
___A___
ZPX0511 051659
GG SLZZYMYT
051658 SLCBYGYS
SABO SLCB 051700
METAR SLCB 051700Z 03007KT 9999 SCT027 FEW030CB BKN080 20/12 Q1021
A3016 748.6 HR59 CB NW/N/NE/E SH N/NE CI NOSIG=
METAR SLAL 051700Z 01004KT 9999 BKN017 FEW030CB 17/09 Q1026 A3030
701.6 HR63 CB/NE AC/CI=
METAR SLPO 051700Z 07015KT 9999 SCT020 FEW025CB 14/06 Q1032 A3048
634.2 HR60 CB/W/NW=
METAR SLAG 051700Z NIL=
METAR SLVM 051700Z 18008KT 9999 SCT030 34/21 Q1007 A2975 HR47 FU CI=
METAR SLTJ 051700Z 09010KT 9999 SCT033 FEW036CB 25/14 Q1016 A3003 812
.3 HR52 CB N/E SH/N=
METAR SLYA 051700Z 21006KT 9999 SCT023 33/24 Q1010 A2983 935.0 HR58=
METAR SLBJ 051700Z NIL=
METAR SLHI 051700Z NIL=
SABO SLCB 051700
METAR SLCB 051700Z 03007KT 9999 SCT027 FEW030CB BKN080 20/12 Q1021
A3016 748.6 HR59 CB NW/N/NE/E SH N/NE CI NOSIG=
METAR SLAL 051700Z 01004KT 9999 BKN017 FEW030CB 17/09 Q1026 A3030
701.6 HR63 CB/NE AC/CI=
METAR SLPO 051700Z 07015KT 9999 SCT020 FEW025CB 14/06 Q1032 A3048
634.2 HR60 CB/W/NW=
METAR SLAG 051700Z NIL=
METAR SLVM 051700Z 18008KT 9999 SCT030 34/21 Q1007 A2975 HR47 FU CI=
METAR SLTJ 051700Z 09010KT 9999 SCT033 FEW036CB 25/14 Q1016 A3003 812
.3 HR52 CB N/E SH/N=
METAR SLYA 051700Z 21006KT 9999 SCT023 33/24 Q1010 A2983 935.0 HR58=
METAR SLBJ 051700Z NIL=
METAR SLHI 051700Z NIL=
___A___
ZPX0512 051659
FF SLLPZRZX
051658 SLCBYSYX
(DEP-BOV638/A1766-SLCB1657-SLVR-REG/CP2920)
(DEP-BOV638/A1766-SLCB1657-SLVR-REG/CP2920)
___A___
ZPX0513 051659
GG SLZZYMYT
051658 SLTRYGYS
SABO SLTR 051700
METAR SLTR 051700Z 32004KT 8000 -RA SCT008 FEW020CB OVC070 26/25
Q1009 A2982 991.3 HR95 CB SE/S NOSIG=
METAR SLGM 051700Z 02016KT 5000 VCSH BKN015 FEW020CB BKN070 30/24
Q1009 A2980 HR70 CB/SH NE/E/SE/S=
METAR SLRI 051700Z 36008KT 7000 VCSH BKN015 FEW020CB BKN080 29/24
Q1009 A2981 HR72 CB/SH N/NE/NW=
METAR SLJO 051700Z 34006KT 7000 VCSH SCT017 FEW023CB BKN070 BKN200
26/25 Q1007 A2976 HR95 RERA CB/SH S/SW/NW RWY WET INOP=
METAR SLRA 051700Z 36008KT 7000 VCSH SCT015 FEW023CB BKN080 27/25
Q1009 A2982 HR92 CB/SH N/SE RWY NML=
METAR SLMG 051700Z 00000KT 9999 BKN015 BKN080 27/25 Q1009 A2981 HR89
RWY HUM OPR=
METAR SLBU 051700Z NIL=
METAR SLSA 051700Z 34010KT 5000 -RA FEW005 BKN015 BKN070 27/24 Q1008
A2979 HR84=
METAR SLSR 051700Z 32008KT 8000 -RA BKN010 FEW020CB OVC070 25/24
Q1010 A2984 HR95 CN N/NW RWY WET INOP=
METAR SLSM 051700Z 36005KT 8000 -RA BKN013 OVC070 24/23 Q1009 A2982
HR98 RWY WET INOP=
SABO SLTR 051700
METAR SLTR 051700Z 32004KT 8000 -RA SCT008 FEW020CB OVC070 26/25
Q1009 A2982 991.3 HR95 CB SE/S NOSIG=
METAR SLGM 051700Z 02016KT 5000 VCSH BKN015 FEW020CB BKN070 30/24
Q1009 A2980 HR70 CB/SH NE/E/SE/S=
METAR SLRI 051700Z 36008KT 7000 VCSH BKN015 FEW020CB BKN080 29/24
Q1009 A2981 HR72 CB/SH N/NE/NW=
METAR SLJO 051700Z 34006KT 7000 VCSH SCT017 FEW023CB BKN070 BKN200
26/25 Q1007 A2976 HR95 RERA CB/SH S/SW/NW RWY WET INOP=
METAR SLRA 051700Z 36008KT 7000 VCSH SCT015 FEW023CB BKN080 27/25
Q1009 A2982 HR92 CB/SH N/SE RWY NML=
METAR SLMG 051700Z 00000KT 9999 BKN015 BKN080 27/25 Q1009 A2981 HR89
RWY HUM OPR=
METAR SLBU 051700Z NIL=
METAR SLSA 051700Z 34010KT 5000 -RA FEW005 BKN015 BKN070 27/24 Q1008
A2979 HR84=
METAR SLSR 051700Z 32008KT 8000 -RA BKN010 FEW020CB OVC070 25/24
Q1010 A2984 HR95 CN N/NW RWY WET INOP=
METAR SLSM 051700Z 36005KT 8000 -RA BKN013 OVC070 24/23 Q1009 A2982
HR98 RWY WET INOP=
___A___
ZPX0514 051700
CH LR PZX0000
CH LR PZX0000
___A___
ZPX0515 051700
GG SLZZYMYT
051700 SLVRYFYC
SABO SLVR 051700
METAR SLVR 051700Z 35010KT 7000 -RA BKN010 BKN017 OVC070 22/21 Q1011
A2987 HR94 NOSIG=
METAR SLET 051700Z 31007KT 5000 -RA BKN010 BKN015 OVC070 22/21 Q1011
A2986 HR95 NOSIG=
METAR SLAS 051700Z 00000KT 8000 -RA BKN013 24/23 Q1013 A2992 HR93 RWY
WET OPR=
METAR SLCP 051700Z 34008KT 9999 BKN017 FEW027CB BKN070 28/23 Q1013
A2991 HR75 CB NW/S RWY NML=
METAR SLSI 051700Z 33008KT 9999 SCT017 30/22 Q1010 A2983 HR62 RWY NML
METAR SLRB 051700Z 00000KT 9999 BKN017 27/24 Q1011 A2985 HR85 RWY NML
METAR SLPS 051700Z 36003KT 9999 FEW017 BKN070 31/25 Q1009 A2980 HR73=
METAR SLCA 051700Z 00000KT 9999 SCT033 SCT080 30/19 Q1012 A2988 HR53
RWY NML=
SABO SLVR 051700
METAR SLVR 051700Z 35010KT 7000 -RA BKN010 BKN017 OVC070 22/21 Q1011
A2987 HR94 NOSIG=
METAR SLET 051700Z 31007KT 5000 -RA BKN010 BKN015 OVC070 22/21 Q1011
A2986 HR95 NOSIG=
METAR SLAS 051700Z 00000KT 8000 -RA BKN013 24/23 Q1013 A2992 HR93 RWY
WET OPR=
METAR SLCP 051700Z 34008KT 9999 BKN017 FEW027CB BKN070 28/23 Q1013
A2991 HR75 CB NW/S RWY NML=
METAR SLSI 051700Z 33008KT 9999 SCT017 30/22 Q1010 A2983 HR62 RWY NML
METAR SLRB 051700Z 00000KT 9999 BKN017 27/24 Q1011 A2985 HR85 RWY NML
METAR SLPS 051700Z 36003KT 9999 FEW017 BKN070 31/25 Q1009 A2980 HR73=
METAR SLCA 051700Z 00000KT 9999 SCT033 SCT080 30/19 Q1012 A2988 HR53
RWY NML=
___A___
ZPX0516 051700
FF SLLPZRZX
051659 SLCBZPZX
(FPL-BOV610-IS
-B737/M-SDFGHIRW/S
-SLCB1750
-N0440F280 TEDOK3 TEDOK UW677 PAZ
-SLLP0030 SLCB
-PBN/B1C1D1S1 REG/CP2923 SEL/CJFS)
(FPL-BOV610-IS
-B737/M-SDFGHIRW/S
-SLCB1750
-N0440F280 TEDOK3 TEDOK UW677 PAZ
-SLLP0030 SLCB
-PBN/B1C1D1S1 REG/CP2923 SEL/CJFS)
___A___
ZPX0517 051702
FF SLLPZRZX
051700 SLCBZPZX
(FPL-BOV640-IS
-B733/M-SDFHIRW/S
-SLCB1755
-N0440F290 VAREB3 VAREB UW677 VIR
-SLVR0035 SLCB
-PBN/B3B4B5 REG/CP3020 SEL/EGAH)
(FPL-BOV640-IS
-B733/M-SDFHIRW/S
-SLCB1755
-N0440F290 VAREB3 VAREB UW677 VIR
-SLVR0035 SLCB
-PBN/B3B4B5 REG/CP3020 SEL/EGAH)
___A___
ZPX0518 051702
FF SLLPZRZX
051701 SASAZPZX
(RQP-CP3016-SLYB-SASA-0)
(RQP-CP3016-SLYB-SASA-0)
___A___
ZPX0519 051703
GG SLLPYGZA
051703 SLLPYFYX
SVC MIS CH 1700 LR PZX0000
SVC MIS CH 1700 LR PZX0000
___A___
ZPX0520 051709
FF SLLPZRZX
051702 SLTRZPZX
(FPL-CP2269-VG
-C152/L-OV/C
-SLTR1810
-N0090A025 LCA
-SLTR0100 SLTR
-OPR/SKY TEAM RMK/LCA INSTRUCCION PIC CELSO CADIMA ZEBALLO LIC
9276809 CEL 72143182)
(FPL-CP2269-VG
-C152/L-OV/C
-SLTR1810
-N0090A025 LCA
-SLTR0100 SLTR
-OPR/SKY TEAM RMK/LCA INSTRUCCION PIC CELSO CADIMA ZEBALLO LIC
9276809 CEL 72143182)
___A___
ZPX0521 051709
FF SLLPZRZX
051710 SLLPYSYX
(FPL-BOV355-IS
-CRJ2/M-SDFGIRW/S
-SLYA1810
-N0350F180 DCT
-SLTJ0030 SLCB SLVR SLAL
-PBN/B1C1D1S1 RMK/RPL)
(FPL-BOV355-IS
-CRJ2/M-SDFGIRW/S
-SLYA1810
-N0350F180 DCT
-SLTJ0030 SLCB SLVR SLAL
-PBN/B1C1D1S1 RMK/RPL)
___A___
ZPX0522 051712
FF SLLPZRZX
051708 SLVRZPZX
(FPL-AZN115-IS
-E190/M-SDFGHIRWY/EB1
-SLVR1845
-N0460F360 SALBI1 SALBI UW29 PAZ
-SLLP0050 SLCB
-PBN/B2B3B4B5D1O1S2 REG/CP3133 SEL/CDFR OPR/AMASZONAS S.A)
(FPL-AZN115-IS
-E190/M-SDFGHIRWY/EB1
-SLVR1845
-N0460F360 SALBI1 SALBI UW29 PAZ
-SLLP0050 SLCB
-PBN/B2B3B4B5D1O1S2 REG/CP3133 SEL/CDFR OPR/AMASZONAS S.A)
___A___
ZPX0523 051715
FF SLLPZRZX
051710 SLVRZPZX
(FPL-AZN400-IS
-E190/M-SDFGHIRWY/EB1
-SLVR1950
-N0460F350 VIR UN420 VAS
-SGAS0120 SGES SARE
-PBN/B2B3B4B5D1O1S2 REG/CP3145 EET/SGFA0021 SEL/ABHK OPR/AMASZONAS S.
(FPL-AZN400-IS
-E190/M-SDFGHIRWY/EB1
-SLVR1950
-N0460F350 VIR UN420 VAS
-SGAS0120 SGES SARE
-PBN/B2B3B4B5D1O1S2 REG/CP3145 EET/SGFA0021 SEL/ABHK OPR/AMASZONAS S.
___A___
ZPX0524 051718
FF SLLPZRZX
051713 SLTRZPZX
(FPL-AZN291-IS
-CRJ2/M-SDFGRWX/C
-SLTR1820
-N0440F290 TRI UN420 VIR
-SLVR0050 SLCB
-PBN/B2B3B4D2D3O2O3S1 REG/CP2908 OPR/AMASZONAS S.A.)
(FPL-AZN291-IS
-CRJ2/M-SDFGRWX/C
-SLTR1820
-N0440F290 TRI UN420 VIR
-SLVR0050 SLCB
-PBN/B2B3B4D2D3O2O3S1 REG/CP2908 OPR/AMASZONAS S.A.)
___A___
ZPX0525 051718
FF SLLPZRZX
051717 SLCBYSYX
(DEP-BOV738-SLCB1716-SBGR-REG/CP2926)
(DEP-BOV738-SLCB1716-SBGR-REG/CP2926)
___A___
ZPX0526 051719
FF SLLPZRZX
051714 SLTRZPZX
(FPL-AZN390-IS
-CRJ2/M-SDFGRWX/C
-SLTR1840
-N0440F300 TRI UT510 SLRI
-SLRI0045 SLTR
-PBN/B2B3B4D2D3O2O3S1 REG/CP2733 OPR/AMASZONAS S.A.)
(FPL-AZN390-IS
-CRJ2/M-SDFGRWX/C
-SLTR1840
-N0440F300 TRI UT510 SLRI
-SLRI0045 SLTR
-PBN/B2B3B4D2D3O2O3S1 REG/CP2733 OPR/AMASZONAS S.A.)
___A___
ZPX0527 051720
CH LR PZX0000
CH LR PZX0000
___A___
ZPX0528 051720
FF SLLPZRZX
051715 SLTRZPZX
(FPL-AZN391-IS
-CRJ2/M-SDFGRWX/C
-SLTR2150
-N0440F300 TRI UW568 PAZ
-SLLP0045 SLCB
-PBN/B2B3B4D2D3O2O3S1 REG/CP2733 OPR/AMASZONAS S.A.)
(FPL-AZN391-IS
-CRJ2/M-SDFGRWX/C
-SLTR2150
-N0440F300 TRI UW568 PAZ
-SLLP0045 SLCB
-PBN/B2B3B4D2D3O2O3S1 REG/CP2733 OPR/AMASZONAS S.A.)
___A___
ZPX0529 051721
FF SLLPZRZX
051712 SLVRZPZX
(FPL-AZN117-IS
-E190/M-SDFGHIRWY/EB1
-SLVR2145
-N0460F360 SALBI1 SALBI UW29 PAZ
-SLLP0055 SLCB
-PBN/B2B3B4B5D1O1S2 REG/CP3130 SEL/CMJS OPR/AMASZONAS S.A)
(FPL-AZN117-IS
-E190/M-SDFGHIRWY/EB1
-SLVR2145
-N0460F360 SALBI1 SALBI UW29 PAZ
-SLLP0055 SLCB
-PBN/B2B3B4B5D1O1S2 REG/CP3130 SEL/CMJS OPR/AMASZONAS S.A)
___A___
ZPX0530 051722
FF SLLPZRZX
051721 SLCBZPZX
(DEP-BOV738-SLCB1716-SBGR-0)
(DEP-BOV738-SLCB1716-SBGR-0)
___A___
ZPX0531 051723
GG SLLPYGZA
051723 SLLPYFYX
SVC MIS CH 1720 LR PZX0000
SVC MIS CH 1720 LR PZX0000
___A___
ZPX0532 051725
FF SLLPZRZX
051714 SLVRZPZX
(FPL-AZN180-IS
-CRJ2/M-SDGRWX/C
-SLVR2220
-N0440F260 VIR UW14 ALC
-SLAL0036 SLVR SLCB
-PBN/B2B3B4D2D3O2O3S1 REG/CP2908 SEL/BMLP OPR/AMASZONAS S.A. PER/C)
(FPL-AZN180-IS
-CRJ2/M-SDGRWX/C
-SLVR2220
-N0440F260 VIR UW14 ALC
-SLAL0036 SLVR SLCB
-PBN/B2B3B4D2D3O2O3S1 REG/CP2908 SEL/BMLP OPR/AMASZONAS S.A. PER/C)
___A___
ZPX0533 051727
FF SLLPZRZX
051716 SLVRZPZX
(FPL-AZN119-IS
-E190/M-SDFGHIRWY/EB1
-SLVR2335
-N0460F360 SALBI1 SALBI UW29 PAZ
-SLLP0055 SLCB
-PBN/B2B3B4B5D1O1S2 REG/CP3133 SEL/CDFR OPR/AMASZONAS S.A)
(FPL-AZN119-IS
-E190/M-SDFGHIRWY/EB1
-SLVR2335
-N0460F360 SALBI1 SALBI UW29 PAZ
-SLLP0055 SLCB
-PBN/B2B3B4B5D1O1S2 REG/CP3133 SEL/CDFR OPR/AMASZONAS S.A)
___A___
ZPX0534 051729
FF SLLPZRZX
051730 SLLPYSYX
(FPL-BOV641-IS
-B733/M-SDFHIRW/S
-SLVR1830
-N0440F280 UT712
-SLCB0045 SLVR SLLP
-PBN/B3B4B5 RMK/RPL)
(FPL-BOV641-IS
-B733/M-SDFHIRW/S
-SLVR1830
-N0440F280 UT712
-SLCB0045 SLVR SLLP
-PBN/B3B4B5 RMK/RPL)
___A___
ZPX0535 051729
FF SLLPZRZX
051730 SLLPYSYX
(FPL-BOV532-IS
-B733/M-SDFHIRW/S
-SLCB1830
-N0440F350 UW22
-SLTJ0050 SLCB SLVR
-PBN/B3B4B5 RMK/RPL)
(FPL-BOV532-IS
-B733/M-SDFHIRW/S
-SLCB1830
-N0440F350 UW22
-SLTJ0050 SLCB SLVR
-PBN/B3B4B5 RMK/RPL)
___A___
ZPX0536 051730
FF SLLPZRZX
051718 SLVRZPZX
(FPL-AZN152-IS
-E190/M-SDFGHIRWY/EB1
-SLVR0015
-N0460F280 KOSBO1 KOSBO UT712 CBA
-SLCB0030 SLVR
-PBN/B2B3B4B5D1O1S2 DOF/210106 REG/CP3135 SEL/FPJL OPR/AMASZONAS S.A
PER/C)
(FPL-AZN152-IS
-E190/M-SDFGHIRWY/EB1
-SLVR0015
-N0460F280 KOSBO1 KOSBO UT712 CBA
-SLCB0030 SLVR
-PBN/B2B3B4B5D1O1S2 DOF/210106 REG/CP3135 SEL/FPJL OPR/AMASZONAS S.A
PER/C)
___A___
ZPX0537 051732
FF SLLPZRZX
051735 SLLPZPZX
(FPL-CP3121-IG
-B190/M-SDGFR/C
-SLLP0850
-N0250F250 PAZ 173270
-SLTL0110 SLCB
-PBN/B2C2D2S1 DOF/210106 OPR/MINERA SAN CRISTOBAL
RMK/AERONAVE RETORNA SLLP PIC/SAMUEL MENDOZA LIC 2820328 TEL.
72009160)
(FPL-CP3121-IG
-B190/M-SDGFR/C
-SLLP0850
-N0250F250 PAZ 173270
-SLTL0110 SLCB
-PBN/B2C2D2S1 DOF/210106 OPR/MINERA SAN CRISTOBAL
RMK/AERONAVE RETORNA SLLP PIC/SAMUEL MENDOZA LIC 2820328 TEL.
72009160)
___A___
ZPX0538 051733
FF SLLPZRZX
051720 SLVRZPZX
(FPL-AZN121-IS
-E190/M-SDFGHIRWY/EB1
-SLVR0125
-N0460F360 SALBI1 SALBI UW29 PAZ
-SLLP0055 SLCB
-PBN/B2B3B4B5D1O1S2 DOF/210106 REG/CP3130 SEL/CMJS OPR/AMASZONAS S.A)
(FPL-AZN121-IS
-E190/M-SDFGHIRWY/EB1
-SLVR0125
-N0460F360 SALBI1 SALBI UW29 PAZ
-SLLP0055 SLCB
-PBN/B2B3B4B5D1O1S2 DOF/210106 REG/CP3130 SEL/CMJS OPR/AMASZONAS S.A)
___A___
ZPX0539 051737
FF SLLPZRZX
051738 SLLPYSYX
(FPL-BOV613-IS
-B737/M-SDFGHIRW/S
-SLLP1840
-N0440F270 UW677
-SLCB0030 SLVR SLLP
-PBN/B1C1D1S1 RMK/RPL)
(FPL-BOV613-IS
-B737/M-SDFGHIRW/S
-SLLP1840
-N0440F270 UW677
-SLCB0030 SLVR SLLP
-PBN/B1C1D1S1 RMK/RPL)
___A___
ZPX0540 051737
FF SLLPZRZX
051738 SLLPYSYX
(FPL-BOV612-IS
-B737/M-SDFGHIRW/S
-SLCB1840
-N0440F280 UW677
-SLLP0030 SLCB SLVR
-PBN/B1C1D1S1 RMK/RPL)
(FPL-BOV612-IS
-B737/M-SDFGHIRW/S
-SLCB1840
-N0440F280 UW677
-SLLP0030 SLCB SLVR
-PBN/B1C1D1S1 RMK/RPL)
___A___
ZPX0541 051737
FF SLLPZRZX
051735 SLTRZPZX
(FPL-CP2948-VG
-C172/L-FOV/C
-SLTR1830
-N0100F025 TRI340070
-SLSA0040 SLTR
-OPR/ANA PAOLA CHIRIQUI RMK/PIC FELIX TACANA R. LIC 1698533 TEL
68776011)
(FPL-CP2948-VG
-C172/L-FOV/C
-SLTR1830
-N0100F025 TRI340070
-SLSA0040 SLTR
-OPR/ANA PAOLA CHIRIQUI RMK/PIC FELIX TACANA R. LIC 1698533 TEL
68776011)
___A___
ZPX0542 051738
FF SLLPZRZX
051740 SLLPZPZX
(FPL-CP3108-IG
-B190/M-SDGFR/C
-SLLP0840
-N0250F250 PAZ 173270
-SLTL0110 SLCB SLUY
-PBN/B2C2D2S1 DOF/210106 OPR/MINERA SAN CRISTOBAL
RMK/AERONAVE RETORNA SLLP PIC/FRANCISCO VALBUENA LIC 79474113 TEL.
72006414)
(FPL-CP3108-IG
-B190/M-SDGFR/C
-SLLP0840
-N0250F250 PAZ 173270
-SLTL0110 SLCB SLUY
-PBN/B2C2D2S1 DOF/210106 OPR/MINERA SAN CRISTOBAL
RMK/AERONAVE RETORNA SLLP PIC/FRANCISCO VALBUENA LIC 79474113 TEL.
72006414)
___A___
ZPX0543 051740
CH LR PZX0000
CH LR PZX0000
___A___
ZPX0544 051742
FF SLLPZRZX
051741 SLCBYSYX
(DEP-BOV610/A1763-SLCB1739-SLLP-REG/CP2923)
(DEP-BOV610/A1763-SLCB1739-SLLP-REG/CP2923)
___A___
ZPX0545 051743
GG SLLPYGZA
051743 SLLPYFYX
SVC MIS CH 1740 LR PZX0000
SVC MIS CH 1740 LR PZX0000
___A___
ZPX0546 051744
FF SLLPZRZX
051745 SLLPYSYX
(FPL-BOV673-IS
-B737/M-SDFGHIRW/S
-SLVR1845
-N0440F380 UW29
-SLLP0100 SLCB SLVR
-PBN/B1C1D1S1 RMK/RPL)
(FPL-BOV673-IS
-B737/M-SDFGHIRW/S
-SLVR1845
-N0440F380 UW29
-SLLP0100 SLCB SLVR
-PBN/B1C1D1S1 RMK/RPL)
___A___
ZPX0547 051749
FF SLLPZRZX
051748 SLCBYSYX
(DEP-AZN155/A1762-SLCB1747-SLVR-REG/CP3145)
(DEP-AZN155/A1762-SLCB1747-SLVR-REG/CP3145)
___A___
ZPX0548 051750
FF SLLPZRZX
051750 SLLPYSYX
(FPL-BOV645-IS
-B733/M-SDFHIRW/S
-SLVR1850
-N0440F280 UT712
-SLCB0045 SLVR SLLP
-PBN/B3B4B5 RMK/RPL)
(FPL-BOV645-IS
-B733/M-SDFHIRW/S
-SLVR1850
-N0440F280 UT712
-SLCB0045 SLVR SLLP
-PBN/B3B4B5 RMK/RPL)
___A___
ZPX0549 051753
GG SLZZYMYT
051752 SLCAYGYS
SABO SLCA 051800
METAR SLCA 051800Z 00000KT 9999 BKN033 FEW040CB 32/19 Q1011 A2985
HR47 CB NE RWY NML=
SABO SLCA 051800
METAR SLCA 051800Z 00000KT 9999 BKN033 FEW040CB 32/19 Q1011 A2985
HR47 CB NE RWY NML=
___A___
ZPX0550 051753
GG SLZZYMYT
051752 SLETYMYC
SABO SLET 051800
METAR SLET 051800Z 30011KT 2500 RA BKN010 BKN015 OVC070 22/21 Q1011
A2986 HR97 NOSIG=
SABO SLET 051800
METAR SLET 051800Z 30011KT 2500 RA BKN010 BKN015 OVC070 22/21 Q1011
A2986 HR97 NOSIG=
___A___
ZPX0551 051753
GG SLZZYMYT
051754 SLLPYFYA
SABO SLRY 051800
METAR SLRY 051800Z 32005KT 3000 -RA BKN006 BKN012 OVC070 23/23 Q1006
A2972 HR98 RWY WET INOP=
SABO SLRY 051800
METAR SLRY 051800Z 32005KT 3000 -RA BKN006 BKN012 OVC070 23/23 Q1006
A2972 HR98 RWY WET INOP=
___A___
ZPX0552 051753
GG SLZZYMYT
051752 SLPSYGYS
SABO SLPS 051800
METAR SLPS 051800Z 09006KT 9999 FEW017 BKN070 32/26 Q1008 A2977 HR71=
SABO SLPS 051800
METAR SLPS 051800Z 09006KT 9999 FEW017 BKN070 32/26 Q1008 A2977 HR71=
___A___
ZPX0553 051754
GG SLZZYMYT
051755 SLVRYGYZ
SABO SLVR 051800
METAR SLVR 051800Z 33011KT 6000 -RA SCT012 BKN020 OVC070 21/21 Q1011
A2985 HR95 NOSIG=
SABO SLVR 051800
METAR SLVR 051800Z 33011KT 6000 -RA SCT012 BKN020 OVC070 21/21 Q1011
A2985 HR95 NOSIG=
___A___
ZPX0554 051754
GG SLZZYMYT
051755 SLORYGYZ
SABO SLOR 051800
METAR SLOR 051800Z 03005KT 9999 FEW020 21/03 Q1030 A3043 652.7 HR30
SABO SLOR 051800
METAR SLOR 051800Z 03005KT 9999 FEW020 21/03 Q1030 A3043 652.7 HR30
___A___
ZPX0555 051755
GG SLZZYMYT
051755 SLCOYGYZ
SABO SLCO 051800
METAR SLCO 051800Z 31012KT 9999 BKN017 FEW020CB SCT200 30/23 Q1007
A2974 979.8 HR67 CB/W AC=
SABO SLCO 051800
METAR SLCO 051800Z 31012KT 9999 BKN017 FEW020CB SCT200 30/23 Q1007
A2974 979.8 HR67 CB/W AC=
___A___
ZPX0556 051755
GG SLZZYMYT
051754 SLRBYGYS
SABO SLRB 051800
METAR SLRB 051800Z 00000KT 9999 BKN017 30/23 Q1010 A2983 HR67 RWY NML=
SABO SLRB 051800
METAR SLRB 051800Z 00000KT 9999 BKN017 30/23 Q1010 A2983 HR67 RWY NML=
___A___
ZPX0557 051756
GG SLZZYMYT
051755 SLSBYSYX
SABO SLSB 051800
METAR SLSB 051800Z 00000KT 4000 -RA BKN005 OVC070 24/23 Q1008 A2979
HR98 RWY WET INOP=
SABO SLSB 051800
METAR SLSB 051800Z 00000KT 4000 -RA BKN005 OVC070 24/23 Q1008 A2979
HR98 RWY WET INOP=
___A___
ZPX0558 051756
GG SLZZYMYT
051755 SLTJYGYZ
SABO SLTJ 051800
METAR SLTJ 051800Z 09010KT 9999 SCT033 FEW036CB 25/14 Q1016 A3001 811
.9 HR51 CB SH SW/W CI=
SABO SLTJ 051800
METAR SLTJ 051800Z 09010KT 9999 SCT033 FEW036CB 25/14 Q1016 A3001 811
.9 HR51 CB SH SW/W CI=
___A___
ZPX0559 051756
GG SLZZYMYT
051756 SLORYGYZ
SMBO SLOR 051800
AAXX 05184
85242 32570 20305 10213 20030 36527 57011 82101
333 56000 5//// 82820 555 10304 29030=
SMBO SLOR 051800
AAXX 05184
85242 32570 20305 10213 20030 36527 57011 82101
333 56000 5//// 82820 555 10304 29030=
___A___
ZPX0560 051756
GG SLZZYMYT
051756 SLCBYGYZ
SABO SLCB 051800
METAR SLCB 051800Z 08008KT 9999 SCT027 FEW030CB BKN080 19/10 Q1020
A3015 748.2 HR55 CB N/E/SE/NW SH NW/N CI NOSIG=
SABO SLCB 051800
METAR SLCB 051800Z 08008KT 9999 SCT027 FEW030CB BKN080 19/10 Q1020
A3015 748.2 HR55 CB N/E/SE/NW SH NW/N CI NOSIG=
___A___
ZPX0561 051757
FF SLLPZRZX
051758 SLLPYSYX
(FPL-BOV672-IS
-B737/M-SDFGHIRW/S
-SLLP1900
-N0440F390 UW29
-SLVR0055 SLCB SLLP
-PBN/B1C1D1S1 RMK/RPL)
(FPL-BOV672-IS
-B737/M-SDFGHIRW/S
-SLLP1900
-N0440F390 UW29
-SLVR0055 SLCB SLLP
-PBN/B1C1D1S1 RMK/RPL)
___A___
ZPX0562 051757
GG SLZZYMYT
051756 SLSAYGYS
SABO SLSA 051800
METAR SLSA 051800Z 34005KT 6000 VCSH SCT017 FEW023CB SCT070 BKN200
25/24 Q1007 A2975 HR95 RERA CB/SH N/E/SE/NW=
SABO SLSA 051800
METAR SLSA 051800Z 34005KT 6000 VCSH SCT017 FEW023CB SCT070 BKN200
25/24 Q1007 A2975 HR95 RERA CB/SH N/E/SE/NW=
___A___
ZPX0563 051757
GG SLZZYMYT
051757 SLTRYGYZ
SABO SLTR 051800
METAR SLTR 051800Z 00000KT 2000 RA SCT008 FEW020CB OVC070 25/24
Q1009 A2981 991.0 HR97 CB ON STN/SE/S/SW TEMPO BKN008=
SABO SLTR 051800
METAR SLTR 051800Z 00000KT 2000 RA SCT008 FEW020CB OVC070 25/24
Q1009 A2981 991.0 HR97 CB ON STN/SE/S/SW TEMPO BKN008=
___A___
ZPX0564 051757
FF SLLPZRZX
051757 SLCBYSYX
(DEP-BOV640/A1764-SLCB1756-SLVR-REG/CP3020)
(DEP-BOV640/A1764-SLCB1756-SLVR-REG/CP3020)
___A___
ZPX0565 051757
GG SLZZYMYT
051758 SLLPYGYZ
SABO SLLP 051800
METAR SLLP 051800Z 13006KT 9999 SCT020 FEW023CB BKN200 15/02 Q1031
A3047 623.8 HR42 P0784 CB/SH N AC NOSIG=
SABO SLLP 051800
METAR SLLP 051800Z 13006KT 9999 SCT020 FEW023CB BKN200 15/02 Q1031
A3047 623.8 HR42 P0784 CB/SH N AC NOSIG=
___A___
ZPX0566 051758
GG SLZZYMYT
051753 SLETYMYC
SIBO SLET 051800
AAXX 05184
85245 11425 83011 10217 20212 39620 40103 56008 60241 76196 8752/
333 56799 58019 85610 87615 88457 555 10112 29097=
SIBO SLET 051800
AAXX 05184
85245 11425 83011 10217 20212 39620 40103 56008 60241 76196 8752/
333 56799 58019 85610 87615 88457 555 10112 29097=
___A___
ZPX0567 051759
FF SLLPZRZX
051759 SLCOZPZX
(ARR-CP2744-SLRI1642-SLCO1756)
(ARR-CP2744-SLRI1642-SLCO1756)
___A___
ZPX0568 051759
GG SLZZYMYT
051759 SLCBYGYS
SABO SLCB 051800
METAR SLCB 051800Z 08008KT 9999 SCT027 FEW030CB BKN080 19/10 Q1020
A3015 748.2 HR55 CB N/E/SE/NW SH NW/N CI NOSIG=
METAR SLAL 051800Z 03014KT 9999 BKN017 17/09 Q1025 A3027 700.8 HR59
METAR SLPO 051800Z NIL=
METAR SLAG 051800Z NIL=
METAR SLVM 051800Z NIL=
METAR SLTJ 051800Z 09010KT 9999 SCT033 FEW036CB 25/14 Q1016 A3001 811
.9 HR51 CB SH SW/W CI=
METAR SLYA 051800Z 21006KT 9999 FEW023 SCT070 32/23 Q1009 A2980 934.2
HR56 CI=
METAR SLBJ 051800Z NIL=
METAR SLHI 051800Z NIL=
SABO SLCB 051800
METAR SLCB 051800Z 08008KT 9999 SCT027 FEW030CB BKN080 19/10 Q1020
A3015 748.2 HR55 CB N/E/SE/NW SH NW/N CI NOSIG=
METAR SLAL 051800Z 03014KT 9999 BKN017 17/09 Q1025 A3027 700.8 HR59
METAR SLPO 051800Z NIL=
METAR SLAG 051800Z NIL=
METAR SLVM 051800Z NIL=
METAR SLTJ 051800Z 09010KT 9999 SCT033 FEW036CB 25/14 Q1016 A3001 811
.9 HR51 CB SH SW/W CI=
METAR SLYA 051800Z 21006KT 9999 FEW023 SCT070 32/23 Q1009 A2980 934.2
HR56 CI=
METAR SLBJ 051800Z NIL=
METAR SLHI 051800Z NIL=
___A___
ZPX0569 051800
CH LR PZX0000
CH LR PZX0000
___A___
ZPX0570 051800
GG SLZZYMYT
051800 SLLPYFYA
SABO SLLP 051800
METAR SLLP 051800Z 13006KT 9999 SCT020 FEW023CB BKN200 15/02 Q1031
A3047 623.8 HR42 P0784 CB/SH N AC NOSIG=
METAR SLCO 051800Z 31012KT 9999 BKN017 FEW020CB SCT200 30/23 Q1007
A2974 979.8 HR67 CB/W AC=
METAR SLRY 051800Z 32005KT 3000 -RA BKN006 BKN012 OVC070 23/23 Q1006
A2972 HR98 RWY WET INOP=
METAR SLRQ 051800Z 36004KT 2000 RA BKN005 BKN010 OVC070 24/24 Q1008
A2977 HR100=
METAR SLAP 051800Z 36008KT 7000 VCSH SCT017 OVC070 20/17 Q1014 A2996
855.5 HR86 SH E/SE/S=
METAR SLSB 051800Z 00000KT 4000 -RA BKN005 OVC070 24/23 Q1008 A2979
HR98 RWY WET INOP=
METAR SLOR 051800Z 03005KT 9999 FEW020 21/03 Q1030 A3043 652.7 HR30
SABO SLLP 051800
METAR SLLP 051800Z 13006KT 9999 SCT020 FEW023CB BKN200 15/02 Q1031
A3047 623.8 HR42 P0784 CB/SH N AC NOSIG=
METAR SLCO 051800Z 31012KT 9999 BKN017 FEW020CB SCT200 30/23 Q1007
A2974 979.8 HR67 CB/W AC=
METAR SLRY 051800Z 32005KT 3000 -RA BKN006 BKN012 OVC070 23/23 Q1006
A2972 HR98 RWY WET INOP=
METAR SLRQ 051800Z 36004KT 2000 RA BKN005 BKN010 OVC070 24/24 Q1008
A2977 HR100=
METAR SLAP 051800Z 36008KT 7000 VCSH SCT017 OVC070 20/17 Q1014 A2996
855.5 HR86 SH E/SE/S=
METAR SLSB 051800Z 00000KT 4000 -RA BKN005 OVC070 24/23 Q1008 A2979
HR98 RWY WET INOP=
METAR SLOR 051800Z 03005KT 9999 FEW020 21/03 Q1030 A3043 652.7 HR30
1035
___A___
ZPX0571 051801
GG SLZZYMYT
051800 SLTRYGYS
SABO SLTR 051800
METAR SLTR 051800Z 00000KT 2000 RA SCT008 FEW020CB OVC070 25/24
Q1009 A2981 991.0 HR97 CB ON STN/SE/S/SW TEMPO BKN008=
METAR SLGM 051800Z 02016KT 4000 TS VCSH SCT008 BKN015 FEW020CB
BKN070 27/24 Q1008 A2978 HR85 CB/SH N/NE/E/SE/SW/W/NW TS N/NW=
METAR SLRI 051800Z 36008KT 8000 VCSH SCT015 FEW020CB BKN200 29/24
Q1008 A2979 HR75 CB/SH N/NE/E/NW=
METAR SLJO 051800Z NIL=
METAR SLRA 051800Z 36006KT 7000 VCSH SCT015 FEW023CB OVC070 27/25
Q1008 A2979 HR92 RESHRA CB/SH SE/S/SW RWY HUM OPR=
METAR SLMG 051800Z 03004KT 8000 VCSH SCT017 FEW023CB BKN080 26/24
Q1008 A2979 HR87 RESHRA CB/SH N/NE/E/SE RW HUM OPR=
METAR SLBU 051800Z NIL=
METAR SLSA 051800Z 34005KT 6000 VCSH SCT017 FEW023CB SCT070 BKN200
25/24 Q1007 A2975 HR95 RERA CB/SH N/E/SE/NW=
METAR SLSR 051800Z 32006KT 8000 VCSH SCT010 FEW020CB OVC070 25/24
Q10009 A2980 HR94 RERA CB/SH N/NE/NW RWY WET INOP=
METAR SLSM 051800Z 36003KT 8000 -RA BKN013 OVC070 24/24 Q1009 A2981
HR100 RWY WET INOP=
SABO SLTR 051800
METAR SLTR 051800Z 00000KT 2000 RA SCT008 FEW020CB OVC070 25/24
Q1009 A2981 991.0 HR97 CB ON STN/SE/S/SW TEMPO BKN008=
METAR SLGM 051800Z 02016KT 4000 TS VCSH SCT008 BKN015 FEW020CB
BKN070 27/24 Q1008 A2978 HR85 CB/SH N/NE/E/SE/SW/W/NW TS N/NW=
METAR SLRI 051800Z 36008KT 8000 VCSH SCT015 FEW020CB BKN200 29/24
Q1008 A2979 HR75 CB/SH N/NE/E/NW=
METAR SLJO 051800Z NIL=
METAR SLRA 051800Z 36006KT 7000 VCSH SCT015 FEW023CB OVC070 27/25
Q1008 A2979 HR92 RESHRA CB/SH SE/S/SW RWY HUM OPR=
METAR SLMG 051800Z 03004KT 8000 VCSH SCT017 FEW023CB BKN080 26/24
Q1008 A2979 HR87 RESHRA CB/SH N/NE/E/SE RW HUM OPR=
METAR SLBU 051800Z NIL=
METAR SLSA 051800Z 34005KT 6000 VCSH SCT017 FEW023CB SCT070 BKN200
25/24 Q1007 A2975 HR95 RERA CB/SH N/E/SE/NW=
METAR SLSR 051800Z 32006KT 8000 VCSH SCT010 FEW020CB OVC070 25/24
Q10009 A2980 HR94 RERA CB/SH N/NE/NW RWY WET INOP=
METAR SLSM 051800Z 36003KT 8000 -RA BKN013 OVC070 24/24 Q1009 A2981
HR100 RWY WET INOP=
1166
___A___
ZPX0572 051801
GG SLZZYMYT
051800 SLVRYFYC
SABO SLVR 051800
METAR SLVR 051800Z 33011KT 6000 -RA SCT012 BKN020 OVC070 21/21 Q1011
A2985 HR95 NOSIG=
METAR SLET 051800Z 30011KT 2500 -RA BKN010 BKN015 OVC070 22/21 Q1011
A2986 HR97 NOSIG=
METAR SLAS 051800Z 00000KT 9999 BKN013 FEW030CB BKN070 26/23 Q1012
A2989 HR86 CB/SH N RERA RWY WET OPR=
METAR SLJV 051800Z 00000KT 5000 -TSRA BKN013 FEW030CB OVC200 24/22
Q1010 A2983 HR94 CB/TS SE/E RWY WET OPR=
METAR SLCP 051800Z 34008KT 4000 -RA BKN013 OVC070 26/25 Q1012 A2988
HR92 RWY WET OPR=
METAR SLSI 051800Z 33008KT 9999 SCT017 FEW025CB 31/23 Q1009 A2980
HR62 CB S/SW RWY NML=
METAR SLTI 051800Z 36006KT 9999 SCT017 33/22 Q1012 A2988 HR55 RWY NML
METAR SLJE 051800Z 00000KT 8000 TS VCSH FEW013 SCT017 FEW030CB OVC070
23/23 Q1013 A2991 HR96 CB/TS/SH E/S/SW RERA RWY WET OPR=
METAR SLVG 051800Z 35005KT 9999 FEW023 BKN070 22/14 Q1021 A3015 HR57
RWY NML=
METAR SLRB 051800Z 00000KT 9999 BKN017 30/23 Q1010 A2983 HR67 RWY NML
METAR SLPS 051800Z 09006KT 9999 FEW017 BKN070 32/26 Q1008 A2977 HR71=
METAR SLCA 051800Z 00000KT 9999 BKN033 FEW040CB 32/19 Q1011 A2985
HR47 CB NE RWY NML=
SABO SLVR 051800
METAR SLVR 051800Z 33011KT 6000 -RA SCT012 BKN020 OVC070 21/21 Q1011
A2985 HR95 NOSIG=
METAR SLET 051800Z 30011KT 2500 -RA BKN010 BKN015 OVC070 22/21 Q1011
A2986 HR97 NOSIG=
METAR SLAS 051800Z 00000KT 9999 BKN013 FEW030CB BKN070 26/23 Q1012
A2989 HR86 CB/SH N RERA RWY WET OPR=
METAR SLJV 051800Z 00000KT 5000 -TSRA BKN013 FEW030CB OVC200 24/22
Q1010 A2983 HR94 CB/TS SE/E RWY WET OPR=
METAR SLCP 051800Z 34008KT 4000 -RA BKN013 OVC070 26/25 Q1012 A2988
HR92 RWY WET OPR=
METAR SLSI 051800Z 33008KT 9999 SCT017 FEW025CB 31/23 Q1009 A2980
HR62 CB S/SW RWY NML=
METAR SLTI 051800Z 36006KT 9999 SCT017 33/22 Q1012 A2988 HR55 RWY NML
METAR SLJE 051800Z 00000KT 8000 TS VCSH FEW013 SCT017 FEW030CB OVC070
23/23 Q1013 A2991 HR96 CB/TS/SH E/S/SW RERA RWY WET OPR=
METAR SLVG 051800Z 35005KT 9999 FEW023 BKN070 22/14 Q1021 A3015 HR57
RWY NML=
METAR SLRB 051800Z 00000KT 9999 BKN017 30/23 Q1010 A2983 HR67 RWY NML
METAR SLPS 051800Z 09006KT 9999 FEW017 BKN070 32/26 Q1008 A2977 HR71=
METAR SLCA 051800Z 00000KT 9999 BKN033 FEW040CB 32/19 Q1011 A2985
HR47 CB NE RWY NML=
___A___
ZPX0573 051803
GG SLLPYGZA
051803 SLLPYFYX
SVC MIS CH 1800 LR PZX0000
SVC MIS CH 1800 LR PZX0000
___A___
ZPX0574 051804
FF SLLPZRZX
051805 SLRIZPZX
(FPL-AZN391-IS
-CRJ2/M-SDFGRW/C
-SLRI1945
-N0440F290 SLRI DCT TRI
-SLTR0040 SLVR
-PBN/B2B3B4D2D3O2O3S1 REG/CP2733 OPR/AMASZONAS)
(FPL-AZN391-IS
-CRJ2/M-SDFGRW/C
-SLRI1945
-N0440F290 SLRI DCT TRI
-SLTR0040 SLVR
-PBN/B2B3B4D2D3O2O3S1 REG/CP2733 OPR/AMASZONAS)
___A___
ZPX0575 051807
FF SLLPZRZX
051752 SLGMZPZX
(FPL-ECO305-IS
-RJ85/M-DS/S
-SLGM1850
-N0360F240 SLGM M653 TRI
-SLTR0045 SLCB SLVR
-PBN/B1 REG/CP2889 OPR/ECOJET)
(FPL-ECO305-IS
-RJ85/M-DS/S
-SLGM1850
-N0360F240 SLGM M653 TRI
-SLTR0045 SLCB SLVR
-PBN/B1 REG/CP2889 OPR/ECOJET)
___A___
ZPX0576 051810
FF SLLPZRZX
051811 SLLPZPZX
(FPL-BOV617-IS
-B738/M-SDFGHIRW/S
-SLLP2235
-N0440F270 DAKOG1 DAKOG UW677 CBA
-SLCB0030 SLVR
-PBN/B1C1D1S1 REG/CP3151)
(FPL-BOV617-IS
-B738/M-SDFGHIRW/S
-SLLP2235
-N0440F270 DAKOG1 DAKOG UW677 CBA
-SLCB0030 SLVR
-PBN/B1C1D1S1 REG/CP3151)
___A___
ZPX0577 051811
FF SLLPZRZX
051814 SLLPZPZX
(FPL-BOV676-IS
-B738/M-SDFGHIRW/S
-SLLP2045
-N0440F390 TERAX1 TERAX UW29 VIR
-SLVR0100 SLCB
-PBN/B1C1D1S1 REG/CP3138)
(FPL-BOV676-IS
-B738/M-SDFGHIRW/S
-SLLP2045
-N0440F390 TERAX1 TERAX UW29 VIR
-SLVR0100 SLCB
-PBN/B1C1D1S1 REG/CP3138)
___A___
ZPX0578 051813
FF SLLPZRZX
051813 SLCBZPZX
AD/SLCB REQ ARR BOV636 BOV638 AND DEP AZN154
AD/SLCB REQ ARR BOV636 BOV638 AND DEP AZN154
___A___
ZPX0579 051814
FF SLLPZRZX
051815 SLLPYSYX
(FPL-BOV233-IS
-CRJ2/M-SDFGIRW/S
-SLTJ1915
-N0350F260 UW22
-SLAL0035 SLCB SLVR SLLP SLOR SLUY
-PBN/B1C1D1S1 RMK/RPL)
(FPL-BOV233-IS
-CRJ2/M-SDFGIRW/S
-SLTJ1915
-N0350F260 UW22
-SLAL0035 SLCB SLVR SLLP SLOR SLUY
-PBN/B1C1D1S1 RMK/RPL)
___A___
ZPX0580 051814
FF SLLPZRZX
051816 SLLPZPZX
(FPL-FAB81-IM
-C130/M-SDF/C
-SLLP1130
-N0280F250 TERAX1 TERAX UW29 VIR
-SLVR0120 SLCB
-OPR/FAB DOF/210106 RMK/CARGO FLT)
(FPL-FAB81-IM
-C130/M-SDF/C
-SLLP1130
-N0280F250 TERAX1 TERAX UW29 VIR
-SLVR0120 SLCB
-OPR/FAB DOF/210106 RMK/CARGO FLT)
___A___
ZPX0581 051814
GG SLZZYMYT
051814 SLSAYGYS
SPBO SLSA 051812
SPECI SLSA 051812Z 34017KT 1500 RA SCT007 BKN015 FEW023CB OVC070
24/24 Q1007 A2975 HR97 CB N/E/SE/NW=
SPBO SLSA 051812
SPECI SLSA 051812Z 34017KT 1500 RA SCT007 BKN015 FEW023CB OVC070
24/24 Q1007 A2975 HR97 CB N/E/SE/NW=
___A___
ZPX0582 051815
GG SLZZYMYT
051814 SLSAYGYS
SPBO SLSA 051812
SPECI SLSA 051812Z 34017KT 1500 RA SCT007 BKN015 FEW023CB OVC070
24/24 Q1007 A2975 HR97 CB N/E/SE/NW=
SPBO SLSA 051812
SPECI SLSA 051812Z 34017KT 1500 RA SCT007 BKN015 FEW023CB OVC070
24/24 Q1007 A2975 HR97 CB N/E/SE/NW=
___A___
ZPX0583 051815
FF SLLPZRZX
051818 SLLPZPZX
(FPL-FAB81-IM
-C130/M-SDF/C
-SLLP1945
-N0280F250 TERAX1 TERAX UW29 VIR
-SLVR0120 SLCB
-OPR/FAB RMK/CARGO FLT)
(FPL-FAB81-IM
-C130/M-SDF/C
-SLLP1945
-N0280F250 TERAX1 TERAX UW29 VIR
-SLVR0120 SLCB
-OPR/FAB RMK/CARGO FLT)
___A___
ZPX0584 051820
CH LR PZX0000
CH LR PZX0000
___A___
ZPX0585 051823
GG SLLPYGZA
051823 SLLPYFYX
SVC MIS CH 1820 LR PZX0000
SVC MIS CH 1820 LR PZX0000
___A___
ZPX0586 051830
GG SLZZYMYT
051829 SLTRYGYZ
SPBO SLTR 051827
SPECI SLTR 051827Z 00000KT 5000 -TSRA SCT008 BKN015 FEW020CB OVC070
24/24 Q1009 A2980 990.7 HR98 CB NE/E/SE/S TS SE TEMPO BKN008=
SPBO SLTR 051827
SPECI SLTR 051827Z 00000KT 5000 -TSRA SCT008 BKN015 FEW020CB OVC070
24/24 Q1009 A2980 990.7 HR98 CB NE/E/SE/S TS SE TEMPO BKN008=
___A___
ZPX0587 051831
FF SLLPZRZX
051830 SLETZPZX
(FPL-CP2835-ZG
-B190/M-S/C
-SLET1930
-N0250F185 VIR199015/N0250F220 DCT
-SLCI0055 SLVR
-OPR/AEROESTE S.A. RMK/RETORNA PIC. WILFREDO MOREIRA LIC. 3024900 CEL
. 76347500)
(FPL-CP2835-ZG
-B190/M-S/C
-SLET1930
-N0250F185 VIR199015/N0250F220 DCT
-SLCI0055 SLVR
-OPR/AEROESTE S.A. RMK/RETORNA PIC. WILFREDO MOREIRA LIC. 3024900 CEL
. 76347500)
___A___
ZPX0588 051835
FF SLLPZRZX
051834 SLCOZPZX
(FPL-CP2744-VG
-C210/L-VOF/C
-SLCO2000
-N0140F075 DCT
-SLRI0110 SLGM
-OPR/M RENE HAYASHIDA RMK/PIC RICARDO PINTO A LIC 1715632 CEL.
76860222)
(FPL-CP2744-VG
-C210/L-VOF/C
-SLCO2000
-N0140F075 DCT
-SLRI0110 SLGM
-OPR/M RENE HAYASHIDA RMK/PIC RICARDO PINTO A LIC 1715632 CEL.
76860222)
___A___
ZPX0589 051838
FF SLLPZRZX
051837 SLCBYSYX
(DEP-BOV612/A1766-SLCB1834-SLLP-REG/CP2924)
(DEP-BOV612/A1766-SLCB1834-SLLP-REG/CP2924)
___A___
ZPX0590 051840
CH LR PZX0000
CH LR PZX0000
___A___
ZPX0591 051841
GG SLZZYMYT
051840 SLTRYGYS
SPBO SLGM 051837
SPECI SLGM 051837Z 02010KT 4000 -TSRA BKN008 FEW020CB OVC070 25/25
Q1008 A2977 HR97 CB N/NE/E/SE/SW/W/NW TS N/NW=
SPBO SLGM 051837
SPECI SLGM 051837Z 02010KT 4000 -TSRA BKN008 FEW020CB OVC070 25/25
Q1008 A2977 HR97 CB N/NE/E/SE/SW/W/NW TS N/NW=
___A___
ZPX0592 051843
GG SLLPYGZA
051843 SLLPYFYX
SVC MIS CH 1840 LR PZX0000
SVC MIS CH 1840 LR PZX0000
1100
___A___
ZPX0593 051843
FF SLLPZRZX
051844 SABMYMYX
FVAG01 SABM 051850
VA ADVISORY
DTG: 20210105/1850Z
VAAC: BUENOS AIRES
VOLCANO: SABANCAYA 354006
PSN: S1547 W07150
AREA: PERU
SUMMIT ELEV: 19576 FT (5967 M)
ADVISORY NR: 2021/021
INFO SOURCE: GOES-E. WEBCAM. VOLCAT.
AVIATION COLOUR CODE: NOT GIVEN
ERUPTION DETAILS: UNABLE TO DETECT
OBS VA DTG: 05/1820Z
OBS VA CLD: SFC/FL260 S1503 W07155 - S1507 W07143
- S1545 W07144 - S1550 W07150 - S1548 W07155 -
S1511 W07208 - S1503 W07155 MOV NW 10KT
FCST VA CLD +6 HR: 06/0030Z SFC/FL260 S1502
W07159 - S1506 W07147 - S1544 W07144 - S1550
W07150 - S1543 W07159 - S1514 W07207 - S1502
W07159
FCST VA CLD +12 HR: 06/0630Z SFC/FL260 S1505
W07207 - S1505 W07155 - S1544 W07144 - S1550
W07149 - S1549 W07157 - S1513 W07214 - S1505
W07207
FCST VA CLD +18 HR: 06/1230 NOT AVBL
RMK: VA PLUME NOT DETECTED IN STLT IMAGERY DUE WX
CLDS COVER. THERE IS SLIGHT INDICATION OF PUFF
EMISSION ON WEBCAM MOSTLY HINDERED BY WX CLD. T+0
EST FM PREVIOUS FORECAST. ...SMN
NXT ADVISORY: WILL BE ISSUED BY 20210106/0050Z=
FVAG01 SABM 051850
VA ADVISORY
DTG: 20210105/1850Z
VAAC: BUENOS AIRES
VOLCANO: SABANCAYA 354006
PSN: S1547 W07150
AREA: PERU
SUMMIT ELEV: 19576 FT (5967 M)
ADVISORY NR: 2021/021
INFO SOURCE: GOES-E. WEBCAM. VOLCAT.
AVIATION COLOUR CODE: NOT GIVEN
ERUPTION DETAILS: UNABLE TO DETECT
OBS VA DTG: 05/1820Z
OBS VA CLD: SFC/FL260 S1503 W07155 - S1507 W07143
- S1545 W07144 - S1550 W07150 - S1548 W07155 -
S1511 W07208 - S1503 W07155 MOV NW 10KT
FCST VA CLD +6 HR: 06/0030Z SFC/FL260 S1502
W07159 - S1506 W07147 - S1544 W07144 - S1550
W07150 - S1543 W07159 - S1514 W07207 - S1502
W07159
FCST VA CLD +12 HR: 06/0630Z SFC/FL260 S1505
W07207 - S1505 W07155 - S1544 W07144 - S1550
W07149 - S1549 W07157 - S1513 W07214 - S1505
W07207
FCST VA CLD +18 HR: 06/1230 NOT AVBL
RMK: VA PLUME NOT DETECTED IN STLT IMAGERY DUE WX
CLDS COVER. THERE IS SLIGHT INDICATION OF PUFF
EMISSION ON WEBCAM MOSTLY HINDERED BY WX CLD. T+0
EST FM PREVIOUS FORECAST. ...SMN
NXT ADVISORY: WILL BE ISSUED BY 20210106/0050Z=
1144
___A___
ZPX0594 051843
GG SLLPZRZX
051843 KWBCYMYX
FVAG01 SABM 051850
VA ADVISORY
DTG: 20210105/1850Z
VAAC: BUENOS AIRES
VOLCANO: SABANCAYA 354006
PSN: S1547 W07150
AREA: PERU
SUMMIT ELEV: 19576 FT (5967 M)
ADVISORY NR: 2021/021
INFO SOURCE: GOES-E. WEBCAM. VOLCAT.
AVIATION COLOUR CODE: NOT GIVEN
ERUPTION DETAILS: UNABLE TO DETECT
OBS VA DTG: 05/1820Z
OBS VA CLD: SFC/FL260 S1503 W07155 - S1507 W07143
- S1545 W07144 - S1550 W07150 - S1548 W07155 -
S1511 W07208 - S1503 W07155 MOV NW 10KT
FCST VA CLD +6 HR: 06/0030Z SFC/FL260 S1502
W07159 - S1506 W07147 - S1544 W07144 - S1550
W07150 - S1543 W07159 - S1514 W07207 - S1502
W07159
FCST VA CLD +12 HR: 06/0630Z SFC/FL260 S1505
W07207 - S1505 W07155 - S1544 W07144 - S1550
W07149 - S1549 W07157 - S1513 W07214 - S1505
W07207
FCST VA CLD +18 HR: 06/1230 NOT AVBL
RMK: VA PLUME NOT DETECTED IN STLT IMAGERY DUE WX
CLDS COVER. THERE IS SLIGHT INDICATION OF PUFF
EMISSION ON WEBCAM MOSTLY HINDERED BY WX CLD. T+0
EST FM PREVIOUS FORECAST. ...SMN
NXT ADVISORY: WILL BE ISSUED BY 20210106/0050Z=
FVAG01 SABM 051850
VA ADVISORY
DTG: 20210105/1850Z
VAAC: BUENOS AIRES
VOLCANO: SABANCAYA 354006
PSN: S1547 W07150
AREA: PERU
SUMMIT ELEV: 19576 FT (5967 M)
ADVISORY NR: 2021/021
INFO SOURCE: GOES-E. WEBCAM. VOLCAT.
AVIATION COLOUR CODE: NOT GIVEN
ERUPTION DETAILS: UNABLE TO DETECT
OBS VA DTG: 05/1820Z
OBS VA CLD: SFC/FL260 S1503 W07155 - S1507 W07143
- S1545 W07144 - S1550 W07150 - S1548 W07155 -
S1511 W07208 - S1503 W07155 MOV NW 10KT
FCST VA CLD +6 HR: 06/0030Z SFC/FL260 S1502
W07159 - S1506 W07147 - S1544 W07144 - S1550
W07150 - S1543 W07159 - S1514 W07207 - S1502
W07159
FCST VA CLD +12 HR: 06/0630Z SFC/FL260 S1505
W07207 - S1505 W07155 - S1544 W07144 - S1550
W07149 - S1549 W07157 - S1513 W07214 - S1505
W07207
FCST VA CLD +18 HR: 06/1230 NOT AVBL
RMK: VA PLUME NOT DETECTED IN STLT IMAGERY DUE WX
CLDS COVER. THERE IS SLIGHT INDICATION OF PUFF
EMISSION ON WEBCAM MOSTLY HINDERED BY WX CLD. T+0
EST FM PREVIOUS FORECAST. ...SMN
NXT ADVISORY: WILL BE ISSUED BY 20210106/0050Z=
___A___
ZPX0595 051852
GG SLZZYMYT
051851 SLPSYGYS
SABO SLPS 051900
METAR SLPS 051900Z 09004KT 9999 FEW017 SCT200 33/26 Q1007 A2974 HR70=
SABO SLPS 051900
METAR SLPS 051900Z 09004KT 9999 FEW017 SCT200 33/26 Q1007 A2974 HR70=
___A___
ZPX0596 051853
GG SLZZYMYT
051753 SLETYMYC
SABO SLET 051800
METAR SLET 051800Z 31006KT 4000 -RA SCT010 BKN015 OVC070 21/20 Q1009
A2982 HR96 NOSIG=
SABO SLET 051800
METAR SLET 051800Z 31006KT 4000 -RA SCT010 BKN015 OVC070 21/20 Q1009
A2982 HR96 NOSIG=
___A___
ZPX0597 051854
GG SLZZYMYT
051854 SLLPYFYA
SABO SLRY 051900
METAR SLRY 051900Z 00000KT 4000 -RA BKN006 BKN012 OVC070 24/23 Q1005
A2969 HR98 RWY WET INOP=
SABO SLRY 051900
METAR SLRY 051900Z 00000KT 4000 -RA BKN006 BKN012 OVC070 24/23 Q1005
A2969 HR98 RWY WET INOP=
___A___
ZPX0598 051854
GG SLZZYMYT
051855 SLSBYSYX
SABO SLSB 051900
METAR SLSB 051900Z 00000KT 6000 -RA BKN005 OVC070 24/24 Q1008 A2979
HR98 RWY WET INOP=
SABO SLSB 051900
METAR SLSB 051900Z 00000KT 6000 -RA BKN005 OVC070 24/24 Q1008 A2979
HR98 RWY WET INOP=
___A___
ZPX0599 051854
GG SLZZYMYT
051853 SLRBYGYS
SABO SLRB 051900
METAR SLRB 051900Z 36004KT 9999 BKN017 30/23 Q1010 A2983 HR67 RWY NML=
SABO SLRB 051900
METAR SLRB 051900Z 36004KT 9999 BKN017 30/23 Q1010 A2983 HR67 RWY NML=
___A___
ZPX0600 051854
GG SLZZYMYT
051855 SLVRYGYZ
SABO SLVR 051900
METAR SLVR 051900Z 33011KT 8000 -RA SCT012 BKN020 OVC070 21/20 Q1010
A2983 HR93 NOSIG=
SABO SLVR 051900
METAR SLVR 051900Z 33011KT 8000 -RA SCT012 BKN020 OVC070 21/20 Q1010
A2983 HR93 NOSIG=
