
ZPX0010 020055@CAELT@GG SLZZYMYT@CAELT@020055 SLVRYGYZ@CAELT@SABO SLVR 020100@CAELT@METAR SLVR 020100Z 36008KT 9000 NSC 28/20 Q1006 A2973 HR63 FU NOSIG=@CAELT@
ZPX0011 020056@CAELT@GG SLLPZRZX@CAELT@020055 SLLPYGYZ@CAELT@SABO SLLP 020100@CAELT@METAR SLLP 020100Z 12005KT 9999 FEW006 FEW017CB SCT070 06/04 Q1037@CAELT@A3063 627.4 HR87 CB/LT/DIST/SW CI NOSIG=@CAELT@
ZPX0012 020057@CAELT@GG SLZZYMYT@CAELT@020056 SLCBYGYZ@CAELT@SABO SLCB 020100@CAELT@METAR SLCB 020100Z 22006KT 9999 NSC 17/05 Q1022 A3020 749.6 HR44 CI@CAELT@NOSIG=@CAELT@
ZPX0019 020155@CAELT@GG SLZZYMYT@CAELT@020155 SLVRYGYZ@CAELT@SABO SLVR 020200@CAELT@METAR SLVR 020200Z 35008KT 9000 NSC 27/20 Q1006 A2973 HR65 FU NOSIG=@CAELT@
ZPX0020 020156@CAELT@GG SLZZYMYT@CAELT@020155 SLCBYGYZ@CAELT@SABO SLCB 020200@CAELT@METAR SLCB 020200Z 20006KT 9999 NSC 17/05 Q1023 A3022 750.0 HR44 CI@CAELT@NOSIG=@CAELT@
ZPX0021 020156@CAELT@GG SLLPZRZX@CAELT@020155 SLLPYGYZ@CAELT@SABO SLLP 020200@CAELT@METAR SLLP 020200Z VRB02KT 9999 FEW003 SCT200 04/03 Q1037 A3065@CAELT@627.9 HR96 AC BECMG 4000E VCFG=@CAELT@
ZPX0028 020255@CAELT@GG SLZZYMYT@CAELT@020255 SLVRYGYZ@CAELT@SABO SLVR 020300@CAELT@METAR SLVR 020300Z 34007KT 9000 NSC 26/20 Q1006 A2973 HR70 FU NOSIG=@CAELT@
ZPX0029 020256@CAELT@GG SLLPZRZX@CAELT@020255 SLLPYGYZ@CAELT@SABO SLLP 020300@CAELT@METAR SLLP 020300Z VRB02KT 4000E VCFG FEW003 SCT200 04/04 Q1038@CAELT@A3067 628.2 HR98 VCFG NE/E AC NOSIG=@CAELT@
ZPX0030 020257@CAELT@GG SLZZYMYT@CAELT@020256 SLCBYGYZ@CAELT@SABO SLCB 020300@CAELT@METAR SLCB 020300Z 20003KT 9999 NSC 15/05 Q1023 A3023 750.3 HR51 CI@CAELT@NOSIG=@CAELT@
ZPX0037 020355@CAELT@GG SLZZYMYT@CAELT@020355 SLVRYGYZ@CAELT@SABO SLVR 020400@CAELT@METAR SLVR 020400Z 36006KT 9000 NSC 24/20 Q1007 A2974 HR78 FU NOSIG=@CAELT@
ZPX0038 020356@CAELT@GG SLLPZRZX@CAELT@020355 SLLPYGYZ@CAELT@SABO SLLP 020400@CAELT@METAR SLLP 020400Z 32003KT 4000E VCFG FEW003 SCT200 04/03 Q1038@CAELT@A3066 628.1 HR91 VCFG E/SE AC NOSIG=@CAELT@
ZPX0039 020356@CAELT@GG SLZZYMYT@CAELT@020355 SLCBYGYZ@CAELT@SABO SLCB 020400@CAELT@METAR SLCB 020400Z 10003KT 9999 NSC 16/05 Q1023 A3022 750.0 HR46 CI@CAELT@NOSIG=@CAELT@
ZPX0046 020455@CAELT@GG SLZZYMYT@CAELT@020455 SLVRYGYZ@CAELT@SABO SLVR 020500@CAELT@METAR SLVR 020500Z 34006KT 9000 NSC 24/20 Q1006 A2973 HR79 FU NOSIG=@CAELT@
ZPX0047 020456@CAELT@GG SLZZYMYT@CAELT@020455 SLCBYGYZ@CAELT@SABO SLCB 020500@CAELT@METAR SLCB 020500Z 14004KT 9999 NSC 15/06 Q1023 A3021 749.8 HR53 CI@CAELT@NOSIG=@CAELT@
ZPX0048 020457@CAELT@GG SLLPZRZX@CAELT@020455 SLLPYGYZ@CAELT@SABO SLLP 020500@CAELT@METAR SLLP 020500Z 02004KT 9999 FEW003 SCT200 04/02 Q1037 A3064@CAELT@627.6 HR91 AC NOSIG=@CAELT@
ZPX0055 020554@CAELT@GG SLZZYMYT@CAELT@020555 SLVRYGYZ@CAELT@SABO SLVR 020600@CAELT@METAR SLVR 020600Z 36007KT 9000 NSC 24/20 Q1006 A2973 HR80 FU NOSIG=@CAELT@
ZPX0056 020557@CAELT@GG SLLPZRZX@CAELT@020555 SLLPYGYZ@CAELT@SABO SLLP 020600@CAELT@METAR SLLP 020600Z VRB02KT 9999 FEW003 SCT070 BKN200 02/02 Q1036@CAELT@A3062 627.1 HR96 NOSIG=@CAELT@
ZPX0057 020558@CAELT@GG SLZZYMYT@CAELT@020555 SLCBYGYZ@CAELT@SABO SLCB 020600@CAELT@METAR SLCB 020600Z 30004KT 9999 NSC 13/06 Q1022 A3020 749.6 HR64 CI@CAELT@NOSIG=@CAELT@
ZPX0066 020654@CAELT@GG SLZZYMYT@CAELT@020655 SLVRYGYZ@CAELT@SABO SLVR 020700@CAELT@METAR SLVR 020700Z 33009KT 9000 NSC 24/21 Q1006 A2971 HR81 FU NOSIG=@CAELT@
ZPX0067 020655@CAELT@GG SLLPZRZX@CAELT@020655 SLLPYGYZ@CAELT@SABO SLLP 020700@CAELT@METAR SLLP 020700Z 36003KT 9999 FEW004 SCT070 BKN200 04/02 Q1035@CAELT@A3059 626.6 HR87 NOSIG=@CAELT@
ZPX0068 020658@CAELT@GG SLZZYMYT@CAELT@020658 SLCBYGYZ@CAELT@SABO SLCB 020700@CAELT@METAR SLCB 020700Z 34004KT 9999 NSC 12/07 Q1022 A3020 749.5 HR68 CI@CAELT@NOSIG=@CAELT@
ZPX0075 020754@CAELT@GG SLZZYMYT@CAELT@020755 SLVRYGYZ@CAELT@SABO SLVR 020800@CAELT@METAR SLVR 020800Z 34006KT 9999 NSC 23/21 Q1006 A2972 HR86 NOSIG=@CAELT@
ZPX0076 020756@CAELT@GG SLLPZRZX@CAELT@020755 SLLPYGYZ@CAELT@SABO SLLP 020800@CAELT@METAR SLLP 020800Z VRB02KT 9999 FEW004 SCT070 BKN200 03/01 Q1035@CAELT@A3058 626.4 HR90 NOSIG=@CAELT@
ZPX0077 020756@CAELT@GG SLZZYMYT@CAELT@020755 SLCBYGYZ@CAELT@SABO SLCB 020800@CAELT@METAR SLCB 020800Z 30003KT 9999 NSC 12/07 Q1022 A3020 749.5 HR68 CI@CAELT@NOSIG=@CAELT@
ZPX0088 020854@CAELT@GG SLZZYMYT@CAELT@020855 SLVRYGYZ@CAELT@SABO SLVR 020900@CAELT@METAR SLVR 020900Z 32006KT 9999 NSC 23/21 Q1006 A2972 HR86 NOSIG=@CAELT@
ZPX0089 020855@CAELT@GG SLZZYMYT@CAELT@020855 SLCBYGYZ@CAELT@SABO SLCB 020900@CAELT@METAR SLCB 020900Z 00000KT 9999 NSC 12/07 Q1023 A3021 749.8 HR71 FU@CAELT@CI NOSIG=@CAELT@
ZPX0090 020856@CAELT@GG SLLPZRZX@CAELT@020855 SLLPYGYZ@CAELT@SABO SLLP 020900@CAELT@METAR SLLP 020900Z 03004KT 9999 FEW004 SCT070 BKN200 02/01 Q1035@CAELT@A3058 626.4 HR89 NOSIG=@CAELT@
ZPX0110 020952@CAELT@GG SLZZYMYT@CAELT@020950 SLRBYGYS@CAELT@SABO SLRB 021000@CAELT@METAR SLRB 021000Z 00000KT 8000 NSC 26/20 Q1010 A2983 HR71 FU RWY NML=@CAELT@
ZPX0112 020953@CAELT@GG SLZZYMYT@CAELT@020953 SLPSYGYS@CAELT@SABO SLPS 021000@CAELT@METAR SLPS 021000Z 00000KT 5000 FU NSC 26/23 Q1008 A2977 HR83=@CAELT@
ZPX0113 020955@CAELT@GG SLZZYMYT@CAELT@020956 SLTRYGYZ@CAELT@SABO SLTR 021000@CAELT@METAR SLTR 021000Z 00000KT 9999 NSC 23/21 Q1007 A2976 989.2 HR90@CAELT@NOSIG=@CAELT@
ZPX0114 020955@CAELT@GG SLZZYMYT@CAELT@020955 SLCBYGYZ@CAELT@SABO SLCB 021000@CAELT@METAR SLCB 021000Z 31003KT 9999 NSC 10/07 Q1023 A3023 750.4 HR78 FU@CAELT@CI NOSIG=@CAELT@
ZPX0115 020955@CAELT@GG SLZZYMYT@CAELT@020955 SLLPYGYZ@CAELT@SABO SLLP 021000@CAELT@METAR SLLP 021000Z VRB02KT 9999 FEW004 SCT070 BKN200 01/M01 Q1036@CAELT@A3060 626.7 HR90 P90// AC NOSIG=@CAELT@
ZPX0116 020955@CAELT@GG SLZZYMYT@CAELT@020955 SLCAYGYS@CAELT@SABO SLCA 021000@CAELT@METAR SLCA 021000Z 00000KT 5000 FU NSC 17/08 Q1012 A2988 HR57 RWY NML@CAELT@
ZPX0117 020956@CAELT@GG SLZZYMYT@CAELT@020954 SLRYYSYX@CAELT@SABO SLRY 021000@CAELT@METAR SLRY 021000Z 00000KT 9999 NSC 21/21 Q1004 A20967 HR98 RWY NML=@CAELT@
ZPX0118 020956@CAELT@GG SLZZYMYT@CAELT@020956 SLSAYGYS@CAELT@SABO SLSA 021000@CAELT@METAR SLSA 021000Z 00000KT 8000 NSC 23/22 Q1007 A2976 HR92 FU CI=@CAELT@
ZPX0119 020956@CAELT@GG SLZZYMYT@CAELT@020956 SLSAYGYS@CAELT@SABO SLSA 021000@CAELT@METAR SLSA 021000Z 00000KT 8000 NSC 23/22 Q1007 A2976 HR92 FU CI=@CAELT@
ZPX0120 020956@CAELT@GG SLZZYMYT@CAELT@020956 SLUYYGYS@CAELT@SABO SLUY 021000@CAELT@METAR SLUY 021000Z 00000KT 9999 FEW070 BKN200 M01/M11 Q1032@CAELT@A3049 657.3 HR48=@CAELT@
ZPX0121 020956@CAELT@GG SLZZYMYT@CAELT@020957 SLVRYGYZ@CAELT@SABO SLVR 021000@CAELT@METAR SLVR 021000Z 32010KT 9999 NSC 23/21 Q1007 A2976 HR86 CI NOSIG=@CAELT@
ZPX0122 020957@CAELT@GG SLZZYMYT@CAELT@020957 SLLPYGYZ@CAELT@SABO SLLP 021000 CCA@CAELT@METAR COR SLLP 021000Z VRB02KT 9999 FEW004 BKN200 01/M01 Q1036 A3060@CAELT@626.7 HR90 P90// AC NOSIG=@CAELT@
ZPX0123 020959@CAELT@GG SLZZYMYT@CAELT@020959 SLCOYGYZ@CAELT@SABO SLCO 021000@CAELT@METAR SLCO 021000Z 00000KT 3000 FU FEW080 24/23 Q1009 A2980 981.9@CAELT@HR92=@CAELT@
ZPX0124 021000@CAELT@GG SLZZYMYT@CAELT@020958 SLRQYSYX@CAELT@SABO SLRQ 021000@CAELT@METAR SLRQ 021000Z 00000KT 9999 NSC 22/22 Q1007 A2975 HR98=@CAELT@
ZPX0125 021000@CAELT@GG SLZZYMYT@CAELT@020959 SLSBYSYX@CAELT@SABO SLSB 021000@CAELT@METAR SLSB 021000Z 00000KT 9999 NSC 23/22 Q1007 A2976 HR96 RWY NML=@CAELT@
ZPX0126 021000@CAELT@GG SLZZYMYT@CAELT@021000 SLVRYGYS@CAELT@SABO SLVR 021000@CAELT@METAR SLVR 021000Z 32010KT 9999 NSC 23/21 Q1007 A2976 HR86 CI NOSIG=@CAELT@METAR SLET 021000Z NIL=@CAELT@METAR SLAS 021000Z 00000KT 1500 FU NSC 23/20 Q1010 A2983 HR83 RWY NML@CAELT@METAR SLJV 021000Z 00000KT 7000 NSC 22/19 Q1008 A2977 HR88 FU RWY NML@CAELT@METAR SLCP 021000Z 00000KT 6000 NSC 22/19 Q1012 A2988 HR83 FU RWY NMLMETAR SLSI 021000Z 00000KT 2000 FU NSC 24/20 Q1009 A2980 HR80 RWY NMLMETAR SLTI 021000Z 00000KT 9999 NSC 26/24 Q1011 A2985 HR72 FU RWY NMLMETAR SLJE 021000Z 00000KT 7000 NSC 21/19 Q1011 A2985 HR87 FU RWY NMLMETAR SLVG 021000Z 00000KT 9999 NSC 14/12 Q1021 A3015 HR85 RWY NML=METAR SLRB 021000Z 00000KT 8000 NSC 26/20 Q1010 A2983 HR71 FU RWY NMLMETAR SLPS 021000Z 00000KT 5000 FU NSC 26/23 Q1008 A2977 HR83=METAR SLCA 021000Z 00000KT 5000 FU NSC 17/08 Q1012 A2988 HR57 RWY NML=
ZPX0128 021006@CAELT@GG SLZZYMYT@CAELT@021005 SLTRYGYS@CAELT@SABO SLTR 021000@CAELT@METAR SLTR 021000Z 00000KT 9999 NSC 23/21 Q1007 A2976 989.2 HR90@CAELT@NOSIG=@CAELT@METAR SLGM 021000Z 32003KT 3000 FU NSC 23/23 Q1009 A2979 HR96=@CAELT@METAR SLRI 021000Z 00000KT 5000 FU NSC 24/23 Q1009 A2981 HR95@CAELT@METAR SLJO 021000Z 36003KT 8000 NSC 23/20 Q1008 A2977 HR83 FUCI RWY NML=METAR SLRA 021000Z 36003KT 9999 NSC 24/20 Q1007 A2976 HR79 FUAC/CI RWY NML=METAR SLMG 021000Z 00000KT 8000 FEW080 23/21 Q1008 A2979 HR92FU RWY NML=METAR SLBU 021000Z NIL=METAR SLSA 021000Z 00000KT 8000 NSC 23/22 Q1007 A2976 HR92 FUMETAR SLSM 021000Z 35004KT 9999 NSC 24/21 Q1006 A2971 HR89 CIRWY NML=METAR SLSM 021000Z 00000KT 9999 NSC 22/21 Q1007 A2975 HR92
ZPX0129 021006@CAELT@GG SLZZYMYT@CAELT@021005 SLETYMYC@CAELT@SABO SLET 021000@CAELT@METAR SLET 021000Z 32015KT 9999 NSC 24/20 Q1007 A2975 HR79 NOSIG=@CAELT@
ZPX0130 021007@CAELT@GG SLZZYMYT@CAELT@021006 SLLPYFYA@CAELT@SABO SLLP 021000@CAELT@METAR SLLP 021000Z VRB02KT 9999 FEW004 SCT070 BKN200 01/M01@CAELT@Q1036 A3060 626.7 HR90 P90// AC NOSIG=@CAELT@METAR SLCO 021000Z 00000KT 3000 FU FEW080 24/23 Q1009 A2980@CAELT@981.9 HR92=@CAELT@METAR SLRY 021000Z 00000KT 9999 NSC 21/21 Q1004 A20967 HR98RWY NML=METAR SLRQ 021000Z 00000KT 9999 NSC 22/22 Q1007 A2975 HR98=METAR SLSB 021000Z 00000KT 9999 NSC 23/22 Q1007 A2976 HR96METAR SLUY 021000Z 00000KT 9999 FEW070 BKN200 M01/M11 Q1032A3049 657.3 HR48=
ZPX0131 021008@CAELT@GG SLZZYMYT@CAELT@021007 SLLPYFYA@CAELT@SABO SLLP 021000 CCA@CAELT@METAR COR SLLP 021000Z VRB02KT 9999 FEW004 BKN200 01/M01 Q1036@CAELT@A3060 626.7 HR90 P90// AC NOSIG=@CAELT@METAR SLCO 021000Z 00000KT 3000 FU FEW080 24/23 Q1009 A2980@CAELT@981.9 HR92=@CAELT@METAR SLRY 021000Z 00000KT 9999 NSC 21/21 Q1004 A20967 HR98RWY NML=METAR SLRQ 021000Z 00000KT 9999 NSC 22/22 Q1007 A2975 HR98=METAR SLSB 021000Z 00000KT 9999 NSC 23/22 Q1007 A2976 HR96METAR SLUY 021000Z 00000KT 9999 FEW070 BKN200 M01/M11 Q1032A3049 657.3 HR48=
ZPX0132 021012@CAELT@GG SLZZYMYT@CAELT@021012 SLVRYGYS@CAELT@SABO SLVR 021000 RRA@CAELT@METAR SLVR 021000Z 32010KT 9999 NSC 23/21 Q1007 A2976 HR86 CI NOSIG=@CAELT@METAR RTD SLET 021000Z 32015KT 9999 NSC 24/20 Q1007 A2975 HR79 NOSIG=@CAELT@METAR SLAS 021000Z 00000KT 1500 FU NSC 23/20 Q1010 A2983 HR83 RWY NML@CAELT@METAR SLJV 021000Z 00000KT 7000 NSC 22/19 Q1008 A2977 HR88 FU RWY NML@CAELT@METAR SLCP 021000Z 00000KT 6000 NSC 22/19 Q1012 A2988 HR83 FU RWY NMLMETAR SLSI 021000Z 00000KT 2000 FU NSC 24/20 Q1009 A2980 HR80 RWY NMLMETAR SLTI 021000Z 00000KT 9999 NSC 26/24 Q1011 A2985 HR72 FU RWY NMLMETAR SLJE 021000Z 00000KT 7000 NSC 21/19 Q1011 A2985 HR87 FU RWY NMLMETAR SLVG 021000Z 00000KT 9999 NSC 14/12 Q1021 A3015 HR85 RWY NML=METAR SLRB 021000Z 00000KT 8000 NSC 26/20 Q1010 A2983 HR71 FU RWY NMLMETAR SLPS 021000Z 00000KT 5000 FU NSC 26/23 Q1008 A2977 HR83=METAR SLCA 021000Z 00000KT 5000 FU NSC 17/08 Q1012 A2988 HR57 RWY NML=
ZPX0134 021018@CAELT@GG SLZZYMYT@CAELT@021016 SLTRYGYS@CAELT@SABO SLTR 021000 CCA@CAELT@METAR SLTR 021000Z 00000KT 9999 NSC 23/21 Q1007 A2976 989.2 HR90@CAELT@NOSIG=@CAELT@METAR SLGM 021000Z 32003KT 3000 FU NSC 23/23 Q1009 A2979 HR96=@CAELT@METAR SLRI 021000Z 00000KT 5000 FU NSC 24/23 Q1009 A2981 HR95@CAELT@METAR SLJO 021000Z 36003KT 8000 NSC 23/20 Q1008 A2977 HR83 FUCI RWY NML=METAR SLRA 021000Z 36003KT 9999 NSC 24/20 Q1007 A2976 HR79 FUAC/CI RWY NML=METAR SLMG 021000Z 00000KT 8000 FEW080 23/21 Q1008 A2979 HR92FU RWY NML=METAR SLBU 021000Z NIL=METAR SLSA 021000Z 00000KT 8000 NSC 23/22 Q1007 A2976 HR92 FUMETAR COR SLSR 021000Z 35004KT 9999 NSC 24/21 Q1006 A2971 HR89METAR SLSM 021000Z 00000KT 9999 NSC 22/21 Q1007 A2975 HR92RWY NML=
ZPX0137 021023@CAELT@GG SLZZYMYT@CAELT@021020 SLLPYFYA@CAELT@SABO SLLP 021000 RRA@CAELT@METAR COR SLLP 021000Z VRB02KT 9999 FEW004 BKN200 01/M01 Q1036@CAELT@A3060 626.7 HR90 P90// AC NOSIG=@CAELT@METAR SLCO 021000Z 00000KT 3000 FU FEW080 24/23 Q1009 A2980@CAELT@981.9 HR92=@CAELT@METAR SLRY 021000Z 00000KT 9999 NSC 21/21 Q1004 A20967 HR98RWY NML=METAR SLRQ 021000Z 00000KT 9999 NSC 22/22 Q1007 A2975 HR98=METAR RTD SLAP 021000Z 00000KT 0100 FG FEW003 15/14 Q1016 A3013857.6 H99=METAR SLSB 021000Z 00000KT 9999 NSC 23/22 Q1007 A2976 HR96METAR SLUY 021000Z 00000KT 9999 FEW070 BKN200 M01/M11 Q1032A3049 657.3 HR48=
ZPX0139 021030@CAELT@GG SLZZYMYT@CAELT@021028 SLRYYSYX@CAELT@SABO SLRY 021000 CCA@CAELT@METAR COR SLRY 021000Z 00000KT 9999 NSC 21/21 Q1004 A2967 HR98 RWY@CAELT@NML=@CAELT@
ZPX0140 021032@CAELT@GG SLZZYMYT@CAELT@021030 SLLPYFYA@CAELT@SABO SLLP 021000 CCB@CAELT@METAR COR SLLP 021000Z VRB02KT 9999 FEW004 BKN200 01/M01 Q1036@CAELT@A3060 626.7 HR90 P90// AC NOSIG=@CAELT@METAR SLCO 021000Z 00000KT 3000 FU FEW080 24/23 Q1009 A2980@CAELT@981.9 HR92=@CAELT@METAR COR SLRY 021000Z 00000KT 9999 NSC 21/21 Q1004 A2967 HR98RWY NML=METAR SLRQ 021000Z 00000KT 9999 NSC 22/22 Q1007 A2975 HR98=METAR RTD SLAP 021000Z 00000KT 0100 FG FEW003 15/14 Q1016 A3013857.6 H99=METAR SLSB 021000Z 00000KT 9999 NSC 23/22 Q1007 A2976 HR96METAR SLUY 021000Z 00000KT 9999 FEW070 BKN200 M01/M11 Q1032A3049 657.3 HR48=
ZPX0148 021052@CAELT@GG SLZZYMYT@CAELT@021052 SLPSYGYS@CAELT@SABO SLPS 021100@CAELT@METAR SLPS 021100Z 00000KT 6000 FEW020 28/24 Q1009 A2980 HR79 FU=@CAELT@
ZPX0151 021054@CAELT@GG SLZZYMYT@CAELT@021054 SLCBYGYZ@CAELT@SABO SLCB 021100@CAELT@METAR SLCB 021100Z 00000KT 9999 NSC 13/08 Q1024 A3025 750.9 HR73 FU@CAELT@CI NOSIG=@CAELT@
ZPX0152 021054@CAELT@GG SLZZYMYT@CAELT@021055 SLVRYGYZ@CAELT@SABO SLVR 021100@CAELT@METAR SLVR 021100Z 32012KT 9999 NSC 25/22 Q1008 A2979 HR83 NOSIG=@CAELT@
ZPX0153 021054@CAELT@GG SLZZYMYT@CAELT@021054 SLCOYGYZ@CAELT@SABO SLCO 021100@CAELT@METAR SLCO 021100Z 00000KT 3000 FU FEW080 24/23 Q1010 A2983 982.9@CAELT@HR90=@CAELT@
ZPX0154 021054@CAELT@GG SLZZYMYT@CAELT@021055 SLETYMYC@CAELT@SABO SLET 021100@CAELT@METAR SLET 021100Z 31013KT 9999 NSC 24/20 Q1008 A2977 HR78 NOSIG=@CAELT@
ZPX0155 021054@CAELT@GG SLZZYMYT@CAELT@021055 SLSBYSYX@CAELT@SABO SLSB 021100@CAELT@METAR SLSB 021100Z 00000KT 9999 NSC 23/22 Q1008 A2978 HR96 RWY NML=@CAELT@
ZPX0156 021054@CAELT@GG SLZZYMYT@CAELT@021055 SLORYGYZ@CAELT@SABO SLOR 021100@CAELT@METAR SLOR 021100Z 34003KT 2000N FU NSC 04/01 Q1034 A3053 655.2 HR78@CAELT@VIS RED N/NE/E/SE RESTO 9000 CI=@CAELT@
ZPX0157 021055@CAELT@GG SLZZYMYT@CAELT@021055 SLRQYSYX@CAELT@SABO SLRQ 021100@CAELT@METAR SLRQ 021100Z 00000KT 9999 NSC 23/23 Q1008 A2978 HR98=@CAELT@
ZPX0158 021055@CAELT@GG SLZZYMYT@CAELT@021052 SLUYYGYS@CAELT@SABO SLUY 021100@CAELT@METAR SLUY 021100Z 00000KT 9999 FEW070 BKN200 M01/M09 Q1033@CAELT@A3052 657.9 HR56 HZ NE/E/SE FU=@CAELT@
ZPX0159 021056@CAELT@GG SLZZYMYT@CAELT@021056 SLSAYGYS@CAELT@SABO SLSA 021100@CAELT@METAR SLSA 021100Z 33004KT 8000 NSC 23/22 Q1008 A2977 HR94 FU CI=@CAELT@
ZPX0160 021056@CAELT@GG SLZZYMYT@CAELT@021056 SLSAYGYS@CAELT@SABO SLSA 021100@CAELT@METAR SLSA 021100Z 33004KT 8000 NSC 23/22 Q1008 A2977 HR94 FU CI=@CAELT@
ZPX0161 021056@CAELT@GG SLZZYMYT@CAELT@021056 SLCAYGYS@CAELT@SABO SLCA 021100@CAELT@METAR SLCA 021100Z 00000KT 5000 FU NSC 18/08 Q1013 A2991 HR55 RWY NML@CAELT@
ZPX0163 021056@CAELT@GG SLZZYMYT@CAELT@021056 SLTRYGYZ@CAELT@SABO SLTR 021100@CAELT@METAR SLTR 021100Z 00000KT 9999 NSC 23/22 Q1008 A2978 990.1 HR91@CAELT@NOSIG=@CAELT@
ZPX0164 021057@CAELT@GG SLZZYMYT@CAELT@021056 SLRBYGYS@CAELT@SABO SLRB 021100@CAELT@METAR SLRB 021100Z 00000KT 8000 NSC 28/20 Q1011 A2985 HR63 FU RWY NML=@CAELT@
ZPX0165 021057@CAELT@GG SLZZYMYT@CAELT@021056 SLRYYSYX@CAELT@SABO SLRY 021100@CAELT@METAR SLRY 021100Z 00000KT 9999 NSC 22/22 Q1005 A2969 HR97 RWY NML=@CAELT@
ZPX0166 021058@CAELT@GG SLZZYMYT@CAELT@021057 SLLPYGYZ@CAELT@SABO SLLP 021100@CAELT@METAR SLLP 021100Z 09003KT 9999 FEW004 BKN200 03/01 Q1036 A3061@CAELT@627.1 HR90 P3280 AC FU NOSIG=@CAELT@
ZPX0168 021059@CAELT@GG SLZZYMYT@CAELT@021059 SLVRYGYS@CAELT@SABO SLVR 021100@CAELT@METAR SLVR 021100Z 32012KT 9999 NSC 25/22 Q1008 A2979 HR83 NOSIG=@CAELT@METAR SLET 021100Z 31013KT 9999 NSC 24/20 Q1008 A2977 HR78 NOSIG=@CAELT@METAR SLAS 021100Z 00000KT 2000 FU NSC 24/20 Q1011 A2986 HR80 RWY NML@CAELT@METAR SLJV 021100Z 00000KT 7000 NSC 24/19 Q1009 A2980 HR75 FU RWY NML@CAELT@METAR SLCP 021100Z 00000KT 8000 NSC 23/20 Q1013 A2991 HR84 FU RWY NMLMETAR SLSI 021100Z 00000KT 2000 FU NSC 25/21 Q1010 A2983 HR77 RWY NMLMETAR SLTI 021100Z 00000KT 9999 FEW020 SCT070 27/20 Q1012 A2988 HR66FU RWY NML=METAR SLJE 021100Z 00000KT 6000 NSC 23/20 Q1012 A2988 HR84 FU RWY NMLMETAR SLVG 021100Z 00000KT 9999 NSC 16/12 Q1022 A3018 HR76 RWY NML=METAR SLRB 021100Z 00000KT 8000 NSC 28/20 Q1011 A2985 HR63 FU RWY NMLMETAR SLPS 021100Z 00000KT 6000 FEW020 28/24 Q1009 A2980 HR79 FU=METAR SLCA 021100Z 00000KT 5000 FU NSC 18/08 Q1013 A2991 HR55 RWY NML=
ZPX0170 021100@CAELT@GG SLZZYMYT@CAELT@021059 SLLPYFYA@CAELT@SABO SLLP 021100@CAELT@METAR SLLP 021100Z 09003KT 9999 FEW004 BKN200 03/01 Q1036 A3061@CAELT@627.1 HR90 P3280 AC FU NOSIG=@CAELT@METAR SLCO 021100Z 00000KT 3000 FU FEW080 24/23 Q1010 A2983 982.9@CAELT@HR90=@CAELT@METAR SLRY 021100Z 00000KT 9999 NSC 22/22 Q1005 A2969 HR97 RWY NML=METAR SLRQ 021100Z 00000KT 9999 NSC 23/23 Q1008 A2978 HR98=METAR SLSB 021100Z 00000KT 9999 NSC 23/22 Q1008 A2978 HR96 RWY NML=METAR SLOR 021100Z 34003KT 2000N FU NSC 04/01 Q1034 A3053 655.2HR78 VIS RED N/NE/E/SE RESTO 9000 CI=METAR SLAP 021100Z 00000KT 5000 BR FEW003 16/15 Q1017 A3004 857.9HR97=METAR SLUY 021100Z 00000KT 9999 FEW070 BKN200 M01/M09 Q1033A3052 657.9 HR56 HZ NE/E/SE FU=
ZPX0171 021100@CAELT@GG SLZZYMYT@CAELT@021100 SLCBYGYS@CAELT@SABO SLCB 021100@CAELT@METAR SLCB 021100Z 00000KT 9999 NSC 13/08 Q1024 A3025 750.9 HR73 FU@CAELT@CI NOSIG=@CAELT@METAR SLAL 021100Z 00000KT 9999 NSC 12/06 Q1028 A3037 703.1 HR66 CI=@CAELT@METAR SLVM 021100Z 18007KT 7000 NSC 27/19 Q1009 A2980 HR61 FU CI=@CAELT@METAR SLYA 021100Z 00000KT 8000 NSC 24/18 Q1005 A2970 930.8 HR70 FU=
ZPX0173 021101@CAELT@GG SLZZYMYT@CAELT@021100 SLTRYGYS@CAELT@SABO SLTR 021100@CAELT@METAR SLTR 021100Z 00000KT 9999 NSC 23/22 Q1008 A2978 990.1 HR91@CAELT@NOSIG=@CAELT@METAR SLGM 021100Z 32003KT 3000 FU NSC 24/23 Q1009 A2981 HR95 CI =@CAELT@METAR SLRI 021100Z 02005KT 5000 FU NSC 25/22 Q1010 A2983 HR84 CI=@CAELT@METAR SLJO 021100Z 36004KT 8000 NSC 24/20 Q1008 A2979 HR80 FU CIRWY NML=METAR SLRA 021100Z 03005KT 9999 NSC 25/21 Q1008 A2978 HR78 FUAC/CI RWY NML=METAR SLMG 021100Z 00000KT 8000 NSC 24/21 Q1008 A2977 HR84 FU CIMETAR SLBU 021100Z NIL=METAR SLSA 021100Z 33004KT 8000 NSC 23/22 Q1008 A2977 HR94 FU CI=METAR SLSR 021100Z 35004KT 9999 NSC 24/21 Q1006 A2972 HR84 CIMETAR SLSM 021100Z 00000KT 9999 NSC 22/22 Q1008 A2978 HR96
ZPX0212 021151@CAELT@GG SLZZYMYT@CAELT@021152 SLPSYGYS@CAELT@SABO SLPS 021200@CAELT@METAR SLPS 021200Z 00000KT 6000 FEW020 30/25 Q1009 A2980 HR74 FU=@CAELT@
ZPX0213 021151@CAELT@GG SLZZYMYT@CAELT@021152 SLVRYGYZ@CAELT@SABO SLVR 021200@CAELT@METAR SLVR 021200Z 32012KT 9999 NSC 27/22 Q1009 A2981 HR70 NOSIG=@CAELT@
ZPX0214 021153@CAELT@GG SLZZYMYT@CAELT@021154 SLCOYGYZ@CAELT@SABO SLCO 021200@CAELT@METAR SLCO 021200Z 31005KT 5000 FU FEW080 26/23 Q1010 A2985 983.3@CAELT@HR85=@CAELT@
ZPX0216 021154@CAELT@GG SLZZYMYT@CAELT@021153 SLRBYGYS@CAELT@SABO SLRB 021200@CAELT@METAR SLRB 021200Z 00000KT 8000 NSC 30/20 Q1012 A2988 HR58 FU RWY NML=@CAELT@
ZPX0218 021154@CAELT@GG SLZZYMYT@CAELT@021154 SLCAYGYS@CAELT@SABO SLCA 021200@CAELT@METAR SLCA 021200Z 00000KT 5000 FU NSC 20/10 Q1013 A2991 HR55 RWY NML@CAELT@
ZPX0219 021154@CAELT@GG SLZZYMYT@CAELT@021155 SLSAYGYS@CAELT@SABO SLSA 021200@CAELT@METAR SLSA 021200Z 33010KT 6000 NSC 26/23 Q1009 A2980 HR85 FU CI=@CAELT@
ZPX0220 021154@CAELT@GG SLZZYMYT@CAELT@021155 SLSAYGYS@CAELT@SABO SLSA 021200@CAELT@METAR SLSA 021200Z 33010KT 6000 NSC 26/23 Q1009 A2980 HR85 FU CI=@CAELT@
ZPX0221 021155@CAELT@GG SLZZYMYT@CAELT@021153 SLRYYSYX@CAELT@SABO SLRY 021200@CAELT@METAR SLRY 021200Z 00000KT 9999 NSC 25/23 Q1005 A2970 HR89 RWY NML=@CAELT@
ZPX0222 021155@CAELT@GG SLZZYMYT@CAELT@021155 SLSBYSYX@CAELT@SABO SLSB 021200@CAELT@METAR SLSB 021200Z 34003KT 9999 NSC 26/23 Q1010 A983 HR88 RWY NML=@CAELT@
ZPX0223 021155@CAELT@GG SLZZYMYT@CAELT@021155 SLUYYGYS@CAELT@SABO SLUY 021200@CAELT@METAR SLUY 021200Z 00000KT 9999 FEW070 SCT200 06/M03 Q1034@CAELT@A3054 658.4 HR50 HZ E FU=@CAELT@
ZPX0224 021155@CAELT@GG SLZZYMYT@CAELT@021155 SLETYMYC@CAELT@SABO SLET 021200@CAELT@METAR SLET 021200Z 31014G24KT 9999 NSC 27/21 Q1009 A2980 HR70 NOSIG=@CAELT@
ZPX0225 021155@CAELT@GG SLZZYMYT@CAELT@021155 SLORYGYZ@CAELT@SABO SLOR 021200@CAELT@METAR SLOR 021200Z 34004KT 8000 NSC 08/01 Q1035 A3057 656.1 HR63 VIS@CAELT@RED FU NE/E/SE CI=@CAELT@
ZPX0226 021156@CAELT@GG SLZZYMYT@CAELT@021156 SLVRYGYS@CAELT@SABO SLVR 021200@CAELT@METAR SLVR 021200Z 32012KT 9999 NSC 27/22 Q1009 A2981 HR70 NOSIG=@CAELT@METAR SLET 021200Z 31014G24KT 9999 NSC 27/21 Q1009 A2980 HR70 NOSIG=@CAELT@METAR SLAS 021200Z 00000KT 2000 FU NSC 27/21 Q1011 A2986 HR72 RWY NML@CAELT@METAR SLJV 021200Z 00000KT 7000 NSC 26/20 Q1010 A2983 HR72 FU RWY NML@CAELT@METAR SLCP 021200Z 00000KT 9999 NSC 25/20 Q1014 A2994 HR78 FU RWY NMLMETAR SLSI 021200Z 00000KT 2000 FU NSC 28/21 Q1011 A2985 HR68 RWY NMLMETAR SLTI 021200Z 00000KT 9999 BKN070 29/21 Q1013 A2991 HR60 FU RWYNML=METAR SLJE 021200Z 00000KT 6000 NSC 29/22 Q1012 A2988 HR66 FU RWY NMLMETAR SLVG 021200Z 00000KT 9999 NSC 19/12 Q1023 A3021 HR62 RWY NML=METAR SLRB 021200Z 00000KT 8000 NSC 30/20 Q1012 A2988 HR58 FU RWY NMLMETAR SLPS 021200Z 00000KT 6000 FEW020 30/25 Q1009 A2980 HR74 FU=METAR SLCA 021200Z 00000KT 5000 FU NSC 20/10 Q1013 A2991 HR55 RWY NML=
ZPX0227 021156@CAELT@GG SLZZYMYT@CAELT@021155 SLAGYSYX@CAELT@SABO SLAG 021200@CAELT@METAR SLAG 021200Z 00000KT 1000 FU NSC 20/12 Q1014 A2997 887.3 HR63=@CAELT@
ZPX0229 021156@CAELT@GG SLZZYMYT@CAELT@021157 SLLPYGYZ@CAELT@SABO SLLP 021200@CAELT@METAR SLLP 021200Z VRB02KT 9999 FEW006 BKN200 07/04 Q1037@CAELT@A3065 627.8 HR84 P4052 HZ S/SW FU AC NOSIG=@CAELT@
ZPX0230 021156@CAELT@GG SLZZYMYT@CAELT@021156 SLTRYGYZ@CAELT@SABO SLTR 021200@CAELT@METAR SLTR 021200Z 31006KT 6000 NSC 26/22 Q1009 A2981 990.9 HR79@CAELT@FU NOSIG=@CAELT@
ZPX0232 021157@CAELT@GG SLZZYMYT@CAELT@021156 SLRQYSYX@CAELT@SABO SLRQ 021200@CAELT@METAR SLRQ 021200Z 00000KT 9999 NSC 26/24 Q1009 A2980 HR91=@CAELT@
ZPX0236 021158@CAELT@GG SLZZYMYT@CAELT@021157 SLTJYGYZ@CAELT@SABO SLTJ 021200@CAELT@METAR SLTJ 021200Z 00000KT 9999 NSC 21/13 Q1018 A3008 813.7 HR58 CI@CAELT@
ZPX0237 021158@CAELT@GG SLZZYMYT@CAELT@021158 SLCBYGYZ@CAELT@SABO SLCB 021200@CAELT@METAR SLCB 021200Z 26003KT 9999 NSC 17/06 Q1025 A3027 751.5 HR50 FU@CAELT@CI NOSIG=@CAELT@
ZPX0240 021201@CAELT@GG SLZZYMYT@CAELT@021157 SLTRYGYS@CAELT@SABO SLTR 021200@CAELT@METAR SLTR 021200Z 31006KT 6000 NSC 26/22 Q1009 A2981 990.9 HR79@CAELT@FU NOSIG=@CAELT@METAR SLGM 021200Z 36005KT 5000 FU NSC 25/24 Q1010 A2984 HR92 CI=@CAELT@METAR SLRI 021200Z 03005KT 5000 FU NSC 26/22 Q1011 A2986 HR76 CI=@CAELT@METAR SLJO 021200Z 36007KT 8000 NSC 26/22 Q1009 A2982 HR77 FUCI RWY NML=METAR SLRA 021200Z 03006KT 9999 NSC 27/21 Q1009 A2980 HR71 FUMETAR SLMG 021200Z 00000KT 8000 NSC 26/22 Q1009 A2980 HR78 FUMETAR SLBU 021200Z 32004KT 9999 NSC 25/22 Q1010 A2983 HR88 CIRWY NML=METAR SLSA 021200Z 33010KT 6000 NSC 26/23 Q1009 A2980 HR85 FU CI=METAR SLSR 021200Z 35004KT 9999 NSC 27/22 Q1007 A2974 HR75 CIMETAR SLSM 021200Z 00000KT 9999 NSC 25/23 Q1009 A2981 HR88
ZPX0241 021202@CAELT@GG SLZZYMYT@CAELT@021200 SLCBYGYS@CAELT@SABO SLCB 021200@CAELT@METAR SLCB 021200Z 26003KT 9999 NSC 17/06 Q1025 A3027 751.5 HR50 FU@CAELT@CI NOSIG=@CAELT@METAR SLAL 021200Z 00000KT 9999 NSC 15/09 Q1029 A3039 703.7 HR66 CI=@CAELT@METAR SLPO 021200Z NIL=@CAELT@METAR SLAG 021200Z 00000KT 1000 FU NSC 20/12 Q1014 A2997 887.3 HR63=METAR SLVM 021200Z 18008KT 7000 NSC 29/20 Q1010 A2983 HR59 FU CI=METAR SLTJ 021200Z 00000KT 9999 NSC 21/13 Q1018 A3008 813.7 HR58 CIMETAR SLYA 021200Z 00000KT 8000 NSC 25/16 Q1006 A2972 931.7 HR54 FU=METAR SLBJ 021200Z NIL=METAR SLHI 021200Z NIL=
ZPX0245 021203@CAELT@GG SLZZYMYT@CAELT@021200 SLLPYFYA@CAELT@SABO SLLP 021200@CAELT@METAR SLLP 021200Z VRB02KT 9999 FEW006 BKN200 07/04 Q1037@CAELT@A3065 627.8 HR84 P4052 HZ S/SW FU AC NOSIG=@CAELT@METAR SLCO 021200Z 31005KT 5000 FU FEW080 26/23 Q1010 A2985 983.3@CAELT@HR85=@CAELT@METAR SLRY 021200Z 00000KT 9999 NSC 25/23 Q1005 A2970 HR89 RWY NML=METAR SLRQ 021200Z 00000KT 9999 NSC 26/24 Q1009 A2980 HR91=METAR SLAP 021200Z 00000KT 7000 NSC 18/16 Q1017 A3006 858.5 HR89 BR=METAR SLSB 021200Z 34003KT 9999 NSC 26/23 Q1010 A983 HR88 RWY NML=METAR SLOR 021200Z 34004KT 8000 NSC 08/01 Q1035 A3057 656.1 HR63 VISRED FU NE/E/SE CI=METAR SLUY 021200Z 00000KT 9999 FEW070 SCT200 06/M03 Q1034A3054 658.4 HR50 HZ E FU=
ZPX0272 021250@CAELT@GG SLZZYMYT@CAELT@021250 SLRBYGYS@CAELT@SABO SLRB 021300@CAELT@METAR SLRB 021300Z 00000KT 8000 NSC 33/20 Q1012 A2988 HR47 FU RWY NML=@CAELT@
ZPX0278 021254@CAELT@GG SLZZYMYT@CAELT@021255 SLETYMYC@CAELT@SABO SLET 021300@CAELT@METAR SLET 021300Z 32016G29KT 9999 NSC 29/21 Q1010 A2983 HR61 NOSIG=@CAELT@
ZPX0279 021254@CAELT@GG SLZZYMYT@CAELT@021255 SLSAYGYS@CAELT@SABO SLSA 021300@CAELT@METAR SLSA 021300Z 33010KT 6000 NSC 30/23 Q1009 A2982 HR67 FU CI=@CAELT@
ZPX0280 021254@CAELT@GG SLZZYMYT@CAELT@021255 SLSAYGYS@CAELT@SABO SLSA 021300@CAELT@METAR SLSA 021300Z 33010KT 6000 NSC 30/23 Q1009 A2982 HR67 FU CI=@CAELT@
ZPX0281 021254@CAELT@GG SLZZYMYT@CAELT@021255 SLORYGYZ@CAELT@SABO SLOR 021300@CAELT@METAR SLOR 021300Z 36004KT 9999 FEW017 SCT200 12/04 Q1035 A3058 656.2@CAELT@HR58=@CAELT@
ZPX0282 021254@CAELT@GG SLZZYMYT@CAELT@021254 SLCBYGYZ@CAELT@SABO SLCB 021300@CAELT@METAR SLCB 021300Z 00000KT 9999 NSC 21/05 Q1025 A3028 751.7 HR35 FU@CAELT@CI NOSIG=@CAELT@
ZPX0283 021254@CAELT@GG SLZZYMYT@CAELT@021254 SLORYGYZ@CAELT@SABO SLOR 021300@CAELT@METAR SLOR 021300Z 36004KT 9999 FEW017 SCT200 12/04 Q1035 A3058 656.2@CAELT@HR58=@CAELT@
ZPX0284 021254@CAELT@GG SLZZYMYT@CAELT@021255 SLPSYGYS@CAELT@SABO SLPS 021300@CAELT@METAR SLPS 021300Z 31013KT 6000 NSC 33/22 Q1010 A2983 HR57 FU=@CAELT@
ZPX0285 021254@CAELT@GG SLZZYMYT@CAELT@021255 SLSBYSYX@CAELT@SABO SLSB 021300@CAELT@METAR SLSB 021300Z 36005KT 9999 NSC 28/24 Q1010 A2984 HR78 RWY NML=@CAELT@
ZPX0286 021255@CAELT@GG SLZZYMYT@CAELT@021255 SLRQYSYX@CAELT@SABO SLRQ 021300@CAELT@METAR SLRQ 021300Z 00000KT 9999 NSC 28/24 Q1010 A2983 HR81=@CAELT@
ZPX0287 021255@CAELT@GG SLZZYMYT@CAELT@021255 SLCOYGYZ@CAELT@SABO SLCO 021300@CAELT@METAR SLCO 021300Z 29006KT 5000 FU NSC 29/24 Q1011 A2987 984.2 HR74=@CAELT@
ZPX0288 021255@CAELT@GG SLZZYMYT@CAELT@021253 SLRYYSYX@CAELT@SABO SLRY 021300@CAELT@METAR SLRY 021300Z 00000KT 9999 NSC 28/23 Q1006 A2973 HR74 FU RWY NML@CAELT@
ZPX0289 021255@CAELT@GG SLZZYMYT@CAELT@021255 SLUYYGYS@CAELT@SABO SLUY 021300@CAELT@METAR SLUY 021300Z 00000KT 9999 FEW070 SCT200 09/01 Q1034@CAELT@A3056 658.8 HR56=@CAELT@
ZPX0290 021255@CAELT@GG SLZZYMYT@CAELT@021256 SLVRYGYZ@CAELT@SABO SLVR 021300@CAELT@METAR SLVR 021300Z 34012G22KT 9999 NSC 31/22 Q1009 A2982 HR62 NOSIG=@CAELT@
ZPX0291 021256@CAELT@GG SLZZYMYT@CAELT@021254 SLTJYGYZ@CAELT@SABO SLTJ 021300@CAELT@METAR SLTJ 021300Z 00000KT 8000 NSC 22/12 Q1018 A3007 813.6 HR54 CI@CAELT@
ZPX0292 021256@CAELT@GG SLZZYMYT@CAELT@021255 SLAGYSYX@CAELT@SABO SLAG 021300@CAELT@METAR SLAG 021300Z 00000KT 1000 FU NSC 25/14 Q1015 A2998 887.7 HR51=@CAELT@
ZPX0293 021256@CAELT@GG SLZZYMYT@CAELT@021256 SLTRYGYZ@CAELT@SABO SLTR 021300@CAELT@METAR SLTR 021300Z 30008KT 6000 NSC 30/23 Q1010 A2983 991.6 HR66@CAELT@FU NOSIG=@CAELT@
ZPX0294 021257@CAELT@GG SLZZYMYT@CAELT@021257 SLLPYGYZ@CAELT@SABO SLLP 021300@CAELT@METAR SLLP 021300Z 11005KT 080V140 9999 FEW008 BKN200 08/04@CAELT@Q1038 A3066 628.1 HR74 P4352 FU AC NOSIG=@CAELT@
ZPX0295 021257@CAELT@GG SLZZYMYT@CAELT@021257 SLTRYGYS@CAELT@SABO SLTR 021300@CAELT@METAR SLTR 021300Z 30008KT 6000 NSC 30/23 Q1010 A2983 991.6 HR66@CAELT@FU NOSIG=@CAELT@METAR SLGM 021300Z 36008KT 5000 FU NSC 28/23 Q1011 A2987 HR74 CI=@CAELT@METAR SLRI 021300Z 00000KT 5000 FU NSC 28/22 Q1011 A2988 HR68 CI=@CAELT@METAR SLJO 021300Z 35010KT 8000 NSC 29/22 Q1010 A2984 HR65 FU CIRWY NML=METAR SLRA 021300Z 36010KT 9999 NSC 30/22 Q1010 A2983 HR61 FU CIMETAR SLMG 021300Z 00000KT 9999 NSC 30/22 Q1009 A2982 HR62 CIMETAR SLBU 021300Z NIL=METAR SLSA 021300Z 33010KT 6000 NSC 30/23 Q1009 A2982 HR67 FU CI=METAR SLSR 021300Z 35006KT 9999 NSC 28/22 Q1008 A2977 HR68 CIMETAR SLSM 021300Z 33004KT 9999 NSC 30/23 Q1010 A2983 HR65 RWYNML=
ZPX0296 021258@CAELT@GG SLZZYMYT@CAELT@021258 SLCBYGYS@CAELT@SABO SLCB 021300@CAELT@METAR SLCB 021300Z 00000KT 9999 NSC 21/05 Q1025 A3028 751.7 HR35 FU@CAELT@CI NOSIG=@CAELT@METAR SLAL 021300Z 07007KT 9999 FEW020 18/07 Q1029 A3041 704.0 HR53@CAELT@METAR SLPO 021300Z NIL=@CAELT@METAR SLAG 021300Z 00000KT 1000 FU NSC 25/14 Q1015 A2998 887.7 HR51=METAR SLVM 021300Z 18010KT 7000 NSC 29/20 Q1010 A2985 HR58 FU CI=METAR SLTJ 021300Z 00000KT 8000 NSC 22/12 Q1018 A3007 813.6 HR54 CIMETAR SLYA 021300Z 21008KT 8000 NSC 27/16 Q1006 A2973 932.0 HR52 FU=METAR SLBJ 021300Z NIL=METAR SLHI 021300Z NIL=
ZPX0297 021258@CAELT@GG SLZZYMYT@CAELT@021258 SLCAYGYS@CAELT@SABO SLCA 021300@CAELT@METAR SLSCA 021300Z 00000KT 5000 FU NSC 22/12 Q1014 A2994 HR50 RWY@CAELT@NML=@CAELT@
ZPX0299 021259@CAELT@GG SLZZYMYT@CAELT@021259 SLVRYGYS@CAELT@SABO SLVR 021300@CAELT@METAR SLVR 021300Z 34012G22KT 9999 NSC 31/22 Q1009 A2982 HR62 NOSIG=@CAELT@METAR SLET 021300Z 32016G29KT 9999 NSC 29/21 Q1010 A2983 HR61 NOSIG=@CAELT@METAR SLAS 021300Z 00000KT 2000 FU NSC 29/22 Q1012 A2989 HR65 RWY NML@CAELT@METAR SLJV 021300Z 36010KT 7000 NSC 28/20 Q1011 A2985 HR66@CAELT@FU RWY NML=METAR SLCP 021300Z 30004KT 9999 FEW070 29/21 Q1014 A2994 HR62METAR SLSI 021300Z 33006KT 4000 FU NSC 32/20 Q1012 A2988 HR51 RWY NMLMETAR SLTI 021300Z 00000KT 9999 NSC 35/21 Q1014 A2994 HR46METAR SLJE 021300Z 35006KT 6000 NSC 33/22 Q1013 A2991 HR55METAR SLVG 021300Z 00000KT 9999 NSC 22/11 Q1024 A3024 HR47 RWY NML=METAR SLRB 021300Z 00000KT 8000 NSC 33/20 Q1012 A2988 HR47METAR SLPS 021300Z 31013KT 6000 NSC 33/22 Q1010 A2983 HR57 FU=METAR SLCA 021300Z 00000KT 5000 FU NSC 22/12 Q1014 A2994HR50 RWY NML=
ZPX0302 021301@CAELT@GG SLZZYMYT@CAELT@021301 SLLPYFYA@CAELT@SABO SLLP 021300@CAELT@METAR SLLP 021300Z 11005KT 080V140 9999 FEW008 BKN200 08/04@CAELT@Q1038 A3066 628.1 HR74 P4352 FU AC NOSIG=@CAELT@METAR SLCO 021300Z 29006KT 5000 FU NSC 29/24 Q1011 A2987 984.2@CAELT@HR74=@CAELT@METAR SLRY 021300Z 00000KT 9999 NSC 28/23 Q1006 A2973 HR74 FURWY NML=METAR SLRQ 021300Z 00000KT 9999 NSC 28/24 Q1010 A2983 HR81=METAR SLAP 021300Z 00000KT 9999 NSC 22/17 Q1019 A3009 HR76 AC=METAR SLSB 021300Z 36005KT 9999 NSC 28/24 Q1010 A2984 HR78METAR SLOR 021300Z 36004KT 9999 FEW017 SCT200 12/04 Q1035 A3058656.2 HR58=METAR SLUY 021300Z 00000KT 9999 FEW070 SCT200 09/01 Q1034A3056 658.8 HR56=
ZPX0306 021303@CAELT@GG SLZZYMYT@CAELT@021303 SLVRYGYH CCA@CAELT@SABO SLCA 021300@CAELT@METAR COR SLCA 021300Z 00000KT 5000 FU NSC 22/12 Q1014 A2994@CAELT@HR50 RWY@CAELT@NML=@CAELT@
ZPX0335 021351@CAELT@GG SLZZYMYT@CAELT@021349 SLPSYGYS@CAELT@SABO SLPS 021400@CAELT@METAR SLPS 021400Z 30010KT 6000 NSC 36/23 Q1010 A2983 HR48 FU=@CAELT@
ZPX0337 021353@CAELT@GG SLZZYMYT@CAELT@021353 SLCAYGYS@CAELT@SABO SLCA 021400@CAELT@METAR SLCA 021400Z 00000KT 6000 NSC 26/11 Q1014 A2994 HR41 FU RWY NML@CAELT@
ZPX0338 021354@CAELT@GG SLZZYMYT@CAELT@021355 SLETYMYC@CAELT@SABO SLET 021400@CAELT@METAR SLET 021400Z 32015G27KT 9999 NSC 31/21 Q1010 A2983 HR55 NOSIG=@CAELT@
ZPX0340 021355@CAELT@GG SLZZYMYT@CAELT@021353 SLRYYSYX@CAELT@SABO SLRY 021400@CAELT@METAR SLRY 021400Z 00000KT 9999 NSC 31/24 Q1007 A2974 HR65 FU RWY NML@CAELT@
ZPX0341 021355@CAELT@GG SLZZYMYT@CAELT@021355 SLVRYGYZ@CAELT@SABO SLVR 021400@CAELT@METAR SLVR 021400Z 34012G22KT 9999 NSC 33/21 Q1010 A2982 HR51 NOSIG=@CAELT@
ZPX0342 021355@CAELT@GG SLZZYMYT@CAELT@021355 SLCAYGYS@CAELT@SABO SLCA 021400@CAELT@METAR SLCA 021400Z 00000KT 6000 NSC 26/11 Q1014 A2994 HR41 FU RWY NML@CAELT@
ZPX0343 021355@CAELT@GG SLZZYMYT@CAELT@021355 SLSBYSYX@CAELT@SABO SLSB 021400@CAELT@METAR SLSB 021400Z 35004KT 9999 NSC 31/24 Q1010 A2984 HR66 RWY NML=@CAELT@
ZPX0344 021355@CAELT@GG SLZZYMYT@CAELT@021355 SLORYGYZ@CAELT@SABO SLOR 021400@CAELT@METAR SLOR 021400Z 29004KT 9999 FEW017 BKN200 15/05 Q1035 A3056 655.9@CAELT@HR51=@CAELT@
ZPX0345 021355@CAELT@GG SLZZYMYT@CAELT@021355 SLCBYGYZ@CAELT@SABO SLCB 021400@CAELT@METAR SLCB 021400Z 14003KT 9999 FEW036 SCT200 23/05 Q1025 A3027 751.5@CAELT@HR31 FU NOSIG=@CAELT@
ZPX0346 021355@CAELT@GG SLZZYMYT@CAELT@021355 SLRBYGYS@CAELT@SABO SLRB 021400@CAELT@METAR SLRB 021400Z 36006KT 8000 NSC 35/21 Q1012 A2988 HR44 FU RWY NML=@CAELT@
ZPX0347 021355@CAELT@GG SLZZYMYT@CAELT@021356 SLTRYGYZ@CAELT@SABO SLTR 021400@CAELT@METAR SLTR 021400Z 32007KT 6000 NSC 32/23 Q1010 A2984 991.9 HR58@CAELT@FU NOSIG=@CAELT@
ZPX0348 021355@CAELT@GG SLZZYMYT@CAELT@021356 SLSAYGYS@CAELT@SABO SLSA 021400@CAELT@METAR SLSA 021400Z 33012KT 8000 NSC 33/22 Q1010 A2983 HR52 FU CI=@CAELT@
ZPX0349 021356@CAELT@GG SLZZYMYT@CAELT@021356 SLSAYGYS@CAELT@SABO SLSA 021400@CAELT@METAR SLSA 021400Z 33012KT 8000 NSC 33/22 Q1010 A2983 HR52 FU CI=@CAELT@
ZPX0350 021356@CAELT@GG SLZZYMYT@CAELT@021355 SLCOYGYZ@CAELT@SABO SLCO 021400@CAELT@METAR SLCO 021400Z 22005KT 6000 NSC 31/24 Q1011 A2987 984.1 HR67 FU=@CAELT@
ZPX0351 021356@CAELT@GG SLZZYMYT@CAELT@021355 SLTJYGYZ@CAELT@SABO SLTJ 021400@CAELT@METAR SLTJ 021400Z 21004KT 8000 NSC 25/12 Q1017 A3006 813.2 HR45 CI@CAELT@
ZPX0352 021356@CAELT@GG SLZZYMYT@CAELT@021351 SLUYYGYS@CAELT@SABO SLUY 021400@CAELT@METAR SLUY 021400Z 30005KT 9999 FEW070 SCT200 12/01 Q1035@CAELT@A3056 659.0 HR49=@CAELT@
ZPX0353 021356@CAELT@GG SLZZYMYT@CAELT@021355 SLAGYSYX@CAELT@SABO SLAG 021400@CAELT@METAR SLAG 021400Z 00000KT 1500 FU NSC 29/14 Q1015 A2998 887.5 HR40=@CAELT@
ZPX0354 021356@CAELT@GG SLZZYMYT@CAELT@021355 SLRQYSYX@CAELT@SABO SLRQ 021400@CAELT@METAR SLRQ 021400Z 00000KT 9999 NSC 30/24 Q1010 A2983 HR69=@CAELT@
ZPX0357 021357@CAELT@GG SLZZYMYT@CAELT@021357 SLLPYGYZ@CAELT@SABO SLLP 021400@CAELT@METAR SLLP 021400Z VRB02KT 9999 FEW013 BKN200 10/04 Q1038@CAELT@A3068 628.5 HR65 P93// FU AC NOSIG=@CAELT@
ZPX0359 021358@CAELT@GG SLZZYMYT@CAELT@021358 SLCBYGYS@CAELT@SABO SLCB 021400@CAELT@METAR SLCB 021400Z 14003KT 9999 FEW036 SCT200 23/05 Q1025 A3027@CAELT@751.5 HR31 FU NOSIG=@CAELT@METAR SLAL 021400Z 00000KT 9999 FEW020 20/06 Q1029 A3041 704.1 HR43@CAELT@METAR SLPO 021400Z NIL=@CAELT@METAR SLAG 021400Z 00000KT 1500 FU NSC 29/14 Q1015 A2998 887.5 HR40=METAR SLVM 021400Z 18012KT 8000 NSC 31/20 Q1010 A2985 HR52 FU CI=METAR SLTJ 021400Z 21004KT 8000 NSC 25/12 Q1017 A3006 813.2 HR45 CIMETAR SLYA 021400Z 21010KT 8000 NSC 29/16 Q1007 A2974 932.2 HR46 FU=METAR SLBJ 021400Z NIL=METAR SLHI 021400Z NIL=
ZPX0361 021359@CAELT@GG SLZZYMYT@CAELT@021400 SLVRYGYS@CAELT@SABO SLVR 021400@CAELT@METAR SLVR 021400Z 34012G22KT 9999 NSC 33/21 Q1010 A2982 HR51 NOSIG=@CAELT@METAR SLET 021400Z 32015G27KT 9999 NSC 31/21 Q1010 A2983 HR55 NOSIG=@CAELT@METAR SLAS 021400Z 36004KT 3000 FU NSC 30/23 Q1013 A2991 HR70@CAELT@RWY NML=@CAELT@METAR SLJV 021400Z 36014KT 7000 NSC 28/21 Q1011 A2985 HR68 FUMETAR SLCP 021400Z 33008KT 9999 FEW070 31/20 Q1015 A2997 HR52FU RWY NML=METAR SLSI 021400Z 33012KT 7000 NSC 34/21 Q1011 A2985 HR46METAR SLTI 021400Z 00000KT 9999 NSC 37/21 Q1014 A2994 HR40METAR SLJE 021400Z 35008KT 6000 NSC 36/24 Q1013 A2991 HR50METAR SLVG 021400Z 02004KT 9999 NSC 24/11 Q1024 A3024 HR40 RWY NML=METAR SLRB 021400Z 36006KT 8000 NSC 35/21 Q1012 A2988 HR44METAR SLPS 021400Z 30010KT 6000 NSC 36/23 Q1010 A2983 HR48 FU=METAR SLCA 021400Z 00000KT 6000 NSC 26/11 Q1014 A2994 HR41
ZPX0362 021400@CAELT@GG SLZZYMYT@CAELT@021400 SLTRYGYS@CAELT@SABO SLTR 021400@CAELT@METAR SLTR 021400Z 32007KT 6000 NSC 32/23 Q1010 A2984 991.9 HR58@CAELT@FU NOSIG=@CAELT@METAR SLRI 021400Z 00000KT 7000 NSC 30/22 Q1012 A2989 HR62 CI FU=@CAELT@METAR SLGM 021400Z 33006KT 5000 FU NSC 29/24 Q1012 A2988 HR72 CI=@CAELT@METAR SLJO 021400Z 35010KT 8000 NSC 32/22 Q1010 A2985 HR56 FUCI RWY NML=METAR SLRA 021400Z 02010KT 9999 NSC 33/22 Q1010 A2984 HR52 FURWY NML=METAR SLMG 021400Z 03003KT 9999 NSC 33/22 Q1010 A2983 HR53 CIMETAR SLBU 021400Z 32006KT 9999 NSC 32/24 Q1011 A2986 HR61METAR SLSA 021400Z 33012KT 8000 NSC 33/22 Q1010 A2983 HR52 FU CI=METAR SLSR 021400Z 35006KT 9999 NSC 31/22 Q1008 A2978 HR62 CIMETAR SLSM 021400Z 33004KT 9999 NSC 33/22 Q1010 A2983 HR56
ZPX0364 021402@CAELT@GG SLZZYMYT@CAELT@021400 SLLPYFYA@CAELT@SABO SLLP 021400@CAELT@METAR SLLP 021400Z VRB02KT 9999 FEW013 BKN200 10/04 Q1038@CAELT@A3068 628.5 HR65 P93// FU AC NOSIG=@CAELT@METAR SLCO 021400Z 22005KT 6000 NSC 31/24 Q1011 A2987 984.1 HR67 FU=@CAELT@METAR SLRY 021400Z 00000KT 9999 NSC 31/24 Q1007 A2974 HR65 FU@CAELT@RWY NML=METAR SLRQ 021400Z 00000KT 9999 NSC 30/24 Q1010 A2983 HR69=METAR SLAP 021400Z 00000KT 9999 NSC 25/17 Q1019 A3010 HR60 AC=METAR SLSB 021400Z 35004KT 9999 NSC 31/24 Q1010 A2984 HR66 RWY NML=METAR SLOR 021400Z 29004KT 9999 FEW017 BKN200 15/05 Q1035 A3056 655.9HR51=METAR SLUY 021400Z 30005KT 9999 FEW070 SCT200 12/01 Q1035A3056 659.0 HR49=
ZPX0406 021451@CAELT@GG SLZZYMYT@CAELT@021451 SLPSYGYS@CAELT@SABO SLPS 021500@CAELT@METAR SLPS 021500Z 27004KT 6000 NSC 38/23 Q1009 A2980 HR45 FU=@CAELT@
ZPX0408 021452@CAELT@GG SLZZYMYT@CAELT@021452 SLRBYGYS@CAELT@SABO SLRB 021500@CAELT@METAR SLRB 021500Z 36010KT 8000 NSC 37/20 Q1012 A2988 HR38 FU RWY NML=@CAELT@
ZPX0409 021453@CAELT@GG SLZZYMYT@CAELT@021453 SLLPYFYA@CAELT@SABO SLAP 021500@CAELT@METAR SLAP 021500Z 00000KT 9999 FEW025 27/17 Q1019 A3010 HR55@CAELT@
ZPX0410 021454@CAELT@GG SLZZYMYT@CAELT@021453 SLRYYSYX@CAELT@SABO SLRY 021500@CAELT@METAR SLRY 021500Z 00000KT 9999 NSC 33/24 Q1007 A2976 HR60 FU RWY NML@CAELT@
ZPX0411 021454@CAELT@GG SLZZYMYT@CAELT@021455 SLSBYSYX@CAELT@SABO SLSB 021500@CAELT@METAR SLSB 021500Z 31008KT 9999 NSC 33/24 Q1009 A2985 HR61 RWY NML=@CAELT@
ZPX0412 021454@CAELT@GG SLZZYMYT@CAELT@021455 SLSAYGYS@CAELT@SABO SLSA 021500@CAELT@METAR SLSA 021500Z 32014KT 8000 FEW020 34/22 Q1010 A2983 HR48 FU=@CAELT@
ZPX0413 021454@CAELT@GG SLZZYMYT@CAELT@021455 SLSAYGYS@CAELT@SABO SLSA 021500@CAELT@METAR SLSA 021500Z 32014KT 8000 FEW020 34/22 Q1010 A2983 HR48 FU=@CAELT@
ZPX0414 021455@CAELT@GG SLZZYMYT@CAELT@021455 SLETYMYC@CAELT@SABO SLET 021500@CAELT@METAR SLET 021500Z 32015G27KT 9999 NSC 34/21 Q1010 A2985 HR46 NOSIG=@CAELT@
ZPX0416 021455@CAELT@GG SLZZYMYT@CAELT@021456 SLVRYGYZ@CAELT@SABO SLVR 021500@CAELT@METAR SLVR 021500Z 35014G24KT 9999 NSC 35/22 Q1010 A2983 HR47 NOSIG=@CAELT@
ZPX0417 021455@CAELT@GG SLZZYMYT@CAELT@021455 SLCOYGYZ@CAELT@SABO SLCO 021500@CAELT@METAR SLCO 021500Z 28007KT 9999 FEW023 33/24 Q1011 A2988 984.4 HR57@CAELT@
ZPX0418 021455@CAELT@GG SLZZYMYT@CAELT@021455 SLCBYGYZ@CAELT@SABO SLCB 021500@CAELT@METAR SLCB 021500Z 22003KT 9999 FEW036 25/04 Q1024 A3026 751.2 HR27@CAELT@FU CI NOSIG=@CAELT@
ZPX0419 021455@CAELT@GG SLZZYMYT@CAELT@021450 SLUYYGYS@CAELT@SABO SLUY 021500@CAELT@METAR SLUY 021500Z 30008KT 9999 FEW017 SCT200 14/01 Q1035@CAELT@A3057 659.1 HR42 AC=@CAELT@
ZPX0420 021456@CAELT@GG SLZZYMYT@CAELT@021457 SLLPYGYZ@CAELT@SABO SLLP 021500@CAELT@METAR SLLP 021500Z 12004KT 9999 SCT015 BKN200 12/03 Q1039@CAELT@A3069 628.8 HR55 P94// FU AC NOSIG=@CAELT@
ZPX0421 021456@CAELT@GG SLZZYMYT@CAELT@021456 SLORYGYZ@CAELT@SABO SLOR 021500@CAELT@METAR SLOR 021500Z 26005KT 9999 SCT017 BKN200 16/05 Q1034 A3055 655.5@CAELT@HR46 AC=@CAELT@
ZPX0422 021456@CAELT@GG SLZZYMYT@CAELT@021455 SLRQYSYX@CAELT@SABO SLRQ 021500@CAELT@METAR SLRQ 021500Z 00000KT 9999 NSC 33/26 Q1010 A2984 HR65=@CAELT@
ZPX0423 021458@CAELT@GG SLZZYMYT@CAELT@021457 SLAGYSYX@CAELT@SABO SLAG 021500@CAELT@METAR SLAG 021500Z 00000KT 1500 FU NSC 31/14 Q1014 A2996 887.1 HR34=@CAELT@
ZPX0426 021458@CAELT@GG SLZZYMYT@CAELT@021458 SLTRYGYZ@CAELT@SABO SLTR 021500@CAELT@METAR SLTR 021500Z 31011KT 7000 NSC 34/23 Q1010 A2984 992.0 HR53@CAELT@FU NOSIG=@CAELT@
ZPX0428 021458@CAELT@GG SLZZYMYT@CAELT@021459 SLVRYGYS@CAELT@SABO SLVR 021500@CAELT@METAR SLVR 021500Z 35014G24KT 9999 NSC 35/22 Q1010 A2983 HR47 NOSIG=@CAELT@METAR SLET 021500Z 32015G27KT 9999 NSC 34/21 Q1010 A2985 HR46 NOSIG=@CAELT@METAR SLAS 021500Z 36010KT 4000 FU NSC 31/24 Q1013 A2991 HR67@CAELT@METAR SLJV 021500Z 36016KT 7000 NSC 34/20 Q1011 A2985 HR48@CAELT@FU RWY NML=METAR SLCP 021500Z 30012KT 9999 SCT070 33/20 Q1015 A2997 HR48METAR SLSI 021500Z 33012KT 8000 NSC 35/21 Q1011 A2985 HR43METAR SLTI 021500Z 00000KT 9999 NSC 38/20 Q1014 A2994 HR36METAR SLJE 021500Z 35012KT 7000 NSC 38/25 Q1013 A2991 HR48METAR SLVG 021500Z 02006KT 9999 NSC 25/10 Q1024 A3024 HR31 RWY NML=METAR SLRB 021500Z 36010KT 8000 NSC 37/20 Q1012 A2988 HR38METAR SLPS 021500Z 27004KT 6000 NSC 38/23 Q1009 A2980 HR45 FU=METAR SLCA 021500Z 00000KT 6000 NSC 31/12 Q1014 A2994 HR32
ZPX0430 021501@CAELT@GG SLZZYMYT@CAELT@021500 SLCBYGYS@CAELT@SABO SLCB 021500@CAELT@METAR SLCB 021500Z 22003KT 9999 FEW036 25/04 Q1024 A3026 751.2 HR27@CAELT@FU CI NOSIG=@CAELT@METAR SLAL 021500Z 09005KT 9999 FEW020 22/04 Q1030 A3041 704.2 HR34@CAELT@METAR SLPO 021500Z NIL=@CAELT@METAR SLAG 021500Z 00000KT 1500 FU NSC 31/14 Q1014 A2996 887.1 HR34=METAR SLVM 021500Z 18010G22KT 8000 NSC 32/21 Q1010 A2985 HR52 FU CI=METAR SLTJ 021500Z 18005KT 9000 FEW025 BKN200 27/10 Q1017 A3005 812.8HR35 FU=METAR SLYA 021500Z 21010KT 9999 NSC 31/16 Q1006 A2973 932.0 HR41 FUMETAR SLBJ 021500Z NIL=METAR SLHI 021500Z NIL=
ZPX0431 021502@CAELT@GG SLZZYMYT@CAELT@021500 SLTRYGYS@CAELT@SABO SLTR 021500@CAELT@METAR SLTR 021500Z 31011KT 7000 NSC 34/23 Q1010 A2984 992.0 HR53@CAELT@FU NOSIG=@CAELT@METAR SLGM 021500Z 36008KT 8000 NSC 31/24 Q1012 A2988 HR66 FU=@CAELT@METAR SLRI 021500Z 05007KT 8000 NSC 32/23 Q1012 A2989 HR58 CI@CAELT@METAR SLJO 021500Z 35010KT 8000 NSC 35/22 Q1010 A2985 HR48 FUCI RWY NML=METAR SLRA 021500Z 03007KT 9999 NSC 34/21 Q1010 A2983 HR46FU RWY NML=METAR SLMG 021500Z 32006KT 9999 NSC 35/21 Q1010 A2983 HR45RWY NML=METAR SLBU 021500Z 32008KT 9999 NSC 34/23 Q1010 A2985 HR52METAR SLSA 021500Z 32014KT 8000 FEW020 34/22 Q1010 A2983 HR48METAR SLSR 021500Z 35010KT 9999 NSC 32/23 Q1008 A2977 HR57METAR SLSM 021500Z 33004KT 9999 NSC 34/23 Q1010 A2983 HR53
ZPX0433 021503@CAELT@GG SLZZYMYT@CAELT@021501 SLLPYFYA@CAELT@SABO SLLP 021500@CAELT@METAR SLLP 021500Z 12004KT 9999 SCT015 BKN200 12/03 Q1039@CAELT@A3069 628.8 HR55 P94// FU AC NOSIG=@CAELT@METAR SLCO 021500Z 28007KT 9999 FEW023 33/24 Q1011 A2988 984.4 HR57@CAELT@METAR SLRY 021500Z 00000KT 9999 NSC 33/24 Q1007 A2976 HR60@CAELT@FU RWY NML=METAR SLRQ 021500Z 00000KT 9999 NSC 33/26 Q1010 A2984 HR65=METAR SLAP 021500Z 00000KT 9999 FEW025 27/17 Q1019 A3010 HR55METAR SLSB 021500Z 31008KT 9999 NSC 33/24 Q1009 A2985 HR61 RWY NML=METAR SLOR 021500Z 26005KT 9999 SCT017 BKN200 16/05 Q1034 A3055 655.5HR46 AC=METAR SLUY 021500Z 30008KT 9999 FEW017 SCT200 14/01 Q1035A3057 659.1 HR42 AC=
ZPX0454 021551@CAELT@GG SLZZYMYT@CAELT@021551 SLPSYGYS@CAELT@SABO SLPS 021600@CAELT@METAR SLPS 021600Z 27010KT 6000 FEW020 40/23 Q1008 A2977 HR40 FU=@CAELT@
ZPX0456 021553@CAELT@GG SLZZYMYT@CAELT@021555 SLSAYGYS@CAELT@SABO SLSA 021600@CAELT@METAR SLSA 021600Z 32014KT 8000 SCT020 36/22 Q1009 A2981 HR44 FU=@CAELT@
ZPX0457 021553@CAELT@GG SLZZYMYT@CAELT@021555 SLSAYGYS@CAELT@SABO SLSA 021600@CAELT@METAR SLSA 021600Z 32014KT 8000 SCT020 36/22 Q1009 A2981 HR44 FU=@CAELT@
ZPX0459 021554@CAELT@GG SLZZYMYT@CAELT@021555 SLVRYGYZ@CAELT@SABO SLVR 021600@CAELT@METAR SLVR 021600Z 33017G27KT 9999 NSC 36/21 Q1009 A2982 HR43 NOSIG=@CAELT@
ZPX0460 021555@CAELT@GG SLZZYMYT@CAELT@021554 SLRYYSYX@CAELT@SABO SLRY 021600@CAELT@METAR SLRY 021600Z 34006KT 9999 NSC 34/24 Q1007 A2976 HR54 FU RWY NML@CAELT@
ZPX0462 021555@CAELT@GG SLZZYMYT@CAELT@021555 SLETYMYC@CAELT@SABO SLET 021555@CAELT@METAR SLET 021500Z 31013G26KT 9999 FEW017 35/21 Q1010 A2983 HR44@CAELT@NOSIG=@CAELT@
ZPX0463 021555@CAELT@GG SLZZYMYT@CAELT@021555 SLAGYSYX@CAELT@SABO SLAG 021600@CAELT@METAR SLAG 021600Z 10003KT 1500 FU NSC 33/15 Q1013 A2994 886.4 HR33=@CAELT@
ZPX0464 021555@CAELT@GG SLZZYMYT@CAELT@021549 SLUYYGYS@CAELT@SABO SLUY 021600@CAELT@METAR SLUY 021600Z 28008KT 9999 FEW025 16/M01 Q1034 A3055@CAELT@658.7 HR31 AC/CI=@CAELT@
ZPX0465 021555@CAELT@GG SLZZYMYT@CAELT@021555 SLCBYGYZ@CAELT@SABO SLCB 021600@CAELT@METAR SLCB 021600Z 21003KT 9999 FEW036 SCT200 27/05 Q1023 A3022 750.2@CAELT@HR24 FU NOSIG=@CAELT@
ZPX0466 021555@CAELT@GG SLZZYMYT@CAELT@021555 SLSBYSYX@CAELT@SABO SLSB 021600@CAELT@METAR SLSB 021600Z 32006KT 9999 NSC 33/24 Q1009 A2980 HR61 RWY NML=@CAELT@
ZPX0467 021555@CAELT@GG SLZZYMYT@CAELT@021555 SLCAYGYS@CAELT@SABO SLCA 021600@CAELT@METAR SLCA 021600Z 00000KT 7000 NSC 34/12 Q1013 A2991 HR27 FU RWY NML@CAELT@
ZPX0469 021556@CAELT@GG SLZZYMYT@CAELT@021554 SLTJYGYZ@CAELT@SABO SLTJ 021600@CAELT@METAR SLTJ 021600Z 12005KT 9000 FEW030 BKN200 28/10 Q1016 A3001 811.8@CAELT@HR32 FU=@CAELT@
ZPX0470 021556@CAELT@GG SLZZYMYT@CAELT@021556 SLTRYGYZ@CAELT@SABO SLTR 021600@CAELT@METAR SLTR 021600Z 30012KT 7000 FEW020 35/23 Q1010 A2983 991.8 HR50@CAELT@FU NOSIG=@CAELT@
ZPX0471 021556@CAELT@GG SLZZYMYT@CAELT@021555 SLRBYGYS@CAELT@SABO SLRB 021600@CAELT@METAR SLRB 021600Z 36015KT 8000 NSC 39/19 Q1011 A2985 HR31 FU RWY NML=@CAELT@
ZPX0472 021556@CAELT@GG SLZZYMYT@CAELT@021557 SLLPYGYZ@CAELT@SABO SLLP 021600@CAELT@METAR SLLP 021600Z 11005KT 9999 SCT017 SCT200 14/03 Q1038@CAELT@A3066 628.1 HR46 P4354 FU AC NOSIG=@CAELT@
ZPX0473 021557@CAELT@GG SLZZYMYT@CAELT@021557 SLCOYGYZ@CAELT@SABO SLCO 021600@CAELT@METAR SLCO 021600Z 25003KT 9999 SCT023 35/24 Q1010 A2985 983.4 HR55=@CAELT@
ZPX0476 021558@CAELT@GG SLZZYMYT@CAELT@021557 SLRQYSYX@CAELT@SABO SLRQ 021600@CAELT@METAR SLRQ 021600Z 00000KT 9999 FEW020 35/26 Q1009 A2982 HR60=@CAELT@
ZPX0477 021558@CAELT@GG SLZZYMYT@CAELT@021558 SLORYGYZ@CAELT@SABO SLOR 021600@CAELT@METAR SLOR 021600Z 07004KT 9999 BKN020 18/05 Q1032 A3049 654.1 HR45@CAELT@AC/CI=@CAELT@
ZPX0479 021600@CAELT@GG SLZZYMYT@CAELT@021600 SLVRYGYS@CAELT@SABO SLVR 021600@CAELT@METAR SLVR 021600Z 33017G27KT 9999 NSC 36/21 Q1009 A2982 HR43 NOSIG=@CAELT@METAR SLET 021500Z 31013G26KT 9999 FEW017 35/21 Q1010 A2983 HR44@CAELT@NOSIG=@CAELT@METAR SLAS 021600Z 36006KT 5000 FU NSC 37/24 Q1012 A2989 HR47@CAELT@RWY NML=METAR SLJV 021600Z NIL=METAR SLCP 021600Z 30010KT 9999 FEW017 SCT070 34/20 Q1014 A2994HR43 FU RWY NML=METAR SLSI 021600Z 36010KT 8000 SCT020 36/22 Q1011 A2985 HR43FU RWY NML=METAR SLTI 021600Z NIL=METAR SLJE 021600Z NIL=METAR SLVG 021600Z NIL=METAR SLRB 021600Z 36015KT 8000 NSC 39/19 Q1011 A2985 HR31 FU RWY NMLMETAR SLPS 021600Z 27010KT 6000 FEW020 40/23 Q1008 A2977 HR40 FU=METAR SLCA 021600Z 00000KT 7000 NSC 34/12 Q1013 A2991 HR27
ZPX0480 021600@CAELT@GG SLZZYMYT@CAELT@021600 SLCBYGYS@CAELT@SABO SLCB 021600@CAELT@METAR SLCB 021600Z 21003KT 9999 FEW036 SCT200 27/05 Q1023 A3022@CAELT@750.2 HR24 FU NOSIG=@CAELT@METAR SLAL 021600Z 02013KT 9999 FEW023 22/04 Q1029 A3039 703.6 HR34@CAELT@METAR SLPO 021600Z NIL=@CAELT@METAR SLAG 021600Z 10003KT 1500 FU NSC 33/15 Q1013 A2994 886.4 HR33=METAR SLVM 021600Z 18012G25KT 8000 NSC 33/21 Q1010 A2984 HR51 FU CI=METAR SLTJ 021600Z 12005KT 9000 FEW030 BKN200 28/10 Q1016 A3001811.8 HR32 FU=METAR SLYA 021600Z 21010KT 9999 NSC 34/16 Q1006 A2972 931.5 HR36 FUMETAR SLBJ 021600Z NIL=METAR SLHI 021500Z NIL=
ZPX0481 021601@CAELT@GG SLZZYMYT@CAELT@021600 SLLPYSYX@CAELT@SABO SLLP 021600@CAELT@METAR SLLP 021600Z 11005KT 9999 SCT017 SCT200 14/03 Q1038 A3066@CAELT@628.1 HR46 P4354 FU AC NOSIG=@CAELT@METAR SLCO 021600Z 25003KT 9999 SCT023 35/24 Q1010 A2985 983.4 HR55=@CAELT@METAR SLRY 021600Z 34006KT 9999 NSC 34/24 Q1007 A2976 HR54 FU RWY@CAELT@NML=METAR SLRQ 021600Z 00000KT 9999 FEW020 35/26 Q1009 A2982 HR60=METAR SLAP 021600Z 00000KT 9999 FEW025 29/16 Q1018 A3008 859.1HR44 AC=METAR SLSB 021600Z 32006KT 9999 NSC 33/24 Q1009 A2980 HR61 RWY NML=METAR SLOR 021600Z 07004KT 9999 BKN020 18/05 Q1032 A3049 654.1 HR45AC/CI=METAR SLUY 021600Z 28008KT 9999 FEW025 16/M01 Q1034 A3055658.7 HR31 AC/CI=
ZPX0482 021601@CAELT@GG SLZZYMYT@CAELT@021600 SLTRYGYS@CAELT@SABO SLTR 021600@CAELT@METAR SLTR 021600Z 30012KT 7000 FEW020 35/23 Q1010 A2983 991.8 HR50@CAELT@FU NOSIG=@CAELT@METAR SLGM 021600Z 32008KT 8000 FEW017 SCT200 33/24 Q1011 A2985@CAELT@HR60 FU=@CAELT@METAR SLRI 021600Z 03005KT 9999 FEW017 34/23 Q1011 A2987 HR55 CI FU=METAR SLJO 021600Z 34010KT 8000 FEW020 36/22 Q1010 A2984 HR46 FURWY NML=METAR SLRA 021600Z 35008KT 9999 FEW023 36/21 Q1009 A2982 HR41 FUMETAR SLMG 021600Z 32008KT 9999 FEW020 36/21 Q1010 A2982 HR45METAR SLBU 021600Z 32006KT 9999 FEW017 35/23 Q1009 A2983 HR50METAR SLSA 021600Z 32014KT 8000 SCT020 36/22 Q1009 A2981 HR44 FU=METAR SLSR 021600Z 35015KT 9999 FEW017 33/22 Q1008 A2977 HR53METAR SLSM 021600Z 33006KT 9999 FEW017 35/22 Q1009 A2981 HR48
ZPX0512 021650@CAELT@GG SLZZYMYT@CAELT@021650 SLRBYGYS@CAELT@SABO SLRB 021700@CAELT@METAR SLRB 021700Z 36015KT 8000 FEW020 40/19 Q1010 A2983 HR30 FU RWY@CAELT@NML=@CAELT@
ZPX0513 021651@CAELT@GG SLZZYMYT@CAELT@021652 SLPSYGYS@CAELT@SABO SLPS 021700@CAELT@METAR SLPS 021700Z 31006KT 5000 FU BKN020 FEW030CB 40/23 Q1007 A2974@CAELT@HR39 CB/N=@CAELT@
ZPX0515 021653@CAELT@GG SLZZYMYT@CAELT@021653 SLCAYGYS@CAELT@SABO SLCA 021700@CAELT@METAR SLCA 021700Z 00000KT 8000 NSC 35/11 Q1012 A2988 HR25 FU RWY NML@CAELT@
ZPX0516 021654@CAELT@GG SLZZYMYT@CAELT@021655 SLETYMYC@CAELT@SABO SLET 021700@CAELT@METAR SLET 021700Z 31015G27KT 9999 FEW017 36/21 Q1009 A2980 HR41@CAELT@NOSIG=@CAELT@
ZPX0517 021654@CAELT@GG SLZZYMYT@CAELT@021654 SLCBYGYZ@CAELT@SABO SLCB 021700@CAELT@METAR SLCB 021700Z 10013KT 050V160 9999 FEW036 SCT200 28/05 Q1021@CAELT@A3017 748.9 HR22 FU NOSIG=@CAELT@
ZPX0518 021654@CAELT@GG SLZZYMYT@CAELT@021655 SLTJYGYZ@CAELT@SABO SLTJ 021700@CAELT@METAR SLTJ 021700Z 13006KT 9000 FEW025 BKN200 30/11 Q1014 A2997 810.6@CAELT@HR31 FU=@CAELT@
ZPX0519 021655@CAELT@GG SLZZYMYT@CAELT@021655 SLVRYGYZ@CAELT@SABO SLVR 021700@CAELT@METAR SLVR 021700Z 34015G25KT 9999 FEW013 36/20 Q1009 A2981 HR40 CI@CAELT@NOSIG=@CAELT@
ZPX0520 021655@CAELT@GG SLZZYMYT@CAELT@021655 SLCOYGYZ@CAELT@SABO SLCO 021700@CAELT@METAR SLCO 021700Z 22010KT 9999 SCT023 36/24 Q1010 A2983 982.7 HR52=@CAELT@
ZPX0521 021655@CAELT@GG SLZZYMYT@CAELT@021655 SLORYGYZ@CAELT@SABO SLOR 021700@CAELT@METAR SLOR 021700Z 02008KT 9999 BKN020 19/06 Q1031 A3047 653.7 HR42@CAELT@
ZPX0522 021655@CAELT@GG SLZZYMYT@CAELT@021653 SLRYYSYX@CAELT@SABO SLRY 021700@CAELT@METAR SLRY 021700Z 34008KT 9999 NSC 35/24 Q1007 A2975 HR53 FU RWY NML@CAELT@
ZPX0523 021655@CAELT@GG SLZZYMYT@CAELT@021656 SLSAYGYS@CAELT@SABO SLSA 021700@CAELT@METAR SLSA 021700Z 32012KT 8000 SCT020 36/22 Q1008 A2979 HR43 FU=@CAELT@
ZPX0524 021655@CAELT@GG SLZZYMYT@CAELT@021656 SLSAYGYS@CAELT@SABO SLSA 021700@CAELT@METAR SLSA 021700Z 32012KT 8000 SCT020 36/22 Q1008 A2979 HR43 FU=@CAELT@
ZPX0525 021656@CAELT@GG SLZZYMYT@CAELT@021656 SLTRYGYZ@CAELT@SABO SLTR 021700@CAELT@METAR SLTR 021700Z 31012KT 8000 FEW020 35/23 Q1009 A2980 990.8 HR49@CAELT@FU NOSIG=@CAELT@
ZPX0528 021656@CAELT@GG SLZZYMYT@CAELT@021649 SLUYYGYS@CAELT@SABO SLUY 021700@CAELT@METAR SLUY 021700Z 28005KT 9999 FEW033 SCT070 18/M00 Q1033@CAELT@A3053 658.2 HR30 CI/CC=@CAELT@
ZPX0529 021656@CAELT@GG SLZZYMYT@CAELT@021655 SLRQYSYX@CAELT@SABO SLRQ 021700@CAELT@METAR SLRQ 021700Z 36004KT 9999 FEW020 35/26 Q1008 A2979 984.8 HR59=@CAELT@
ZPX0530 021656@CAELT@GG SLZZYMYT@CAELT@021655 SLAGYSYX@CAELT@SABO SLAG 021700@CAELT@METAR SLAG 021700Z 03008KT 1500 FU NSC 34/12 Q1012 A2991 885.5 HR27=@CAELT@
ZPX0531 021657@CAELT@GG SLZZYMYT@CAELT@021657 SLLPYGYZ@CAELT@SABO SLLP 021700@CAELT@METAR SLLP 021700Z 08010KT 020V160 9999 SCT017 16/03 Q1037@CAELT@A3063 627.5 HR43 P4354 FU AC/CI NOSIG=@CAELT@
ZPX0532 021657@CAELT@GG SLZZYMYT@CAELT@021656 SLVRYGYS@CAELT@SABO SLVR 021700@CAELT@METAR SLVR 021700Z 34015G25KT 9999 FEW013 36/20 Q1009 A2981 HR40@CAELT@CI NOSIG=@CAELT@METAR SLET 021700Z 31015G27KT 9999 FEW017 36/21 Q1009 A2980 HR41@CAELT@NOSIG=@CAELT@METAR SLAS 021700Z 36010KT 5000 FU NSC 39/24 Q1011 A2986 HR45 RWY NMLMETAR SLCP 021700Z 30012KT 9999 FEW017 SCT070 34/20 Q1013 A2991HR43 FU RWY NML=METAR SLSI 021700Z 33010KT 8000 SCT020 37/20 Q1009 A2980 HR38FU RWY NML=METAR SLRB 021700Z 36015KT 8000 FEW020 40/19 Q1010 A2983 HR30METAR SLPS 021700Z 31006KT 5000 FU BKN020 FEW030CB 40/23 Q1007A2974 HR39 CB/N=METAR SLCA 021700Z 00000KT 8000 NSC 35/11 Q1012 A2988 HR25
ZPX0533 021657@CAELT@GG SLZZYMYT@CAELT@021657 SLTRYGYS@CAELT@SABO SLTR 021700@CAELT@METAR SLTR 021700Z 31012KT 8000 FEW020 35/23 Q1009 A2980 990.8 HR49@CAELT@FU NOSIG=@CAELT@METAR SLGM 021700Z 00000KT 8000 FEW017 34/24 Q1010 A2983 HR55 FU=@CAELT@METAR SLRI 021700Z 16005KT 9999 FEW017 34/23 Q1010 A2984 HR52 FU=@CAELT@METAR SLJO 021700Z 36004KT 8000 FEW020 36/22 Q1009 A2982 HR43 FURWY NML=METAR SLRA 021700Z 36006KT 9999 FEW023 37/21 Q1009 A2981 HR40 FUMETAR SLMG 021700Z 03008KT 9999 SCT020 37/21 Q1009 A2981 HR41 RWYNML=METAR SLBU 021700Z 32004KT 9999 FEW017 36/23 Q1008 A2979 HR46METAR SLSA 021700Z 32012KT 8000 SCT020 36/22 Q1008 A2979 HR43 FU=METAR SLSR 021700Z 35015KT 9999 FEW017 34/23 Q1007 A2975 HR52METAR SLSM 021700Z 33005KT 9999 FEW017 36/22 Q1009 A2980 HR46
ZPX0534 021659@CAELT@GG SLZZYMYT@CAELT@021659 SLCBYGYS@CAELT@SABO SLCB 021700@CAELT@METAR SLCB 021700Z 10013KT 050V160 9999 FEW036 SCT200 28/05 Q1021@CAELT@A3017 748.9 HR22 FU NOSIG=@CAELT@METAR SLAL 021700Z 01018KT 9999 FEW023 22/05 Q1027 A3035 702.8 HR35@CAELT@METAR SLPO 021700Z NIL=@CAELT@METAR SLAG 021700Z 03008KT 1500 FU NSC 34/12 Q1012 A2991 885.5 HR27=METAR SLVM 021700Z 18015G25KT 7000 NSC 33/21 Q1009 A2981 HR50 FU CI=METAR SLTJ 021700Z 13006KT 9000 FEW025 BKN200 30/11 Q1014 A2997810.6 HR31 FU=METAR SLYA 021700Z 21010KT 8000 NSC 34/17 Q1005 A2969 930.7 HR36 FUMETAR SLBJ 021700Z NIL=METAR SLHI 021700Z NIL=
ZPX0536 021700@CAELT@GG SLZZYMYT@CAELT@021700 SLSBYSYX@CAELT@SABO SLSB 021700@CAELT@METAR SLSB 021700Z 33006KT 9999 NSC 34/24 Q1008 A2979 HR58 RWY NML=@CAELT@
ZPX0539 021703@CAELT@GG SLZZYMYT@CAELT@021700 SLLPYFYA@CAELT@SABO SLLP 021700@CAELT@METAR SLLP 021700Z 08010KT 020V160 9999 SCT017 16/03 Q1037@CAELT@A3063 627.5 HR43 P4354 FU AC/CI NOSIG=@CAELT@METAR SLCO 021700Z 22010KT 9999 SCT023 36/24 Q1010 A2983 982.7 HR52=@CAELT@METAR SLRY 021700Z 34008KT 9999 NSC 35/24 Q1007 A2975 HR53@CAELT@FU RWY NML=METAR SLRQ 021700Z 36004KT 9999 FEW020 35/26 Q1008 A2979 984.8 HR59=METAR SLAP 021700Z 00000KT 9999 FEW025 31/17 Q1017 A3004 858.0 HR43AC=METAR SLSB 021700Z 33006KT 9999 NSC 34/24 Q1008 A2979 HR58 RWY NML=METAR SLOR 021700Z 02008KT 9999 BKN020 19/06 Q1031 A3047 653.7 HR42METAR SLUY 021700Z 28005KT 9999 FEW033 SCT070 18/M00 Q1033A3053 658.2 HR30 CI/CC=
ZPX0573 021750@CAELT@GG SLZZYMYT@CAELT@021750 SLCAYGYS@CAELT@SABO SLCA 021800@CAELT@METAR SLCA 021800Z 00000KT 9999 NSC 36/11 Q1010 A2983 HR22 FU RWY NML@CAELT@
ZPX0574 021751@CAELT@GG SLZZYMYT@CAELT@021751 SLPSYGYS@CAELT@SABO SLPS 021800@CAELT@METAR SLPS 021800Z 31005KT 5000 FU SCT020 41/22 Q1006 A2971 HR37=@CAELT@
ZPX0575 021752@CAELT@GG SLZZYMYT@CAELT@021751 SLRBYGYS@CAELT@SABO SLRB 021800@CAELT@METAR SLRB 021800Z 36010KT 8000 FEW020 40/19 Q1009 A2980 HR29 FU RWY@CAELT@NML=@CAELT@
ZPX0576 021754@CAELT@GG SLZZYMYT@CAELT@021755 SLETYMYC@CAELT@SABO SLET 021800@CAELT@METAR SLET 021800Z 31017G30KT 9999 FEW017 37/21 Q1008 A2977 HR400@CAELT@NOSIG=@CAELT@
ZPX0577 021754@CAELT@GG SLZZYMYT@CAELT@021755 SLORYGYZ@CAELT@SABO SLOR 021800@CAELT@METAR SLOR 021800Z 36007KT 9999 SCT020 FEW023CB 19/07 Q1031 A3046 653@CAELT@.6 HR45 CB/SH SW AC/CI=@CAELT@
ZPX0578 021754@CAELT@GG SLZZYMYT@CAELT@021755 SLSAYGYS@CAELT@SABO SLSA 021800@CAELT@METAR SLSA 021800Z 31010KT 8000 SCT020 37/22 Q1008 A2977 HR43 FU=@CAELT@
ZPX0579 021754@CAELT@GG SLZZYMYT@CAELT@021755 SLSAYGYS@CAELT@SABO SLSA 021800@CAELT@METAR SLSA 021800Z 31010KT 8000 SCT020 37/22 Q1008 A2977 HR43 FU=@CAELT@
ZPX0580 021755@CAELT@GG SLZZYMYT@CAELT@021755 SLSBYSYX@CAELT@SABO SLSB 021800@CAELT@METAR SLSB 021800Z 32006KT 9999 FEW020 35/24 Q1007 A2975 HR53 RWY NML=@CAELT@
ZPX0581 021755@CAELT@GG SLZZYMYT@CAELT@021755 SLCBYGYZ@CAELT@SABO SLCB 021800@CAELT@METAR SLCB 021800Z 05009KT 360V120 9999 FEW036 SCT200 28/05 Q1020@CAELT@A3013 747.8 HR23 FU NOSIG=@CAELT@
ZPX0582 021755@CAELT@GG SLZZYMYT@CAELT@021756 SLVRYGYZ@CAELT@SABO SLVR 021800@CAELT@METAR SLVR 021800Z 33014G24KT 9999 FEW013 37/20 Q1008 A2979 HR37 CI@CAELT@FU NOSIG=@CAELT@
ZPX0583 021755@CAELT@GG SLZZYMYT@CAELT@021755 SLAGYSYX@CAELT@SABO SLAG 021800@CAELT@METAR SLAG 021800Z 12008KT 1500 FU NSC 35/13 Q1011 A2988 884.4 HR27=@CAELT@
ZPX0584 021755@CAELT@GG SLZZYMYT@CAELT@021755 SLCOYGYZ@CAELT@SABO SLCO 021800@CAELT@METAR SLCO 021800Z 30008KT 9999 BKN027 36/24 Q1008 A2979 981.4 HR50@CAELT@
ZPX0586 021756@CAELT@GG SLZZYMYT@CAELT@021755 SLRQYSYX@CAELT@SABO SLRQ 021800@CAELT@METAR SLRQ 021800Z 00000KT 9999 FEW020 35/26 Q1007 A2975 983.4 HR59=@CAELT@
ZPX0589 021757@CAELT@GG SLZZYMYT@CAELT@021756 SLTRYGYZ@CAELT@SABO SLTR 021800@CAELT@METAR SLTR 021800Z 30006KT 8000 FEW020 36/23 Q1008 A2977 989.6 HR48@CAELT@FU NOSIG=@CAELT@
ZPX0590 021757@CAELT@GG SLZZYMYT@CAELT@021757 SLLPYGYZ@CAELT@SABO SLLP 021800@CAELT@METAR SLLP 021800Z 06013G24KT 010V080 9999 SCT017 16/M01 Q1036@CAELT@A3061 626.9 HR32 P3483 AC/CI NOSIG=@CAELT@
ZPX0592 021757@CAELT@GG SLZZYMYT@CAELT@021755 SLTJYGYZ@CAELT@SABO SLTJ 021800@CAELT@METAR SLTJ 021800Z 10010KT 8000 TS VCSH FEW030 FEW033CB SCT070 BKN200@CAELT@29/13 Q1014 A2995 810.1 HR36 CB/TS/SH/N/NW FU=@CAELT@
ZPX0593 021757@CAELT@GG SLZZYMYT@CAELT@021757 SLVRYGYS@CAELT@SABO SLVR 021800@CAELT@METAR SLVR 021800Z 33014G24KT 9999 FEW013 37/20 Q1008 A2979 HR37@CAELT@CI FU NOSIG=@CAELT@METAR SLET 021800Z 31017G30KT 9999 FEW017 37/21 Q1008 A2977 HR400@CAELT@NOSIG=@CAELT@METAR SLAS 021800Z 36010KT 5000 FU NSC 39/23 Q1010 A2983 HR40 RWY NMLMETAR SLJV 021800Z 36014KT 7000 NSC 37/20 Q1009 A2980 HR38 FU RWY NMLMETAR SLCP 021800Z 30010KT 9999 FEW017 36/19 Q1012 A2988 HR37FU RWY NML=METAR SLSI 021800Z 36008KT 8000 SCT020 38/20 Q1008 A2977 HR36METAR SLTI 021800Z 35010KT 9999 SCT020 40/19 Q1010 A2983 HR30 RWY NMLMETAR SLJE 021800Z 35008KT 7000 SCT020 41/25 Q1010 A2983 HR42METAR SLVG 021800Z 36007KT 9999 FEW025 26/10 Q1022 A3018 HR29 RWY NMLMETAR SLRB 021800Z 36010KT 8000 FEW020 40/19 Q1009 A2980 HR29METAR SLPS 021800Z 31005KT 5000 FU SCT020 41/22 Q1006 A2971 HR37=METAR SLCA 021800Z 00000KT 9999 NSC 36/11 Q1010 A2983 HR22
ZPX0594 021758@CAELT@GG SLZZYMYT@CAELT@021756 SLRYYSYX@CAELT@SABO SLRY 021800@CAELT@METAR SLRY 021800Z 34010KT 9999 NSC 36/24 Q1006 A2971 HR50 FU RWY NML@CAELT@
ZPX0595 021758@CAELT@GG SLZZYMYT@CAELT@021757 SLTRYGYS@CAELT@SABO SLTR 021800@CAELT@METAR SLTR 021800Z 30006KT 8000 FEW020 36/23 Q1008 A2977 989.6 HR48@CAELT@FU NOSIG=@CAELT@METAR SLGM 021800Z 02010KT 8000 SCT017 35/24 Q1009 A2979 HR54 FU=@CAELT@METAR SLRI 021800Z 10004KT 8000 VCSH SCT017 FEW020CB 35/22@CAELT@Q1009 A2981 HR47 CB/SH W/NW=METAR SLJO 021800Z NIL=METAR SLRA 021800Z NIL=METAR SLMG 021800Z NIL=METAR SLBU 021800Z NIL=METAR SLSA 021800Z 31010KT 8000 SCT020 37/22 Q1008 A2977 HR43 FU=METAR SLSR 021800Z NIL=METAR SLSM 021800Z NIL=
ZPX0596 021759@CAELT@GG SLZZYMYT@CAELT@021759 SLCBYGYS@CAELT@SABO SLCB 021800@CAELT@METAR SLCB 021800Z 05009KT 360V120 9999 FEW036 SCT200 28/05 Q1020@CAELT@A3013 747.8 HR23 FU NOSIG=@CAELT@METAR SLAL 021800Z 36010KT 9999 SCT023 22/03 Q1026 A3032 702.1 HR30@CAELT@METAR SLPO 021800Z NIL=@CAELT@METAR SLAG 021800Z 12008KT 1500 FU NSC 35/13 Q1011 A2988 884.4 HR27=METAR SLVM 021800Z 18010G22KT 7000 NSC 34/22 Q1008 A2977 HR49 FU CI=METAR SLTJ 021800Z 10010KT 8000 TS VCSH FEW030 FEW033CB SCT070 BKN20029/13 Q1014 A2995 810.1 HR36 CB/TS/SH/N/NW FU=METAR SLYA 021800Z 21010KT 8000 NSC 36/18 Q1006 A2972 931.5 HR36 FUMETAR SLBJ 021800Z NIL=METAR SLHI 021800Z NIL=
ZPX0598 021800@CAELT@GG SLZZYMYT@CAELT@021759 SLETYMYC@CAELT@SABO SLET 021800 CCA@CAELT@METAR COR SLET 021800Z 31017G30KT 9999 FEW017 37/21 Q1008 A2977 HR40@CAELT@NOSIG=@CAELT@
ZPX0599 021801@CAELT@GG SLZZYMYT@CAELT@021800 SLLPYFYA@CAELT@SABO SLLP 021800@CAELT@METAR SLLP 021800Z 06013G24KT 010V080 9999 SCT017 16/M01 Q1036@CAELT@A3061 626.9 HR32 P3483 AC/CI NOSIG=@CAELT@METAR SLCO 021800Z 30008KT 9999 BKN027 36/24 Q1008 A2979 981.4 HR50@CAELT@METAR SLRY 021800Z 34010KT 9999 NSC 36/24 Q1006 A2971 HR50@CAELT@FU RWY NML=METAR SLRQ 021800Z 00000KT 9999 FEW020 35/26 Q1007 A2975 983.4 HR59=METAR SLAP 021800Z 36005KT 9999 FEW025 31/14 Q1016 A3012 857.3 HR36AC=METAR SLSB 021800Z 32006KT 9999 FEW020 35/24 Q1007 A2975 HR53 RWY NMLMETAR SLOR 021800Z 36007KT 9999 SCT020 FEW023CB 19/07 Q1031 A3046 653.6 HR45 CB/SH SW AC/CI=
ZPX0620 021851@CAELT@GG SLZZYMYT@CAELT@021850 SLRBYGYS@CAELT@SABO SLRB 021900@CAELT@METAR SLRB 021900Z 36010KT 8000 FEW020 40/19 Q1008 A2977 HR29 FU RWY@CAELT@NML=@CAELT@
ZPX0621 021852@CAELT@GG SLZZYMYT@CAELT@021852 SLCAYGYS@CAELT@SABO SLCA 021900@CAELT@METAR SLCA 021900Z 21005KT 9999 NSC 36/11 Q1009 A2980 HR24 FU RWY NML@CAELT@
ZPX0623 021853@CAELT@GG SLZZYMYT@CAELT@021854 SLPSYGYS@CAELT@SABO SLPS 021900@CAELT@METAR SLPS 021900Z 31006KT 5000 FU SCT020 FEW030CB 39/23 Q1005 A2968@CAELT@HR41 CB/N=@CAELT@
ZPX0624 021853@CAELT@GG SLZZYMYT@CAELT@021855 SLSAYGYS@CAELT@SABO SLSA 021900@CAELT@METAR SLSA 021900Z 32007KT 8000 SCT020 37/23 Q1007 A2975 HR44 FU=@CAELT@
ZPX0625 021853@CAELT@GG SLZZYMYT@CAELT@021855 SLSAYGYS@CAELT@SABO SLSA 021900@CAELT@METAR SLSA 021900Z 32007KT 8000 SCT020 37/23 Q1007 A2975 HR44 FU=@CAELT@
ZPX0626 021853@CAELT@GG SLZZYMYT@CAELT@021853 SLRYYSYX@CAELT@SABO SLRY 021900@CAELT@METAR SLRY 021900Z 34010KT 9999 NSC 36/23 Q1005 A2970 HR47 FU RWY NML@CAELT@
ZPX0627 021854@CAELT@GG SLZZYMYT@CAELT@021854 SLCBYGYZ@CAELT@SABO SLCB 021900@CAELT@METAR SLCB 021900Z 02011KT 330V070 9999 FEW036 29/05 Q1020 A3012 747.@CAELT@5 HR22 FU CI NOSIG=@CAELT@
ZPX0629 021855@CAELT@GG SLZZYMYT@CAELT@021855 SLVRYGYZ@CAELT@SABO SLVR 021900@CAELT@METAR SLVR 021900Z 34014G25KT 9999 FEW015 SCT200 36/19 Q1007 A2976@CAELT@HR38 FU NOSIG=@CAELT@
ZPX0630 021855@CAELT@GG SLZZYMYT@CAELT@021855 SLRQYSYX@CAELT@SABO SLRQ 021900@CAELT@METAR SLRQ 021900Z 36004KT 9999 FEW020 36/26 Q1006 A2972 982.5 HR58=@CAELT@
ZPX0631 021855@CAELT@GG SLZZYMYT@CAELT@021855 SLSBYSYX@CAELT@SABO SLSB 021900@CAELT@METAR SLSB 021900Z 31005KT 9999 FEW020 36/23 Q1006 A2973 HR48 RWY NML=@CAELT@
ZPX0632 021855@CAELT@GG SLZZYMYT@CAELT@021855 SLCOYGYZ@CAELT@SABO SLCO 021900@CAELT@METAR SLCO 021900Z 22008KT 9999 BKN030 36/24 Q1007 A2976 980.3 HR49@CAELT@FU=@CAELT@
ZPX0634 021855@CAELT@GG SLZZYMYT@CAELT@021857 SLLPYGYZ@CAELT@SABO SLLP 021900@CAELT@METAR SLLP 021900Z 07010G20KT 9999 SCT017 FEW020CB SCT200 14/M02@CAELT@Q1035 A3059 626.5 HR33 P94// CB/SH SW/W/NW AC NOSIG=@CAELT@
ZPX0635 021856@CAELT@GG SLZZYMYT@CAELT@021854 SLETYMYC@CAELT@SABO SLET 021900@CAELT@METAR SLET 021900Z 32015G27KT 9999 NSC 36/20 Q1007 A2975 HR39 CI@CAELT@NOSIG=@CAELT@
ZPX0637 021856@CAELT@GG SLZZYMYT@CAELT@021856 SLTRYGYZ@CAELT@SABO SLTR 021900@CAELT@METAR SLTR 021900Z 28008KT 8000 FEW020 36/22 Q1007 A2974 988.6 HR45@CAELT@FU NOSIG=@CAELT@
ZPX0639 021857@CAELT@GG SLZZYMYT@CAELT@021855 SLAGYSYX@CAELT@SABO SLAG 021900@CAELT@METAR SLAG 021900Z 12010KT 3000 FU FEW020 35/13 Q1010 A2984 883.3@CAELT@HR26=@CAELT@
ZPX0640 021858@CAELT@GG SLZZYMYT@CAELT@021856 SLTJYGYZ@CAELT@SABO SLTJ 021900@CAELT@METAR SLTJ 021900Z 13012KT 8000 VCSH SCT030 FEW033CB SCT070 BKN200 26@CAELT@/15 Q1014 A2996 810.5 HR53 CB/N/NE/SW SH/N/NE FU RETS=@CAELT@
ZPX0643 021900@CAELT@GG SLZZYMYT@CAELT@021900 SLCBYGYS@CAELT@SABO SLCB 021900@CAELT@METAR SLCB 021900Z 02011KT 330V070 9999 FEW036 29/05 Q1020 A3012@CAELT@747.5 HR22 FU CI NOSIG=@CAELT@METAR SLAL 021900Z 03013KT 9999 SCT023 SCT200 22/04 Q1026 A3030@CAELT@701.7 HR30=@CAELT@METAR SLPO 021900Z NIL=METAR SLAG 021900Z 12010KT 3000 FU FEW020 35/13 Q1010 A2984 883.3HR26=METAR SLVM 021900Z NIL=METAR SLTJ 021900Z 13012KT 8000 VCSH SCT030 FEW033CB SCT070 BKN20026/15 Q1014 A2996 810.5 HR53 CB/N/NE/SW SH/N/NE FU RETS=METAR SLBJ 021900Z NIL=METAR SLHI 021900Z NIL=
ZPX0646 021902@CAELT@GG SLZZYMYT@CAELT@021900 SLTRYGYS@CAELT@SABO SLTR 021900@CAELT@METAR SLTR 021900Z 28008KT 8000 FEW020 36/22 Q1007 A2974 988.6 HR45@CAELT@FU NOSIG=@CAELT@METAR SLGM 021900Z 00000KT 8000 SCT017 36/25 Q1008 A2977 HR53 FU=@CAELT@METAR SLRI 021900Z 10006KT 8000 VCSH SCT017 FEW020CB 36/22@CAELT@Q1008 A2978 HR43 CB/SH N/SE=METAR SLJO 021900Z NIL=METAR SLRA 021900Z NIL=METAR SLMG 021900Z NIL=METAR SLBU 021900Z NIL=METAR SLSA 021900Z 32007KT 8000 SCT020 37/23 Q1007 A2975 HR44 FU=METAR SLSR 021900Z NIL=METAR SLSM 021900Z NIL=
ZPX0650 021903@CAELT@GG SLZZYMYT@CAELT@021900 SLLPYFYA@CAELT@SABO SLLP 021900@CAELT@METAR SLLP 021900Z 07010G20KT 9999 SCT017 FEW020CB SCT200 14/M02@CAELT@Q1035 A3059 626.5 HR33 P94// CB/SH SW/W/NW AC NOSIG=@CAELT@METAR SLCO 021900Z 22008KT 9999 BKN030 36/24 Q1007 A2976 980.3 HR49@CAELT@FU=@CAELT@METAR SLRY 021900Z 34010KT 9999 NSC 36/23 Q1005 A2970 HR47FU RWY NML=METAR SLRQ 021900Z 36004KT 9999 FEW020 36/26 Q1006 A2972 982.5 HR58=METAR SLSB 021900Z 31005KT 9999 FEW020 36/23 Q1006 A2973 HR48 RWY NML
ZPX0651 021903@CAELT@GG SLZZYMYT@CAELT@021902 SLVRYGYS@CAELT@SABO SLVR 021900@CAELT@METAR SLVR 021900Z 34014G25KT 9999 FEW015 SCT200 36/19 Q1007@CAELT@A2976 HR38 FU NOSIG=@CAELT@METAR SLET 021900Z 32015G27KT 9999 NSC 36/20 Q1007 A2975 HR39@CAELT@CI NOSIG=@CAELT@METAR SLAS 021900Z 36010KT 5000 FU NSC 40/23 Q1008 A2977 HR38 RWY NMLMETAR SLJV 021900Z 36014KT 7000 NSC 37/20 Q1008 A2980 HR36FU RWY NML=METAR SLCP 021900Z 30007KT 9999 SCT017 36/19 Q1011 A2985 HR37METAR SLSI 021900Z 33010KT 8000 SCT020 38/21 Q1008 A2977 HR36METAR SLTI 021900Z 35015G25KT 9999 FEW020 37/20 Q1010 A2983 HR38RWY NML=METAR SLJE 021900Z 35006KT 7000 SCT020 40/24 Q1009 A2980 HR42METAR SLVG 021900Z 02007KT 9999 FW025 27/10 Q1022 A3018 HR31 RWY NML=METAR SLRB 021900Z 36010KT 8000 FEW020 40/19 Q1008 A2977 HR29METAR SLPS 021900Z 31006KT 5000 FU SCT020 FEW030CB 39/23 Q1005A2968 HR41 CB/N=METAR SLCA 021900Z 21005KT 9999 NSC 36/11 Q1009 A2980 HR24
ZPX0675 021953@CAELT@GG SLZZYMYT@CAELT@021953 SLPSYGYS@CAELT@SABO SLPS 022000@CAELT@METAR SLPS 022000Z 31004KT 5000 FU SCT020 BKN200 39/24 Q1005 A2968@CAELT@HR44=@CAELT@
ZPX0678 021954@CAELT@GG SLZZYMYT@CAELT@021955 SLSAYGYS@CAELT@SABO SLSA 022000@CAELT@METAR SLSA 022000Z 32010KT 8000 SCT020 37/23 Q1006 A2972 HR44 FU=@CAELT@
ZPX0679 021954@CAELT@GG SLZZYMYT@CAELT@021955 SLVRYGYZ@CAELT@SABO SLVR 022000@CAELT@METAR SLVR 022000Z 33015G25KT 9999 FEW015 SCT200 36/18 Q1007 A2975@CAELT@HR35 FU NOSIG=@CAELT@
ZPX0680 021955@CAELT@GG SLZZYMYT@CAELT@021955 SLSAYGYS@CAELT@SABO SLSA 022000@CAELT@METAR SLSA 022000Z 32010KT 8000 SCT020 37/23 Q1006 A2972 HR44 FU=@CAELT@
ZPX0681 021955@CAELT@GG SLZZYMYT@CAELT@021955 SLCAYGYS@CAELT@SABO SLCA 022000@CAELT@METAR SLCA 022000Z 21005KT 9999 NSC 36/12 Q1008 A2977 HR25 FU RWY NML@CAELT@
ZPX0682 021955@CAELT@GG SLZZYMYT@CAELT@021955 SLETYMYC@CAELT@SABO SLET 022000@CAELT@METAR SLET 022000Z 32015G26KT 9999 NSC 36/20 Q1006 A2973 HR40 CI@CAELT@NOSIG=@CAELT@
ZPX0683 021955@CAELT@GG SLZZYMYT@CAELT@021954 SLTJYGYZ@CAELT@SABO SLTJ 022000@CAELT@METAR SLTJ 022000Z 11004KT 9000 FEW030 SCT070 BKN200 28/11 Q1014@CAELT@A2995 810.1 HR36 FU=@CAELT@
ZPX0684 021955@CAELT@GG SLZZYMYT@CAELT@021956 SLCOYGYZ@CAELT@SABO SLCO 022000@CAELT@METAR SLCO 022000Z 30008KT 9999 SCT030 FEW033CB 36/23 Q1006 A2972 979@CAELT@.3 HR48 FU CB/N AC/CI=@CAELT@
ZPX0685 021955@CAELT@GG SLZZYMYT@CAELT@021955 SLSBYSYX@CAELT@SABO SLSB 022000@CAELT@METAR SLSB 022000Z 30005KT 9999 FEW020 36/23 Q1005 A2970 HR47 RWY NML=@CAELT@
ZPX0686 021956@CAELT@GG SLZZYMYT@CAELT@021957 SLLPYGYZ@CAELT@SABO SLLP 022000@CAELT@METAR SLLP 022000Z 07014KT 9999 SCT017 FEW020CB BKN200 12/00@CAELT@Q1035 A3058 626.3 HR43 P94// CB/SH SW/W/NW AC NOSIG=@CAELT@
ZPX0687 021956@CAELT@GG SLZZYMYT@CAELT@021955 SLRQYSYX@CAELT@SABO SLRQ 022000@CAELT@METAR SLRQ 02200Z 02004KT 9999 FEW020 36/25 Q1005 A2970 981.7 HR52 CI=@CAELT@
ZPX0688 021956@CAELT@GG SLZZYMYT@CAELT@021956 SLTRYGYZ@CAELT@SABO SLTR 022000@CAELT@METAR SLTR 022000Z 28008KT 8000 FEW020 36/23 Q1006 A2971 987.6 HR45@CAELT@FU NOSIG=@CAELT@
ZPX0689 021956@CAELT@GG SLZZYMYT@CAELT@021954 SLRYYSYX@CAELT@SABO SLRY 022000@CAELT@METAR SLRY 022000Z 34006KT 9999 NSC 36/24 Q1004 A2967 HR49 FU RWY NML@CAELT@
ZPX0690 021957@CAELT@GG SLZZYMYT@CAELT@021957 SLCBYGYZ@CAELT@SABO SLCB 022000@CAELT@METAR SLCB 022000Z 35010KT 310V060 9999 FEW036 FEW040CB SCT200 28/03@CAELT@Q1020 A3012 747.5 HR21 CB DIST NE/SW FU NOSIG=@CAELT@
ZPX0691 021958@CAELT@GG SLZZYMYT@CAELT@021956 SLRBYGYS@CAELT@SABO SLRB 022000@CAELT@METAR SLRB 022000Z 36006KT 8000 SCT020 40/19 Q1008 A2977 HR29 FU RWY@CAELT@NML=@CAELT@
ZPX0692 021959@CAELT@GG SLZZYMYT@CAELT@021958 SLTRYGYS@CAELT@SABO SLTR 022000@CAELT@METAR SLTR 022000Z 28008KT 8000 FEW020 36/23 Q1006 A2971 987.6 HR45@CAELT@FU NOSIG=@CAELT@METAR SLGM 022000Z 32006KT 8000 SCT017 FEW020CB 36/25 Q1006 A2972@CAELT@HR53 FU CB NE=@CAELT@METAR SLRI 022000Z 07006KT 9999 FEW017 FEW020CB 36/21 Q1007 A2974HR41 CB N=METAR SLJO 022000Z NIL=METAR SLRA 022000Z NIL=METAR SLMG 022000Z NIL=METAR SLBU 022000Z NIL=METAR SLSA 022000Z 32010KT 8000 SCT020 37/23 Q1006 A2972 HR44 FU=METAR SLSR 022000Z NIL=METAR SLSM 022000Z NIL=
ZPX0693 021959@CAELT@GG SLZZYMYT@CAELT@021959 SLVRYGYS@CAELT@SABO SLVR 022000@CAELT@METAR SLVR 022000Z 33015G25KT 9999 FEW015 SCT200 36/18 Q1007 A2975@CAELT@HR35 FU NOSIG=@CAELT@METAR SLET 022000Z 32015G26KT 9999 NSC 36/20 Q1006 A2973 HR40 CI@CAELT@NOSIG=@CAELT@METAR SLAS 022000Z 36010KT 5000 FU NSC 40/23 Q1007 A2974 HR38 RWY NMLMETAR SLJV 022000Z 36014KT 7000 NSC 36/20 Q1008 A2980 HR43 FU RWY NMLMETAR SLCP 022000Z 30008KT 9999 SCT017 35/19 Q1010 A2983 HR38FU RWY NML=METAR SLSI 022000Z 33008KT 8000 SCT020 38/21 Q1006 A2971 HR37METAR SLTI 022000Z 34015G27KT 9999 FEW020 36/20 Q1009 A2980HR40 RWY NML=METAR SLJE 022000Z 35006KT 7000 FEW020 40/24 Q1009 A2980 HR42METAR SLVG 022000Z 02009KT 9999 NSC 26/09 Q1021 A3015 HR29 RWY NML=METAR SLRB 022000Z 36006KT 8000 SCT020 40/19 Q1008 A2977 HR29METAR SLPS 022000Z 31004KT 5000 FU SCT020 BKN200 39/24 Q1005A2968 HR44=METAR SLCA 022000Z 21005KT 9999 NSC 36/12 Q1008 A2977 HR25
ZPX0696 022001@CAELT@GG SLZZYMYT@CAELT@022000 SLLPYSYX@CAELT@SABO SLLP 022000@CAELT@METAR SLLP 022000Z 07014KT 9999 SCT017 FEW020CB BKN200 12/00 Q1035@CAELT@A3058 626.3 HR43 P94// CB/SH SW/W/NW AC NOSIG=@CAELT@METAR SLCO 022000Z 30008KT 9999 SCT030 FEW033CB 36/23 Q1006 A2972@CAELT@979.3 HR48 FU CB/N AC/CI=@CAELT@METAR SLRY 022000Z 34006KT 9999 NSC 36/24 Q1004 A2967 HR49 FU RWYNML=METAR SLRQ 022000Z 02004KT 9999 FEW020 36/25 Q1005 A2970 981.7 HR52METAR SLSB 022000Z 30005KT 9999 FEW020 36/23 Q1005 A2970 HR47 RWY NML
ZPX0697 022002@CAELT@GG SLZZYMYT@CAELT@022000 SLCBYGYS@CAELT@SABO SLCB 022000@CAELT@METAR SLCB 022000Z 35010KT 310V060 9999 FEW036 FEW040CB SCT200 28/03@CAELT@Q1020 A3012 747.5 HR21 CB DIST NE/SW FU NOSIG=@CAELT@METAR SLAL 022000Z 02016KT 9999 SCT023 BKN200 21/07 Q1026 A3030@CAELT@701.6 HR39=@CAELT@METAR SLPO 022000Z NIL=METAR SLAG 022000Z NIL=METAR SLVM 022000Z NIL=METAR SLTJ 022000Z 11004KT 9000 FEW030 SCT070 BKN200 28/11 Q1014A2995 810.1 HR36 FU=METAR SLYA 022000Z NIL=METAR SLBJ 022000Z NIL=METAR SLHI 022000Z NIL=
ZPX0717 022049@CAELT@GG SLZZYMYT@CAELT@022049 SLCAYGYS@CAELT@SABO SLCA 022100@CAELT@METAR SLCA 022100Z 00000KT 9999 SCT033 36/12 Q1008 A2977 HR25 FU RWY@CAELT@NML=@CAELT@
ZPX0718 022052@CAELT@GG SLZZYMYT@CAELT@022052 SLPSYGYS@CAELT@SABO SLPS 022100@CAELT@METAR SLPS 022100Z 31004KT 4000 FU SCT020 38/24 Q1005 A2968 HR45=@CAELT@
ZPX0721 022054@CAELT@GG SLZZYMYT@CAELT@022055 SLETYMYC@CAELT@SABO SLET 022100@CAELT@METAR SLET 022100Z 32014G25KT 9999 NSC 34/20 Q1006 A2973 HR43 CI@CAELT@NOSIG=@CAELT@
ZPX0723 022054@CAELT@GG SLZZYMYT@CAELT@022055 SLSAYGYS@CAELT@SABO SLSA 022100@CAELT@METAR SLSA 022100Z 34005KT 8000 SCT020 34/22 Q1006 A2971 HR48 FU=@CAELT@
ZPX0724 022054@CAELT@GG SLZZYMYT@CAELT@022055 SLSAYGYS@CAELT@SABO SLSA 022100@CAELT@METAR SLSA 022100Z 34005KT 8000 SCT020 34/22 Q1006 A2971 HR48 FU=@CAELT@
ZPX0725 022054@CAELT@GG SLZZYMYT@CAELT@022055 SLTJYGYZ@CAELT@SABO SLTJ 022100@CAELT@METAR SLTJ 022100Z 06004KT 9000 FEW030 SCT070 BKN200 27/13 Q1014@CAELT@A2995 810.1 HR44 FU=@CAELT@
ZPX0726 022054@CAELT@GG SLZZYMYT@CAELT@022053 SLRYYSYX@CAELT@SABO SLRY 022100@CAELT@METAR SLRY 022100Z 00000KT 9999 NSC 36/23 Q1004 A2965 HR47 FU RWY NML@CAELT@
ZPX0727 022055@CAELT@GG SLZZYMYT@CAELT@022056 SLVRYGYZ@CAELT@SABO SLVR 022100@CAELT@METAR SLVR 022100Z 34011G21KT 9999 NSC 35/19 Q1006 A2973 HR40 CI FU@CAELT@NOSIG=@CAELT@
ZPX0728 022055@CAELT@GG SLZZYMYT@CAELT@022055 SLCOYGYZ@CAELT@SABO SLCO 022100@CAELT@METAR SLCO 022100Z 33004KT 8000 FEW030 FEW033CB 35/23 Q1006 A2971 978@CAELT@.7 HR49 FU CB/NE/S AC/CI=@CAELT@
ZPX0729 022056@CAELT@GG SLZZYMYT@CAELT@022057 SLLPYGYZ@CAELT@SABO SLLP 022100@CAELT@METAR SLLP 022100Z 05014KT 9999 FEW015 FEW017CB SCT070 BKN200 10/01@CAELT@Q1035 A3057 626.1 HR53 P93// CB/SH SW/W NOSIG=@CAELT@
ZPX0730 022056@CAELT@GG SLZZYMYT@CAELT@022056 SLTRYGYZ@CAELT@SABO SLTR 022100@CAELT@METAR SLTR 022100Z 30004KT 8000 FEW020 36/23 Q1005 A2968 986.8 HR48@CAELT@FU NOSIG=@CAELT@
ZPX0731 022056@CAELT@GG SLZZYMYT@CAELT@022055 SLRQYSYX@CAELT@SABO SLRQ 022100@CAELT@METAR SLRQ 022100Z 02004KT 9999 FEW020 35/25 Q1005 A2968 981.1 HR55@CAELT@
ZPX0732 022056@CAELT@GG SLZZYMYT@CAELT@022056 SLCBYGYZ@CAELT@SABO SLCB 022100@CAELT@METAR SLCB 022100Z 34008KT 9999 FEW036 FEW040CB BKN200 27/04 Q1019@CAELT@A3011 747.1 HR22 CB DIST SW/W/NE AC FU NOSIG=@CAELT@
ZPX0733 022057@CAELT@GG SLZZYMYT@CAELT@022056 SLRBYGYS@CAELT@SABO SLRB 022100@CAELT@METAR SLRB 022100Z 36004KT 8000 FEW020 35/21 Q1008 A2977 HR44 FU RWY@CAELT@NML=@CAELT@
ZPX0734 022057@CAELT@GG SLZZYMYT@CAELT@022056 SLSBYSYX@CAELT@SABO SLSB 022100@CAELT@METAR SLSB 022100Z 32005KT 9999 FEW020 36/23 Q1005 A2969 HR47 RWY NML=@CAELT@
ZPX0736 022058@CAELT@GG SLZZYMYT@CAELT@022058 SLVRYGYS@CAELT@SABO SLVR 022100@CAELT@METAR SLVR 022100Z 34011G21KT 9999 NSC 35/19 Q1006 A2973 HR40@CAELT@CI FU NOSIG=@CAELT@METAR SLET 022100Z 32014G25KT 9999 NSC 34/20 Q1006 A2973 HR43@CAELT@CI NOSIG=@CAELT@METAR SLAS 022100Z 36006KT 5000 FU NSC 38/23 Q1007 A2974 HR43 RWY NMLMETAR SLJV 022100Z 36010KT 7000 NSC 35/20 Q1007 A2974 HR41 FU RWY NMLMETAR SLCP 022100Z 30007KT 9999 SCT017 35/20 Q1010 A2983 HR42FU RWY NML=METAR SLSI 022100Z 00000KT 8000 SCT020 FEW030CB 27/23 Q1008 A2977HR78 FU CB/N/NE RERA RWY WET OPR=METAR SLTI 022100Z 35012KT 9999 FEW020 35/20 Q1011 A2985 HR41 RWY NMLMETAR SLJE 022100Z 35006KT 7000 FEW020 39/24 Q1008 A2977 HR43METAR SLVG 022100Z 02006KT 9999 NSC 24/10 Q1021 A3015 HR37 RWY NML=METAR SLRB 022100Z 36004KT 8000 FEW020 35/21 Q1008 A2977 HR44METAR SLPS 022100Z 31004KT 4000 FU SCT020 38/24 Q1005 A2968 HR45=METAR SLCA 022100Z 00000KT 9999 SCT033 36/12 Q1008 A2977 HR25
ZPX0737 022058@CAELT@GG SLZZYMYT@CAELT@022058 SLTRYGYS@CAELT@SABO SLTR 022100@CAELT@METAR SLTR 022100Z 30004KT 8000 FEW020 36/23 Q1005 A2968 986.8 HR48@CAELT@FU NOSIG=@CAELT@METAR SLGM 022100Z 35006KT 8000 FEW017 FEW020CB BKN200 35/25 Q1005@CAELT@A2969 HR55 FU CB NE=@CAELT@METAR SLRI 022100Z 00000KT 9999 FEW017 BKN200 35/22 Q1006 A2971 HR46=METAR SLJO 022100Z NIL=METAR SLRA 022100Z NIL=METAR SLMG 022100Z NIL=METAR SLBU 022100Z NIL=METAR SLSA 022100Z 34005KT 8000 SCT020 34/22 Q1006 A2971 HR48 FU=METAR SLSR 022100Z NIL=METAR SLSM 022100Z NIL=
ZPX0740 022100@CAELT@GG SLZZYMYT@CAELT@022100 SLCBYGYS@CAELT@SABO SLCB 022100@CAELT@METAR SLCB 022100Z 34008KT 9999 FEW036 FEW040CB BKN200 27/04 Q1019@CAELT@A3011 747.1 HR22 CB DIST SW/W/NE AC FU NOSIG=@CAELT@METAR SLAL 022100Z 02017KT 9999 SCT020 BKN200 20/07 Q1026 A3029 701.4@CAELT@HR45=@CAELT@METAR SLTJ 022100Z 06004KT 9000 FEW030 SCT070 BKN200 27/13 Q1014A2995 810.1 HR44 FU=
ZPX0743 022110@CAELT@GG SLZZYMYT@CAELT@022100 SLLPYFYA@CAELT@SABO SLLP 022100@CAELT@METAR SLLP 022100Z 05014KT 9999 FEW015 FEW017CB SCT070 BKN200 10/01@CAELT@Q1035 A3057 626.1 HR53 P93// CB/SH SW/W NOSIG=@CAELT@METAR SLCO 022100Z 33004KT 8000 FEW030 FEW033CB 35/23 Q1006 A2971@CAELT@978.7 HR49 FU CB/NE/S AC/CI=@CAELT@METAR SLRY 022100Z 00000KT 9999 NSC 36/23 Q1004 A2965 HR47 FU RWYNML=METAR SLRQ 022100Z 02004KT 9999 FEW020 35/25 Q1005 A2968 981.1 HR55METAR SLSB 022100Z 32005KT 9999 FEW020 36/23 Q1005 A2969 HR47 RWY NML
ZPX0750 022152@CAELT@GG SLZZYMYT@CAELT@022153 SLPSYGYS@CAELT@SABO SLPS 022200@CAELT@METAR SLPS 022200Z 31004KT 4000 FU FEW020 38/24 Q1005 A2968 HR50=@CAELT@
ZPX0751 022154@CAELT@GG SLZZYMYT@CAELT@022153 SLRYYSYX@CAELT@SABO SLRY 022200@CAELT@METAR SLRY 022200Z 00000KT 9999 NSC 33/25 Q1003 A2964 HR63 FU RWY NML@CAELT@
ZPX0752 022154@CAELT@GG SLZZYMYT@CAELT@022155 SLSBYSYX@CAELT@SABO SLSB 022200@CAELT@METAR SLSB 022200Z 30003KT 9999 NSC 34/24 Q1005 A2969 HR64 RWY NML=@CAELT@
ZPX0753 022154@CAELT@GG SLZZYMYT@CAELT@022155 SLSAYGYS@CAELT@SABO SLSA 022200@CAELT@METAR SLSA 022200Z 00000KT 8000 FEW020 SCT200 34/23 Q1006 A2971@CAELT@HR52 FU=@CAELT@
ZPX0754 022154@CAELT@GG SLZZYMYT@CAELT@022155 SLSAYGYS@CAELT@SABO SLSA 022200@CAELT@METAR SLSA 022200Z 00000KT 8000 FEW020 SCT200 34/23 Q1006 A2971@CAELT@HR52 FU=@CAELT@
ZPX0755 022155@CAELT@GG SLZZYMYT@CAELT@022155 SLRQYSYX@CAELT@SABO SLRQ 022200@CAELT@METAR SLRQ 022200Z 00000KT 9999 FEW020 SCT200 32/25 Q1005 A2968 981.0@CAELT@HR66=@CAELT@
ZPX0756 022155@CAELT@GG SLZZYMYT@CAELT@022155 SLVRYGYZ@CAELT@SABO SLVR 022200@CAELT@METAR SLVR 022200Z 32010KT 9999 NSC 32/19 Q1007 A2974 HR47 CI NOSIG=@CAELT@
ZPX0757 022155@CAELT@GG SLZZYMYT@CAELT@022154 SLRBYGYS@CAELT@SABO SLRB 022200@CAELT@METAR SLRB 022200Z 00000KT 8000 NSC 34/22 Q1008 A2980 HR50 FU RWY NML=@CAELT@
ZPX0758 022155@CAELT@GG SLZZYMYT@CAELT@022155 SLETYMYC@CAELT@SABO SLET 022200@CAELT@METAR SLET 022200Z 32011KT 9999 NSC 33/19 Q1007 A2974 HR43 NOSIG=@CAELT@
ZPX0759 022156@CAELT@GG SLZZYMYT@CAELT@022155 SLCAYGYS@CAELT@SABO SLCA 022200@CAELT@METAR SLCA 022200Z 00000KT 8000 NSC 34/14 Q1009 A2980 HR31 FU CS RWY@CAELT@NML=@CAELT@
ZPX0760 022156@CAELT@GG SLZZYMYT@CAELT@022156 SLTRYGYZ@CAELT@SABO SLTR 022200@CAELT@METAR SLTR 022200Z 00000KT 6000 NSC 35/23 Q1005 A2969 987.1 HR50@CAELT@FU NOSIG=@CAELT@
ZPX0762 022156@CAELT@GG SLZZYMYT@CAELT@022157 SLLPYGYZ@CAELT@SABO SLLP 022200@CAELT@METAR SLLP 022200Z 04008KT 9999 FEW015 FEW017CB SCT070 BKN200 10/01@CAELT@Q1036 A3060 626.7 HR52 P93// CB/SH SW/NW NOSIG=@CAELT@
ZPX0763 022158@CAELT@GG SLZZYMYT@CAELT@022158 SLVRYGYS@CAELT@SABO SLVR 022200@CAELT@METAR SLVR 022200Z 32010KT 9999 NSC 32/19 Q1007 A2974 HR47 CI NOSIG=@CAELT@METAR SLET 022200Z 32011KT 9999 NSC 33/19 Q1007 A2974 HR43 NOSIG=@CAELT@METAR SLAS 022200Z 00000KT 4000 FU 37/23 Q1007 A2974 HR48 RWY NML=@CAELT@METAR SLJV 022200Z 36010KT 7000 NSC 34/20 Q1007 A2974 HR49@CAELT@FU RWY NML=METAR SLCP 022200Z 00000KT 9999 SCT017 34/20 Q1010 A2983 HR47METAR SLSI 022200Z 00000KT 9999 SCT020 28/23 Q1008 A2977 HR78FU RWY HUM OPR=METAR SLTI 022200Z 00000KT 9999 NSC 32/21 Q1010 A2983 HR55CI RWY NML=METAR SLJE 022200Z 35006KT 7000 FEW020 FEW030CB 38/24 Q1009A2980 HR44CB/E FU RWY NML=METAR SLVG 022200Z NIL=METAR SLRB 022200Z 00000KT 8000 NSC 34/22 Q1008 A2980 HR50METAR SLPS 022200Z 31004KT 4000 FU FEW020 38/24 Q1005 A2968 HR50=METAR SLCA 022200Z 00000KT 8000 NSC 34/14 Q1009 A2980 HR31FU CS RWY NML=
ZPX0764 022159@CAELT@GG SLZZYMYT@CAELT@022158 SLCBYGYZ@CAELT@SABO SLCB 022200@CAELT@METAR SLCB 022200Z 18010KT 110V250 9999 FEW036 FEW040CB BKN200 23/06@CAELT@Q1020 A3014 747.9 HR33 CB/W AC FU NOSIG=@CAELT@
ZPX0765 022159@CAELT@GG SLZZYMYT@CAELT@022158 SLTRYGYS@CAELT@SABO SLTR 022200@CAELT@METAR SLTR 022200Z 00000KT 6000 NSC 35/23 Q1005 A2969 987.1 HR50@CAELT@FU NOSIG=@CAELT@METAR SLGM 022200Z 36006KT 80000 FEW017 FEW020CB BKN200 34/24 Q1006@CAELT@A2971 HR57 FU CB N/NE=@CAELT@METAR SLRI 022200Z 00000KT 9999 NSC 35/22 Q1006 A2973 HR49 CI=METAR SLJO 022200Z NIL=METAR SLRA 022200Z NIL=METAR SLMG 022200Z NIL=METAR SLBU 022200Z NIL=METAR SLSA 022200Z 00000KT 8000 FEW020 SCT200 34/23 Q1006 A2971HR52 FU=METAR SLSR 022200Z NIL=METAR SLSM 022200Z NIL=
ZPX0766 022159@CAELT@GG SLZZYMYT@CAELT@022159 SLCBYGYS@CAELT@SABO SLCB 022200@CAELT@METAR SLCB 022200Z 18010KT 110V250 9999 FEW036 FEW040CB BKN200 23/06@CAELT@Q1020 A3014 747.9 HR33 CB/W AC FU NOSIG=@CAELT@
ZPX0767 022159@CAELT@GG SLZZYMYT@CAELT@022159 SLCOYGYZ@CAELT@SABO SLCO 022200@CAELT@METAR SLCO 022200Z VRB02KT 7000 FEW030 FEW033CB SCT200 34/24 Q1006@CAELT@A2971 978.9 HR56 FU CB/SE/S AC=@CAELT@
ZPX0770 022205@CAELT@GG SLZZYMYT@CAELT@022200 SLLPYSYX@CAELT@SABO SLLP 022200@CAELT@METAR SLLP 022200Z 04008KT 9999 FEW015 FEW017CB SCT070 BKN200 10/01@CAELT@Q1036 A3060 626.7 HR52 P93// CB/SH SW/NW NOSIG=@CAELT@METAR SLCO 022200Z VRB02KT 7000 FEW030 FEW033CB SCT200 34/24 Q1006@CAELT@A2971 978.9 HR56 FU CB/SE/S AC=@CAELT@METAR SLRY 022200Z 00000KT 9999 NSC 33/25 Q1003 A2964 HR63 FU RWYNML=METAR SLRQ 022200Z 00000KT 9999 FEW020 SCT200 32/25 Q1005 A2968981.0 HR66=METAR SLSB 022200Z 30003KT 9999 NSC 34/24 Q1005 A2969 HR64 RWY NML=
ZPX0774 022242@CAELT@GG SLZZYMYT@CAELT@022240 SLVRYGYU@CAELT@SABO SLVR 022200 CCA@CAELT@METAR SLVR 022200Z 32010KT 9999 NSC 32/19 Q1007 A2974 HR47 CI NOSIG=@CAELT@METAR SLET 022200Z 32011KT 9999 NSC 33/19 Q1007 A2974 HR43 NOSIG=@CAELT@METAR COR SLAS 022200Z 00000KT 4000 FU NSC 37/23 Q1007 A2974 HR48 RWY@CAELT@NML=@CAELT@METAR SLJV 022200Z 36010KT 7000 NSC 34/20 Q1007 A2974 HR49 FU RWY NMLMETAR SLCP 022200Z 00000KT 9999 SCT017 34/20 Q1010 A2983 HR47 FU RWYMETAR SLSI 022200Z 00000KT 9999 SCT020 28/23 Q1008 A2977 HR78 FU RWYHUM OPR=METAR SLTI 022200Z 00000KT 9999 NSC 32/21 Q1010 A2983 HR55 CI RWY NMLMETAR SLJE 022200Z 35006KT 7000 FEW020 FEW030CB 38/24 Q1009 A2980HR44CB/E FU RWY NML=METAR SLVG 022200Z NIL=METAR SLRB 022200Z 00000KT 8000 NSC 34/22 Q1008 A2980 HR50 FU RWY NMLMETAR SLPS 022200Z 31004KT 4000 FU FEW020 38/24 Q1005 A2968 HR50=METAR SLCA 022200Z 00000KT 8000 NSC 34/14 Q1009 A2980 HR31 FU CS RWY
ZPX0778 022248@CAELT@GG SLZZYMYT@CAELT@022248 SLCAYGYS@CAELT@SABO SLCA 022300@CAELT@METAR SLCA 022300Z 00000KT 8000 NSC 31/13 Q1010 A2983 HR35 FU CS RWY@CAELT@NML=@CAELT@
ZPX0782 022253@CAELT@GG SLZZYMYT@CAELT@022252 SLRBYGYS@CAELT@SABO SLRB 022300@CAELT@METAR SLRB 022300Z 00000KT 8000 NSC 32/22 Q1009 A2980 HR56 FU RWY NML=@CAELT@
ZPX0783 022254@CAELT@GG SLZZYMYT@CAELT@022255 SLCOYGYZ@CAELT@SABO SLCO 022300@CAELT@METAR SLCO 022300Z 00000KT 8000 SCT030 FEW033CB BKN080 31/23 Q1007@CAELT@A2974 979.8 HR62 FU CB/SE/S CI=@CAELT@
ZPX0784 022255@CAELT@GG SLZZYMYT@CAELT@022255 SLSBYSYX@CAELT@SABO SLSB 022300@CAELT@METAR SLSB 022300Z 00000KT 9999 NSC 31/26 Q1006 A2971 HR73 RWY NML=@CAELT@
ZPX0785 022255@CAELT@GG SLZZYMYT@CAELT@022256 SLVRYGYZ@CAELT@SABO SLVR 022300@CAELT@METAR SLVR 022300Z 35005KT 9999 NSC 29/21 Q1007 A2975 HR61 CI NOSIG=@CAELT@
ZPX0786 022257@CAELT@GG SLZZYMYT@CAELT@022257 SLLPYGYZ@CAELT@SABO SLLP 022300@CAELT@METAR SLLP 022300Z 07007KT 9999 FEW015 FEW017CB BKN200 08/01@CAELT@Q1036 A3060 626.8 HR58 CB/SH/SW AC NOSIG=@CAELT@
ZPX0787 022258@CAELT@GG SLZZYMYT@CAELT@022258 SLCBYGYZ@CAELT@SABO SLCB 022300@CAELT@METAR SLCB 022300Z 16006KT 9999 FEW036 FEW040CB BKN200 21/04 Q1021@CAELT@A3017 748.8 HR33 CB DIST SW AC FU NOSIG=@CAELT@
ZPX0788 022259@CAELT@GG SLZZYMYT@CAELT@022300 SLVRYGYS@CAELT@SABO SLVR 022300@CAELT@METAR SLVR 022300Z 35005KT 9999 NSC 29/21 Q1007 A2975 HR61 CI NOSIG=@CAELT@METAR SLSI 022300Z 00000KT 9999 SCT020 27/23 Q1009 A2980 HR80@CAELT@FU RWY HUM OPR=@CAELT@METAR SLRB 022300Z 00000KT 8000 NSC 32/22 Q1009 A2980 HR56@CAELT@FU RWY NML=METAR SLPS 022300Z NIL=METAR SLCA 022300Z 00000KT 8000 NSC 31/13 Q1010 A2983 HR35FU CS RWY NML=
ZPX0790 022300@CAELT@GG SLZZYMYT@CAELT@022300 SLCBYGYS@CAELT@SABO SLCB 022300@CAELT@METAR SLCB 022300Z 16006KT 9999 FEW036 FEW040CB BKN200 21/04 Q1021@CAELT@A3017 748.8 HR33 CB DIST SW AC FU NOSIG=@CAELT@
ZPX0792 022304@CAELT@GG SLZZYMYT@CAELT@022300 SLLPYFYA@CAELT@SABO SLLP 022300@CAELT@METAR SLLP 022300Z 07007KT 9999 FEW015 FEW017CB BKN200 08/01@CAELT@Q1036 A3060 626.8 HR58 CB/SH/SW AC NOSIG=@CAELT@METAR SLCO 022300Z 00000KT 8000 SCT030 FEW033CB BKN080 31/23 Q1007@CAELT@A2974 979.8 HR62 FU CB/SE/S CI=@CAELT@METAR SLSB 022300Z 00000KT 9999 NSC 31/26 Q1006 A2971 HR73 RWY NML=
ZPX0802 022355@CAELT@GG SLZZYMYT@CAELT@022355 SLVRYGYZ@CAELT@SABO SLVR 030000@CAELT@METAR SLVR 030000Z 32006KT 9999 NSC 28/21 Q1008 A2977 HR65 NOSIG=@CAELT@
ZPX0803 022355@CAELT@GG SLLPZRZX@CAELT@022357 SLLPYGYZ@CAELT@SABO SLLP 030000@CAELT@METAR SLLP 030000Z 07006KT 9999 FEW015 FEW017CB BKN200 06/01@CAELT@Q1037 A3063 627.4 HR67 CB/LT/SW AC NOSIG=@CAELT@
ZPX0804 022356@CAELT@GG SLZZYMYT@CAELT@022355 SLCBYGYZ@CAELT@SABO SLCB 030000@CAELT@METAR SLCB 030000Z 16004KT 9999 FEW036 BKN200 20/05 Q1022 A3020 749.7@CAELT@HR35 AC FU NOSIG=@CAELT@
