
ZPX0017 010054@CAELT@GG SLZZYMYT@CAELT@010055 SLVRYGYZ@CAELT@SABO SLVR 010100@CAELT@METAR SLVR 010100Z 18008KT 9999 SCT015 BKN070 23/20 Q1014 A2995 HR84@CAELT@NOSIG=@CAELT@
ZPX0018 010056@CAELT@GG SLLPZRZX@CAELT@010057 SLLPYGYZ@CAELT@SABO SLLP 010100@CAELT@METAR SLLP 010100Z 11007KT 4000E VCFG FEW003 SCT010 FEW017CB BKN200@CAELT@07/06 Q1037 A3065 627.8 HR88 VCFG NE/E/SE CB/LT DIST/SW AC NOSIG=@CAELT@
ZPX0019 010057@CAELT@GG SLZZYMYT@CAELT@010056 SLCBYGYZ@CAELT@SABO SLCB 010100@CAELT@METAR SLCB 010100Z 00000KT 7000 -RA SCT008 SCT025 OVC070 13/13 Q1028@CAELT@A3036 753.9 HR100 NOSIG=@CAELT@
ZPX0028 010153@CAELT@GG SLZZYMYT@CAELT@010154 SLVRYGYZ@CAELT@SABO SLVR 010200@CAELT@METAR SLVR 010200Z VRB02KT 9999 SCT017 BKN070 23/20 Q1015 A2998 HR85@CAELT@NOSIG=@CAELT@
ZPX0029 010156@CAELT@GG SLLPZRZX@CAELT@010157 SLLPYGYZ@CAELT@SABO SLLP 010200@CAELT@METAR SLLP 010200Z 12009KT 4000E VCFG FEW003 SCT012 BKN200@CAELT@07/05 Q1038 A3068 628.5 HR91 VCFG NE/E/SE AC NOSIG=@CAELT@
ZPX0030 010156@CAELT@GG SLZZYMYT@CAELT@010155 SLCBYGYZ@CAELT@SABO SLCB 010200@CAELT@METAR SLCB 010200Z 00000KT 9999 SCT008 SCT025 BKN070 13/13 Q1029@CAELT@A3039 754.6 HR100 ST BAJOS TODAS DIREC CI NOSIG=@CAELT@
ZPX0049 010251@CAELT@GG SLZZYMYT@CAELT@010252 SLVRYGYZ@CAELT@SABO SLVR 010300@CAELT@METAR SLVR 010300Z VRB02KT 9999 SCT017 BKN070 22/20 Q1015 A2999 HR87@CAELT@NOSIG=@CAELT@
ZPX0051 010257@CAELT@GG SLZZYMYT@CAELT@010254 SLCBYGYZ@CAELT@SABO SLCB 010300@CAELT@METAR SLCB 010300Z 00000KT 9999 FEW008 SCT025 BKN070 13/13 Q1029@CAELT@A3039 754.6 HR100 ST BAJOS W/N/NE CI NOSIG=@CAELT@
ZPX0052 010257@CAELT@GG SLLPZRZX@CAELT@010257 SLLPYGYZ@CAELT@SABO SLLP 010300@CAELT@METAR SLLP 010300Z 10006KT 4000E VCFG FEW004 SCT070 BKN200@CAELT@06/05 Q1038 A3069 628.8 HR92 VCFG NE/E/SE NOSIG=@CAELT@
ZPX0061 010355@CAELT@GG SLZZYMYT@CAELT@010356 SLVRYGYZ@CAELT@SABO SLVR 010400@CAELT@METAR SLVR 010400Z 13003KT 9999 SCT017 BKN070 22/20 Q1014 A2997 HR87@CAELT@NOSIG=@CAELT@
ZPX0062 010357@CAELT@GG SLLPZRZX@CAELT@010357 SLLPYGYZ@CAELT@SABO SLLP 010400@CAELT@METAR SLLP 010400Z 09006KT 4000E VCFG FEW004 SCT070 BKN200@CAELT@06/05 Q1038 A3067 628.3 HR94 VCFG NE/E/SE NOSIG=@CAELT@
ZPX0072 010452@CAELT@GG SLZZYMYT@CAELT@010452 SLVRYGYZ@CAELT@SABO SLVR 010500@CAELT@METAR SLVR 010500Z 13003KT 9999 SCT017 BKN070 22/20 Q1014 A2996 HR87@CAELT@NOSIG=@CAELT@
ZPX0073 010456@CAELT@GG SLLPZRZX@CAELT@010457 SLLPYGYZ@CAELT@SABO SLLP 010500@CAELT@METAR SLLP 010500Z 10006KT 4000E VCFG FEW004 SCT013 BKN200@CAELT@06/05 Q1038 A3066 628.2 HR94 VCFG NE/E/SE AC NOSIG=@CAELT@
ZPX0074 010456@CAELT@GG SLZZYMYT@CAELT@010455 SLCBYGYZ@CAELT@SABO SLCB 010500@CAELT@METAR SLCB 010500Z 00000KT 9999 FEW008 SCT025 BKN200 13/13 Q1027@CAELT@A3034 753.4 HR100 AC NOSIG=@CAELT@
ZPX0081 010556@CAELT@GG SLLPZRZX@CAELT@010557 SLLPYGYZ@CAELT@SABO SLLP 010600@CAELT@METAR SLLP 010600Z VRB02KT 4000E VCFG FEW004 SCT013 BKN200 06/05@CAELT@Q1038 A3066 628.1 HR94 VCFG NE/E/SE AC NOSIG=@CAELT@
ZPX0082 010557@CAELT@GG SLZZYMYT@CAELT@010557 SLVRYGYZ@CAELT@SABO SLVR 010600@CAELT@METAR SLVR 010600Z 15006KT 9999 SCT017 BKN070 22/20 Q1014 A2995 HR90@CAELT@NOSIG=@CAELT@
ZPX0083 010559@CAELT@GG SLZZYMYT@CAELT@010557 SLCBYGYZ@CAELT@SABO SLCB 010600@CAELT@METAR SLCB 010600Z 24003KT 8000 FEW010 SCT025 BKN070 13/13 Q1027@CAELT@A3034 753.2 HR100 ST BAJOS W/NW/N BR CI NOSIG=@CAELT@
ZPX0090 010652@CAELT@GG SLZZYMYT@CAELT@010653 SLVRYGYZ@CAELT@SABO SLVR 010700@CAELT@METAR SLVR 010700Z 15006KT 9999 SCT020 BKN070 22/20 Q1014 A2994 HR89@CAELT@NOSIG=@CAELT@
ZPX0091 010655@CAELT@GG SLLPZRZX@CAELT@010655 SLLPYGYZ@CAELT@SABO SLLP 010700@CAELT@METAR SLLP 010700Z 07003KT 4000E VCFG FEW003 SCT070 BKN200 05/05@CAELT@Q1037 A3064 627.7 HR94 VCFG NE/E/SE NOSIG=@CAELT@
ZPX0092 010659@CAELT@GG SLZZYMYT@CAELT@010658 SLCBYGYZ@CAELT@SABO SLCB 010700@CAELT@METAR SLCB 010700Z 00000KT 8000 FEW010 SCT025 BKN070 13/13 Q1027@CAELT@A3033 753.0 HR100 ST BAJOS W/NW/N BR CI NOSIG=@CAELT@
ZPX0101 010755@CAELT@GG SLZZYMYT@CAELT@010755 SLVRYGYZ@CAELT@SABO SLVR 010800@CAELT@METAR SLVR 010800Z 16007KT 9999 SCT020 BKN070 22/20 Q1014 A2995 HR89@CAELT@NOSIG=@CAELT@
ZPX0102 010755@CAELT@GG SLLPZRZX@CAELT@010755 SLLPYGYZ@CAELT@SABO SLLP 010800@CAELT@METAR SLLP 010800Z 06003KT 4000E VCFG FEW003 SCT070 BKN200 06/05@CAELT@Q1037 A3064 627.7 HR97 VCFG NE/E/SE NOSIG=@CAELT@
ZPX0103 010755@CAELT@GG SLZZYMYT@CAELT@010755 SLCBYGYZ@CAELT@SABO SLCB 010800@CAELT@METAR SLCB 010800Z 00000KT 8000 FEW010 SCT025 BKN200 13/13 Q1026@CAELT@A3033 752.9 HR100 BR AC NOSIG=@CAELT@
ZPX0111 010855@CAELT@GG SLLPZRZX@CAELT@010855 SLLPYGYZ@CAELT@SABO SLLP 010900@CAELT@METAR SLLP 010900Z 09002KT 4000E VCFG FEW003 SCT070 BKN200 05/04@CAELT@Q1037 A3065 627.8 HR95 VCFG NE/E/SE NOSIG=@CAELT@
ZPX0112 010855@CAELT@GG SLZZYMYT@CAELT@010856 SLVRYGYZ@CAELT@SABO SLVR 010900@CAELT@METAR SLVR 010900Z 17006KT 9999 SCT020 BKN070 21/19 Q1014 A2996 HR88@CAELT@NOSIG=@CAELT@
ZPX0113 010857@CAELT@GG SLZZYMYT@CAELT@010855 SLCBYGYZ@CAELT@SABO SLCB 010900@CAELT@METAR SLCB 010900Z 00000KT 8000 FEW010 SCT070 BKN200 12/12 Q1027@CAELT@A3033 753.0 HR100 BR NOSIG=@CAELT@
ZPX0114 010859@CAELT@GG SLZZYMYT@CAELT@010857 SLPSYGYS@CAELT@SABO SLPS 010900@CAELT@METAR SLPS 010900Z 00000KT 4000 -RA BKN010 OVC070 22/22 Q1014 A2995@CAELT@HR100=@CAELT@
ZPX0122 010918@CAELT@GG SLZZYMYT@CAELT@010917 SLETYMYC@CAELT@SABO SLET 010900@CAELT@METAR SLET 010900Z 15008KT 9999 FEW025 SCT070 21/18 Q1014 A2997 HR85@CAELT@NOSIG=@CAELT@
ZPX0131 010953@CAELT@GG SLZZYMYT@CAELT@010952 SLPSYGYS@CAELT@SABO SLPS 311000@CAELT@METAR SLPS 311000Z 00000KT 8000 -RA SCT010 OVC070 23/23 Q1014 A2995@CAELT@HR100=@CAELT@
ZPX0132 010954@CAELT@GG SLZZYMYT@CAELT@010952 SLPSYGYS@CAELT@SABO SLPS 011000 CCA@CAELT@METAR COR SLPS 011000Z 00000KT 8000 -RA SCT010 OVC070 23/23 Q1014@CAELT@A2995 HR100=@CAELT@
ZPX0133 010954@CAELT@GG SLZZYMYT@CAELT@010945 SLETYMYC@CAELT@SABO SLET 011000@CAELT@METAR SLET 011000Z 16006KT 9999 SCT070 SCT200 21/18 Q1015 A2997 HR87@CAELT@NOSIG=@CAELT@
ZPX0134 010954@CAELT@GG SLZZYMYT@CAELT@010955 SLCOYGYZ@CAELT@SABO SLCO 011000@CAELT@METAR SLCO 011000Z 00000KT 6000 -DZ OVC003 23/23 Q1013 A2993 986.0@CAELT@HR99=@CAELT@
ZPX0135 010954@CAELT@GG SLZZYMYT@CAELT@010953 SLRBYGYS@CAELT@SABO SLRB 011000@CAELT@METAR SLRB 011000Z 00000KT 9999 SCT023 BKN070 22/20 Q1016 A3000 HR88@CAELT@RWY NML=@CAELT@
ZPX0136 010955@CAELT@GG SLZZYMYT@CAELT@010955 SLVRYGYZ@CAELT@SABO SLVR 011000@CAELT@METAR SLVR 011000Z 17005KT 9999 SCT020 BKN070 21/19 Q1015 A2997 HR89@CAELT@NOSIG=@CAELT@
ZPX0137 010955@CAELT@GG SLZZYMYT@CAELT@010955 SLTRYGYZ@CAELT@SABO SLTR 011000@CAELT@METAR SLTR 011000Z 00000KT 9999 SCT005 BKN080 24/24 Q1013 A2993@CAELT@995.0 HR98 TEMPO BKN005=@CAELT@
ZPX0138 010956@CAELT@GG SLZZYMYT@CAELT@010955 SLLPYGYZ@CAELT@SABO SLLP 011000@CAELT@METAR SLLP 011000Z 11003KT 4000E VCFG FEW003 SCT010 BKN200 05/05@CAELT@Q1038 A3067 628.3 HR94 P/INV VCFG NE/E/SE AC NOSIG=@CAELT@
ZPX0139 010956@CAELT@GG SLZZYMYT@CAELT@010955 SLSBYSYX@CAELT@SABO SLSB 011000@CAELT@METAR SLSB 011000Z 00000KT 9999 BKN005 BKN080 24/24 Q1014 A2995 HR99@CAELT@RWY WET OPR C210=@CAELT@
ZPX0140 010959@CAELT@GG SLZZYMYT@CAELT@010956 SLCBYGYZ@CAELT@SABO SLCB 011000@CAELT@METAR SLCB 011000Z 00000KT 5000 FU BR FEW008 SCT027 BKN200 13/13@CAELT@Q1027 A3035 753.5 HR100 ST BAJOS S/SW/W/NW TEMPO 3000=@CAELT@
ZPX0141 010959@CAELT@GG SLZZYMYT@CAELT@010957 SLLPYFYA@CAELT@SABO SLRY 011000@CAELT@METAR SLRY 011000Z 00000KT 9999 BKN016 OVC070 23/23 Q1011 A2987@CAELT@HR98 RWY WET OPR C206=@CAELT@
ZPX0143 011001@CAELT@GG SLZZYMYT@CAELT@011000 SLVRYFYC@CAELT@SABO SLVR 011000@CAELT@METAR SLVR 011000Z 17005KT 9999 SCT020 BKN070 21/19 Q1015 A2997 HR89@CAELT@NOSIG=@CAELT@METAR SLET 011000Z 16006KT 9999 SCT070 SCT200 21/18 Q1015 A2997 HR87@CAELT@METAR SLCP 011000Z 00000KT 9999 SCT070 21/21 Q1016 A3000 HR98 RWY NML@CAELT@METAR SLSI 011000Z 00000KT 9999 BKN070 22/22 Q1014 A2994 HR100 RWYWET OPR=METAR SLRB 011000Z 00000KT 9999 SCT023 BKN070 22/20 Q1016 A3000 HR88RWY NML=METAR SLPS 011000Z 00000KT 8000 -RA SCT010 OVC070 23/23 Q1014 A2995HR100=METAR SLCA 011000Z NIL=
ZPX0144 011001@CAELT@GG SLZZYMYT@CAELT@011000 SLLPYFYA@CAELT@SABO SLLP 011000@CAELT@METAR SLLP 011000Z 11003KT 4000E VCFG FEW003 SCT010 BKN200 05/05@CAELT@Q1038 A3067 628.3 HR94 P/INV VCFG NE/E/SE AC NOSIG=@CAELT@METAR SLCO 011000Z 00000KT 6000 -DZ OVC003 23/23 Q1013 A2993@CAELT@986.0 HR99=@CAELT@METAR SLRY 011000Z 00000KT 9999 BKN016 OVC070 23/23 Q1011 A2987HR98 RWY WET OPR C206=METAR SLRQ 011000Z 00000KT 9999 BKN025 OVC070 23/23 Q1013 A2993989.3 HR98=METAR SLAP 011000Z 00000KT 9999 BKN025 OVC070 17/17 Q1019 A3012860.2 HR98=METAR SLSB 011000Z 00000KT 9999 BKN005 BKN080 24/24 Q1014 A2995HR99 RWY WET OPR C210=
ZPX0146 011012@CAELT@GG SLZZYMYT@CAELT@011011 SLTRYGYS@CAELT@SABO SLTR 011000@CAELT@METAR SLTR 011000Z 00000KT 9999 SCT005 BKN080 24/24 Q1013 A2993@CAELT@995.0 HR98 TEMPO BKN005=@CAELT@METAR SLGM 011000Z 00000KT 5000 -RA BKN004 FEW020CB OVC070 23/23@CAELT@Q1013 A2991 HR98 CB E/SE/S=@CAELT@METAR SLRI 011000Z NIL=METAR SLJO 011000Z NIL=METAR SLRA 011000Z 00000KT 8000 -RA BKN006 OVC070 24/24 Q1011A2988 HR100 RWY OPR C206=METAR SLMG 011000Z NIL=METAR SLBU 011000Z NIL=METAR SLSA 011000Z 00000KT 8000 VCSH FEW006 BKN020 BKN200 23/23Q1012 A2989 HR98=METAR SLSR 011000Z NIL=METAR SLSM 011000Z NIL=
ZPX0147 011012@CAELT@GG SLZZYMYT@CAELT@011012 SLCAYGYS@CAELT@SABO SLCA 011000@CAELT@METAR SLCA 011000Z 00000KT 2000 BR OVC003 20/18 Q1019 A3009 HR93 RWY@CAELT@NML=@CAELT@
ZPX0148 011014@CAELT@GG SLZZYMYT@CAELT@011010 SLCBYGYS@CAELT@METAR 011000@CAELT@METAR SLCB 011000Z 00000KT 5000 FU BR FEW008 SCT027 BKN200 13/13@CAELT@Q1027 A3035 753.5 HR100 ST BAJOS S/SW/W/NW TEMPO 3000=@CAELT@METAR SLVM 011000Z 00000KT 9999 FEW025 OVC070 20/19 Q1016 A3000 HR93@CAELT@
ZPX0149 011015@CAELT@GG SLZZYMYT@CAELT@011000 SLLPYFYA@CAELT@SABO SLRY 0110000@CAELT@METAR SLRY 011000Z 00000KT 9999 BKN016 OVC070 23/23 Q1011@CAELT@A2987 HR98 RWY WET OPR C206=@CAELT@
ZPX0150 011016@CAELT@GG SLZZYMYT@CAELT@011015 SLTRYGYS@CAELT@SABO SLTR 011000 RRA@CAELT@METAR SLTR 011000Z 00000KT 9999 SCT005 BKN080 24/24 Q1013 A2993@CAELT@995.0 HR98 TEMPO BKN005=@CAELT@METAR SLGM 011000Z 00000KT 5000 -RA BKN004 FEW020CB OVC070 23/23@CAELT@Q1013 A2991 HR98 CB E/SE/S=@CAELT@METAR SLRI 011000Z NIL=METAR RTD SLJO 011000Z 00000KT 4000 -RA BKN008 FEW020CB OVC07022/22 Q1008 A2977 HR100 N/NW/SW RWY WET INOP=METAR SLRA 011000Z 00000KT 8000 -RA BKN006 OVC070 24/24 Q1011A2988 HR100 RWY OPR C206=METAR SLMG 011000Z NIL=METAR SLBU 011000Z NIL=METAR SLSA 011000Z 00000KT 8000 VCSH FEW006 BKN020 BKN200 23/23Q1012 A2989 HR98=METAR SLSR 011000Z NIL=METAR SLSM 011000Z NIL=
ZPX0162 011051@CAELT@GG SLZZYMYT@CAELT@011050 SLTRYGYS@CAELT@SABO SLTR 011000 RRB@CAELT@METAR SLTR 011000Z 00000KT 9999 SCT005 BKN080 24/24 Q1013 A2993@CAELT@995.0 HR98 TEMPO BKN005=@CAELT@METAR SLGM 011000Z 00000KT 5000 -RA BKN004 FEW020CB OVC070 23/23@CAELT@Q1013 A2991 HR98 CB E/SE/S=@CAELT@METAR RTD SLRI 011000Z 00000KT 2000 RA BKN004 FEW020CB OVC07023/23 Q1015 A2998 HR98 CB N/W/NW=METAR SLJO 011000Z 00000KT 4000 -RA BKN008 FEW020CB OVC070 22/22Q1008 A2977 HR100 N/NW/SW RWY WET INOP=METAR SLRA 011000Z 00000KT 8000 -RA BKN006 OVC070 24/24 Q1011A2988 HR100 RWY OPR C206=METAR RTD SLMG 011000Z 00000KT 8000 -RA SCT007 FEW023CB OVC07023/23 Q1012 A2988 HR98 CB NE RWY OPR C210=METAR SLBU 011000Z NIL=METAR SLSA 011000Z 00000KT 8000 VCSH FEW006 BKN020 BKN200 23/23Q1012 A2989 HR98=METAR SLSR 011000Z NIL=METAR SLSM 011000Z NIL=
ZPX0163 011051@CAELT@GG SLZZYMYT@CAELT@011050 SLPSYGYS@CAELT@SABO SLPS 311100@CAELT@METAR SLPS 311100Z 00000KT 8000 SCT012 BKN070 23/23 Q1014 A2995 HR100@CAELT@BR RERA=@CAELT@
ZPX0164 011052@CAELT@GG SLZZYMYT@CAELT@011051 SLPSYGYS@CAELT@SABO SLPS 011100@CAELT@METAR COR SLPS 011100Z 00000KT 8000 SCT012 BKN070 23/23 Q1014 A2995@CAELT@HR100 BR RERA=@CAELT@
ZPX0166 011053@CAELT@GG SLZZYMYT@CAELT@011053 SLCAYGYS@CAELT@SABO SLCA 011100@CAELT@METAR SLCA 011100Z 00000KT 2000 BR OVC003 20/18 Q1019 A3009 HR93 RWY@CAELT@NML=@CAELT@
ZPX0167 011054@CAELT@GG SLZZYMYT@CAELT@011054 SLSBYSYX@CAELT@SABO SLSB 011100@CAELT@METAR SLSB 011100Z 00000KT 9999 BKN005 BKN080 24/23 Q1014 A2997 HR98@CAELT@RWY WET OPR C210=@CAELT@
ZPX0168 011055@CAELT@GG SLZZYMYT@CAELT@011055 SLVRYGYZ@CAELT@SABO SLVR 011100@CAELT@METAR SLVR 011100Z 18005KT 9999 SCT020 BKN070 22/20 Q1015 A2998 HR86@CAELT@NOSIG=@CAELT@
ZPX0169 011055@CAELT@GG SLZZYMYT@CAELT@011053 SLRBYGYS@CAELT@SABO SLRB 011100@CAELT@METAR SLRB 011100Z 00000KT 9999 SCT023 BKN070 23/20 Q1017 A3003 HR85@CAELT@RWY NML=@CAELT@
ZPX0170 011055@CAELT@GG SLZZYMYT@CAELT@011055 SLORYGYZ@CAELT@SABO SLOR 011100@CAELT@METAR SLOR 011100Z 36003KT 9999 FEW017 BKN200 09/04 Q1036 A3059 656.6@CAELT@HR74 AC=@CAELT@
ZPX0171 011056@CAELT@GG SLZZYMYT@CAELT@011055 SLLPYGYZ@CAELT@SABO SLLP 011100@CAELT@METAR SLLP 011100Z 10006KT 060V130 4000E VCFG FEW003 SCT010 BKN200 06@CAELT@/05 Q1039 A3069 628.7 HR93 P/INV VCFG NE/E/SE AC FU NOSIG=@CAELT@
ZPX0172 011056@CAELT@GG SLZZYMYT@CAELT@011050 SLETYMYC@CAELT@SABO SLET 011100@CAELT@METAR SLET 011100Z 16009KT 9999 SCT070 SCT200 22/19 Q1015 A2998 HR83@CAELT@NOSIG=@CAELT@
ZPX0174 011058@CAELT@GG SLZZYMYT@CAELT@011058 SLTRYGYZ@CAELT@SABO SLTR 011100@CAELT@METAR SLTR 011100Z 00000KT 9999 FEW005 SCT020 BKN080 24/24@CAELT@Q1014 A2995 995.7 HR98 NOSIG=@CAELT@
ZPX0175 011058@CAELT@GG SLZZYMYT@CAELT@011057 SLCOYGYZ@CAELT@SABO SLCO 011100@CAELT@METAR SLCO 011100Z 00000KT 7000 -DZ OVC003 23/23 Q1014 A2995 986.6@CAELT@HR99=@CAELT@
ZPX0176 011058@CAELT@GG SLZZYMYT@CAELT@011058 SLTJYGYZ@CAELT@SABO SLTJ 011100@CAELT@METAR SLTJ 011100Z 00000KT 9999 NSC 17/14 Q1022 A3020 817.1 HR83 CI=@CAELT@
ZPX0177 011058@CAELT@GG SLZZYMYT@CAELT@011100 SLVRYFYC@CAELT@SABO SLVR 011100@CAELT@METAR SLVR 011100Z 18005KT 9999 SCT020 BKN070 22/20 Q1015 A2998 HR86@CAELT@NOSIG=@CAELT@METAR SLET 011100Z 16009KT 9999 SCT070 SCT200 22/19 Q1015 A2998 HR83@CAELT@METAR SLAS 011100Z 00000KT 9999 BKN012 BKN070 24/23 Q1016 A3000 HR95@CAELT@RWY NML=METAR SLJV 011100Z 00000KT 9999 NSC 23/22 Q1014 A2994 HR97 CI RWY NMLMETAR SLCP 011100Z 00000KT 9999 SCT070 22/21 Q1017 A3003 HR96 RWY NMLMETAR SLSI 011100Z 00000KT 9999 BKN070 22/22 Q1014 A2994 HR98 RWY WETOPR=METAR SLTI 011100Z 00000KT 9999 NSC 24/23 Q1018 A3006 HR92 CI RWY NMLMETAR SLJE 011100Z NIL=METAR SLVG 011100Z 00000KT 9999 OVC012 16/15 Q1026 A3030 HR95 RWY WETMETAR SLRB 011100Z 00000KT 9999 SCT023 BKN070 23/20 Q1017 A3003 HR85METAR SLPS 011100Z 00000KT 8000 SCT012 BKN070 23/23 Q1014 A2995 HR100BR RERA=METAR SLCA 011100Z 00000KT 2000 BR OVC003 20/18 Q1019 A3009 HR93 RWYNML=
ZPX0179 011101@CAELT@GG SLZZYMYT@CAELT@011100 SLTRYGYS@CAELT@SABO SLTR 011100@CAELT@METAR SLTR 011100Z 00000KT 9999 FEW005 SCT020 BKN080 24/24 Q1014@CAELT@A2995 995.7 HR98 NOSIG=@CAELT@METAR SLGM 011100Z 19004KT 7000 VCSH BKN004 FEW020CB OVC070 23/23@CAELT@Q1013 A2991 HR98 RERA CB/SH SE/S=@CAELT@METAR SLRI 011100Z 00000KT 3000 -RA BKN004 FEW020CB OVC070 23/23Q1015 A2999 HR98 CB W/NW=METAR SLJO 011100Z 00000KT 8000 -RA SCT008 FEW020CB OVC070 23/23Q1011 A2988 HR98 CB NW/SW RWY WET NOP=METAR SLRA 011100Z 00000KT 7000 -RA BKN006 OVC070 24/24 Q1012 A2990HR100 RWY OPR C206=METAR SLMG 011100Z NIL=METAR SLBU 011100Z NIL=METAR SLSA 011100Z 00000KT 9999 FEW006 BKN020 BKN070 24/24 Q1008A2977 HR98=METAR SLSR 011100Z NIL=METAR SLSM 011100Z NIL=
ZPX0183 011101@CAELT@GG SLZZYMYT@CAELT@011101 SLCBYGYZ@CAELT@SABO SLCB 011100@CAELT@METAR SLCB 011100Z 23003KT 7000 3000SE BR FU FEW010 SCT027 BKN070 14/@CAELT@13 Q1028 A3036 753.8 HR98 CI NOSIG=@CAELT@
ZPX0184 011102@CAELT@GG SLZZYMYT@CAELT@011100 SLLPYFYA@CAELT@SABO SLRY 011100@CAELT@METAR SLRY 011100Z 00000KT 5000 VCSH BKN015 OVC070 23/23 Q1011@CAELT@A2988 HR98 SH TODIR RWY WET OPR C206=@CAELT@
ZPX0185 011102@CAELT@GG SLZZYMYT@CAELT@011102 SLCBYGYZ@CAELT@SABO SLCB 011100 CCA@CAELT@METAR COR SLCB 011100Z 23003KT 7000 3000SE BR FU FEW010 SCT027 BKN070@CAELT@14/13 Q1028 A3036 753.8 HR98 VIS RED E/SE CI NOSIG=@CAELT@
ZPX0187 011103@CAELT@GG SLZZYMYT@CAELT@011103 SLTRYGYS@CAELT@SABO SLTR 011100 RRA@CAELT@METAR SLTR 011100Z 00000KT 9999 FEW005 SCT020 BKN080 24/24 Q1014@CAELT@A2995 995.7 HR98 NOSIG=@CAELT@METAR SLGM 011100Z 19004KT 7000 VCSH BKN004 FEW020CB OVC070 23/23@CAELT@Q1013 A2991 HR98 RERA CB/SH SE/S=@CAELT@METAR SLRI 011100Z 00000KT 3000 -RA BKN004 FEW020CB OVC070 23/23Q1015 A2999 HR98 CB W/NW=METAR SLJO 011100Z 00000KT 8000 -RA SCT008 FEW020CB OVC070 23/23Q1011 A2988 HR98 CB NW/SW RWY WET NOP=METAR SLRA 011100Z 00000KT 7000 -RA BKN006 OVC070 24/24 Q1012 A2990HR100 RWY OPR C206=METAR RTD SLMG 011100Z 00000KT 9999 SCT007 FEW023CB OVC070 23/23Q1012 A2989 HR98 CB NE RWY C210=METAR SLBU 011100Z NIL=METAR SLSA 011100Z 00000KT 9999 FEW006 BKN020 BKN070 24/24 Q1008A2977 HR98=METAR SLSR 011100Z NIL=METAR SLSM 011100Z NIL=
ZPX0188 011103@CAELT@GG SLZZYMYT@CAELT@011103 SLCBYGYS@CAELT@SABO SLCB 011100@CAELT@METAR SLCB 011100Z 23003KT 7000 3000SE BR FU FEW010 SCT027 BKN070 14/@CAELT@13 Q1028 A3036 753.8 HR98 CI NOSIG=@CAELT@METAR SLVM 011100Z 00000KT 9999 FEW025 OVC070 21/19 Q1016 A3001 HR91@CAELT@METAR SLTJ 011100Z 00000KT 9999 NSC 17/14 Q1022 A3020 817.1 HR83 CI=@CAELT@METAR SLYA 011100Z 00000KT 9999 BKN020 OVC070 20/19 Q1016 A3002 941.0HR93 SH W=
ZPX0189 011103@CAELT@GG SLZZYMYT@CAELT@011103 SLLPYFYA@CAELT@SABO SLLP 011100@CAELT@METAR SLLP 011100Z 10006KT 060V130 4000E VCFG FEW003 SCT010@CAELT@BKN200 06/05 Q1039 A3069 628.7 HR93 P/INV VCFG NE/E/SE AC@CAELT@FU NOSIG=@CAELT@METAR SLCO 011100Z 00000KT 7000 -DZ OVC003 23/23 Q1014 A2995@CAELT@986.6 HR99=METAR SLRY 011100Z 00000KT 5000 VCSH BKN015 OVC070 23/23 Q1011A2988 HR98 SH TODIR RWY WET OPR C206=METAR SLRQ 011100Z 00000KT 9999 BKN025 OVC070 23/23 Q1014 A2995990.2 HR98=METAR SLAP 011100Z 00000KT 9999 SCT025 BKN070 17/17 Q1020 A3013860.7 HR95=METAR SLSB 011100Z 00000KT 9999 BKN005 BKN080 24/23 Q1014 A2997HR98 RWY WET OPR C210=METAR SLOR 011100Z 36003KT 9999 FEW017 BKN200 09/04 Q1036 A3059656.6 HR74 AC=
ZPX0200 011153@CAELT@GG SLZZYMYT@CAELT@011152 SLPSYGYS@CAELT@SABO SLPS 011200@CAELT@METAR SLPS 011200Z 00000KT 9999 FEW013 BKN070 24/24 Q1015 A2998 HR98=@CAELT@
ZPX0201 011155@CAELT@GG SLZZYMYT@CAELT@011154 SLSBYSYX@CAELT@SABO SLSB 011200@CAELT@METAR SLSB 011200Z 00000KT 8000 VCSH SCT008 SCT017 OVC200 24/24 Q1015@CAELT@A2999 HR96 SH/NE E RWY WET OPR C210=@CAELT@
ZPX0202 011155@CAELT@GG SLZZYMYT@CAELT@011102 SLETYMYC@CAELT@SABO SLET 011200@CAELT@METAR SLET 011200Z 16010KT 9999 FEW025 BKN080 23/19 Q1016 A3001 HR80@CAELT@CI NOSIG=@CAELT@
ZPX0203 011155@CAELT@GG SLZZYMYT@CAELT@011154 SLORYGYZ@CAELT@SABO SLOR 011200@CAELT@METAR SLOR 011200Z 02005KT 9999 FEW017 SCT200 12/05 Q1036 A3061 656.9@CAELT@HR62=@CAELT@
ZPX0204 011155@CAELT@GG SLZZYMYT@CAELT@011155 SLCOYGYZ@CAELT@SABO SLCO 011200@CAELT@METAR SLCO 011200Z 00000KT 9999 OVC003 23/23 Q1014 A2997 987.4 HR99@CAELT@REDZ=@CAELT@
ZPX0207 011155@CAELT@GG SLZZYMYT@CAELT@011155 SLLPYFYA@CAELT@SABO SLRY 011200@CAELT@METAR SLRY 011200Z 00000KT 5000 VCSH SCT005 BKN015 OVC070 24/24@CAELT@Q1012 A2991 HR97 SH TODIR RWY WET OPR C206=@CAELT@
ZPX0208 011156@CAELT@GG SLZZYMYT@CAELT@011155 SLCAYGYS@CAELT@SABO SLCA 011200@CAELT@METAR SLCA 011200Z 00000KT 2000 BR OVC003 20/18 Q1019 A3009 HR91 RWY@CAELT@NML=@CAELT@
ZPX0209 011156@CAELT@GG SLZZYMYT@CAELT@011156 SLVRYGYZ@CAELT@SABO SLVR 011200@CAELT@METAR SLVR 011200Z 17008KT 9999 SCT025 BKN070 23/19 Q1016 A3001 HR81@CAELT@NOSIG=@CAELT@
ZPX0210 011156@CAELT@GG SLZZYMYT@CAELT@011154 SLRBYGYS@CAELT@SABO SLRB 011200@CAELT@METAR SLRB 011200Z 00000KT 9999 SCT023 BKN070 24/21 Q1017 A3003 HR85@CAELT@RWY NML=@CAELT@
ZPX0212 011157@CAELT@GG SLZZYMYT@CAELT@011156 SLTRYGYZ@CAELT@SABO SLTR 011200@CAELT@METAR SLTR 011200Z 00000KT 9999 FEW005 BKN080 25/24 Q1014 A2997@CAELT@996.2 HR95 NOSIG=@CAELT@
ZPX0213 011157@CAELT@GG SLZZYMYT@CAELT@011156 SLTRYGYZ@CAELT@SABO SLTR 011200@CAELT@METAR SLTR 011200Z 00000KT 9999 FEW005 BKN080 25/24 Q1014 A2997@CAELT@996.2 HR95 NOSIG=@CAELT@
ZPX0214 011157@CAELT@GG SLZZYMYT@CAELT@011157 SLTJYGYZ@CAELT@SABO SLTJ 011200@CAELT@METAR SLTJ 011200Z 00000KT 9999 FEW027 20/16 Q1022 A3019 817.0 HR79@CAELT@
ZPX0215 011158@CAELT@GG SLZZYMYT@CAELT@011158 SLVRYFYC@CAELT@SABO SLVR 011200@CAELT@METAR SLVR 011200Z 17008KT 9999 SCT025 BKN070 23/19 Q1016 A3001 HR81@CAELT@NOSIG=@CAELT@METAR SLET 011200Z 16010KT 9999 FEW025 BKN080 23/19 Q1016 A3001 HR80@CAELT@CI NOSIG=@CAELT@METAR SLAS 011200Z 00000KT 9999 OVC013 25/23 Q1016 A3000 HR89 RWY NMLMETAR SLJV 011200Z 00000KT 9999 NSC 24/23 Q1014 A2994 HR95 CI RWY NMLMETAR SLCP 011200Z 00000KT 9999 BKN070 23/22 Q1018 A3006 HR96 RWY NMLMETAR SLSI 011200Z 00000KT 9999 BKN070 23/23 Q1015 A2997 HR98 RWY WETOPR=METAR SLTI 011200Z 00000KT 9999 NSC 25/23 Q1019 A3009 HR87 CI RWY NMLMETAR SLJE 011200Z 00000KT 9999 SCT010 OVC070 25/22 Q1017 A3003 HR84RWY NML=METAR SLVG 011200Z 00000KT 9999 BKN013 16/15 Q1026 A3030 HR95 RWY WETMETAR SLRB 011200Z 00000KT 9999 SCT023 BKN070 24/21 Q1017 A3003 HR85METAR SLPS 011200Z 00000KT 9999 FEW013 BKN070 24/24 Q1015 A2998 HR98=METAR SLCA 011200Z 00000KT 2000 BR OVC003 20/18 Q1019 A3009 HR91 RWYNML=
ZPX0216 011158@CAELT@GG SLZZYMYT@CAELT@011157 SLLPYGYZ@CAELT@SABO SLLP 011200@CAELT@METAR SLLP 011200Z 09005KT 060V130 6000 FEW005 SCT010 BKN200 08/04@CAELT@Q1039 A3070 629.1 HR81 VIS/RED/ST/BAJOS NE/E/SE AC NOSIG=@CAELT@
ZPX0218 011159@CAELT@GG SLZZYMYT@CAELT@011158 SLCBYGYZ@CAELT@SABO SLCB 011200@CAELT@METAR SLCB 011200Z 00000KT 4000SE BR FU FEW013 SCT027 BKN070 16/15@CAELT@Q1028 A3037 754.0 HR96 VIS RED E/SE RESTO 7000 CI NOSIG=@CAELT@
ZPX0220 011202@CAELT@GG SLZZYMYT@CAELT@011201 SLLPYFYA@CAELT@SABO SLLP 011200@CAELT@METAR SLLP 011200Z 09005KT 060V130 6000 FEW005 SCT010 BKN200 08/04@CAELT@Q1039 A3070 629.1 HR81 VIS/RED/ST/BAJOS NE/E/SE AC NOSIG=@CAELT@METAR SLCO 011200Z 00000KT 9999 OVC003 23/23 Q1014 A2997 987.4@CAELT@HR99 REDZ=@CAELT@METAR SLRY 011200Z 00000KT 5000 VCSH SCT005 BKN015 OVC070 24/24Q1012 A2991 HR97 SH TODIR RWY WET OPR C206=METAR SLRQ 011200Z 00000KT 9999 SCT007 BKN023 OVC070 24/24 Q1015A2997 HR98=METAR SLSB 011200Z 00000KT 8000 VCSH SCT008 SCT017 OVC200 24/24Q1015 A2999 HR96 SH/NE E RWY WET OPR C210=METAR SLAP 011200Z 00000KT 9999 SCT025 BKN070 18/17 Q1021 A3016861.4 HR93=METAR SLOR 011200Z 02005KT 9999 FEW017 SCT200 12/05 Q1036 A3061656.9 HR62=
ZPX0222 011202@CAELT@GG SLZZYMYT@CAELT@011202 SLTRYGYS@CAELT@SABO SLTR 011200@CAELT@METAR SLTR 011200Z 00000KT 9999 FEW005 BKN080 25/24 Q1014 A2997@CAELT@996.2 HR95 NOSIG=@CAELT@METAR SLGM 011200Z 19004KT 7000 VCSH FEW005 SCT015 FEW020CB BKN080@CAELT@24/23 Q1014 A2996 HR96 CB/SH SW/W=@CAELT@METAR SLRI 011200Z NIL=METAR SLJO 011200Z 32006KT 8000 VCSH BKN008 FEW020CB OVC070 24/23Q1012 A2991 HR97 RERA CB/SH NW/W RWY WET INOP=METAR SLRA 011200Z 12004KT 7000 VCSH BKN006 OVC070 24/24 Q1013 A2992HR97 RERA SH N/S RWY OPR C206=METAR SLMG 011200Z 00000KT 8000 VCSH FEW007 FEW023CB OVC070 24/23Q1013 A2992 HR98 CB/SH SE/NW RWY OPR C210=METAR SLBU 011200Z NIL=METAR SLSR 011200Z NIL=METAR SLSM 011200Z 00000KT 9999 SCT017 BKN070 24/24 Q1014 A2997 HR97RWY WET INOP=
ZPX0223 011202@CAELT@GG SLZZYMYT@CAELT@011202 SLCBYGYS@CAELT@SABO SLCB 011200@CAELT@METAR SLCB 011200Z 00000KT 4000SE BR FU FEW013 SCT027 BKN070 16/15@CAELT@Q1028 A3037 754.0 HR96 VIS RED E/SE RESTO 7000 CI NOSIG=@CAELT@METAR SLAL 011200Z 00000KT 9999 FEW005 BKN010 12/11 Q1032 A3049@CAELT@706.0 HR90 ST BAJOS/N/S/SW=@CAELT@METAR SLPO 011200Z NIL=METAR SLAG 011200Z NIL=METAR SLVM 011200Z 00000KT 9999 FEW025 OVC070 21/20 Q1016 A3002 HR89METAR SLTJ 011200Z 00000KT 9999 FEW027 20/16 Q1022 A3019 817.0 HR79METAR SLYA 011200Z 00000KT 9999 SCT027 OVC070 22/20 Q1016 A3002 941.2HR89=METAR SLBJ 011200Z NIL=METAR SLHI 011200Z NIL=
ZPX0227 011207@CAELT@GG SLZZYMYT@CAELT@011205 SLTRYGYS@CAELT@SABO SLTR 011200 RRA@CAELT@METAR SLTR 011200Z 00000KT 9999 FEW005 BKN080 25/24 Q1014 A2997@CAELT@996.2 HR95 NOSIG=@CAELT@METAR SLGM 011200Z 19004KT 7000 VCSH FEW005 SCT015 FEW020CB BKN080@CAELT@24/23 Q1014 A2996 HR96 CB/SH SW/W=@CAELT@METAR SLRI 011200Z NIL=METAR SLJO 011200Z 32006KT 8000 VCSH BKN008 FEW020CB OVC070 24/23Q1012 A2991 HR97 RERA CB/SH NW/W RWY WET INOP=METAR SLRA 011200Z 12004KT 7000 VCSH BKN006 OVC070 24/24 Q1013 A2992HR97 RERA SH N/S RWY OPR C206=METAR SLMG 011200Z 00000KT 8000 VCSH FEW007 FEW023CB OVC070 24/23Q1013 A2992 HR98 CB/SH SE/NW RWY OPR C210=METAR SLBU 011200Z NIL=METAR RTD SLSA 011200Z 00000KT 9999 BKN015 BKN080 24/24 Q1008 A2979HR96=METAR SLSR 011200Z NIL=METAR SLSM 011200Z 00000KT 9999 SCT017 BKN070 24/24 Q1014 A2997 HR97RWY WET INOP=
ZPX0230 011217@CAELT@GG SLZZYMYT@CAELT@011216 SLTRYGYS@CAELT@SABO SLTR 011200 RRB@CAELT@METAR SLTR 011200Z 00000KT 9999 FEW005 BKN080 25/24 Q1014 A2997@CAELT@996.2 HR95 NOSIG=@CAELT@METAR SLGM 011200Z 19004KT 7000 VCSH FEW005 SCT015 FEW020CB BKN080@CAELT@24/23 Q1014 A2996 HR96 CB/SH SW/W=@CAELT@METAR RTD SLRI 011200Z 00000KT 5000 -RA BKN004 FEW020CB OVC070 23/23Q1015 A2998 HR98 CB S/SW=METAR SLJO 011200Z 32006KT 8000 VCSH BKN008 FEW020CB OVC070 24/23Q1012 A2991 HR97 RERA CB/SH NW/W RWY WET INOP=METAR SLRA 011200Z 12004KT 7000 VCSH BKN006 OVC070 24/24 Q1013 A2992HR97 RERA SH N/S RWY OPR C206=METAR SLMG 011200Z 00000KT 8000 VCSH FEW007 FEW023CB OVC070 24/23Q1013 A2992 HR98 CB/SH SE/NW RWY OPR C210=METAR SLBU 011200Z NIL=METAR SLSA 011200Z 00000KT 9999 BKN015 BKN080 24/24 Q1008 A2979 HR96=METAR SLSR 011200Z NIL=METAR SLSM 011200Z 00000KT 9999 SCT017 BKN070 24/24 Q1014 A2997 HR97RWY WET INOP=
ZPX0241 011253@CAELT@GG SLZZYMYT@CAELT@011252 SLPSYGYS@CAELT@SABO SLPS 011300@CAELT@METAR SLPS 011300Z 00000KT 9999 FEW013 BKN070 25/24 Q1015 A2998 HR95=@CAELT@
ZPX0242 011254@CAELT@GG SLZZYMYT@CAELT@011253 SLRBYGYS@CAELT@SABO SLRB 011400@CAELT@METAR SLRB 011400Z 00000KT 9999 SCT023 BKN070 25/22 Q1018 A3006 HR85@CAELT@RWY NML=@CAELT@
ZPX0243 011255@CAELT@GG SLZZYMYT@CAELT@011255 SLSBYSYX@CAELT@SABO SLSB 011300@CAELT@METAR SLSB 011300Z 00000KT 8000 -DZ SCT010 SCT017 OVC200 25/24 Q1016@CAELT@A3001 HR92 RWY WET OPR C210=@CAELT@
ZPX0244 011255@CAELT@GG SLZZYMYT@CAELT@011254 SLCAYGYS@CAELT@SABO SLCA 011300@CAELT@METAR SLCA 011300Z 00000KT 9999 OVC010 21/19 Q1020 A3012 HR88 RWY NML@CAELT@
ZPX0245 011255@CAELT@GG SLZZYMYT@CAELT@011255 SLORYGYZ@CAELT@SABO SLOR 011300@CAELT@METAR SLOR 011300Z 35005KT 9999 FEW017 SCT200 13/06 Q1036 A3062 657.2@CAELT@HR60=@CAELT@
ZPX0246 011255@CAELT@GG SLZZYMYT@CAELT@011255 SLORYGYZ@CAELT@SABO SLOR 011300@CAELT@METAR SLOR 011300Z 35005KT 9999 FEW017 SCT200 13/06 Q1036 A3062 657.2@CAELT@HR60=@CAELT@
ZPX0247 011255@CAELT@GG SLZZYMYT@CAELT@011255 SLCOYGYZ@CAELT@SABO SLCO 011300@CAELT@METAR SLCO 011300Z 00000KT 9999 BKN004 BKN080 24/23 Q1015 A2999 988.0@CAELT@HR93=@CAELT@
ZPX0248 011256@CAELT@GG SLZZYMYT@CAELT@011255 SLCBYGYZ@CAELT@SABO SLCB 011300@CAELT@METAR SLCB 011300Z 00000KT 7000 SCT023 SCT070 BKN200 19/15 Q1028@CAELT@A3038 754.2 HR75 FU NOSIG=@CAELT@
ZPX0249 011256@CAELT@GG SLZZYMYT@CAELT@011256 SLLPYGYZ@CAELT@SABO SLLP 011300@CAELT@METAR SLLP 011300Z 11006KT 070V150 6000 FEW006 SCT012 BKN200 08/05@CAELT@Q1040 A3073 629.7 HR82 P92// VIS/RED/SC/BAJOS NE/E/SE NOSIG=@CAELT@
ZPX0250 011256@CAELT@GG SLZZYMYT@CAELT@011256 SLVRYGYZ@CAELT@SABO SLVR 011300@CAELT@METAR SLVR 011300Z 18008KT 9999 FEW017 BKN070 24/20 Q1016 A3002 HR75@CAELT@NOSIG=@CAELT@
ZPX0251 011257@CAELT@GG SLZZYMYT@CAELT@011251 SLETYMYC@CAELT@SABO SLET 011300@CAELT@METAR SLET 011300Z 17009KT 9999 FEW025TCU BKN080 24/19 Q1016 A3001@CAELT@HR76 TCU W CI NOSIG=@CAELT@
ZPX0252 011257@CAELT@GG SLZZYMYT@CAELT@011257 SLTRYGYZ@CAELT@SABO SLTR 011300@CAELT@METAR SLTR 011300Z 32003KT 9999 FEW005 BKN080 26/24 Q1015 A2998@CAELT@996.8 HR88 NOSIG=@CAELT@
ZPX0253 011258@CAELT@GG SLZZYMYT@CAELT@011258 SLTJYGYZ@CAELT@SABO SLTJ 011300@CAELT@METAR SLTJ 011300Z 00000KT 9999 FEW020 21/17 Q1022 A3019 817.0 HR76@CAELT@CI=@CAELT@
ZPX0254 011259@CAELT@GG SLZZYMYT@CAELT@011258 SLLPYFYA@CAELT@SABO SLRY 011300@CAELT@METAR SLRY 011300Z 00000KT 6000 VCSH SCT006 BKN015 OVC070 25/24@CAELT@Q1012 A2991 HR94 SH N/NE/E/W/NW RWY WET OPR C206=@CAELT@
ZPX0255 011259@CAELT@GG SLZZYMYT@CAELT@011258 SLTRYGYS@CAELT@SABO SLTR 011300@CAELT@METAR SLTR 011300Z 32003KT 9999 FEW005 BKN080 26/24 Q1015 A2998@CAELT@996.8 HR88 NOSIG=@CAELT@METAR SLGM 013000Z 19004KT 7000 VCSH FEW005 SCT015 FEW020CB BKN080@CAELT@25/23 Q1014 A2996 HR87 CB/SH SW/W=@CAELT@METAR SLRI 013000Z 00000KT 7000 VCSH BKN004 FEW020CB BKN070 24/23Q1015 A2999 HR97 RERA CB/SH S/SW=METAR SLJO 013000Z 00000KT 9999 SCT008 OVC070 24/23 Q1013 A2992 HR93RWY WET OPR C206=METAR SLRA 013000Z 32004KT 9999 BKN006 OVC070 25/24 Q1013 A2994 HR97RWY OPR C206=METAR SLMG 013000Z 32004KT 9999 BKN008 OVC070 25/24 Q1014 A2994 HR96RWY OPR C210=METAR SLBU 013000Z NIL=METAR SLSA 013000Z 00000KT 9999 BKN015 BKN070 25/24 Q1009 A2980 HR95=METAR SLSR 013000Z NIL=METAR SLSM 013000Z 00000KT 9999 BKN017 OVC070 25/24 Q1015 A2998 HR95RWY WET INOP=
ZPX0256 011259@CAELT@GG SLZZYMYT@CAELT@011259 SLCBYGYS@CAELT@SABO SLCB 011300@CAELT@METAR SLCB 011300Z 00000KT 7000 SCT023 SCT070 BKN200 19/15 Q1028@CAELT@A3038 754.2 HR75 FU NOSIG=@CAELT@METAR SLAL 011300Z 29007KT 9999 FEW005 BKN013 14/10 Q1033 A3051 606.4@CAELT@HR77 ST BAJOS/S/SW=@CAELT@METAR SLPO 011300Z NIL=METAR SLAG 011300Z NIL=METAR SLVM 011300Z 00000KT 9999 FEW025 OVC070 23/19 Q1016 A3003 HR82METAR SLTJ 011300Z 00000KT 9999 FEW020 21/17 Q1022 A3019 817.0 HR76CI=METAR SLYA 011300Z 00000KT 9999 SCT027 BKN070 23/20 Q1016 A3003 941.3HR84=METAR SLBJ 011300Z NIL=METAR SLHI 011300Z NIL=
ZPX0258 011300@CAELT@GG SLZZYMYT@CAELT@011301 SLVRYFYC@CAELT@SABO SLVR 011300@CAELT@METAR SLVR 011300Z 18008KT 9999 FEW017 BKN070 24/20 Q1016 A3002 HR75@CAELT@NOSIG=@CAELT@METAR SLET 011300Z 17009KT 9999 FEW025TCU BKN080 24/19 Q1016 A3001@CAELT@HR76 TCU W CI NOSIG=@CAELT@METAR SLAS 011300Z 00000KT 9999 SCT015 27/23 Q1017 A3003 HR78 RWY NMLMETAR SLJV 011300Z 00000KT 9999 NSC 27/24 Q1015 A2997 HR86 RWY NML=METAR SLCP 011300Z 00000KT 9999 SCT070 25/24 Q1018 A3006 HR92 RWY NMLMETAR SLSI 011300Z 00000KT 9999 BKN070 23/23 Q1015 A2997 HR96 RWY WETOPR=METAR SLTI 011300Z 00000KT 9999 NSC 28/24 Q1019 A3009 HR80 CI RWY NMLMETAR SLJE 011300Z 00000KT 9999 SCT012 OVC070 27/23 Q1018 A3006 HR70RWY NML=METAR SLVG 011300Z 00000KT 9999 BKN015 18/15 Q1027 A3033 HR86 RWY WETMETAR SLRB 011400Z 00000KT 9999 SCT023 BKN070 25/22 Q1018 A3006 HR85METAR SLPS 011300Z 00000KT 9999 FEW013 BKN070 25/24 Q1015 A2998 HR95=METAR SLCA 011300Z 00000KT 9999 OVC010 21/19 Q1020 A3012 HR88 RWY NML
ZPX0259 011301@CAELT@GG SLZZYMYT@CAELT@011301 SLLPYFYA@CAELT@SABO SLLP 011300@CAELT@METAR SLLP 011300Z 11006KT 070V150 6000 FEW006 SCT012 BKN200 08/05@CAELT@Q1040 A3073 629.7 HR82 P92// VIS/RED/SC/BAJOS NE/E/SE NOSIG=@CAELT@METAR SLCO 011300Z 00000KT 9999 BKN004 BKN080 24/23 Q1015 A2999@CAELT@988.0 HR93=@CAELT@METAR SLRY 011300Z 00000KT 6000 VCSH SCT006 BKN015 OVC070 25/24Q1012 A2991 HR94 SH N/NE/E/W/NW RWY WET OPR C206=METAR SLRQ 011300Z 00000KT 9999 SCT012 BKN017 BKN070 25/24 Q1015A2998 HR94=METAR SLSB 011300Z 00000KT 8000 -DZ SCT010 SCT017 OVC200 25/24Q1016 A3001 HR92 RWY WET OPR C210=METAR SLAP 011300Z 00000KT 9999 FEW025 SCT070 19/17 Q1021 A3017861.9 HR86=METAR SLOR 011300Z 35005KT 9999 FEW017 SCT200 13/06 Q1036 A3062657.2 HR60=
ZPX0274 011351@CAELT@GG SLZZYMYT@CAELT@011351 SLCAYGYS@CAELT@SABO SLCA 011400@CAELT@METAR SLCA 011400Z 00000KT 9999 OVC013 23/19 Q1020 A3012 HR81 RWY NML@CAELT@
ZPX0275 011352@CAELT@GG SLZZYMYT@CAELT@011351 SLPSYGYS@CAELT@SABO SLPS 011400@CAELT@METAR SLPS 011400Z 00000KT 9999 FEW013 BKN070 26/25 Q1015 A2998 HR92=@CAELT@
ZPX0276 011353@CAELT@GG SLZZYMYT@CAELT@011353 SLRBYGYS@CAELT@SABO SLRB 011400@CAELT@METAR SLRB 011400Z 00000KT 9999 SCT023 BKN070 26/23 Q1018 A3006 HR83@CAELT@RWY NML=@CAELT@
ZPX0277 011354@CAELT@GG SLZZYMYT@CAELT@011354 SLCBYGYZ@CAELT@SABO SLCB 011400@CAELT@METAR SLCB 011400Z 13003KT 9000 SCT025 SCT200 20/14 Q1028 A3036 753.9@CAELT@HR67 AC FU NOSIG=@CAELT@
ZPX0278 011355@CAELT@GG SLZZYMYT@CAELT@011355 SLVRYGYZ@CAELT@SABO SLVR 011400@CAELT@METAR SLVR 011400Z 20006KT 9999 FEW020 BKN080 26/21 Q1016 A3002 HR73@CAELT@NOSIG=@CAELT@
ZPX0279 011355@CAELT@GG SLZZYMYT@CAELT@011353 SLCOYGYZ@CAELT@SABO SLCO 011400@CAELT@METAR SLCO 011400Z 17003KT 9999 BKN007 BKN080 26/24 Q1015 A2999 988.0@CAELT@HR86=@CAELT@
ZPX0280 011355@CAELT@GG SLZZYMYT@CAELT@011355 SLORYGYZ@CAELT@SABO SLOR 011400@CAELT@METAR SLOR 011400Z 35004KT 9999 FEW020 SCT200 15/06 Q1036 A3061 657.0@CAELT@HR53=@CAELT@
ZPX0281 011355@CAELT@GG SLZZYMYT@CAELT@011355 SLORYGYZ@CAELT@SABO SLOR 011400@CAELT@METAR SLOR 011400Z 35004KT 9999 FEW020 SCT200 15/06 Q1036 A3061 657.0@CAELT@HR53=@CAELT@
ZPX0282 011355@CAELT@GG SLZZYMYT@CAELT@011355 SLTRYGYZ@CAELT@SABO SLTR 011400@CAELT@METAR SLTR 011400Z 03004KT 9999 FEW015 BKN080 27/24 Q1015 A2999@CAELT@997.0 HR86 NOSIG=@CAELT@
ZPX0283 011356@CAELT@GG SLZZYMYT@CAELT@011355 SLLPYGYZ@CAELT@SABO SLLP 011400@CAELT@METAR SLLP 011400Z 10004KT 040V150 8000 FEW006 SCT017 BKN200 10/06@CAELT@Q1040 A3073 629.8 HR73 P92// VIS/RED SC/BAJOS NE/E/SE AC NOSIG=@CAELT@
ZPX0284 011356@CAELT@GG SLZZYMYT@CAELT@011354 SLETYMYC@CAELT@SABO SLET 011400@CAELT@METAR SLET 011400Z 16008KT 9999 FEW017 BKN080 25/19 Q1016 A3002 HR71@CAELT@NOSIG=@CAELT@
ZPX0285 011357@CAELT@GG SLZZYMYT@CAELT@011358 SLVRYFYC@CAELT@SABO SLVR 011400@CAELT@METAR SLVR 011400Z 20006KT 9999 FEW020 BKN080 26/21 Q1016 A3002 HR73@CAELT@NOSIG=@CAELT@METAR SLET 011400Z 16008KT 9999 FEW017 BKN080 25/19 Q1016 A3002 HR71@CAELT@METAR SLAS 011400Z 00000KT 9999 SCT015 30/25 Q1017 A3003 HR74 RWY NML@CAELT@METAR SLJV 011400Z 00000KT 9999 NSC 29/23 Q1015 A2997 HR73 RWY NML=METAR SLCP 011400Z 00000KT 9999 FEW017 BKN070 27/24 Q1018 A3006 HR85RWY NML=METAR SLSI 011400Z 00000KT 9999 BKN070 25/23 Q1015 A2997 HR92 RWY WETOPR=METAR SLTI 011400Z 00000KT 9999 NSC 29/23 Q1019 A3009 HR74 CI RWY NMLMETAR SLJE 011400Z 00000KT 9999 SCT015 OVC070 28/23 Q1018 A3006 HR76METAR SLVG 011400Z 00000KT 9999 BKN020 BKN200 20/16 Q1027 A3033 HR74RWY WET OPR=METAR SLRB 011400Z 00000KT 9999 SCT023 BKN070 26/23 Q1018 A3006 HR83METAR SLPS 011400Z 00000KT 9999 FEW013 BKN070 26/25 Q1015 A2998 HR92=METAR SLCA 011400Z 00000KT 9999 OVC013 23/19 Q1020 A3012 HR81 RWY NML
ZPX0286 011358@CAELT@GG SLZZYMYT@CAELT@011358 SLLPYFYA@CAELT@SABO SLRY 011400@CAELT@METAR SLRY 011400Z 00000KT 8000 VCSH SCT010 BKN015 OVC070 26/24@CAELT@Q1013 A2992 HR86 SH/N/E/ RWY WET OPR C206=@CAELT@
ZPX0287 011358@CAELT@GG SLZZYMYT@CAELT@011357 SLSBYSYX@CAELT@SABO SLSB 011400@CAELT@METAR SLSB 011400Z 00000KT 9999 BKN015 BKN200 27/24 Q1016 A3001 HR88@CAELT@REDZ RWY WET OPR C210=@CAELT@
ZPX0288 011358@CAELT@GG SLZZYMYT@CAELT@011358 SLTRYGYS@CAELT@SABO SLTR 011400@CAELT@METAR SLTR 011400Z 03004KT 9999 FEW015 BKN080 27/24 Q1015 A2999@CAELT@997.0 HR86 NOSIG=@CAELT@METAR SLGM 011400Z 00000KT 9999 SCT015 FEW020CB BKN080 27/23 Q1014@CAELT@A2996 HR81 CB W=@CAELT@METAR SLRI 011400Z 00000KT 9999 SCT008 FEW020CB BKN070 25/23 Q1015A2998 HR91 CB SW=METAR SLJO 011400Z 28006KT 9999 SCT012 BKN080 26/24 Q1013 A2993HR88 SH SE RWY OPR C206=METAR SLRA 011400Z 32006KT 9999 SCT006 BKN015 OVC070 25/24 Q1014A2995 HR94 RWY OPR C206=METAR SLMG 011400Z 32004KT 9999 BKN012 BKN200 26/24 Q1014 A2996HR91 RWY OPR C210=METAR SLBU 011400Z NIL=METAR SLSR 011400Z NIL=METAR SLSM 011400Z 00000KT 9999 BKN015 OVC070 27/25 Q1015 A2999HR89 RWY WET INOP=
ZPX0290 011359@CAELT@GG SLZZYMYT@CAELT@011359 SLTJYGYZ@CAELT@SABO SLTJ 011400@CAELT@METAR SLTJ 011400Z 21004KT 9999 FEW027 23/16 Q1022 A3018 816.6 HR65@CAELT@CI=@CAELT@
ZPX0291 011359@CAELT@GG SLZZYMYT@CAELT@011359 SLLPYFYA@CAELT@SABO SLLP 011400@CAELT@METAR SLLP 011400Z 10004KT 040V150 8000 FEW006 SCT017 BKN200 10/06@CAELT@Q1040 A3073 629.8 HR73 P92// VIS/RED SC/BAJOS NE/E/SE AC NOSIG=@CAELT@METAR SLCO 011400Z 17003KT 9999 BKN007 BKN080 26/24 Q1015 A2999@CAELT@988.0 HR86=@CAELT@METAR SLRY 011400Z 00000KT 8000 VCSH SCT010 BKN015 OVC070 26/24Q1013 A2992 HR86 SH/N/E/ RWY WET OPR C206=METAR SLRQ 011400Z 00000KT 9999 BKN013 BKN070 27/25 Q1015 A2998HR87=METAR SLSB 011400Z 00000KT 9999 BKN015 BKN200 27/24 Q1016 A3001HR88 REDZ RWY WET OPR C210=METAR SLAP 011400Z 00000KT 9999 SCT020 FEW023CB BKN070 21/18 Q1021A3017 861.8 HR81 CB/SH/S=METAR SLOR 011400Z 35004KT 9999 FEW020 SCT200 15/06 Q1036 A3061657.0 HR53=
ZPX0293 011400@CAELT@GG SLZZYMYT@CAELT@011400 SLCBYGYS@CAELT@SABO SLCB 011400@CAELT@METAR SLCB 011400Z 13003KT 9000 SCT025 SCT200 20/14 Q1028 A3036 753.9@CAELT@HR67 AC FU NOSIG=@CAELT@METAR SLAL 011400Z 25003KT 9999 BKN015 15/10 Q1033 A3050 706.3 HR72@CAELT@METAR SLPO 011400Z NIL=@CAELT@METAR SLAG 011400Z NIL=METAR SLVM 011400Z 00000KT 9999 SCT025 OVC070 23/20 Q1016 A3003 HR82METAR SLTJ 011400Z 21004KT 9999 FEW027 23/16 Q1022 A3018 816.6 HR65CI=METAR SLYA 011400Z 00000KT 9999 SCT027 BKN070 24/21 Q1017 A3003 941.5HR83=METAR SLBJ 011400Z NIL=METAR SLHI 011400Z NIL=
ZPX0294 011401@CAELT@GG SLZZYMYT@CAELT@011400 SLTRYGYS@CAELT@SABO SLTR 011400@CAELT@METAR SLTR 011400Z 03004KT 9999 FEW015 BKN080 27/24 Q1015 A2999@CAELT@997.0 HR86 NOSIG=@CAELT@METAR SLGM 011400Z 00000KT 9999 SCT015 FEW020CB BKN080 27/23 Q1014@CAELT@A2996 HR81 CB W=@CAELT@METAR SLRI 011400Z 00000KT 9999 SCT008 FEW020CB BKN070 25/23 Q1015A2998 HR91 CB SW=METAR SLJO 011400Z 28006KT 9999 SCT012 BKN080 26/24 Q1013 A2993HR88 SH SE RWY OPR C206=METAR SLRA 011400Z 32006KT 9999 SCT006 BKN015 OVC070 25/24 Q1014A2995 HR94 RWY OPR C206=METAR SLMG 011400Z 32004KT 9999 BKN012 BKN200 26/24 Q1014 A2996HR91 RWY OPR C210=METAR SLBU 011400Z NIL=METAR SLSA 011400Z NIL=METAR SLSR 011400Z NIL=METAR SLSM 011400Z 00000KT 9999 BKN015 OVC070 27/25 Q1015 A2999HR89 RWY WET INOP=
ZPX0299 011409@CAELT@GG SLZZYMYT@CAELT@011407 SLTRYGYS@CAELT@SABO SLTR 011400 RRA@CAELT@METAR SLTR 011400Z 03004KT 9999 FEW015 BKN080 27/24 Q1015 A2999@CAELT@997.0 HR86 NOSIG=@CAELT@METAR SLGM 011400Z 00000KT 9999 SCT015 FEW020CB BKN080 27/23 Q1014@CAELT@A2996 HR81 CB W=@CAELT@METAR SLRI 011400Z 00000KT 9999 SCT008 FEW020CB BKN070 25/23 Q1015A2998 HR91 CB SW=METAR SLJO 011400Z 28006KT 9999 SCT012 BKN080 26/24 Q1013 A2993HR88 SH SE RWY OPR C206=METAR SLRA 011400Z 32006KT 9999 SCT006 BKN015 OVC070 25/24 Q1014A2995 HR94 RWY OPR C206=METAR SLMG 011400Z 32004KT 9999 BKN012 BKN200 26/24 Q1014 A2996HR91 RWY OPR C210=METAR SLBU 011400Z NIL=METAR RTD SLSA 011400Z 00000KT 8000 VCSH BKN015 BKN080 25/24 Q1009A2982 HR92 SH N/NE=METAR SLSR 011400Z NIL=METAR SLSM 011400Z 00000KT 9999 BKN015 OVC070 27/25 Q1015 A2999HR89 RWY WET INOP=
ZPX0314 011452@CAELT@GG SLZZYMYT@CAELT@011450 SLPSYGYS@CAELT@SABO SLPS 011500@CAELT@METAR SLPS 011500Z 00000KT 9999 FEW013 BKN070 26/24 Q1015 A2998 HR91=@CAELT@
ZPX0315 011453@CAELT@GG SLZZYMYT@CAELT@011453 SLRBYGYS@CAELT@SABO SLRB 011500@CAELT@METAR SLRB 011500Z 00000KT 9999 SCT023 BKN070 27/24 Q1018 A3006 HR82@CAELT@RWY NML=@CAELT@
ZPX0316 011454@CAELT@GG SLZZYMYT@CAELT@011454 SLSBYSYX@CAELT@SABO SLSB 011500@CAELT@METAR SLSB 011500Z 00000KT 9999 BKN017 BKN080 28/24 Q1015 A2999 HR80@CAELT@RWY WET OPR C210=@CAELT@
ZPX0317 011455@CAELT@GG SLZZYMYT@CAELT@011454 SLSAYGYS@CAELT@SABO SLSA 011500@CAELT@METAR SLSA 011500Z 00000KT 8000 VCSH BKN015 BKN080 26/25@CAELT@Q1015 A2995 HR89 SH N/NE=@CAELT@
ZPX0318 011455@CAELT@GG SLZZYMYT@CAELT@011455 SLVRYGYZ@CAELT@SABO SLVR 011500@CAELT@METAR SLVR 011500Z 16005KT 9999 FEW020 FEW025TCU SCT080 28/21 Q1016@CAELT@A3000 HR65 TCU/W NOSIG=@CAELT@
ZPX0319 011455@CAELT@GG SLZZYMYT@CAELT@011455 SLLPYGYZ@CAELT@SABO SLLP 011500@CAELT@METAR SLLP 011500Z 13005KT 9999 FEW008 SCT017 BKN200 12/06 Q1040@CAELT@A3072 629.5 HR69 P94// AC NOSIG=@CAELT@
ZPX0320 011455@CAELT@GG SLZZYMYT@CAELT@011455 SLTRYGYZ@CAELT@SABO SLTR 011500@CAELT@METAR SLTR 011500Z 04005KT 8000 -RA FEW015 BKN080 27/24 Q1015 A2999@CAELT@997.0 HR84 NOSIG=@CAELT@
ZPX0321 011455@CAELT@GG SLZZYMYT@CAELT@011455 SLLPYFYA@CAELT@SABO SLRY 011500@CAELT@METAR SLRY 011500Z 00000KT 9999 BKN016 BKN070 27/24 Q1012 A2992 HR84@CAELT@RWY WET OPR C206=@CAELT@
ZPX0322 011456@CAELT@GG SLZZYMYT@CAELT@011455 SLCBYGYZ@CAELT@SABO SLCB 011500@CAELT@METAR SLCB 011500Z 18004KT 9999 SCT027 SCT200 22/12 Q1027 A3035 753.5@CAELT@HR51 AC FU NOSIG=@CAELT@
ZPX0323 011456@CAELT@GG SLZZYMYT@CAELT@011438 SLETYMYC@CAELT@SABO SLET 011500@CAELT@METAR SLET 011500Z 14006KT 9999 FEW017 FEW027CB 28/21 Q1015 A3000@CAELT@HR66 CB W AC NOSIG=@CAELT@
ZPX0324 011456@CAELT@GG SLZZYMYT@CAELT@011456 SLTJYGYZ@CAELT@SABO SLTJ 011500@CAELT@METAR SLTJ 011500Z 18004KT 9999 FEW030 24/15 Q1021 A3016 816.0 HR57=@CAELT@
ZPX0325 011457@CAELT@GG SLZZYMYT@CAELT@011456 SLCOYGYZ@CAELT@SABO SLCO 011500@CAELT@METAR SLCO 011500Z VRB02KT 9999 BKN013 BKN080 28/24 Q1015 A2997 987.5@CAELT@HR82=@CAELT@
ZPX0326 011457@CAELT@GG SLZZYMYT@CAELT@011446 SLCAYGYS@CAELT@SABO SLCA 011500@CAELT@METAR SLCA 011500Z 00000KT 9999 OVC017 23/18 Q1020 A3012 HR74 RWY NML@CAELT@
ZPX0328 011458@CAELT@GG SLZZYMYT@CAELT@011459 SLVRYFYC@CAELT@SABO SLVR 011500@CAELT@METAR SLVR 011500Z 16005KT 9999 FEW020 FEW025TCU SCT080 28/21 Q1016@CAELT@A3000 HR65 TCU/W NOSIG=@CAELT@METAR SLET 011500Z 14006KT 9999 FEW017 FEW027CB 28/21 Q1015 A3000@CAELT@HR66 CB W AC NOSIG=@CAELT@METAR SLAS 011500Z 00000KT 9999 SCT017 31/25 Q1017 A3003 HR68 RWY NMLMETAR SLJV 011500Z 36065KT 9999 BKN015 29/23 Q1015 A2997 HR72 RWY NMLMETAR SLCP 011500Z 00000KT 9999 SCT020 BKN070 28/24 Q1018 A3006 HR78RWY NML=METAR SLSI 011500Z 00000KT 9999 BKN070 27/24 Q1015 A2997 HR85 RWY HUMOPR=METAR SLTI 011500Z 00000KT 9999 NSC 30/24 Q1019 A3009 HR70 CI RWY NMLMETAR SLJE 011500Z 00000KT 9999 BKN015 OVC070 30/24 Q1018 A3006 HR71METAR SLVG 011500Z 35004KT 9999 SCT023 FEW030CB BKN200 21/16 Q1026A3030 HR67 CB NW/S/SE SH/NW RWY WET OPR=METAR SLRB 011500Z 00000KT 9999 SCT023 BKN070 27/24 Q1018 A3006 HR82METAR SLPS 011500Z 00000KT 9999 FEW013 BKN070 26/24 Q1015 A2998 HR91=METAR SLCA 011500Z 00000KT 9999 OVC017 23/18 Q1020 A3012 HR74 RWY NML
ZPX0329 011459@CAELT@GG SLZZYMYT@CAELT@011459 SLCBYGYS@CAELT@SABO SLCB 011500@CAELT@METAR SLCB 011500Z 18004KT 9999 SCT027 SCT200 22/12 Q1027 A3035 753.5@CAELT@HR51 AC FU NOSIG=@CAELT@METAR SLAL 011500Z 00000KT 9999 BKN020 17/10 Q1032 A3049 706.0 HR62@CAELT@METAR SLPO 011500Z NIL=@CAELT@METAR SLAG 011500Z NIL=METAR SLVM 011500Z 00000KT 9999 SCT025 OVC070 25/20 Q1016 A3001 HR74METAR SLTJ 011500Z 18004KT 9999 FEW030 24/15 Q1021 A3016 816.0 HR57=METAR SLYA 011500Z 06008KT 9999 SCT023 BKN070 24/21 Q1016 A3002 941.0HR82=METAR SLBJ 011500Z NIL=METAR SLHI 011500Z NIL=
ZPX0330 011459@CAELT@GG SLZZYMYT@CAELT@011458 SLTRYGYS@CAELT@SABO SLTR 011500@CAELT@METAR SLTR 011500Z 04005KT 8000 -RA FEW015 BKN080 27/24 Q1015 A2999@CAELT@997.0 HR84 NOSIG=@CAELT@METAR SLGM 011500Z 00000KT 9999 SCT015 BKN080 29/24 Q1014 A2996 HR74=@CAELT@METAR SLRI 011500Z 00000KT 9999 SCT015 FEW020CB BKN070 27/24 Q1015@CAELT@A2998 HR85 CB SE=METAR SLJO 011500Z 27006KT 9999 SCT012 SCT080 BKN200 28/24 Q1013A2994 HR81 RWY WET OPR C206=METAR SLRA 011500Z 32006KT 9999 BKN015 BKN080 27/24 Q1014 A2995HR85 RWY OPR C206=METAR SLMG 011500Z 32004KT 9999 BKN015 BKN200 26/24 Q1014 A2996HR88 RWY OPR C210=METAR SLBU 011500Z NIL=METAR SLSA 011500Z 00000KT 8000 VCSH BKN015 BKN080 26/25 Q1014 A2995HR89 SH N/NE=METAR SLSR 011500Z NIL=METAR SLSM 011500Z 00000KT 9999 BKN017 BKN070 28/25 Q1015 A2998 HR85RWY WET INOP=
ZPX0332 011501@CAELT@GG SLZZYMYT@CAELT@011500 SLLPYFYA@CAELT@SABO SLLP 011500@CAELT@METAR SLLP 011500Z 13005KT 9999 FEW008 SCT017 BKN200 12/06 Q1040@CAELT@A3072 629.5 HR69 P94// AC NOSIG=@CAELT@METAR SLCO 011500Z VRB02KT 9999 BKN013 BKN080 28/24 Q1015 A2997@CAELT@987.5 HR82=@CAELT@METAR SLRY 011500Z 00000KT 9999 BKN016 BKN070 27/24 Q1012 A2992HR84 RWY WET OPR C206=METAR SLRQ 011500Z 00000KT 9999 BKN013 BKN070 28/25 Q1014 A2997HR83=METAR SLSB 011500Z 00000KT 9999 BKN017 BKN080 28/24 Q1015 A2999HR80 RWY WET OPR C210=METAR SLAP 011500Z 00000KT 9999 FEW020 FEW23CB SCT070 23/19 Q1020A3013 860.7 HR75 CB/SH/S=
ZPX0335 011509@CAELT@GG SLZZYMYT@CAELT@011507 SLTRYGYS@CAELT@SABO SLTR 011500 RRA@CAELT@METAR SLTR 011500Z 04005KT 8000 -RA FEW015 BKN080 27/24 Q1015 A2999@CAELT@997.0 HR84 NOSIG=@CAELT@METAR SLGM 011500Z 00000KT 9999 SCT015 BKN080 29/24 Q1014 A2996 HR74=@CAELT@METAR SLRI 011500Z 00000KT 9999 SCT015 FEW020CB BKN070 27/24 Q1015@CAELT@A2998 HR85 CB SE=METAR SLJO 011500Z 27006KT 9999 SCT012 SCT080 BKN200 28/24 Q1013A2994 HR81 RWY WET OPR C206=METAR SLRA 011500Z 32006KT 9999 BKN015 BKN080 27/24 Q1014 A2995HR85 RWY OPR C206=METAR SLMG 011500Z 32004KT 9999 BKN015 BKN200 26/24 Q1014 A2996HR88 RWY OPR C210=METAR SLBU 011500Z NIL=METAR SLSA 011500Z 00000KT 8000 VCSH BKN015 BKN080 26/25 Q1014 A2995HR89 SH N/NE=METAR RTD SLSR 011500Z 00000KT 9999 SCT015 FEW023CB BKN080 27/24Q1015 A2998 HR85 CB E/SE RWY WET INOP=METAR SLSM 011500Z 00000KT 9999 BKN017 BKN070 28/25 Q1015 A2998 HR85RWY WET INOP=
ZPX0347 011552@CAELT@GG SLZZYMYT@CAELT@011551 SLPSYGYS@CAELT@SABO SLPS 011600@CAELT@METAR SLPS 011600Z 00000KT 9999 FEW015 BKN070 26/25 Q1015 A2998 HR89=@CAELT@
ZPX0348 011553@CAELT@GG SLZZYMYT@CAELT@011553 SLCAYGYS@CAELT@SABO SLCA 011600@CAELT@METAR SLCA 011600Z 00000KT 9999 BKN025 26/19 Q1019 A3009 HR64 RWY NML@CAELT@
ZPX0350 011554@CAELT@GG SLZZYMYT@CAELT@011555 SLCBYGYZ@CAELT@SABO SLCB 011600@CAELT@METAR SLCB 011600Z 26005KT 9999 SCT027 SCT200 24/11 Q1026 A3032 752.8@CAELT@HR45 AC FU NOSIG=@CAELT@
ZPX0351 011554@CAELT@GG SLZZYMYT@CAELT@011553 SLRBYGYS@CAELT@SABO SLRB 011600@CAELT@METAR SLRB 011600Z 00000KT 9999 SCT023 BKN070 27/24 Q1017 A3003 HR81@CAELT@RWY NML=@CAELT@
ZPX0353 011555@CAELT@GG SLZZYMYT@CAELT@011555 SLTRYGYZ@CAELT@SABO SLTR 011600@CAELT@METAR SLTR 011600Z 01006KT 9999 FEW017 SCT080 28/24 Q1014 A2996@CAELT@995.9 HR80 RERA NOSIG=@CAELT@
ZPX0354 011555@CAELT@GG SLZZYMYT@CAELT@011555 SLLPYGYZ@CAELT@SABO SLLP 011600@CAELT@METAR SLLP 011600Z 11008KT 050V160 9999 FEW008 SCT017 BKN200 13/07@CAELT@Q1040 A3071 629.3 HR65 P94// AC NOSIG=@CAELT@
ZPX0355 011555@CAELT@GG SLZZYMYT@CAELT@011555 SLVRYGYZ@CAELT@SABO SLVR 011600@CAELT@METAR SLVR 011600Z 04004KT 9999 SCT020 SCT080 30/21 Q1014 A2997 HR57@CAELT@NOSIG=@CAELT@
ZPX0357 011556@CAELT@GG SLZZYMYT@CAELT@011555 SLCOYGYZ@CAELT@SABO SLCO 011600@CAELT@METAR SLCO 011600Z 00000KT 9999 BKN015 SCT080 29/24 Q1014 A2995 986.9@CAELT@HR74=@CAELT@
ZPX0358 011556@CAELT@GG SLZZYMYT@CAELT@011555 SLSBYSYX@CAELT@SABO SLSB 011600@CAELT@METAR SLSB 011600Z 00000KT 9999 BKN020 29/25 Q1014 A2995 HR75 RWY WET@CAELT@OPR C210=@CAELT@
ZPX0360 011557@CAELT@GG SLZZYMYT@CAELT@011557 SLTJYGYZ@CAELT@SABO SLTJ 011600@CAELT@METAR SLTJ 011600Z 18005KT 9999 FEW036 26/14 Q1020 A3013 815.2 HR47@CAELT@CI=@CAELT@
ZPX0362 011557@CAELT@GG SLZZYMYT@CAELT@011552 SLETYMYC@CAELT@SABO SLET 011600@CAELT@METAR SLET 011600Z 27004KT 9999 SCT020 30/20 Q1014 A2997 HR58 CI@CAELT@NOSIG=@CAELT@
ZPX0363 011558@CAELT@GG SLZZYMYT@CAELT@011558 SLCBYGYS@CAELT@SABO SLCB 011600@CAELT@METAR SLCB 011600Z 26005KT 9999 SCT027 SCT200 24/11 Q1026 A3032 752.8@CAELT@HR45 AC FU NOSIG=@CAELT@METAR SLAL 011600Z 00000KT 9999 BKN020 18/09 Q1032 A3048 705.7 HR56@CAELT@METAR SLPO 011600Z NIL=@CAELT@METAR SLAG 011600Z NIL=METAR SLVM 011600Z 36008KT 9999 BKN025 27/21 Q1015 A2998 HR68 FU CI=METAR SLTJ 011600Z 18005KT 9999 FEW036 26/14 Q1020 A3013 815.2 HR47CI=METAR SLYA 011600Z 06008KT 9999 SCT023 BKN070 25/21 Q1016 A3000 940.5HR80=METAR SLBJ 011600Z NIL=METAR SLHI 011600Z NIL=
ZPX0364 011558@CAELT@GG SLZZYMYT@CAELT@011558 SLLPYFYA@CAELT@SABO SLRY 011600@CAELT@METAR SLRY 011600Z 00000KT 9999 BKN016 BKN200 28/24 Q1012 A2989@CAELT@HR79 RWY HUM OPR C206=@CAELT@
ZPX0366 011600@CAELT@GG SLZZYMYT@CAELT@011558 SLTRYGYS@CAELT@SABO SLTR 011600@CAELT@METAR SLTR 011600Z 01006KT 9999 FEW017 SCT080 28/24 Q1014 A2996@CAELT@995.9 HR80 RERA NOSIG=@CAELT@METAR SLGM 011600Z 02006KT 9999 SCT017 SCT080 BKN200 30/24 Q1013@CAELT@A2994 HR67=@CAELT@METAR SLRI 011600Z 00000KT 9999 BKN015 BKN070 29/24 Q1014 A2997HR75=METAR SLJO 011600Z 18006KT 8000 VCSH SCT017 FEW023CB BKN200 29/24Q1013 A2992 HR75 CB/SH E/SE AC RWY WET OPT C206=METAR SLRA 011600Z 32006KT 9999 BKN015 BKN080 29/25 Q1014 A2995HR79 RWY C206=METAR SLMG 011600Z 32004KT 9999 SCT015 BKN080 27/24 Q1013 A2994HR82 RWY OPR C210=METAR SLBU 011600Z NIL=METAR SLSA 011600Z 00000KT 8000 VCSH BKN017 BKN080 38/24 Q1013A2994 HR77 SH NW=METAR SLSR 011600Z 00000KT 9999 SCT015 FEW023CB BKN080 28/24 Q1013A2994 HR79 CB SE RWY WET INOP=METAR SLSM 011600Z 33006KT 9999 BKN015 FEW023CB BKN070 28/25 Q1014A2996 HR83 CB N/W/NW RWY WET INOP=
ZPX0367 011600@CAELT@GG SLZZYMYT@CAELT@011600 SLLPYFYA@CAELT@SABO SLLP 011600@CAELT@METAR SLLP 011600Z 11008KT 050V160 9999 FEW008 SCT017 BKN200 13/07@CAELT@Q1040 A3071 629.3 HR65 P94// AC NOSIG=@CAELT@METAR SLCO 011600Z 00000KT 9999 BKN015 SCT080 29/24 Q1014 A2995@CAELT@986.9 HR74=@CAELT@METAR SLRY 011600Z 00000KT 9999 BKN016 BKN200 28/24 Q1012 A2989HR79 RWY HUM OPR C206=METAR SLRQ 011600Z 16004KT 9999 BKN015 29/25 Q1014 A2995 HR80AC CI=METAR SLSB 011600Z 00000KT 9999 BKN020 29/25 Q1014 A2995 HR75RWY WET OPR C210=METAR SLAP 011600Z 00000KT 9999 FEW020 SCT070 25/18 Q1020 A3013860.6 HR69 CI=
ZPX0368 011601@CAELT@GG SLZZYMYT@CAELT@011602 SLVRYFYC@CAELT@SABO SLVR 011600@CAELT@METAR SLVR 011600Z 04004KT 9999 SCT020 SCT080 30/21 Q1014 A2997 HR57@CAELT@NOSIG=@CAELT@METAR SLET 011600Z 27004KT 9999 SCT020 30/20 Q1014 A2997 HR58 CI@CAELT@METAR SLAS 011600Z 00000KT 8000 VCSH BKN017 FEW030CB 32/24 Q1016@CAELT@A3000 HR65 CB/SH N/NE/E RWY NML=METAR SLCP 011600Z 00000KT 9999 BKN020 FEW027CB 30/24 Q1017 A3003HR70 CB SW/NW RWY NML=METAR SLSI 011600Z 00000KT 9999 SCT017 BKN070 30/24 Q1014 A2994 HR70RWY HUM OPR=METAR SLRB 011600Z 00000KT 9999 SCT023 BKN070 27/24 Q1017 A3003 HR81RWY NML=METAR SLPS 011600Z 00000KT 9999 FEW015 BKN070 26/25 Q1015 A2998 HR89=METAR SLCA 011600Z 00000KT 9999 BKN025 26/19 Q1019 A3009 HR64 RWY NML
ZPX0381 011653@CAELT@GG SLZZYMYT@CAELT@011651 SLPSYGYS@CAELT@SABO SLPS 011600@CAELT@METAR SLPS 011600Z 36004KT 9999 FEW017 BKN070 27/24 Q1014 A2995 HR83=@CAELT@
ZPX0382 011654@CAELT@GG SLZZYMYT@CAELT@011654 SLSBYSYX@CAELT@SABO SLSB 011700@CAELT@METAR SLSB 011700Z 00000KT 9999 BKN020 29/24 Q1013 A2992 HR73 RWY WET@CAELT@OPR C210=@CAELT@
ZPX0383 011654@CAELT@GG SLZZYMYT@CAELT@011654 SLCBYGYZ@CAELT@SABO SLCB 011700@CAELT@METAR SLCB 011700Z 29005KT 9999 FEW027 FEW030CB SCT200 26/11 Q1025@CAELT@A3028 751.7 HR41 CB/E AC FU NOSIG=@CAELT@
ZPX0384 011654@CAELT@GG SLZZYMYT@CAELT@011653 SLRBYGYS@CAELT@SABO SLRB 011700@CAELT@METAR SLRB 011700Z 00000KT 9999 SCT023 BKN070 29/24 Q1016 A3000 HR73@CAELT@RWY NML=@CAELT@
ZPX0385 011654@CAELT@GG SLZZYMYT@CAELT@011654 SLSBYSYX@CAELT@SABO SLSB 011700@CAELT@METAR SLSB 011700Z 00000KT 9999 BKN020 29/24 Q1013 A2992 HR73 RWY WET@CAELT@OPR C210=@CAELT@
ZPX0386 011655@CAELT@GG SLZZYMYT@CAELT@011655 SLCOYGYZ@CAELT@SABO SLCO 011700@CAELT@METAR SLCO 011700Z 23003KT 9999 BKN020 SCT080 30/25 Q1013 A2993 986.0@CAELT@HR72 CI=@CAELT@
ZPX0387 011655@CAELT@GG SLZZYMYT@CAELT@011655 SLTRYGYZ@CAELT@SABO SLTR 011700@CAELT@METAR SLTR 011700Z 35006KT 9999 SCT017 29/24 Q1013 A2992 994.7@CAELT@HR74 AC NOSIG=@CAELT@
ZPX0388 011655@CAELT@GG SLZZYMYT@CAELT@011655 SLLPYGYZ@CAELT@SABO SLLP 011700@CAELT@METAR SLLP 011700Z 12009KT 090V160 9999 SCT017 FEW020CB BKN200 14/06@CAELT@Q1039 A3069 628.8 HR60 P94// CB/NW AC NOSIG=@CAELT@
ZPX0389 011655@CAELT@GG SLZZYMYT@CAELT@011656 SLVRYGYZ@CAELT@SABO SLVR 011700@CAELT@METAR SLVR 011700Z 01007KT 9999 BKN020 31/21 Q1013 A2994 HR53 AC@CAELT@NOSIG=@CAELT@
ZPX0390 011655@CAELT@GG SLZZYMYT@CAELT@011655 SLTJYGYZ@CAELT@SABO SLTJ 011700@CAELT@METAR SLTJ 011700Z 00000KT 9999 FEW036 28/12 Q1019 A3011 814.6 HR38=@CAELT@
ZPX0391 011656@CAELT@GG SLZZYMYT@CAELT@011643 SLETYMYC@CAELT@SABO SLET 011700@CAELT@METAR SLET 011700Z 30006KT 9999 SCT020 31/21 Q1013 A2993 HR53 NOSIG=@CAELT@
ZPX0392 011657@CAELT@GG SLZZYMYT@CAELT@011657 SLCAYGYS@CAELT@SABO SLCA 011700@CAELT@METAR SLCA 011700Z 00000KT 9999 BKN033 28/19 Q1017 A3003 HR60 RWY NML@CAELT@
ZPX0393 011658@CAELT@GG SLZZYMYT@CAELT@011659 SLVRYFYC@CAELT@SABO SLVR 011700@CAELT@METAR SLVR 011700Z 01007KT 9999 BKN020 31/21 Q1013 A2994 HR53 AC@CAELT@NOSIG=@CAELT@METAR SLET 011700Z 30006KT 9999 SCT020 31/21 Q1013 A2993 HR53 NOSIG=@CAELT@METAR SLAS 011700Z 33008KT 4000 -TSRA BKN017 FEW030CB 27/25 Q1016@CAELT@A3000 HR88 CB/TS/ON STN/N/NW RWY HUM OPR=METAR SLCP 011700Z 00000KT 9999 BKN020 FEW027CB 30/24 Q1016 A3000HR70 CB SW/W/NW RWY NML=METAR SLSI 011700Z 33006KT 9999 SCT017 BKN070 31/24 Q1013 A2991 HR65RWY HUM OPR=METAR SLRB 011700Z 00000KT 9999 SCT023 BKN070 29/24 Q1016 A3000 HR73RWY NML=METAR SLPS 011600Z 36004KT 9999 FEW017 BKN070 27/24 Q1014 A2995 HR83=METAR SLCA 011700Z 00000KT 9999 BKN033 28/19 Q1017 A3003 HR60 RWY NML
ZPX0394 011658@CAELT@GG SLZZYMYT@CAELT@011658 SLTRYGYS@CAELT@SABO SLTR 011700@CAELT@METAR SLTR 011700Z 35006KT 9999 SCT017 29/24 Q1013 A2992 994.7 HR74@CAELT@AC NOSIG=@CAELT@METAR SLGM 011700Z 04004KT 9999 SCT017 BKN200 31/24 Q1012 A2990 HR66=@CAELT@METAR SLRI 011700Z 00000KT 9999 BKN017 BKN200 30/24 Q1014 A2995 HR72=@CAELT@METAR SLJO 011700Z 18004KT 8000 VCSH BKN017 FEW023CB 30/24 Q1012A2990 HR72 CB/SH NE/E/SE CI RWY WET OPR C206=METAR SLRA 011700Z 32004KT 8000 VCSH SCT017 FEW023CB BKN080 29/24Q1013 A2993 HR74 CB/SH E RWY HUM OPR=METAR SLMG 011700Z 00000KT 9999 SCT017 BKN080 29/24 Q1013 A2991 HR75RWY HUM OPR=METAR SLBU 011700Z NIL=METAR SLSA 011700Z 00000KT 9999 BKN017 BKN080 28/24 Q1013 A2992 HR79=METAR SLSR 011700Z 00000KT 9999 SCT017 SCT080 BKN200 29/24 Q1013A2994 HR73 RWY WET OPR C206=METAR SLSM 011700Z 33004KT 9999 SCT015 FW023CB SCT070 29/24 Q1013A2993 HR77 CB S RWY WET INOP=
ZPX0395 011659@CAELT@GG SLZZYMYT@CAELT@011658 SLLPYFYA@CAELT@SABO SLRY 011700@CAELT@METAR SLRY 01170Z 18003KT 9999 BKN017 BKN200 30/24 Q1011 A2987@CAELT@HR70 RWY HUM OPR C206=@CAELT@
ZPX0397 011700@CAELT@GG SLZZYMYT@CAELT@011659 SLLPYFYA@CAELT@SABO SLLP 011700@CAELT@METAR SLLP 011700Z 12009KT 090V160 9999 SCT017 FEW020CB BKN200 14/06@CAELT@Q1039 A3069 628.8 HR60 P94// CB/NW AC NOSIG=@CAELT@METAR SLCO 011700Z 23003KT 9999 BKN020 SCT080 30/25 Q1013 A2993@CAELT@986.0 HR72 CI=@CAELT@METAR SLRY 011700Z 18003KT 9999 BKN017 BKN200 30/24 Q1011 A2987HR70 RWY HUM OPR C206=METAR SLRQ 011700Z 00000KT 9999 BKN017 SCT200 30/25 Q1012 A2991HR75=METAR SLSB 011700Z 00000KT 9999 BKN020 29/24 Q1013 A2992 HR73RWY WET OPR C210=METAR SLAP 011700Z 00000KT 9999 SCT020 26/19 Q1019 A3011 860.1 HR62AC/CI=
ZPX0399 011702@CAELT@GG SLZZYMYT@CAELT@011700 SLCBYGYS@CAELT@SABO SLCB 011700@CAELT@METAR SLCB 011700Z 29005KT 9999 FEW027 FEW030CB SCT200 26/11 Q1025@CAELT@A3028 751.7 HR41 CB/E AC FU NOSIG=@CAELT@METAR SLAL 011700Z 35006KT 9999 BKN023 19/09 Q1031 A3046 705.4 HR54@CAELT@METAR SLPO 011700Z NIL=@CAELT@METAR SLAG 011700Z NIL=METAR SLVM 011700Z 36005KT 9999 BKN025 29/22 Q1014 A2996 HR66 FU CI=METAR SLTJ 011700Z 00000KT 9999 FEW036 28/12 Q1019 A3011 814.6 HR38=METAR SLYA 011700Z 06008KT 9999 SCT023 BKN070 26/21 Q1015 A2999 940.0HR76=METAR SLBJ 011700Z NIL=METAR SLHI 011700Z NIL=
ZPX0427 011754@CAELT@GG SLZZYMYT@CAELT@011755 SLSBYSYX@CAELT@SABO SLSB 011800@CAELT@METAR SLSB 011800Z 34003KT 9999 BKN020 31/24 Q1015 A2987 HR66 RWY WET@CAELT@OPR C210=@CAELT@
ZPX0428 011754@CAELT@GG SLZZYMYT@CAELT@011754 SLCBYGYZ@CAELT@SABO SLCB 011800@CAELT@METAR SLCB 011800Z 08012G22KT 9999 SCT027 FEW030CB BKN070 20/11 Q1024@CAELT@A3026 751.2 HR53 CB N/NE FU CI NOSIG=@CAELT@
ZPX0429 011754@CAELT@GG SLZZYMYT@CAELT@011752 SLPSYGYS@CAELT@SABO SLPS 011800@CAELT@METAR SLPS 011800Z 36004KT 9999 FEW017 BKN070 29/25 Q1013 A2992 HR79=@CAELT@
ZPX0430 011754@CAELT@GG SLZZYMYT@CAELT@011754 SLCAYGYS@CAELT@SABO SLCA 011800@CAELT@METAR SLCA 011800Z 00000KT 9999 SCT033 30/20 Q1016 A3000 HR56 RWY NML@CAELT@
ZPX0431 011755@CAELT@GG SLZZYMYT@CAELT@011755 SLTJYGYZ@CAELT@SABO SLTJ 011800@CAELT@METAR SLTJ 011800Z 15005KT 9999 FEW036 29/15 Q1018 A3008 813.7 HR43=@CAELT@
ZPX0432 011755@CAELT@GG SLZZYMYT@CAELT@011755 SLLPYFYA@CAELT@SABO SLRY 011800@CAELT@METAR SLRY 01180Z 00000KT 9999 SCT017 BKN200 31/25 Q1010 A2984@CAELT@HR70 RWY HUM OPR C206=@CAELT@
ZPX0433 011755@CAELT@GG SLZZYMYT@CAELT@011756 SLVRYGYZ@CAELT@SABO SLVR 011800@CAELT@METAR SLVR 011800Z 36010KT 9999 BKN020 32/21 Q1012 A2991 HR53 NOSIG=@CAELT@
ZPX0434 011755@CAELT@GG SLZZYMYT@CAELT@011753 SLRBYGYS@CAELT@SABO SLRB 011800@CAELT@METAR SLRB 011800Z 00000KT 9999 SCT020 FEW025CB 31/23 Q1015 A2997@CAELT@HR62 CB/E RWY NML=@CAELT@
ZPX0435 011756@CAELT@GG SLZZYMYT@CAELT@011755 SLLPYGYZ@CAELT@SABO SLLP 011800@CAELT@METAR SLLP 011800Z 11008KT 070V200 9999 SCT017 FEW020CB BKN200 15/07@CAELT@Q1038 A3067 628.3 HR58 P1784 CB/SH NE/NW AC NOSIG=@CAELT@
ZPX0436 011756@CAELT@GG SLZZYMYT@CAELT@011756 SLCOYGYZ@CAELT@SABO SLCO 011800@CAELT@METAR SLCO 011800Z 290006KT 9999 BKN020 30/25 Q1012 A2990 985.0 HR74@CAELT@AC/CI=@CAELT@
ZPX0437 011756@CAELT@GG SLZZYMYT@CAELT@011756 SLCBYGYS@CAELT@SABO SLCB 011800@CAELT@METAR SLCB 011800Z 08012G22KT 9999 SCT027 FEW030CB BKN070 20/11 Q1024@CAELT@A3026 751.2 HR53 CB N/NE FU CI NOSIG=@CAELT@METAR SLAL 011800Z 01004KT 9999 BKN023 20/09 Q1030 A3043 704.6 HR50@CAELT@METAR SLPO 011800Z NIL=@CAELT@METAR SLAG 011800Z NIL=METAR SLVM 011800Z NIL=METAR SLTJ 011800Z 15005KT 9999 FEW036 29/15 Q1018 A3008 813.7 HR43=METAR SLYA 011800Z 06008KT 9999 SCT023 BKN070 26/22 Q1014 A2996 939.2HR78=METAR SLBJ 011800Z NIL=METAR SLHI 011800Z NIL=
ZPX0438 011757@CAELT@GG SLZZYMYT@CAELT@011757 SLCOYGYZ@CAELT@SABO SLCO 011800 CCA@CAELT@METAR COR SLCO 011800Z 29006KT 9999 BKN020 30/25 Q1012 A2990 985.0@CAELT@HR74 AC/CI=@CAELT@
ZPX0439 011759@CAELT@GG SLZZYMYT@CAELT@011759 SLTRYGYZ@CAELT@SABO SLTR 011800@CAELT@METAR SLTR 011800Z 30004KT 9999 SCT017 SCT200 30/24 Q1011 A2987 992.7@CAELT@HR70 NOSIG=@CAELT@
ZPX0441 011800@CAELT@GG SLZZYMYT@CAELT@011759 SLETYMYC@CAELT@SABO SLET 011800@CAELT@METAR SLET 011800Z 31009KT 9999 BKN020 32/21 Q1012 A2989 HR53 NOSIG=@CAELT@
ZPX0442 011800@CAELT@GG SLZZYMYT@CAELT@011759 SLTRYGYS@CAELT@SABO SLTR 011800@CAELT@METAR SLTR 011800Z 30004KT 9999 SCT017 SCT200 30/24 Q1011 A2987 992.7@CAELT@HR70 NOSIG=@CAELT@METAR SLGM 011800Z 02006KT 9999 SCT017 BKN200 32/25 Q1011 A2987 HR64=@CAELT@METAR SLRI 011800Z 00000KT 9999 SCT017 BKN200 30/24 Q1013 A2992@CAELT@HR70=METAR SLJO 011800Z NIL=METAR SLRA 011800Z 33003KT 9999 FEW017 SCT200 31/24 Q1012 A2989HR67 AC RWY NML=METAR SLMG 011800Z 00000KT 9999 SCT017 30/25 Q1011 A2988 HR74 CIRWY HUM OPR=METAR SLBU 011800Z NILMETAR SLSA 011800Z 00000KT 9999 SCT017 BKN080 30/24 Q1012 A2989 HR68=METAR SLSR 011800Z 00000KT 9999 SCT017 BKN200 30/25 Q1012 A2990 HR73RWY WET OPR C206=METAR SLSM 011800Z 22004KT 9999 SCT017 FEW023CB SCT200 28/24 Q1012A2989 HR77 AS CB S/SW/W RWY WET INOP=
ZPX0443 011801@CAELT@GG SLZZYMYT@CAELT@011802 SLVRYFYC@CAELT@SABO SLVR 011800@CAELT@METAR SLVR 011800Z 36010KT 9999 BKN020 32/21 Q1012 A2991 HR53 NOSIG=@CAELT@METAR SLET 011800Z 31009KT 9999 BKN020 32/21 Q1012 A2989 HR53 NOSIG=@CAELT@METAR SLAS 011800Z 00000KT 8000 TS VCSH BKN017 FEW030CB OVC200 26/24@CAELT@Q1015 A2997 HR89 CB/TS/SH/NE/E RWY HUM OPR=@CAELT@METAR SLJV 011800Z 12004KT 9999 TS BKN013 FEW030CB OVC070 23/23 Q1013A2991 HR97 CB/TS/N/NW/W/SW RERA RWY WET OPR=METAR SLCP 011800Z 00000KT 9999 BKN020 FEW027CB 29/24 Q1016 A3000HR72 CB W/NW RWY NML=METAR SLSI 011800Z 33005KT 9999 SCT017 FEW025CB 32/24 Q1012 A2988HR63 CB/S/SW RWY HUM OPR=METAR SLTI 011800Z 00000KT 9999 SCT017 34/24 Q1016 A3000 HR56 RWY NMLMETAR SLJE 011800Z 00000KT 9999 BKN017 33/24 Q1015 A2997 HR58 RWY NMLMETAR SLVG 011800Z 35004KT 9999 SCT025 FEW030CB BKN200 23/15 Q1024A3024 HR58 CB NW/S SH NW RWY HUM OPR=METAR SLRB 011800Z 00000KT 9999 SCT020 FEW025CB 31/23 Q1015 A2997HR62 CB/E RWY NML=METAR SLPS 011800Z 36004KT 9999 FEW017 BKN070 29/25 Q1013 A2992 HR79=METAR SLCA 011800Z 00000KT 9999 SCT033 30/20 Q1016 A3000 HR56 RWY NML
ZPX0444 011801@CAELT@GG SLZZYMYT@CAELT@011801 SLLPYFYA@CAELT@SABO SLLP 011800@CAELT@METAR SLLP 011800Z 11008KT 070V200 9999 SCT017 FEW020CB BKN200 15/07@CAELT@Q1038 A3067 628.3 HR58 P1784 CB/SH NE/NW AC NOSIG=@CAELT@METAR SLCO 011800Z 29006KT 9999 BKN020 30/25 Q1012 A2990 985.0@CAELT@HR74 AC/CI=@CAELT@METAR SLRY 011800Z 00000KT 9999 SCT017 BKN200 31/25 Q1010 A2984HR70 RWY HUM OPR C206=METAR SLRQ 011800Z 00000KT 9999 BKN017 SCT200 32/26 Q1011 A2987HR71=METAR SLSB 011800Z 34003KT 9999 BKN020 31/24 Q1015 A2987 HR66RWY WET OPR C210=METAR SLAP 011800Z 00000KT 9999 SCT020 FEW023CB 27/19 Q1018 A3009859.4 HR59 CB/NE AC/CI=
ZPX0460 011854@CAELT@GG SLZZYMYT@CAELT@011853 SLRBYGYS@CAELT@SABO SLRB 011900@CAELT@METAR SLRB 011900Z 00000KT 9999 SCT020 FEW025CB 31/23 Q1014 A2994@CAELT@HR62 CB/W RWY NML=@CAELT@
ZPX0462 011854@CAELT@GG SLZZYMYT@CAELT@011855 SLSBYSYX@CAELT@SABO SLSB 011900@CAELT@METAR SLSB 011900Z 33005KT 9999 SCT020 SCT200 32/24 Q1010 A2983 HR63@CAELT@RWY WET OPR C210=@CAELT@
ZPX0463 011855@CAELT@GG SLZZYMYT@CAELT@011855 SLTJYGYZ@CAELT@SABO SLTJ 011900@CAELT@METAR SLTJ 011900Z 13010KT 9999 FEW036 29/15 Q1017 A3005 812.9 HR43@CAELT@
ZPX0464 011855@CAELT@GG SLZZYMYT@CAELT@011855 SLORYGYZ@CAELT@SABO SLOR 011900@CAELT@METAR SLOR 011900Z 06006KT 9999 SCT020 FEW025CB BKN200 21/07 Q1034@CAELT@A3053 655.2 HR40 CB/SH NW=@CAELT@
ZPX0465 011855@CAELT@GG SLZZYMYT@CAELT@011855 SLORYGYZ@CAELT@SABO SLOR 011900@CAELT@METAR SLOR 011900Z 06006KT 9999 SCT020 FEW025CB BKN200 21/07 Q1034@CAELT@A3053 655.2 HR40 CB/SH NW=@CAELT@
ZPX0466 011855@CAELT@GG SLZZYMYT@CAELT@011855 SLCAYGYS@CAELT@SABO SLCA 011900@CAELT@METAR SLCA 011900Z 00000KT 9999 SCT033 31/20 Q1016 A3000 HR51 RWY NML@CAELT@
ZPX0467 011856@CAELT@GG SLZZYMYT@CAELT@011856 SLVRYGYZ@CAELT@SABO SLVR 011900@CAELT@METAR SLVR 011900Z 35008KT 9999 BKN020 32/21 Q1012 A2989 HR51 NOSIG=@CAELT@
ZPX0468 011856@CAELT@GG SLZZYMYT@CAELT@011856 SLTRYGYZ@CAELT@SABO SLTR 011900@CAELT@METAR SLTR 011900Z 02003KT 9999 SCT017 SCT200 31/24 Q1010 A2984@CAELT@992.0 HR69 NOSIG=@CAELT@
ZPX0470 011857@CAELT@GG SLZZYMYT@CAELT@011857 SLLPYGYZ@CAELT@SABO SLLP 011900@CAELT@METAR SLLP 011900Z 12008KT 9999 SCT017 FEW020CB BKN200 15/06 Q1036@CAELT@A3062 627.2 HR53 P1784 CB/SH NE/NW AC NOSIG=@CAELT@
ZPX0471 011858@CAELT@GG SLZZYMYT@CAELT@011850 SLETYMYC@CAELT@SABO SLET 011900@CAELT@METAR SLET 011900Z 31010KT 9999 BKN020 32/20 Q1011 A2987 HR50 NOSIG=@CAELT@
ZPX0472 011858@CAELT@GG SLZZYMYT@CAELT@011858 SLLPYFYA@CAELT@SABO SLRY 011900@CAELT@METAR SLRY 011900Z 00000KT 9999 SCT017 SCT200 31/24 Q1009 A2980@CAELT@HR66 RWY HUM OPR C206=@CAELT@
ZPX0473 011858@CAELT@GG SLZZYMYT@CAELT@011857 SLCOYGYZ@CAELT@SABO SLCO 011900@CAELT@METAR SLCO 011900Z 17003KT 9999 BKN020 30/23 Q1010 A2985 983.3 HR67@CAELT@AC/CI=@CAELT@
ZPX0474 011858@CAELT@GG SLZZYMYT@CAELT@011859 SLVRYFYC@CAELT@SABO SLVR 011900@CAELT@METAR SLVR 011900Z 35008KT 9999 BKN020 32/21 Q1012 A2989 HR51 NOSIG=@CAELT@METAR SLET 011900Z 31010KT 9999 BKN020 32/20 Q1011 A2987 HR50 NOSIG=@CAELT@METAR SLAS 011900Z 00000KT 9999 BKN017 FEW030CB OVC200 26/24 Q1014@CAELT@A2994 HR83 CB/SH/SE/S/W RWY NML=@CAELT@METAR SLJV 011900Z 00000KT 9999 BKN015 FEW030CB OVC070 22/22 Q1012A2988 HR95 CB/S/SW RETS RWY WET OPR=METAR SLCP 011900Z 00000KT 9999 SCT020 FEW027CB BKN200 29/24 Q1015A2997 HR72 CB W/NW RWY NML=METAR SLSI 011900Z 33005KT 9999 SCT017 FEW025CB BKN200 32/24 Q1011A2985 HR61 CB/N/S/SW RWY HUM OPR=METAR SLTI 011900Z 00000KT 9999 FEW017 34/24 Q1014 A2994 HR54 RWY NMLMETAR SLJE 011900Z 00000KT 8000 VCSH BKN017 FEW030CB BKN200 33/23Q1014 A2994 HR58 CB/SH/NE/E RWY NML=METAR SLVG 011900Z 36005KT 9999 SCT025 FEW030CB BKN200 23/16 Q1023A3021 HR62 CB E/SE RWY HUM OPR=METAR SLRB 011900Z 00000KT 9999 SCT020 FEW025CB 31/23 Q1014 A2994HR62 CB/W RWY NML=METAR SLPS 011900Z 00000KT 9999 FEW017 FEW030CB 32/25 Q1011 A2986HR70 CB/N=METAR SLCA 011900Z 00000KT 9999 SCT033 31/20 Q1016 A3000 HR51 RWY NML
ZPX0475 011858@CAELT@GG SLZZYMYT@CAELT@011858 SLCBYGYZ@CAELT@SABO SLCB 011900@CAELT@METAR SLCB 011900Z 07009KT 9999 FEW027 FEW030CB SCT070 BKN200 24/09@CAELT@Q1023 A3021 749.8 HR38 CB N/S NOSIG=@CAELT@
ZPX0476 011859@CAELT@GG SLZZYMYT@CAELT@011859 SLLPYFYA@CAELT@SABO SLLP 011900@CAELT@METAR SLLP 011900Z 12008KT 9999 SCT017 FEW020CB BKN200 15/06 Q1036@CAELT@A3062 627.2 HR53 P1784 CB/SH NE/NW AC NOSIG=@CAELT@METAR SLCO 011900Z 17003KT 9999 BKN020 30/23 Q1010 A2985 983.3 HR67@CAELT@AC/CI=@CAELT@METAR SLRY 011900Z 00000KT 9999 SCT017 SCT200 31/24 Q1009 A2980HR66 RWY HUM OPR C206=METAR SLRQ 011900Z 00000KT 9999 BKN017 SCT200 32/26 Q1010 A2983HR69=METAR SLSB 011900Z 33005KT 9999 SCT020 SCT200 32/24 Q1010 A2983HR63 RWY WET OPR C210=METAR SLOR 011900Z 06006KT 9999 SCT020 FEW025CB BKN200 21/07 Q1034A3053 655.2 HR40 CB/SH NW=
ZPX0477 011859@CAELT@GG SLZZYMYT@CAELT@011859 SLTRYGYS@CAELT@SABO SLTR 011900@CAELT@METAR SLTR 011900Z 02003KT 9999 SCT017 SCT200 31/24 Q1010 A2984@CAELT@992.0 HR69 NOSIG=@CAELT@METAR SLGM 011900Z 24004KT 9999 SCT017 BKN200 32/24 Q1010 A2982 HR62=@CAELT@METAR SLRI 011900Z 00000KT 9999 SCT017 BKN200 30/24 Q1012 A2989 HR70=@CAELT@METAR SLJO 011900Z NIL=METAR SLRA 011900Z 34003KT 9999 FEW017 SCT200 31/24 Q1011 A2986 HR67RWY NML=METAR SLMG 011900Z 00000KT 9999 SCT017 31/25 Q1010 A2985 HR71METAR SLBU 011900Z NIL=METAR SLSA 011900Z 34005KT 9999 SCT017 BKN080 31/24 Q1011 A2988 HR66=METAR SLSR 011900Z 00000KT 9999 SCT017 SCT200 30/25 Q1011 A2986 HR71RWY OPR C206=METAR SLSM 011900Z 22004KT 9999 SCT017 FEW023CB SCT200 29/25 Q1010A2985 HR78 CB S/SW RWY WET INOP=
ZPX0479 011900@CAELT@GG SLZZYMYT@CAELT@011900 SLCBYGYS@CAELT@SABO SLCB 011900@CAELT@METAR SLCB 011900Z 07009KT 9999 FEW027 FEW030CB SCT070 BKN200 24/09@CAELT@Q1023 A3021 749.8 HR38 CB N/S NOSIG=@CAELT@METAR SLAL 011900Z 34003KT 9999 SCT023 21/10 Q1029 A3039 703.7 HR47=@CAELT@METAR SLPO 011900Z NIL=@CAELT@METAR SLAG 011900Z NIL=METAR SLVM 011900Z NIL=METAR SLTJ 011900Z 13010KT 9999 FEW036 29/15 Q1017 A3005 812.9 HR43METAR SLYA 011900Z NIL=METAR SLBJ 011900Z NIL=METAR SLHI 011900Z NIL=
ZPX0497 011953@CAELT@GG SLZZYMYT@CAELT@011952 SLPSYGYS@CAELT@SABO SLPS 012000@CAELT@METAR SLPS 012000Z 00000KT 9999 FEW017 FEW030CB 32/25 Q1010 A2983@CAELT@HR68 CB/NE=@CAELT@
ZPX0498 011953@CAELT@GG SLZZYMYT@CAELT@011953 SLRBYGYS@CAELT@SABO SLRB 012000@CAELT@METAR SLRB 012000Z 35008KT 9999 TS SCT020 FEW025CB 26/23 Q1013 A2991@CAELT@HR85 RESH CB/TS/S RWY NML=@CAELT@
ZPX0499 011954@CAELT@GG SLZZYMYT@CAELT@011954 SLCAYGYS@CAELT@SABO SLCA 012000@CAELT@METAR SLCA 012000Z 00000KT 9999 SCT033 32/18 Q1014 A2994 HR43 RWY NML@CAELT@
ZPX0500 011955@CAELT@GG SLZZYMYT@CAELT@011954 SLORYGYZ@CAELT@SABO SLOR 012000@CAELT@METAR SLOR 012000Z 10013KT 9999 SCT020 FEW025CB BKN200 23/08 Q1033@CAELT@A3052 655.0 HR36 CB/SH DIST NW=@CAELT@
ZPX0501 011955@CAELT@GG SLZZYMYT@CAELT@011955 SLSBYSYX@CAELT@SABO SLSB 012000@CAELT@METAR SLSB 012000Z 00000KT 9999 SCT020 BKN200 32/24 Q1008 A2978 HR62@CAELT@RWY WET OPR C210=@CAELT@
ZPX0502 011955@CAELT@GG SLZZYMYT@CAELT@011955 SLCBYGYZ@CAELT@SABO SLCB 012000@CAELT@METAR SLCB 012000Z 14004KT 9999 FEW027 FEW030CB SCT080 BKN200 24/07@CAELT@Q1022 A3019 749.4 HR34 CB E/W NOSIG=@CAELT@
ZPX0503 011955@CAELT@GG SLZZYMYT@CAELT@011955 SLVRYGYZ@CAELT@SABO SLVR 012000@CAELT@METAR SLVR 012000Z 36008KT 9999 BKN020 FEW025TCU 32/21 Q1011 A2987@CAELT@HR51 TCU/N CI NOSIG=@CAELT@
ZPX0504 011955@CAELT@GG SLZZYMYT@CAELT@011955 SLCOYGYZ@CAELT@SABO SLCO 012000@CAELT@METAR SLCO 012000Z 28004KT 9999 SCT023 30/25 Q1009 A2982 982.3 HR73@CAELT@AC/CI=@CAELT@
ZPX0505 011955@CAELT@GG SLZZYMYT@CAELT@011956 SLLPYGYZ@CAELT@SABO SLLP 012000@CAELT@METAR SLLP 012000Z 12011KT 070V160 9999 SCT017 FEW020CB SCT200 16/06@CAELT@Q1035 A3059 626.6 HR50 P94// CB/SH SW/NW AC NOSIG=@CAELT@
ZPX0506 011956@CAELT@GG SLZZYMYT@CAELT@011955 SLTJYGYZ@CAELT@SABO SLTJ 012000@CAELT@METAR SLTJ 012000Z 10010KT 9999 FEW036 27/14 Q1017 A3003 812.5 HR45@CAELT@
ZPX0507 011956@CAELT@GG SLZZYMYT@CAELT@011956 SLTRYGYZ@CAELT@SABO SLTR 012000@CAELT@METAR SLTR 012000Z 08003KT 9999 SCT017 SCT200 28/25 Q1009 A2982@CAELT@991.3 HR83 RESHRA NOSIG=@CAELT@
ZPX0509 011957@CAELT@GG SLZZYMYT@CAELT@011957 SLCBYGYS@CAELT@SABO SLCB 012000@CAELT@METAR SLCB 012000Z 14004KT 9999 FEW027 FEW030CB SCT080 BKN200 24/07@CAELT@Q1022 A3019 749.4 HR34 CB E/W NOSIG=@CAELT@METAR SLAL 012000Z 01006KT 9999 SCT023 21/09 Q1028 A3036 703.0 HR46=@CAELT@METAR SLTJ 012000Z 10010KT 9999 FEW036 27/14 Q1017 A3003 812.5 HR45@CAELT@
ZPX0510 011957@CAELT@GG SLZZYMYT@CAELT@011956 SLSAYGYS@CAELT@SABO SLSA 0120000@CAELT@METAR SLSA 012000Z 00000KT 9999 SCT017 BKN080 32/24 Q1010 A2984 HR62=@CAELT@
ZPX0511 011957@CAELT@GG SLZZYMYT@CAELT@011956 SLSAYGYS@CAELT@SABO SLSA 0120000@CAELT@METAR SLSA 012000Z 00000KT 9999 SCT017 BKN080 32/24 Q1010 A2984 HR62=@CAELT@
ZPX0512 011957@CAELT@GG SLZZYMYT@CAELT@011949 SLETYMYC@CAELT@SABO SLET 012000@CAELT@METAR SLET 012000Z 33011KT 9999 FEW020 FEW025TCU 33/20 Q1010 A2985@CAELT@HR49 TCU N CI NOSIG=@CAELT@
ZPX0513 011958@CAELT@GG SLZZYMYT@CAELT@011959 SLVRYFYC@CAELT@SABO SLVR 012000@CAELT@METAR SLVR 012000Z 36008KT 9999 BKN020 FEW025TCU 32/21 Q1011 A2987@CAELT@HR51 TCU/N CI NOSIG=@CAELT@METAR SLET 012000Z 33011KT 9999 FEW020 FEW025TCU 33/20 Q1010 A2985@CAELT@HR49 TCU N CI NOSIG=@CAELT@METAR SLAS 012000Z 00000KT 9999 FEW020 FEW030CB OVC200 27/24 Q1013A2992 HR85 CB/SH/N/SE RWY NML=METAR SLJV 012000Z 00000KT 9999 BKN015 OVC070 23/22 Q1012 A2988 HR94RWY WET OPR=METAR SLCP 012000Z 00000KT 9999 SCT020 BKN200 28/23 Q1015 A2997 HR78RWY NML=METAR SLSI 012000Z 27008KT 9999 BKN015 FEW025CB BKN200 29/24 Q1012A2988 HR72 CB/NW/NE/SE/W RWY NML=METAR SLTI 012000Z 00000KT 9999 FEW017 SCT200 34/23 Q1013 A2991 HR50METAR SLJE 012000Z 00000KT 8000 VCSH SCT017 FEW030CB BKN200 29/25Q1014 A2994 CB/SH/E/S/SW RESH RWY NML=METAR SLVG 012000Z 36004KT 9999 SCT027 FEW030CB BKN200 23/16 Q1023A3021 HR65 CB E/SE/S SH E RWY HUM OPR=METAR SLRB 012000Z 35008KT 9999 TS SCT020 FEW025CB 26/23 Q1013 A2991HR85 RESH CB/TS/S RWY NML=METAR SLPS 012000Z 00000KT 9999 FEW017 FEW030CB 32/25 Q1010 A2983HR68 CB/NE=METAR SLCA 012000Z 00000KT 9999 SCT033 32/18 Q1014 A2994 HR43 RWY NML
ZPX0514 011959@CAELT@GG SLZZYMYT@CAELT@011958 SLTRYGYS@CAELT@SABO SLTR 012000@CAELT@METAR SLTR 012000Z 08003KT 9999 SCT017 SCT200 28/25 Q1009 A2982@CAELT@991.3 HR83 RESHRA NOSIG=@CAELT@METAR SLGM 012000Z 32008KT 9999 SCT017 FEW020CB BKN200 33/24 Q1009@CAELT@A2979 HR60 CB E=@CAELT@METAR SLRI 012000Z 00000KT 9999 SCT017 BKN200 31/24 Q1010 A2983 HR64=METAR SLJO 012000Z NIL=METAR SLRA 012000Z 36003KT 9999 FEW017 SCT200 32/24 Q1010 A2984 HR65RWY NML=METAR SLMG 012000Z 00000KT 9999 SCT017 31/25 Q1010 A2984 HR70METAR SLBU 012000Z NIL=METAR SLSA 012000Z 00000KT 9999 SCT017 BKN080 32/24 Q1010 A2984 HR62=METAR SLSR 012000Z 00000KT 9999 FEW017 SCT200 30/25 Q1009 A2980 HR71RWY WET OPR C210=METAR SLSM 012000Z 21003KT 9999 SCT017 BKN200 28/24 Q1009 A2982 HR79RWY WET OPR C206=
ZPX0517 012002@CAELT@GG SLZZYMYT@CAELT@012001 SLLPYFYA@CAELT@SABO SLRY 012000@CAELT@METAR SLRY 012000Z 00000KT 9999 SCT020 SCT200 31/24 Q1007 A2964@CAELT@HR66 RWY HUM OPR C210=@CAELT@
ZPX0519 012003@CAELT@GG SLZZYMYT@CAELT@012003 SLLPYFYA@CAELT@SABO SLLP 012000@CAELT@METAR SLLP 012000Z 12011KT 070V160 9999 SCT017 FEW020CB SCT200 16/06@CAELT@Q1035 A3059 626.6 HR50 P94// CB/SH SW/NW AC NOSIG=@CAELT@METAR SLCO 012000Z 28004KT 9999 SCT023 30/25 Q1009 A2982 982.3 HR73@CAELT@AC/CI=@CAELT@METAR SLRY 012000Z 00000KT 9999 SCT020 SCT200 31/24 Q1007 A2964HR66 RWY HUM OPR C210=METAR SLRQ 012000Z 00000KT 9999 BKN017 SCT200 32/26 Q1008 A2979HR68=METAR SLSB 012000Z 00000KT 9999 SCT020 BKN200 32/24 Q1008 A2978HR62 RWY WET OPR C210=METAR SLOR 012000Z 10013KT 9999 SCT020 FEW025CB BKN200 23/08 Q1033A3052 655.0 HR36 CB/SH DIST NW=
ZPX0533 012050@CAELT@GG SLZZYMYT@CAELT@012050 SLCAYGYS@CAELT@SABO SLCA 012100@CAELT@METAR SLCA 012100Z 00000KT 9999 SCT033 31/19 Q1014 A2994 HR51 RWY NML@CAELT@
ZPX0537 012053@CAELT@GG SLZZYMYT@CAELT@012052 SLPSYGYS@CAELT@SABO SLPS 012100@CAELT@METAR SLPS 012100Z 00000KT 9999 FEW017 SCT200 32/25 Q1009 A2980 HR70=@CAELT@
ZPX0540 012054@CAELT@GG SLZZYMYT@CAELT@012054 SLORYGYZ@CAELT@SABO SLOR 012100@CAELT@METAR SLOR 012100Z 11013KT 9999 SCT020 FEW025CB BKN200 20/04 Q1033@CAELT@A3052 654.9 HR35 CB/SW/W/NW=@CAELT@
ZPX0541 012054@CAELT@GG SLZZYMYT@CAELT@012054 SLSAYGYS@CAELT@SABO SLSA 012100@CAELT@METAR SLSA 012100Z 00000KT 9999 SCT017 BKN200 33/24 Q1010 A2983@CAELT@HR58 AC=@CAELT@
ZPX0542 012054@CAELT@GG SLZZYMYT@CAELT@012054 SLSAYGYS@CAELT@SABO SLSA 012100@CAELT@METAR SLSA 012100Z 00000KT 9999 SCT017 BKN200 33/24 Q1010 A2983@CAELT@HR58 AC=@CAELT@
ZPX0543 012054@CAELT@GG SLZZYMYT@CAELT@012053 SLRBYGYS@CAELT@SABO SLRB 012100@CAELT@METAR SLRB 012100Z 00000KT 9999 SCT020 27/24 Q1013 A2991 HR85 RETS@CAELT@RWY NML=@CAELT@
ZPX0545 012055@CAELT@GG SLZZYMYT@CAELT@012055 SLLPYFYA@CAELT@SABO SLRY 012100@CAELT@METAR SLRY 012100Z 00000KT 9999 FEW020 BKN200 32/24 Q1007 A2974@CAELT@HR62 RWY HUM OPR C210=@CAELT@
ZPX0546 012055@CAELT@GG SLZZYMYT@CAELT@012055 SLSBYSYX@CAELT@SABO SLSB 012100@CAELT@METAR SLSB 012100Z 01003KT 9999 FEW020 BKN200 31/25 Q1008 A2978 HR70@CAELT@RWY WET OPR C210=@CAELT@
ZPX0548 012056@CAELT@GG SLZZYMYT@CAELT@012056 SLTRYGYZ@CAELT@SABO SLTR 012100@CAELT@METAR SLTR 012100Z 10003KT 9999 SCT017 BKN200 30/25 Q1009 A2980@CAELT@990.7 HR77 SH SE NOSIG=@CAELT@
ZPX0549 012057@CAELT@GG SLZZYMYT@CAELT@012055 SLTJYGYZ@CAELT@SABO SLTJ 012100@CAELT@METAR SLTJ 012100Z 13012KT 9999 FEW036 FEW040CB 25/15 Q1016 A3002 812@CAELT@.2 HR53 CB DIST SW CI=@CAELT@
ZPX0550 012057@CAELT@GG SLZZYMYT@CAELT@012057 SLCOYGYZ@CAELT@SABO SLCO 012100@CAELT@METAR SLCO 012100Z 29004KT 9999 SCT023 29/23 Q1008 A2979 981.5 HR72@CAELT@SH/W/NW AC/CI=@CAELT@
ZPX0551 012057@CAELT@GG SLZZYMYT@CAELT@012058 SLVRYGYZ@CAELT@SABO SLVR 012100@CAELT@METAR SLVR 012100Z 01010G22KT 9999 SCT020 FEW025TCU SCT200 27/22@CAELT@Q1011 A2988 HR74 TCU/SH/N/NE NOSIG=@CAELT@
ZPX0552 012058@CAELT@GG SLZZYMYT@CAELT@012057 SLCBYGYZ@CAELT@SABO SLCB 012100@CAELT@METAR SLCB 012100Z 33003KT 9999 FEW027 FEW030CB BKN200 26/07 Q1022@CAELT@A3018 749.0 HR30 CB/E AC NOSIG=@CAELT@
ZPX0553 012058@CAELT@GG SLZZYMYT@CAELT@012058 SLLPYGYZ@CAELT@SABO SLLP 012100@CAELT@METAR SLLP 012100Z 14012KT 110V170 9999 FEW017 FEW020CB SCT200 16/03@CAELT@Q1035 A3059 626.5 HR43 P0784 CB/SH N/S/SW/NW AC NOSIG=@CAELT@
ZPX0554 012058@CAELT@GG SLZZYMYT@CAELT@012029 SLETYMYC@CAELT@SABO SLET 012100@CAELT@METAR SLET 012100Z 35014KT 9999 FEW020 FEW030CB SCT200 31/21 Q1010@CAELT@A2985 HR52 CB N/NE NOSIG=@CAELT@
ZPX0555 012059@CAELT@GG SLZZYMYT@CAELT@012059 SLTRYGYS@CAELT@SABO SLTR 012100@CAELT@METAR SLTR 012100Z 10003KT 9999 SCT017 BKN200 30/25 Q1009 A2980@CAELT@990.7 HR77 SH SE NOSIG=@CAELT@METAR SLGM 012100Z 32006KT 9999 SCT017 FEW020CB BKN200 33/24 Q1008@CAELT@A2979 HR59 CB NE/E=@CAELT@METAR SLRI 012100Z 00000KT 9999 SCT017 BKN200 31/23 Q1009 A2981 HR65=METAR SLJO 012100Z NIL=METAR SLRA 012100Z 08003KT 9999 FEW017 FEW020CB SCT200 32/24 Q1009A2982 HR61 CB E RWY NML=METAR SLMG 012100Z 00000KT 9999 SCT017 FEW020CB 32/25 Q1010 A2982HR66 CB NE CI RWY NML=METAR SLBU 012100Z NIL=METAR SLSA 012100Z 00000KT 9999 SCT017 BKN200 33/24 Q1010 A2983HR58 AC=METAR SLSR 012100Z 00000KT 9999 FEW017 SCT200 31/24 Q1008 A2978 HR64RWY HUM OPR C210=METAR SLSM 012100Z 00000KT 9999 SCT017 FEW023CB BKN200 29/24 Q1009A2981 HR77 CB E RWY WET OPR C206=
ZPX0556 012059@CAELT@GG SLZZYMYT@CAELT@012100 SLVRYFYC@CAELT@SABO SLVR 012100@CAELT@METAR SLVR 012100Z 01010G22KT 9999 SCT020 FEW025TCU SCT200 27/22@CAELT@Q1011 A2988 HR74 TCU/SH/N/NE NOSIG=@CAELT@METAR SLET 012100Z 35014KT 9999 FEW020 FEW030CB SCT200 31/21 Q1010@CAELT@A2985 HR52 CB N/NE NOSIG=@CAELT@METAR SLAS 012100Z 00000KT 9999 FEW030CB OVC200 25/23 Q1013 A2992HR88 CB/SE/NW RWY NML=METAR SLJV 012100Z 00000KT 9999 BKN070 OVC200 23/22 Q1011 A2985 HR93RWY WET OPR=METAR SLCP 012100Z 00000KT 9999 SCT020 FEW027CB BKN200 26/22 Q1014A2994 HR78 CB N/NE/SE RWY NML=METAR SLSI 012100Z 16005KT 9999 SCT015 FEW025CB BKN200 27/23 Q1012A2988 HR80 CB/N/NE RWY NML=METAR SLTI 012100Z 00000KT 9999 FEW017 BKN200 33/23 Q1013 A2991 HR55RWY NML=METAR SLJE 012100Z 00000KT 9999 FEW017 FEW030CB SCT070 BKN200 28/24Q1013 A2991 HR79 CB/SE RWY NML=METAR SLVG 012100Z 36006KT 9999 SCT027 FEW030CB BKN200 22/16 Q1023A3021 HR61 CB W/S SH E RWY NML=METAR SLRB 012100Z 00000KT 9999 SCT020 27/24 Q1013 A2991 HR85 RETSMETAR SLPS 012100Z 00000KT 9999 FEW017 SCT200 32/25 Q1009 A2980 HR70=METAR SLCA 012100Z 00000KT 9999 SCT033 31/19 Q1014 A2994 HR51 RWY NML
ZPX0559 012101@CAELT@GG SLZZYMYT@CAELT@012100 SLCBYGYS@CAELT@SABO SLCB 012100@CAELT@METAR SLCB 012100Z 33003KT 9999 FEW027 FEW030CB BKN200 26/07 Q1022@CAELT@A3018 749.0 HR30 CB/E AC NOSIG=@CAELT@METAR SLAL 012100Z 06013KT 9999 SCT023 21/09 Q1028 A3036 702.9 HR46=@CAELT@METAR SLTJ 012100Z 13012KT 9999 FEW036 FEW040CB 25/15 Q1016 A3002@CAELT@812.2 HR53 CB DIST SW CI=
ZPX0560 012101@CAELT@GG SLZZYMYT@CAELT@012101 SLLPYFYA@CAELT@SABO SLLP 012100@CAELT@METAR SLLP 012100Z 14012KT 110V170 9999 FEW017 FEW020CB SCT200 16/03@CAELT@Q1035 A3059 626.5 HR43 P0784 CB/SH N/S/SW/NW AC NOSIG=@CAELT@METAR SLCO 012100Z 29004KT 9999 SCT023 29/23 Q1008 A2979 981.5 HR72@CAELT@SH/W/NW AC/CI=@CAELT@METAR SLRY 012100Z 00000KT 9999 FEW020 BKN200 32/24 Q1007 A2974HR62 RWY HUM OPR C210=METAR SLRQ 012100Z 36003KT 9999 SCT017 BKN200 31/25 Q1008 A2977HR71=METAR SLSB 012100Z 01003KT 9999 FEW020 BKN200 31/25 Q1008 A2978HR70 RWY WET OPR C210=METAR SLOR 012100Z 11013KT 9999 SCT020 FEW025CB BKN200 20/04 Q1033A3052 654.9 HR35 CB/SW/W/NW=
ZPX0574 012152@CAELT@GG SLZZYMYT@CAELT@012151 SLPSYGYS@CAELT@SABO SLPS 012200@CAELT@METAR SLPS 012200Z 00000KT 9999 FEW017 31/26 Q1010 A2983 HR76=@CAELT@
ZPX0575 012153@CAELT@GG SLZZYMYT@CAELT@012153 SLRBYGYS@CAELT@SABO SLRB 012200@CAELT@METAR SLRB 012200Z 00000KT 9999 SCT020 27/24 Q1013 A2991 HR85 RWY NML=@CAELT@
ZPX0576 012153@CAELT@GG SLZZYMYT@CAELT@012153 SLCAYGYS@CAELT@SABO SLCA 012200@CAELT@METAR SLCA 012200Z 00000KT 9999 SCT033 30/20 Q1014 A2994 HR56 RWY NML@CAELT@
ZPX0577 012153@CAELT@GG SLZZYMYT@CAELT@012154 SLORYGYZ@CAELT@SABO SLOR 012200@CAELT@METAR SLOR 012200Z 07011KT 9999 FEW020 FEW025CB SCT200 19/04 Q1033@CAELT@A3052 654.9 HR37 CB/S=@CAELT@
ZPX0578 012154@CAELT@GG SLZZYMYT@CAELT@012154 SLCBYGYZ@CAELT@SABO SLCB 012200@CAELT@METAR SLCB 012200Z 27005KT 9999 FEW027 FEW030CB BKN200 25/09 Q1021@CAELT@A3017 748.8 HR36 CB/E AC NOSIG=@CAELT@
ZPX0579 012154@CAELT@GG SLZZYMYT@CAELT@012154 SLSAYGYS@CAELT@SABO SLSA 012200@CAELT@METAR SLSA 012200Z 00000KT 9999 SCT017 BKN200 31/23 Q1010 A2983@CAELT@HR63=@CAELT@
ZPX0580 012155@CAELT@GG SLZZYMYT@CAELT@012155 SLVRYGYZ@CAELT@SABO SLVR 012200@CAELT@METAR SLVR 012200Z 36011KT 9999 FEW020 FEW025TCU BKN200 27/22 Q1011@CAELT@A2986 HR75 TCU/SE/W NOSIG=@CAELT@
ZPX0581 012155@CAELT@GG SLZZYMYT@CAELT@012155 SLCOYGYZ@CAELT@SABO SLCO 012200@CAELT@METAR SLCO 012200Z 00000KT 9999 FEW023 FEW025CB 28/25 Q1008 A2979 981@CAELT@.5 HR86 CB/NW AC/CI=@CAELT@
ZPX0582 012155@CAELT@GG SLZZYMYT@CAELT@012155 SLSBYSYX@CAELT@SABO SLSB 012200@CAELT@METAR SLSB 012200Z 03004KT 9999 FEW020 BKN200 31/24 Q1008 A2977 HR69@CAELT@RWY NML=@CAELT@
ZPX0583 012156@CAELT@GG SLZZYMYT@CAELT@012155 SLTJYGYZ@CAELT@SABO SLTJ 012200@CAELT@METAR SLTJ 012200Z 13013KT 9999 FEW033 SCT200 24/15 Q1017 A3004 812.6@CAELT@HR60=@CAELT@
ZPX0584 012156@CAELT@GG SLZZYMYT@CAELT@012155 SLLPYFYA@CAELT@SABO SLRY 012200@CAELT@METAR SLRY 012200Z 00000KT 9999 FEW020 BKN200 32/24 Q1006 A2972@CAELT@HR62 RWY HUM OPR C210=@CAELT@
ZPX0586 012156@CAELT@GG SLZZYMYT@CAELT@012151 SLETYMYC@CAELT@SABO SLET 012200@CAELT@METAR SLET 012200Z 35010KT 9999 FEW020 BKN200 28/22 Q1010 A2984 HR68@CAELT@NOSIG=@CAELT@
ZPX0587 012156@CAELT@GG SLZZYMYT@CAELT@012157 SLVRYFYC@CAELT@SABO SLVR 012200@CAELT@METAR SLVR 012200Z 36011KT 9999 FEW020 FEW025TCU BKN200 27/22 Q1011@CAELT@A2986 HR75 TCU/SE/W NOSIG=@CAELT@METAR SLET 012200Z 35010KT 9999 FEW020 BKN200 28/22 Q1010 A2984 HR68@CAELT@NOSIG=@CAELT@METAR SLAS 012200Z 00000KT 9999 FEW030CB OVC200 25/23 Q1013 A2992HR85 CB S/SW RWY NML=METAR SLJV 012200Z 00000KT 9999 SCT070 OVC200 23/22 Q1010 A2983 HR95RWY WET OPR=METAR SLCP 012200Z 00000KT 9999 SCT020 BKN200 26/23 Q1014 A2994 HR81RWY NML=METAR SLSI 012200Z 00000KT 9999 SCT017 FEW025CB BKN200 27/23 Q1012A2988 HR80 CB/N/NE RWY NML=METAR SLTI 012200Z 00000KT 9999 FEW017 BKN200 32/24 Q1013 A2991 HR66METAR SLJE 012200Z 00000KT 9999 FEW017 SCT070 BKN200 28/24 Q1013A2991 HR79 RWY NML=METAR SLRB 012200Z 00000KT 9999 SCT020 27/24 Q1013 A2991 HR85 RWY NMLMETAR SLPS 012200Z 00000KT 9999 FEW017 31/26 Q1010 A2983 HR76=METAR SLCA 012200Z 00000KT 9999 SCT033 30/20 Q1014 A2994 HR56 RWY NML
ZPX0588 012157@CAELT@GG SLZZYMYT@CAELT@012157 SLCBYGYS@CAELT@SABO SLCB 012200@CAELT@METAR SLCB 012200Z 27005KT 9999 FEW027 FEW030CB BKN200 25/09 Q1021@CAELT@A3017 748.8 HR36 CB/E AC NOSIG=@CAELT@METAR SLAL 012200Z 02014KT 9999 SCT020 19/09 Q1027 A3035 702.7 HR52=@CAELT@METAR SLTJ 012200Z 13013KT 9999 FEW033 SCT200 24/15 Q1017 A3004 812.6@CAELT@HR60=
ZPX0589 012158@CAELT@GG SLZZYMYT@CAELT@012158 SLLPYGYZ@CAELT@SABO SLLP 012200@CAELT@METAR SLLP 012200Z 05010KT 9999 FEW017 FEW020CB BKN200 13/04 Q1036@CAELT@A3060 626.7 HR54 P0784 CB/SH N/S/SW/NW AC NOSIG=@CAELT@
ZPX0590 012158@CAELT@GG SLZZYMYT@CAELT@012157 SLTRYGYZ@CAELT@SABO SLTR 012200@CAELT@METAR SLTR 012200Z 09006KT 7000 VCSH SCT017 FEW020CB BKN200 26/25@CAELT@Q1009 A2981 990.9 HR91 RESHRA CB/SH SE/S/SW TEMPO SHRA=@CAELT@
ZPX0591 012159@CAELT@GG SLZZYMYT@CAELT@012158 SLTRYGYS@CAELT@SABO SLTR 012200@CAELT@METAR SLTR 012200Z 09006KT 7000 VCSH SCT017 FEW020CB BKN200 26/25@CAELT@Q1009 A2981 990.9 HR91 RESHRA CB/SH SE/S/SW TEMPO SHRA=@CAELT@METAR SLGM 012200Z 00000KT 9999 SCT017 FEW020CB BKN200 31/24 Q1008@CAELT@A2978 HR64 CB NE/E@CAELT@METAR SLRI 012200Z 00000KT 9999 FEW017 BKN200 30/23 Q1009 A2982 HR63=METAR SLJO 012200Z NIL=METAR SLRA 012200Z 09004KT 9999 FEW017 SCT200 32/25 Q1009 A2980 HR68RWY NML=METAR SLMG 012200Z 00000KT 9999 FEW017 FEW023CB SCT200 31/24 Q1009A2981 HR66 CB E RWY NML=METAR SLBU 012200Z NIL=METAR SLSA 012200Z 00000KT 9999 SCT017 BKN200 31/23 Q1010 A2983HR63=METAR SLSR 012200Z 00000KT 9999 FEW017 SCT200 31/24 Q1008 A2978HR65 RWY HUM OPR C210=METAR SLSM 012200Z 00000KT 9999 FEW017 FEW023CB SCT200 29/24 Q1009A2980 HR76 CB NE/E RWY WET OPR C206=
ZPX0593 012200@CAELT@GG SLZZYMYT@CAELT@012159 SLLPYFYA@CAELT@SABO SLLP 012200@CAELT@METAR SLLP 012200Z 05010KT 9999 FEW017 FEW020CB BKN200 13/04 Q1036@CAELT@A3060 626.7 HR54 P0784 CB/SH N/S/SW/NW AC NOSIG=@CAELT@METAR SLCO 012200Z 00000KT 9999 FEW023 FEW025CB 28/25 Q1008 A2979@CAELT@981.5 HR86 CB/NW AC/CI=@CAELT@METAR SLRY 012200Z 00000KT 9999 FEW020 BKN200 32/24 Q1006 A2972HR62 RWY HUM OPR C210=METAR SLRQ 012200Z 00000KT 9999 FEW017 BKN200 31/25 Q1008 A2977HR70=METAR SLSB 012200Z 03004KT 9999 FEW020 BKN200 31/24 Q1008 A2977HR69 RWY NML=METAR SLOR 012200Z 07011KT 9999 FEW020 FEW025CB SCT200 19/04 Q1033A3052 654.9 HR37 CB/S=
ZPX0615 012251@CAELT@GG SLZZYMYT@CAELT@012250 SLPSYGYS@CAELT@SABO SLPS 012300@CAELT@METAR SLPS 012300Z 00000KT 9999 FEW017 30/26 Q1010 A2983 HR80=@CAELT@
ZPX0616 012252@CAELT@GG SLZZYMYT@CAELT@012252 SLCAYGYS@CAELT@SABO SLCA 012300@CAELT@METAR SLCA 012300Z 00000KT 9999 BKN033 28/19 Q1014 A2994 HR59 RWY NML@CAELT@
ZPX0617 012254@CAELT@GG SLZZYMYT@CAELT@012253 SLRBYGYS@CAELT@SABO SLRB 012300@CAELT@METAR SLRB 012300Z 00000KT 9999 SCT020 27/24 Q1013 A2991 HR85 RWY NML=@CAELT@
ZPX0618 012255@CAELT@GG SLZZYMYT@CAELT@012254 SLSAYGYS@CAELT@SABO SLSA 012300@CAELT@METAR SLSA 012300Z 00000KT 9999 FEW017 FEW023CB BKN200 30/23 Q1010@CAELT@A2983 HR67 CB W=@CAELT@
ZPX0619 012255@CAELT@GG SLZZYMYT@CAELT@012254 SLSAYGYS@CAELT@SABO SLSA 012300@CAELT@METAR SLSA 012300Z 00000KT 9999 FEW017 FEW023CB BKN200 30/23 Q1010@CAELT@A2983 HR67 CB W=@CAELT@
ZPX0620 012255@CAELT@GG SLZZYMYT@CAELT@012256 SLVRYGYZ@CAELT@SABO SLVR 012300@CAELT@METAR SLVR 012300Z 34007KT 9999 FEW020 FEW025TCU BKN200 26/22 Q1011@CAELT@A2985 HR78 TCU/SE NOSIG=@CAELT@
ZPX0621 012255@CAELT@GG SLZZYMYT@CAELT@012255 SLSBYSYX@CAELT@SABO SLSB 012300@CAELT@METAR SLSB 012300Z 00000KT 9999 NSC 29/25 Q1008 A2979 HR82 CI RWY NML=@CAELT@
ZPX0622 012256@CAELT@GG SLZZYMYT@CAELT@012202 SLETYMYC@CAELT@SABO SLET 012300@CAELT@METAR SLET 012300Z 32006KT 9999 FEW020 BKN200 26/22 Q1010 A2983 HR78@CAELT@NOSIG=@CAELT@
ZPX0623 012256@CAELT@GG SLZZYMYT@CAELT@012255 SLTJYGYZ@CAELT@SABO SLTJ 012300@CAELT@METAR SLTJ 012300Z 13011KT 9999 FEW030 BKN200 21/15 Q1018 A3007 813.5@CAELT@HR67=@CAELT@
ZPX0625 012256@CAELT@GG SLZZYMYT@CAELT@012257 SLVRYFYC@CAELT@SABO SLVR 012300@CAELT@METAR SLVR 012300Z 34007KT 9999 FEW020 FEW025TCU BKN200 26/22 Q1011@CAELT@A2985 HR78 TCU/SE NOSIG=@CAELT@METAR SLET 012300Z 32006KT 9999 FEW020 BKN200 26/22 Q1010 A2983 HR78@CAELT@NOSIG=@CAELT@METAR SLSI 012300Z 00000KT 9999 SCT017 BKN200 26/23 Q1011 A2985 HR84RWY NML=METAR SLRB 012300Z 00000KT 9999 SCT020 27/24 Q1013 A2991 HR85 RWY NMLMETAR SLPS 012300Z 00000KT 9999 FEW017 30/26 Q1010 A2983 HR80=METAR SLCA 012300Z 00000KT 9999 BKN033 28/19 Q1014 A2994 HR59 RWY NML
ZPX0626 012257@CAELT@GG SLZZYMYT@CAELT@012257 SLTRYGYZ@CAELT@SABO SLTR 012300@CAELT@METAR SLTR 012300Z 11004KT 7000 VCSH FEW017 FEW020CB BKN200 26/25@CAELT@Q1009 A2982 991.2 HR96 RESHRA CB/SH SW/W NOSIG=@CAELT@
ZPX0627 012257@CAELT@GG SLZZYMYT@CAELT@012257 SLTRYGYS@CAELT@SABO SLTR 012300@CAELT@METAR SLTR 012300Z 11004KT 7000 VCSH FEW017 FEW020CB BKN200 26/25@CAELT@Q1009 A2982 991.2 HR96 RESHRA CB/SH SW/W NOSIG=@CAELT@METAR SLGM 012300Z NIL=@CAELT@METAR SLRI 012300Z 00000KT 9999 FEW017 BKN200 30/23 Q1010 A2983 HR60=@CAELT@METAR SLMG 012300Z 00000KT 9999 FEW017 SCT200 30/25 Q1009 A2982 HR74RWY NML=METAR SLSA 012300Z 00000KT 9999 FEW017 FEW023CB BKN200 30/23 Q1010A2983 HR67 CB W=
ZPX0628 012258@CAELT@GG SLLPZRZX@CAELT@012258 SLLPYGYZ@CAELT@SABO SLLP 012300@CAELT@METAR SLLP 012300Z 06009KT 030V090 9999 FEW017 FEW020CB BKN200 11/04@CAELT@Q1036 A3060 626.8 HR62 CB/SH SW AC NOSIG=P@CAELT@
ZPX0629 012258@CAELT@GG SLZZYMYT@CAELT@012256 SLCBYGYZ@CAELT@SABO SLCB 012300@CAELT@METAR SLCB 012300Z 12007KT 9999 FEW027 FEW030CB BKN200 23/09 Q1022@CAELT@A3018 749.1 HR42 CB N/SE VIRGA/SW AC NOSIG=@CAELT@
ZPX0631 012301@CAELT@GG SLZZYMYT@CAELT@012258 SLLPYFYA@CAELT@SABO SLLP 012300@CAELT@METAR SLLP 012300Z 06009KT 030V090 9999 FEW017 FEW020CB BKN200 11/04@CAELT@Q1036 A3060 626.8 HR62 CB/SH SW AC NOSIG=P@CAELT@METAR SLSB 012300Z 00000KT 9999 NSC 29/25 Q1008 A2979 HR82 CI RWY NML@CAELT@
ZPX0632 012302@CAELT@GG SLZZYMYT@CAELT@012301 SLCBYGYS@CAELT@SABO SLCB 012300@CAELT@METAR SLCB 012300Z 12007KT 9999 FEW027 FEW030CB BKN200 23/09 Q1022@CAELT@A3018 749.1 HR42 CB N/SE VIRGA/SW AC NOSIG=@CAELT@METAR SLAL 012300Z 02014KT 9999 SCT017 17/10 Q1028 A3036 703.0 HR61=@CAELT@METAR SLTJ 012300Z 13011KT 9999 FEW030 BKN200 21/15 Q1018 A3007 813.5@CAELT@HR67=
ZPX0649 012354@CAELT@GG SLZZYMYT@CAELT@012355 SLVRYGYZ@CAELT@SABO SLVR 020000@CAELT@METAR SLVR 020000Z 35003KT 9999 NSC 25/22 Q1011 A2987 HR84 CI NOSIG=@CAELT@
ZPX0650 012355@CAELT@GG SLZZYMYT@CAELT@012355 SLTJYGYZ@CAELT@SABO SLTJ 020000@CAELT@METAR SLTJ 020000Z 13010KT 9999 FEW030 SCT200 21/15 Q1019 A3011 814.5@CAELT@HR68=@CAELT@
