
ZPX0002 190001@CAELT@GG SLZZYMYT@CAELT@190000 SLCBYGYZ@CAELT@SABO SLCB 190000@CAELT@METAR SLCB 190000Z 00000KT 9999 FEW033 FEW036CB BKN200 13/10 Q1023@CAELT@A3022 750.1 HR84 CB/LT S AC NOSIG=@CAELT@
ZPX0003 190001@CAELT@GG SLZZYMYT@CAELT@190000 SLCBYGYS@CAELT@SABO SLCB 190000@CAELT@METAR SLCB 190000Z 00000KT 9999 FEW033 FEW036CB BKN200 13/10 Q1023@CAELT@A3022 750.1 HR84 CB/LT S AC NOSIG=@CAELT@
ZPX0012 190054@CAELT@GG SLZZYMYT@CAELT@190054 SLCBYGYZ@CAELT@SABO SLCB 190100@CAELT@METAR SLCB 190100Z 00000KT 9999 FEW033 FEW036CB BKN200 13/10 Q1024@CAELT@A3024 750.7 HR77 CB/LT S AC NOSIG=@CAELT@
ZPX0013 190055@CAELT@GG SLLPZRZX@CAELT@190057 SLLPYGYZ@CAELT@SABO SLLP 190100@CAELT@METAR SLLP 190100Z 07006KT 9999 FEW015 BKN200 03/01 Q1037@CAELT@A3064 627.7 HR89 AC NOSIG=@CAELT@
ZPX0014 190056@CAELT@GG SLZZYMYT@CAELT@190056 SLCBYGYS@CAELT@SABO SLCB 190100@CAELT@METAR SLCB 190100Z 00000KT 9999 FEW033 FEW036CB BKN200 13/10 Q1024@CAELT@A3024 750.7 HR77 CB/LT S AC NOSIG=@CAELT@
ZPX0015 190057@CAELT@GG SLZZYMYT@CAELT@190058 SLVRYGYZ@CAELT@SABO SLVR 190100@CAELT@METAR SLVR 190100Z 33005KT 9999 NSC 27/20 Q1007 A2974 HR67 FU NOSIG=@CAELT@
ZPX0022 190156@CAELT@GG SLLPZRZX@CAELT@190157 SLLPYGYZ@CAELT@SABO SLLP 190200@CAELT@METAR SLLP 190200Z 06005KT 9999 FEW010 BKN200 02/00 Q1037@CAELT@A3064 627.7 HR90 AC NOSIG=@CAELT@
ZPX0023 190156@CAELT@GG SLZZYMYT@CAELT@190155 SLCBYGYZ@CAELT@SABO SLCB 190200@CAELT@METAR SLCB 190200Z 00000KT 9999 FEW033 FEW036CB BKN200 12/10 Q1025@CAELT@A3028 751.8 HR88 CB/LT S AC NOSIG=@CAELT@
ZPX0024 190159@CAELT@GG SLZZYMYT@CAELT@190159 SLVRYGYZ@CAELT@SABO SLVR 190200@CAELT@METAR SLVR 190200Z 33005KT 9999 NSC 26/20 Q1007 A2976 HR70 FU NOSIG=@CAELT@
ZPX0026 190202@CAELT@GG SLZZYMYT@CAELT@190202 SLCBYGYS@CAELT@SABO SLCB 190200@CAELT@METAR SLCB 190200Z 00000KT 9999 FEW033 FEW036CB BKN200 12/10 Q1025@CAELT@A3028 751.8 HR88 CB/LT S AC NOSIG=@CAELT@
ZPX0033 190255@CAELT@GG SLZZYMYT@CAELT@190254 SLCBYGYZ@CAELT@SABO SLCB 190300@CAELT@METAR SLCB 190300Z 00000KT 9999 FEW033 BKN200 12/09 Q1025 A3029 752.0@CAELT@HR86 AC NOSIG=@CAELT@
ZPX0034 190255@CAELT@GG SLZZYMYT@CAELT@190256 SLVRYGYZ@CAELT@SABO SLVR 190300@CAELT@METAR SLVR 190300Z 34006KT 9999 NSC 25/20 Q1007 A2976 HR71 NOSIG=@CAELT@
ZPX0035 190256@CAELT@GG SLLPZRZX@CAELT@190257 SLLPYGYZ@CAELT@SABO SLLP 190300@CAELT@METAR SLLP 190300Z VRB02KT 9999 FEW004 BKN200 01/M00 Q1038@CAELT@A3066 628.1 HR91 AC NOSIG=@CAELT@
ZPX0036 190257@CAELT@GG SLZZYMYT@CAELT@190257 SLCBYGYS@CAELT@SABO SLCB 190300@CAELT@METAR SLCB 190300Z 00000KT 9999 FEW033 BKN200 12/09 Q1025 A3029 752.0@CAELT@HR86 AC NOSIG=@CAELT@
ZPX0043 190354@CAELT@GG SLZZYMYT@CAELT@190354 SLCBYGYZ@CAELT@SABO SLCB 190400@CAELT@METAR SLCB 190400Z 16004KT 9999 FEW033 BKN200 12/11 Q1025 A3027 751.5@CAELT@HR91 AC FU NOSIG=@CAELT@
ZPX0044 190356@CAELT@GG SLLPZRZX@CAELT@190357 SLLPYGYZ@CAELT@SABO SLLP 190400@CAELT@METAR SLLP 190400Z VRB02KT 9999 FEW070 BKN200 03/01 Q1037@CAELT@A3065 627.9 HR93 NOSIG=@CAELT@
ZPX0045 190357@CAELT@GG SLZZYMYT@CAELT@190358 SLVRYGYZ@CAELT@SABO SLVR 190400@CAELT@METAR SLVR 190400Z 33005KT 9999 NSC 25/20 Q1007 A2974 HR74 NOSIG=@CAELT@
ZPX0046 190357@CAELT@GG SLZZYMYT@CAELT@190357 SLCBYGYS@CAELT@SABO SLCB 190400@CAELT@METAR SLCB 190400Z 16004KT 9999 FEW033 BKN200 12/11 Q1025 A3027 751.5@CAELT@HR91 AC FU NOSIG=@CAELT@
ZPX0053 190456@CAELT@GG SLZZYMYT@CAELT@190455 SLCBYGYZ@CAELT@SABO SLCB 190500@CAELT@METAR SLCB 190500Z 15003KT 9999 FEW033 SCT200 11/10 Q1024 A3024 750.6@CAELT@HR93 AC FU NOSIG=@CAELT@
ZPX0054 190457@CAELT@GG SLZZYMYT@CAELT@190457 SLVRYGYZ@CAELT@SABO SLVR 190500@CAELT@METAR SLVR 190500Z 34006KT 9999 NSC 24/20 Q1006 A2973 HR77 NOSIG=@CAELT@
ZPX0055 190457@CAELT@GG SLLPZRZX@CAELT@190457 SLLPYGYZ@CAELT@SABO SLLP 190500@CAELT@METAR SLLP 190500Z 28003KT 9999 FEW070 BKN200 03/02 Q1037@CAELT@A3064 627.7 HR91 NOSIG=@CAELT@
ZPX0058 190512@CAELT@GG SLZZYMYT@CAELT@190512 SLCBYGYS@CAELT@SABO SLCB 190500@CAELT@METAR SLCB 190500Z 15003KT 9999 FEW033 SCT200 11/10 Q1024 A3024 750.6@CAELT@HR93 AC FU NOSIG=@CAELT@
ZPX0063 190554@CAELT@GG SLZZYMYT@CAELT@190554 SLCBYGYZ@CAELT@SABO SLCB 190600@CAELT@METAR SLCB 190600Z 00000KT 9999 FEW033 SCT200 11/10 Q1023 A3023 750.3@CAELT@HR97 FU NOSIG=@CAELT@
ZPX0064 190555@CAELT@GG SLZZYMYT@CAELT@190555 SLCBYGYS@CAELT@SABO SLCB 190600@CAELT@METAR SLCB 190600Z 00000KT 9999 FEW033 SCT200 11/10 Q1023 A3023 750.3@CAELT@HR97 FU NOSIG=@CAELT@
ZPX0065 190556@CAELT@GG SLZZYMYT@CAELT@190556 SLVRYGYZ@CAELT@SABO SLVR 190600@CAELT@METAR SLVR 190600Z 34005KT 9999 NSC 24/20 Q1006 A2973 HR78 NOSIG=@CAELT@
ZPX0066 190557@CAELT@GG SLLPZRZX@CAELT@190557 SLLPYGYZ@CAELT@SABO SLLP 190600@CAELT@METAR SLLP 190600Z 31005KT 9999 SCT070 BKN200 03/01 Q1037@CAELT@A3063 627.3 HR87 NOSIG=@CAELT@
ZPX0076 190654@CAELT@GG SLZZYMYT@CAELT@190654 SLCBYGYZ@CAELT@SABO SLCB 190700@CAELT@METAR SLCB 190700Z 27004KT 9999 FEW033 SCT200 10/09 Q1023 A3022 750.2@CAELT@HR92 FU NOSIG=@CAELT@
ZPX0077 190654@CAELT@GG SLZZYMYT@CAELT@190655 SLVRYGYZ@CAELT@SABO SLVR 190700@CAELT@METAR SLVR 190700Z 35007KT 9999 NSC 24/20 Q1006 A2973 HR78 NOSIG=@CAELT@
ZPX0078 190656@CAELT@GG SLLPZRZX@CAELT@190656 SLLPYGYZ@CAELT@SABO SLLP 190700@CAELT@METAR SLLP 190700Z 31004KT 9999 SCT070 BKN200 03/01 Q1036 A3060@CAELT@626.7 HR86 NOSIG=@CAELT@
ZPX0079 190658@CAELT@GG SLZZYMYT@CAELT@190658 SLCBYGYS@CAELT@SABO SLCB 190700@CAELT@METAR SLCB 190700Z 27004KT 9999 FEW033 SCT200 10/09 Q1023 A3022 750.2@CAELT@HR92 FU NOSIG=@CAELT@
ZPX0086 190754@CAELT@GG SLZZYMYT@CAELT@190754 SLCBYGYZ@CAELT@SABO SLCB 190800@CAELT@METAR SLCB 190800Z 00000KT 9999 FEW033 SCT200 09/09 Q1023 A3022 750.2@CAELT@HR96 FU NOSIG=@CAELT@
ZPX0087 190754@CAELT@GG SLZZYMYT@CAELT@190755 SLVRYGYZ@CAELT@SABO SLVR 190800@CAELT@METAR SLVR 190800Z 34005KT 9999 NSC 23/21 Q1006 A2972 HR85 NOSIG=@CAELT@
ZPX0088 190756@CAELT@GG SLLPZRZX@CAELT@190756 SLLPYGYZ@CAELT@SABO SLLP 190800@CAELT@METAR SLLP 190800Z 32005KT 9999 FEW070 BKN200 02/01 Q1035 A3057@CAELT@626.1 HR90 NOSIG=@CAELT@
ZPX0089 190758@CAELT@GG SLZZYMYT@CAELT@190758 SLCBYGYS@CAELT@SABO SLCB 190800@CAELT@METAR SLCB 190800Z 00000KT 9999 FEW033 SCT200 09/09 Q1023 A3022 750.2@CAELT@HR96 FU NOSIG=@CAELT@
ZPX0097 190854@CAELT@GG SLZZYMYT@CAELT@190855 SLVRYGYZ@CAELT@SABO SLVR 190900@CAELT@METAR SLVR 190900Z 34005KT 8000 NSC 23/21 Q1007 A2974 HR84 FU NOSIG=@CAELT@
ZPX0098 190856@CAELT@GG SLZZYMYT@CAELT@190855 SLCBYGYZ@CAELT@SABO SLCB 190900@CAELT@METAR SLCB 190900Z 00000KT 8000 FEW033 09/09 Q1023 A3023 750.4 HR97@CAELT@FU CI NOSIG=@CAELT@
ZPX0099 190856@CAELT@GG SLLPZRZX@CAELT@190856 SLLPYGYZ@CAELT@SABO SLLP 190900@CAELT@METAR SLLP 190900Z VRB02KT 9999 FEW070 BKN200 02/01 Q1035 A3057@CAELT@626.2 HR89 NOSIG=@CAELT@
ZPX0100 190857@CAELT@GG SLZZYMYT@CAELT@190857 SLCBYGYS@CAELT@SABO SLCB 190900@CAELT@METAR SLCB 190900Z 00000KT 8000 FEW033 09/09 Q1023 A3023 750.4 HR97@CAELT@FU CI NOSIG=@CAELT@
ZPX0131 190950@CAELT@GG SLZZYMYT@CAELT@190950 SLCAYGYS@CAELT@SABO SLCA 191000@CAELT@METAR SLCA 191000Z 00000KT 9999 NSC 19/12 Q1010 A2983 HR66 FU RWY NML@CAELT@
ZPX0132 190953@CAELT@GG SLZZYMYT@CAELT@190954 SLVRYGYZ@CAELT@SABO SLVR 191000@CAELT@METAR SLVR 191000Z 35006KT 6000 NSC 23/21 Q1007 A2974 HR86 FU NOSIG=@CAELT@
ZPX0133 190953@CAELT@GG SLZZYMYT@CAELT@190953 SLRBYGYS@CAELT@SABO SLRB 191000@CAELT@METAR SLRB 191000Z 00000KT 9999 NSC 23/21 Q1010 A2983 HR88 RWY NML=@CAELT@
ZPX0134 190953@CAELT@GG SLZZYMYT@CAELT@190953 SLCAYGYS@CAELT@SABO SLCA 191000@CAELT@METAR SLCA 191000Z 00000KT 9999 NSC 19/12 Q1010 A2983 HR66 FU RWY NML@CAELT@
ZPX0135 190955@CAELT@GG SLZZYMYT@CAELT@190955 SLSBYSYX@CAELT@SABO SLSB 191000@CAELT@METAR SLSB 191000Z 00000KT 7000 NSC 23/22 Q1006 A2973 HR94 CI RWY NML=@CAELT@
ZPX0136 190955@CAELT@GG SLZZYMYT@CAELT@190955 SLCBYGYZ@CAELT@SABO SLCB 191000@CAELT@METAR SLCB 191000Z 00000KT 4000 BR FU NSC 09/09 Q1023 A3023 750.5@CAELT@HR97 VIS RED E/SE/S/SW RESTO 6000 CI NOSIG=@CAELT@
ZPX0137 190955@CAELT@GG SLZZYMYT@CAELT@190955 SLCBYGYS@CAELT@SABO SLCB 191000@CAELT@METAR SLCB 191000Z 00000KT 4000 BR FU NSC 09/09 Q1023 A3023 750.5@CAELT@HR97 VIS RED E/SE/S/SW RESTO 6000 CI NOSIG=@CAELT@
ZPX0138 190956@CAELT@GG SLZZYMYT@CAELT@190955 SLTRYGYZ@CAELT@SABO SLTR 191000@CAELT@METAR SLTR 191000Z 00000KT 6000 FEW080 BKN200 24/22 Q1007 A2974@CAELT@988.7 HR89 FU NOSIG=@CAELT@
ZPX0139 190956@CAELT@GG SLZZYMYT@CAELT@190956 SLCBYGYS@CAELT@SABO SLCB 191000@CAELT@METAR SLCB 191000Z 00000KT 4000 BR FU NSC 09/09 Q1023 A3023 750.5@CAELT@HR97 VIS RED E/SE/S/SW RESTO 6000 CI NOSIG=@CAELT@METAR SLAL 191000Z 00000KT 9999 NSC 09/05 Q1027 A3034 702.6 HR74=@CAELT@
ZPX0140 190956@CAELT@GG SLZZYMYT@CAELT@190956 SLCOYGYZ@CAELT@SABO SLCO 191000@CAELT@METAR SLCO 191000Z 00000KT 9999 NSC 24/22 Q1009 A2979 981.6 HR90 CI@CAELT@
ZPX0141 190956@CAELT@GG SLZZYMYT@CAELT@190955 SLSAYGYS@CAELT@SABO SLSA 191000@CAELT@METAR SLSA 191000Z 00000KT 6000 FEW020 BKN200 24/23 Q1007 A2975@CAELT@HR92 FU=@CAELT@
ZPX0142 190956@CAELT@GG SLZZYMYT@CAELT@190955 SLSAYGYS@CAELT@SABO SLSA 191000@CAELT@METAR SLSA 191000Z 00000KT 6000 FEW020 BKN200 24/23 Q1007 A2975@CAELT@HR92 FU=@CAELT@
ZPX0143 190956@CAELT@GG SLZZYMYT@CAELT@190956 SLETYMYC@CAELT@SABO SLET 191000@CAELT@METAR SLET 191000Z 32009KT 9000 NSC 25/20 Q1006 A2973 HR74 FU NOSIG=@CAELT@
ZPX0144 190957@CAELT@GG SLZZYMYT@CAELT@190955 SLUYYGYS@CAELT@SABO SLUY 191000@CAELT@METAR SLUY 191000Z 00000KT 9999 NSC 01/M04 Q1032 A3050 657.5@CAELT@HR68 CI=@CAELT@
ZPX0145 190957@CAELT@GG SLZZYMYT@CAELT@190957 SLLPYFYA@CAELT@SABO SLRY 191000@CAELT@METAR SLRY 191000Z 00000KT 9999 NSC 22/22 Q1004 A2967 HR97@CAELT@RWY NML=@CAELT@
ZPX0146 190957@CAELT@GG SLZZYMYT@CAELT@190956 SLRQYSYX@CAELT@SABO SLRQ 191000@CAELT@METAR SLRQ 191000Z 00000KT 9999 NSC 23/22 Q1006 A2973 HR98 FU=@CAELT@
ZPX0147 190957@CAELT@GG SLZZYMYT@CAELT@190957 SLLPYGYZ@CAELT@SABO SLLP 191000@CAELT@METAR SLLP 191000Z VRB02KT 9999 FEW070 SCT200 M00/M02 Q1035 A3059@CAELT@626.6 HR89 P3081 NOSIG=@CAELT@
ZPX0150 191000@CAELT@GG SLZZYMYT@CAELT@191000 SLVRYGYS@CAELT@SABO SLVR 191000@CAELT@METAR SLVR 191000Z 35006KT 6000 NSC 23/21 Q1007 A2974 HR86 FU NOSIG=@CAELT@METAR SLET 191000Z 32009KT 9000 NSC 25/20 Q1006 A2973 HR74 FU NOSIG=@CAELT@METAR SLCP 191900Z 00000KT 0500 FU NSC 23/21 Q1011 A2985 HR89 RWY NML@CAELT@METAR SLSI 191900Z 00000KT 2000 FU SCT070 24/23 Q1008 A2977 HR92 RWY@CAELT@NML=METAR SLRB 191000Z 00000KT 9999 NSC 23/21 Q1010 A2983 HR88 RWY NML=METAR SLPS 191000Z 09006KT 8000 BKN070 24/22 Q1009 A2980 FU=METAR SLCA 191000Z 00000KT 9999 NSC 19/12 Q1010 A2983 HR66 FU RWY NML=
ZPX0151 191001@CAELT@GG SLZZYMYT@CAELT@191001 SLLPYFYA@CAELT@SABO SLLP 191000@CAELT@METAR SLLP 191000Z VRB02KT 9999 FEW070 SCT200 M00/M02 Q1035@CAELT@A3059 626.6 HR89 P3081 NOSIG=@CAELT@METAR SLCO 191000Z 00000KT 9999 NSC 24/22 Q1009 A2979 981.6@CAELT@HR90 CI FU=@CAELT@METAR SLRY 191000Z 00000KT 9999 NSC 22/22 Q1004 A2967 HR97RWY NML=METAR SLRQ 191000Z 00000KT 9999 NSC 23/22 Q1006 A2973 HR98METAR SLAP 191000Z 00000KT 9999 BKN025 17/17 Q1015 A2998856.1 HR99=METAR SLSB 191000Z 00000KT 7000 NSC 23/22 Q1006 A2973 HR94CI RWY NML=METAR SLUY 191000Z 00000KT 9999 NSC 01/M04 Q1032 A3050 657.5HR68 CI=
ZPX0152 191002@CAELT@GG SLZZYMYT@CAELT@191000 SLTRYGYS@CAELT@SABO SLTR 191000@CAELT@METAR SLTR 191000Z 00000KT 6000 FEW080 BKN200 24/22 Q1007 A2974@CAELT@988.7 HR89 FU NOSIG=@CAELT@METAR SLGM 191000Z 02004KT 4000 TS VCSH SCT017 FEW020CB BKN080 24/23@CAELT@Q1009 A2979 HR94 CB/SH NE/E/W TS W=@CAELT@METAR SLRI 191000Z 13006KT 5000 FU SCT015 FEW020CB BKN080 24/23Q1010 A2983 HR92 CB NE=METAR SLJO 191000ZMETAR SLRA 191000Z 36004KT 6000 FEW020 OVC200 25/24 Q1007 A2975 HR96FU RWY NML=METAR SLMG 191000Z 00000KT 6000 SCT020 BKN080 24/22 Q1008 A2977 HR89METAR SLBU 191000Z NIL=METAR SLSA 191000Z 00000KT 6000 FEW020 BKN200 24/23 Q1007 A2975HR92 FU=METAR SLSR 191000Z 32010KT 5000 FU NSC 23/22 Q1005 A2968 HR94 CIRWY NML=METAR SLSM 191000Z 00000KT 8000 NSC 24/23 Q1006 A2972 HR93 FU CI
ZPX0154 191003@CAELT@GG SLZZYMYT@CAELT@191000 SLTRYGYS@CAELT@SABO SLTR 191000@CAELT@METAR SLTR 191000Z 00000KT 6000 FEW080 BKN200 24/22 Q1007 A2974@CAELT@988.7 HR89 FU NOSIG=@CAELT@METAR SLGM 191000Z 02004KT 4000 TS VCSH SCT017 FEW020CB BKN080 24/23@CAELT@Q1009 A2979 HR94 CB/SH NE/E/W TS W=@CAELT@METAR SLRI 191000Z 13006KT 5000 FU SCT015 FEW020CB BKN080 24/23Q1010 A2983 HR92 CB NE=METAR SLJO 191000Z NIL=METAR SLRA 191000Z 36004KT 6000 FEW020 OVC200 25/24 Q1007 A2975 HR96FU RWY NML=METAR SLMG 191000Z 00000KT 6000 SCT020 BKN080 24/22 Q1008 A2977 HR89METAR SLBU 191000Z NIL=METAR SLSA 191000Z 00000KT 6000 FEW020 BKN200 24/23 Q1007 A2975HR92 FU=METAR SLSR 191000Z 32010KT 5000 FU NSC 23/22 Q1005 A2968 HR94 CIRWY NML=METAR SLSM 191000Z 00000KT 8000 NSC 24/23 Q1006 A2972 HR93 FU CI
ZPX0158 191006@CAELT@GG SLZZYMYT@CAELT@191004 SLTRYGYS@CAELT@SABO SLTR 191000 RRA@CAELT@METAR SLTR 191000Z 00000KT 6000 FEW080 BKN200 24/22 Q1007 A2974@CAELT@988.7 HR89 FU NOSIG=@CAELT@METAR SLGM 191000Z 02004KT 4000 TS VCSH SCT017 FEW020CB BKN080 24/23@CAELT@Q1009 A2979 HR94 CB/SH NE/E/W TS W=@CAELT@METAR SLRI 191000Z 13006KT 5000 FU SCT015 FEW020CB BKN080 24/23Q1010 A2983 HR92 CB NE=METAR RTD SLJO 191000Z 00000KT 4000 FU FEW020 BKN200 25/23 Q1007A2976 HR91 RWY NML=METAR SLRA 191000Z 36004KT 6000 FEW020 OVC200 25/24 Q1007 A2975 HR96FU RWY NML=METAR SLMG 191000Z 00000KT 6000 SCT020 BKN080 24/22 Q1008 A2977 HR89METAR SLBU 191000Z NIL=METAR SLSA 191000Z 00000KT 6000 FEW020 BKN200 24/23 Q1007 A2975HR92 FU=METAR SLSR 191000Z 32010KT 5000 FU NSC 23/22 Q1005 A2968 HR94 CIRWY NML=METAR SLSM 191000Z 00000KT 8000 NSC 24/23 Q1006 A2972 HR93 FU CI
ZPX0184 191051@CAELT@GG SLZZYMYT@CAELT@191050 SLPSZTZX@CAELT@SABO SLPS 191000@CAELT@METAR SLPS 191000Z 09006KT 7000 BKN070 24/22 Q1010 12983 HR88 FU=@CAELT@
ZPX0186 191053@CAELT@GG SLZZYMYT@CAELT@191055 SLUYYGYS@CAELT@SABO SLUY 191100@CAELT@METAR SLUY 191100Z 00000KT 9999 NSC 05/M03 Q1033 A3052 657.9@CAELT@HR57 FU CI=@CAELT@
ZPX0187 191053@CAELT@GG SLZZYMYT@CAELT@191053 SLRBYGYS@CAELT@SABO SLRB 191100@CAELT@METAR SLRB 191100Z 00000KT 9999 NSC 25/22 Q1010 A2983 HR83 RWY NML=@CAELT@
ZPX0188 191054@CAELT@GG SLZZYMYT@CAELT@191054 SLSBYSYX@CAELT@SABO SLSB 191100@CAELT@METAR SLSB 191100Z 00000KT 7000 NSC 24/23 Q1007 A2974 HR93 RWY NML=@CAELT@
ZPX0189 191054@CAELT@GG SLZZYMYT@CAELT@191054 SLVRYGYZ@CAELT@SABO SLVR 191100@CAELT@METAR SLVR 191100Z 34007KT 6000 NSC 24/21 Q1007 A2975 HR81 FU NOSIG=@CAELT@
ZPX0190 191054@CAELT@GG SLZZYMYT@CAELT@191053 SLETYMYC@CAELT@SABO SLET 191100@CAELT@METAR SLET 191100Z 32009KT 7000 NSC 26/20 Q1007 A2974 HR71 FU NOSIG=@CAELT@
ZPX0191 191055@CAELT@GG SLZZYMYT@CAELT@191055 SLSAYGYS@CAELT@SABO SLSA 191100@CAELT@METAR SLSA 191100Z 33005KT 6000 NSC 24/23 Q1007 A2976 HR90 FU CI=@CAELT@
ZPX0192 191055@CAELT@GG SLZZYMYT@CAELT@191055 SLSAYGYS@CAELT@SABO SLSA 191100@CAELT@METAR SLSA 191100Z 33005KT 6000 NSC 24/23 Q1007 A2976 HR90 FU CI=@CAELT@
ZPX0193 191055@CAELT@GG SLZZYMYT@CAELT@191055 SLTRYGYZ@CAELT@SABO SLTR 191100@CAELT@METAR SLTR 191100Z 36004KT 6000 NSC 25/22 Q1007 A2976 989.3 HR87@CAELT@FU CI NOSIG=@CAELT@
ZPX0194 191056@CAELT@GG SLZZYMYT@CAELT@191055 SLCAYGYS@CAELT@SABO SLCA 191100@CAELT@METAR SLCA 191100Z 00000KT 9999 NSC 20/15 Q1010 A2983 HR75 FU RWY NML@CAELT@
ZPX0195 191056@CAELT@GG SLZZYMYT@CAELT@191056 SLLPYGYZ@CAELT@SABO SLLP 191100@CAELT@METAR SLLP 191100Z 36004KT 9999 FEW013 04/01 Q1036 A3061 626.9@CAELT@HR81 P90// CI NOSIG=@CAELT@
ZPX0196 191056@CAELT@GG SLZZYMYT@CAELT@191055 SLRQYSYX@CAELT@SABO SLRQ 191100@CAELT@METAR SLRQ 191100Z 00000KT 9999 NSC 23/23 Q1007 A2974 983.1 HR98 FU=@CAELT@
ZPX0197 191056@CAELT@GG SLZZYMYT@CAELT@191057 SLCOYGYZ@CAELT@SABO SLCO 191100@CAELT@METAR SLCO 191100Z 32004KT 9999 NSC 24/22 Q1009 A2981 982.2 HR88 FU@CAELT@
ZPX0198 191057@CAELT@GG SLZZYMYT@CAELT@191056 SLCBYGYZ@CAELT@SABO SLCB 191100@CAELT@METAR SLCB 191100Z 00000KT 8000 NSC 11/10 Q1024 A3025 750.9 HR96 FU@CAELT@CI NOSIG=@CAELT@
ZPX0199 191057@CAELT@GG SLZZYMYT@CAELT@191057 SLLPYFYA@CAELT@SABO SLRY 191100@CAELT@METAR SLRY 191100Z 00000KT 9999 NSC 22/22 Q1004 A2967 HR97 FU RWY NML=@CAELT@
ZPX0200 191058@CAELT@GG SLZZYMYT@CAELT@191058 SLORYGYZ@CAELT@SABO SLOR 191100@CAELT@METAR SLOR 191100Z 00000KT 3000 FU FEW070 03/M03 Q1034 A3055 655.6@CAELT@HR64=@CAELT@
ZPX0203 191100@CAELT@GG SLZZYMYT@CAELT@191100 SLTRYGYS@CAELT@SABO SLTR 191100@CAELT@METAR SLTR 191100Z 36004KT 6000 NSC 25/22 Q1007 A2976 989.3 HR87@CAELT@FU CI NOSIG=@CAELT@METAR SLGM 191100Z 02006KT 4000 VCSH SCT017 FEW020CB BKN080 24/23@CAELT@Q1010 A2983 HR94 RETS CB/SH N/NE=@CAELT@METAR SLRI 191100Z 00000KT 5000 FU SCT080 BKN200 25/23 Q1010A2984 HR88=METAR SLJO 191100Z 36004KT 4000 FU FEW020 BKN200 25/23 Q1008 A2977HR88 RWY NML=METAR SLRA 191100Z 36006KT 6000 SCT020 OVC200 25/23 Q1008 A2978 HR89FU RWY NML=METAR SLMG 191100Z 06004KT 6000 FEW020 FEW023CB BKN200 25/22 Q1008A2979 HR82 FU CB N RWY NML=METAR SLBU 191100Z NIL=METAR SLSA 191100Z 33005KT 6000 NSC 24/23 Q1007 A2976 HR90 FU CI=METAR SLSR 191100Z 32010KT 5000 FU NSC 23/22 Q1005 A2969 HR95 CIRWY NML=METAR SLSM 191100Z 36004KT 8000 NSC 24/23 Q1007 A2974 HR92 FU CI
ZPX0204 191100@CAELT@GG SLZZYMYT@CAELT@191100 SLLPYFYA@CAELT@SABO SLLP 191100@CAELT@METAR SLLP 191100Z 36004KT 9999 FEW013 04/01 Q1036 A3061 626.9@CAELT@HR81 P90// CI NOSIG=@CAELT@METAR SLCO 191100Z 32004KT 9999 NSC 24/22 Q1009 A2981 982.2 HR88 FU@CAELT@METAR SLRY 191100Z 00000KT 9999 NSC 22/22 Q1004 A2967 HR97 FU RWY NML@CAELT@METAR SLRQ 191100Z 00000KT 9999 NSC 23/23 Q1007 A2974 983.1 HR98 FU=METAR SLAP 191100Z 00000KT 9999 SCT025 18/17 Q1015 A2998 856.3 HR95AC=METAR SLSB 191100Z 00000KT 7000 NSC 24/23 Q1007 A2974 HR93 RWY NML=METAR SLOR 191100Z 00000KT 3000 FU FEW070 03/M03 Q1034 A3055 655.6HR64=METAR SLUY 191100Z 00000KT 9999 NSC 05/M03 Q1033 A3052 657.9HR57 FU CI=
ZPX0205 191101@CAELT@GG SLZZYMYT@CAELT@191100 SLCBYGYS@CAELT@SABO SLCB 191100@CAELT@METAR SLCB 191100Z 00000KT 8000 NSC 11/10 Q1024 A3025 750.9 HR96 FU@CAELT@CI NOSIG=@CAELT@METAR SLAL 191100Z 18007KT 9999 NSC 11/05 Q1027 A3035 702.6 HR57=@CAELT@METAR SLVM 191100Z 00000KT 8000 NSC 24/19 Q1004 A2967 HR73 FU CI=@CAELT@METAR SLYA 191100Z 00000KT 9999 NSC 24/19 Q1006 A2971 931.3 HR73 FU=
ZPX0206 191102@CAELT@GG SLZZYMYT@CAELT@191101 SLVRYGYS@CAELT@SABO SLVR 191100@CAELT@METAR SLVR 191100Z 34007KT 6000 NSC 24/21 Q1007 A2975 HR81 FU NOSIG=@CAELT@METAR SLET 191100Z 32009KT 7000 NSC 26/20 Q1007 A2974 HR71 FU NOSIG=@CAELT@METAR SLAS 191100Z 36006KT 0800 FU BKN070 25/21 Q1010 A2983 HR81 RWY@CAELT@NML=@CAELT@METAR SLJV 191100Z 00000KT 5000 FU NSC. 22/21 Q1008 A2977 HR92 RWYMETAR SLCP 191100Z 00000KT 0500 FU NSC 23/21 Q1012 A2988 HR88 RWY NMLMETAR SLSI 191100Z 00000KT 2000 FU SCT070 25/22 Q1009 A2980 HR83 WYMETAR SLTI 191100Z 36006KT 9999 NSC 27/21 Q1013 A2991 HR67 FU CI RWYMETAR SLJE 191100Z 00000KT 6000 NSC 272/20 Q1011 A2985 HR68 FU RWYMETAR SLVG 191100Z 00000KT 9999 NSC 13/11 Q1021 A3015 HR84 RWY NML=METAR SLRB 191100Z 00000KT 9999 NSC 25/22 Q1010 A2983 HR83 RWY NML=METAR SLPS 191100Z 09006KT 7000 BKN070 24/22 Q1010 12983 HR88 FU=METAR SLCA 191100Z 00000KT 9999 NSC 20/15 Q1010 A2983 HR75 FU RWY NML
ZPX0225 191122@CAELT@GG SLZZYMYT@CAELT@191121 SLVRYGYS@CAELT@SABO SLVR 191100 CCA@CAELT@METAR SLVR 191100Z 34007KT 6000 NSC 24/21 Q1007 A2975 HR81 FU NOSIG=@CAELT@METAR SLET 191100Z 32009KT 7000 NSC 26/20 Q1007 A2974 HR71 FU NOSIG=@CAELT@METAR SLAS 191100Z 36006KT 0800 FU BKN070 25/21 Q1010 A2983 HR81 RWY@CAELT@NML=@CAELT@METAR SLJV 191100Z 00000KT 5000 FU NSC. 22/21 Q1008 A2977 HR92 RWYMETAR SLCP 191100Z 00000KT 0500 FU NSC 23/21 Q1012 A2988 HR88 RWY NMLMETAR SLSI 191100Z 00000KT 2000 FU SCT070 25/22 Q1009 A2980 HR83 WYMETAR SLTI 191100Z 36006KT 9999 NSC 27/21 Q1013 A2991 HR67 FU CI RWYMETAR COR SLJE 191100Z 00000KT 6000 NSC 27/20 Q1011 A2985 HR68 FU RWYMETAR SLVG 191100Z 00000KT 9999 NSC 13/11 Q1021 A3015 HR84 RWY NML=METAR SLRB 191100Z 00000KT 9999 NSC 25/22 Q1010 A2983 HR83 RWY NML=METAR SLPS 191100Z 09006KT 7000 BKN070 24/22 Q1010 12983 HR88 FU=METAR SLCA 191100Z 00000KT 9999 NSC 20/15 Q1010 A2983 HR75 FU RWY NML
ZPX0235 191152@CAELT@GG SLZZYMYT@CAELT@191151 SLPSZTZX@CAELT@SABO SLPS 191200@CAELT@METAR SLPS 191200Z 12004KT 6000 BKN070 25/23 Q1010 A2983 HR92 FU=@CAELT@
ZPX0236 191153@CAELT@GG SLZZYMYT@CAELT@191153 SLVRYGYZ@CAELT@SABO SLVR 191200@CAELT@METAR SLVR 191200Z 34012KT 6000 NSC 27/21 Q1008 A2977 HR68 FU NOSIG=@CAELT@
ZPX0237 191153@CAELT@GG SLZZYMYT@CAELT@191153 SLORYGYZ@CAELT@SABO SLOR 191200@CAELT@METAR SLOR 191200Z 36005KT 9999 FEW017 06/M01 Q1034 A3056 655.8 HR60@CAELT@FU SE/S/SW AC=@CAELT@
ZPX0238 191153@CAELT@GG SLZZYMYT@CAELT@191153 SLRBYGYS@CAELT@SABO SLRB 191200@CAELT@METAR SLRB 191200Z 36015KT 9999 NSC 30/23 Q1010 A2983 HR68 FU RWY NML=@CAELT@
ZPX0241 191154@CAELT@GG SLZZYMYT@CAELT@191153 SLETYMYC@CAELT@SABO SLET 191200@CAELT@METAR SLET 191200Z 31013G25KT 7000 NSC 28/21 Q1007 A2975 HR64 FU@CAELT@NOSIG=@CAELT@
ZPX0242 191155@CAELT@GG SLZZYMYT@CAELT@191155 SLUYYGYS@CAELT@SABO SLUY 191200@CAELT@METAR SLUY 191200Z 00000KT 9999 NSC 10/01 Q1034 A3053 658.3@CAELT@HR50 CI=@CAELT@
ZPX0243 191155@CAELT@GG SLZZYMYT@CAELT@191155 SLCAYGYS@CAELT@SABO SLCA 191200@CAELT@METAR SLCA 191200Z 00000KT 9999 NSC 23/13 Q1010 A2983 HR53 FU RWY NML@CAELT@
ZPX0245 191155@CAELT@GG SLZZYMYT@CAELT@191155 SLLPYGYZ@CAELT@SABO SLLP 191200@CAELT@METAR SLLP 191200Z VRB02KT 9999 FEW015 07/02 Q1037 A3062 627.3@CAELT@HR69 P93// HZ/NW CI NOSIG=@CAELT@
ZPX0246 191155@CAELT@GG SLZZYMYT@CAELT@191155 SLSAYGYS@CAELT@SABO SLSA 191200@CAELT@METAR SLSA 191200Z 34008KT 6000 NSC 26/23 Q1008 A2979 HR83 FU CI=@CAELT@
ZPX0247 191155@CAELT@GG SLZZYMYT@CAELT@191155 SLSAYGYS@CAELT@SABO SLSA 191200@CAELT@METAR SLSA 191200Z 34008KT 6000 NSC 26/23 Q1008 A2979 HR83 FU CI=@CAELT@
ZPX0249 191156@CAELT@GG SLZZYMYT@CAELT@191157 SLCOYGYZ@CAELT@SABO SLCO 191200@CAELT@METAR SLCO 191200Z 31004KT 9999 NSC 25/23 Q1010 A2984 983.1 HR87 FU@CAELT@
ZPX0250 191156@CAELT@GG SLZZYMYT@CAELT@191156 SLTRYGYZ@CAELT@SABO SLTR 191200@CAELT@METAR SLTR 191200Z 36008KT 6000 NSC 27/23 Q1009 A2980 990.7@CAELT@HR77 FU CI NOSIG=@CAELT@
ZPX0251 191157@CAELT@GG SLZZYMYT@CAELT@191155 SLRQYSYX@CAELT@SABO SLRQ 191200@CAELT@METAR SLRQ 191200Z 00000KT 9999 NSC 26/24 Q1008 A2977 984.1 HR89 FU=@CAELT@
ZPX0252 191157@CAELT@GG SLZZYMYT@CAELT@191157 SLCBYGYZ@CAELT@SABO SLCB 191200@CAELT@METAR SLCB 191200Z 00000KT 9999 FEW036 15/11 Q1024 A3027 751.3 HR76@CAELT@FU CI NOSIG=@CAELT@
ZPX0253 191157@CAELT@GG SLZZYMYT@CAELT@191155 SLTJYGYZ@CAELT@SABO SLTJ 191200@CAELT@METAR SLTJ 191200Z 00000KT 9999 NSC 21/10 Q1017 A3004 812.6 HR52 FU=@CAELT@
ZPX0257 191158@CAELT@GG SLZZYMYT@CAELT@191158 SLVRYGYS@CAELT@SABO SLVR 191200@CAELT@METAR SLVR 191200Z 34012KT 6000 NSC 27/21 Q1008 A2977 HR68 FU NOSIG=@CAELT@METAR SLET 191200Z 31013G25KT 7000 NSC 28/21 Q1007 A2975 HR64 FU@CAELT@NOSIG=@CAELT@METAR SLAS 191200Z 36010KT 0800 FU FEW020 26/22 Q1011 A2986 HR77 RWY@CAELT@NML=METAR SLJV 191200Z 36008KT 4000 FU NSC 24/20 Q1009 A2980 HR80 RWY NMLMETAR SLCP 191200Z 00000KT 0500 FU 24/21 Q1013 A2991 HR82 RWY NML=METAR SLSI 191200Z 00000KT 3000 FU NSC 26/22 Q1010 A2983 HR76 RWY NMLMETAR SLTI 191200Z 36010KT 9999 NSC 29/20 Q1013 A2991 HR59 FU RWY NMLMETAR SLJE 191200Z 36006KT 6000 NSC 29/21 Q1012 A2988 HR64 FU RWY NMLMETAR SLVG 191200Z 000000KT 9999 NSC 17/12 Q1021 A3015 HR72 RWY NML=METAR SLRB 191200Z 36015KT 9999 NSC 30/23 Q1010 A2983 HR68 FU RWY NMLMETAR SLPS 191200Z 12004KT 6000 BKN070 25/23 Q1010 A2983 HR92 FU=METAR SLCA 191200Z 00000KT 9999 NSC 23/13 Q1010 A2983 HR53 FU RWY NML
ZPX0258 191158@CAELT@GG SLZZYMYT@CAELT@191158 SLSBYSYX@CAELT@SABO SLSB 191200@CAELT@METAR SLSB 191200Z 00000KT 5000 FU NSC 27/24 Q1008 A2977 HR85 RWY NML=@CAELT@
ZPX0260 191200@CAELT@GG SLZZYMYT@CAELT@191200 SLLPYFYA@CAELT@SABO SLLP 191200@CAELT@METAR SLLP 191200Z VRB02KT 9999 FEW015 07/02 Q1037 A3062 627.3@CAELT@HR69 P93// HZ/NW CI NOSIG=@CAELT@METAR SLCO 191200Z 31004KT 9999 NSC 25/23 Q1010 A2984 983.1@CAELT@HR87 FU CI=@CAELT@METAR SLRY 191200Z 00000KT 8000 NSC 25/24 Q1005 A2970 HR92FU RWY NML=METAR SLRQ 191200Z 00000KT 9999 NSC 26/24 Q1008 A2977 984.1HR89 FU=METAR SLAP 191200Z 00000KT 9999 FEW025 20/18 Q1015 A3000856.8 HR87 AC=METAR SLSB 191200Z 00000KT 5000 FU NSC 27/24 Q1008 A2977 HR85RWY NML=METAR SLOR 191200Z 36005KT 9999 FEW017 06/M01 Q1034 A3056655.8 HR60 FU SE/S/SW AC=METAR SLUY 191200Z 00000KT 9999 NSC 10/01 Q1034 A3053 658.3HR50 CI=
ZPX0261 191201@CAELT@GG SLZZYMYT@CAELT@191200 SLCBYGYS@CAELT@SABO SLCB 191200@CAELT@METAR SLCB 191200Z 00000KT 9999 FEW036 15/11 Q1024 A3027 751.3 HR76@CAELT@FU CI NOSIG=@CAELT@METAR SLAL 191200Z 22004KT 9999 NSC 13/05 Q1028 A3036 703.0 HR60=@CAELT@METAR SLVM 191200Z 00000KT 8000 NSC 29/20 Q1005 A2968 HR59 FU CI=@CAELT@METAR SLTJ 191200Z 00000KT 9999 NSC 21/10 Q1017 A3004 812.6 HR52 FU=METAR SLYA 191200Z 04012KT 9999 NSC 29/20 Q1006 A2972 931.4 HR60 FU=
ZPX0262 191202@CAELT@GG SLZZYMYT@CAELT@191200 SLTRYGYS@CAELT@SABO SLTR 191200@CAELT@METAR SLTR 191200Z 36008KT 6000 NSC 27/23 Q1009 A2980 990.7@CAELT@HR77 FU CI NOSIG=@CAELT@METAR SLGM 191200Z 02008KT 5000 VCSH FU SCT017 FEW020CB SCT080 BKN200@CAELT@25/24 Q1011 A2985 HR92 CB/SH NE/E=@CAELT@METAR SLRI 191200Z 00000KT 5000 FU SCT080 BKN200 27/23 Q1011A2987 HR82=METAR SLJO 191200Z 36005KT 5000 FU FEW020 BKN200 26/22 Q1009 A2980HR78 RWY NML=METAR SLRA 191200Z 36008KT 6000 FEW020 OVC200 26/23 Q1009 A2980 HR82FU RWY NML=METAR SLMG 191200Z 06004KT 6000 FEW020 BKN080 BKN200 26/22 Q1009A2982 HR78 FU RWY NML=METAR SLBU 191200Z 03006KT 8000 SCT020 BKN200 25/23 Q1010 A2984 HR86METAR SLSA 191200Z 34008KT 6000 NSC 26/23 Q1008 A2979 HR83 FU CI=METAR SLSR 191200Z 32015KT 7000 NSC 26/23 Q1006 A2971 HR87 FU CIRWY NML=METAR SLSM 191200Z 36004KT 8000 NSC 26/23 Q1008 A2977 HR86 FU CI
ZPX0297 191252@CAELT@GG SLZZYMYT@CAELT@191250 SLPSZTZX@CAELT@SABO SLPS 191300@CAELT@METAR SLPS 191300Z 12004KT 6000 OVC070 26/24 Q1011 A2986 HR92 FU=@CAELT@
ZPX0298 191253@CAELT@GG SLZZYMYT@CAELT@191253 SLRBYGYS@CAELT@SABO SLRB 191300@CAELT@METAR SLRB 191300Z 35015KT 9999 NSC 32/22 Q1011 A2985 HR55 FU RWY NML=@CAELT@
ZPX0299 191254@CAELT@GG SLZZYMYT@CAELT@191254 SLORYGYZ@CAELT@SABO SLOR 191300@CAELT@METAR SLOR 191300Z 02004KT 9999 FEW017 10/01 Q1035 A3057 656.0 HR56=@CAELT@
ZPX0300 191254@CAELT@GG SLZZYMYT@CAELT@191254 SLCAYGYS@CAELT@SABO SLCA 191300@CAELT@METAR SLCA 191300Z 00000KT 9999 NSC 29/14 Q1010 A2983 HR38 FU RWY NML@CAELT@
ZPX0301 191255@CAELT@GG SLZZYMYT@CAELT@191255 SLSAYGYS@CAELT@SABO SLSA 191300@CAELT@METAR SLSA 191300Z 34008KT 6000 SCT080 BKN200 29/23 Q1009 A2981@CAELT@HR70 FU=@CAELT@
ZPX0302 191255@CAELT@GG SLZZYMYT@CAELT@191255 SLSAYGYS@CAELT@SABO SLSA 191300@CAELT@METAR SLSA 191300Z 34008KT 6000 SCT080 BKN200 29/23 Q1009 A2981@CAELT@HR70 FU=@CAELT@
ZPX0303 191255@CAELT@GG SLZZYMYT@CAELT@191255 SLTJYGYZ@CAELT@SABO SLTJ 191300@CAELT@METAR SLTJ 191300Z 00000KT 9999 NSC 24/11 Q1017 A3003 812.5 HR45 FU=@CAELT@
ZPX0304 191255@CAELT@GG SLZZYMYT@CAELT@191256 SLVRYGYZ@CAELT@SABO SLVR 191300@CAELT@METAR SLVR 191300Z 34014KT 6000 NSC 31/22 Q1009 A2980 HR60 FU NOSIG=@CAELT@
ZPX0305 191256@CAELT@GG SLZZYMYT@CAELT@191255 SLLPYGYZ@CAELT@SABO SLLP 191300@CAELT@METAR SLLP 191300Z 15006KT 9999 FEW015 10/01 Q1037 A3064 627.6@CAELT@HR56 P93// HZ/NW CI NOSIG=@CAELT@
ZPX0306 191256@CAELT@GG SLZZYMYT@CAELT@191256 SLTRYGYZ@CAELT@SABO SLTR 191300@CAELT@METAR SLTR 191300Z 03010KT 6000 SCT080 BKN200 30/23 Q1010 A2983@CAELT@991.8 HR65 FU NOSIG=@CAELT@
ZPX0307 191256@CAELT@GG SLZZYMYT@CAELT@191257 SLUYYGYS@CAELT@SABO SLUY 191300@CAELT@METAR SLUY 191300Z 29004KT 9999 NSC 13/01 Q1034 A3054 658.5@CAELT@HR44 CI=@CAELT@
ZPX0308 191256@CAELT@GG SLZZYMYT@CAELT@191255 SLRQYSYX@CAELT@SABO SLRQ 191300@CAELT@METAR SLRQ 191300Z 00000KT 9999 NSC 28/25 Q1008 A2979 984.8 HR84 FU=@CAELT@
ZPX0309 191256@CAELT@GG SLZZYMYT@CAELT@191256 SLCBYGYZ@CAELT@SABO SLCB 191300@CAELT@METAR SLCB 191300Z 00000KT 9999 FEW036 18/09 Q1025 A3027 751.4 HR56@CAELT@FU CI NOSIG=@CAELT@
ZPX0310 191257@CAELT@GG SLZZYMYT@CAELT@191256 SLETYMYC@CAELT@SABO SLET 191300@CAELT@METAR SLET 191300Z 31017G29KT 7000 NSC 30/21 Q1008 A2977 HR57 FU@CAELT@NOSIG=@CAELT@
ZPX0312 191257@CAELT@GG SLZZYMYT@CAELT@191257 SLVRYGYS@CAELT@SABO SLVR 191300@CAELT@METAR SLVR 191300Z 34014KT 6000 NSC 31/22 Q1009 A2980 HR60 FU NOSIG=@CAELT@METAR SLET 191300Z 31017G29KT 7000 NSC 30/21 Q1008 A2977 HR57 FU@CAELT@NOSIG=@CAELT@METAR SLAS 191300Z 36015G25KT 2000 FU NSC 29/23 Q1012 A2989 HR70 RWY@CAELT@NML=METAR SLJV 191300Z 36016KT 4000 FU NSC 27/21 Q1010 A2983 HR78 RWY NMLMETAR SLCP 191300Z 30005KT 0500 FU NSC 25/21 Q1014 A2994 HR78 RWY NMLMETAR SLSI 191300Z 36006KT 3000 FU NSC 28/22 Q1010 A2983 HR68 RWY NMLMETAR SLTI 191300Z 36015KT 9999 NSC 32/20 Q1014 A2994 HR50 FU RWY NMLMETAR SLJE 191300Z 36006KT 4000 FU NSC 31/22 Q1012 A2988 HR61 RWY NMLMETAR SLVG 191300Z 36005KT 9999 FEW020 20/13 Q1022 A3018 HR59 RWY NMLMETAR SLRB 191300Z 35015KT 9999 NSC 32/22 Q1011 A2985 HR55 FU RWY NMLMETAR SLPS 191300Z 12004KT 6000 OVC070 26/24 Q1011 A2986 HR92 FU=METAR SLCA 191300Z 00000KT 9999 NSC 29/14 Q1010 A2983 HR38 FU RWY NML=
ZPX0314 191258@CAELT@GG SLZZYMYT@CAELT@191259 SLTRYGYS@CAELT@SABO SLTR 191300@CAELT@METAR SLTR 191300Z 03010KT 6000 SCT080 BKN200 30/23 Q1010 A2983@CAELT@991.8 HR65 FU NOSIG=@CAELT@METAR SLGM 191300Z 02010KT 5000 VCSH FU SCT017 FEW020CB SCT080@CAELT@BKN200 27/24 Q1012 A2988 HR82 CB/SH NE/E=@CAELT@METAR SLRI 191300Z 03005KT 5000 FU SCT015 FEW020CB BKN080 27/23Q1012 A2989 HR77 CB NE=METAR SLJO 191300Z 36006KT 5000 FU FEW020 BKN080 28/23 Q1011 A2986HR75 CI RWY NML=METAR SLRA 191300Z 36008KT 7000 -TSRA SCT020 FEW023CB OVC200 25/24Q1010 A2984 HR94 FU CB/TS NE/SE RWY HUM OPR=METAR SLMG 191300Z 06004KT 6000 FEW020 FEW023CB BKN080 27/23 Q1010A2984 HR79 FU CB NE RWY NML=METAR SLBU 191300Z 03006KT 6000 SCT020 BKN200 27/23 Q1010 A2985 HR80FU RWY NML=METAR SLSA 191300Z 34008KT 6000 SCT080 BKN200 29/23 Q1009 A2981HR70 FU=METAR SLSR 191300Z 32015KT 7000 NSC 28/23 Q1006 A2973 HR72 FU CIRWY NML=METAR SLSM 191300Z 36004KT 8000 NSC 28/23 Q1009 A2980 HR77 FU
ZPX0315 191259@CAELT@GG SLZZYMYT@CAELT@191258 SLSBYSYX@CAELT@SABO SLSB 191300@CAELT@METAR SLSB 191300Z 00000KT 5000 FU NSC 29/24 Q1008 A2979 HR79 RWY NML=@CAELT@
ZPX0319 191303@CAELT@GG SLZZYMYT@CAELT@191303 SLCOYGYZ@CAELT@SABO SLCO 191300 RRA@CAELT@METAR RTD SLCO 191300Z 32006KT 9999 NSC 28/24 Q1011 A2986 983.7 HR78@CAELT@FU CI=@CAELT@
ZPX0320 191304@CAELT@GG SLZZYMYT@CAELT@191304 SLLPYFYA@CAELT@SABO SLLP 191300@CAELT@METAR SLLP 191300Z 15006KT 9999 FEW015 10/01 Q1037 A3064 627.6@CAELT@HR56 P93// HZ/NW CI NOSIG=@CAELT@METAR SLCO 191300Z 32006KT 9999 NSC 28/24 Q1011 A2986 983.7 HR78@CAELT@FU CI=@CAELT@METAR SLRY 191300Z 34003KT 8000 NSC 27/24 Q1006 A2973 HR79 FURWY NML=METAR SLRQ 191300Z 00000KT 9999 NSC 28/25 Q1008 A2979 984.8HR84 FU=METAR SLAP 191300Z 00000KT 9999 FEW025 23/20 Q1016 A3003 857.6HR81 AC=METAR SLSB 191300Z 00000KT 5000 FU NSC 29/24 Q1008 A2979 HR79METAR SLOR 191300Z 02004KT 9999 FEW017 10/01 Q1035 A3057 656.0HR56=METAR SLUY 191300Z 29004KT 9999 NSC 13/01 Q1034 A3054 658.5HR44 CI=
ZPX0344 191348@CAELT@GG SLZZYMYT@CAELT@191346 SLPSZTZX@CAELT@SABO SLPS 191400@CAELT@METAR SLPS 191400Z 12004KT 6000 OVC070 27/24 Q1010 A2983 HR89 FU=@CAELT@
ZPX0347 191354@CAELT@GG SLZZYMYT@CAELT@191354 SLSAYGYS@CAELT@SABO SLSA 191400@CAELT@METAR SLSA 191400Z 32010KT 6000 FEW080 BKN200 30/23 Q1010 A2983@CAELT@HR66 FU=@CAELT@
ZPX0348 191354@CAELT@GG SLZZYMYT@CAELT@191354 SLSAYGYS@CAELT@SABO SLSA 191400@CAELT@METAR SLSA 191400Z 32010KT 6000 FEW080 BKN200 30/23 Q1010 A2983@CAELT@HR66 FU=@CAELT@
ZPX0349 191354@CAELT@GG SLZZYMYT@CAELT@191353 SLRBYGYS@CAELT@SABO SLRB 191400@CAELT@METAR SLRB 191400Z 36015KT 9999 NSC 33/22 Q1012 A2988 HR53 FU RWY NML=@CAELT@
ZPX0350 191354@CAELT@GG SLZZYMYT@CAELT@191354 SLSBYSYX@CAELT@SABO SLSB 191400@CAELT@METAR SLSB 191400Z 03004KT 6000 NSC 30/25 Q1009 A2979 HR72 RWY NML=@CAELT@
ZPX0351 191355@CAELT@GG SLZZYMYT@CAELT@191355 SLTRYGYZ@CAELT@SABO SLTR 191400@CAELT@METAR SLTR 191400Z 03010KT 6000 FEW080 SCT200 31/23 Q1010 A2984@CAELT@991.9 HR64 FU NOSIG=@CAELT@
ZPX0352 191355@CAELT@GG SLZZYMYT@CAELT@191355 SLVRYGYZ@CAELT@SABO SLVR 191400@CAELT@METAR SLVR 191400Z 36015G25KT 6000 NSC 33/22 Q1009 A2980 HR54 FU@CAELT@NOSIG=@CAELT@
ZPX0354 191355@CAELT@GG SLZZYMYT@CAELT@191356 SLORYGYZ@CAELT@SABO SLOR 191400@CAELT@METAR SLOR 191400Z 28003KT 9999 FEW017 12/02 Q1035 A3057 656.1 HR49=@CAELT@
ZPX0355 191356@CAELT@GG SLZZYMYT@CAELT@191355 SLLPYGYZ@CAELT@SABO SLLP 191400@CAELT@METAR SLLP 191400Z 12008KT 9999 FEW017 11/01 Q1037 A3064 627.7@CAELT@HR48 P93// HZ/NW CI NOSIG=@CAELT@
ZPX0356 191356@CAELT@GG SLZZYMYT@CAELT@191357 SLUYYGYS@CAELT@SABO SLUY 191400@CAELT@METAR SLUY 191400Z 32003KT 9999 FEW025 14/M04 Q1034 A3054 658.5@CAELT@HR30 CI=@CAELT@
ZPX0357 191356@CAELT@GG SLZZYMYT@CAELT@191356 SLRQYSYX@CAELT@SABO SLRQ 191400@CAELT@METAR SLRQ 191400Z 00000KT 9999 NSC 31/25 Q1009 A2980 HR72=@CAELT@
ZPX0358 191356@CAELT@GG SLZZYMYT@CAELT@191356 SLCBYGYZ@CAELT@SABO SLCB 191400@CAELT@METAR SLCB 191400Z 00000KT 9999 FEW036 21/07 Q1024 A3025 750.9 HR41@CAELT@FU CI NOSIG=@CAELT@
ZPX0359 191356@CAELT@GG SLZZYMYT@CAELT@191357 SLCOYGYZ@CAELT@SABO SLCO 191400@CAELT@METAR SLCO 191400Z 33006KT 9999 NSC 30/24 Q1011 A2986 983.7 HR70 FU@CAELT@
ZPX0360 191358@CAELT@GG SLZZYMYT@CAELT@191358 SLETYMYC@CAELT@SABO SLET 191400@CAELT@METAR SLET 191400Z 31018G31KT 7000 FEW020 32/20 Q1008 A2978 HR50 FU@CAELT@NOSIG=@CAELT@
ZPX0362 191359@CAELT@GG SLZZYMYT@CAELT@191357 SLTJYGYZ@CAELT@SABO SLTJ 191400@CAELT@METAR SLTJ 191400Z 13004KT 9999 NSC 27/09 Q1016 A3002 812.1 HR33 FU=@CAELT@
ZPX0363 191400@CAELT@GG SLZZYMYT@CAELT@191359 SLTRYGYS@CAELT@SABO SLTR 191400@CAELT@METAR SLTR 191400Z 03010KT 6000 FEW080 SCT200 31/23 Q1010 A2984@CAELT@991.9 HR64 FU NOSIG=@CAELT@METAR SLGM 191400Z 02012KT 5000 VCSH FU SCT016 FEW020CB OVC070 26/23@CAELT@Q1012 A2991 HR86 CB/SH NE/E/NW=@CAELT@METAR SLRI 191400Z 05010KT 5000 FU SCT015 FEW020CB BKN080 28/23Q1013 A2992 HR72 CB NE=METAR SLJO 191400Z 36006KT 7000 FEW020 SCT080 BKN200 30/23 Q1011A2986 HR78 FU RWY NML=METAR SLRA 191400Z 36008KT 7000 FEW020 BKN200 26/24 Q1010 A2985 HR86RETSRA FU RWY HUM OPR=METAR SLMG 191400Z 36004KT 6000 FEW020 FEW023CB BKN080 27/23 Q1010A2985 HR81 FU CB N RWY NML=METAR SLBU 191400Z 03008KT 6000 SCT020 BKN200 29/23 Q1011 A2987 HR71FU RWY NML=METAR SLSA 191400Z 32010KT 6000 FEW080 BKN200 30/23 Q1010 A2983HR66 FU=METAR SLSR 191400Z 32015KT 7000 NSC 30/23 Q1007 A2975 HR67 FU CIRWY NML=METAR SLSM 191400Z 36008KT 8000 NSC 31/24 Q1009 A2981 HR66 FU
ZPX0364 191400@CAELT@GG SLZZYMYT@CAELT@191359 SLLPYFYA@CAELT@SABO SLLP 191400@CAELT@METAR SLLP 191400Z 12008KT 9999 FEW017 11/01 Q1037 A3064 627.7@CAELT@HR48 P93// HZ/NW CI NOSIG=@CAELT@METAR SLCO 191400Z 33006KT 9999 NSC 30/24 Q1011 A2986 983.7 HR70 FU@CAELT@METAR SLRY 191400Z 34003KT 8000 NSC 30/24 Q1007 A2974 HR70 FU@CAELT@RWY NML=METAR SLRQ 191400Z 00000KT 9999 NSC 31/25 Q1009 A2980 HR72=METAR SLAP 191400Z 00000KT 9999 FEW025 25/20 Q1016 A3002 857.3HR73 AC=METAR SLSB 191400Z 03004KT 6000 NSC 30/25 Q1009 A2979 HR72 RWY NML=METAR SLOR 191400Z 28003KT 9999 FEW017 12/02 Q1035 A3057 656.1 HR49=METAR SLUY 191400Z 32003KT 9999 FEW025 14/M04 Q1034 A3054 658.5HR30 CI=
ZPX0366 191401@CAELT@GG SLZZYMYT@CAELT@191400 SLVRYGYS@CAELT@SABO SLVR 191400@CAELT@METAR SLVR 191400Z 36015G25KT 6000 NSC 33/22 Q1009 A2980 HR54 FU@CAELT@NOSIG=@CAELT@METAR SLET 191400Z 31018G31KT 7000 FEW020 32/20 Q1008 A2978 HR50 FU@CAELT@METAR SLAS 191400Z 36015G25KT 4000 FU NSC 31/23 Q1012 A2989 HR64 RWY@CAELT@NML=METAR SLJV 191400Z 36016KT 4000 FU NSC 28/21 Q1010 A2983 HR72 RWY NMLMETAR SLCP 191400Z 33010KT 1000 FU NSC 28/20 Q1014 A2994 HR64 RWY NMLMETAR SLSI 191400Z 33008KT 3000 FU NSC 30/22 Q1011 A2985 HR63 RWY NMLMETAR SLTI 191400Z 36015KT 9999 NSC 34/21 Q1014 A2994 HR47 FU RWY NMLMETAR SLJE 191400Z 36006KT 2500 FU NSC 33/23 Q1012 A2988 HR57 RWY NMLMETAR SLVG 191400Z 36004KT 9999 FEW020 22/13 Q1022 A3018 HR54 RWY NMLMETAR SLRB 191400Z 36015KT 9999 NSC 33/22 Q1012 A2988 HR53 FU RWY NMLMETAR SLPS 191400Z 12004KT 6000 OVC070 27/24 Q1010 A2983 HR89 FU=METAR SLCA 191400Z 00000KT 9999 NSC 33/13 Q1009 A2980 HR30 FU RWY NML=
ZPX0368 191402@CAELT@GG SLZZYMYT@CAELT@191400 SLCBYGYS@CAELT@SABO SLCB 191400@CAELT@METAR SLCB 191400Z 00000KT 9999 FEW036 21/07 Q1024 A3025 750.9 HR41@CAELT@FU CI NOSIG=@CAELT@METAR SLAL 191400Z 16004KT 9999 FEW013 16/06 Q1028 A3038 703.3 HR51=@CAELT@METAR SLVM 191400Z 00000KT 8000 NSC 35/22 Q1004 A2966 HR48 FU=@CAELT@METAR SLTJ 191400Z 13004KT 9999 NSC 27/09 Q1016 A3002 812.1 HR33 FU=METAR SLYA 191400Z 04010KT 9999 NSC 36/22 Q1006 A2971 931.2 HR44 FU=
ZPX0398 191452@CAELT@GG SLZZYMYT@CAELT@191451 SLPSZTZX@CAELT@SABO SLPS 191500@CAELT@METAR SLPS 191500Z 15004KT 6000 BKN070 31/25 Q1010 A2983 HR73 FU=@CAELT@
ZPX0399 191453@CAELT@GG SLZZYMYT@CAELT@191454 SLCOYGYZ@CAELT@SABO SLCO 191500@CAELT@METAR SLCO 191500Z 28008KT 9999 FEW025 SCT100 33/24 Q1011 A2985 983.6@CAELT@HR60 CI=@CAELT@
ZPX0400 191454@CAELT@GG SLZZYMYT@CAELT@191453 SLRBYGYS@CAELT@SABO SLRB 191500@CAELT@METAR SLRB 191500Z 36015KT 5000 FU NSC 34/22 Q1011 A2985 HR49 RWY NML=@CAELT@
ZPX0401 191454@CAELT@GG SLZZYMYT@CAELT@191455 SLORYGYZ@CAELT@SABO SLOR 191500@CAELT@METAR SLOR 191500Z 06007KT 9999 FEW020 15/01 Q1034 A3056 655.8 HR40=@CAELT@
ZPX0402 191454@CAELT@GG SLZZYMYT@CAELT@191454 SLETYMYC@CAELT@SABO SLET 191500@CAELT@METAR SLET 191500Z 31020G33KT 8000 SCT020 34/21 Q1008 A2978 HR49 FU@CAELT@NOSIG=@CAELT@
ZPX0403 191454@CAELT@GG SLZZYMYT@CAELT@191454 SLSBYSYX@CAELT@SABO SLSB 191500@CAELT@METAR SLSB 191500Z 00000KT 6000 NSC 32/25 Q1009 A2980 HR67 RWY NML=@CAELT@
ZPX0406 191455@CAELT@GG SLZZYMYT@CAELT@191455 SLTRYGYZ@CAELT@SABO SLTR 191500@CAELT@METAR SLTR 191500Z 02012KT 6000 FEW017 SCT200 32/23 Q1010 A2984@CAELT@991.9 HR61 FU NOSIG=@CAELT@
ZPX0408 191455@CAELT@GG SLZZYMYT@CAELT@191455 SLRQYSYX@CAELT@SABO SLRQ 191500@CAELT@METAR SLRQ 191500Z 00000KT 9999 FEW017 32/25 Q1009 A2979 984.9 HR66@CAELT@
ZPX0410 191456@CAELT@GG SLZZYMYT@CAELT@191456 SLSAYGYS@CAELT@SABO SLSA 191500@CAELT@METAR SLSA 191500Z 32012KT 6000 SCT020 BKN200 33/23 Q1010 A2983@CAELT@HR56 FU=@CAELT@
ZPX0411 191456@CAELT@GG SLZZYMYT@CAELT@191456 SLSAYGYS@CAELT@SABO SLSA 191500@CAELT@METAR SLSA 191500Z 32012KT 6000 SCT020 BKN200 33/23 Q1010 A2983@CAELT@HR56 FU=@CAELT@
ZPX0412 191456@CAELT@GG SLZZYMYT@CAELT@191455 SLLPYGYZ@CAELT@SABO SLLP 191500@CAELT@METAR SLLP 191500Z 16009KT 9999 FEW017 13/M01 Q1037 A3062 627.3@CAELT@HR39 P93// CI NOSIG=@CAELT@
ZPX0413 191456@CAELT@GG SLZZYMYT@CAELT@191455 SLUYYGYS@CAELT@SABO SLUY 191500@CAELT@METAR SLUY 191500Z 27004KT 9999 FEW027 15/M06 Q1033 A3053 658.1@CAELT@HR22 CI=@CAELT@
ZPX0414 191457@CAELT@GG SLZZYMYT@CAELT@191456 SLTJYGYZ@CAELT@SABO SLTJ 191500@CAELT@METAR SLTJ 191500Z 22005KT 9999 FEW040 29/05 Q1016 A3001 811.8 HR22@CAELT@
ZPX0415 191457@CAELT@GG SLZZYMYT@CAELT@191457 SLCBYGYZ@CAELT@SABO SLCB 191500@CAELT@METAR SLCB 191500Z 20003KT 9999 FEW036 23/08 Q1023 A3022 750.2 HR36@CAELT@FU CI NOSIG=@CAELT@
ZPX0416 191458@CAELT@GG SLZZYMYT@CAELT@191458 SLVRYGYZ@CAELT@SABO SLVR 191500@CAELT@METAR SLVR 191500Z 35015G25KT 6000 SCT020 33/22 Q1009 A2980 HR54 FU@CAELT@NOSIG=@CAELT@
ZPX0417 191458@CAELT@GG SLZZYMYT@CAELT@191457 SLVRYGYS@CAELT@SABO SLVR 191500@CAELT@METAR SLVR 191500Z 35015G25KT 6000 SCT020 33/22 Q1009 A2980 HR54 FU@CAELT@NOSIG=@CAELT@METAR SLET 191500Z 31020G33KT 8000 SCT020 34/21 Q1008 A2978 HR49 FU@CAELT@METAR SLAS 191500Z 36015G25KT 5000 FU NSC 32/24 Q1012 A2989 HR62 RWY@CAELT@NML=METAR SLJV 191500Z 36016KT 4000 FU NSC 31/21 Q1011 A2985 HR57 RWY NMLMETAR SLCP 191500Z NIL=METAR SLSI 191500Z 36010KT 3000 FU NSC 31/23 Q1011 A2985 HR60 RWY NMLMETAR SLTI 191500Z 36016KT 9999 NSC 35/20 Q1014 A2994 HR42 FU RWY NMLMETAR SLJE 191500Z 36008KT 1500 FU NSC 34/23 Q1012 A2988 HR43 RWY NMLMETAR SLVG 191500Z 36005KT 9999 FEW023 25/14 Q1022 A3018 HR44 RWY NMLMETAR SLRB 191500Z 36015KT 5000 FU NSC 34/22 Q1011 A2985 HR49 RWY NMLMETAR SLPS 191500Z 15004KT 6000 BKN070 31/25 Q1010 A2983 HR73 FU=METAR SLCA 191500Z 00000KT 9999 NSC 35/15 Q1009 A2980 HR30 FU RWY NML
ZPX0422 191459@CAELT@GG SLZZYMYT@CAELT@191459 SLLPYFYA@CAELT@SABO SLLP 191500@CAELT@METAR SLLP 191500Z 16009KT 9999 FEW017 13/M01 Q1037 A3062 627.3@CAELT@HR39 P93// CI NOSIG=@CAELT@METAR SLCO 191500Z 28008KT 9999 FEW025 SCT100 33/24 Q1011 A2985@CAELT@983.6 HR60 CI=@CAELT@METAR SLRY 191500Z 32004KT 8000 NSC 32/24 Q1007 A2974 HR62FU RWY NML=METAR SLRQ 191500Z 00000KT 9999 FEW017 32/25 Q1009 A2979 984.9HR66 FU=METAR SLAP 191500Z 00000KT 9999 FEW025 27/21 Q1016 A3001 857.2HR69 AC=METAR SLSB 191500Z 00000KT 6000 NSC 32/25 Q1009 A2980 HR67RWY NML=METAR SLOR 191500Z 06007KT 9999 FEW020 15/01 Q1034 A3056 655.8HR40=METAR SLUY 191500Z 27004KT 9999 FEW027 15/M06 Q1033 A3053658.1 HR22 CI=
ZPX0423 191500@CAELT@GG SLZZYMYT@CAELT@191500 SLTRYGYS@CAELT@SABO SLTR 191500@CAELT@METAR SLTR 191500Z 02012KT 6000 FEW017 SCT200 32/23 Q1010 A2984@CAELT@991.9 HR61 FU NOSIG=@CAELT@METAR SLGM 191500Z 02015G25KT 5000 VCSH FU SCT017 FEW020CB OVC070@CAELT@27/24 Q1013 A2991 HR82 CB/SH NE/E/NW=@CAELT@METAR SLRI 191500Z 03012KT 5000 VCSH BKN015 FEW020CB BKN080 28/23Q1013 A2992 HR73 CB/SH N/NE/E=METAR SLJO 191500Z 36008KT 7000 FEW020 BKN200 31/23 Q1011 A2986 HR63FU RWY NML=METAR SLRA 191500Z 36012KT 7000 FEW020 BKN200 30/24 Q1010 A2985 HR70FU RWY HUM OPR=METAR SLMG 191500Z 06004KT 6000 BKN080 29/23 Q1010 A2984 HR72 FURWY NML=METAR SLBU 191500Z 03008KT 6000 FEW020 BKN200 29/23 Q1011 A2987 HR69METAR SLSA 191500Z 32012KT 6000 SCT020 BKN200 33/23 Q1010 A2983HR56 FU=METAR SLSR 191500Z 32015KT 7000 NSC 33/23 Q1007 A2976 HR56 FU CIMETAR SLSM 191500Z 36010KT 8000 NSC 33/23 Q1009 A2981 HR57 FU
ZPX0425 191501@CAELT@GG SLZZYMYT@CAELT@191500 SLCBYGYS@CAELT@SABO SLCB 191500@CAELT@METAR SLCB 191500Z 20003KT 9999 FEW036 23/08 Q1023 A3022 750.2 HR36@CAELT@FU CI NOSIG=@CAELT@METAR SLAL 191500Z 17004KT 9999 FEW015 18/05 Q1028 A3037 703.2 HR44=@CAELT@METAR SLVM 191500Z 00000KT 8000 NSC 38/23 Q1004 A2966 HR42 FU=@CAELT@METAR SLTJ 191500Z 22005KT 9999 FEW040 29/05 Q1016 A3001 811.8 HR22METAR SLYA 191500Z 04010KT 9999 NSC 39/20 Q1005 A2970 931.0 HR35 FU=
ZPX0467 191552@CAELT@GG SLZZYMYT@CAELT@191550 SLPSZTZX@CAELT@SABO SLPS 191600@CAELT@METAR SLPS 191600Z 16004KT 6000 SCT070 33/25 Q1009 A2980 HR63 FU=@CAELT@
ZPX0468 191553@CAELT@GG SLZZYMYT@CAELT@191553 SLRBYGYS@CAELT@SABO SLRB 191600@CAELT@METAR SLRB 191600Z 36012KT 5000 FU NSC 35/21 Q1011 A2985 HR44 RWY NML=@CAELT@
ZPX0469 191554@CAELT@GG SLZZYMYT@CAELT@191555 SLUYYGYS@CAELT@SABO SLUY 191600@CAELT@METAR SLUY 191600Z 18005KT 9999 FEW030 18/M08 Q1032 A3050 657.4@CAELT@HR20 CI=@CAELT@
ZPX0470 191554@CAELT@GG SLZZYMYT@CAELT@191553 SLETYMYC@CAELT@SABO SLET 191600@CAELT@METAR SLET 191600Z 31020G33KT 8000 SCT020 34/21 Q1007 A2976 HR47 FU@CAELT@NOSIG=@CAELT@
ZPX0471 191554@CAELT@GG SLZZYMYT@CAELT@191555 SLRQYSYX@CAELT@SABO SLRQ 191600@CAELT@METAR SLRQ 191600Z 36004KT 9999 FEW017 34/25 Q1008 A2978 984.5 HR62@CAELT@
ZPX0472 191554@CAELT@GG SLZZYMYT@CAELT@191555 SLVRYGYZ@CAELT@SABO SLVR 191600@CAELT@METAR SLVR 191600Z 36016G26KT 6000 BKN020 34/22 Q1008 A2978 HR50 FU@CAELT@NOSIG=@CAELT@
ZPX0473 191555@CAELT@GG SLZZYMYT@CAELT@191554 SLSAYGYS@CAELT@SABO SLSA 191600@CAELT@METAR SLSA 191600Z 32010KT 7000 SCT020 BKN200 34/22 Q1009 A2982@CAELT@HR50 FU=@CAELT@
ZPX0474 191555@CAELT@GG SLZZYMYT@CAELT@191554 SLSAYGYS@CAELT@SABO SLSA 191600@CAELT@METAR SLSA 191600Z 32010KT 7000 SCT020 BKN200 34/22 Q1009 A2982@CAELT@HR50 FU=@CAELT@
ZPX0475 191555@CAELT@GG SLZZYMYT@CAELT@191555 SLORYGYZ@CAELT@SABO SLOR 191600@CAELT@METAR SLOR 191600Z 22006KT 9999 FEW020 17/02 Q1034 A3055 655.6 HR35=@CAELT@
ZPX0476 191555@CAELT@GG SLZZYMYT@CAELT@191555 SLSBYSYX@CAELT@SABO SLSB 191600@CAELT@METAR SLSB 191600Z 36008KT 6000 FEW020 33/24 Q1009 A2982 HR58 RWY NML=@CAELT@
ZPX0477 191555@CAELT@GG SLZZYMYT@CAELT@191555 SLTRYGYZ@CAELT@SABO SLTR 191600@CAELT@METAR SLTR 191600Z 33014KT 6000 FEW017 SCT200 33/23 Q1009 A2982@CAELT@991.3 HR57 FU NOSIG=@CAELT@
ZPX0478 191555@CAELT@GG SLZZYMYT@CAELT@191555 SLCBYGYZ@CAELT@SABO SLCB 191600@CAELT@METAR SLCB 191600Z 24004KT 9999 FEW036 24/07 Q1022 A3019 749.4 HR32@CAELT@FU CI NOSIG=@CAELT@
ZPX0479 191555@CAELT@GG SLZZYMYT@CAELT@191555 SLCOYGYZ@CAELT@SABO SLCO 191600@CAELT@METAR SLCO 191600Z 31006KT 9999 FEW027 34/24 Q1010 A2984 983.0 HR56@CAELT@AC/CI=@CAELT@
ZPX0480 191556@CAELT@GG SLZZYMYT@CAELT@191555 SLLPYGYZ@CAELT@SABO SLLP 191600@CAELT@METAR SLLP 191600Z 09010KT 9999 SCT017 15/M01 Q1036 A3061 626.9@CAELT@HR33 P93// CI NOSIG=@CAELT@
ZPX0481 191556@CAELT@GG SLZZYMYT@CAELT@191556 SLVRYGYS@CAELT@SABO SLVR 191600@CAELT@METAR SLVR 191600Z 36016G26KT 6000 BKN020 34/22 Q1008 A2978 HR50 FU@CAELT@NOSIG=@CAELT@METAR SLET 191600Z 31020G33KT 8000 SCT020 34/21 Q1007 A2976 HR47 FU@CAELT@METAR SLAS 191600Z 36015KT 6000 NSC 33/23 Q1011 A2985 HR56 FU RWY NML@CAELT@METAR SLCP 191600Z NIL=METAR SLSI 191600Z 36008KT 3000 FU SCT017 32/23 Q1011 A2985 HR56 RWYNML=METAR SLRB 191600Z 36012KT 5000 FU NSC 35/21 Q1011 A2985 HR44 RWY NMLMETAR SLPS 191600Z 16004KT 6000 SCT070 33/25 Q1009 A2980 HR63 FU=METAR SLCA 191600Z 00000KT 9999 FEW036 37/12 Q1008 A2977 HR22 FU RWY
ZPX0482 191557@CAELT@GG SLZZYMYT@CAELT@191556 SLTJYGYZ@CAELT@SABO SLTJ 191600@CAELT@METAR SLTJ 191600Z 16006KT 9999 FEW040 31/04 Q1015 A2999 811.1 HR18=@CAELT@
ZPX0484 191559@CAELT@GG SLZZYMYT@CAELT@191559 SLTRYGYS@CAELT@SABO SLTR 191600@CAELT@METAR SLTR 191600Z 33014KT 6000 FEW017 SCT200 33/23 Q1009 A2982@CAELT@991.3 HR57 FU NOSIG=@CAELT@METAR SLGM 191600Z 02012KT 7000 VCSH FU SCT017 FEW020CB OVC070 27/23@CAELT@Q1012 A2990 HR81 CB/SH E/SE/SW=@CAELT@METAR SLRI 191600Z 05010KT 5000 VCSH SCT008 BKN015 FEW020CB BKN07026/23 Q1013 A2992 HR83 CB/SH N/NE/NW=METAR SLJO 191600Z 36012KT 7000 VCSH FEW020 FEW023CB BKN200 32/23Q1010 A2985 HR60 FU CB/SH NE RWY NML=METAR SLRA 191600Z 36010KT 7000 SCT017 BKN200 32/23 Q1011 A2986 HR59FU RWY HUM OPR=METAR SLMG 191600Z 36004KT 6000 FEW020 BKN080 30/23 Q1009 A2982 HR66FU RWY NML=METAR SLBU 191600Z 03010KT 6000 FEW017 BKN200 34/23 Q1010 A2984 HR56METAR SLSA 191600Z 32010KT 7000 SCT020 BKN200 34/22 Q1009 A2982HR50 FU=METAR SLSR 191600Z 32015KT 7000 NSC 33/22 Q1007 A2974 HR53 FU CIRWY NML=METAR SLSM 191600Z 36010KT 8000 NSC 34/22 Q1008 A2979 HR52 FU
ZPX0486 191600@CAELT@GG SLZZYMYT@CAELT@191600 SLLPYFYA@CAELT@SABO SLLP 191600@CAELT@METAR SLLP 191600Z 09010KT 9999 SCT017 15/M01 Q1036 A3061 626.9@CAELT@HR33 P93// CI NOSIG=@CAELT@METAR SLCO 191600Z 31006KT 9999 FEW027 34/24 Q1010 A2984 983.0 HR56@CAELT@AC/CI=@CAELT@METAR SLRY 191600Z 32010KT 8000 FEW017 33/23 Q1007 A2974 HR74 FURWY NML=METAR SLRQ 191600Z 36004KT 9999 FEW017 34/25 Q1008 A2978 984.5 HR62METAR SLAP 191600Z 00000KT 9999 FEW025 28/20 Q1015 A2999 856.5 HR64AC=METAR SLSB 191600Z 36008KT 6000 FEW020 33/24 Q1009 A2982 HR58 RWYNML=METAR SLOR 191600Z 22006KT 9999 FEW020 17/02 Q1034 A3055 655.6 HR35=METAR SLUY 191600Z 18005KT 9999 FEW030 18/M08 Q1032 A3050 657.4HR20 CI=
ZPX0487 191600@CAELT@GG SLZZYMYT@CAELT@191600 SLCBYGYS@CAELT@SABO SLCB 191600@CAELT@METAR SLCB 191600Z 24004KT 9999 FEW036 24/07 Q1022 A3019 749.4 HR32@CAELT@FU CI NOSIG=@CAELT@METAR SLAL 191600Z 00000KT 9999 FEW017 19/03 Q1028 A3035 702.8 HR34=@CAELT@METAR SLVM 191600Z 00000KT 8000 NSC 40/23 Q1003 A2963 HR38 FU=@CAELT@METAR SLTJ 191600Z 16006KT 9999 FEW040 31/04 Q1015 A2999 811.1 HR18=METAR SLYA 191600Z 04010KT 9999 NSC 40/20 Q1005 A2969 930.5 HR33 FU=
ZPX0515 191653@CAELT@GG SLZZYMYT@CAELT@191652 SLETYMYC@CAELT@SABO SLET 191600@CAELT@METAR SLET 191600Z 32019G32KT 8000 SCT020 35/21 Q1007 A2974 HR43 FU@CAELT@NOSIG=@CAELT@
ZPX0516 191653@CAELT@GG SLZZYMYT@CAELT@191651 SLPSZTZX@CAELT@SABO SLPS 191700@CAELT@METAR SLPS 191700Z 15008KT 6000 FEW020 FEW030 34/25 Q1008 A2977 HR58@CAELT@CB/N=@CAELT@
ZPX0517 191654@CAELT@GG SLZZYMYT@CAELT@191655 SLSAYGYS@CAELT@SABO SLSA 191700@CAELT@METAR SLSA 191700Z 32014KT 7000 BKN020 BKN200 35/22 Q1009 A2980@CAELT@HR45 FU=@CAELT@
ZPX0518 191654@CAELT@GG SLZZYMYT@CAELT@191655 SLSAYGYS@CAELT@SABO SLSA 191700@CAELT@METAR SLSA 191700Z 32014KT 7000 BKN020 BKN200 35/22 Q1009 A2980@CAELT@HR45 FU=@CAELT@
ZPX0520 191655@CAELT@GG SLZZYMYT@CAELT@191653 SLRBYGYS@CAELT@SABO SLRB 191700@CAELT@METAR SLRB 191700Z 35015KT 4000 FU FEW020 36/22 Q1009 A2980 HR44 RWY@CAELT@NML=@CAELT@
ZPX0521 191655@CAELT@GG SLZZYMYT@CAELT@191655 SLTRYGYZ@CAELT@SABO SLTR 191700@CAELT@METAR SLTR 191700Z 36012KT 6000 FEW017 SCT200 34/23 Q1008 A2978@CAELT@990.2 HR55 FU NOSIG=@CAELT@
ZPX0522 191655@CAELT@GG SLZZYMYT@CAELT@191656 SLVRYGYZ@CAELT@SABO SLVR 191700@CAELT@METAR SLVR 191700Z 35020G30KT 6000 BKN020 35/22 Q1007 A2975 HR47 FU@CAELT@NOSIG=@CAELT@
ZPX0523 191655@CAELT@GG SLZZYMYT@CAELT@191655 SLLPYGYZ@CAELT@SABO SLLP 191700@CAELT@METAR SLLP 191700Z 09009G19KT 9999 SCT020 16/M02 Q1035 A3058@CAELT@626.3 HR29 P93// CI NOSIG=@CAELT@
ZPX0524 191655@CAELT@GG SLZZYMYT@CAELT@191655 SLLPYFYA@CAELT@SABO SLRY 191700@CAELT@METAR SLRY 191700Z 32010KT 9999 FEW020 34/23 Q1006 A2973 HR51@CAELT@FU RWY NML=@CAELT@
ZPX0525 191655@CAELT@GG SLZZYMYT@CAELT@191655 SLRQYSYX@CAELT@SABO SLRQ 191700@CAELT@METAR SLRQ 191700Z 36005KT 9999 SCT017 35/24 Q1006 A2973 982.9 HR52@CAELT@
ZPX0526 191656@CAELT@GG SLZZYMYT@CAELT@191655 SLORYGYZ@CAELT@SABO SLOR 191700@CAELT@METAR SLOR 191700Z 14004KT 9999 FEW020 19/02 Q1034 A3053 655.2 HR32=@CAELT@
ZPX0527 191656@CAELT@GG SLZZYMYT@CAELT@191655 SLTJYGYZ@CAELT@SABO SLTJ 191700@CAELT@METAR SLTJ 191700Z 14004KT 9999 FEW040 33/04 Q1014 A2995 810.2 HR16=@CAELT@
ZPX0528 191657@CAELT@GG SLZZYMYT@CAELT@191655 SLUYYGYS@CAELT@SABO SLUY 191700@CAELT@METAR SLUY 191700Z 15005KT 9999 FEW033 19/M05 Q1031 A3046 658.3@CAELT@HR20 CI=@CAELT@
ZPX0529 191657@CAELT@GG SLZZYMYT@CAELT@191657 SLVRYGYS@CAELT@SABO SLVR 191700@CAELT@METAR SLVR 191700Z 35020G30KT 6000 BKN020 35/22 Q1007 A2975 HR47 FU@CAELT@NOSIG=@CAELT@METAR SLET 191600Z 32019G32KT 8000 SCT020 35/21 Q1007 A2974 HR43 FU@CAELT@METAR SLAS 191700Z 35015KT 8000 NSC 35/24 Q1011 A2986 HR54 FU RWY NML@CAELT@METAR SLCP 191700Z 30008KT 2000 FU BKN017 31/22 Q1013 A2991 HR60 RWYNML=METAR SLSI 191700Z 33008KT 3000 FU SCT017 33/23 Q1010 A2983 HR53 RWYMETAR SLRB 191700Z 35015KT 4000 FU FEW020 36/22 Q1009 A2980 HR44 RWYMETAR SLPS 191700Z 15008KT 6000 FEW020 FEW030 34/25 Q1008 A2977 HR58CB N=METAR SLCA 191700Z 09004KT 9999 SCT036 38/13 Q1007 A2974 HR22 FU RWY
ZPX0530 191657@CAELT@GG SLZZYMYT@CAELT@191657 SLCBYGYZ@CAELT@SABO SLCB 191700@CAELT@METAR SLCB 191700Z 20005KT 9999 FEW036 FEW040CB 25/06 Q1020 A3015 748@CAELT@.2 HR29 CB/SH NW FU CI NOSIG=@CAELT@
ZPX0531 191658@CAELT@GG SLZZYMYT@CAELT@191658 SLCOYGYZ@CAELT@SABO SLCO 191600@CAELT@METAR SLCO 191600Z 27004KT 9999 SCT027 FEW030CB 35/23 Q1008 A2978 981@CAELT@.2 HR50 CB/SH/W AC/CI=@CAELT@
ZPX0535 191659@CAELT@GG SLZZYMYT@CAELT@191659 SLTRYGYS@CAELT@SABO SLTR 191700@CAELT@METAR SLTR 191700Z 36012KT 6000 FEW017 SCT200 34/23 Q1008 A2978@CAELT@990.2 HR55 FU NOSIG=@CAELT@METAR SLGM 191700Z 02012KT 7000 SCT017 FEW020CB OVC070 28/24 Q1011@CAELT@A2988 HR76 FU CB E/SE=@CAELT@METAR SLRI 191700Z 05014KT 3000 -RA SCT008 BKN015 FEW020CB OVC07025/23 Q1012 A2989 HR92 CB N/NE/E/SE=METAR SLJO 191700Z 36012KT 7000 TS VCSH SCT020 FEW023CB BKN200 31/23Q1009 A2982 HR68 FU CB/TS/SH SW/W RWY NML=METAR SLRA 191700Z 36015KT 7000 TS VCSH SCT017 FEW023CB BKN200 31/24Q1010 A2983 HR65 FU CB/TS/SH SW/W/NW RWY HUM OPR=METAR SLMG 191700Z 34006KT 6000 FEW020 BKN080 31/23 Q1008 A2979 HR63FU RWY NML=METAR SLBU 191700Z 03008KT 6000 SCT017 BKN200 33/23 Q1009 A2981 HR54METAR SLSA 191700Z 32014KT 7000 BKN020 BKN200 35/22 Q1009 A2980HR45 FU=METAR SLSR 191700Z 32015KT 7000 FEW020 BKN200 34/23 Q1006 A2971 HR51METAR SLSM 191700Z 36010KT 8000 SCT017 34/23 Q1008 A2977 HR50 FURWY NML=
ZPX0537 191700@CAELT@GG SLZZYMYT@CAELT@191658 SLSBYSYX@CAELT@SABO SLSB 191700@CAELT@METAR SLSB 191700Z 33015KT 6000 SCT020 35/23 Q1008 A2979 HR50 FU@CAELT@RWY NML=@CAELT@
ZPX0539 191700@CAELT@GG SLZZYMYT@CAELT@191700 SLLPYFYA@CAELT@SABO SLLP 191700@CAELT@METAR SLLP 191700Z 09009G19KT 9999 SCT020 16/M02 Q1035 A3058@CAELT@626.3 HR29 P93// CI NOSIG=@CAELT@METAR SLCO 191600Z 27004KT 9999 SCT027 FEW030CB 35/23 Q1008@CAELT@A2978 981.2 HR50 CB/SH/W AC/CI=@CAELT@METAR SLRY 191700Z 32010KT 9999 FEW020 34/23 Q1006 A2973 HR51FU RWY NML=METAR SLRQ 191700Z 36005KT 9999 SCT017 35/24 Q1006 A2973 982.9HR52 FU=METAR SLAP 191700Z 36015KT 9999 FEW025 FEW027CB 30/20 Q1014A2996 855.5 HR57 CB/NE/E AC=METAR SLSB 191700Z 33015KT 6000 SCT020 35/23 Q1008 A2979 HR50 FURWY NML=METAR SLOR 191700Z 14004KT 9999 FEW020 19/02 Q1034 A3053 655.2HR32=METAR SLUY 191700Z 15005KT 9999 FEW033 19/M05 Q1031 A3046 658.3HR20 CI=
ZPX0542 191702@CAELT@GG SLZZYMYT@CAELT@191702 SLVRYGYS@CAELT@SABO SLVR 191700 CCA@CAELT@METAR SLVR 191700Z 35020G30KT 6000 BKN020 35/22 Q1007 A2975 HR47 FU@CAELT@NOSIG=@CAELT@METAR COR SLET 191700Z 32019G32KT 8000 SCT020 35/21 Q1007 A2974 HR43@CAELT@FU NOSIG=@CAELT@METAR SLAS 191700Z 35015KT 8000 NSC 35/24 Q1011 A2986 HR54 FU RWY NMLMETAR SLCP 191700Z 30008KT 2000 FU BKN017 31/22 Q1013 A2991 HR60 RWYNML=METAR SLSI 191700Z 33008KT 3000 FU SCT017 33/23 Q1010 A2983 HR53 RWYMETAR SLRB 191700Z 35015KT 4000 FU FEW020 36/22 Q1009 A2980 HR44 RWYMETAR SLPS 191700Z 15008KT 6000 FEW020 FEW030 34/25 Q1008 A2977 HR58CB N=METAR SLCA 191700Z 09004KT 9999 SCT036 38/13 Q1007 A2974 HR22 FU RWY
ZPX0543 191702@CAELT@GG SLZZYMYT@CAELT@191700 SLCBYGYS@CAELT@SABO SLCB 191700@CAELT@METAR SLCB 191700Z 20005KT 9999 FEW036 FEW040CB 25/06 Q1020 A3015@CAELT@748.2 HR29 CB/SH NW FU CI NOSIG=@CAELT@METAR SLAL 191700Z 27004KT 9999 FEW020 FEW025TCU 20/02 Q1026 A3032@CAELT@702.0 HR30 TCU/SE=@CAELT@METAR SLVM 191700Z 18010KT 9999 FEW025 41/23 Q1002 A2960 HR35 FU CI=METAR SLTJ 191700Z 14004KT 9999 FEW040 33/04 Q1014 A2995 810.2 HR16=METAR SLYA 191700Z 00000KT 9999 NSC 40/20 Q1004 A2967 929.8 HR32 FU=
ZPX0552 191721@CAELT@GG SLZZYMYT@CAELT@191721 SLVRYGYS@CAELT@SABO SLVR 191700 CCB@CAELT@METAR SLVR 191700Z 35020G30KT 6000 BKN020 35/22 Q1007 A2975 HR47 FU@CAELT@NOSIG=@CAELT@METAR COR SLET 191700Z 32019G32KT 8000 SCT020 35/21 Q1007 A2974 HR43@CAELT@FU NOSIG=@CAELT@METAR SLAS 191700Z 35015KT 8000 NSC 35/24 Q1011 A2986 HR54 FU RWY NMLMETAR SLCP 191700Z 30008KT 2000 FU BKN017 31/22 Q1013 A2991 HR60 RWYNML=METAR SLSI 191700Z 33008KT 3000 FU SCT017 33/23 Q1010 A2983 HR53 RWYMETAR SLRB 191700Z 35015KT 4000 FU FEW020 36/22 Q1009 A2980 HR44 RWYMETAR COR SLPS 191700Z 15008KT 6000 FEW020 FEW030 34/25 Q1008 A2977HR58 FU CB N=METAR SLCA 191700Z 09004KT 9999 SCT036 38/13 Q1007 A2974 HR22 FU RWY
ZPX0568 191752@CAELT@GG SLZZYMYT@CAELT@191749 SLPSZTZX@CAELT@SABO SLPS 191800@CAELT@METAR SLPS 191800Z 09008KT 6000 FEW020 FEW030/CB BKN200 34/25 Q1007@CAELT@A2974 HR58 FU CB/NE=@CAELT@
ZPX0570 191753@CAELT@GG SLZZYMYT@CAELT@191753 SLETYMYC@CAELT@SABO SLET 191800@CAELT@METAR SLET 191800Z 32020G33KT 6000 SCT020 34/19 Q1005 A2969 HR43 FU@CAELT@NOSIG=@CAELT@
ZPX0572 191753@CAELT@GG SLZZYMYT@CAELT@191753 SLRBYGYS@CAELT@SABO SLRB 191800@CAELT@METAR SLRB 191800Z 36016KT 4000 FU FEW020 37/22 Q1007 A2974 HR41 RWY@CAELT@NML=@CAELT@
ZPX0574 191754@CAELT@GG SLZZYMYT@CAELT@191754 SLCAYGYS@CAELT@SABO SLCA 191800@CAELT@METAR SLCA 191800Z 09010KT 9999 SCT036 37/13 Q1006 A2971 HR24 FU RWY@CAELT@NML=@CAELT@
ZPX0576 191755@CAELT@GG SLZZYMYT@CAELT@191755 SLORYGYZ@CAELT@SABO SLOR 191800@CAELT@METAR SLOR 191800Z 33005KT 9999 SCT020 21/02 Q1033 A3052 655.0 HR29=@CAELT@
ZPX0577 191755@CAELT@GG SLZZYMYT@CAELT@191755 SLSAYGYS@CAELT@SABO SLSA 191800@CAELT@METAR SLSA 191800Z 31010KT 5000 VCSH BKN020 FEW023CB BKN200 34/22@CAELT@Q1006 A2972 HR48 FU CB/SH N/NE/W/NW=@CAELT@
ZPX0578 191755@CAELT@GG SLZZYMYT@CAELT@191755 SLSAYGYS@CAELT@SABO SLSA 191800@CAELT@METAR SLSA 191800Z 31010KT 5000 VCSH BKN020 FEW023CB BKN200 34/22@CAELT@Q1006 A2972 HR48 FU CB/SH N/NE/W/NW=@CAELT@
ZPX0579 191755@CAELT@GG SLZZYMYT@CAELT@191756 SLVRYGYZ@CAELT@SABO SLVR 191800@CAELT@METAR SLVR 191800Z 35017G27KT 6000 BKN020 36/22 Q1005 A2970 HR45 FU@CAELT@NOSIG=@CAELT@
ZPX0582 191756@CAELT@GG SLZZYMYT@CAELT@191755 SLLPYGYZ@CAELT@SABO SLLP 191800@CAELT@METAR SLLP 191800Z 09010G20KT 9999 SCT020 FEW023CB 17/M02 Q1034@CAELT@A3054 625.4 HR27 P93// CB/SH NW AC/CI NOSIG=@CAELT@
ZPX0583 191756@CAELT@GG SLZZYMYT@CAELT@191756 SLCBYGYZ@CAELT@SABO SLCB 191800@CAELT@METAR SLCB 191800Z 17004KT 9999 FEW036 FEW040CB 28/06 Q1019 A3009 746@CAELT@.7 HR25 CB/SH NW AC CI FU NOSIG=@CAELT@
ZPX0584 191756@CAELT@GG SLZZYMYT@CAELT@191756 SLCOYGYZ@CAELT@SABO SLCO 191800@CAELT@METAR SLCO 191800Z 23007KT 7000 TS VCSH SCT027 FEW030CB 32/24 Q1007@CAELT@A2974 979.9 HR64 TS/W CB/SH/NE/E/W AC/CI=@CAELT@
ZPX0585 191756@CAELT@GG SLZZYMYT@CAELT@191756 SLTRYGYZ@CAELT@SABO SLTR 191800@CAELT@METAR SLTR 191800Z 34008KT 7000 FEW017 FEW020CB SCT200 33/23@CAELT@Q1006 A2972 988.0 HR57 FU CB N/NE SH N NOSIG=@CAELT@
ZPX0586 191757@CAELT@GG SLZZYMYT@CAELT@191756 SLSBYSYX@CAELT@SABO SLSB 191800@CAELT@METAR SLSB 191800Z 32012KT 8000 SCT020 35/22 Q1005 A2970 HR48 FU RWY@CAELT@NML=@CAELT@
ZPX0587 191757@CAELT@GG SLZZYMYT@CAELT@191756 SLRQYSYX@CAELT@SABO SLRQ 191800@CAELT@METAR SLRQ 191800Z 36008KT 9999 SCT020 FEW023CB SCT200 37/23 Q1005@CAELT@A2969 HR47=@CAELT@
ZPX0589 191758@CAELT@GG SLZZYMYT@CAELT@191757 SLTJYGYZ@CAELT@SABO SLTJ 191800@CAELT@METAR SLTJ 191800Z 09006KT 9999 FEW040 FEW043CB 34/07 Q1012 A2991 809@CAELT@.0 HR19 CB NE=@CAELT@
ZPX0591 191759@CAELT@GG SLZZYMYT@CAELT@191759 SLTRYGYS@CAELT@SABO SLTR 191800@CAELT@METAR SLTR 191800Z 34008KT 7000 FEW017 FEW020CB SCT200 33/23 Q1006@CAELT@A2972 988.0 HR57 FU CB N/NE SH N NOSIG=@CAELT@METAR SLGM 191800Z 02010KT 7000 SCT017 FEW020CB BKN080 29/24 Q1010@CAELT@A2982 HR72 FU CB SE=@CAELT@METAR SLRI 191800Z 09008KT 8000 FEW008 BKN015 FEW020CB BKN070 25/23Q1011 A2986 HR92 CB W/NW FU CI RERA=METAR SLJO 191800Z NIL=METAR SLRA 191800Z NIL=METAR SLMG 191800Z NIL=METAR SLBU 191800Z NIL=METAR SLSA 191800Z 31010KT 5000 VCSH BKN020 FEW023CB BKN200 34/22Q1006 A2972 HR48 FU CB/SH N/NE/W/NW=METAR SLSR 191800Z NIL=METAR SLSM 191800Z NIL=
ZPX0592 191759@CAELT@GG SLZZYMYT@CAELT@191759 SLVRYGYS@CAELT@SABO SLVR 191800@CAELT@METAR SLVR 191800Z 35017G27KT 6000 BKN020 36/22 Q1005 A2970 HR45 FU@CAELT@NOSIG=@CAELT@METAR SLET 191800Z 32020G33KT 6000 SCT020 34/19 Q1005 A2969 HR43 FU@CAELT@METAR SLAS 191800Z 35015KT 9000 FEW020 36/23 Q1009 A2980 HR53 FU RWY@CAELT@NML=METAR SLJV 191800Z 36016KT 5000 FU NSC 33/22 Q1009 A2980 HR52 RWY NMLMETAR SLCP 191800Z 30005KT 2000 FU BKN017 31/22 Q1012 A2988 HR60 RWYMETAR SLSI 191800Z 33012KT 3000 TS FU BKN017 FEW025CB BKN200 33/22Q1008 A2977 HR52 CB/TS N/NW RWY NML=METAR SLTI 191800Z 36015KT 9999 BKN020 38/21 Q1010 A2983 HR37 RWY NMLMETAR SLJE 191800Z 36008KT 1500 FU NSC 38/24 Q1009 A2980 HR45 RWY NMLMETAR SLVG 191800Z 35005KT 9999 SCT027 FEW030CB BKN200 23/11 Q1019A3009 HR45 CB NW/N/SE RETS RWY NML=METAR SLRB 191800Z 36016KT 4000 FU FEW020 37/22 Q1007 A2974 HR41 RWYMETAR SLPS 191800Z 09008KT 6000 FEW020 FEW030CB BKN200 34/25 Q1007A2974 HR58 FU CB NE=METAR SLCA 191800Z 09010KT 9999 SCT036 37/13 Q1006 A2971 HR24 FU RWY
ZPX0593 191800@CAELT@GG SLZZYMYT@CAELT@191800 SLCBYGYS@CAELT@SABO SLCB 191800@CAELT@METAR SLCB 191800Z 17004KT 9999 FEW036 FEW040CB 28/06 Q1019 A3009@CAELT@746.7 HR25 CB/SH NW AC CI FU NOSIG=@CAELT@METAR SLAL 191800Z 08007KT 9999 FEW023 FEW025CB 22/M01 Q1025 A3028@CAELT@701.0 HR22 CB/E=@CAELT@METAR SLVM 191800Z 18007KT 9999 FEW025 41/23 Q1001 A2956 HR35 FU CI=METAR SLTJ 191800Z 09006KT 9999 FEW040 FEW043CB 34/07 Q1012 A2991809.0 HR19 CB NE=METAR SLYA 191800Z 00000KT 9999 NSC 41/21 Q1003 A2964 929.0 HR32 FU=
ZPX0597 191803@CAELT@GG SLZZYMYT@CAELT@191803 SLLPYFYA@CAELT@SABO SLLP 191800@CAELT@METAR SLLP 191800Z 09010G20KT 9999 SCT020 FEW023CB 17/M02@CAELT@Q1034 A3054 625.4 HR27 P93// CB/SH NW AC/CI NOSIG=@CAELT@METAR SLCO 191800Z 23007KT 7000 TS VCSH SCT027 FEW030CB 32/24@CAELT@Q1007 A2974 979.9 HR64 TS/W CB/SH/NE/E/W AC/CI=@CAELT@METAR SLRY 191800Z 32008KT 9999 FEW020 34/22 Q1004 A2967 HR47FY RWY NML=METAR SLRQ 191800Z 36008KT 9999 SCT020 FEW023CB SCT200 37/23 Q1005A2969 HR47=METAR SLAP 191800Z 36015KT 9999 SCT025 FEW027CB 28/20 Q1013 A2992854.5 HR61 CB/NE/E AC=METAR SLSB 191800Z 32012KT 8000 SCT020 35/22 Q1005 A2970 HR48FU RWY NML=METAR SLOR 191800Z 33005KT 9999 SCT020 21/02 Q1033 A3052655.0 HR29=
ZPX0599 191807@CAELT@GG SLZZYMYT@CAELT@191807 SLRQYSYX@CAELT@SABO SLRQ 191800 CCA@CAELT@METAR COR SLRQ 191800Z 36008KT 9999 SCT020 FEW023CB SCT200 37/23@CAELT@Q1005 A2969 HR47 CB/SW=@CAELT@
ZPX0604 191809@CAELT@GG SLZZYMYT@CAELT@191809 SLLPYFYA@CAELT@SABO SLLP 191800 CCA@CAELT@METAR SLLP 191800Z 09010G20KT 9999 SCT020 FEW023CB 17/M02@CAELT@Q1034 A3054 625.4 HR27 P93// CB/SH NW AC/CI NOSIG=@CAELT@METAR SLCO 191800Z 23007KT 7000 TS VCSH SCT027 FEW030CB 32/24@CAELT@Q1007 A2974 979.9 HR64 TS/W CB/SH/NE/E/W AC/CI=@CAELT@METAR SLRY 191800Z 32008KT 9999 FEW020 34/22 Q1004 A2967 HR47FY RWY NML=METAR COR SLRQ 191800Z 36008KT 9999 SCT020 FEW023CB SCT200 37/23Q1005 A2969 HR47 CB/SW=METAR SLAP 191800Z 36015KT 9999 SCT025 FEW027CB 28/20 Q1013 A2992854.5 HR61 CB/NE/E AC=METAR SLSB 191800Z 32012KT 8000 SCT020 35/22 Q1005 A2970 HR48FU RWY NML=METAR SLOR 191800Z 33005KT 9999 SCT020 21/02 Q1033 A3052655.0 HR29=
ZPX0627 191850@CAELT@GG SLZZYMYT@CAELT@191848 SLPSZTZX@CAELT@SABO SLPS 191900@CAELT@METAR SLPS 191900Z 09008KT 6000 SCT020 FEW030/CB BKN200 33/24 Q1006@CAELT@A2971 HR63 FU CB/NE=@CAELT@
ZPX0629 191854@CAELT@GG SLZZYMYT@CAELT@191853 SLETYMYC@CAELT@SABO SLET 191900@CAELT@METAR SLET 191900Z 32018G30KT 6000 FEW020 SCT070 33/21 Q1005 A2968@CAELT@HR50 FU NOSIG=@CAELT@
ZPX0630 191854@CAELT@GG SLZZYMYT@CAELT@191855 SLSBYSYX@CAELT@SABO SLSB 191900@CAELT@METAR SLSB 191900Z 34010G20KT 8000 SCT020 35/22 Q1004 A2965 HR44 FU@CAELT@RWY NML=@CAELT@
ZPX0631 191855@CAELT@GG SLZZYMYT@CAELT@191855 SLCOYGYZ@CAELT@SABO SLCO 191900@CAELT@METAR SLCO 191900Z 32010KT 5000 TS VCSH FEW027 FEW030CB SCT080 BKN200@CAELT@29/23 Q1007 A2974 979.7 HR68 CB/TS/SH N/NE/W=@CAELT@
ZPX0632 191855@CAELT@GG SLZZYMYT@CAELT@191855 SLSAYGYS@CAELT@SABO SLSA 191900@CAELT@METAR SLSA 191900Z 03010KT 5000 TS VCSH SCT020 FEW023CB BKN200 27/23@CAELT@Q1008 A2977 HR78 FU CB/SH N/NE/E/SE TS N/NE=@CAELT@
ZPX0633 191855@CAELT@GG SLZZYMYT@CAELT@191855 SLSAYGYS@CAELT@SABO SLSA 191900@CAELT@METAR SLSA 191900Z 03010KT 5000 TS VCSH SCT020 FEW023CB BKN200 27/23@CAELT@Q1008 A2977 HR78 FU CB/SH N/NE/E/SE TS N/NE=@CAELT@
ZPX0634 191855@CAELT@GG SLZZYMYT@CAELT@191856 SLVRYGYZ@CAELT@SABO SLVR 191900@CAELT@METAR SLVR 191900Z 33017G27KT 6000 BKN020 34/21 Q1005 A2968 HR47 FU@CAELT@CI NOSIG=@CAELT@
ZPX0635 191855@CAELT@GG SLZZYMYT@CAELT@191855 SLLPYGYZ@CAELT@SABO SLLP 191900@CAELT@METAR SLLP 191900Z 10010G20KT 9999 SCT020 FEW023CB 15/M05 Q1033@CAELT@A3051 624.7 HR25 P93// CB/SH NW AC/CI NOSIG=@CAELT@
ZPX0636 191856@CAELT@GG SLZZYMYT@CAELT@191855 SLLPYFYA@CAELT@SABO SLRY 191900@CAELT@METAR SLRY 191900Z 32010KT 9999 FEW020 35/23 Q1003 A2964 HR50@CAELT@FU RWY NML=@CAELT@
ZPX0637 191857@CAELT@GG SLZZYMYT@CAELT@191856 SLRBYGYS@CAELT@SABO SLRB 191900@CAELT@METAR SLRB 191900Z 36012KT 4000 FU FEW020 38/22 Q1007 A2974 HR39 RWY@CAELT@NML=@CAELT@
ZPX0638 191857@CAELT@GG SLZZYMYT@CAELT@191857 SLCBYGYZ@CAELT@SABO SLCB 191900@CAELT@METAR SLCB 191900Z 19005KT 9999 FEW036 FEW040CB 28/06 Q1017 A3006 745@CAELT@.8 HR23 CB/E/NW AC CI FU NOSIG=@CAELT@
ZPX0639 191857@CAELT@GG SLZZYMYT@CAELT@191855 SLTJYGYZ@CAELT@SABO SLTJ 191900@CAELT@METAR SLTJ 191900Z 13010KT 9999 FEW040 33/05 Q1012 A2991 808.9 HR17@CAELT@
ZPX0640 191857@CAELT@GG SLZZYMYT@CAELT@191856 SLRQYSYX@CAELT@SABO SLRQ 191900@CAELT@METAR SLRQ 191900Z 36008KT 9999 SCT020 FEW023CB SCT200 37/24 Q1004@CAELT@A2966 HR48 CB/S/SW=@CAELT@
ZPX0641 191857@CAELT@GG SLZZYMYT@CAELT@191857 SLTRYGYZ@CAELT@SABO SLTR 191900@CAELT@METAR SLTR 191900Z 33012KT 7000 FEW017 FEW020CB BKN200 33/23 Q1005@CAELT@A2969 987.0 HR58 FU CB N/NE NOSIG=@CAELT@
ZPX0643 191900@CAELT@GG SLZZYMYT@CAELT@191900 SLCBYGYS@CAELT@SABO SLCB 191900@CAELT@METAR SLCB 191900Z 19005KT 9999 FEW036 FEW040CB 28/06 Q1017 A3006@CAELT@745.8 HR23 CB/E/NW AC CI FU NOSIG=@CAELT@METAR SLAL 191900Z 09010KT 9999 FEW023 FEW030CB 22/M04 Q1024 A3025@CAELT@700.3 HR18 CB/E=@CAELT@METAR SLTJ 191900Z 13010KT 9999 FEW040 33/05 Q1012 A2991 808.9 HR17
ZPX0645 191900@CAELT@GG SLZZYMYT@CAELT@191900 SLLPYFYA@CAELT@SABO SLLP 191900@CAELT@METAR SLLP 191900Z 10010G20KT 9999 SCT020 FEW023CB 15/M05@CAELT@Q1033 A3051 624.7 HR25 P93// CB/SH NW AC/CI NOSIG=@CAELT@METAR SLCO 191900Z 32010KT 5000 TS VCSH FEW027 FEW030CB SCT080@CAELT@BKN200 29/23 Q1007 A2974 979.7 HR68 CB/TS/SH N/NE/W=@CAELT@METAR SLRY 191900Z 32010KT 9999 FEW020 35/23 Q1003 A2964HR50 FU RWY NML=METAR SLRQ 191900Z 36008KT 9999 SCT020 FEW023CB SCT200 37/24Q1004 A2966 HR48 CB/S/SW=METAR SLSB 191900Z 34010G20KT 8000 SCT020 35/22 Q1004 A2965HR44 FU RWY NML=
ZPX0646 191900@CAELT@GG SLZZYMYT@CAELT@191900 SLCAYGYS@CAELT@SABO SLCA 191900@CAELT@METAR SLCA 191900Z 18006KT 9999 SCT036 37/13 Q1005 A2968 HR25 FU RWY@CAELT@NML=@CAELT@
ZPX0647 191902@CAELT@GG SLZZYMYT@CAELT@191900 SLVRYGYS@CAELT@SABO SLVR 191900@CAELT@METAR SLVR 191900Z 33017G27KT 6000 BKN020 34/21 Q1005 A2968 HR47 FU@CAELT@CI NOSIG=@CAELT@METAR SLET 191900Z 32018G30KT 6000 FEW020 SCT070 33/21 Q1005 A2968@CAELT@HR50 FU NOSIG=@CAELT@METAR SLAS 191900Z 35015KT 9000 FEW020 37/23 Q1006 A2971 HR46 FU RWYNML=METAR SLJV 191900Z 36016KT 5000 FU NSC 34/22 Q1008 A2977 HR50 RWY NMLMETAR SLCP 191900Z 33005KT 3000 FU BKN017 32/22 Q1010 A2983 HR57 RWYMETAR SLSI 191900Z 00000KT 5000 TSRA FU BKN017 FEW025CB BKN200 23/22Q1007 A2974 HR96 CB/TS N/NW RWY WET OPR=METAR SLTI 191900Z 35015KT 9999 BKN020 37/21 Q1009 A2980 HR41 RWY NMLMETAR SLJE 191900Z 36010KT 1500 FU NSC 38/24 Q1008 A2977 HR45 RWY NMLMETAR SLVG 191900Z 36005KT 9999 SCT027 FEW030CB BKN200 25/15 Q1019A3009 HR47 CB NE/E/S RWY NML=METAR SLRB 191900Z 36012KT 4000 FU FEW020 38/22 Q1007 A2974 HR39 RWYMETAR SLPS 191900Z 09008KT 6000 SCT020 FEW030/CB BKN200 33/24 Q1006A2971 HR63 FU CB NE=METAR SLCA 191900Z 18006KT 9999 SCT036 37/13 Q1005 A2968 HR25 FU RWY
ZPX0671 191952@CAELT@GG SLZZYMYT@CAELT@191950 SLPSZTZX@CAELT@SABO SLPS 192000@CAELT@METAR SLPS 192000Z 33010KT 8000 SCT020 FEW030CB OVC200 28/22 Q1007@CAELT@A2974 HR72 FU CB/NW=@CAELT@
ZPX0672 191954@CAELT@GG SLZZYMYT@CAELT@191955 SLSBYSYX@CAELT@SABO SLSB 192000@CAELT@METAR SLSB 192000Z 33008KT 8000 FEW020 35/22 Q1004 A2965 HR45 FU RWY@CAELT@NML=@CAELT@
ZPX0673 191954@CAELT@GG SLZZYMYT@CAELT@191954 SLCAYGYS@CAELT@SABO SLCA 192000@CAELT@METAR SLCA 192000Z 18006KT 9999 SCT036 37/15 Q1005 A2968 HR28 FU RWY@CAELT@NML=@CAELT@
ZPX0674 191954@CAELT@GG SLZZYMYT@CAELT@191955 SLVRYGYZ@CAELT@SABO SLVR 192000@CAELT@METAR SLVR 192000Z 33015G25KT 6000 SCT020 BKN200 32/22 Q1004 A2967@CAELT@HR54 FU NOSIG=@CAELT@
ZPX0675 191955@CAELT@GG SLZZYMYT@CAELT@191955 SLCBYGYZ@CAELT@SABO SLCB 192000@CAELT@METAR SLCB 192000Z 09018G30KT 9999 TS FEW036 FEW040CB SCT200 23/05@CAELT@Q1017 A3006 745.8 HR30 CB/TS ON STN /N SH/N AC NOSIG=@CAELT@
ZPX0676 191955@CAELT@GG SLZZYMYT@CAELT@191955 SLTJYGYZ@CAELT@SABO SLTJ 192000@CAELT@METAR SLTJ 192000Z 12010KT 9999 FEW040 FEW043TCU 32/07 Q1012 A2990@CAELT@808.7 HR20 TCU/E/SE FU=@CAELT@
ZPX0677 191955@CAELT@GG SLZZYMYT@CAELT@191955 SLRBYGYS@CAELT@SABO SLRB 192000@CAELT@METAR SLRB 192000Z 36018KT 4000 FU FEW020 37/22 Q1007 A2974 HR41 RWY@CAELT@NML=@CAELT@
ZPX0678 191955@CAELT@GG SLZZYMYT@CAELT@191955 SLTRYGYZ@CAELT@SABO SLTR 192000@CAELT@METAR SLTR 192000Z 32006KT 7000 FEW017 FEW020CB BKN200 32/23 Q1005@CAELT@A2969 986.9 HR59 FU CB NE NOSIG=@CAELT@
ZPX0679 191956@CAELT@GG SLZZYMYT@CAELT@191956 SLSAYGYS@CAELT@SABO SLSA 192000@CAELT@METAR SLSA 192000Z 03010KT 5000 TS VCSH SCT020 FEW023CB OVC200 25/22@CAELT@Q1007 A2975 HR82 FU CB/SH N/NE/E TS E=@CAELT@
ZPX0680 191956@CAELT@GG SLZZYMYT@CAELT@191956 SLSAYGYS@CAELT@SABO SLSA 192000@CAELT@METAR SLSA 192000Z 03010KT 5000 TS VCSH SCT020 FEW023CB OVC200 25/22@CAELT@Q1007 A2975 HR82 FU CB/SH N/NE/E TS E=@CAELT@
ZPX0682 191956@CAELT@GG SLZZYMYT@CAELT@191955 SLLPYGYZ@CAELT@SABO SLLP 192000@CAELT@METAR SLLP 192000Z 15010KT 9999 SCT020 FEW023CB 16/M05 Q1032@CAELT@A3049 624.4 HR23 P93// CB/SH NW AC/CI NOSIG=@CAELT@
ZPX0683 191957@CAELT@GG SLZZYMYT@CAELT@191955 SLLPYFYA@CAELT@SABO SLRY 192000@CAELT@METAR SLRY 192000Z 34008KT 9999 FEW020 35/22 Q1003 A2963 HR47@CAELT@FU RWY NML=@CAELT@
ZPX0684 191957@CAELT@GG SLZZYMYT@CAELT@191956 SLETYMYC@CAELT@SABO SLET 192000@CAELT@METAR SLET 192000Z 31015G27KT 5000 FU FEW020 SCT070 32/21 Q1004 A2965@CAELT@HR52 NOSIG=@CAELT@
ZPX0685 191957@CAELT@GG SLZZYMYT@CAELT@191958 SLCOYGYZ@CAELT@SABO SLCO 192000@CAELT@METAR SLCO 192000Z 02012KT 8000 VCTS FEW027 FEW030CB SCT080 BKN200 27@CAELT@/21 Q1007 A2975 980.1 HR68 CB/TS/NE FU=@CAELT@
ZPX0686 191958@CAELT@GG SLZZYMYT@CAELT@191956 SLRQYSYX@CAELT@SABO SLRQ 192000@CAELT@METAR SLRQ 192000Z 36006KT 9999 FEWE020 FEW023CB SCT200 37/24 Q1003@CAELT@A2964 HR48 CB/S FU=@CAELT@
ZPX0687 191958@CAELT@GG SLZZYMYT@CAELT@191957 SLVRYGYS@CAELT@SABO SLVR 192000@CAELT@METAR SLVR 192000Z 33015G25KT 6000 SCT020 BKN200 32/22 Q1004 A2967@CAELT@HR54 FU NOSIG=@CAELT@METAR SLET 192000Z 31015G27KT 5000 FU FEW020 SCT070 32/21 Q1004 A2965@CAELT@HR52 NOSIG=@CAELT@METAR SLAS 192000Z 35012KT 9999 FEW020 36/23 Q1006 A2971 HR47 FU RWYNML=METAR SLJV 192000Z 36012KT 5000 FU NSC 34/22 Q1008 A2977 HR51 RWY NMLMETAR SLCP 192000Z 33008KT 3500 FU BKN017 32/22 Q1009 A2980 HR56 RWYMETAR SLSI 192000Z 36006KT 5000 TS FU BKN017 FEW025CB BKN200 23/22Q1006 A2971 HR92 RERA CB/TS NW/W RWY WET OPR=METAR SLTI 192000Z 35010KT 9999 BKN020 FEW030CB 33/22 Q1009 A2980HR55 CB/SH N RWY NML=METAR SLJE 192000Z 36008KT 1500 TS FU FEW020 FEW030CB 36/23 Q1007A2974 HR46 CB/TS W/NW RWY NML=METAR SLVG 192000Z 36009KT 9999 FEW027 FEW030CB BKN200 24/13 Q1019A3009 HR46 CB N RWY NML=METAR SLRB 192000Z 36018KT 4000 FU FEW020 37/22 Q1007 A2974 HR41 RWYMETAR SLPS 192000Z 33010KT 8000 SCT020 FEW030CB OVC200 28/22 Q1007A2974 HR72 FU CB NW=METAR SLCA 192000Z 18006KT 9999 SCT036 37/15 Q1005 A2968 HR28 FU RWY
ZPX0688 191959@CAELT@GG SLZZYMYT@CAELT@191959 SLTRYGYS@CAELT@SABO SLTR 192000@CAELT@METAR SLTR 192000Z 32006KT 7000 FEW017 FEW020CB BKN200 32/23 Q1005@CAELT@A2969 986.9 HR59 FU CB NE NOSIG=@CAELT@METAR SLGM 192000Z 36008KT 7000 SCT017 BKN080 30/23 Q1008 A2978 HR65@CAELT@METAR SLRI 192000Z 09005KT 8000 FEW010 BKN070 26/22 Q1008 A2979 HR76@CAELT@FU CI=METAR SLJO 192000Z NIL=METAR SLRA 192000Z NIL=METAR SLMG 192000Z NIL=METAR SLBU 192000Z NIL=METAR SLSA 192000Z 03010KT 5000 TS VCSH FU SCT020 FEW023CB OVC20025/22 Q1007 A2975 HR82 CB/SH N/NE/E TS E=METAR SLSR 192000Z NIL=METAR SLSM 192000Z NIL=
ZPX0691 192002@CAELT@GG SLZZYMYT@CAELT@192001 SLLPYFYA@CAELT@SABO SLLP 192000@CAELT@METAR SLLP 192000Z 15010KT 9999 SCT020 FEW023CB 16/M05 Q1032@CAELT@A3049 624.4 HR23 P93// CB/SH NW AC/CI NOSIG=@CAELT@METAR SLCO 192000Z 02012KT 8000 VCTS FEW027 FEW030CB SCT080@CAELT@BKN200 27/21 Q1007 A2975 980.1 HR68 CB/TS/NE FU=@CAELT@METAR SLRY 192000Z 34008KT 9999 FEW020 35/22 Q1003 A2963 HR47FU RWY NML=METAR SLRQ 192000Z 36006KT 9999 FEWE020 FEW023CB SCT200 37/24Q1003 A2964 HR48 CB/S FU=
ZPX0693 192004@CAELT@GG SLZZYMYT@CAELT@192000 SLCBYGYS@CAELT@SABO SLCB 192000@CAELT@METAR SLCB 192000Z 09018G30KT 9999 TS FEW036 FEW040CB SCT200 23/05@CAELT@Q1017 A3006 745.8 HR30 CB/TS ON STN /N SH/N AC NOSIG=@CAELT@METAR SLAL 192000Z 09005KT 9999 SCT023 22/M02 Q1023 A3023 699.9 HR20=@CAELT@METAR SLTJ 192000Z 12010KT 9999 FEW040 FEW043TCU 32/07 Q1012 A2990@CAELT@808.7 HR20 TCU/E/SE FU=
ZPX0717 192053@CAELT@GG SLZZYMYT@CAELT@192053 SLETYMYC@CAELT@SABO SLET 192100@CAELT@METAR SLET 192100Z 31014G25KT 5000 FU FEW020 SCT070 30/21 Q1004 A2966@CAELT@HR58 NOSIG=@CAELT@
ZPX0719 192055@CAELT@GG SLZZYMYT@CAELT@192056 SLVRYGYZ@CAELT@SABO SLVR 192100@CAELT@METAR SLVR 192100Z 33012G22KT 6000 FEW017 BKN200 30/21 Q1004 A2967@CAELT@HR58 FU NOSIG=@CAELT@
ZPX0721 192055@CAELT@GG SLZZYMYT@CAELT@192055 SLTRYGYZ@CAELT@SABO SLTR 192100@CAELT@METAR SLTR 192100Z 36015KT 8000 FEW017 FEW020CB OVC200 30/22 Q1006@CAELT@A2971 987.6 HR63 FU CB N/NE/W/NW SH N TEMPO TS=@CAELT@
ZPX0722 192056@CAELT@GG SLZZYMYT@CAELT@192055 SLSAYGYS@CAELT@SABO SLSA 192100@CAELT@METAR SLSA 192100Z 36005KT 5000 -TSRA SCT020 FEW023CB OVC200 24/23@CAELT@Q1007 A2975 HR92 FU CB N/NE/E TS E=@CAELT@
ZPX0723 192056@CAELT@GG SLZZYMYT@CAELT@192055 SLSAYGYS@CAELT@SABO SLSA 192100@CAELT@METAR SLSA 192100Z 36005KT 5000 -TSRA SCT020 FEW023CB OVC200 24/23@CAELT@Q1007 A2975 HR92 FU CB N/NE/E TS E=@CAELT@
ZPX0724 192056@CAELT@GG SLZZYMYT@CAELT@192055 SLCAYGYS@CAELT@SABO SLCA 192100@CAELT@METAR SLCA 192100Z 09006KT 9999 SCT036 FEW040CB 36/16 Q1005 A2968@CAELT@HR31 FU CB NW RWY NML=@CAELT@
ZPX0725 192056@CAELT@GG SLZZYMYT@CAELT@192055 SLTRYGYZ@CAELT@SABO SLTR 192100@CAELT@METAR SLTR 192100Z 36015KT 8000 FEW017 FEW020CB OVC200 30/22 Q1006@CAELT@A2971 987.6 HR63 FU CB N/NE/W/NW SH N TEMPO TS=@CAELT@
ZPX0726 192056@CAELT@GG SLZZYMYT@CAELT@192056 SLCOYGYZ@CAELT@SABO SLCO 192100@CAELT@METAR SLCO 192100Z 02011KT 8000 VCSH FEW027 FEW030CB SCT080 BKN200 26@CAELT@/23 Q1007 A2974 979.8 HR83 CB/SH/NE/E FU RETS=@CAELT@
ZPX0727 192056@CAELT@GG SLZZYMYT@CAELT@192056 SLCAYGYS@CAELT@SABO SLCA 192100@CAELT@METAR SLCA 192100Z 09006KT 9999 SCT036 FEW040CB 36/16 Q1005 A2968@CAELT@HR31 FU CB NW RWY NML=@CAELT@
ZPX0728 192056@CAELT@GG SLZZYMYT@CAELT@192056 SLCOYGYZ@CAELT@SABO SLCO 192100@CAELT@METAR SLCO 192100Z 02011KT 8000 VCSH FEW027 FEW030CB SCT080 BKN200 26@CAELT@/23 Q1007 A2974 979.8 HR83 CB/SH/NE/E FU RETS=@CAELT@
ZPX0729 192056@CAELT@GG SLZZYMYT@CAELT@192055 SLLPYGYZ@CAELT@SABO SLLP 192100@CAELT@METAR SLLP 192100Z 12009KT 9999 SCT020 FEW023CB 15/M03 Q1032@CAELT@A3049 624.2 HR28 P93// CB/SW AC/CI NOSIG=@CAELT@
ZPX0730 192057@CAELT@GG SLZZYMYT@CAELT@192056 SLCBYGYZ@CAELT@SABO SLCB 192100@CAELT@METAR SLCB 192100Z 07011KT 9999 FEW036 FEW040CB SCT200 24/04 Q1017@CAELT@A3006 745.8 HR28 CB/NW/N SH/NW AC NOSIG=@CAELT@
ZPX0731 192057@CAELT@GG SLZZYMYT@CAELT@192056 SLRBYGYS@CAELT@SABO SLRB 192100@CAELT@METAR SLRB 192100Z 36018KT 4000 FU FEW020 FEW025CB 35/23 Q1007 A2974@CAELT@HR49 CB N/NW RWY NML=@CAELT@
ZPX0732 192057@CAELT@GG SLZZYMYT@CAELT@192055 SLPSZTZX@CAELT@SABO SLPS 192100@CAELT@METAR SLPS 192100Z 30010KT 8000 -RA SCT020 FEW030CB OVC200 25/22@CAELT@Q1008 A2977 HR84 FU CB/W=@CAELT@
ZPX0733 192057@CAELT@GG SLZZYMYT@CAELT@192055 SLRQYSYX@CAELT@SABO SLRQ 192100@CAELT@METAR SLRQ 192100Z 36006KT 9999 FEW020 FEW023CB SCT200 35/23 Q1003@CAELT@A2964 HR49 CB/E FU=@CAELT@
ZPX0734 192058@CAELT@GG SLZZYMYT@CAELT@192055 SLLPYFYA@CAELT@SABO SLRY 192100@CAELT@METAR SLRY 192100Z 36005KT 9999 FEW020 SCT200 34/22 Q1003 A2962@CAELT@HR48 FU RWY NML=@CAELT@
ZPX0736 192059@CAELT@GG SLZZYMYT@CAELT@192059 SLLPYFYA@CAELT@SABO SLLP 192100@CAELT@METAR SLLP 192100Z 12009KT 9999 SCT020 FEW023CB 15/M03 Q1032@CAELT@A3049 624.2 HR28 P93// CB/SW AC/CI NOSIG=@CAELT@METAR SLCO 192100Z 02011KT 8000 VCSH FEW027 FEW030CB SCT080@CAELT@BKN200 26/23 Q1007 A2974 979.8 HR83 CB/SH/NE/E FU RETS=@CAELT@METAR SLRY 192100Z 36005KT 9999 FEW020 SCT200 34/22 Q1003 A2962HR48 FU RWY NML=METAR SLRQ 192100Z 36006KT 9999 FEW020 FEW023CB SCT200 35/23Q1003 A2964 HR49 CB/E FU=
ZPX0737 192059@CAELT@GG SLZZYMYT@CAELT@192058 SLSBYSYX@CAELT@SABO SLSB 192100@CAELT@METAR SLSB 192100Z 34008KT 8000 FEW025CB BKN200 35/22 Q1003 A2964@CAELT@HR47 FU CB N NE RWY NML=@CAELT@
ZPX0739 192100@CAELT@GG SLZZYMYT@CAELT@192100 SLCBYGYS@CAELT@SABO SLCB 192100@CAELT@METAR SLCB 192100Z 07011KT 9999 FEW036 FEW040CB SCT200 24/04 Q1017@CAELT@A3006 745.8 HR28 CB/NW/N SH/NW AC NOSIG=@CAELT@METAR SLAL 192100Z 08013KT 9999 SCT023 21/M04 Q1023 A3022 699.8 HR19=@CAELT@
ZPX0740 192101@CAELT@GG SLZZYMYT@CAELT@192100 SLTRYGYS@CAELT@SABO SLTR 192100@CAELT@METAR SLTR 192100Z 36015KT 8000 FEW017 FEW020CB OVC200 30/22 Q1006@CAELT@A2971 987.6 HR63 FU CB N/NE/W/NW SH N TEMPO TS=@CAELT@METAR SLGM 192100Z 02010KT 7000 FEW017 SCT080 30/23 Q1007 A2975 HR65@CAELT@METAR SLRI 192100Z 08005KT 8000 FEW015 BKN070 BKN200 26/21 Q1008@CAELT@A2978 HR74 FU=METAR SLJO 192100Z NIL=METAR SLRA 192100Z NIL=METAR SLMG 192100Z NIL=METAR SLBU 192100Z NIL=METAR SLSA 192100Z 36005KT 5000 -TSRA FU SCT020 FEW023CB OVC200 24/23Q1007 A2975 HR92 CB N/NE/E TS E=METAR SLSR 192100Z NIL=METAR SLSM 192100Z NIL=
ZPX0741 192102@CAELT@GG SLZZYMYT@CAELT@192100 SLVRYGYS@CAELT@SABO SLVR 192100@CAELT@METAR SLVR 192100Z 33012G22KT 6000 FEW017 BKN200 30/21 Q1004 A2967@CAELT@HR58 FU NOSIG=@CAELT@METAR SLET 192100Z 31014G25KT 5000 FU FEW020 SCT070 30/21 Q1004 A2966@CAELT@HR58 NOSIG=@CAELT@METAR SLAS 192100Z 35010KT 9999 FEW020 34/23 Q1005 A2968 HR53 FU RWYNML=METAR SLJV 192100Z 36012KT 5000 FU NSC 32/21 Q1006 A2971 HR52 RWY NMLMETAR SLCP 192100Z 33010KT 3500 FU SCT017 32/21 Q1009 A2980 HR56 RWYMETAR SLSI 192100Z 36006KT 5000 FU SCT020 BKN200 27/22 Q1007 A2974HR74 RETS RWY WET OPR=METAR SLTI 192100Z 00000KT 9999 BKN020 FEW030CB OVC200 26/24 Q1010A2983 HR87 CB/SH SW RESH RWY HUM OPR=METAR SLJE 192100Z 36008KT 2000 TS FU FEW020 FEW030CB OVC070 33/22Q1008 A2977 HR53 CB/TS ON STN/N/W/NW RWY NML=METAR SLVG 192100Z 36005KT 9999 NSC 24/14 Q1018 A3006 HR46 CI RWY NMLMETAR SLRB 192100Z 36018KT 4000 FU FEW020 FEW025CB 35/23 Q1007 A2974HR49 CB N/NW RWY NML=METAR SLPS 192100Z 30010KT 8000 -RA SCT020 FEW030CB OVC200 25/22Q1008 A2977 HR84 FU CB W=METAR SLCA 192100Z 09006KT 9999 SCT036 FEW040CB 36/16 Q1005 A2968HR31 FU CB NW RWY NML=
ZPX0753 192152@CAELT@GG SLZZYMYT@CAELT@192151 SLETYMYC@CAELT@SABO SLET 192200@CAELT@METAR SLET 192200Z 31012KT 6000 FEW070 SCT200 29/21 Q1004 A2965@CAELT@HR63 FU NOSIG=@CAELT@
ZPX0754 192152@CAELT@GG SLZZYMYT@CAELT@192150 SLPSZTZX@CAELT@SABO SLPS 192200@CAELT@METAR SLPS 192200Z 30008KT 6000 -RADZ BKN015 OVC200 24/23 Q1008 A2977@CAELT@HR92 FU=@CAELT@
ZPX0755 192154@CAELT@GG SLZZYMYT@CAELT@192153 SLRBYGYS@CAELT@SABO SLRB 192200@CAELT@METAR SLRB 192200Z 36015KT 4000 FU FEW025CB 30/23 Q1009 A2980 HR66 CB@CAELT@N/NW/SW RWY NML=@CAELT@
ZPX0756 192154@CAELT@GG SLZZYMYT@CAELT@192155 SLSBYSYX@CAELT@SABO SLSB 192200@CAELT@METAR SLSB 192200Z 32010G20KT 8000 FEW020 BKN200 28/23 Q1004 A2977@CAELT@HR70 FU RWY NML=@CAELT@
ZPX0757 192155@CAELT@GG SLZZYMYT@CAELT@192156 SLVRYGYZ@CAELT@SABO SLVR 192200@CAELT@METAR SLVR 192200Z 34007KT 6000 FEW070 BKN200 29/20 Q1005 A2968 HR60@CAELT@FU NOSIG=@CAELT@
ZPX0758 192155@CAELT@GG SLZZYMYT@CAELT@192155 SLTRYGYZ@CAELT@SABO SLTR 192200@CAELT@METAR SLTR 192200Z 33015KT 8000 FEW017 FEW020CB OVC200 28/22 Q1007@CAELT@A2974 988.8 HR72 FU CB/SH W/NW NOSIG=@CAELT@
ZPX0759 192155@CAELT@GG SLZZYMYT@CAELT@192155 SLTRYGYZ@CAELT@SABO SLTR 192200@CAELT@METAR SLTR 192200Z 33015KT 8000 FEW017 FEW020CB OVC200 28/22 Q1007@CAELT@A2974 988.8 HR72 FU CB/SH W/NW NOSIG=@CAELT@
ZPX0760 192155@CAELT@GG SLZZYMYT@CAELT@192155 SLSAYGYS@CAELT@SABO SLSA 192200@CAELT@METAR SLSA 192200Z 00000KT 6000 -RA SCT020 FEW023CB OVC200 24/23@CAELT@Q1007 A2974 HR95 FU RETS CB E=@CAELT@
ZPX0761 192155@CAELT@GG SLZZYMYT@CAELT@192155 SLSAYGYS@CAELT@SABO SLSA 192200@CAELT@METAR SLSA 192200Z 00000KT 6000 -RA SCT020 FEW023CB OVC200 24/23@CAELT@Q1007 A2974 HR95 FU RETS CB E=@CAELT@
ZPX0762 192155@CAELT@GG SLZZYMYT@CAELT@192156 SLCOYGYZ@CAELT@SABO SLCO 192200@CAELT@METAR SLCO 192200Z 03007KT 8000 FEW027 FEW030CB SCT080 BKN200 26/23@CAELT@Q1006 A2972 979.3 HR84 CB/NE FU=@CAELT@
ZPX0763 192156@CAELT@GG SLZZYMYT@CAELT@192155 SLLPYGYZ@CAELT@SABO SLLP 192200@CAELT@METAR SLLP 192200Z 06012KT 9999 SCT017 FEW020CB 12/M01 Q1032@CAELT@A3050 624.5 HR40 P93// CB/SH SW AC/CI NOSIG=@CAELT@
ZPX0764 192156@CAELT@GG SLZZYMYT@CAELT@192155 SLCBYGYZ@CAELT@SABO SLCB 192200@CAELT@METAR SLCB 192200Z 05004KT 9999 FEW036 FEW040CB BKN200 24/04 Q1017@CAELT@A3006 745.9 HR27 CB/W/N AC NOSIG=@CAELT@
ZPX0765 192157@CAELT@GG SLZZYMYT@CAELT@192156 SLRQYSYX@CAELT@SABO SLRQ 192200@CAELT@METAR SLRQ 192200Z 03012KT 9999 FEW020 FEW023CB SCT200 33/24 Q1005@CAELT@A2968 HR57 CB/N=@CAELT@
ZPX0766 192159@CAELT@GG SLZZYMYT@CAELT@192158 SLTRYGYS@CAELT@SABO SLTR 192200@CAELT@METAR SLTR 192200Z 33015KT 8000 FEW017 FEW020CB OVC200 28/22 Q1007@CAELT@A2974 988.8 HR72 FU CB/SH W/NW NOSIG=@CAELT@METAR SLGM 192200Z 00000KT 7000 FEW017 SCT080 30/23 Q1006 A2973 HR68@CAELT@METAR SLRI 192200Z 00000KT 8000 FEW015 BKN070 BKN200 26/22 Q1008@CAELT@A2977 HR80 FU=METAR SLJO 192200Z NIL=METAR SLRA 192200Z NIL=METAR SLMG 192200Z NIL=METAR SLBU 192200Z NIL=METAR SLSA 192200Z 00000KT 6000 -RA SCT020 FEW023CB OVC200 24/23Q1007 A2974 HR95 FU RETS CB E=METAR SLSR 192200Z NIL=METAR SLSM 192200Z NIL=
ZPX0769 192200@CAELT@GG SLZZYMYT@CAELT@192159 SLVRYGYS@CAELT@SABO SLVR 192200@CAELT@METAR SLVR 192200Z 34007KT 6000 FEW070 BKN200 29/20 Q1005 A2968 HR60@CAELT@FU NOSIG=@CAELT@METAR SLET 192200Z 31012KT 6000 FEW070 SCT200 29/21 Q1004 A2965 HR63@CAELT@METAR SLAS 192200Z 36006KT 9000 SCT020 FEW030CB BKN200 33/24 Q1007@CAELT@A2974 HR57 FU CB NE RWY NML=METAR SLJV 192200Z 36010KT 5000 FU NSC 29/21 Q1006 A2971 HR63 RWY NMLMETAR SLCP 192200Z 36015KT 4000 FU BKN017 FEW027CB 27/20 Q1011 A2985HR69 CB E RWY NML=METAR SLSI 192200Z 36005KT 3000 FU SCT020 BKN200 26/22 Q1007 A2974HR78 RWY WET OPR=METAR SLTI 192200Z 00000KT 9999 BKN027 OVC200 27/25 Q1010 A2983 HR85RWY HUM OPR=METAR SLJE 192200Z 35006KT 2000 TS FU FEW020 FEW030CB OVC070 26/24Q1009 A2980 HR86 CB/TS N/NE/E RERA RWY HUM OPR=METAR SLRB 192200Z 36015KT 4000 FU FEW025CB 30/23 Q1009 A2980 HR66 CBN/NW/SW RWY NML=METAR SLPS 192200Z 30008KT 6000 -RADZ BKN015 OVC200 24/23 Q1008 A2977HR92 FU=METAR SLCA 192200Z 09004KT 9999 FEW036 FEW040CB SCT070 33/19 Q1007A2974 HR44 FU CB E RETS RWY NML=
ZPX0770 192200@CAELT@GG SLZZYMYT@CAELT@192200 SLLPYFYA@CAELT@SABO SLLP 192200@CAELT@METAR SLLP 192200Z 06012KT 9999 SCT017 FEW020CB 12/M01 Q1032@CAELT@A3050 624.5 HR40 P93// CB/SH SW AC/CI NOSIG=@CAELT@METAR SLCO 192200Z 03007KT 8000 FEW027 FEW030CB SCT080 BKN200@CAELT@26/23 Q1006 A2972 979.3 HR84 CB/NE FU=@CAELT@METAR SLRY 192200Z 09012KT 8000 FEW020 SCT200 28/23 Q1003 A2964HR72 FU RWY NML=METAR SLRQ 192200Z 03012KT 9999 FEW020 FEW023CB SCT200 33/24Q1005 A2968 HR57 CB/N=METAR SLSB 192200Z 32010G20KT 8000 FEW020 BKN200 28/23 Q1004A2977 HR70 FU RWY NML=
ZPX0784 192251@CAELT@GG SLZZYMYT@CAELT@192251 SLRBYGYS@CAELT@SABO SLRB 192300@CAELT@METAR SLRB 192300Z 36015KT 4000 FU FEW025CB 28/22 Q1010 A2983 HR71 CB@CAELT@N/NE/NW RWY NML=@CAELT@
ZPX0785 192255@CAELT@GG SLZZYMYT@CAELT@192255 SLCOYGYZ@CAELT@SABO SLCO 192300@CAELT@METAR SLCO 192300Z 03004KT 8000 FEW027 SCT080 BKN200 26/23 Q1008@CAELT@A2978 981.0 HR85 FU=@CAELT@
ZPX0786 192255@CAELT@GG SLZZYMYT@CAELT@192254 SLVRYGYS@CAELT@SABO SLVR 192300@CAELT@METAR SLVR 192300Z 34009KT 6000 FEW070 BKN200 28/22 Q1005 A2970 HR69@CAELT@FU NOSIG=@CAELT@METAR SLSI 192300Z 36005KT 3000 FU SCT020 BKN200 25/22 Q1007 A2974@CAELT@HR82 RWY WET OPR=@CAELT@METAR SLRB 192300Z 36015KT 4000 FU FEW025CB 28/22 Q1010 A2983 HR71 CBN/NE/NW RWY NML=METAR SLCA 192300Z 09004KT 9999 FEW040CB SCT070 31/20 Q1007 A2974HR52 FU CB E RWY NML=
ZPX0787 192255@CAELT@GG SLLPZRZX@CAELT@192255 SLLPYGYZ@CAELT@SABO SLLP 192300@CAELT@METAR SLLP 192300Z 06009KT 9999 SCT017 FEW020CB 10/M01 Q1033@CAELT@A3053 625.2 HR49 CB/LT SW AC/CI NOSIG=@CAELT@
ZPX0788 192255@CAELT@GG SLZZYMYT@CAELT@192256 SLVRYGYZ@CAELT@SABO SLVR 192300@CAELT@METAR SLVR 192300Z 34009KT 6000 FEW070 BKN200 28/22 Q1005 A2970 HR69@CAELT@FU NOSIG=@CAELT@
ZPX0789 192255@CAELT@GG SLZZYMYT@CAELT@192255 SLSBYSYX@CAELT@SABO SLSB 192300@CAELT@METAR SLSB 192300Z 31006KT 8000 NSC 27/22 Q1006 A2971 HR80 FU CI RWY@CAELT@NML=@CAELT@
ZPX0790 192256@CAELT@GG SLZZYMYT@CAELT@192256 SLCAYGYS@CAELT@SABO SLCA 192300@CAELT@METAR SLCA 192300Z 09004KT 9999 FEW040CB SCT070 31/20 Q1007 A2974@CAELT@HR52 FU CB E RWY NML=@CAELT@
ZPX0791 192258@CAELT@GG SLZZYMYT@CAELT@192257 SLCBYGYZ@CAELT@SABO SLCB 192300@CAELT@METAR SLCB 192300Z 10006KT 9999 FEW033 FEW036CB BKN200 20/05 Q1019@CAELT@A3009 746.8 HR36 CB DIST/N/W AC NOSIG=@CAELT@
ZPX0792 192259@CAELT@GG SLZZYMYT@CAELT@192258 SLLPYFYA@CAELT@SABO SLLP 192300@CAELT@METAR SLLP 192300Z 06009KT 9999 SCT017 FEW020CB 10/M01 Q1033@CAELT@A3053 625.2 HR49 CB/LT SW AC/CI NOSIG=@CAELT@METAR SLCO 192300Z 03004KT 8000 FEW027 SCT080 BKN200 26/23 Q1008@CAELT@A2978 981.0 HR85 FU=@CAELT@METAR SLSB 192300Z 31006KT 8000 NSC 27/22 Q1006 A2971 HR80 FUCI RWY NML=
ZPX0801 192356@CAELT@GG SLZZYMYT@CAELT@192357 SLVRYGYZ@CAELT@SABO SLVR 200000@CAELT@METAR SLVR 200000Z 34006KT 6000 FEW070 BKN200 27/22 Q1007 A2974 HR72@CAELT@FU NOSIG=@CAELT@
