
ZPX0010 180055@CAELT@GG SLZZYMYT@CAELT@180056 SLVRYGYZ@CAELT@SABO SLVR 180100@CAELT@METAR SLVR 180100Z 33005KT 9999 NSC 26/20 Q1010 A2984 HR70 NOSIG=@CAELT@
ZPX0011 180056@CAELT@GG SLLPZRZX@CAELT@180055 SLLPYGYZ@CAELT@SABO SLLP 180100@CAELT@METAR SLLP 180100Z VRB02KT 9999 FEW010 BKN200 03/02 Q1038 A3066@CAELT@628.2 HR93 AC NOSIG=@CAELT@
ZPX0012 180057@CAELT@GG SLZZYMYT@CAELT@180057 SLCBYGYZ@CAELT@SABO SLCB 180100@CAELT@METAR SLCB 180100Z 15008KT 9999 FEW030 BKN080 18/07 Q1025 A3027 751.5@CAELT@HR48 FU CI NOSIG=@CAELT@
ZPX0019 180154@CAELT@GG SLZZYMYT@CAELT@180155 SLVRYGYZ@CAELT@SABO SLVR 180200@CAELT@METAR SLVR 180200Z 33006KT 9999 SCT070 26/20 Q1010 A2984 HR70 NOSIG=@CAELT@
ZPX0020 180154@CAELT@GG SLZZYMYT@CAELT@180154 SLCBYGYZ@CAELT@SABO SLCB 180200@CAELT@METAR SLCB 180200Z 15004KT 9999 FEW030 BKN080 16/07 Q1026 A3031 752.5@CAELT@HR54 FU CI NOSIG=@CAELT@
ZPX0021 180156@CAELT@GG SLLPZRZX@CAELT@180155 SLLPYGYZ@CAELT@SABO SLLP 180200@CAELT@METAR SLLP 180200Z VRB02KT 9999 FEW006 SCT200 01/01 Q1038 A3068@CAELT@628.4 HR96 AC NOSIG=@CAELT@
ZPX0028 180254@CAELT@GG SLZZYMYT@CAELT@180255 SLVRYGYZ@CAELT@SABO SLVR 180300@CAELT@METAR SLVR 180300Z 32005KT 9999 SCT070 25/20 Q1011 A2987 HR73 NOSIG=@CAELT@
ZPX0029 180256@CAELT@GG SLZZYMYT@CAELT@180256 SLCBYGYZ@CAELT@SABO SLCB 180300@CAELT@METAR SLCB 180300Z 14005KT 9999 FEW030 BKN080 17/07 Q1026 A3033 752.9@CAELT@HR53 FU CI NOSIG=@CAELT@
ZPX0030 180258@CAELT@GG SLLPZRZX@CAELT@180255 SLLPYGYZ@CAELT@SABO SLLP 180300@CAELT@METAR SLLP 180300Z 02004KT 9999 FEW006 SCT200 02/00 Q1038 A3067@CAELT@628.4 HR90 AC NOSIG=@CAELT@
ZPX0037 180354@CAELT@GG SLZZYMYT@CAELT@180354 SLCBYGYZ@CAELT@SABO SLCB 180400@CAELT@METAR SLCB 180400Z 13007KT 9999 FEW030 BKN080 16/08 Q1026 A3031 752.6@CAELT@HR55 FU CI NOSIG=@CAELT@
ZPX0038 180354@CAELT@GG SLZZYMYT@CAELT@180355 SLVRYGYZ@CAELT@SABO SLVR 180400@CAELT@METAR SLVR 180400Z 32005KT 9999 FEW070 25/20 Q1011 A2985 HR74 NOSIG=@CAELT@
ZPX0039 180356@CAELT@GG SLLPZRZX@CAELT@180355 SLLPYGYZ@CAELT@SABO SLLP 180400@CAELT@METAR SLLP 180400Z VRB02KT 9999 FEW006 SCT200 00/M01 Q1038 A3066@CAELT@628.2 HR93 AC NOSIG=@CAELT@
ZPX0046 180454@CAELT@GG SLZZYMYT@CAELT@180454 SLCBYGYZ@CAELT@SABO SLCB 180500@CAELT@METAR SLCB 180500Z 15004KT 9999 FEW030 BKN080 15/08 Q1026 A3030 752.3@CAELT@HR60 FU CI NOSIG=@CAELT@
ZPX0047 180454@CAELT@GG SLZZYMYT@CAELT@180454 SLVRYGYZ@CAELT@SABO SLVR 180500@CAELT@METAR SLVR 180500Z 32005KT 9999 NSC 24/20 Q1010 A2982 HR78 NOSIG=@CAELT@
ZPX0048 180456@CAELT@GG SLLPZRZX@CAELT@180455 SLLPYGYZ@CAELT@SABO SLLP 180500@CAELT@METAR SLLP 180500Z 04005KT 9999 FEW006 SCT200 01/M01 Q1037 A3063 627.@CAELT@5 HR88 AC NOSIG=@CAELT@
ZPX0055 180554@CAELT@GG SLZZYMYT@CAELT@180554 SLCBYGYZ@CAELT@SABO SLCB 180600@CAELT@METAR SLCB 180600Z 31005KT 9999 FEW030 BKN070 15/08 Q1026 A3030 752.2@CAELT@HR62 FU CI NOSIG=@CAELT@
ZPX0056 180555@CAELT@GG SLZZYMYT@CAELT@180555 SLVRYGYZ@CAELT@SABO SLVR 180600@CAELT@METAR SLVR 180600Z 34006KT 9999 NSC 23/20 Q1009 A2980 HR81 NOSIG=@CAELT@
ZPX0057 180556@CAELT@GG SLLPZRZX@CAELT@180555 SLLPYGYZ@CAELT@SABO SLLP 180600@CAELT@METAR SLLP 180600Z 34004KT 9999 FEW006 SCT200 03/M01 Q1037 A3062@CAELT@627.3 HR76 AC NOSIG=@CAELT@
ZPX0066 180653@CAELT@GG SLZZYMYT@CAELT@180654 SLCBYGYZ@CAELT@SABO SLCB 180700@CAELT@METAR SLCB 180700Z 33005KT 9999 FEW030 BKN070 15/09 Q1025 A3028 751.8@CAELT@HR66 FU CI NOSIG=@CAELT@
ZPX0067 180654@CAELT@GG SLZZYMYT@CAELT@180654 SLVRYGYZ@CAELT@SABO SLVR 180700@CAELT@METAR SLVR 180700Z 31005KT 9999 NSC 23/20 Q1008 A2979 HR81 NOSIG=@CAELT@
ZPX0068 180656@CAELT@GG SLLPZRZX@CAELT@180656 SLLPYGYZ@CAELT@SABO SLLP 180700@CAELT@METAR SLLP 180700Z VRB02KT 9999 FEW006 SCT200 02/00 Q1036 A3061@CAELT@626.9 HR83 AC NOSIG=@CAELT@
ZPX0075 180753@CAELT@GG SLZZYMYT@CAELT@180755 SLVRYGYZ@CAELT@SABO SLVR 180800@CAELT@METAR SLVR 180800Z 34006KT 9999 NSC 22/20 Q1008 A2978 HR84 NOSIG=@CAELT@
ZPX0076 180754@CAELT@GG SLZZYMYT@CAELT@180754 SLCBYGYZ@CAELT@SABO SLCB 180800@CAELT@METAR SLCB 180800Z 00000KT 9999 FEW030 BKN070 14/09 Q1025 A3028 751.6@CAELT@HR68 FU CI NOSIG=@CAELT@
ZPX0077 180756@CAELT@GG SLLPZRZX@CAELT@180755 SLLPYGYZ@CAELT@SABO SLLP 180800@CAELT@METAR SLLP 180800Z VRB02KT 9999 FEW006 SCT200 01/M01 Q1036 A3061@CAELT@626.9 HR89 AC NOSIG=@CAELT@
ZPX0084 180854@CAELT@GG SLZZYMYT@CAELT@180855 SLVRYGYZ@CAELT@SABO SLVR 180900@CAELT@METAR SLVR 180900Z 34005KT 9999 NSC 22/20 Q1008 A2977 HR86 NOSIG=@CAELT@
ZPX0085 180854@CAELT@GG SLZZYMYT@CAELT@180854 SLCBYGYZ@CAELT@SABO SLCB 180900@CAELT@METAR SLCB 180900Z 29003KT 9999 FEW030 SCT070 BKN200 13/09 Q1025@CAELT@A3027 751.4 HR75 FU NOSIG=@CAELT@
ZPX0086 180857@CAELT@GG SLLPZRZX@CAELT@180857 SLLPYGYZ@CAELT@SABO SLLP 180900@CAELT@METAR SLLP 180900Z VRB02KT 9999 FEW006 SCT200 02/00 Q1036 A3060@CAELT@626.8 HR88 AC NOSIG=@CAELT@
ZPX0094 180954@CAELT@GG SLZZYMYT@CAELT@180955 SLVRYGYZ@CAELT@SABO SLVR 181000@CAELT@METAR SLVR 181000Z 34005KT 9999 NSC 22/20 Q1008 A2978 HR85 NOSIG=@CAELT@
ZPX0095 180956@CAELT@GG SLZZYMYT@CAELT@180956 SLTRYGYZ@CAELT@SABO SLTR 181000@CAELT@METAR SLTR 181000Z 00000KT 5000 FU NSC 24/22 Q1009 A2980 990.8 HR92@CAELT@CI NOSIG=@CAELT@
ZPX0096 180957@CAELT@GG SLZZYMYT@CAELT@180957 SLLPYGYZ@CAELT@SABO SLLP 181000@CAELT@METAR SLLP 181000Z 06007KT 4000E VCFG FEW002 SCT010 BKN200 M00/M01@CAELT@Q1037 A3063 627.4 HR94 P92// VCFG NE/E/SE AC NOSIG=@CAELT@
ZPX0097 180958@CAELT@GG SLZZYMYT@CAELT@180957 SLRQYSYX@CAELT@SABO SLRQ 181000@CAELT@METAR SLRQ 181000Z 00000KT 8000 NSC 22/22 Q1008 A2979 HR98 FU=@CAELT@
ZPX0099 181000@CAELT@GG SLZZYMYT@CAELT@180957 SLLPYSYX@CAELT@SABO SLRY 181000@CAELT@METAR SLRY 181000Z 00000KT 9999 NSC 22/22 Q1006 A2973 HR100 FU RWY@CAELT@NML=@CAELT@
ZPX0100 181001@CAELT@GG SLZZYMYT@CAELT@180954 SLCBYGYZ@CAELT@SABO SLCB 181000@CAELT@METAR SLCB 181000Z 13003KT 9999 FEW030 SCT200 12/09 Q1025 A3028 751.8@CAELT@HR79 AC FU NOSIG=@CAELT@
ZPX0101 181001@CAELT@GG SLZZYMYT@CAELT@181000 SLLPYSYX@CAELT@SABO SLLP 181000@CAELT@METAR SLLP 181000Z 06007KT 4000E VCFG FEW002 SCT010 BKN200 M00/M01@CAELT@Q1037 A3063 627.4 HR94 P92// VCFG NE/E/SE AC NOSIG=@CAELT@METAR SLRY 181000Z 00000KT 9999 NSC 22/22 Q1006 A2973 HR100 FU RWY@CAELT@NML=@CAELT@METAR SLRQ 181000Z 00000KT 8000 NSC 22/22 Q1008 A2979 HR98 FU=
ZPX0103 181003@CAELT@GG SLZZYMYT@CAELT@181000 SLETYMYC@CAELT@SABO SLET 181000@CAELT@METAR SLET 181000Z 31008KT 9999 FEW023 SCT200 23/19 Q1008 A2978 HR81@CAELT@NOSIG=@CAELT@
ZPX0108 181053@CAELT@GG SLZZYMYT@CAELT@181055 SLVRYGYZ@CAELT@SABO SLVR 181100@CAELT@METAR SLVR 181100Z 33007KT 9999 NSC 24/20 Q1009 A2980 HR78 CI NOSIG=@CAELT@
ZPX0109 181055@CAELT@GG SLZZYMYT@CAELT@181055 SLSBYSYX@CAELT@SABO SLSB 181100@CAELT@METAR SLSB 181100Z 00000KT 8000 NSC 23/22 Q1009 A2980 HR96 FU RWY NML=@CAELT@
ZPX0110 181055@CAELT@GG SLZZYMYT@CAELT@181055 SLCBYGYZ@CAELT@SABO SLCB 181100@CAELT@METAR SLCB 181100Z 00000KT 9999 FEW090 14/08 Q1025 A3028 751.8 HR69@CAELT@FU CI NOSIG=@CAELT@
ZPX0111 181055@CAELT@GG SLZZYMYT@CAELT@181056 SLRQYSYX@CAELT@SABO SLRQ 181100@CAELT@METAR SLRQ 181100Z 00000KT 8000 NSC 23/23 Q1009 A2981 HR98 FU AC=@CAELT@
ZPX0112 181055@CAELT@GG SLZZYMYT@CAELT@181055 SLLPYGYZ@CAELT@SABO SLLP 181100@CAELT@METAR SLLP 181100Z 08005KT 4000E VCFG FEW002 SCT010 BKN200 02/02@CAELT@Q1037 A3064 627.7 HR98 P92// VCFG NE/E/SE AC NOSIG=@CAELT@
ZPX0113 181058@CAELT@GG SLZZYMYT@CAELT@181056 SLETYMYC@CAELT@SABO SLET 181100@CAELT@METAR SLET 181100Z 31008KT 9999 FEW023 SCT200 25/19 Q1008 A2979 HR69@CAELT@AC NOSIG=@CAELT@
ZPX0114 181059@CAELT@GG SLZZYMYT@CAELT@181059 SLLPYFYA@CAELT@SABO SLRY 181100@CAELT@METAR SLRY 181100Z 00000KT 9999 NSC 22/21 Q1007 A2976 HR98 FU CI@CAELT@RWY NML=@CAELT@
ZPX0116 181100@CAELT@GG SLZZYMYT@CAELT@181100 SLLPYFYA@CAELT@SABO SLLP 181100@CAELT@METAR SLLP 181100Z 08005KT 4000E VCFG FEW002 SCT010 BKN200 02/02@CAELT@Q1037 A3064 627.7 HR98 P92// VCFG NE/E/SE AC NOSIG=@CAELT@METAR SLRY 181100Z 00000KT 9999 NSC 22/21 Q1007 A2976 HR98 FU CI@CAELT@RWY NML=@CAELT@METAR SLRQ 181100Z 00000KT 8000 NSC 23/23 Q1009 A2981 HR98 FUMETAR SLSB 181100Z 00000KT 8000 NSC 23/22 Q1009 A2980 HR96 FU
ZPX0117 181102@CAELT@GG SLZZYMYT@CAELT@181059 SLTRYGYZ@CAELT@SABO SLTR 181100@CAELT@METAR SLTR 181100Z 00000KT 5000 FU NSC 24/23 Q1009 A2981 991.0 HR93@CAELT@CI NOSIG=@CAELT@
ZPX0118 181102@CAELT@GG SLZZYMYT@CAELT@181059 SLTRYGYZ@CAELT@SABO SLTR 181100@CAELT@METAR SLTR 181100Z 00000KT 5000 FU NSC 24/23 Q1009 A2981 991.0 HR93@CAELT@CI NOSIG=@CAELT@
ZPX0127 181155@CAELT@GG SLZZYMYT@CAELT@181155 SLSBYSYX@CAELT@SABO SLSB 181100@CAELT@METAR SLSB 181100Z 00000KT 8000 NSC 26/23 Q1009 A2981 HR86 FU RWY NML=@CAELT@
ZPX0128 181155@CAELT@GG SLZZYMYT@CAELT@181155 SLVRYGYZ@CAELT@SABO SLVR 181200@CAELT@METAR SLVR 181200Z 33010KT 9999 NSC 27/20 Q1009 A2981 HR65 CI NOSIG=@CAELT@
ZPX0129 181155@CAELT@GG SLZZYMYT@CAELT@181155 SLETYMYC@CAELT@SABO SLET 181200@CAELT@METAR SLET 181200Z 31012KT 9999 FEW023 BKN070 27/18 Q1009 A2981 HR56@CAELT@CI NOSIG=@CAELT@
ZPX0130 181155@CAELT@GG SLZZYMYT@CAELT@181155 SLRQYSYX@CAELT@SABO SLRQ 181200@CAELT@METAR SLRQ 181200Z 00000KT 9999 NSC 26/26 Q1010 A2983 HR98 FU=@CAELT@
ZPX0131 181156@CAELT@GG SLZZYMYT@CAELT@181156 SLTRYGYZ@CAELT@SABO SLTR 181200@CAELT@METAR SLTR 181200Z 32003KT 7000 NSC 26/23 Q1009 A2982 991.3 HR83@CAELT@FU NOSIG=@CAELT@
ZPX0132 181157@CAELT@GG SLZZYMYT@CAELT@181157 SLLPYGYZ@CAELT@SABO SLLP 181200@CAELT@METAR SLLP 181200Z 12005KT 9999 FEW010 BKN200 05/03 Q1038@CAELT@A3066 628.1 HR89 P0283 AC FU NOSIG=@CAELT@
ZPX0133 181157@CAELT@GG SLZZYMYT@CAELT@181157 SLSBYSYX@CAELT@SABO SLSB 181200 CCA@CAELT@METAR COR SLSB 181200Z 00000KT 8000 NSC 26/23 Q1009 A2981 HR86 FU RWY@CAELT@NML=@CAELT@
ZPX0134 181158@CAELT@GG SLZZYMYT@CAELT@181157 SLCBYGYZ@CAELT@SABO SLCB 181200@CAELT@METAR SLCB 181200Z 17003KT 9999 NSC 18/08 Q1025 A3028 751.8 HR52 FU@CAELT@CI NOSIG=@CAELT@
ZPX0136 181158@CAELT@GG SLZZYMYT@CAELT@181158 SLLPYFYA@CAELT@SABO SLRY 181200@CAELT@METAR SLRY 181200Z 00000KT 9999 NSC 25/23 Q1007 A2976@CAELT@HR91 FU CI RWY NML=@CAELT@
ZPX0142 181210@CAELT@GG SLZZYMYT@CAELT@181202 SLLPYFYA@CAELT@SABO SLLP 181200@CAELT@METAR SLLP 181200Z 12005KT 9999 FEW010 BKN200 05/03 Q1038@CAELT@A3066 628.1 HR89 P0283 AC FU NOSIG=@CAELT@METAR SLRY 181200Z 00000KT 9999 NSC 25/23 Q1007 A2976@CAELT@HR91 FU CI RWY NML=@CAELT@METAR SLSB 181200Z 00000KT 8000 NSC 26/23 Q1009 A2981 HR86 FU RWY NML
ZPX0149 181242@CAELT@GG SLZZYMYT@CAELT@181240 SLCBYGYS@CAELT@SABO SLCB 181200 RRA@CAELT@METAR SLCB 181200Z 17003KT 9999 NSC 18/08 Q1025 A3028 751.8 HR52 FU@CAELT@CI NOSIG=@CAELT@METAR RTD SLVM 181200Z 00000KT 9999 NSC 30/21 Q1008 A2978 HR59 FU CI=@CAELT@
ZPX0153 181254@CAELT@GG SLZZYMYT@CAELT@181255 SLSBYSYX@CAELT@SABO SLSB 181300@CAELT@METAR SLSB 181300Z 07005KT 8000 NSC 27/25 Q1010 A2983 HR90 FU RWY NML=@CAELT@
ZPX0154 181255@CAELT@GG SLZZYMYT@CAELT@181255 SLVRYGYZ@CAELT@SABO SLVR 181300@CAELT@METAR SLVR 181300Z 36015KT 9999 SCT080 31/22 Q1010 A2984 HR57 CI@CAELT@NOSIG=@CAELT@
ZPX0155 181255@CAELT@GG SLZZYMYT@CAELT@181255 SLETYMYC@CAELT@SABO SLET 181300@CAELT@METAR SLET 181300Z 32012KT 9999 SCT070 31/19 Q1010 A2983 HR50 CI@CAELT@NOSIG=@CAELT@
ZPX0156 181255@CAELT@GG SLZZYMYT@CAELT@181255 SLTRYGYZ@CAELT@SABO SLTR 181300@CAELT@METAR SLTR 181300Z 31004KT 7000 NSC 30/22 Q1010 A2983 991.6 HR63@CAELT@FU NOSIG=@CAELT@
ZPX0157 181255@CAELT@GG SLZZYMYT@CAELT@181255 SLCBYGYZ@CAELT@SABO SLCB 181300@CAELT@METAR SLCB 181300Z 21003KT 9999 FEW036 20/08 Q1025 A3028 751.6 HR48@CAELT@FU CI NOSIG=@CAELT@
ZPX0158 181257@CAELT@GG SLZZYMYT@CAELT@181257 SLLPYGYZ@CAELT@SABO SLLP 181300@CAELT@METAR SLLP 181300Z 15004KT 9999 FEW013 BKN200 07/02 Q1038@CAELT@A3068 628.5 HR73 P93// FU AC NOSIG=@CAELT@
ZPX0159 181257@CAELT@GG SLZZYMYT@CAELT@181257 SLCBYGYS@CAELT@SABO SLCB 181300@CAELT@METAR SLCB 181300Z 21003KT 9999 FEW036 20/08 Q1025 A3028 751.6 HR48@CAELT@FU CI NOSIG=@CAELT@METAR SLVM 181300Z 00000KT 9999 NSC 31/22 Q1008 A2978 HR57 FU CI=@CAELT@
ZPX0160 181259@CAELT@GG SLZZYMYT@CAELT@181258 SLRQYSYX@CAELT@SABO SLRQ 181300@CAELT@METAR SLRQ 181300Z 00000KT 9999 NSC 30/25 Q1010 A2984 HR73 FU=@CAELT@
ZPX0163 181306@CAELT@GG SLZZYMYT@CAELT@181300 SLLPYFYA@CAELT@SABO SLRY 181300@CAELT@METAR SLRY 181300Z 00000KT 9999 NSC 27/24 Q1007 A2979 HR82@CAELT@FU CI RWY NML=@CAELT@
ZPX0164 181306@CAELT@GG SLZZYMYT@CAELT@181301 SLLPYFYA@CAELT@SABO SLLP 181300@CAELT@METAR SLLP 181300Z 15004KT 9999 FEW013 BKN200 07/02 Q1038@CAELT@A3068 628.5 HR73 P93// FU AC NOSIG=@CAELT@METAR SLRY 181300Z 00000KT 9999 NSC 27/24 Q1007 A2979 HR82@CAELT@FU CI RWY NML=@CAELT@METAR SLRQ 181300Z 00000KT 9999 NSC 30/25 Q1010 A2984 HR73 FU=METAR SLSB 181300Z 07005KT 8000 NSC 27/25 Q1010 A2983 HR90 FU RWY NML
ZPX0173 181354@CAELT@GG SLZZYMYT@CAELT@181354 SLCBYGYS@CAELT@SABO SLCB 181400@CAELT@METAR SLCB 181400Z 28003KT 9999 FEW036 22/06 Q1025 A3027 751.4 HR438@CAELT@FU CI NOSIG=@CAELT@METAR SLVM 181400Z 00000KT 9999 NSC 33/22 Q1008 A2978 HR53 FU CI=@CAELT@
ZPX0174 181355@CAELT@GG SLZZYMYT@CAELT@181355 SLRQYSYX@CAELT@SABO SLRQ 181400@CAELT@METAR SLRQ 181400Z 36004KT 9999 NSC 32/25 Q1010 A2984 HR64 FU=@CAELT@
ZPX0175 181355@CAELT@GG SLZZYMYT@CAELT@181355 SLTRYGYZ@CAELT@SABO SLTR 181400@CAELT@METAR SLTR 181400Z 32008KT 7000 NSC 32/22 Q1010 A2983 991.7 HR57@CAELT@FU NOSIG=@CAELT@
ZPX0176 181355@CAELT@GG SLZZYMYT@CAELT@181355 SLETYMYC@CAELT@SABO SLET 181400@CAELT@METAR SLET 181400Z 32012KT 9999 FEW080 33/19 Q1010 A2984 HR44 CI@CAELT@NOSIG=@CAELT@
ZPX0177 181356@CAELT@GG SLZZYMYT@CAELT@181355 SLSBYSYX@CAELT@SABO SLSB 181400@CAELT@METAR SLSB 181400Z 03004KT 8000 NSC 29/25 Q1010 A2985 HR81 FU RWY NML=@CAELT@
ZPX0178 181356@CAELT@GG SLZZYMYT@CAELT@181356 SLLPYGYZ@CAELT@SABO SLLP 181400@CAELT@METAR SLLP 181400Z 15004KT 9999 FEW015 BKN200 10/02 Q1038 A3068@CAELT@628.6 HR57 P93// FU AC NOSIG=@CAELT@
ZPX0179 181356@CAELT@GG SLZZYMYT@CAELT@181357 SLVRYGYZ@CAELT@SABO SLVR 181400@CAELT@METAR SLVR 181400Z 36014G24KT 9999 FEW080 33/21 Q1010 A2984 HR48 CI@CAELT@NOSIG=@CAELT@
ZPX0180 181358@CAELT@GG SLZZYMYT@CAELT@181357 SLLPYFYA@CAELT@SABO SLRY 181400@CAELT@METAR SLRY 181400Z 00000KT 9999 NSC 31/24 Q1008 A29787 HR66 FU@CAELT@RWY NML=@CAELT@
ZPX0181 181359@CAELT@GG SLZZYMYT@CAELT@181359 SLLPYFYA@CAELT@SABO SLSB 181400@CAELT@SABO SLLP 181400@CAELT@METAR SLLP 181400Z 15004KT 9999 FEW015 BKN200 10/02 Q1038 A3068@CAELT@628.6 HR57 P93// FU AC NOSIG=@CAELT@METAR SLRY 181400Z 00000KT 9999 NSC 31/24 Q1008 A29787 HR66 FU@CAELT@RWY NML=METAR SLRQ 181400Z 36004KT 9999 NSC 32/25 Q1010 A2984 HR64 FU=METAR SLSB 181400Z 03004KT 8000 NSC 29/25 Q1010 A2985 HR81 FU
ZPX0183 181400@CAELT@GG SLZZYMYT@CAELT@181359 SLLPYFYA@CAELT@SABO SLLP 181400@CAELT@METAR SLLP 181400Z 15004KT 9999 FEW015 BKN200 10/02 Q1038 A3068@CAELT@628.6 HR57 P93// FU AC NOSIG=@CAELT@METAR SLRY 181400Z 00000KT 9999 NSC 31/24 Q1008 A29787 HR66 FU@CAELT@RWY NML=@CAELT@METAR SLRQ 181400Z 36004KT 9999 NSC 32/25 Q1010 A2984 HR64 FU=METAR SLSB 181400Z 03004KT 8000 NSC 29/25 Q1010 A2985 HR81 FU
ZPX0189 181454@CAELT@GG SLZZYMYT@CAELT@181455 SLSBYSYX@CAELT@SABO SLSB 181500@CAELT@METAR SLSB 181500Z 06006KT 8000 NSC 32/24 Q1009 A2982 HR62 FU RWY NML=@CAELT@
ZPX0190 181454@CAELT@GG SLZZYMYT@CAELT@181454 SLVRYGYZ@CAELT@SABO SLVR 181500@CAELT@METAR SLVR 181500Z 34015G26KT 9999 FEW080 35/20 Q1010 A2983 HR40 CI@CAELT@NOSIG=@CAELT@
ZPX0191 181455@CAELT@GG SLZZYMYT@CAELT@181455 SLTRYGYZ@CAELT@SABO SLTR 181500@CAELT@METAR SLTR 181500Z 30008KT 8000 NSC 33/23 Q1010 A2983 991.7 HR55@CAELT@FU NOSIG=@CAELT@
ZPX0192 181455@CAELT@GG SLZZYMYT@CAELT@181455 SLETYMYC@CAELT@SABO SLET 181500@CAELT@METAR SLET 181500Z 31014G26KT 9999 NSC 35/17 Q1010 A2982 HR35 CI@CAELT@NOSIG=@CAELT@
ZPX0193 181456@CAELT@GG SLZZYMYT@CAELT@181456 SLLPYGYZ@CAELT@SABO SLLP 181500@CAELT@METAR SLLP 181500Z 16004KT 9999 FEW015 SCT070 BKN200 13/01 Q1038@CAELT@A3066 628.2 HR46 P3384 FU NOSIG=@CAELT@
ZPX0194 181458@CAELT@GG SLZZYMYT@CAELT@181456 SLLPYFYA@CAELT@SABO SLRY 181500@CAELT@METAR SLRY 181500Z 36006KT 8000 NSC 32/25 Q1008 A2977 HR65 FU@CAELT@RWY NML=@CAELT@
ZPX0196 181500@CAELT@GG SLZZYMYT@CAELT@181455 SLRQYSYX@CAELT@SABO SLRQ 181500@CAELT@METAR SLRQ 181500Z 36006KT 9999 FEW020 33/24 Q1009 A2982 HR59 FU=@CAELT@
ZPX0198 181500@CAELT@GG SLZZYMYT@CAELT@181500 SLLPYFYA@CAELT@SABO SLLP 181500@CAELT@METAR SLLP 181500Z 16004KT 9999 FEW015 SCT070 BKN200 13/01 Q1038@CAELT@A3066 628.2 HR46 P3384 FU NOSIG=@CAELT@METAR SLRY 181500Z 36006KT 8000 NSC 32/25 Q1008 A2977 HR65 FU@CAELT@RWY NML=@CAELT@METAR SLRQ 181500Z 36006KT 9999 FEW020 33/24 Q1009 A2982 HR59 FU=METAR SLSB 181500Z 06006KT 8000 NSC 32/24 Q1009 A2982 HR62 FU
ZPX0210 181555@CAELT@GG SLZZYMYT@CAELT@181555 SLRQYSYX@CAELT@SABO SLRQ 181600@CAELT@METAR SLRQ 181600Z 36008KT 9999 FEW020 35/25 Q1009 A2980 HR58 FU=@CAELT@
ZPX0211 181555@CAELT@GG SLZZYMYT@CAELT@181555 SLETYMYC@CAELT@SABO SLET 181600@CAELT@METAR SLET 181600Z 32015G27KT 9999 NSC 36/16 Q1009 A2981 HR30 CI@CAELT@NOSIG=@CAELT@
ZPX0212 181556@CAELT@GG SLZZYMYT@CAELT@181557 SLLPYGYZ@CAELT@SABO SLLP 181600@CAELT@METAR SLLP 181600Z 15006KT 9999 VCTS SCT017 FEW020CB BKN200 12/01@CAELT@Q1037 A3065 627.8 HR46 P3487 CB/SH N/NE/E/NW TS/N FU AC NOSIG=@CAELT@
ZPX0213 181556@CAELT@GG SLZZYMYT@CAELT@181557 SLVRYGYZ@CAELT@SABO SLVR 181600@CAELT@METAR SLVR 181600Z 33016G27KT 9999 NSC 36/19 Q1009 A2981 HR37 CI@CAELT@NOSIG=@CAELT@
ZPX0214 181557@CAELT@GG SLZZYMYT@CAELT@181555 SLTRYGYZ@CAELT@SABO SLTR 181600@CAELT@METAR SLTR 181600Z 32008KT 8000 FEW020 33/22 Q1009 A2982 991.2 HR51@CAELT@FU NOSIG=@CAELT@
ZPX0215 181558@CAELT@GG SLZZYMYT@CAELT@181556 SLSBYSYX@CAELT@SABO SLSB 181600@CAELT@METAR SLSB 181600Z 36010KT 8000 NSC 34/24 Q1008 A2979 HR58 FU RWY NML=@CAELT@
ZPX0216 181558@CAELT@GG SLZZYMYT@CAELT@181558 SLCBYGYZ@CAELT@SABO SLCB 181600@CAELT@METAR SLCB 181600Z 23004KT 9999 FEW036 FEW040CB 27/07 Q1023 A3021 749@CAELT@.8 HR29 CB/W/NW FU AC CI NOSIG=@CAELT@
ZPX0217 181559@CAELT@GG SLZZYMYT@CAELT@181558 SLLPYFYA@CAELT@SABO SLRY 181600@CAELT@METAR SLRY 181600Z 36010KT 8000 FEW020 33/24 Q1007 A2985 HR56@CAELT@FU RWY NML=@CAELT@
ZPX0219 181601@CAELT@GG SLZZYMYT@CAELT@181601 SLLPYFYA@CAELT@SABO SLLP 181600@CAELT@METAR SLLP 181600Z 15006KT 9999 VCTS SCT017 FEW020CB BKN200@CAELT@12/01 Q1037 A3065 627.8 HR46 P3487 CB/SH N/NE/E/NW TS/N FU@CAELT@AC NOSIG=@CAELT@METAR SLRY 181600Z 36010KT 8000 FEW020 33/24 Q1007 A2985@CAELT@HR56 FU RWY NML=METAR SLRQ 181600Z 36008KT 9999 FEW020 35/25 Q1009 A2980HR58 FU=METAR SLSB 181600Z 36010KT 8000 NSC 34/24 Q1008 A2979 HR58FU RWY NML=
ZPX0227 181655@CAELT@GG SLZZYMYT@CAELT@181655 SLSBYSYX@CAELT@SABO SLSB 181700@CAELT@METAR SLSB 181700Z 34012KT 8000 NSC 34/24 Q1008 A2977 HR56 FU RWY NML=@CAELT@
ZPX0228 181655@CAELT@GG SLZZYMYT@CAELT@181655 SLRQYSYX@CAELT@SABO SLRQ 181600@CAELT@METAR SLRQ 181600Z 36006KT 9999 FEW020 SCT200 35/25 Q1008 A2977 HR54@CAELT@
ZPX0229 181655@CAELT@GG SLZZYMYT@CAELT@181656 SLVRYGYZ@CAELT@SABO SLVR 181700@CAELT@METAR SLVR 181700Z 35015G27KT 9999 FEW023 37/18 Q1008 A2978 HR34 CI@CAELT@NOSIG=@CAELT@
ZPX0230 181655@CAELT@GG SLZZYMYT@CAELT@181655 SLETYMYC@CAELT@SABO SLET 181700@CAELT@METAR SLET 181700Z 32012G25KT 9999 FEW017 37/17 Q1008 A2977 HR32 CI@CAELT@NOSIG=@CAELT@
ZPX0231 181656@CAELT@GG SLZZYMYT@CAELT@181656 SLTRYGYZ@CAELT@SABO SLTR 181700@CAELT@METAR SLTR 181700Z 31010KT 8000 FEW020 34/23 Q1008 A2979 990.3@CAELT@HR51 FU NOSIG=@CAELT@
ZPX0232 181656@CAELT@GG SLZZYMYT@CAELT@181657 SLLPYGYZ@CAELT@SABO SLLP 181700@CAELT@METAR SLLP 181700Z 06014KT 9999 VCTS SCT017 FEW020CB BKN200 11/M03@CAELT@Q1036 A3062 627.2 HR39 P0487 CB/SH NE/E/SE/W/NW TS E/W FU AC NOSIG=@CAELT@
ZPX0233 181657@CAELT@GG SLZZYMYT@CAELT@181657 SLCBYGYZ@CAELT@SABO SLCB 181700@CAELT@METAR SLCB 181700Z 25008KT 9999 FEW036 FEW040CB BKN200 27/06 Q1021@CAELT@A3017 748.7 HR26 CB/NW/NE/E FU AC NOSIG=@CAELT@
ZPX0234 181657@CAELT@GG SLZZYMYT@CAELT@181658 SLLPYFYA@CAELT@SABO SLRY 181700Z@CAELT@METAR SLRY 181700Z 36014KT 8000 FEW020 34/23 Q1006 A2973 HR51@CAELT@FU RWY NML.@CAELT@
ZPX0236 181700@CAELT@GG SLZZYMYT@CAELT@181700 SLLPYFYA@CAELT@SABO SLLP 181700@CAELT@METAR SLLP 181700Z 06014KT 9999 VCTS SCT017 FEW020CB BKN200 11/M03@CAELT@Q1036 A3062 627.2 HR39 P0487 CB/SH NE/E/SE/W/NW TS E/W FU AC NOSIG=@CAELT@METAR SLRY 181700Z 36014KT 8000 FEW020 34/23 Q1006 A2973 HR51@CAELT@FU RWY NML.@CAELT@METAR SLRQ 181600Z 36006KT 9999 FEW020 SCT200 35/25 Q1008 A2977 HR54METAR SLSB 181700Z 34012KT 8000 NSC 34/24 Q1008 A2977 HR56 FU RWY NML
ZPX0238 181715@CAELT@GG SLZZYMYT@CAELT@181712 SLCBYGYS@CAELT@SABO SLCB 181700 RRB@CAELT@METAR SLCB 181700Z 25008KT 9999 FEW036 FEW040CB BKN200 27/06 Q1021@CAELT@A3017 748.7 HR26 CB/NW/NE/E FU AC NOSIG=@CAELT@METAR RTD SLAL 181700Z 00000KT 9999 SCT023 19/06 Q1028 A3036 703.0@CAELT@HR45=@CAELT@
ZPX0245 181753@CAELT@GG SLZZYMYT@CAELT@181752 SLLPYFYA@CAELT@SABO SLRY 181800@CAELT@METAR SLRY 181800Z 36010KT 8000 FEW20 34/23 Q1005 A2970@CAELT@HR51 FU RWY NML@CAELT@
ZPX0246 181753@CAELT@GG SLZZYMYT@CAELT@181752 SLETYMYC@CAELT@SABO SLET 181800@CAELT@METAR SLET 181800Z 32012G25KT 9999 FEW020 37/17 Q1007 A2975 HR32@CAELT@NOSIG=@CAELT@
ZPX0247 181754@CAELT@GG SLZZYMYT@CAELT@181753 SLSBYSYX@CAELT@SABO SLSB 181800@CAELT@METAR SLSB 181800Z 31008KT 8000 FEW020 35/23 Q1007 A2974 HR69 FU RWY@CAELT@NML=@CAELT@
ZPX0249 181755@CAELT@GG SLZZYMYT@CAELT@181755 SLTRYGYZ@CAELT@SABO SLTR 181800@CAELT@METAR SLTR 181800Z 36010KT 8000 FEW020 35/23 Q1007 A2975 989.0 HR49@CAELT@FU NOSIG=@CAELT@
ZPX0250 181755@CAELT@GG SLZZYMYT@CAELT@181755 SLRQYSYX@CAELT@SABO SLRQ 181800@CAELT@METAR SLRQ 181800Z 36006KT 9999 FEW020 SCT200 36/24 Q1006 A2973@CAELT@HR50 FU=@CAELT@
ZPX0251 181755@CAELT@GG SLZZYMYT@CAELT@181756 SLVRYGYZ@CAELT@SABO SLVR 181800@CAELT@METAR SLVR 181800Z 32014G25KT 9999 FEW023 37/18 Q1007 A2975 HR33 FU@CAELT@NOSIG=@CAELT@
ZPX0252 181756@CAELT@GG SLZZYMYT@CAELT@181755 SLCBYGYZ@CAELT@SABO SLCB 181800@CAELT@METAR SLCB 181800Z 10015KT 8000 TSRA FEW036 FEW040CB SCT090 BKN200 18@CAELT@/11 Q1021 A3016 748.5 HR62 CB/TS/ON STN/NE/S/SW BECMG NSW=@CAELT@
ZPX0253 181756@CAELT@GG SLZZYMYT@CAELT@181757 SLLPYGYZ@CAELT@SABO SLLP 181800@CAELT@METAR SLLP 181800Z 08012KT 9999 VCTS SCT017 FEW020CB SCT070@CAELT@BKN200 11/M01 Q1035 A3059 626.5 HR44 P6487 CB/SH NE/SE/SW/W/NW@CAELT@TS/W FU NOSIG=@CAELT@
ZPX0255 181759@CAELT@GG SLZZYMYT@CAELT@181759 SLLPYFYA@CAELT@SABO SLLP 181800@CAELT@METAR SLLP 181800Z 08012KT 9999 VCTS SCT017 FEW020CB SCT070@CAELT@BKN200 11/M01 Q1035 A3059 626.5 HR44 P6487 CB/SH NE/SE/SW/W/NW@CAELT@TS/W FU NOSIG=@CAELT@METAR SLRY 181800Z 36010KT 8000 FEW20 34/23 Q1005 A2970@CAELT@HR51 FU RWY NML=METAR SLRQ 181800Z 36006KT 9999 FEW020 SCT200 36/24 Q1006 A2973HR50 FU=METAR SLSB 181800Z 31008KT 8000 FEW020 35/23 Q1007 A2974 HR69 FU RWYNML=
ZPX0268 181855@CAELT@GG SLZZYMYT@CAELT@181855 SLSBYSYX@CAELT@SABO SLSB 181900@CAELT@METAR SLSB 181900Z 33008KT 8000 FEW020 36/23 Q1005 A2968 HR48 FU RWY@CAELT@NML=@CAELT@
ZPX0269 181855@CAELT@GG SLZZYMYT@CAELT@181855 SLTRYGYZ@CAELT@SABO SLTR 181900@CAELT@METAR SLTR 181900Z 32008KT 8000 FEW020 FEW023CB 36/22 Q1005 A2969@CAELT@987.1 HR45 FU CB NE NOSIG=@CAELT@
ZPX0270 181857@CAELT@GG SLZZYMYT@CAELT@181857 SLLPYGYZ@CAELT@SABO SLLP 181900@CAELT@METAR SLLP 181900Z 02010KT 350V060 9999 VCTS FEW017 FEW020CB SCT070@CAELT@BKN200 11/M01 Q1034 A3055 625.6 HR44 P0784 CB/SH N/S/SW/W TS/SW NOSIG@CAELT@
ZPX0271 181857@CAELT@GG SLZZYMYT@CAELT@181856 SLETYMYC@CAELT@SABO SLET 181900@CAELT@METAR SLET 181900Z 32012G24KT 9999 FEW020 37/17 Q1006 A2971 HR31@CAELT@NOSIG=@CAELT@
ZPX0272 181857@CAELT@GG SLZZYMYT@CAELT@181858 SLVRYGYZ@CAELT@SABO SLVR 181900@CAELT@METAR SLVR 181900Z 32012G23KT 9999 SCT023 37/18 Q1005 A2970 HR34 FU@CAELT@NOSIG=@CAELT@
ZPX0273 181859@CAELT@GG SLZZYMYT@CAELT@181858 SLLPYFYA@CAELT@SABO SLRY 181900@CAELT@METAR SLRY 181900Z 36010KT 9999 FEW020 35/23 Q1004 A2967 HR51@CAELT@FU RWY NML=@CAELT@
ZPX0275 181900@CAELT@GG SLZZYMYT@CAELT@181859 SLCBYGYZ@CAELT@SABO SLCB 181900@CAELT@METAR SLCB 181900Z 16004KT 7000 -TSRA SCT036 FEW040CB BKN070 BKN200@CAELT@18/08 Q1021 A3017 748.9 HR49 CB/TS/ON STN/SE/S/SW TEMPO 16015KT=@CAELT@
ZPX0276 181900@CAELT@GG SLZZYMYT@CAELT@181900 SLLPYFYA@CAELT@SABO SLLP 181900@CAELT@METAR SLLP 181900Z 02010KT 350V060 9999 VCTS FEW017 FEW020CB@CAELT@SCT070 BKN200 11/M01 Q1034 A3055 625.6 HR44 P0784 CB/SH N/S/SW/W@CAELT@TS/SW NOSIG=@CAELT@METAR SLRY 181900Z 36010KT 9999 FEW020 35/23 Q1004 A2967 HR51@CAELT@FU RWY NML=METAR SLSB 181900Z 33008KT 8000 FEW020 36/23 Q1005 A2968 HR48 FURWY NML=
ZPX0277 181903@CAELT@GG SLZZYMYT@CAELT@181901 SLRQYSYX@CAELT@SABO SLRQ 181900 RRA@CAELT@METAR RTD SLRQ 181900Z 36004KT 9999 FEW020 SCT200 38/24 Q1013 A2991@CAELT@HR46 FU=@CAELT@
ZPX0279 181907@CAELT@GG SLZZYMYT@CAELT@181906 SLLPYFYA@CAELT@SABO SLLP 181900 RRA@CAELT@METAR SLLP 181900Z 02010KT 350V060 9999 VCTS FEW017 FEW020CB@CAELT@SCT070 BKN200 11/M01 Q1034 A3055 625.6 HR44 P0784 CB/SH N/S/SW/W@CAELT@TS/SW NOSIG=@CAELT@METAR SLRY 181900Z 36010KT 9999 FEW020 35/23 Q1004 A2967 HR51@CAELT@FU RWY NML=METAR SLSB 181900Z 33008KT 8000 FEW020 36/23 Q1005 A2968 HR48 FURWY NML=METAR RTD SLRQ 181900Z 36004KT 9999 FEW020 SCT200 38/24 Q1013 A2991HR46 FU=
ZPX0284 181955@CAELT@GG SLZZYMYT@CAELT@181954 SLETYMYC@CAELT@SABO SLET 182000@CAELT@METAR SLET 182000Z 32012G22KT 9999 FEW020 36/19 Q1005 A2968 HR37@CAELT@NOSIG=@CAELT@
ZPX0285 181955@CAELT@GG SLZZYMYT@CAELT@181955 SLTRYGYZ@CAELT@SABO SLTR 182000@CAELT@METAR SLTR 182000Z 30008KT 8000 FEW020 FEW023CB 36/22 Q1004 A2967@CAELT@986.2 HR44 FU CB NE NOSIG=@CAELT@
ZPX0286 181955@CAELT@GG SLZZYMYT@CAELT@181957 SLLPYGYZ@CAELT@SABO SLLP 182000@CAELT@METAR SLLP 182000Z 33005KT 9999 VCTS FEW017 FEW020CB BKN200@CAELT@12/M02 Q1033 A3053 625.2 HR36 P3784 CB/SH SE/S/SW TS/S AC NOSIG=@CAELT@
ZPX0287 181956@CAELT@GG SLZZYMYT@CAELT@181955 SLCBYGYZ@CAELT@SABO SLCB 182000@CAELT@METAR SLCB 182000Z 04015G25KT 7000 VCSH SCT033 FEW036CB BKN070 BKN200@CAELT@14/08 Q1022 A3018 749.1 HR66 CB/SH/NW/N/NE RETS BECMG 34010KT=@CAELT@
ZPX0288 181957@CAELT@GG SLZZYMYT@CAELT@181958 SLVRYGYZ@CAELT@SABO SLVR 182000@CAELT@METAR SLVR 182000Z 31012G23KT 9999 FEW023 36/18 Q1005 A2969 HR35 FU@CAELT@NOSIG=@CAELT@
ZPX0289 181958@CAELT@GG SLZZYMYT@CAELT@181958 SLLPYFYA@CAELT@SABO SLRY 182000@CAELT@METAR SLRY 182000Z 36008KT 9999 FEW020 35/24 Q1007 A2964 HR51@CAELT@FU RWY NML=@CAELT@
ZPX0291 182000@CAELT@GG SLZZYMYT@CAELT@181959 SLSBYSYX@CAELT@SABO SLSB 182000@CAELT@METAR SLSB 182000Z 32006KT 8000 FEW020 FEW025CB SCT080 36/23 Q1004@CAELT@A2967 HR48 FU CB SH DIST NE RWY NML=@CAELT@
ZPX0292 182000@CAELT@GG SLZZYMYT@CAELT@181959 SLRQYSYX@CAELT@SABO SLRQ 182000@CAELT@METAR SLRQ 182000Z 00000KT 9999 FWE020 FEW023CB 38/24 Q1004 A2965@CAELT@HR47 CB N/NE FU CI=@CAELT@
ZPX0293 182002@CAELT@GG SLZZYMYT@CAELT@182000 SLRQYSYX@CAELT@SABO SLRQ 182000 CCA@CAELT@METAR COR SLRQ 182000Z 00000KT 9999 FEW020 FEW023CB 38/24 Q1004 A2965@CAELT@HR47 FU CB N/NE CI=@CAELT@
ZPX0301 182054@CAELT@GG SLZZYMYT@CAELT@182055 SLSBYSYX@CAELT@SABO SLSB 182100@CAELT@METAR SLSB 182100Z 35005KT 8000 FEW020 SCT080 35/24 Q1004 A2966 HR53@CAELT@FU RWY NML=@CAELT@
ZPX0302 182055@CAELT@GG SLZZYMYT@CAELT@182055 SLTRYGYZ@CAELT@SABO SLTR 182100@CAELT@METAR SLTR 182100Z 33005KT 8000 FEW020 35/21 Q1003 A2964 985.3 HR45@CAELT@FU NOSIG=@CAELT@
ZPX0303 182055@CAELT@GG SLZZYMYT@CAELT@182057 SLLPYGYZ@CAELT@SABO SLLP 182100@CAELT@METAR SLLP 182100Z 25016G26KT 9999 VCTS SCT017 FEW020CB BKN200@CAELT@08/02 Q1034 A3055 625.6 HR62 P0457 CB/SH NE/E/SE/S TS/NE AC NOSIG=@CAELT@
ZPX0304 182056@CAELT@GG SLZZYMYT@CAELT@182055 SLRQYSYX@CAELT@SABO SLRQ 182100@CAELT@METAR SLRQ 182100Z 00000KT 9999 FEW020 SCT070 35/22 Q1004 A2965 HR46@CAELT@
ZPX0305 182056@CAELT@GG SLZZYMYT@CAELT@182057 SLVRYGYZ@CAELT@SABO SLVR 182100@CAELT@METAR SLVR 182100Z 31012KT 9000 FEW023 34/18 Q1004 A2967 HR39 FU@CAELT@NOSIG=@CAELT@
ZPX0306 182057@CAELT@GG SLZZYMYT@CAELT@182055 SLETYMYC@CAELT@SABO SLET 182100@CAELT@METAR SLET 182100Z 30011KT 8000 FEW020 34/19 Q1004 A2966 HR39 FU@CAELT@NOSIG=@CAELT@
ZPX0309 182058@CAELT@GG SLZZYMYT@CAELT@182057 SLCBYGYZ@CAELT@SABO SLCB 182100@CAELT@METAR SLCB 182100Z 20010KT 9999 FEW033 FEW036CB BKN070 BKN200 15/10@CAELT@Q1021 A3016 748.5 HR71 CB/SH/NW NOSIG=@CAELT@
ZPX0310 182059@CAELT@GG SLZZYMYT@CAELT@182058 SLLPYFYA@CAELT@SABO SLRY 182100@CAELT@METAR SLRY 182100Z 36006KT 9999 FEW020 SCT080 BKN200 35/23 Q1003@CAELT@A2962 HR50 FU RWY NML=@CAELT@
ZPX0312 182102@CAELT@GG SLZZYMYT@CAELT@182100 SLLPYFYA@CAELT@SABO SLLP 182100@CAELT@METAR SLLP 182100Z 25016G26KT 9999 VCTS SCT017 FEW020CB BKN200@CAELT@08/02 Q1034 A3055 625.6 HR62 P0457 CB/SH NE/E/SE/S TS/NE AC NOSIG=@CAELT@METAR SLRY 182100Z 36006KT 9999 FEW020 SCT080 BKN200 35/23 Q1003@CAELT@A2962 HR50 FU RWY NML=@CAELT@METAR SLRQ 182100Z 00000KT 9999 FEW020 SCT070 35/22 Q1004 A2965 HR46METAR SLSB 182100Z 35005KT 8000 FEW020 SCT080 35/24 Q1004 A2966 HR53FU RWY NML=
ZPX0318 182153@CAELT@GG SLZZYMYT@CAELT@182153 SLETYMYC@CAELT@SABO SLET 182200@CAELT@METAR SLET 182200Z 30009KT 8000 FEW020 32/19 Q1004 A2966 HR44 FU@CAELT@NOSIG=@CAELT@
ZPX0319 182154@CAELT@GG SLZZYMYT@CAELT@182155 SLSBYSYX@CAELT@SABO SLSB 182200@CAELT@METAR SLSB 182200Z 33003KT 8000 FEW025CB BKN080 32/23 Q1004 A2967@CAELT@HR61 FU CB NW RWY NML=@CAELT@
ZPX0321 182155@CAELT@GG SLZZYMYT@CAELT@182155 SLLPYFYA@CAELT@SABO SLRY 182200@CAELT@METAR SLRY 182200Z 00000KT 9999 FEW020 BKN200 33/23 Q1003 A2962@CAELT@HR57 FU RWY NML=@CAELT@
ZPX0322 182155@CAELT@GG SLZZYMYT@CAELT@182155 SLTRYGYZ@CAELT@SABO SLTR 182200@CAELT@METAR SLTR 182200Z 30004KT 8000 NSC 34/22 Q1003 A2964 985.4 HR47@CAELT@FU CI NOSIG=@CAELT@
ZPX0323 182155@CAELT@GG SLZZYMYT@CAELT@182156 SLVRYGYZ@CAELT@SABO SLVR 182200@CAELT@METAR SLVR 182200Z 32008KT 9000 NSC 32/19 Q1004 A2967 HR44 FU NOSIG=@CAELT@
ZPX0324 182156@CAELT@GG SLZZYMYT@CAELT@182155 SLRQYSYX@CAELT@SABO SLRQ 182200@CAELT@METAR SLRQ 182200Z 00000KT 9999 SCT070 BKN200 33/24 Q1003 A2964 HR58@CAELT@
ZPX0325 182156@CAELT@GG SLZZYMYT@CAELT@182157 SLLPYGYZ@CAELT@SABO SLLP 182200@CAELT@METAR SLLP 182200Z 10012KT 6000 FEW003 SCT015 FEW017CB BKN200@CAELT@05/03 Q1035 A3057 626.1 HR82 P0487 CB/SH NE/E/SE VIS RED/ST NE/E@CAELT@AC RETS NOSIG=@CAELT@
ZPX0326 182157@CAELT@GG SLZZYMYT@CAELT@182157 SLCBYGYZ@CAELT@SABO SLCB 182200@CAELT@METAR SLCB 182200Z 34004KT 9999 FEW033 FEW036CB SCT070 BKN200 16/08@CAELT@Q1021 A3017 748.8 HR60 CB/NW NOSIG=@CAELT@
ZPX0327 182157@CAELT@GG SLZZYMYT@CAELT@182157 SLLPYFYA@CAELT@SABO SLLP 182200@CAELT@METAR SLLP 182200Z 10012KT 6000 FEW003 SCT015 FEW017CB BKN200@CAELT@05/03 Q1035 A3057 626.1 HR82 P0487 CB/SH NE/E/SE VIS RED/ST NE/E@CAELT@AC RETS NOSIG=@CAELT@METAR SLRY 182200Z 00000KT 9999 FEW020 BKN200 33/23 Q1003 A2962@CAELT@HR57 FU RWY NML=METAR SLRQ 182200Z 00000KT 9999 SCT070 BKN200 33/24 Q1003 A2964HR58 FU=METAR SLSB 182200Z 33003KT 8000 FEW025CB BKN080 32/23 Q1004 A2967HR61 FU CB NW RWY NML=
