
ZPX0009 270054@CAELT@GG SLZZYMYT@CAELT@270055 SLVRYGYZ@CAELT@SABO SLVR 270100@CAELT@METAR SLVR 270100Z 35013KT 6000 NSC 29/22 Q1005 A2970 HR68 FU NOSIG=@CAELT@
ZPX0010 270056@CAELT@GG SLZZYMYT@CAELT@270055 SLCBYGYZ@CAELT@SABO SLCB 270100@CAELT@METAR SLCB 270100Z 12005KT 9999 FEW036 FEW040CB 20/03 Q1020 A3012 747@CAELT@.6 HR33 CB/LT DIST NE NOSIG=@CAELT@
ZPX0011 270057@CAELT@GG SLLPZRZX@CAELT@270057 SLLPYGYZ@CAELT@SABO SLLP 270100@CAELT@METAR SLLP 270100Z 09005KT 9999 FEW017CB 06/M02 Q1034 A3056@CAELT@625.8 HR60 CB/LT/N CI NOSIG=@CAELT@
ZPX0019 270156@CAELT@GG SLLPZRZX@CAELT@270157 SLLPYGYZ@CAELT@SABO SLLP 270200@CAELT@METAR SLLP 270200Z 08007KT 9999 NSC 07/M00 Q1035 A3057@CAELT@626.1 HR60 NOSIG=@CAELT@
ZPX0020 270156@CAELT@GG SLZZYMYT@CAELT@270155 SLCBYGYZ@CAELT@SABO SLCB 270200@CAELT@METAR SLCB 270200Z 25005KT 9999 FEW036 FEW040CB 17/06 Q1020 A3014 748@CAELT@.0 HR48 CB/LT DIST NE NOSIG=@CAELT@
ZPX0022 270202@CAELT@GG SLZZYMYT@CAELT@270202 SLVRYGYZ@CAELT@SABO SLVR 270200@CAELT@METAR SLVR 270200Z 36012KT 6000 NSC 28/22 Q1006 A2973 HR72 FU NOSIG=@CAELT@
ZPX0028 270255@CAELT@GG SLZZYMYT@CAELT@270256 SLVRYGYZ@CAELT@SABO SLVR 270300@CAELT@METAR SLVR 270300Z 36010KT 6000 NSC 27/22 Q1007 A2974 HR74 FU NOSIG=@CAELT@
ZPX0029 270257@CAELT@GG SLLPZRZX@CAELT@270256 SLLPYGYZ@CAELT@SABO SLLP 270300@CAELT@METAR SLLP 270300Z 00000KT 9999 FEW070 06/00 Q1036 A3060 626.9@CAELT@HR66 CI NOSIG=@CAELT@
ZPX0030 270259@CAELT@GG SLZZYMYT@CAELT@270255 SLCBYGYZ@CAELT@SABO SLCB 270300@CAELT@METAR SLCB 270300Z 27004KT 9999 FEW036 FEW040CB 17/05 Q1020 A3013 747@CAELT@.8 HR45 CB/LT DIST NE AC NOSIG=@CAELT@
ZPX0037 270354@CAELT@GG SLZZYMYT@CAELT@270355 SLVRYGYZ@CAELT@SABO SLVR 270400@CAELT@METAR SLVR 270400Z 35011KT 6000 NSC 27/22 Q1006 A2973 HR76 FU NOSIG=@CAELT@
ZPX0038 270355@CAELT@GG SLLPZRZX@CAELT@270355 SLLPYGYZ@CAELT@SABO SLLP 270400@CAELT@METAR SLLP 270400Z 36004KT 330V030 9999 FEW017CB 06/M01 Q1036@CAELT@A3060 626.8 HR62 CB/LT N/NE AC/CI NOSIG=@CAELT@
ZPX0039 270359@CAELT@GG SLZZYMYT@CAELT@270358 SLCBYGYZ@CAELT@SABO SLCB 270400@CAELT@METAR SLCB 270400Z 07005KT 9999 FEW036 FEW040CB 17/04 Q1020 A3014 748@CAELT@.1 HR42 CB/LT DIST NE AC NOSIG=@CAELT@
ZPX0047 270455@CAELT@GG SLLPZRZX@CAELT@270455 SLLPYGYZ@CAELT@SABO SLLP 270500@CAELT@METAR SLLP 270500Z 04003KT 9999 FEW017CB 04/M01 Q1035 A3058 626.2@CAELT@HR69 CB/LT N/NE CI NOSIG=@CAELT@
ZPX0048 270455@CAELT@GG SLZZYMYT@CAELT@270456 SLVRYGYZ@CAELT@SABO SLVR 270500@CAELT@METAR SLVR 270500Z 36013KT 6000 NSC 26/22 Q1006 A2972 HR78 FU NOSIG=@CAELT@
ZPX0049 270455@CAELT@GG SLZZYMYT@CAELT@270455 SLCBYGYZ@CAELT@SABO SLCB 270500@CAELT@METAR SLCB 270500Z 19004KT 9999 FEW036CB 15/05 Q1020 A3014 747.9 HR51@CAELT@CB/LT DIST NE NOSIG=@CAELT@
