
ZPX0002 140002@CAELT@GG SLZZYMYT@CAELT@140000 SLCBYGYS@CAELT@SABO SLCB 140000@CAELT@METAR SLCB 140000Z 08006KT 9999 FEW033 22/03 Q1019 A3011 747.2 HR30@CAELT@FU CI NOSIG=@CAELT@METAR SLAL 140000Z 05018KT 9999 FEW015 14/07 Q1025 A3029 701.3 HR64=@CAELT@METAR SLTJ 140000Z 00000KT 9999 SCT036 15/14 Q1017 A3003 812.4 HR91=@CAELT@
ZPX0011 140054@CAELT@GG SLZZYMYT@CAELT@140055 SLVRYGYZ@CAELT@SABO SLVR 140100@CAELT@METAR SLVR 140100Z 33009KT 9999 NSC 26/22 Q1009 A2981 HR75 CI NOSIG=@CAELT@
ZPX0012 140055@CAELT@GG SLLPZRZX@CAELT@140055 SLLPYGYZ@CAELT@SABO SLLP 140100@CAELT@METAR SLLP 140100Z VRB02KT 9999 NSC 10/M05 Q1035 A3058 626.3 HR35@CAELT@NOSIG=@CAELT@
ZPX0013 140058@CAELT@GG SLZZYMYT@CAELT@140058 SLCBYGYZ@CAELT@SABO SLCB 140100@CAELT@METAR SLCB 140100Z 21005KT 9999 NSC 20/04 Q1021 A3015 748.4 HR36 FU@CAELT@CI NOSIG=@CAELT@
ZPX0025 140155@CAELT@GG SLZZYMYT@CAELT@140156 SLVRYGYZ@CAELT@SABO SLVR 140200@CAELT@METAR SLVR 140200Z 32006KT 9999 NSC 25/22 Q1009 A2982 HR80 CI NOSIG=@CAELT@
ZPX0026 140155@CAELT@GG SLLPZRZX@CAELT@140155 SLLPYGYZ@CAELT@SABO SLLP 140200@CAELT@METAR SLLP 140200Z 08004KT 9999 NSC 06/00 Q1036 A3061 626.9 HR64@CAELT@NOSIG=@CAELT@
ZPX0027 140158@CAELT@GG SLZZYMYT@CAELT@140155 SLCBYGYZ@CAELT@SABO SLCB 140200@CAELT@METAR SLCB 140200Z 14005KT 9999 NSC 19/05 Q1021 A3018 749.0 HR38 FU@CAELT@CI NOSIG=@CAELT@
ZPX0039 140255@CAELT@GG SLLPZRZX@CAELT@140255 SLLPYGYZ@CAELT@SABO SLLP 140300@CAELT@METAR SLLP 140300Z 08007KT 9999 NSC 05/01 Q1037 A3063 627.4 HR75@CAELT@NOSIG=@CAELT@
ZPX0040 140255@CAELT@GG SLZZYMYT@CAELT@140256 SLVRYGYZ@CAELT@SABO SLVR 140300@CAELT@METAR SLVR 140300Z 35005KT 9999 NSC 24/21 Q1009 A2982 HR84 NOSIG=@CAELT@
ZPX0041 140258@CAELT@GG SLZZYMYT@CAELT@140256 SLCBYGYZ@CAELT@SABO SLCB 140300@CAELT@METAR SLCB 140300Z 11008KT 9999 NSC 19/06 Q1022 A3019 749.3 HR43 FU@CAELT@CI NOSIG=@CAELT@
ZPX0050 140355@CAELT@GG SLZZYMYT@CAELT@140356 SLVRYGYZ@CAELT@SABO SLVR 140400@CAELT@METAR SLVR 140400Z 35008KT 9999 NSC 24/22 Q1009 A2980 HR87 NOSIG=@CAELT@
ZPX0051 140356@CAELT@GG SLZZYMYT@CAELT@140355 SLCBYGYZ@CAELT@SABO SLCB 140400@CAELT@METAR SLCB 140400Z 11008KT 9999 NSC 19/06 Q1022 A3018 749.1 HR44 FU@CAELT@CI NOSIG=@CAELT@
ZPX0052 140356@CAELT@GG SLLPZRZX@CAELT@140355 SLLPYGYZ@CAELT@SABO SLLP 140400@CAELT@METAR SLLP 140400Z 07006KT 9999 FEW005 04/02 Q1037 A3062 627.3 HR85@CAELT@NOSIG=@CAELT@
ZPX0060 140455@CAELT@GG SLZZYMYT@CAELT@140455 SLCBYGYZ@CAELT@SABO SLCB 140500@CAELT@METAR SLCB 140500Z 12005KT 9999 FEW033 SCT080 BKN200 18/06 Q1022@CAELT@A3019 749.3 HR44 FU NOSIG=@CAELT@
ZPX0061 140456@CAELT@GG SLLPZRZX@CAELT@140455 SLLPYGYZ@CAELT@SABO SLLP 140500@CAELT@METAR SLLP 140500Z 06005KT 9999 FEW004 03/01 Q1036 A3061 626.9 HR88@CAELT@NOSIG=@CAELT@
ZPX0062 140456@CAELT@GG SLZZYMYT@CAELT@140457 SLVRYGYZ@CAELT@SABO SLVR 140500@CAELT@METAR SLVR 140500Z 33008KT 9999 NSC 24/22 Q1009 A2980 HR88 NOSIG=@CAELT@
ZPX0069 140555@CAELT@GG SLLPZRZX@CAELT@140555 SLLPYGYZ@CAELT@SABO SLLP 140600@CAELT@METAR SLLP 140600Z 07006KT 9999 FEW004 02/00 Q1035 A3059 626.6 HR87@CAELT@NOSIG=@CAELT@
ZPX0070 140556@CAELT@GG SLZZYMYT@CAELT@140555 SLCBYGYZ@CAELT@SABO SLCB 140600@CAELT@METAR SLCB 140600Z 00000KT 9999 FEW033 BKN200 18/05 Q1021 A3017 748.9@CAELT@HR43 FU AC NOSIG=@CAELT@
ZPX0071 140556@CAELT@GG SLZZYMYT@CAELT@140557 SLVRYGYZ@CAELT@SABO SLVR 140600@CAELT@METAR SLVR 140600Z 34009KT 9999 NSC 24/22 Q1008 A2979 HR89 NOSIG=@CAELT@
ZPX0078 140653@CAELT@GG SLZZYMYT@CAELT@140654 SLVRYGYZ@CAELT@SABO SLVR 140700@CAELT@METAR SLVR 140700Z 35010KT 9999 NSC 24/22 Q1008 A2978 HR90 NOSIG=@CAELT@
ZPX0079 140654@CAELT@GG SLZZYMYT@CAELT@140655 SLCBYGYZ@CAELT@SABO SLCB 140700@CAELT@METAR SLCB 140700Z 00000KT 9999 FEW033 SCT200 15/08 Q1021 A3016 748.6@CAELT@HR61 FU NOSIG=@CAELT@
ZPX0080 140655@CAELT@GG SLZZYMYT@CAELT@140655 SLLPYGYZ@CAELT@SABO SLLP 140700@CAELT@METAR SLLP 140700Z 07006KT 4000E VCFG FEW003 03/01 Q1035 A3057@CAELT@626.2 HR93 VCFG NE/E/SE NOSIG=@CAELT@
ZPX0087 140753@CAELT@GG SLZZYMYT@CAELT@140755 SLVRYGYZ@CAELT@SABO SLVR 140800@CAELT@METAR SLVR 140800Z 34010KT 9999 NSC 24/23 Q1008 A2978 HR91 NOSIG=@CAELT@
ZPX0088 140755@CAELT@GG SLLPZRZX@CAELT@140755 SLLPYGYZ@CAELT@SABO SLLP 140800@CAELT@METAR SLLP 140800Z 07005KT 4000E VCFG FEW003 02/01 Q1035 A3057@CAELT@626.2 HR91 VCFG E/SE NOSIG=@CAELT@
ZPX0089 140756@CAELT@GG SLZZYMYT@CAELT@140755 SLCBYGYZ@CAELT@SABO SLCB 140800@CAELT@METAR SLCB 140800Z 00000KT 9999 FEW033 SCT200 14/08 Q1021 A3015 748.4@CAELT@HR64 FU NOSIG=@CAELT@
ZPX0101 140854@CAELT@GG SLZZYMYT@CAELT@140855 SLVRYGYZ@CAELT@SABO SLVR 140900@CAELT@METAR SLVR 140900Z 34010KT 9999 NSC 23/22 Q1008 A2978 HR92 NOSIG=@CAELT@
ZPX0102 140856@CAELT@GG SLLPZRZX@CAELT@140857 SLLPYGYZ@CAELT@SABO SLLP 140900@CAELT@METAR SLLP 140900Z VRB02KT 9999 FEW004 01/M02 Q1035 A3059 626.6 HR81@CAELT@NOSIG=@CAELT@
ZPX0103 140857@CAELT@GG SLZZYMYT@CAELT@140856 SLCBYGYZ@CAELT@SABO SLCB 140900@CAELT@METAR SLCB 140900Z 00000KT 9999 NSC 13/06 Q1021 A3017 748.8 HR65 FU@CAELT@CI NOSIG=@CAELT@
ZPX0104 140857@CAELT@GG SLZZYMYT@CAELT@140857 SLTRYGYZ@CAELT@SABO SLTR 140900@CAELT@METAR SLTR 140900Z 36004KT 9999 NSC 23/23 Q1008 A2978 990.0 HR97@CAELT@AC/CI NOSIG=@CAELT@
ZPX0123 140952@CAELT@GG SLZZYMYT@CAELT@140952 SLETYMYC@CAELT@SABO SLET 141000@CAELT@METAR SLET 141000Z 32010KT 9999 FEW017 23/21 Q1008 A2977 HR88 NOSIG=@CAELT@
ZPX0125 140954@CAELT@GG SLZZYMYT@CAELT@140954 SLSBYSYX@CAELT@SABO SLSB 141000@CAELT@METAR SLSB 141000Z 00000KT 7000 FEW030 SCT200 23/23 Q1009 A2981 HR98@CAELT@FU RWY NML=@CAELT@
ZPX0126 140955@CAELT@GG SLZZYMYT@CAELT@140954 SLSAYGYS@CAELT@SABO SLSA 141000@CAELT@METAR SLSA 141000Z 32004KT 9999 FEW080 BKN200 23/22 Q1008 A2979 HR95=@CAELT@
ZPX0127 140955@CAELT@GG SLZZYMYT@CAELT@140956 SLVRYGYZ@CAELT@SABO SLVR 141000@CAELT@METAR SLVR 141000Z 33010KT 9999 BKN007 23/22 Q1009 A2980 HR92 NOSIG=@CAELT@
ZPX0128 140955@CAELT@GG SLZZYMYT@CAELT@140956 SLRQYSYX@CAELT@SABO SLRQ 141000@CAELT@METAR SLRQ 141000Z 00000KT 9999 FEW017 BKN070 24/24 Q1009 A2979 984.9@CAELT@HR98=@CAELT@
ZPX0129 140956@CAELT@GG SLZZYMYT@CAELT@140956 SLTRYGYZ@CAELT@SABO SLTR 141000@CAELT@METAR SLTR 141000Z 00000KT 9999 NSC 23/23 Q1009 A2980 990.6 HR98@CAELT@AC/CI NOSIG=@CAELT@
ZPX0130 140957@CAELT@GG SLZZYMYT@CAELT@140957 SLLPYGYZ@CAELT@SABO SLLP 141000@CAELT@METAR SLLP 141000Z 03003KT 9999 FEW004 SCT200 02/M02 Q1036 A3060@CAELT@626.7 HR75 P3280 FU NOSIG=@CAELT@
ZPX0131 140957@CAELT@GG SLZZYMYT@CAELT@140956 SLCBYGYZ@CAELT@SABO SLCB 141000@CAELT@METAR SLCB 141000Z 00000KT 9999 NSC 12/05 Q1022 A3019 749.3 HR62 FU@CAELT@CI NOSIG=@CAELT@
ZPX0132 140957@CAELT@GG SLZZYMYT@CAELT@140957 SLCAYGYS@CAELT@SABO SLCA 141000@CAELT@METAR SLCA 141000Z 00000KT 9999 NSC 20/19 Q1010 A2983 HR93 RWY NML=@CAELT@
ZPX0134 141001@CAELT@GG SLZZYMYT@CAELT@141001 SLTRYGYS@CAELT@SABO SLTR 141000@CAELT@METAR SLTR 141000Z 00000KT 9999 NSC 23/23 Q1009 A2980 990.6 HR98@CAELT@AC/CI NOSIG=@CAELT@METAR SLGM 141000Z NIL=@CAELT@METAR SLRI 141000Z 09005KT 7000 FEW020 SCT080 24/23 Q1010 A2985 HR97@CAELT@FU CI=METAR SLJO 141000Z 00000KT 9999 FEW020 SCT200 23/22 Q1008 A2978HR98 AC RWY NML=METAR SLRA 141000Z 00000KT 9999 FEW080 BKN200 23/23 Q1009 A2980HR96 RWY NML=METAR SLMG 141000Z 00000KT 9999 SCT080 BKN200 24/23 Q1009 A2980METAR SLBU 141000Z NIL=METAR SLSA 141000Z 32004KT 9999 FEW080 BKN200 23/22 Q1008 A2979 HR95=METAR SLSR 141000Z NIL=METAR SLSM 141000Z 00000KT 9999 NSC 22/22 Q1009 A2980 HR98 CIRWY NML=
ZPX0135 141002@CAELT@GG SLZZYMYT@CAELT@140957 SLLPYFYA@CAELT@SABO SLRY 141000@CAELT@METAR SLRY 141000Z 00000KT 9999 SCT016 BKN200 23/23 Q1008@CAELT@A2978 HR97 FU RWY NML=@CAELT@
ZPX0136 141002@CAELT@GG SLZZYMYT@CAELT@141002 SLVRYGYS@CAELT@SABO SLVR 141000@CAELT@METAR SLVR 141000Z 33010KT 9999 BKN007 23/22 Q1009 A2980 HR92 NOSIG=@CAELT@METAR SLET 141000Z 32010KT 9999 FEW017 23/21 Q1008 A2977 HR88 NOSIG=@CAELT@METAR SLCP 141000Z 00000KT 9999 NSC 22/22 Q1013 A2991 HR98 RWY NML=@CAELT@METAR SLSI 141000Z 00000KT 9999 NSC 24/23 Q1010 A2983 HR91 RWY NML=@CAELT@METAR SLRB 141000Z 36008KT 9999 NSC 26/23 Q1010 A2983 HR85 RWY NML=METAR SLPS 141000Z NIL=METAR SLCA 141000Z 00000KT 9999 NSC 20/19 Q1010 A2983 HR93 RWY NML=
ZPX0138 141004@CAELT@GG SLZZYMYT@CAELT@141003 SLLPYSYX@CAELT@SABO SLLP 141000@CAELT@METAR SLLP 141000Z 03003KT 9999 FEW004 SCT200 02/M02 Q1036 A3060@CAELT@626.7 HR75 P3280 FU NOSIG=@CAELT@METAR SLRY 141000Z 00000KT 9999 SCT016 BKN200 23/23 Q1008@CAELT@A2978 HR97 FU RWY NML=@CAELT@METAR SLRQ 141000Z 00000KT 9999 FEW017 BKN070 24/24 Q1009 A2979 984.9HR98=METAR SLAP 141000Z 00000KT 9999 BKN020 OVC070 19/18 Q1016 A3000856.9 HR92=METAR SLSB 141000Z 00000KT 7000 FEW030 SCT200 23/23 Q1009 A2981 HR98FU RWY NML=
ZPX0139 141005@CAELT@GG SLZZYMYT@CAELT@141003 SLTRYGYS@CAELT@SABO SLTR 141000 RRA@CAELT@METAR SLTR 141000Z 00000KT 9999 NSC 23/23 Q1009 A2980 990.6 HR98@CAELT@AC/CI NOSIG=@CAELT@METAR SLGM 141000Z NIL=@CAELT@METAR SLRI 141000Z 09005KT 7000 FEW020 SCT080 24/23 Q1010 A2985 HR97@CAELT@FU CI=METAR SLJO 141000Z 00000KT 9999 FEW020 SCT200 23/22 Q1008 A2978HR98 AC RWY NML=METAR SLRA 141000Z 00000KT 9999 FEW080 BKN200 23/23 Q1009 A2980HR96 RWY NML=METAR SLMG 141000Z 00000KT 9999 SCT080 BKN200 24/23 Q1009 A2980METAR SLBU 141000Z NIL=METAR SLSA 141000Z 32004KT 9999 FEW080 BKN200 23/22 Q1008 A2979 HR95=METAR RTD SLSR 141000Z 00000KT 9999 FEW015 BKN200 23/22 Q1007 A2976HR9 RWY HUM OPR=METAR SLSM 141000Z 00000KT 9999 NSC 22/22 Q1009 A2980 HR98 CIRWY NML=
ZPX0141 141005@CAELT@GG SLZZYMYT@CAELT@141004 SLCOYGYZ@CAELT@SABO SLCO 141000 RRA@CAELT@METAR RTD SLCO 141000Z 02003KT 9999 SCT033 OVC080 25/23 Q1010 A2983@CAELT@982.7 HR92=@CAELT@
ZPX0142 141007@CAELT@GG SLZZYMYT@CAELT@141006 SLLPYSYX@CAELT@SABO SLLP 141000 RRA@CAELT@METAR SLLP 141000Z 03003KT 9999 FEW004 SCT200 02/M02 Q1036 A3060@CAELT@626.7 HR75 P3280 FU NOSIG=@CAELT@METAR RTD SLCO 141000Z 02003KT 9999 SCT033 OVC080 25/23 Q1010 A2983@CAELT@982.7 HR92=@CAELT@METAR SLRY 141000Z 00000KT 9999 SCT016 BKN200 23/23 Q1008A2978 HR97 FU RWY NML=METAR SLRQ 141000Z 00000KT 9999 FEW017 BKN070 24/24 Q1009 A2979 984.9HR98=METAR SLAP 141000Z 00000KT 9999 BKN020 OVC070 19/18 Q1016 A3000856.9 HR92=METAR SLSB 141000Z 00000KT 7000 FEW030 SCT200 23/23 Q1009 A2981 HR98FU RWY NML=
ZPX0157 141051@CAELT@GG SLZZYMYT@CAELT@141051 SLCAYGYS@CAELT@SABO SLCA 141100@CAELT@METAR SLCA 141100Z 0000KT 9999 NSC 22/20 Q1010 A2983 HR89 RWY NML=@CAELT@
ZPX0158 141053@CAELT@GG SLZZYMYT@CAELT@141052 SLETYMYC@CAELT@SABO SLET 141100@CAELT@METAR SLET 141100Z 33015KT 9999 FEW015 24/21 Q1009 A2980 HR87 NOSIG=@CAELT@
ZPX0160 141054@CAELT@GG SLZZYMYT@CAELT@141054 SLSBYSYX@CAELT@SABO SLSB 141100@CAELT@METAR SLSB 141100Z 00000KT 7000 SCT020 BKN080 24/24 Q1010 A2984 HR98@CAELT@FU RWY NML=@CAELT@
ZPX0162 141055@CAELT@GG SLZZYMYT@CAELT@141055 SLCOYGYZ@CAELT@SABO SLCO 141100@CAELT@METAR SLCO 141100Z 00000KT 9999 FEW035 OVC080 25/23 Q1010 A2985 983.5@CAELT@HR90=@CAELT@
ZPX0163 141055@CAELT@GG SLZZYMYT@CAELT@141055 SLSAYGYS@CAELT@SABO SLSA 141100@CAELT@METAR SLSA 141100Z 33004KT 9999 FEW080 BKN200 24/22 Q1009 A2981 HR95=@CAELT@
ZPX0166 141056@CAELT@GG SLZZYMYT@CAELT@141055 SLTJYGYZ@CAELT@SABO SLTJ 141100@CAELT@METAR SLTJ 141100Z 00000KT 9999 NSC 16/14 Q1015 A2998 811.0 HR92 FU=@CAELT@
ZPX0167 141056@CAELT@GG SLZZYMYT@CAELT@141056 SLVRYGYZ@CAELT@SABO SLVR 141100@CAELT@METAR SLVR 141100Z 33013KT 9999 FEW007 BKN010 24/22 Q1009 A2981 HR89@CAELT@NOSIG=@CAELT@
ZPX0168 141056@CAELT@GG SLZZYMYT@CAELT@141056 SLTRYGYZ@CAELT@SABO SLTR 141100@CAELT@METAR SLTR 141100Z 00000KT 9999 NSC 24/24 Q1009 A2982 991.4 HR96@CAELT@CI NOSIG=@CAELT@
ZPX0169 141056@CAELT@GG SLZZYMYT@CAELT@141055 SLLPYGYZ@CAELT@SABO SLLP 141100@CAELT@METAR SLLP 141100Z VRB02KT 9999 FEW006 BKN200 06/M04 Q1037 A3062@CAELT@627.3 HR50 P90// FU NOSIG=@CAELT@
ZPX0170 141057@CAELT@GG SLZZYMYT@CAELT@141056 SLORYGYZ@CAELT@SABO SLOR 141100@CAELT@METAR SLOR 141100Z 36005KT 9999 NSC 03/M09 Q1034 A3055 655.6 HR42 FU@CAELT@N/SE/S/SW CI=@CAELT@
ZPX0171 141058@CAELT@GG SLZZYMYT@CAELT@141057 SLRQYSYX@CAELT@SABO SLRQ 141100@CAELT@METAR SLRQ 141100Z 00000KT 9999 FEW017 BKN200 25/24 Q1009 A2982 985.7@CAELT@HR93 AC=@CAELT@
ZPX0172 141058@CAELT@GG SLZZYMYT@CAELT@141058 SLVRYGYS@CAELT@SABO SLVR 141100@CAELT@METAR SLVR 141100Z 33013KT 9999 FEW007 BKN010 24/22 Q1009 A2981@CAELT@HR89 NOSIG=@CAELT@METAR SLET 141100Z 33015KT 9999 FEW015 24/21 Q1009 A2980 HR87 NOSIG=@CAELT@METAR SLAS 141100Z 00000KT 9999 NSC 24/22 Q1012 A2989 HR89 RWY NML=@CAELT@METAR SLJV 141100Z 36005KT 9999 NSC 23/22 Q1010 A2983 HR94 RWY NML=METAR SLCP 141100Z 00000KT 9999 NSC 23/22 Q1014 A2994 HR96 RWY NML=METAR SLSI 141100Z 33005KT 9999 NSC 25/22 Q1011 A2985 HR84 RWY NML=METAR SLTI 141100Z 00000KT 9999 FEW020 SCT070 27/23 Q1014 A2994HR79 RWY NML=METAR SLJE 141100Z 00000KT 6000 NSC 27/23 Q1012 A2988 HR77FU RWY NML=METAR SLVG 141100Z 00000KT 9999 SCT015 16/15 Q1021 A3015 HR95RWY HUM OPR=METAR SLRB 141100Z 36006KT 9999 NSC 27/23 Q1011 A2985 HR76 RWY NML=METAR SLCA 141100Z 0000KT 9999 NSC 22/20 Q1010 A2983 HR89 RWY NML=
ZPX0173 141059@CAELT@GG SLZZYMYT@CAELT@141058 SLTRYGYS@CAELT@SABO SLTR 141100@CAELT@METAR SLTR 141100Z 00000KT 9999 NSC 24/24 Q1009 A2982 991.4 HR96@CAELT@CI NOSIG=@CAELT@METAR SLGM 141100Z NIL=@CAELT@METAR SLRI 141100Z 07005KT 8000 FEW010 SCT080 24/23 Q1011 A2987 HR95@CAELT@METAR SLJO 141100Z 00000KT 9999 FEW015 BKN200 24/23 Q1009 A2980 HR96RWY NML=METAR SLRA 141100Z 06003KT 9999 FEW080 BKN200 24/23 Q1009 A2981 HR92METAR SLMG 141100Z 00000KT 9999 BKN080 BKN200 25/24 Q1009 A2982 HR92METAR SLBU 141100Z NIL=METAR SLSA 141100Z 33004KT 9999 FEW080 BKN200 24/22 Q1009 A2981 HR95=METAR SLSR 141100Z 00000KT 9999 FEW015 FEW023CB BKN200 24/23 Q1008A2978 HR94 CB NW RWY HUM OPR=METAR SLSM 141100Z 00000KT 9999 FEW008 BKN080 23/22 Q1009 A2982 HR97
ZPX0174 141059@CAELT@GG SLZZYMYT@CAELT@141059 SLCBYGYZ@CAELT@SABO SLCB 141100@CAELT@METAR SLCB 141100Z 00000KT 9999 NSC 18/08 Q1023 A3021 749.9 HR53 FU@CAELT@CI NOSIG=@CAELT@
ZPX0176 141100@CAELT@GG SLZZYMYT@CAELT@141100 SLCBYGYS@CAELT@SABO SLCB 141100@CAELT@METAR SLCB 141100Z 00000KT 9999 NSC 18/08 Q1023 A3021 749.9 HR53 FU@CAELT@CI NOSIG=@CAELT@METAR SLTJ 141100Z 00000KT 9999 NSC 16/14 Q1015 A2998 811.0 HR92 FU=@CAELT@
ZPX0177 141101@CAELT@GG SLZZYMYT@CAELT@141101 SLLPYFYA@CAELT@SABO SLLP 141100@CAELT@METAR SLLP 141100Z VRB02KT 9999 FEW006 BKN200 06/M04 Q1037 A3062@CAELT@627.3 HR50 P90// FU NOSIG=@CAELT@METAR SLCO 141100Z 00000KT 9999 FEW035 OVC080 25/23 Q1010 A2985@CAELT@983.5 HR90=@CAELT@METAR SLRY 141100Z 00000KT 9999 SCT016 24/23 Q1008 A2979 HR96FU RWY NML=METAR SLRQ 141100Z 00000KT 9999 FEW017 BKN200 25/24 Q1009 A2982985.7 HR93 AC=METAR SLAP 141100Z 36004KT 9999 BKN020 OVC070 20/18 Q1016 A3002857.4 HR91=METAR SLSB 141100Z 00000KT 7000 SCT020 BKN080 24/24 Q1010A2984 HR98 FU RWY NML=METAR SLOR 141100Z 36005KT 9999 NSC 03/M09 Q1034 A3055 655.6HR42 FU N/SE/S/SW CI=
ZPX0186 141108@CAELT@GG SLZZYMYT@CAELT@141107 SLTRYGYS@CAELT@SABO SLTR 141100 CCA@CAELT@METAR SLTR 141100Z 00000KT 9999 NSC 24/24 Q1009 A2982 991.4 HR96@CAELT@CI NOSIG=@CAELT@METAR SLGM 141100Z NIL=@CAELT@METAR SLRI 141100Z 07005KT 8000 FEW010 SCT080 24/23 Q1011 A2987 HR95@CAELT@METAR COR SLJO 141000Z 00000KT 9999 FEW080 SCT200 24/23 Q1009 A2980HR96 RWY NML=METAR SLRA 141100Z 06003KT 9999 FEW080 BKN200 24/23 Q1009 A2981 HR92RWY NML=METAR SLMG 141100Z 00000KT 9999 BKN080 BKN200 25/24 Q1009 A2982 HR92METAR SLBU 141100Z NIL=METAR SLSA 141100Z 33004KT 9999 FEW080 BKN200 24/22 Q1009 A2981 HR95=METAR SLSR 141100Z 00000KT 9999 FEW015 FEW023CB BKN200 24/23 Q1008A2978 HR94 CB NW RWY HUM OPR=METAR SLSM 141100Z 00000KT 9999 FEW008 BKN080 23/22 Q1009 A2982 HR97
ZPX0207 141154@CAELT@GG SLZZYMYT@CAELT@141154 SLORYGYZ@CAELT@SABO SLOR 141200@CAELT@METAR SLOR 141200Z 36004KT 9999 NSC 07/M09 Q1035 A3057 656.0 HR30 FU@CAELT@S/SW CI=@CAELT@
ZPX0208 141154@CAELT@GG SLZZYMYT@CAELT@141152 SLETYMYC@CAELT@SABO SLET 141200@CAELT@METAR SLET 141200Z 33015G27KT 9999 BKN015 26/21 Q1009 A2980 HR78@CAELT@NOSIG=@CAELT@
ZPX0212 141155@CAELT@GG SLZZYMYT@CAELT@141155 SLSBYSYX@CAELT@SABO SLSB 141200@CAELT@METAR SLSB 141200Z 30004KT 9999 SCT015 BKN080 25/24 Q1011 A2986 HR93@CAELT@FU RWY NML=@CAELT@
ZPX0213 141155@CAELT@GG SLZZYMYT@CAELT@141154 SLSAYGYS@CAELT@SABO SLSA 141200@CAELT@METAR SLSA 141200Z 34005KT 9999 NSC 26/25 Q1009 A2982 HR89 CI=@CAELT@
ZPX0214 141155@CAELT@GG SLZZYMYT@CAELT@141153 SLRBYGYS@CAELT@SABO SLRB 141200@CAELT@METAR SLRB 141200Z 36010KT 9999 NSC 29/22 Q1012 A2988 HR68 RWY NML=@CAELT@
ZPX0215 141156@CAELT@GG SLZZYMYT@CAELT@141157 SLVRYGYZ@CAELT@SABO SLVR 141200@CAELT@METAR SLVR 141200Z 32015G25KT 9999 SCT008 BKN015 26/23 Q1009 A2982@CAELT@HR83 NOSIG=@CAELT@
ZPX0216 141156@CAELT@GG SLZZYMYT@CAELT@141156 SLTRYGYZ@CAELT@SABO SLTR 141200@CAELT@METAR SLTR 141200Z 33008KT 9999 FEW020 BKN200 26/23 Q1010 A2984@CAELT@992.1 HR85 NOSIG=@CAELT@
ZPX0217 141156@CAELT@GG SLZZYMYT@CAELT@141156 SLCAYGYS@CAELT@SABO SLCA 141200@CAELT@METAR SLCA 141200Z 00000KT 9999 NSC 24/20 Q1010 A2983 HR78 RWY NML=@CAELT@
ZPX0218 141156@CAELT@GG SLZZYMYT@CAELT@141156 SLTJYGYZ@CAELT@SABO SLTJ 141200@CAELT@METAR SLTJ 141200Z 00000KT 9999 NSC 18/15 Q1015 A2999 811.2 HR78 FU=@CAELT@
ZPX0219 141156@CAELT@GG SLZZYMYT@CAELT@141155 SLLPYGYZ@CAELT@SABO SLLP 141200@CAELT@METAR SLLP 141200Z VRB02KT 9999 FEW006 BKN200 10/M05 Q1038 A3065@CAELT@628.0 HR38 P4053 HZ S/SW/W FU NOSIG=@CAELT@
ZPX0221 141157@CAELT@GG SLZZYMYT@CAELT@141156 SLRQYSYX@CAELT@SABO SLRQ 141200@CAELT@METAR SLRQ 141200Z 00000KT 9999 BKN017 BKN200 27/24 Q1010 A2984 986.4@CAELT@HR87=@CAELT@
ZPX0222 141157@CAELT@GG SLZZYMYT@CAELT@141157 SLVRYGYS@CAELT@SABO SLVR 141200@CAELT@METAR SLVR 141200Z 32015G25KT 9999 SCT008 BKN015 26/23 Q1009 A2982@CAELT@HR83 NOSIG=@CAELT@METAR SLET 141200Z 33015G27KT 9999 BKN015 26/21 Q1009 A2980 HR78@CAELT@NOSIG=@CAELT@METAR SLAS 141200Z 35006KT 9999 NSC 27/23 Q1012 A2989 HR79 RWY NML=METAR SLJV 141200Z 36005KT 9999 NSC 25/22 Q1010 A2983 HR83 RWY NML=METAR SLCP 141200Z 36005KT 9999 NSC 25/22 Q1014 A2994 HR83 RWY NML=METAR SLSI 141200Z 33006KT 9999 NSC 27/22 Q1011 A2985 HR74 RWY NML=METAR SLTI 141200Z 00000KT 9999 SCT070 28/23 Q1014 A2994 HR75 RWY NMLMETAR SLJE 141200Z 36006KT 7000 NSC 29/23 Q1013 A2991 HR70 FU RWY NMLMETAR SLVG 141200Z 00000KT 9999 SCT015 18/15 Q1021 A3015 HR82RWY HUM OPR=METAR SLRB 141200Z 36010KT 9999 NSC 29/22 Q1012 A2988 HR68 RWY NML=METAR SLCA 141200Z 00000KT 9999 NSC 24/20 Q1010 A2983 HR78 RWY NML=
ZPX0224 141158@CAELT@GG SLZZYMYT@CAELT@141158 SLCOYGYZ@CAELT@SABO SLCO 141200@CAELT@METAR SLCO 141200Z 35003KT 9999 SCT040 OVC080 26/24 Q1012 A2989 984.6@CAELT@HR86=@CAELT@
ZPX0225 141159@CAELT@GG SLZZYMYT@CAELT@141158 SLTRYGYS@CAELT@SABO SLTR 141200@CAELT@METAR SLTR 141200Z 33008KT 9999 FEW020 BKN200 26/23 Q1010 A2984@CAELT@992.1 HR85 NOSIG=@CAELT@METAR SLGM 141200Z NIL=@CAELT@METAR SLRI 141200Z 03005KT 9999 FEW010 SCT080 BKN200 27/25 Q1012@CAELT@A2989 HR89 FU=METAR SLJO 141200Z 36005KT 9999 NSC 26/24 Q1009 A2982 HR90 CIRWY NML=METAR SLRA 141200Z 04006KT 9999 FEW080 BKN200 27/23 Q1010 A2983HR81 RWY NML=METAR SLMG 141200Z 32006KT 9999 SCT080 BKN200 27/24 Q1010 A2984HR86 RWY NML=METAR SLBU 141200Z NIL=METAR SLSA 141200Z 34005KT 9999 NSC 26/25 Q1009 A2982 HR89 CI=METAR SLSR 141200Z 32004KT 8000 SCT017 FEW023CB BKN200 25/23 Q1009A2981 HR90 FU CB W/NW RWY HUM OPR=METAR SLSM 141200Z 33008KT 9999 FEW015 SCT080 25/24 Q1010 A2984 HR93
ZPX0226 141159@CAELT@GG SLZZYMYT@CAELT@141159 SLCBYGYZ@CAELT@SABO SLCB 141200@CAELT@METAR SLCB 141200Z 00000KT 9999 NSC 21/08 Q1023 A3024 750.5 HR41 FU@CAELT@CI NOSIG=@CAELT@
ZPX0227 141200@CAELT@GG SLZZYMYT@CAELT@141159 SLLPYFYA@CAELT@SABO SLRY 141200@CAELT@METAR SLRY 141200Z 34003KT 9999 SCT016 BKN200 26/23 Q1009 A2981@CAELT@HR84 FU RWY NML=@CAELT@
ZPX0228 141200@CAELT@GG SLZZYMYT@CAELT@141159 SLCBYGYS@CAELT@SABO SLCB 141200@CAELT@METAR SLCB 141200Z 00000KT 9999 NSC 21/08 Q1023 A3024 750.5 HR41 FU@CAELT@CI NOSIG=@CAELT@METAR SLAL 141200Z 25009KT 9999 NSC 15/09 Q1027 A3033 702.3 HR68=@CAELT@METAR SLTJ 141200Z 00000KT 9999 NSC 18/15 Q1015 A2999 811.2 HR78 FU=@CAELT@
ZPX0229 141201@CAELT@GG SLZZYMYT@CAELT@141201 SLLPYFYA@CAELT@SABO SLLP 141200@CAELT@METAR SLLP 141200Z VRB02KT 9999 FEW006 BKN200 10/M05 Q1038 A3065@CAELT@628.0 HR38 P4053 HZ S/SW/W FU NOSIG=@CAELT@METAR SLCO 141200Z 35003KT 9999 SCT040 OVC080 26/24 Q1012 A2989@CAELT@984.6 HR86=@CAELT@METAR SLRY 141200Z 34003KT 9999 SCT016 BKN200 26/23 Q1009 A2981HR84 FU RWY NML=METAR SLRQ 141200Z 00000KT 9999 BKN017 BKN200 27/24 Q1010 A2984986.4 HR87=METAR SLSB 141200Z 30004KT 9999 SCT015 BKN080 25/24 Q1011 A2986HR93 FU RWY NML=METAR SLAP 141200Z 36006KT 9999 BKN020 OVC070 20/18 Q1017 A3004858.1 HR87=METAR SLOR 141200Z 36004KT 9999 NSC 07/M09 Q1035 A3057 656.0 HR30FU S/SW CI=
ZPX0245 141221@CAELT@GG SLZZYMYT@CAELT@141220 SLTRYGYS@CAELT@SABO SLTR 141200 RRA@CAELT@METAR SLTR 141200Z 33008KT 9999 FEW020 BKN200 26/23 Q1010 A2984@CAELT@992.1 HR85 NOSIG=@CAELT@METAR RTD SLGM 141200Z 36006KT 9999 FEW015 28/23 Q1011 A2986 HR76=@CAELT@METAR SLRI 141200Z 03005KT 9999 FEW010 SCT080 BKN200 27/25 Q1012@CAELT@A2989 HR89 FU=METAR SLJO 141200Z 36005KT 9999 NSC 26/24 Q1009 A2982 HR90 CIRWY NML=METAR SLRA 141200Z 04006KT 9999 FEW080 BKN200 27/23 Q1010 A2983HR81 RWY NML=METAR SLMG 141200Z 32006KT 9999 SCT080 BKN200 27/24 Q1010 A2984HR86 RWY NML=METAR SLBU 141200Z NIL=METAR SLSA 141200Z 34005KT 9999 NSC 26/25 Q1009 A2982 HR89 CI=METAR SLSR 141200Z 32004KT 8000 SCT017 FEW023CB BKN200 25/23 Q1009A2981 HR90 FU CB W/NW RWY HUM OPR=METAR SLSM 141200Z 33008KT 9999 FEW015 SCT080 25/24 Q1010 A2984 HR93
ZPX0263 141252@CAELT@GG SLZZYMYT@CAELT@141252 SLETYMYC@CAELT@SABO SLET 141300@CAELT@METAR SLET 141300Z 33019G30KT 9999 SCT015 28/22 Q1009 A2980 HR70@CAELT@NOSIG=@CAELT@
ZPX0264 141254@CAELT@GG SLZZYMYT@CAELT@141253 SLRBYGYS@CAELT@SABO SLRB 141300@CAELT@METAR SLRB 141300Z 36015KT 9999 NSC 30/23 Q1012 A2988 HR65 RWY NML=@CAELT@
ZPX0265 141255@CAELT@GG SLZZYMYT@CAELT@141255 SLRQYSYX@CAELT@SABO SLRQ 141300@CAELT@METAR SLRQ 141300Z 00000KT 9999 BKN012 OVC200 27/25 Q1011 A2987 987.4@CAELT@HR89=@CAELT@
ZPX0266 141255@CAELT@GG SLZZYMYT@CAELT@141255 SLORYGYZ@CAELT@SABO SLOR 141300@CAELT@METAR SLOR 141300Z 25004KT 9999 NSC 12/M09 Q1035 A3058 656.2 HR23 FU@CAELT@S/SW CI=@CAELT@
ZPX0267 141255@CAELT@GG SLZZYMYT@CAELT@141254 SLSAYGYS@CAELT@SABO SLSA 141300@CAELT@METAR SLSA 141300Z 34006KT 9999 NSC 27/24 Q1010 A2985 HR83 CI=@CAELT@
ZPX0268 141256@CAELT@GG SLZZYMYT@CAELT@141256 SLTRYGYZ@CAELT@SABO SLTR 141300@CAELT@METAR SLTR 141300Z 32010KT 9999 FEW020 BKN200 28/24 Q1011 A2986@CAELT@992.5 HR78 NOSIG=@CAELT@
ZPX0269 141256@CAELT@GG SLZZYMYT@CAELT@141255 SLCOYGYZ@CAELT@SABO SLCO 141300@CAELT@METAR SLCO 141300Z 29004KT 9999 BKN080 27/24 Q1012 A2990 985.2 HR84@CAELT@
ZPX0270 141256@CAELT@GG SLZZYMYT@CAELT@141256 SLCAYGYS@CAELT@SABO SLCA 141300@CAELT@METAR SLCA 141300Z 00000KT 9999 NSC 27/20 Q1010 A2983 HR66 RWY NML=@CAELT@
ZPX0271 141256@CAELT@GG SLZZYMYT@CAELT@141255 SLLPYGYZ@CAELT@SABO SLLP 141300@CAELT@METAR SLLP 141300Z VRB02KT 9999 FEW013 BKN200 12/M03 Q1038 A3066@CAELT@628.2 HR36 P3380 HZ S/SW/W/NW FU NOSIG=@CAELT@
ZPX0272 141257@CAELT@GG SLZZYMYT@CAELT@141256 SLTJYGYZ@CAELT@SABO SLTJ 141300@CAELT@METAR SLTJ 141300Z 13005KT 9999 NSC 21/14 Q1015 A2998 810.9 HR65 FU=@CAELT@
ZPX0273 141257@CAELT@GG SLZZYMYT@CAELT@141257 SLLPYFYA@CAELT@SABO SLRY 141300@CAELT@METAR SLRY 141300Z 32003KT 9999 BKN015 BKN200 27/24 Q1010 A2988@CAELT@HR79 FU RWY NML=@CAELT@
ZPX0274 141257@CAELT@GG SLZZYMYT@CAELT@141258 SLVRYGYZ@CAELT@SABO SLVR 141300@CAELT@METAR SLVR 141300Z 34012G22KT 9999 FEW013 SCT015 29/23 Q1010 A2983@CAELT@HR72 CI NOSIG=@CAELT@
ZPX0278 141259@CAELT@GG SLZZYMYT@CAELT@141259 SLVRYGYS@CAELT@SABO SLVR 141300@CAELT@METAR SLVR 141300Z 34012G22KT 9999 FEW013 SCT015 29/23 Q1010 A2983@CAELT@HR72 CI NOSIG=@CAELT@METAR SLET 141300Z 33019G30KT 9999 SCT015 28/22 Q1009 A2981 HR70@CAELT@NOSIG=@CAELT@METAR SLAS 141300Z 35010KT 9999 NSC 30/22 Q1013 A2991 HR66 RWY NML=METAR SLJV 141300Z 36005KT 9999 NSC 29/22 Q1010 A2983 HR69 RWY NML=METAR SLCP 141300Z 27005KT 9999 NSC 27/22 Q1014 A2994 HR74 RWY NML=METAR SLSI 141300Z 33006KT 9999 NSC 29/21 Q1011 A2985 HR63 RWY NML=METAR SLTI 141300Z 35014KT 9999 NSC 31/22 Q1014 A2994 HR57 RWY NML=METAR SLJE 141300Z 36008KT 9000 NSC 32/23 Q1012 A2988 HR58 FU RWY NMLMETAR SLVG 141300Z 35006KT 9999 SCT020 20/15 Q1021 A3015 HR74 RWY HUMOPR=METAR SLRB 141300Z 36015KT 9999 NSC 30/23 Q1012 A2988 HR65 RWY NML=METAR SLCA 141300Z 00000KT 9999 NSC 27/20 Q1010 A2983 HR66 RWY NML=
ZPX0280 141300@CAELT@GG SLZZYMYT@CAELT@141300 SLCBYGYZ@CAELT@SABO SLCB 141300@CAELT@METAR SLCB 141300Z 00000KT 9999 NSC 23/07 Q1023 A3023 750.3 HR35 FU@CAELT@CI NOSIG=@CAELT@
ZPX0281 141300@CAELT@GG SLZZYMYT@CAELT@141300 SLCBYGYS@CAELT@SABO SLCB 141300@CAELT@METAR SLCB 141300Z 00000KT 9999 NSC 23/07 Q1023 A3023 750.3 HR35 FU@CAELT@CI NOSIG=@CAELT@METAR SLAL 141300Z 24005KT 9999 FEW015 17/09 Q1027 A3035 702.7 HR58=@CAELT@METAR SLTJ 141300Z 13005KT 9999 NSC 21/14 Q1015 A2998 810.9 HR65 FU=@CAELT@
ZPX0282 141301@CAELT@GG SLZZYMYT@CAELT@141300 SLSBYSYX@CAELT@SABO SLSB 141300@CAELT@METAR SLSB 141300Z 31006KT 9999 SCT017 SCT200 28/24 Q1011 A2987 HR87@CAELT@FU RWY NML=@CAELT@
ZPX0283 141301@CAELT@GG SLZZYMYT@CAELT@141301 SLLPYFYA@CAELT@SABO SLLP 141300@CAELT@METAR SLLP 141300Z VRB02KT 9999 FEW013 BKN200 12/M03 Q1038 A3066@CAELT@628.2 HR36 P3380 HZ S/SW/W/NW FU NOSIG=@CAELT@METAR SLCO 141300Z 29004KT 9999 BKN080 27/24 Q1012 A2990 985.2 HR84@CAELT@METAR SLRY 141300Z 32003KT 9999 BKN015 BKN200 27/24 Q1010 A2988@CAELT@HR79 FU RWY NML=METAR SLRQ 141300Z 00000KT 9999 BKN012 OVC200 27/25 Q1011 A2987987.4 HR89=METAR SLAP 141300Z 36012KT 9999 BKN020 OVC070 22/18 Q1018 A3007858.8 HR81=METAR SLSB 141300Z 31006KT 9999 SCT017 SCT200 28/24 Q1011 A2987 HR87FU RWY NML=METAR SLOR 141300Z 25004KT 9999 NSC 12/M09 Q1035 A3058 656.2 HR23 FUS/SW CI=
ZPX0287 141303@CAELT@GG SLZZYMYT@CAELT@141300 SLTRYGYS@CAELT@SABO SLTR 141300@CAELT@METAR SLTR 141300Z 32010KT 9999 FEW020 BKN200 28/24 Q1011 A2986@CAELT@992.5 HR78 NOSIG=@CAELT@METAR SLGM 141300Z 36012KT 9999 FEW015 28/23 Q1011 A2988 HR68=@CAELT@METAR SLRI 141300Z 03005KT 9999 FEW015 BKN200 28/24 Q1012 A2991 HR78@CAELT@FU AC=METAR SLJO 141300Z 36006KT 9999 NSC 29/24 Q1010 A2985 HR77 CIRWY NML=METAR SLRA 141300Z 34010KT 9999 NSC 30/23 Q1010 A2985 HR66CI RWY NML=METAR SLMG 141300Z 32008KT 9999 NSC 29/23 Q1010 A2985 HR70 CIMETAR SLBU 141300Z NIL=METAR SLSA 141300Z 34006KT 9999 NSC 27/24 Q1010 A2985 HR83 CI=METAR SLSR 141300Z 32004KT 8000 FEW017 BKN200 27/24 Q1010 A2984HR81 FU RWY NML=METAR SLSM 141300Z 33012KT 9999 FEW015 28/25 Q1011 A2985 HR83
ZPX0288 141304@CAELT@GG SLZZYMYT@CAELT@141300 SLTRYGYS@CAELT@SABO SLTR 141300@CAELT@METAR SLTR 141300Z 32010KT 9999 FEW020 BKN200 28/24 Q1011 A2986@CAELT@992.5 HR78 NOSIG=@CAELT@METAR SLGM 141300Z 36012KT 9999 FEW015 28/23 Q1011 A2988 HR68=@CAELT@METAR SLRI 141300Z 03005KT 9999 FEW015 BKN200 28/24 Q1012 A2991 HR78@CAELT@FU AC=METAR SLJO 141300Z 36006KT 9999 NSC 29/24 Q1010 A2985 HR77 CIRWY NML=METAR SLRA 141300Z 34010KT 9999 NSC 30/23 Q1010 A2985 HR66CI RWY NML=METAR SLMG 141300Z 32008KT 9999 NSC 29/23 Q1010 A2985 HR70 CIMETAR SLBU 141300Z NIL=METAR SLSA 141300Z 34006KT 9999 NSC 27/24 Q1010 A2985 HR83 CI=METAR SLSR 141300Z 32004KT 8000 FEW017 BKN200 27/24 Q1010 A2984HR81 FU RWY NML=METAR SLSM 141300Z 33012KT 9999 FEW015 28/25 Q1011 A2985 HR83
ZPX0316 141352@CAELT@GG SLZZYMYT@CAELT@141352 SLETYMYC@CAELT@SABO SLET 141400@CAELT@METAR SLET 141400Z 32019G30KT 9999 BKN016 29/21 Q1009 A2980 HR63@CAELT@NOSIG=@CAELT@
ZPX0319 141354@CAELT@GG SLZZYMYT@CAELT@141354 SLSBYSYX@CAELT@SABO SLSB 141400@CAELT@METAR SLSB 141400Z 30012KT 9999 SCT017 SCT200 29/25 Q1011 A2988 HR77@CAELT@FU RWY NML=@CAELT@
ZPX0320 141354@CAELT@GG SLZZYMYT@CAELT@141353 SLRBYGYS@CAELT@SABO SLRB 141400@CAELT@METAR SLRB 141400Z 36015KT 9999 NSC 32/22 Q1011 A2985 HR57 RWY NML=@CAELT@
ZPX0321 141354@CAELT@GG SLZZYMYT@CAELT@141355 SLORYGYZ@CAELT@SABO SLOR 141400@CAELT@METAR SLOR 141400Z 24004KT 9999 NSC 15/M12 Q1035 A3058 656.2 HR15 CI=@CAELT@
ZPX0322 141354@CAELT@GG SLZZYMYT@CAELT@141354 SLSAYGYS@CAELT@SABO SLSA 141400@CAELT@METAR SLSA 141400Z 34010KT 9999 FEW017 BKN200 29/23 Q1011 A2986 HR73=@CAELT@
ZPX0323 141356@CAELT@GG SLZZYMYT@CAELT@141356 SLTRYGYZ@CAELT@SABO SLTR 141400@CAELT@METAR SLTR 141400Z 32012KT 9999 FEW020 BKN200 29/24 Q1010 A2985@CAELT@992.4 HR74 NOSIG=@CAELT@
ZPX0324 141356@CAELT@GG SLZZYMYT@CAELT@141355 SLRQYSYX@CAELT@SABO SLRQ 141400@CAELT@METAR SLRQ 141400Z 00000KT 9999 BKN012 BKN200 30/25 Q1010 A2985 986.8@CAELT@HR79=@CAELT@
ZPX0325 141356@CAELT@GG SLZZYMYT@CAELT@141355 SLLPYGYZ@CAELT@SABO SLLP 141400@CAELT@METAR SLLP 141400Z 15004KT 9999 FEW015 BKN200 14/M04 Q1038 A3066@CAELT@628.1 HR30 P90// FU NOSIG=@CAELT@
ZPX0326 141357@CAELT@GG SLZZYMYT@CAELT@141357 SLCOYGYZ@CAELT@SABO SLCO 141400@CAELT@METAR SLCO 141400Z 32008KT 9999 FEW080 OVC200 29/25 Q1012 A2989 984.9@CAELT@HR79=@CAELT@
ZPX0328 141357@CAELT@GG SLZZYMYT@CAELT@141356 SLCAYGYS@CAELT@SABO SLCA 141400@CAELT@METAR SLCA 141400Z 00000KT 9999 NSC 31/20 Q1009 A2980 HR52 RWY NML=@CAELT@
ZPX0329 141357@CAELT@GG SLZZYMYT@CAELT@141357 SLTJYGYZ@CAELT@SABO SLTJ 141400@CAELT@METAR SLTJ 141400Z 16004KT 9999 NSC 24/15 Q1014 A2996 810.3 HR57=@CAELT@
ZPX0330 141358@CAELT@GG SLZZYMYT@CAELT@141358 SLTRYGYS@CAELT@SABO SLTR 141400@CAELT@METAR SLTR 141400Z 32012KT 9999 FEW020 BKN200 29/24 Q1010 A2985@CAELT@992.4 HR74 NOSIG=@CAELT@METAR SLGM 141400Z 36008KT 9999 FEW015 SCT080 28/23 Q1012 A2989 HR69=@CAELT@METAR SLRI 141400Z 06005KT 9999 FEW017 BKN200 29/24 Q1012 A2991 HR71@CAELT@METAR SLJO 141400Z 36008KT 9999 NSC 31/24 Q1010 A2985 HR66 CIRWY NML=METAR SLRA 141400Z 35010KT 9999 NSC 31/22 Q1010 A2985 HR61 CIMETAR SLMG 141400Z 34008KT 9999 NSC 30/23 Q1011 A2986 HR64 CIMETAR SLBU 141400Z NIL=METAR SLSA 141400Z 34010KT 9999 FEW017 BKN200 29/23 Q1011 A2986 HR73=METAR SLSR 141400Z 32008KT 8000 FEW017 BKN080 29/24 Q1011 A2986HR76 RWY NML=METAR SLSM 141400Z 33012KT 9999 FEW015 29/24 Q1010 A2984 HR76
ZPX0332 141359@CAELT@GG SLZZYMYT@CAELT@141359 SLCBYGYZ@CAELT@SABO SLCB 141400@CAELT@METAR SLCB 141400Z 19006KT 9999 NSC 26/06 Q1022 A3020 749.7 HR28 FU@CAELT@CI NOSIG=@CAELT@
ZPX0335 141400@CAELT@GG SLZZYMYT@CAELT@141400 SLCBYGYS@CAELT@SABO SLCB 141400@CAELT@METAR SLCB 141400Z 19006KT 9999 NSC 26/06 Q1022 A3020 749.7 HR28 FU@CAELT@CI NOSIG=@CAELT@METAR SLAL 141400Z 27007KT 9999 FEW017 19/07 Q1027 A3034 702.9 HR47=@CAELT@METAR SLTJ 141400Z 16004KT 9999 NSC 24/15 Q1014 A2996 810.3 HR57=@CAELT@
ZPX0337 141401@CAELT@GG SLZZYMYT@CAELT@141401 SLLPYFYA@CAELT@SABO SLRY 141400@CAELT@METAR SLRY 141400Z 32006KT 9999 BKN015 BKN200 29/23 Q1010 A2985@CAELT@HR68 FU RWY NML=@CAELT@
ZPX0338 141402@CAELT@GG SLZZYMYT@CAELT@141403 SLVRYGYZ@CAELT@SABO SLVR 141400@CAELT@METAR SLVR 141400Z 34015G25KT 9999 SCT013 BKN015 29/23 Q1010 A2983@CAELT@HR69 CI NOSIG=@CAELT@
ZPX0341 141403@CAELT@GG SLZZYMYT@CAELT@141402 SLLPYFYA@CAELT@SABO SLLP 141400@CAELT@METAR SLLP 141400Z 15004KT 9999 FEW015 BKN200 14/M04 Q1038 A3066@CAELT@628.1 HR30 P90// FU NOSIG=@CAELT@METAR SLCO 141400Z 32008KT 9999 FEW080 OVC200 29/25 Q1012 A2989@CAELT@984.9 HR79=@CAELT@METAR SLRY 141400Z 32006KT 9999 BKN015 BKN200 29/23 Q1010 A2985HR68 FU RWY NML=METAR SLRQ 141400Z 00000KT 9999 BKN012 BKN200 30/25 Q1010 A2985986.8 HR79=METAR SLAP 141400Z 36015KT 9999 SCT020 BKN070 24/19 Q1018 A3009859.4 HR71=METAR SLSB 141400Z 30012KT 9999 SCT017 SCT200 29/25 Q1011 A2988HR77 FU RWY NML=METAR SLOR 141400Z 24004KT 9999 NSC 15/M12 Q1035 A3058 656.2 HR15
ZPX0342 141403@CAELT@GG SLZZYMYT@CAELT@141400 SLCBYGYS@CAELT@SABO SLCB 141400@CAELT@METAR SLCB 141400Z 19006KT 9999 NSC 26/06 Q1022 A3020 749.7 HR28 FU@CAELT@CI NOSIG=@CAELT@METAR SLAL 141400Z 27007KT 9999 FEW017 19/07 Q1027 A3034 702.9 HR47=@CAELT@METAR SLPO 141400Z NIL=@CAELT@METAR SLAG 141400Z NIL=METAR SLVM 141400Z NIL=METAR SLTJ 141400Z 16004KT 9999 NSC 24/15 Q1014 A2996 810.3 HR57=METAR SLYA 141400Z NIL=METAR SLBJ 141400Z NIL=METAR SLHI 141400Z NIL=
ZPX0343 141403@CAELT@GG SLZZYMYT@CAELT@141403 SLVRYGYS@CAELT@SABO SLVR 141400@CAELT@METAR SLVR 141400Z 34015G25KT 9999 SCT013 BKN015 29/23 Q1010 A2983@CAELT@HR69 CI NOSIG=@CAELT@METAR SLET 141400Z 32019G30KT 9999 BKN016 29/21 Q1009 A2980 HR63@CAELT@NOSIG=@CAELT@METAR SLAS 141400Z 35015KT 9999 NSC 32/23 Q1013 A2991 HR60 RWY NML=METAR SLJV 141400Z 36010KT 9999 SCT017 31/22 Q1011 A2985 HR62 RWY NMLMETAR SLCP 141400Z 36006KT 9999 FEW020 29/22 Q1014 A2994 HR67 RWY NMLMETAR SLSI 141400Z 33010KT 9999 SCT017 32/22 Q1011 A2985 HR57 RWY NMLMETAR SLTI 141400Z 35015KT 9999 NSC 34/22 Q1014 A2994 HR50 RWY NML=METAR SLJE 141400Z 36010KT 9999 NSC 34/23 Q1012 A2988 HR49 FU RWY NMLMETAR SLVG 141400Z 36007KT 9999 FEW023 22/16 Q1021 A3015 HR64 RWY HUMOPR=METAR SLRB 141400Z 36015KT 9999 NSC 32/22 Q1011 A2985 HR57 RWY NML=METAR SLCA 141400Z 00000KT 9999 NSC 31/20 Q1009 A2980 HR52 RWY NML=
ZPX0368 141454@CAELT@GG SLZZYMYT@CAELT@141454 SLSAYGYS@CAELT@SABO SLSA 141500@CAELT@METAR SLSA 141500Z 34010KT 9999 FEW017 BKN200 30/23 Q1011 A2987 HR67=@CAELT@
ZPX0369 141454@CAELT@GG SLZZYMYT@CAELT@141454 SLSBYSYX@CAELT@SABO SLSB 141500@CAELT@METAR SLSB 141500Z 30010KT 9999 BKN020 BKN200 31/25 Q1010 A2984 HR71@CAELT@FU RWY NML=@CAELT@
ZPX0370 141454@CAELT@GG SLZZYMYT@CAELT@141453 SLRBYGYS@CAELT@SABO SLRB 141500@CAELT@METAR SLRB 141500Z 35015KT 9999 NSC 34/22 Q1011 A2985 HR50 RWY NML=@CAELT@
ZPX0371 141454@CAELT@GG SLZZYMYT@CAELT@141452 SLETYMYC@CAELT@SABO SLET 141500@CAELT@METAR SLET 141500Z 33015G30KT 9999 BKN017 30/21 Q1008 A2978 HR61@CAELT@NOSIG=@CAELT@
ZPX0374 141456@CAELT@GG SLZZYMYT@CAELT@141456 SLVRYGYZ@CAELT@SABO SLVR 141500@CAELT@METAR SLVR 141500Z 33019G32KT 9999 FEW013 SCT015 BKN200 31/22 Q1009@CAELT@A2981 HR61 NOSIG=@CAELT@
ZPX0375 141456@CAELT@GG SLZZYMYT@CAELT@141456 SLTRYGYZ@CAELT@SABO SLTR 141500@CAELT@METAR SLTR 141500Z 33012KT 9999 FEW020 BKN200 31/25 Q1010 A2983@CAELT@991.8 HR71 NOSIG=@CAELT@
ZPX0376 141456@CAELT@GG SLZZYMYT@CAELT@141455 SLLPYGYZ@CAELT@SABO SLLP 141500@CAELT@METAR SLLP 141500Z 15008KT 9999 FEW017 BKN200 16/M07 Q1037 A3064@CAELT@627.7 HR20 P93// FU NOSIG=@CAELT@
ZPX0377 141456@CAELT@GG SLZZYMYT@CAELT@141455 SLRQYSYX@CAELT@SABO SLRQ 141500@CAELT@METAR SLRQ 141500Z 00000KT 9999 BKN015 SCT200 32/25 Q1010 A2983 986.1@CAELT@HR69=@CAELT@
ZPX0378 141456@CAELT@GG SLZZYMYT@CAELT@141457 SLCOYGYZ@CAELT@SABO SLCO 141500@CAELT@METAR SLCO 141500Z 33010KT 9999 FEW023 OVC200 31/25 Q1012 A2990 985.0@CAELT@HR69 AC=@CAELT@
ZPX0379 141457@CAELT@GG SLZZYMYT@CAELT@141456 SLTJYGYZ@CAELT@SABO SLTJ 141500@CAELT@METAR SLTJ 141500Z 00000KT 9999 NSC 26/15 Q1013 A2993 809.6 HR51=@CAELT@
ZPX0380 141458@CAELT@GG SLZZYMYT@CAELT@141457 SLCBYGYZ@CAELT@SABO SLCB 141500@CAELT@METAR SLCB 141500Z 30005KT 9999 FEW040 BKN200 27/03 Q1022 A3018 749.1@CAELT@HR22 FU NOSIG=@CAELT@
ZPX0382 141459@CAELT@GG SLZZYMYT@CAELT@141458 SLCAYGYS@CAELT@SABO SLCA 141500@CAELT@METAR SLCA 151500Z 36004KT 9999 NSC 33/17 Q1008 A2977 HR40 RWY NML=@CAELT@
ZPX0383 141459@CAELT@GG SLZZYMYT@CAELT@141458 SLCBYGYS@CAELT@SABO SLCB 141500@CAELT@METAR SLCB 141500Z 30005KT 9999 FEW040 BKN200 27/03 Q1022 A3018 749.1@CAELT@HR22 FU NOSIG=@CAELT@METAR SLAL 141500Z 27003KT 9999 FEW017 20/06 Q1027 A3032 702.1 HR42=@CAELT@METAR SLPO 141500Z NIL=@CAELT@METAR SLAG 141500Z NIL=METAR SLVM 141500Z NIL=METAR SLTJ 141500Z 00000KT 9999 NSC 26/15 Q1013 A2993 809.6 HR51=METAR SLYA 141500Z NIL=METAR SLBJ 141500Z NIL=METAR SLHI 141500Z NIL=
ZPX0385 141500@CAELT@GG SLZZYMYT@CAELT@141500 SLLPYFYA@CAELT@SABO SLRY 141500@CAELT@METAR SLRY 141500Z 32008KT 9999 SCT016 BKN200 31/23 Q1010 A2984@CAELT@HR62 RWY NML=@CAELT@
ZPX0386 141500@CAELT@GG SLZZYMYT@CAELT@141459 SLTRYGYS@CAELT@SABO SLTR 141500@CAELT@METAR SLTR 141500Z 33012KT 9999 FEW020 BKN200 31/25 Q1010 A2983@CAELT@991.8 HR71 NOSIG=@CAELT@METAR SLGM 141500Z 36010KT 9999 FEW015 BKN080 30/23 Q1012 A2988 HR67=@CAELT@METAR SLRI 141500Z 03005KT 9999 FEW017 BKN200 30/23 Q1012 A2990 HR67@CAELT@METAR SLJO 141500Z 34010KT 9999 NSC 32/23 Q1010 A2984 HR62 CIRWY NML=METAR SLRA 141500Z 33010KT 9999 FEW020 BKN200 32/23 Q1010 A2984 HR58METAR SLMG 141500Z 34010KT 9999 NSC 32/23 Q1011 A2985 HR60 CIMETAR SLBU 141500Z NIL=METAR SLSA 141500Z 34010KT 9999 FEW017 BKN200 30/23 Q1011 A2987 HR67=METAR SLSR 141500Z 32015KT 8000 SCT017 FEW023CB SCT080 BKN200 30/24Q1010 A2983 HR72 FU CB SE RWY NML=METAR SLSM 141500Z 33012KT 9999 SCT015 30/24 Q1010 A2983 HR68
ZPX0387 141500@CAELT@GG SLZZYMYT@CAELT@141500 SLVRYGYS@CAELT@SABO SLVR 141500@CAELT@METAR SLVR 141500Z 33019G32KT 9999 FEW013 SCT015 BKN200 31/22 Q1009@CAELT@A2981 HR61 NOSIG=@CAELT@METAR SLET 141500Z 33015G30KT 9999 BKN017 30/21 Q1008 A2978 HR61@CAELT@NOSIG=@CAELT@METAR SLAS 141500Z 35018KT 9999 FEW020 33/23 Q1012 A2989 HR57 RWY NMLMETAR SLJV 141500Z 36010KT 9999 SCT017 32/22 Q1010 A2983 HR59 RWY NMLMETAR SLCP 141500Z 33008KT 9999 BKN020 30/21 Q1014 A2994 HR59 RWY NMLMETAR SLSI 141500Z 36010KT 9999 SCT017 33/22 Q1010 A2983 HR52 RWY NMLMETAR SLTI 141500Z 35015KT 9999 NSC 36/22 Q1011 A2985 HR46 RWY NML=METAR SLJE 141500Z 36010KT 9999 FEW020 36/22 Q1011 A2985 HR45 RWY NMLMETAR SLVG 141500Z 36006KT 9999 FEW025 23/16 Q1020 A3012 HR62 RWY NMLMETAR SLRB 141500Z 35015KT 9999 NSC 34/22 Q1011 A2985 HR50 RWY NML=METAR SLCA 151500Z 36004KT 9999 NSC 33/17 Q1008 A2977 HR40 RWY NML=
ZPX0390 141502@CAELT@GG SLZZYMYT@CAELT@141502 SLLPYFYA@CAELT@SABO SLLP 141500@CAELT@METAR SLLP 141500Z 15008KT 9999 FEW017 BKN200 16/M07 Q1037 A3064@CAELT@627.7 HR20 P93// FU NOSIG=@CAELT@METAR SLCO 141500Z 33010KT 9999 FEW023 OVC200 31/25 Q1012 A2990@CAELT@985.0 HR69 AC=@CAELT@METAR SLRY 141500Z 32008KT 9999 SCT016 BKN200 31/23 Q1010 A2984HR62 RWY NML=METAR SLRQ 141500Z 00000KT 9999 BKN015 SCT200 32/25 Q1010 A2983986.1 HR69=METAR SLAP 141500Z 36005KT 9999 FEW025 SCT070 26/20 Q1017 A3005858.4 HR70=METAR SLSB 141500Z 30010KT 9999 BKN020 BKN200 31/25 Q1010 A2984 HR71FU RWY NML=
ZPX0410 141554@CAELT@GG SLZZYMYT@CAELT@141554 SLCBYGYZ@CAELT@SABO SLCB 141600@CAELT@METAR SLCB 141600Z 32005KT 9999 FEW040 SCT200 29/03 Q1020 A3014 748.1@CAELT@HR19 FU NOSIG=@CAELT@
ZPX0411 141554@CAELT@GG SLZZYMYT@CAELT@141554 SLSBYSYX@CAELT@SABO SLSB 141600@CAELT@METAR SLSB 141600Z 31015KT 9999 SCT020 BKN080 31/24 Q1009 A2981 HR67@CAELT@FU RWY NML=@CAELT@
ZPX0412 141554@CAELT@GG SLZZYMYT@CAELT@141552 SLETYMYC@CAELT@SABO SLET 141600@CAELT@METAR SLET 141600Z 32018G28KT 9999 BKN020 31/22 Q1007 A2976 HR59@CAELT@NOSIG=@CAELT@
ZPX0413 141554@CAELT@GG SLZZYMYT@CAELT@141553 SLRBYGYS@CAELT@SABO SLRB 141600@CAELT@METAR SLRB 141600Z 36015KT 9999 FEW020 34/21 Q1010 A2983 HR47 RWY NML=@CAELT@
ZPX0414 141555@CAELT@GG SLZZYMYT@CAELT@141554 SLLPYFYA@CAELT@SABO SLRY 141600@CAELT@METAR SLRY 141600Z 36010KT 9999 FEW016 BKN200 32/23 Q1009 A2981@CAELT@HR60 RWY NML=@CAELT@
ZPX0415 141555@CAELT@GG SLZZYMYT@CAELT@141556 SLVRYGYZ@CAELT@SABO SLVR 141600@CAELT@METAR SLVR 141600Z 33020G30KT 9999 FEW013 SCT015 BKN200 32/22 Q1008@CAELT@A2979 HR57 NOSIG=@CAELT@
ZPX0416 141555@CAELT@GG SLZZYMYT@CAELT@141555 SLTJYGYZ@CAELT@SABO SLTJ 141600@CAELT@METAR SLTJ 141600Z 00000KT 9999 FEW040 28/15 Q1012 A2990 808.6 HR43=@CAELT@
ZPX0417 141555@CAELT@GG SLZZYMYT@CAELT@141555 SLCOYGYZ@CAELT@SABO SLCO 141600@CAELT@METAR SLCO 141600Z 33010KT 9999 FEW023 BKN200 33/25 Q1011 A2986 983.8@CAELT@HR63 AC=@CAELT@
ZPX0420 141556@CAELT@GG SLZZYMYT@CAELT@141555 SLLPYGYZ@CAELT@SABO SLLP 141600@CAELT@METAR SLLP 141600Z 12009KT 070V170 9999 FEW020 BKN200 17/M13 Q1037@CAELT@A3062 627.2 HR12 P3483 FU NOSIG=@CAELT@
ZPX0421 141556@CAELT@GG SLZZYMYT@CAELT@141556 SLCBYGYS@CAELT@SABO SLCB 141600@CAELT@METAR SLCB 141600Z 32005KT 9999 FEW040 SCT200 29/03 Q1020 A3014 748.1@CAELT@HR19 FU NOSIG=@CAELT@METAR SLAL 141600Z 15008KT 9999 FEW020 20/05 Q1026 A3030 701.7 HR39=@CAELT@METAR SLPO 141600Z NIL=@CAELT@METAR SLAG 141600Z NIL=METAR SLVM 141600Z NIL=METAR SLTJ 141600Z 00000KT 9999 FEW040 28/15 Q1012 A2990 808.6 HR43=METAR SLYA 141600Z NIL=METAR SLBJ 141600Z NIL=METAR SLHI 141600Z NIL=
ZPX0422 141556@CAELT@GG SLZZYMYT@CAELT@141555 SLSAYGYS@CAELT@SABO SLSA 141600@CAELT@METAR SLSA 141600Z 34010KT 9999 FEW017 BKN200 31/23 Q1010 A2983 HR61=@CAELT@
ZPX0423 141556@CAELT@GG SLZZYMYT@CAELT@141556 SLTRYGYZ@CAELT@SABO SLTR 141600@CAELT@METAR SLTR 141600Z 33016KT 9999 SCT020 BKN200 32/24 Q1009 A2982@CAELT@991.3 HR65 NOSIG=@CAELT@
ZPX0424 141557@CAELT@GG SLZZYMYT@CAELT@141557 SLVRYGYS@CAELT@SABO SLVR 141600@CAELT@METAR SLVR 141600Z 33020G30KT 9999 FEW013 SCT015 BKN200 32/22 Q1008@CAELT@A2979 HR57 NOSIG=@CAELT@METAR SLET 141600Z 32018G28KT 9999 BKN020 31/22 Q1007 A2976 HR59@CAELT@NOSIG=@CAELT@METAR SLAS 141600Z 34018KT 9999 FEW020 34/22 Q1011 A2986 HR51 RWY NMLMETAR SLCP 141600Z 33008KT 9999 BKN020 31/21 Q1013 A2991 HR57 RWY NMLMETAR SLSI 141600Z 36008KT 9999 SCT017 34/22 Q1010 A2983 HR47 RWY NMLMETAR SLRB 141600Z 36015KT 9999 FEW020 34/21 Q1010 A2983 HR47 RWY NMLMETAR SLCA 141600Z 36004KT 9999 NSC 34/17 Q1007 A2974 HR38 RWY NML=
ZPX0425 141557@CAELT@GG SLZZYMYT@CAELT@141556 SLRQYSYX@CAELT@SABO SLRQ 141600@CAELT@METAR SLRQ 141600Z 36004KT 9999 BKN015 34/25 Q1009 A2980 985.1 HR61@CAELT@
ZPX0429 141600@CAELT@GG SLZZYMYT@CAELT@141600 SLLPYFYA@CAELT@SABO SLLP 141600@CAELT@METAR SLLP 141600Z 12009KT 070V170 9999 FEW020 BKN200 17/M13 Q1037@CAELT@A3062 627.2 HR12 P3483 FU NOSIG=@CAELT@METAR SLCO 141600Z 33010KT 9999 FEW023 BKN200 33/25 Q1011 A2986@CAELT@983.8 HR63 AC=@CAELT@METAR SLRY 141600Z 36010KT 9999 FEW016 BKN200 32/23 Q1009 A2981HR60 RWY NML=METAR SLRQ 141600Z 36004KT 9999 BKN015 34/25 Q1009 A2980 985.1HR61 CI=METAR SLAP 141600Z 00000KT 9999 FEW025 SCT070 27/20 Q1016 A3002857.3 HR65=METAR SLSB 141600Z 31015KT 9999 SCT020 BKN080 31/24 Q1009 A2981HR67 FU RWY NML=
ZPX0431 141602@CAELT@GG SLZZYMYT@CAELT@141558 SLTRYGYS@CAELT@SABO SLTR 141600@CAELT@METAR SLTR 141600Z 33016KT 9999 SCT020 BKN200 32/24 Q1009 A2982@CAELT@991.3 HR65 NOSIG=@CAELT@METAR SLGM 141600Z 36010KT 9999 FEW017 BKN080 31/23 Q1011 A2985 HR64=@CAELT@METAR SLRI 141600Z 03005KT 9999 FEW020 BKN200 31/23 Q1011 A2987 HR60@CAELT@METAR SLJO 141600Z 34010KT 9999 FEW015 BKN200 33/24 Q1009 A2982 HR58RWY NML=METAR SLRA 141600Z 36007KT 9999 FEW020 BKN200 34/23 Q110 A2983 HR53METAR SLMG 141600Z 34010KT 9999 FEW017 BKN200 33/23 Q1010 A2985 HR85METAR SLBU 141600Z NIL=METAR SLSA 141600Z 34010KT 9999 FEW017 BKN200 31/23 Q1010 A2983 HR61=METAR SLSR 141600Z 12015G25KT 8000 SCT017 FEW023CB BKN200 30/24Q1008 A2979 HR68 FU CB SW RWY NML=METAR SLSM 141600Z 33010KT 9999 SCT017 31/24 Q1009 A2981 HR67
ZPX0450 141651@CAELT@GG SLZZYMYT@CAELT@141650 SLCAYGYS@CAELT@SABO SLCA 141700@CAELT@METAR SLCA 141700Z 36005KT 9999 NSC 36/16 Q1006 A2971 HR31 RWY NML=@CAELT@
ZPX0451 141653@CAELT@GG SLZZYMYT@CAELT@141653 SLETYMYC@CAELT@SABO SLET 141700@CAELT@METAR SLET 141700Z 33025G35KT 9999 BKN020 31/22 Q1006 A2973 HR59@CAELT@NOSIG=@CAELT@
ZPX0452 141654@CAELT@GG SLZZYMYT@CAELT@141654 SLSAYGYS@CAELT@SABO SLSA 141700@CAELT@METAR SLSA 141700Z 32010KT 9999 BKN017 BKN200 32/23 Q1009 A2980 HR58=@CAELT@
ZPX0453 141654@CAELT@GG SLZZYMYT@CAELT@141653 SLRBYGYS@CAELT@SABO SLRB 141700@CAELT@METAR SLRB 141700Z 36015KT 9999 SCT020 35/21 Q1008 A2977 HR45 RWY NML=@CAELT@
ZPX0454 141654@CAELT@GG SLZZYMYT@CAELT@141655 SLVRYGYZ@CAELT@SABO SLVR 141700@CAELT@METAR SLVR 141700Z 34019G29KT 9999 SCT015 BKN017 BKN200 33/23 Q1007@CAELT@A2976 HR57 NOSIG=@CAELT@
ZPX0455 141655@CAELT@GG SLZZYMYT@CAELT@141655 SLCOYGYZ@CAELT@SABO SLCO 141700@CAELT@METAR SLCO 141700Z 32010KT 9999 SCT025 BKN200 34/26 Q1010 A2983 982.9@CAELT@HR61 AC=@CAELT@
ZPX0456 141655@CAELT@GG SLZZYMYT@CAELT@141655 SLSBYSYX@CAELT@SABO SLSB 141700@CAELT@METAR SLSB 141700Z 33012KT 9999 SCT020 BKN200 32/24 Q1008 A2977 HR63@CAELT@FU RWY NML=@CAELT@
ZPX0457 141655@CAELT@GG SLZZYMYT@CAELT@141655 SLRQYSYX@CAELT@SABO SLRQ 141700@CAELT@METAR SLRQ 141700Z 36004KT 9999 BKN017 34/26 Q1007 A2976 983.7 HR63@CAELT@
ZPX0458 141656@CAELT@GG SLZZYMYT@CAELT@141655 SLLPYFYA@CAELT@SABO SLRY 141700@CAELT@METAR SLRY 141700Z 32015KT 9999 FEW017 BKN200 33/22 Q1008 A2977@CAELT@HR53 RWY NML=@CAELT@
ZPX0460 141656@CAELT@GG SLZZYMYT@CAELT@141655 SLLPYGYZ@CAELT@SABO SLLP 141700@CAELT@METAR SLLP 141700Z 15011G21KT 100V190 9999 FEW023 FEW025CB BKN200@CAELT@18/M16 Q1036 A3060 626.7 HR09 P3784 CB N/SE FU NOSIG=@CAELT@
ZPX0461 141656@CAELT@GG SLZZYMYT@CAELT@141656 SLTRYGYZ@CAELT@SABO SLTR 141700@CAELT@METAR SLTR 141700Z 32010KT 9999 FEW020 BKN200 33/25 Q1008 A2978@CAELT@990.0 HR63 NOSIG=@CAELT@
ZPX0462 141656@CAELT@GG SLZZYMYT@CAELT@141656 SLVRYGYS@CAELT@SABO SLVR 141700@CAELT@METAR SLVR 141700Z 34019G29KT 9999 SCT015 BKN017 BKN200 33/23 Q1007@CAELT@A2976 HR57 NOSIG=@CAELT@METAR SLET 141700Z 33025G35KT 9999 BKN020 31/22 Q1006 A2973 HR59@CAELT@NOSIG=@CAELT@METAR SLAS 141700Z 34016KT 9999 FEW020 35/22 Q1010 A2983 HR49 RWY NMLMETAR SLCP 141700Z 33008KT 9999 BKN020 32/22 Q1012 A2988 HR56 RWY NMLMETAR SLSI 141700Z 33010KT 9999 SCT017 35/22 Q1008 A2977 HR47 RWY NMLMETAR SLRB 141700Z 36015KT 9999 SCT020 35/21 Q1008 A2977 HR45 RWY NMLMETAR SLCA 141700Z 36005KT 9999 NSC 36/16 Q1006 A2971 HR31 RWY NML=
ZPX0463 141657@CAELT@GG SLZZYMYT@CAELT@141657 SLCBYGYZ@CAELT@SABO SLCB 141700@CAELT@METAR SLCB 141700Z 34007KT 9999 FEW040 BKN200 30/01 Q1018 A3009 746.6@CAELT@HR14 FU NOSIG=@CAELT@
ZPX0464 141657@CAELT@GG SLZZYMYT@CAELT@141657 SLLPYFYA@CAELT@SABO SLLP 141700@CAELT@METAR SLLP 141700Z 15011G21KT 100V190 9999 FEW023 FEW025CB BKN200@CAELT@18/M16 Q1036 A3060 626.7 HR09 P3784 CB N/SE FU NOSIG=@CAELT@METAR SLCO 141700Z 32010KT 9999 SCT025 BKN200 34/26 Q1010 A2983@CAELT@982.9 HR61 AC=@CAELT@METAR SLRY 141700Z 32015KT 9999 FEW017 BKN200 33/22 Q1008 A2977HR53 RWY NML=METAR SLRQ 141700Z 36004KT 9999 BKN017 34/26 Q1007 A2976 983.7HR63 CI=METAR SLAP 141700Z 00000KT 9999 FEW025 SCT070 29/19 Q1015 A2998856.3 HR56=METAR SLSB 141700Z 33012KT 9999 SCT020 BKN200 32/24 Q1008 A2977HR63 FU RWY NML=
ZPX0465 141658@CAELT@GG SLZZYMYT@CAELT@141657 SLTRYGYS@CAELT@SABO SLTR 141700@CAELT@METAR SLTR 141700Z 32010KT 9999 FEW020 BKN200 33/25 Q1008 A2978@CAELT@990.0 HR63 NOSIG=@CAELT@METAR SLGM 141700Z 36010KT 9999 SCT017 SCT080 32/24 Q1010 A2982@CAELT@HR63=@CAELT@METAR SLRI 141700Z 36007KT 9999 FEW020 BKN200 33/22 Q1010 A2984 HR54=METAR SLJO 141700Z 34012KT 9999 FEW017 BKN200 34/24 Q1009 A2980HR56 RWY NML=METAR SLRA 141700Z 33010KT 9999 FEW020 FEW023CB BKN200 34/22Q1009 A2982 HR49 CB SE RWY NML=METAR SLMG 141700Z 32010KT 9999 SCT017 BKN200 34/23 Q1009 A2982HR53 RWY NML=METAR SLBU 141700Z NIL=METAR SLSA 141700Z 32010KT 9999 BKN017 BKN200 32/23 Q1009 A2980 HR58=METAR SLSR 141700Z 32015G25KT 8000 FEW017 FEW023CB BKN200 31/24Q1008 A2977 HR67 FU CB SW RWY NML=METAR SLSM 141700Z 33012KT 9999 SCT017 32/25 Q1008 A2978 HR67RWY NML=
ZPX0469 141701@CAELT@GG SLZZYMYT@CAELT@141700 SLCBYGYS@CAELT@SABO SLCB 141700@CAELT@METAR SLCB 141700Z 34007KT 9999 FEW040 BKN200 30/01 Q1018 A3009 746.6@CAELT@HR14 FU NOSIG=@CAELT@METAR SLAL 141700Z NIL=@CAELT@METAR SLPO 141700Z NIL=@CAELT@METAR SLAG 141700Z NIL=METAR SLVM 141700Z NIL=METAR SLTJ 141700Z NIL=METAR SLYA 141700Z NIL=METAR SLBJ 141700Z NIL=METAR SLHI 141700Z NIL=
ZPX0498 141753@CAELT@GG SLZZYMYT@CAELT@141752 SLETYMYC@CAELT@SABO SLET 141800@CAELT@METAR SLET 141800Z 33025G35KT 9999 SCT020 32/21 Q1005 A2970 HR54@CAELT@NOSIG=@CAELT@
ZPX0501 141755@CAELT@GG SLZZYMYT@CAELT@141755 SLSBYSYX@CAELT@SABO SLSB 141800@CAELT@METAR SLSB 141800Z 35006KT 9999 SCT020 BKN200 33/24 Q1006 A2971 HR62@CAELT@RWY NML=@CAELT@
ZPX0502 141755@CAELT@GG SLZZYMYT@CAELT@141754 SLSAYGYS@CAELT@SABO SLSA 141800@CAELT@METAR SLSA 141800Z 31010KT 9999 SCT017 BKN200 32/23 Q1007 A2974 HR59=@CAELT@
ZPX0503 141755@CAELT@GG SLZZYMYT@CAELT@141755 SLLPYFYA@CAELT@SABO SLRY 141800@CAELT@METAR SLRY 141800Z 32014KT 9999 FEW017 BKN200 34/22 Q1007 A2974@CAELT@HR50 RWY NML=@CAELT@
ZPX0504 141755@CAELT@GG SLZZYMYT@CAELT@141756 SLVRYGYZ@CAELT@SABO SLVR 141800@CAELT@METAR SLVR 141800Z 33016G26KT 9999 FEW015 SCT017 33/23 Q1006 A2973@CAELT@HR56 CI NOSIG=@CAELT@
ZPX0505 141755@CAELT@GG SLZZYMYT@CAELT@141755 SLRQYSYX@CAELT@SABO SLRQ 141800@CAELT@METAR SLRQ 141800Z 36008KT 9999 FEW017 BKN200 34/23 Q1006 A2972@CAELT@HR51=@CAELT@
ZPX0506 141756@CAELT@GG SLZZYMYT@CAELT@141755 SLLPYGYZ@CAELT@SABO SLLP 141800@CAELT@METAR SLLP 141800Z 11010G21KT 070V180 9999 FEW023 FEW025CB BKN200@CAELT@20/M14 Q1034 A3055 625.7 HR09 P6487 CB NE/SE FU NOSIG=@CAELT@
ZPX0507 141757@CAELT@GG SLZZYMYT@CAELT@141757 SLTRYGYZ@CAELT@SABO SLTR 141800@CAELT@METAR SLTR 141800Z 33012KT 9999 FEW020 BKN200 33/25 Q1007 A2974@CAELT@988.8 HR63 NOSIG=@CAELT@
ZPX0508 141757@CAELT@GG SLZZYMYT@CAELT@141757 SLRBYGYS@CAELT@SABO SLRB 141800@CAELT@METAR SLRB 141800Z 36015KT 9999 SCT020 36/21 Q1007 A2974 HR41 RWY NML=@CAELT@
ZPX0509 141758@CAELT@GG SLZZYMYT@CAELT@141758 SLCAYGYS@CAELT@SABO SLCA 141800@CAELT@METAR SLCA 141800Z 36006KT 9999 NSC 37/16 Q1004 A2965 HR31 RWY NML=@CAELT@
ZPX0511 141759@CAELT@GG SLZZYMYT@CAELT@141758 SLTRYGYS@CAELT@SABO SLTR 141800@CAELT@METAR SLTR 141800Z 33012KT 9999 FEW020 BKN200 33/25 Q1007 A2974@CAELT@988.8 HR63 NOSIG=@CAELT@METAR SLGM 141800Z NIL=@CAELT@METAR SLRI 141800Z 06005KT 9999 FEW020 BKN200 34/23 Q1009 A2980 HR52@CAELT@METAR SLJO 141800Z NIL=METAR SLRA 141800Z 32012KT 9999 FEW020 FEW023CB BKN200 35/22 Q1008A2977 HR47 CB SE RWY NML=METAR SLMG 141800Z 32010KT 9999 SCT017 BKN200 34/23 Q1009 A2980 HR52RWY NML=METAR SLBU 141800Z NIL=METAR SLSA 141800Z 31010KT 9999 SCT017 BKN200 32/23 Q1007 A2974 HR59=METAR SLSR 141800Z 32015G25KT 8000 FEW017 FEW023CB BKN200 32/24Q1006 A2973 HR63 FU CB NE RWY NML=METAR SLSM 141800Z 33012KT 9999 FEW017 FEW020CB BKN200 31/25Q1007 A2975 HR69 CB N RWY NML=
ZPX0512 141759@CAELT@GG SLZZYMYT@CAELT@141758 SLCBYGYZ@CAELT@SABO SLCB 141800@CAELT@METAR SLCB 141800Z 04009KT 9999 FEW040 FEW043TCU BKN200 31/M04 Q1017@CAELT@A3004 745.4 HR10 TCU/N FU NOSIG=@CAELT@
ZPX0513 141800@CAELT@GG SLZZYMYT@CAELT@141800 SLVRYGYS@CAELT@SABO SLVR 141800@CAELT@METAR SLVR 141800Z 33016G26KT 9999 FEW015 SCT017 33/23 Q1006 A2973@CAELT@HR56 CI NOSIG=@CAELT@METAR SLET 141800Z 33025G35KT 9999 SCT020 32/21 Q1005 A2970 HR54@CAELT@NOSIG=@CAELT@METAR SLAS 141800Z 34916KT 9999 SCT020 35/22 Q1008 A2877 HR48 RWY NMLMETAR SLJV 141800Z 34010KT 9999 SCT020 34/22 Q1008 A2977 HR50 RWY NMLMETAR SLCP 141800Z 33005KT 9999 BKN020 32/21 Q1011 A2985 HR54 RWY NMLMETAR SLSI 141800Z 33008KT 9999 SCT017 36/21 Q1006 A2971 HR43 RWY NMLMETAR SLTI 141800Z 36010KT 9999 SCT020 37/20 Q1009 A2980 HR37 RWY NMLMETAR SLJE 141800Z 35012KT 9999 SCT020 40/23 Q1008 A2977 HR30 RWY NMLMETAR SLVG 141800Z 36009KT 9999 FEW027 27/15 Q1018 A3006 HR44 RWY NMLMETAR SLRB 141800Z 36015KT 9999 SCT020 36/21 Q1007 A2974 HR41 RWY NMLMETAR SLCA 141800Z 36006KT 9999 NSC 37/16 Q1004 A2965 HR31 RWY NML=
ZPX0515 141800@CAELT@GG SLZZYMYT@CAELT@141800 SLCBYGYS@CAELT@SABO SLCB 141800@CAELT@METAR SLCB 141800Z 04009KT 9999 FEW040 FEW043TCU BKN200 31/M04 Q1017@CAELT@A3004 745.4 HR10 TCU/N FU NOSIG=@CAELT@METAR SLAL 141800Z NIL=@CAELT@METAR SLPO 141800Z NIL=@CAELT@METAR SLAG 141800Z NIL=METAR SLVM 141800Z NIL=METAR SLTJ 141800Z NIL=METAR SLYA 141800Z NIL=METAR SLBJ 141800Z NIL=METAR SLHI 141800Z NIL=
ZPX0516 141802@CAELT@GG SLZZYMYT@CAELT@141801 SLLPYFYA@CAELT@SABO SLLP 141800@CAELT@METAR SLLP 141800Z 11010G21KT 070V180 9999 FEW023 FEW025CB BKN200@CAELT@20/M14 Q1034 A3055 625.7 HR09 P6487 CB NE/SE FU NOSIG=@CAELT@METAR SLRY 141800Z 32014KT 9999 FEW017 BKN200 34/22 Q1007 A2974@CAELT@HR50 RWY NML=@CAELT@METAR SLRQ 141800Z 36008KT 9999 FEW017 BKN200 34/23 Q1006 A2972HR51=METAR SLAP 141800Z 00000KT 9999 FEW025 SCT070 30/19 Q1014 A2997855.8 HR51=METAR SLSB 141800Z 35006KT 9999 SCT020 BKN200 33/24 Q1006 A2971HR62 RWY NML=
ZPX0534 141852@CAELT@GG SLZZYMYT@CAELT@141852 SLETYMYC@CAELT@SABO SLET 141900@CAELT@METAR SLET 141900Z 32025G40KT 9999 SCT020 32/21 Q1004 A2967 HR54@CAELT@NOSIG=@CAELT@
ZPX0535 141854@CAELT@GG SLZZYMYT@CAELT@141854 SLCBYGYZ@CAELT@SABO SLCB 141900@CAELT@METAR SLCB 141900Z 10009KT 9999 FEW040 FEW043CB SCT200 32/M03 Q1015@CAELT@A3000 744.2 HR10 CB/N FU NOSIG=@CAELT@
ZPX0536 141854@CAELT@GG SLZZYMYT@CAELT@141855 SLSBYSYX@CAELT@SABO SLSB 141900@CAELT@METAR SLSB 141900Z 32010G20KT 9999 SCT020 34/24 Q1005 A2969 HR58 RWY@CAELT@NML=@CAELT@
ZPX0537 141854@CAELT@GG SLZZYMYT@CAELT@141851 SLRBYGYS@CAELT@SABO SLRB 141900@CAELT@METAR SLRB 141900Z 36015KT 9999 SCT020 36/21 Q1006 A2970 HR41 RWY NML=@CAELT@
ZPX0538 141854@CAELT@GG SLZZYMYT@CAELT@141854 SLSAYGYS@CAELT@SABO SLSA 141900@CAELT@METAR SLSA 141900Z 32010KT 9999 SCT017 BKN200 32/23 Q1006 A2971 HR58=@CAELT@
ZPX0539 141854@CAELT@GG SLZZYMYT@CAELT@141854 SLSAYGYS@CAELT@SABO SLSA 141900@CAELT@METAR SLSA 141900Z 32010KT 9999 SCT017 BKN200 32/23 Q1006 A2971 HR58=@CAELT@
ZPX0540 141855@CAELT@GG SLZZYMYT@CAELT@141855 SLRQYSYX@CAELT@SABO SLRQ 141900@CAELT@METAR SLRQ 141900Z 36008KT 9999 FEW017 BKN200 33/26 Q1005 A2969 HR65=@CAELT@
ZPX0541 141855@CAELT@GG SLZZYMYT@CAELT@141855 SLLPYFYA@CAELT@SABO SLRY 141900@CAELT@METAR SLRY 141900Z 32012KT 9999 FEW017 BKN200 33/22 Q1005 A2970@CAELT@HR53 RWY NML=@CAELT@
ZPX0542 141856@CAELT@GG SLZZYMYT@CAELT@141856 SLVRYGYZ@CAELT@SABO SLVR 141900@CAELT@METAR SLVR 141900Z 34018G28KT 9999 FEW015 SCT017 32/23 Q1005 A2970@CAELT@HR57 CI NOSIG=@CAELT@
ZPX0543 141856@CAELT@GG SLZZYMYT@CAELT@141856 SLTRYGYZ@CAELT@SABO SLTR 141900@CAELT@METAR SLTR 141900Z 32014KT 9999 FEW020 BKN200 34/24 Q1006 A2971@CAELT@987.6 HR59 NOSIG=@CAELT@
ZPX0544 141856@CAELT@GG SLZZYMYT@CAELT@141855 SLLPYGYZ@CAELT@SABO SLLP 141900@CAELT@METAR SLLP 141900Z 13009G19KT 9999 FEW023 FEW025CB BKN200 20/M15@CAELT@Q1033 A3052 625.0 HR08 P2487 CB N/E/SE AC NOSIG=@CAELT@
ZPX0545 141858@CAELT@GG SLZZYMYT@CAELT@141857 SLTRYGYS@CAELT@SABO SLTR 141900@CAELT@METAR SLTR 141900Z 32014KT 9999 FEW020 BKN200 34/24 Q1006 A2971@CAELT@987.6 HR59 NOSIG=@CAELT@METAR SLRI 141900Z 06008KT 9999 SCT020 FEW023CB BKN200 35/23 Q1007@CAELT@A2978 HR50 CB NE/SE AC=@CAELT@METAR SLGM 141900Z NIL=METAR SLJO 141900Z NIL=METAR SLRA 141900Z 34012KT 9999 FEW020 BKN200 35/22 Q1006 A2973 HR45RWY NML=METAR SLMG 141900Z 32010KT 9999 FEW017 BKN200 34/23 Q1007 A2976 HR51METAR SLBU 141900Z NIL=METAR SLSA 141900Z 32010KT 9999 SCT017 BKN200 32/23 Q1006 A2971 HR58=METAR SLSR 141900Z 32015G25KT 8000 FEW017 FEW023CB BKN200 33/23Q1005 A2968 HR57 FU CB N RWY NML=METAR SLSM 141900Z 33010KT 9999 SCT017 BKN200 31/25 Q1006 A2971HR69 RWY NML=
ZPX0546 141858@CAELT@GG SLZZYMYT@CAELT@141858 SLCBYGYS@CAELT@SABO SLCB 141900@CAELT@METAR SLCB 141900Z 10009KT 9999 FEW040 FEW043CB SCT200 32/M03 Q1015@CAELT@A3000 744.2 HR10 CB/N FU NOSIG=@CAELT@METAR SLAL 141900Z NIL=@CAELT@METAR SLPO 141900Z NIL=@CAELT@METAR SLAG 141900Z NIL=METAR SLVM 141900Z NIL=METAR SLTJ 141900Z NIL=METAR SLYA 141900Z NIL=METAR SLBJ 141900Z NIL=METAR SLHI 141900Z NIL=
ZPX0547 141900@CAELT@GG SLZZYMYT@CAELT@141859 SLLPYFYA@CAELT@SABO SLLP 141900@CAELT@METAR SLLP 141900Z 13009G19KT 9999 FEW023 FEW025CB BKN200 20/M15@CAELT@Q1033 A3052 625.0 HR08 P2487 CB N/E/SE AC NOSIG=@CAELT@METAR SLRY 141900Z 32012KT 9999 FEW017 BKN200 33/22 Q1005 A2970@CAELT@HR53 RWY NML=@CAELT@METAR SLRQ 141900Z 36008KT 9999 FEW017 BKN200 33/26 Q1005 A2969HR65=METAR SLSB 141900Z 32010G20KT 9999 SCT020 34/24 Q1005 A2969 HR58RWY NML=
ZPX0548 141901@CAELT@GG SLZZYMYT@CAELT@141901 SLVRYGYS@CAELT@SABO SLVR 141900@CAELT@METAR SLVR 141900Z 34018G28KT 9999 FEW015 SCT017 32/23 Q1005 A2970@CAELT@HR57 CI NOSIG=@CAELT@METAR SLET 141900Z 32025G40KT 9999 SCT020 32/21 Q1004 A2967 HR54@CAELT@NOSIG=@CAELT@METAR SLAS 141900Z 34015KT 9999 SCT020 35/22 Q1007 A2974 HR47 RWY NMLMETAR SLJV 141900Z 34010KT 9999 SCT020 34/22 Q1006 A2971 HR49 RWY NMLMETAR SLCP 141900Z 33005KT 9999 BKN020 32/22 Q1009 A2980 HR54 RWY NMLMETAR SLSI 141900Z 33010KT 9999 SCT017 36/21 Q1006 A2971 HR42 RWY NMLMETAR SLTI 141900Z 36015KT 9999 SCT020 39/20 Q1007 A2974 HR33 RWY NMLMETAR SLJE 141900Z 36012KT 9999 SCT020 41/22 Q1007 A2974 HR35 RWY NMLMETAR SLVG 141900Z 02013KT 9999 FEW027 27/15 Q1017 A3003 HR44 RWY NMLMETAR SLRB 141900Z 36015KT 9999 SCT020 36/21 Q1006 A2970 HR41 RWY NMLMETAR SLCA 141900Z NIL=
ZPX0550 141904@CAELT@GG SLZZYMYT@CAELT@141904 SLVRYGYS@CAELT@SABO SLVR 141900 RRA@CAELT@METAR SLVR 141900Z 34018G28KT 9999 FEW015 SCT017 32/23 Q1005 A2970@CAELT@HR57 CI NOSIG=@CAELT@METAR SLET 141900Z 32025G40KT 9999 SCT020 32/21 Q1004 A2967 HR54@CAELT@NOSIG=@CAELT@METAR SLAS 141900Z 34015KT 9999 SCT020 35/22 Q1007 A2974 HR47 RWY NMLMETAR SLJV 141900Z 34010KT 9999 SCT020 34/22 Q1006 A2971 HR49 RWY NMLMETAR SLCP 141900Z 33005KT 9999 BKN020 32/22 Q1009 A2980 HR54 RWY NMLMETAR SLSI 141900Z 33010KT 9999 SCT017 36/21 Q1006 A2971 HR42 RWY NMLMETAR SLTI 141900Z 36015KT 9999 SCT020 39/20 Q1007 A2974 HR33 RWY NMLMETAR SLJE 141900Z 36012KT 9999 SCT020 41/22 Q1007 A2974 HR35 RWY NMLMETAR SLVG 141900Z 02013KT 9999 FEW027 27/15 Q1017 A3003 HR44 RWY NMLMETAR SLRB 141900Z 36015KT 9999 SCT020 36/21 Q1006 A2970 HR41 RWY NMLMETAR RTD SLCA 141900Z 36004KT 9999 FEW070 37/16 Q1002 A2952 HR28 RWYNML=
ZPX0573 141953@CAELT@GG SLZZYMYT@CAELT@141951 SLETYMYC@CAELT@SABO SLET 142000@CAELT@METAR SLET 142000Z 32025G42KT 9999 SCT020 32/21 Q1003 A2963 HR54@CAELT@NOSIG=@CAELT@
ZPX0574 141954@CAELT@GG SLZZYMYT@CAELT@141954 SLLPYFYA@CAELT@SABO SLRY 142000@CAELT@METAR SLRY 142000Z 34010KT 9999 FEW020 BKN200 33/23 Q1005 A2969@CAELT@HR55 RWY NML=@CAELT@
ZPX0575 141954@CAELT@GG SLZZYMYT@CAELT@141955 SLVRYGYZ@CAELT@SABO SLVR 142000@CAELT@METAR SLVR 142000Z 33016G26KT 9999 FEW017 SCT200 32/23 Q1004 A2966@CAELT@HR58 NOSIG=@CAELT@
ZPX0576 141955@CAELT@GG SLZZYMYT@CAELT@141955 SLSAYGYS@CAELT@SABO SLSA 142000@CAELT@METAR SLSA 142000Z 32012KT 9999 SCT017 BKN200 33/24 Q1006 A2971 HR59=@CAELT@
ZPX0577 141955@CAELT@GG SLZZYMYT@CAELT@141955 SLSAYGYS@CAELT@SABO SLSA 142000@CAELT@METAR SLSA 142000Z 32012KT 9999 SCT017 BKN200 33/24 Q1006 A2971 HR59=@CAELT@
ZPX0578 141955@CAELT@GG SLZZYMYT@CAELT@141955 SLSBYSYX@CAELT@SABO SLSB 142000@CAELT@METAR SLSB 142000Z 33010KT 9999 FEW020 BKN200 34/23 Q1004 A2967 HR54@CAELT@RWY NML=@CAELT@
ZPX0580 141956@CAELT@GG SLZZYMYT@CAELT@141955 SLLPYGYZ@CAELT@SABO SLLP 142000@CAELT@METAR SLLP 142000Z 14009G19KT 100V190 9999 SCT023 FEW025CB BKN200@CAELT@19/M15 Q1032 A3050 624.5 HR09 P3784 CB N/SE/W AC NOSIG=@CAELT@
ZPX0581 141956@CAELT@GG SLZZYMYT@CAELT@141956 SLTRYGYZ@CAELT@SABO SLTR 142000@CAELT@METAR SLTR 142000Z 30014KT 9999 FEW020 BKN200 33/24 Q1005 A2969@CAELT@986.9 HR62 NOSIG=@CAELT@
ZPX0582 141956@CAELT@GG SLZZYMYT@CAELT@141956 SLRQYSYX@CAELT@SABO SLRQ 142000@CAELT@METAR SLRQ 142000Z 36004KT 9999 FEW017 BKN200 32/27 Q1004 A2967 HR71=@CAELT@
ZPX0583 141956@CAELT@GG SLZZYMYT@CAELT@141956 SLRBYGYS@CAELT@SABO SLRB 142000@CAELT@METAR SLRB 142000Z 36015KT 9999 SCT020 37/21 Q1005 A2967 HR40 RWY NML=@CAELT@
ZPX0585 141957@CAELT@GG SLZZYMYT@CAELT@141956 SLCAYGYS@CAELT@SABO SLCA 142000@CAELT@METAR SLCA 142000Z 36006KT 9999 FEW070 38/18 Q1002 A2959 HR32 RWY NML@CAELT@
ZPX0586 141957@CAELT@GG SLZZYMYT@CAELT@141957 SLTRYGYS@CAELT@SABO SLTR 142000@CAELT@METAR SLTR 142000Z 30014KT 9999 FEW020 BKN200 33/24 Q1005 A2969@CAELT@986.9 HR62 NOSIG=@CAELT@METAR SLGM 142000Z NIL=@CAELT@METAR SLRI 142000Z 36010KT 8000 VCSH SCT020 FEW023CB BKN200 33/23@CAELT@Q1007 A2974 HR56 CB N/E/W/NW SH/W AC=METAR SLJO 142000Z NIL=METAR SLRA 142000Z 35008KT 9999 FEW020 BKN200 35/22 Q1006 A2971HR46 RWY NML=METAR SLMG 142000Z 32008KT 9999 SCT017 BKN200 34/22 Q1006 A2973HR49 RWY NML=METAR SLBU 142000Z NIL=METAR SLSA 142000Z 32012KT 9999 SCT017 BKN200 33/24 Q1006 A2971 HR59=METAR SLSR 142000Z 32015G25KT 9999 FEW017 BKN200 33/23 Q1004A2966 HR56 RWY NML=METAR SLSM 142000Z 33010KT 9999 SCT017 32/25 Q1005 A2969 HR65RWY NML=
ZPX0587 141957@CAELT@GG SLZZYMYT@CAELT@141957 SLVRYGYS@CAELT@SABO SLVR 142000@CAELT@METAR SLVR 142000Z 33016G26KT 9999 FEW017 SCT200 32/23 Q1004 A2966@CAELT@HR58 NOSIG=@CAELT@METAR SLET 142000Z 32025G42KT 9999 SCT020 32/21 Q1003 A2963 HR54@CAELT@NOSIG=@CAELT@METAR SLAS 142000Z 34015KT 9999 FEW020 35/22 Q1006 A2971 HR46 RWY NMLMETAR SLJV 142000Z 34008KT 9999 FEW020 33/22 Q1005 A2968 HR52 RWY NMLMETAR SLCP 142000Z 30005KT 9999 BKN020 32/21 Q1008 A2977 HR52 RWY NMLMETAR SLSI 142000Z 36006KT 9999 SCT017 36/20 Q1005 A2968 HR40 RWY NMLMETAR SLTI 142000Z 36014KT 9999 FEW020 39/20 Q1007 A2974 HR33 RWY NMLMETAR SLJE 142000Z 36012KT 9999 SCT020 40/22 Q1005 A2968 HR36 RWY NMLMETAR SLVG 142000Z 36010KT 9999 FEW027 FEW030CB BKN200 25/15 Q1016A3000 HR50 CB/SW RWY NML=METAR SLRB 142000Z 36015KT 9999 SCT020 37/21 Q1005 A2967 HR40 RWY NMLMETAR SLCA 142000Z 36006KT 9999 FEW070 38/18 Q1002 A2959 HR32 RWY NML
ZPX0588 141958@CAELT@GG SLZZYMYT@CAELT@141958 SLCBYGYZ@CAELT@SABO SLCB 142000@CAELT@METAR SLCB 142000Z 03010G22KT 9999 FEW040 FEW043CB SCT200 31/00 Q1014@CAELT@A2997 743.5 HR14 CB NW/N AC FU NOSIG=@CAELT@
ZPX0590 142000@CAELT@GG SLZZYMYT@CAELT@141959 SLCBYGYS@CAELT@SABO SLCB 142000@CAELT@METAR SLCB 142000Z 03010G22KT 9999 FEW040 FEW043CB SCT200 31/00 Q1014@CAELT@A2997 743.5 HR14 CB NW/N AC FU NOSIG=@CAELT@METAR SLAL 142000Z NIL=@CAELT@METAR SLPO 142000Z NIL=@CAELT@METAR SLAG 142000Z NIL=METAR SLVM 142000Z NIL=METAR SLTJ 142000Z NIL=METAR SLYA 142000Z NIL=METAR SLBJ 142000Z NIL=METAR SLHI 142000Z NIL=
ZPX0591 142001@CAELT@GG SLZZYMYT@CAELT@142000 SLLPYFYA@CAELT@SABO SLLP 142000@CAELT@METAR SLLP 142000Z 14009G19KT 100V190 9999 SCT023 FEW025CB BKN200@CAELT@19/M15 Q1032 A3050 624.5 HR09 P3784 CB N/SE/W AC NOSIG=@CAELT@METAR SLRY 142000Z 34010KT 9999 FEW020 BKN200 33/23 Q1005 A2969@CAELT@HR55 RWY NML=@CAELT@METAR SLRQ 142000Z 36004KT 9999 FEW017 BKN200 32/27 Q1004 A2967HR71=METAR SLSB 142000Z 33010KT 9999 FEW020 BKN200 34/23 Q1004 A2967HR54 RWY NML=
ZPX0605 142035@CAELT@GG SLZZYMYT@CAELT@141956 SLTRYGYZ@CAELT@SABO SLTR 142000@CAELT@METAR SLTR 142000Z 30014KT 9999 FEW020 BKN200 33/24 Q1005 A2969@CAELT@986.9 HR62 NOSIG=@CAELT@
ZPX0611 142053@CAELT@GG SLZZYMYT@CAELT@142053 SLRBYGYS@CAELT@SABO SLRB 142100@CAELT@METAR SLRB 142100Z 36010KT 9999 FEW020 37/21 Q1005 A2967 HR40 RWY NML=@CAELT@
ZPX0612 142054@CAELT@GG SLZZYMYT@CAELT@142054 SLCAYGYS@CAELT@SABO SLCA 142100@CAELT@METAR SLCA 142100Z 36004KT 9999 BKN070 36/18 Q1002 A2959 HR35 RWY NML@CAELT@
ZPX0613 142055@CAELT@GG SLZZYMYT@CAELT@142054 SLSAYGYS@CAELT@SABO SLSA 142100@CAELT@METAR SLSA 142100Z 31010KT 9999 SCT017 BKN200 33/24 Q1005 A2968 HR59=@CAELT@
ZPX0614 142055@CAELT@GG SLZZYMYT@CAELT@142054 SLLPYFYA@CAELT@SABO SLRY 142100@CAELT@METAR SLRY 142100Z 36012KT 9999 FEW020 BKN200 33/23 Q1004 A2967@CAELT@HR55 RWY NML=@CAELT@
ZPX0615 142055@CAELT@GG SLZZYMYT@CAELT@142056 SLVRYGYZ@CAELT@SABO SLVR 142100@CAELT@METAR SLVR 142100Z 34016G26KT 9999 FEW017 SCT200 32/23 Q1004 A2965@CAELT@HR58 NOSIG=@CAELT@
ZPX0617 142055@CAELT@GG SLZZYMYT@CAELT@142055 SLRQYSYX@CAELT@SABO SLRQ 142100@CAELT@METAR SLRQ 142100Z 36006KT 9999 FEW017 BKN200 33/26 Q1004 A2965@CAELT@HR65=@CAELT@
ZPX0618 142055@CAELT@GG SLZZYMYT@CAELT@142055 SLSBYSYX@CAELT@SABO SLSB 142100@CAELT@METAR SLSB 142100Z 32012KT 9999 NSC 33/23 Q1004 A2966 HR56 RWY NML=@CAELT@
ZPX0619 142056@CAELT@GG SLZZYMYT@CAELT@142052 SLETYMYC@CAELT@SABO SLET 142100@CAELT@METAR SLET 142100Z 32020G30KT 9999 FEW020 SCT200 31/22 Q1002 A2961@CAELT@HR60 NOSIG=@CAELT@
ZPX0621 142056@CAELT@GG SLZZYMYT@CAELT@142055 SLLPYGYZ@CAELT@SABO SLLP 142100@CAELT@METAR SLLP 142100Z 07009G19KT 360V140 9999 SCT023 FEW025CB BKN200@CAELT@18/M06 Q1032 A3048 624.1 HR18 P94// CB/SH N/W/NW AC NOSIG=@CAELT@
ZPX0622 142057@CAELT@GG SLZZYMYT@CAELT@142057 SLTRYGYZ@CAELT@SABO SLTR 142100@CAELT@METAR SLTR 142100Z 31010KT 9999 FEW020 BKN200 32/25 Q1004 A2966@CAELT@986.0 HR64 NOSIG=@CAELT@
ZPX0623 142058@CAELT@GG SLZZYMYT@CAELT@142058 SLVRYGYS@CAELT@SABO SLVR 142100@CAELT@METAR SLVR 142100Z 34016G26KT 9999 FEW017 SCT200 32/23 Q1004 A2965@CAELT@HR58 NOSIG=@CAELT@METAR SLET 142100Z 32020G30KT 9999 FEW020 SCT200 31/22 Q1002 A2961@CAELT@HR60 NOSIG=@CAELT@METAR SLAS 142100Z 34015KT 9999 FEW020 34/22 Q1005 A2968 HR50 RWY NMLMETAR SLJV 142100Z 34005KT 9999 FEW020 SCT200 32/22 Q1004 A2965 HR56RWY NML=METAR SLCP 142100Z 27005KT 9999 SCT020 33/21 Q1008 A2977 HR50 RWY NMLMETAR SLSI 142100Z 33006KT 9999 SCT017 34/22 Q1004 A2965 HR45 RWY NMLMETAR SLTI 142100Z 36010KT 9999 NSC 39/21 Q1007 A2974 HR36 RWY NML=METAR SLJE 142100Z 36010KT 9999 FEW020 39/21 Q1005 A2967 HR37 RWY NMLMETAR SLVG 142100Z 36007KT 9999 NSC 23/15 Q1016 A3000 HR55 CI RWY NMLMETAR SLRB 142100Z 36010KT 9999 FEW020 37/21 Q1005 A2967 HR40 RWY NMLMETAR SLCA 142100Z 36004KT 9999 BKN070 36/18 Q1002 A2959 HR35 RWY NML
ZPX0624 142058@CAELT@GG SLZZYMYT@CAELT@142058 SLCBYGYZ@CAELT@SABO SLCB 142100@CAELT@METAR SLCB 142100Z 36014KT 9999 FEW040 FEW043CB SCT200 27/03 Q1015@CAELT@A2999 744.0 HR20 CB/N AC FU NOSIG=@CAELT@
ZPX0626 142059@CAELT@GG SLZZYMYT@CAELT@142059 SLCBYGYS@CAELT@SABO SLCB 142100@CAELT@METAR SLCB 142100Z 36014KT 9999 FEW040 FEW043CB SCT200 27/03 Q1015@CAELT@A2999 744.0 HR20 CB/N AC FU NOSIG=@CAELT@METAR SLAL 142100Z NIL=@CAELT@METAR SLPO 142100Z NIL=@CAELT@METAR SLAG 142100Z NIL=METAR SLVM 142100Z NIL=METAR SLTJ 142100Z NIL=METAR SLYA 142100Z NIL=METAR SLBJ 142100Z NIL=METAR SLHI 142100Z NIL=
ZPX0627 142059@CAELT@GG SLZZYMYT@CAELT@142059 SLLPYFYA@CAELT@SABO SLLP 142100@CAELT@METAR SLLP 142100Z 07009G19KT 360V140 9999 SCT023 FEW025CB BKN200@CAELT@18/M06 Q1032 A3048 624.1 HR18 P94// CB/SH N/W/NW AC NOSIG=@CAELT@METAR SLRY 142100Z 36012KT 9999 FEW020 BKN200 33/23 Q1004 A2967@CAELT@HR55 RWY NML=@CAELT@METAR SLRQ 142100Z 36006KT 9999 FEW017 BKN200 33/26 Q1004 A2965HR65=METAR SLSB 142100Z 32012KT 9999 NSC 33/23 Q1004 A2966 HR56RWY NML=
ZPX0630 142101@CAELT@GG SLZZYMYT@CAELT@142100 SLTRYGYS@CAELT@SABO SLTR 142100@CAELT@METAR SLTR 142100Z 31010KT 9999 FEW020 BKN200 32/25 Q1004 A2966@CAELT@986.0 HR64 NOSIG=@CAELT@METAR SLGM 142100Z NIL=@CAELT@METAR SLRI 142100Z 36005KT 8000 VCSH SCT017 FEW020CB BKN200 31/24@CAELT@Q1006 A2972 HR65 CB N/E/SE/W SH/W AC=METAR SLJO 142100Z NIL=METAR SLRA 142100Z 33308KT 9999 FEW020 BKN200 34/23 Q1005 A2970HR51 RWY NML=METAR SLMG 142100Z 34008KT 9999 FEW017 BKN200 34/21 Q1006 A2973HR46 RWY NML=METAR SLBU 142100Z NIL=METAR SLSA 142100Z 31010KT 9999 SCT017 BKN200 33/24 Q1005 A2968 HR59=METAR SLSR 142100Z 32012KT 9999 FEW017 BKN200 32/23 Q1003 A2964HR58 RWY NML=METAR SLSM 142100Z 33008KT 9999 FEW017 30/25 Q1004 A2965 HR73RWY NML=
ZPX0647 142154@CAELT@GG SLZZYMYT@CAELT@142153 SLETYMYC@CAELT@SABO SLET 142200@CAELT@METAR SLET 142200Z 32017G32KT 9999 FEW020 SCT200 30/22 Q1003 A2962@CAELT@HR63 NOSIG=@CAELT@
ZPX0648 142154@CAELT@GG SLZZYMYT@CAELT@142155 SLSBYSYX@CAELT@SABO SLSB 142200@CAELT@METAR SLSB 142200Z 34006KT 9999 NSC 32/23 Q1003 A2964 HR60 CI RWY NML=@CAELT@
ZPX0649 142154@CAELT@GG SLZZYMYT@CAELT@142154 SLLPYFYA@CAELT@SABO SLRY 142200@CAELT@METAR SLRY 142200Z 32005KT 9999 FEW020 BKN200 31/22 Q1004 A2967@CAELT@HR51 RWY NML=@CAELT@
ZPX0650 142155@CAELT@GG SLZZYMYT@CAELT@142156 SLVRYGYZ@CAELT@SABO SLVR 142200@CAELT@METAR SLVR 142200Z 33015G25KT 9999 FEW015 SCT200 31/23 Q1004 A2965@CAELT@HR62 NOSIG=@CAELT@
ZPX0651 142155@CAELT@GG SLZZYMYT@CAELT@142155 SLRQYSYX@CAELT@SABO SLRQ 142200@CAELT@METAR SLRQ 142200Z 00000KT 9999 FEW023 BKN200 30/25 Q1004 A2966@CAELT@HR75=@CAELT@
ZPX0652 142155@CAELT@GG SLZZYMYT@CAELT@142156 SLTRYGYZ@CAELT@SABO SLTR 142200@CAELT@METAR SLTR 142200Z 30008KT 9999 FEW020 BKN200 32/24 Q1004 A2966@CAELT@986.1 HR65 NOSIG=@CAELT@
ZPX0653 142156@CAELT@GG SLZZYMYT@CAELT@142155 SLSAYGYS@CAELT@SABO SLSA 142200@CAELT@METAR SLSA 142200Z 31007KT 9999 FEW017 BKN200 32/23 Q1004 A2967 HR61=@CAELT@
ZPX0654 142156@CAELT@GG SLZZYMYT@CAELT@142156 SLRBYGYS@CAELT@SABO SLRB 142200@CAELT@METAR SLRB 142200Z 00000KT 9999 NSC 35/21 Q1005 A2967 HR45 RWY NML=@CAELT@
ZPX0655 142156@CAELT@GG SLZZYMYT@CAELT@142155 SLLPYGYZ@CAELT@SABO SLLP 142200@CAELT@METAR SLLP 142200Z 04010KT 340V090 9999 FEW020 FEW023CB BKN200 15/M02@CAELT@Q1032 A3050 624.5 HR30 P7487 CB/N/SE/NW AC NOSIG=@CAELT@
ZPX0657 142157@CAELT@GG SLZZYMYT@CAELT@142157 SLCBYGYZ@CAELT@SABO SLCB 142200@CAELT@METAR SLCB 142200Z 01008KT 9999 FEW040 FEW043CB SCT200 26/03 Q1016@CAELT@A3001 744.5 HR22 CB/NW AC FU NOSIG=@CAELT@
ZPX0658 142158@CAELT@GG SLZZYMYT@CAELT@142158 SLLPYFYA@CAELT@SABO SLLP 142200@CAELT@METAR SLLP 142200Z 04010KT 340V090 9999 FEW020 FEW023CB BKN200 15/M02@CAELT@Q1032 A3050 624.5 HR30 P7487 CB/N/SE/NW AC NOSIG=@CAELT@METAR SLRY 142200Z 32005KT 9999 FEW020 BKN200 31/22 Q1004 A2967@CAELT@HR51 RWY NML=@CAELT@METAR SLRQ 142200Z 00000KT 9999 FEW023 BKN200 30/25 Q1004 A2966HR75=METAR SLSB 142200Z 34006KT 9999 NSC 32/23 Q1003 A2964 HR60 CIRWY NML=
ZPX0659 142159@CAELT@GG SLZZYMYT@CAELT@142159 SLVRYGYS@CAELT@SABO SLVR 142200@CAELT@METAR SLVR 142200Z 33015G25KT 9999 FEW015 SCT200 31/23 Q1004 A2965@CAELT@HR62 NOSIG=@CAELT@METAR SLET 142200Z 32017G32KT 9999 FEW020 SCT200 30/22 Q1003 A2962@CAELT@HR63 NOSIG=@CAELT@METAR SLAS 142200Z 34012KT 9999 NSC 33/22 Q1005 A2968 HR53 RWY NML=METAR SLJV 142200Z 00000KT 9999 NSC 30/22 Q1004 A2965 HR62 CI RWY NMLMETAR SLCP 142200Z 33005KT 9999 SCT020 32/20 Q1008 A2977 HR52 RWY NMLMETAR SLSI 142200Z 00000KT 9999 NSC 33/22 Q1003 A2963 HR47 RWY NML=METAR SLTI 142200Z 36006KT 9999 NSC 36/22 Q1007 A2974 HR45 RWY NML=METAR SLJE 142200Z 36010KT 9999 FEW020 37/21 Q1005 A2968 HR39 RWY NMLMETAR SLRB 142200Z 00000KT 9999 NSC 35/21 Q1005 A2967 HR45 RWY NML=METAR SLCA 142200Z 00000KT 9999 BKN070 33/18 Q1003 A2962 HR42 RWY NML=
ZPX0660 142200@CAELT@GG SLZZYMYT@CAELT@142200 SLTRYGYS@CAELT@SABO SLTR 142200@CAELT@METAR SLTR 142200Z 30008KT 9999 FEW020 BKN200 32/24 Q1004 A2966@CAELT@986.1 HR65 NOSIG=@CAELT@METAR SLGM 142200Z NIL=@CAELT@METAR SLRI 142200Z 27005KT 9999 SCT017 FEW020CB BKN200 30/24 Q1006@CAELT@A2973 HR72 CB N/E/S/W AC=METAR SLJO 142200Z NIL=METAR SLRA 142200Z 30005KT 9999 FEW020 BKN200 33/23 Q1005 A2970 HR54RWY NML=METAR SLMG 142200Z 32006KT 9999 FEW017 SCT200 33/22 Q1006 A2972HR54 RWY NML=METAR SLBU 142200Z NIL=METAR SLSA 142200Z 31007KT 9999 FEW017 BKN200 32/23 Q1004 A2967 HR61=METAR SLSR 142200Z 32008KT 9999 FEW017 FEW023CB BKN200 31/23 Q1003A2963 HR63 CB NW RWY NML=METAR SLSM 142200Z 33010KT 9999 FEW017 SCT200 30/23 Q1004 A2965 HR68
ZPX0671 142250@CAELT@GG SLZZYMYT@CAELT@142250 SLRBYGYS@CAELT@SABO SLRB 142300@CAELT@METAR SLRB 142300Z 00000KT 9999 NSC 32/22 Q1005 A2967 HR56 RWY NML=@CAELT@
ZPX0672 142254@CAELT@GG SLZZYMYT@CAELT@142255 SLVRYGYZ@CAELT@SABO SLVR 142300@CAELT@METAR SLVR 142300Z 35010G20KT 9999 FEW013 SCT200 29/22 Q1004 A2966@CAELT@HR66 NOSIG=@CAELT@
ZPX0673 142256@CAELT@GG SLZZYMYT@CAELT@142255 SLSAYGYS@CAELT@SABO SLSA 142300@CAELT@METAR SLSA 142300Z 00000KT 9999 NSC 30/24 Q1005 A2968 HR70 CI=@CAELT@
ZPX0674 142256@CAELT@GG SLZZYMYT@CAELT@142255 SLSAYGYS@CAELT@SABO SLSA 142300@CAELT@METAR SLSA 142300Z 00000KT 9999 NSC 30/24 Q1005 A2968 HR70 CI=@CAELT@
ZPX0675 142256@CAELT@GG SLZZYMYT@CAELT@142256 SLTRYGYZ@CAELT@SABO SLTR 142300@CAELT@METAR SLTR 142300Z 32006KT 9999 NSC 30/24 Q1004 A2967 986.3 HR70@CAELT@CI NOSIG=@CAELT@
ZPX0676 142256@CAELT@GG SLLPZRZX@CAELT@142255 SLLPYGYZ@CAELT@SABO SLLP 142300@CAELT@METAR SLLP 142300Z 03009KT 360V060 9999 FEW017 FEW020CB SCT200 13/M03@CAELT@Q1033 A3051 624.7 HR33 CB/SE AC NOSIG=@CAELT@
ZPX0677 142256@CAELT@GG SLZZYMYT@CAELT@142256 SLCBYGYZ@CAELT@SABO SLCB 142300@CAELT@METAR SLCB 142300Z 31008KT 9999 FEW040 SCT200 25/03 Q1017 A3003 745.2@CAELT@HR23 FU AC NOSIG=@CAELT@
ZPX0678 142256@CAELT@GG SLZZYMYT@CAELT@142257 SLVRYGYZ@CAELT@SABO SLVR 142300@CAELT@METAR SLVR 142300Z 35010G20KT 9999 FEW013 SCT200 29/22 Q1004 A2966@CAELT@HR66 NOSIG=@CAELT@
ZPX0679 142257@CAELT@GG SLZZYMYT@CAELT@142257 SLVRYGYS@CAELT@SABO SLVR 142300@CAELT@METAR SLVR 142300Z 35010G20KT 9999 FEW013 SCT200 29/22 Q1004 A2966@CAELT@HR66 NOSIG=@CAELT@METAR SLSI 142300Z 00000KT 9999 NSC 33/20 Q1005 A2968 RWY 540 RWY NML@CAELT@METAR SLRB 142300Z 00000KT 9999 NSC 32/22 Q1005 A2967 HR56 RWY NML=@CAELT@METAR SLCA 142300Z 36004KT 9999 BKN070 31/19 Q1004 A2965 HR50 RWY NML
ZPX0682 142258@CAELT@GG SLZZYMYT@CAELT@142257 SLTRYGYS@CAELT@SABO SLTR 142300@CAELT@METAR SLTR 142300Z 32006KT 9999 NSC 30/24 Q1004 A2967 986.3 HR70@CAELT@CI NOSIG=@CAELT@METAR SLRI 142300Z 00000KT 9999 SCT015 FEW020CB BKN200 29/24 Q1007@CAELT@A2974 HR74 CB N/E/W LT/N AC=@CAELT@METAR SLSA 142300Z 00000KT 9999 NSC 30/24 Q1005 A2968 HR70 CI=
ZPX0687 142300@CAELT@GG SLZZYMYT@CAELT@142300 SLSBYSYX@CAELT@SABO SLSB 142300@CAELT@METAR SLSB 142300Z 00000KT 9999 NSC 30/23 Q1005 A2968 HR69 CI RWY NML=@CAELT@
ZPX0689 142302@CAELT@GG SLZZYMYT@CAELT@142301 SLLPYFYA@CAELT@SABO SLLP 142300@CAELT@METAR SLLP 142300Z 03009KT 360V060 9999 FEW017 FEW020CB SCT200 13/M03@CAELT@Q1033 A3051 624.7 HR33 CB/SE AC NOSIG=@CAELT@METAR SLSB 142300Z 00000KT 9999 NSC 30/23 Q1005 A2968 HR69 CI RWY NML@CAELT@
