
ZPX0011 240054@CAELT@GG SLZZYMYT@CAELT@240055 SLVRYGYZ@CAELT@SABO SLVR 240100@CAELT@METAR SLVR 240100Z 33005KT 9999 NSC 29/20 Q1008 A2977 HR61 NOSIG=@CAELT@
ZPX0012 240056@CAELT@GG SLLPZRZX@CAELT@240055 SLLPYGYZ@CAELT@SABO SLLP 240100@CAELT@METAR SLLP 240100Z 08008KT 9999 VCTS SCT015 FEW017CB BKN200@CAELT@06/02 Q1037 A3064 627.6 HR77 CB/LT S/SW/W TS/SW AC NOSIG=@CAELT@
ZPX0013 240057@CAELT@GG SLZZYMYT@CAELT@240057 SLCBYGYZ@CAELT@SABO SLCB 240100@CAELT@METAR SLCB 240100Z 12003KT 9999 FEW033 19/08 Q1023 A3021 749.8 HR47@CAELT@FU AC NOSIG=@CAELT@
ZPX0021 240154@CAELT@GG SLZZYMYT@CAELT@240154 SLCBYGYZ@CAELT@SABO SLCB 240200@CAELT@METAR SLCB 240200Z 08003KT 9999 FEW033 SCT080 19/08 Q1023 A3022 750.2@CAELT@HR48 FU NOSIG=@CAELT@
ZPX0022 240154@CAELT@GG SLZZYMYT@CAELT@240155 SLVRYGYZ@CAELT@SABO SLVR 240200@CAELT@METAR SLVR 240200Z 32006KT 9999 NSC 27/20 Q1008 A2978 HR65 NOSIG=@CAELT@
ZPX0023 240155@CAELT@GG SLLPZRZX@CAELT@240155 SLLPYGYZ@CAELT@SABO SLLP 240200@CAELT@METAR SLLP 240200Z 27008KT 220V290 9999 VCTS SCT012 FEW017CB@CAELT@BKN200 08/04 Q1039 A3070 629.0 HR74 CB/LT SW/W TS/W AC NOSIG=@CAELT@
ZPX0030 240255@CAELT@GG SLZZYMYT@CAELT@240255 SLVRYGYZ@CAELT@SABO SLVR 240300@CAELT@METAR SLVR 240300Z 31005KT 9999 NSC 27/21 Q1008 A2978 HR69 NOSIG=@CAELT@
ZPX0031 240258@CAELT@GG SLLPZRZX@CAELT@240258 SLLPYGYZ@CAELT@SABO SLLP 240300@CAELT@METAR SLLP 240300Z 32006KT 290V350 9999 SCT010 FEW017CB BKN200@CAELT@08/04 Q1039 A3070 629.0 HR75 CB/LT W AC NOSIG=@CAELT@
ZPX0032 240259@CAELT@GG SLZZYMYT@CAELT@240258 SLCBYGYZ@CAELT@SABO SLCB 240300@CAELT@METAR SLCB 240300Z 10005KT 9999 FEW033 19/07 Q1024 A3024 750.6 HR46@CAELT@AC FU NOSIG=@CAELT@
ZPX0039 240353@CAELT@GG SLZZYMYT@CAELT@240354 SLCBYGYZ@CAELT@SABO SLCB 240400@CAELT@METAR SLCB 240400Z 12005KT 9999 FEW030 SCT080 18/07 Q1023 A3023 750.5@CAELT@HR49 FU NOSIG=@CAELT@
ZPX0040 240355@CAELT@GG SLZZYMYT@CAELT@240355 SLVRYGYZ@CAELT@SABO SLVR 240400@CAELT@METAR SLVR 240400Z 34005KT 9999 NSC 26/21 Q1008 A2977 HR70 NOSIG=@CAELT@
ZPX0041 240356@CAELT@GG SLZZYMYT@CAELT@240356 SLLPYGYZ@CAELT@SABO SLLP 240400@CAELT@METAR SLLP 240400Z 02005KT 350V050 9999 FEW010 FEW017CB BKN200@CAELT@08/02 Q1039 A3068 628.6 HR66 CB/LT W AC NOSIG=@CAELT@
ZPX0051 240454@CAELT@GG SLZZYMYT@CAELT@240453 SLCBYGYZ@CAELT@SABO SLCB 240500@CAELT@METAR SLCB 240500Z 00000KT 9999 FEW030 SCT080 18/08 Q1023 A3023 750.3@CAELT@HR51 FU NOSIG=@CAELT@
ZPX0052 240455@CAELT@GG SLZZYMYT@CAELT@240455 SLVRYGYZ@CAELT@SABO SLVR 240500@CAELT@METAR SLVR 240500Z 36008KT 9999 NSC 25/21 Q1008 A2977 HR75 NOSIG=@CAELT@
ZPX0053 240456@CAELT@GG SLLPZRZX@CAELT@240456 SLLPYGYZ@CAELT@SABO SLLP 240500@CAELT@METAR SLLP 240500Z 36005KT 9999 FEW010 SCT200 06/02 Q1038 A3066@CAELT@628.2 HR70 AC NOSIG=@CAELT@
ZPX0061 240554@CAELT@GG SLZZYMYT@CAELT@240554 SLCBYGYZ@CAELT@SABO SLCB 240600@CAELT@METAR SLCB 240600Z 00000KT 9999 FEW030 SCT080 17/07 Q1023 A3022 750.2@CAELT@HR53 FU NOSIG=@CAELT@
ZPX0062 240554@CAELT@GG SLZZYMYT@CAELT@240555 SLVRYGYZ@CAELT@SABO SLVR 240600@CAELT@METAR SLVR 240600Z 35006KT 9999 NSC 25/21 Q1008 A2977 HR76 NOSIG=@CAELT@
ZPX0063 240557@CAELT@GG SLLPZRZX@CAELT@240557 SLLPYGYZ@CAELT@SABO SLLP 240600@CAELT@METAR SLLP 240600Z VRB02KT 9999 FEW010 SCT200 03/01 Q1037 A3065@CAELT@627.9 HR86 AC NOSIG=@CAELT@
ZPX0073 240654@CAELT@GG SLZZYMYT@CAELT@240655 SLCBYGYZ@CAELT@SABO SLCB 240700@CAELT@METAR SLCB 240700Z 00000KT 9999 FEW030 15/09 Q1023 A3021 749.9 HR65@CAELT@AC FU NOSIG=@CAELT@
ZPX0074 240655@CAELT@GG SLLPZRZX@CAELT@240655 SLLPYGYZ@CAELT@SABO SLLP 240700@CAELT@METAR SLLP 240700Z 04003KT 9999 FEW010 SCT200 03/00 Q1037 A3063@CAELT@627.6 HR79 AC NOSIG=@CAELT@
ZPX0075 240655@CAELT@GG SLZZYMYT@CAELT@240656 SLVRYGYZ@CAELT@SABO SLVR 240700@CAELT@METAR SLVR 240700Z 35008KT 9000 FEW017 25/20 Q1007 A2976 HR76 FU@CAELT@NOSIG=@CAELT@
ZPX0082 240755@CAELT@GG SLZZYMYT@CAELT@240755 SLCBYGYZ@CAELT@SABO SLCB 240800@CAELT@METAR SLCB 240800Z 00000KT 9999 FEW030 14/09 Q1023 A3021 749.9 HR71@CAELT@AC FU NOSIG=@CAELT@
ZPX0083 240755@CAELT@GG SLZZYMYT@CAELT@240756 SLVRYGYZ@CAELT@SABO SLVR 240800@CAELT@METAR SLVR 240800Z 33006KT 6000 SCT017 25/21 Q1008 A2977 HR78 FU@CAELT@NOSIG=@CAELT@
ZPX0084 240756@CAELT@GG SLLPZRZX@CAELT@240755 SLLPYGYZ@CAELT@SABO SLLP 240800@CAELT@METAR SLLP 240800Z 07003KT 4000E VCFG FEW002 SCT200 01/M00 Q1037@CAELT@A3063 627.5 HR91 VCFG NE/E/SE AC NOSIG=@CAELT@
ZPX0091 240856@CAELT@GG SLZZYMYT@CAELT@240857 SLVRYGYZ@CAELT@SABO SLVR 240900@CAELT@METAR SLVR 240900Z 35008KT 5000 FU FEW017 25/21 Q1008 A2979 HR80@CAELT@NOSIG=@CAELT@
ZPX0092 240856@CAELT@GG SLZZYMYT@CAELT@240856 SLTRYGYZ@CAELT@SABO SLTR 240900@CAELT@METAR SLTR 240900Z 00000KT 6000 NSC 24/23 Q1009 A2980 990.5 HR92@CAELT@FU CI NOSIG=@CAELT@
ZPX0093 240857@CAELT@GG SLLPZRZX@CAELT@240855 SLLPYGYZ@CAELT@SABO SLLP 240900@CAELT@METAR SLLP 240900Z 10007KT 4000E VCFG FEW002 SCT010 BKN200 03/03@CAELT@Q1037 A3064 627.7 HR96 VCFG NE/E/SE AC NOSIG=@CAELT@
ZPX0094 240857@CAELT@GG SLZZYMYT@CAELT@240857 SLCBYGYZ@CAELT@SABO SLCB 240900@CAELT@METAR SLCB 240900Z 00000KT 9999 FEW030 SCT080 13/09 Q1023 A3023 750.5@CAELT@HR74 FU NOSIG=@CAELT@
ZPX0096 240901@CAELT@GG SLZZYMYT@CAELT@240900 SLTRYGYS@CAELT@SABO SLTR 240900@CAELT@METAR SLTR 240900Z 00000KT 6000 NSC 24/23 Q1009 A2980 990.5 HR92@CAELT@FU CI NOSIG=@CAELT@METAR SLRI 240900Z 00000KT 5000 FU NSC 24/23 Q1010 A2984 HR95=@CAELT@
ZPX0102 240951@CAELT@GG SLZZYMYT@CAELT@240950 SLRBYGYS@CAELT@SABO SLRB 241000@CAELT@METAR SLRB 241000Z 36012KT 8000 SCT070 26/22 Q1011 A2985 HR78 FU RWY@CAELT@NML=@CAELT@
ZPX0103 240953@CAELT@GG SLZZYMYT@CAELT@240953 SLCAYGYS@CAELT@SABO SLCA 241000@CAELT@METAR SLCA 241000Z 00000KT 9999 FEW040CB 21/20 Q1013 HR92 CB SW FU@CAELT@RWY NML=@CAELT@
ZPX0104 240954@CAELT@GG SLZZYMYT@CAELT@240953 SLRYYSYX@CAELT@SABO SLRY 241000@CAELT@METAR SLRY 241000Z 00000KT 8000 NSC 23/22 Q1006 A2972 HR92 FU RWY NML@CAELT@
ZPX0105 240954@CAELT@GG SLZZYMYT@CAELT@240955 SLRQYSYX@CAELT@SABO SLRQ 241000@CAELT@METAR SLRQ 241000Z 00000KT 9999 FEW080 23/22 Q1008 A2978 HR93=@CAELT@
ZPX0106 240955@CAELT@GG SLZZYMYT@CAELT@240955 SLETYMYC@CAELT@SABO SLET 241000@CAELT@METAR SLET 241000Z 33009KT 1500 FU FEW070 25/23 Q1009 A2980 HR87@CAELT@NOSIG=@CAELT@
ZPX0107 240955@CAELT@GG SLZZYMYT@CAELT@240955 SLTRYGYZ@CAELT@SABO SLTR 241000@CAELT@METAR SLTR 241000Z 00000KT 6000 NSC 24/22 Q1009 A2981 991.0 HR90@CAELT@FU CI NOSIG=@CAELT@
ZPX0108 240956@CAELT@GG SLZZYMYT@CAELT@240955 SLSAYGYS@CAELT@SABO SLSA 241000@CAELT@METAR SLSA 241000Z 00000KT 6000 NSC 24/23 Q1008 A2979 HR92 FU CI=@CAELT@
ZPX0109 240956@CAELT@GG SLZZYMYT@CAELT@240955 SLSAYGYS@CAELT@SABO SLSA 241000@CAELT@METAR SLSA 241000Z 00000KT 6000 NSC 24/23 Q1008 A2979 HR92 FU CI=@CAELT@
ZPX0110 240956@CAELT@GG SLZZYMYT@CAELT@240955 SLLPYGYZ@CAELT@SABO SLLP 241000@CAELT@METAR SLLP 241000Z 08006KT 3000E VCFG FEW002 SCT010 BKN200 03/03@CAELT@Q1038 A3066 628.0 HR98 P/INV VCFG N/NE/E/SE AC NOSIG=@CAELT@
ZPX0111 240956@CAELT@GG SLZZYMYT@CAELT@240955 SLSBYSYX@CAELT@SABO SLSB 241000@CAELT@METAR SLSB 241000Z 00000KT 8000 NSC 23/21 Q1008 A2977 HR89 FU RWY NML=@CAELT@
ZPX0112 240957@CAELT@GG SLZZYMYT@CAELT@240957 SLCBYGYZ@CAELT@SABO SLCB 241000@CAELT@METAR SLCB 241000Z 00000KT 8000 FEW030 13/09 Q1024 A3026 751.1 HR72@CAELT@AC FU CI NOSIG=@CAELT@
ZPX0113 240957@CAELT@GG SLZZYMYT@CAELT@240957 SLCOYGYZ@CAELT@SABO SLCO 241000@CAELT@METAR SLCO 241000Z 28003KT 7000 NSC 24/23 Q1010 A2984 983.2 HR92 FU@CAELT@
ZPX0114 240957@CAELT@GG SLZZYMYT@CAELT@240958 SLVRYGYZ@CAELT@SABO SLVR 241000@CAELT@METAR SLVR 241000Z 34008KT 2500 FU FEW017 25/21 Q1009 A2980 HR80@CAELT@NOSIG=@CAELT@
ZPX0115 240959@CAELT@GG SLZZYMYT@CAELT@240959 SLVRYGYS@CAELT@SABO SLVR 241000@CAELT@METAR SLVR 241000Z 34008KT 2500 FU FEW017 25/21 Q1009 A2980 HR80@CAELT@NOSIG=@CAELT@METAR SLET 241000Z 33009KT 1500 FU FEW070 25/23 Q1009 A2980 HR87@CAELT@METAR SLCP 241000Z 00000KT 0800 FU NSC 23/22 Q1013 A2991 HR96@CAELT@RWY NML=METAR SLSI 241000Z OOOOOKT 1500 FU BKN070 24/23 Q1010 A2983HR91 RWY NML=METAR SLRB 241000Z 36012KT 8000 SCT070 26/22 Q1011 A2985 HR78FU RWY NML=METAR SLCA 241000Z 00000KT 9999 FEW040CB 21/20 Q1013 HR92CB SW FU RWY NML=
ZPX0117 241001@CAELT@GG SLZZYMYT@CAELT@241001 SLLPYFYA@CAELT@SABO SLLP 241000@CAELT@METAR SLLP 241000Z 08006KT 3000E VCFG FEW002 SCT010 BKN200 03/03@CAELT@Q1038 A3066 628.0 HR98 P/INV VCFG N/NE/E/SE AC NOSIG=@CAELT@METAR SLCO 241000Z 28003KT 7000 NSC 24/23 Q1010 A2984 983.2 HR92@CAELT@FU CI=@CAELT@METAR SLRY 241000Z 00000KT 8000 NSC 23/22 Q1006 A2972 HR92 FURWY NML=METAR SLRQ 241000Z 00000KT 9999 FEW080 23/22 Q1008 A2978 HR93=METAR SLAP 241000Z 00000KT 9999 NSC 18/16 Q1016 A3002 857.5 HR89=METAR SLSB 241000Z 00000KT 8000 NSC 23/21 Q1008 A2977 HR89 FU
ZPX0118 241001@CAELT@GG SLZZYMYT@CAELT@241000 SLTRYGYS@CAELT@SABO SLTR 241000@CAELT@METAR SLTR 241000Z 00000KT 6000 NSC 24/22 Q1009 A2981 991.0 HR90@CAELT@FU CI NOSIG=@CAELT@METAR SLGM 241000Z 36004KT 4000 FU NSC 25/24 Q1010 A2982 HR96=@CAELT@METAR SLRI 241000Z 00000KT 3000 FU NSC 24/23 Q1011 A2987 HR95=@CAELT@METAR SLJO 241000Z 00000KT 7000 FEW080 BKN200 25/24 Q1010 A2983 HR92FU RWY NML=METAR SLRA 241000Z 00000KT 8000 NSC 25/24 Q1009 A2981 HR93 FU AC/CCRWY NML=METAR SLMG 241000Z 00000KT 8000 SCT080 25/23 Q1008 A2977 HR88 FUMETAR SLBU 241000Z NIL=METAR SLSA 241000Z 00000KT 6000 NSC 24/23 Q1008 A2979 HR92 FU CI=METAR SLSR 241000Z 32006KT 9999 NSC 26/21 Q1007 A2976 HR76 CIMETAR SLSM 241000Z 36004KT 8000 NSC 24/23 Q1008 A2979 HR94 FU CI
ZPX0129 241049@CAELT@GG SLZZYMYT@CAELT@241050 SLRBYGYS@CAELT@SABO SLRB 241100@CAELT@METAR SLRB 241100Z 36015KT 8000 SCT070 27/23 Q1012 A2988 HR78 FU RWY@CAELT@NML=@CAELT@
ZPX0130 241054@CAELT@GG SLZZYMYT@CAELT@241053 SLCAYGYS@CAELT@SABO SLCA 241100@CAELT@METAR SLCA 241100Z 00000KT 9999 SCT080 21/20 Q1014 A2994 HR91 FU RWY@CAELT@NML=@CAELT@
ZPX0131 241054@CAELT@GG SLZZYMYT@CAELT@241055 SLSBYSYX@CAELT@SABO SLSB 241100@CAELT@METAR SLSB 241100Z 00000KT 8000 NSC 25/23 Q1008 A2979 HR91 FU RWY NML=@CAELT@
ZPX0134 241055@CAELT@GG SLZZYMYT@CAELT@241055 SLTRYGYZ@CAELT@SABO SLTR 241100@CAELT@METAR SLTR 241100Z 01004KT 6000 NSC 25/22 Q1010 A2983 991.6 HR84@CAELT@FU CI NOSIG=@CAELT@
ZPX0135 241055@CAELT@GG SLZZYMYT@CAELT@241055 SLRQYSYX@CAELT@SABO SLRQ 241100@CAELT@METAR SLRQ 241100Z 00000KT 9999 FEW080 24/22 Q1008 A2979 984.8 HR91=@CAELT@
ZPX0136 241055@CAELT@GG SLZZYMYT@CAELT@241055 SLLPYGYZ@CAELT@SABO SLLP 241100@CAELT@METAR SLLP 241100Z 09005KT 4000E VCFG FEW002 SCT200 05/05 Q1038@CAELT@A3067 628.3 HR98 P92// VCFG NE/E/SE AC NOSIG=@CAELT@
ZPX0137 241056@CAELT@GG SLZZYMYT@CAELT@241055 SLRYYSYX@CAELT@SABO SLRY 241100@CAELT@METAR SLRY 221100Z 00000KT 8000 NSC 24/22 Q1006 A2973 HR90 FU RWY NML@CAELT@
ZPX0138 241056@CAELT@GG SLZZYMYT@CAELT@241053 SLETYMYC@CAELT@SABO SLET 241100@CAELT@METAR SLET 241100Z 31010KT 1800 FU NSC 26/21 Q1009 A2982 HR75 NOSIG=@CAELT@
ZPX0139 241057@CAELT@GG SLZZYMYT@CAELT@241058 SLVRYGYZ@CAELT@SABO SLVR 241100@CAELT@METAR SLVR 241100Z 34008KT 1500 FU FEW017 26/22 Q1009 A2982 HR77@CAELT@NOSIG=@CAELT@
ZPX0141 241058@CAELT@GG SLZZYMYT@CAELT@241058 SLCOYGYZ@CAELT@SABO SLCO 241100@CAELT@METAR SLCO 241100Z 00000KT 9999 NSC 25/22 Q1011 A2986 983.8 HR87 FU@CAELT@
ZPX0143 241100@CAELT@GG SLZZYMYT@CAELT@241059 SLTRYGYS@CAELT@SABO SLTR 241100@CAELT@METAR SLTR 241100Z 01004KT 6000 NSC 25/22 Q1010 A2983 991.6 HR84@CAELT@FU CI NOSIG=@CAELT@METAR SLGM 241100Z 00000KT 5000 FU NSC 25/24 Q1010 A2983 HR95 CI=@CAELT@METAR SLRI 241100Z 00000KT 3000 FU NSC 25/23 Q1011 A2988 HR90=@CAELT@METAR SLJO 241100Z 00000KT 7000 FEW080 BKN200 26/24 Q1010 A2984 HR88FU RWY NML=METAR SLRA 241100Z 03003KT 8000 NSC 25/24 Q1009 A2982 HR92 FU ACRWY NML=METAR SLMG 241100Z 32004KT 8000 FEW020 SCT080 26/23 Q1008 A2978 HR86METAR SLBU 241100Z NIL=METAR SLSA 241100Z NIL=METAR SLSR 241100Z 32010KT 8000 NSC 27/22 Q1008 A2977 HR76 FU CIMETAR SLSM 241100Z 36004KT 8000 NSC 25/23 Q1009 A2980 HR91 FU CI
ZPX0144 241100@CAELT@GG SLZZYMYT@CAELT@241100 SLCBYGYZ@CAELT@SABO SLCB 241100@CAELT@METAR SLCB 241100Z 00000KT 5000 FU FEW033 16/08 Q1025 A3028 751.7@CAELT@HR58 VIS RED E/SE/S RESTO 9999 BECMG 8000=@CAELT@
ZPX0146 241101@CAELT@GG SLZZYMYT@CAELT@241101 SLLPYFYA@CAELT@SABO SLLP 241100@CAELT@METAR SLLP 241100Z 09005KT 4000E VCFG FEW002 SCT200 05/05 Q1038@CAELT@A3067 628.3 HR98 P92// VCFG NE/E/SE AC NOSIG=@CAELT@METAR SLCO 241100Z 00000KT 9999 NSC 25/22 Q1011 A2986 983.8 HR87@CAELT@FU CI=@CAELT@METAR SLRY 221100Z 00000KT 8000 NSC 24/22 Q1006 A2973 HR90 FURWY NML=METAR SLRQ 241100Z 00000KT 9999 FEW080 24/22 Q1008 A2979 984.8HR91=METAR SLAP 241100Z 00000KT 9999 NSC 19/17 Q1017 A3003 857.8HR87 AC=METAR SLSB 241100Z 00000KT 8000 NSC 25/23 Q1008 A2979 HR91 FU
ZPX0147 241101@CAELT@GG SLZZYMYT@CAELT@241101 SLVRYGYS@CAELT@SABO SLVR 241100@CAELT@METAR SLVR 241100Z 34008KT 1500 FU FEW017 26/22 Q1009 A2982 HR77@CAELT@NOSIG=@CAELT@METAR SLET 241100Z 31010KT 1800 FU NSC 26/21 Q1009 A2982 HR75 NOSIG=@CAELT@METAR SLAS 241100Z 00000KT 1000 FU NSC 25/23 Q1011 A2986 HR80 RWY NML@CAELT@METAR SLJV 241100Z 00000KT 5000 FU NSC 22/21 Q1010 A2983 HR88 RWY NMLMETAR SLCP 241100Z 00000KT 3000 FU NSC 23/22 Q1014 A2994 HR96 RWY NMLMETAR SLSI 241100Z 33005KT 1500 FU BKN070 24/23 Q1011 A2985 HR91RWY NML=METAR SLTI 241100Z 00000KT 9999 BKN070 26/22 Q1013 A2991 HR79FU RWY NML=METAR SLJE 241100Z 00000KT 3000 FU NSC 28/24 Q1013 A2991 HR77METAR SLVG 241100Z 00000KT 8000 SCT015 17/15 Q1023 A3021 HR90METAR SLRB 241100Z 36015KT 8000 SCT070 27/23 Q1012 A2988 HR78METAR SLCA 241100Z 00000KT 9999 SCT080 21/20 Q1014 A2994 HR91
ZPX0149 241102@CAELT@GG SLZZYMYT@CAELT@241102 SLCBYGYS@CAELT@SABO SLCB 241100@CAELT@METAR SLCB 241100Z 00000KT 5000 FU FEW033 16/08 Q1025 A3028 751.7@CAELT@HR58 VIS RED E/SE/S RESTO 9999 BECMG 8000=@CAELT@
ZPX0154 241106@CAELT@GG SLZZYMYT@CAELT@241105 SLLPYFYA@CAELT@SABO SLLP 241100 CCA@CAELT@METAR SLLP 241100Z 09005KT 4000E VCFG FEW002 SCT200 05/05 Q1038@CAELT@A3067 628.3 HR98 P92// VCFG NE/E/SE AC NOSIG=@CAELT@METAR SLCO 241100Z 00000KT 9999 NSC 25/22 Q1011 A2986 983.8 HR87@CAELT@FU CI=@CAELT@METAR COR SLRY 241100Z 00000KT 8000 NSC 24/22 Q1006 A2973 HR90 FURWY NML=METAR SLRQ 241100Z 00000KT 9999 FEW080 24/22 Q1008 A2979 984.8HR91=METAR SLAP 241100Z 00000KT 9999 NSC 19/17 Q1017 A3003 857.8HR87 AC=METAR SLSB 241100Z 00000KT 8000 NSC 25/23 Q1008 A2979 HR91 FU
ZPX0155 241107@CAELT@GG SLZZYMYT@CAELT@241106 SLSAYGYS@CAELT@SABO SLSA 241100@CAELT@METAR SLSA 241100Z 00000KT 6000 NSC 25/23 Q1009 A2980 HR90 FU CI=@CAELT@
ZPX0156 241108@CAELT@GG SLZZYMYT@CAELT@241108 SLTRYGYS@CAELT@SABO SLTR 241100 RRA@CAELT@METAR SLTR 241100Z 01004KT 6000 NSC 25/22 Q1010 A2983 991.6 HR84@CAELT@FU CI NOSIG=@CAELT@METAR SLGM 241100Z 00000KT 5000 FU NSC 25/24 Q1010 A2983 HR95 CI=@CAELT@METAR SLRI 241100Z 00000KT 3000 FU NSC 25/23 Q1011 A2988 HR90=@CAELT@METAR SLJO 241100Z 00000KT 7000 FEW080 BKN200 26/24 Q1010 A2984 HR88FU RWY NML=METAR SLRA 241100Z 03003KT 8000 NSC 25/24 Q1009 A2982 HR92 FU ACRWY NML=METAR SLMG 241100Z 32004KT 8000 FEW020 SCT080 26/23 Q1008 A2978 HR86METAR SLBU 241100Z NIL=METAR RTD SLSA 241100Z 00000KT 6000 NSC 25/23 Q1009 A2980 HR90 FU CI=METAR SLSR 241100Z 32010KT 8000 NSC 27/22 Q1008 A2977 HR76 FU CIMETAR SLSM 241100Z 36004KT 8000 NSC 25/23 Q1009 A2980 HR91 FU CI
ZPX0171 241153@CAELT@GG SLZZYMYT@CAELT@241153 SLCAYGYS@CAELT@SABO SLCA 241200@CAELT@METAR SLCA 241200Z 00000KT 9999 SCT080 24/21 Q1013 A2991 HR83 FU RWY@CAELT@NML=@CAELT@
ZPX0172 241153@CAELT@GG SLZZYMYT@CAELT@241154 SLVRYGYZ@CAELT@SABO SLVR 241200@CAELT@METAR SLVR 241200Z 34011KT 2000 FU NSC 28/22 Q1010 A2983 HR71 NOSIG=@CAELT@
ZPX0174 241154@CAELT@GG SLZZYMYT@CAELT@241155 SLSBYSYX@CAELT@SABO SLSB 241200@CAELT@METAR SLSB 241200Z 02003KT 8000 NSC 27/23 Q1009 A2980 HR79 FU RWY NML=@CAELT@
ZPX0175 241155@CAELT@GG SLZZYMYT@CAELT@241153 SLRYYSYX@CAELT@SABO SLRY 241200@CAELT@METAR SLRY 241200Z 00000KT 8000 NSC 27/23 Q1007 A2975 HR80 FU RWY NML@CAELT@
ZPX0176 241156@CAELT@GG SLZZYMYT@CAELT@241155 SLSAYGYS@CAELT@SABO SLSA 241200@CAELT@METAR SLSA 241200Z 33008KT 6000 NSC 27/24 Q1009 A2982 HR80 FU CI=@CAELT@
ZPX0177 241156@CAELT@GG SLZZYMYT@CAELT@241155 SLSAYGYS@CAELT@SABO SLSA 241200@CAELT@METAR SLSA 241200Z 33008KT 6000 NSC 27/24 Q1009 A2982 HR80 FU CI=@CAELT@
ZPX0179 241156@CAELT@GG SLZZYMYT@CAELT@241155 SLETYMYC@CAELT@SABO SLET 241200@CAELT@METAR SLET 241200Z 32011G22KT 2500 FU NSC 28/21 Q1010 A2983 HR69@CAELT@NOSIG=@CAELT@
ZPX0180 241156@CAELT@GG SLZZYMYT@CAELT@241156 SLRBYGYS@CAELT@SABO SLRB 241200@CAELT@METAR SLRB 241200Z 36015KT 8000 NSC 30/23 Q1012 A2988 HR66 FU RWY NML=@CAELT@
ZPX0181 241156@CAELT@GG SLZZYMYT@CAELT@241155 SLRQYSYX@CAELT@SABO SLRQ 241200@CAELT@METAR SLRQ 241200Z 00000KT 9999 FEW017 27/24 Q1009 A2982 985.7 HR83=@CAELT@
ZPX0182 241156@CAELT@GG SLZZYMYT@CAELT@241156 SLTRYGYZ@CAELT@SABO SLTR 241200@CAELT@METAR SLTR 241200Z 34008KT 6000 NSC 29/23 Q1010 A2984 992.1@CAELT@HR73 FU CI NOSIG=@CAELT@
ZPX0185 241158@CAELT@GG SLZZYMYT@CAELT@241158 SLLPYGYZ@CAELT@SABO SLLP 241200@CAELT@METAR SLLP 241200Z 09005KT 9999 FEW008 SCT200 10/04 Q1039 A3071@CAELT@629.2 HR70 P5280 HZ S/SW NOSIG=@CAELT@
ZPX0186 241158@CAELT@GG SLZZYMYT@CAELT@241155 SLTJYGYZ@CAELT@SABO SLTJ 241200@CAELT@METAR SLTJ 241200Z 00000KT 9999 FEW025 18/15 Q1020 A3015 815.7 HR82@CAELT@
ZPX0187 241158@CAELT@GG SLZZYMYT@CAELT@241157 SLTRYGYS@CAELT@SABO SLTR 241200@CAELT@METAR SLTR 241200Z 34008KT 6000 NSC 29/23 Q1010 A2984 992.1@CAELT@HR73 FU CI NOSIG=@CAELT@METAR SLGM 241200Z 36004KT 7000 NSC 27/24 Q1011 A2985 HR87 FU CI=@CAELT@METAR SLRI 241200Z 00000KT 5000 FU NSC 26/23 Q1012 A2989 HR81=@CAELT@METAR SLJO 241200Z 36008KT 7000 NSC 27/23 Q1011 A2986 HR79 FU CIRWY NML=METAR SLRA 241200Z 02008KT 8000 NSC 28/24 Q1010 A2983 HR82 FU ACMETAR SLMG 241200Z 32008KT 8000 SCT080 28/23 Q1009 A2980 HR76 FUMETAR SLBU 241200Z NIL=METAR SLSA 241200Z 33008KT 6000 NSC 27/24 Q1009 A2982 HR80 FU CI=METAR SLSR 241200Z 32010KT 8000 NSC 29/22 Q1008 A2978 HR68 FU CIMETAR SLSM 241200Z 36008KT 9999 NSC 28/23 Q1009 A2981 HR75 RWY NML=
ZPX0188 241158@CAELT@GG SLZZYMYT@CAELT@241159 SLCOYGYZ@CAELT@SABO SLCO 241200@CAELT@METAR SLCO 241200Z 33006KT 9999 NSC 27/23 Q1011 A2987 984.1 HR79 FU=@CAELT@
ZPX0189 241159@CAELT@GG SLZZYMYT@CAELT@241158 SLVRYGYS@CAELT@SABO SLVR 241200@CAELT@METAR SLVR 241200Z 34011KT 2000 FU NSC 28/22 Q1010 A2983 HR71 NOSIG=@CAELT@METAR SLET 241200Z 32011G22KT 2500 FU NSC 28/21 Q1010 A2983 HR69@CAELT@NOSIG=@CAELT@METAR SLAS 241200Z 36006KT 1000 FU NSC 28/24 Q1012 A2989 HR78 RWY NML@CAELT@METAR SLJV 241200Z 34005KT 5000 FU NSC 26/22 Q1011 A2985 HR82 RWY NMLMETAR SLCP 241200Z 00000KT 3500 FU NSC 25/22 Q1014 A2994 HR88 RWY NMLMETAR SLSI 241200Z 33005KT 1500 FU SCT070 26/23 Q1012 A2988 HR81RWY NML=METAR SLTI 241200Z 00000KT 9999 BKN070 28/22 Q1014 A2994 HR70FU RWY NML=METAR SLJE 241200Z 35005KT 2500 FU NSC 30/23 Q1013 A2991 HR67 RWY NMLMETAR SLVG 241200Z 00000KT 8000 SCT017 BKN070 18/15 Q1024 A3024HR86 FU RWY NML=METAR SLRB 241200Z 36015KT 8000 NSC 30/23 Q1012 A2988 HR66METAR SLCA 241200Z 00000KT 9999 SCT080 24/21 Q1013 A2991 HR83
ZPX0190 241159@CAELT@GG SLZZYMYT@CAELT@241159 SLCBYGYZ@CAELT@SABO SLCB 241200@CAELT@METAR SLCB 241200Z 00000KT 5000 FU FEW033 20/09 Q1025 A3029 752.0@CAELT@HR47 VIS RED E/SE RESTO 9999 BECMG 8000=@CAELT@
ZPX0192 241201@CAELT@GG SLZZYMYT@CAELT@241200 SLCBYGYS@CAELT@SABO SLCB 241200@CAELT@METAR SLCB 241200Z 00000KT 5000 FU FEW033 20/09 Q1025 A3029 752.0@CAELT@HR47 VIS RED E/SE RESTO 9999 BECMG 8000=@CAELT@METAR SLAL 241200Z 00000KT 9999 SCT012 15/11 Q1030 A3044 704.8 HR76=@CAELT@METAR SLTJ 241200Z 00000KT 9999 FEW025 18/15 Q1020 A3015 815.7 HR82@CAELT@
ZPX0194 241205@CAELT@GG SLZZYMYT@CAELT@241204 SLLPYFYA@CAELT@SABO SLLP 241200@CAELT@METAR SLLP 241200Z 09005KT 9999 FEW008 SCT200 10/04 Q1039 A3071@CAELT@629.2 HR70 P5280 HZ S/SW NOSIG=@CAELT@METAR SLCO 241200Z 33006KT 9999 NSC 27/23 Q1011 A2987 984.1 HR79 FU=@CAELT@METAR SLRY 241200Z 00000KT 8000 NSC 27/23 Q1007 A2975 HR80@CAELT@FU RWY NML=METAR SLRQ 241200Z 00000KT 9999 FEW017 27/24 Q1009 A2982 985.7 HR83=METAR SLAP 241200Z 00000KT 9999 NSC 22/18 Q1017 A3005 858.4 HR79=METAR SLSB 241200Z 02003KT 8000 NSC 27/23 Q1009 A2980 HR79 FU RWY NML=
ZPX0216 241252@CAELT@GG SLZZYMYT@CAELT@241252 SLRBYGYS@CAELT@SABO SLRB 241300@CAELT@METAR SLRB 241300Z 36015KT 8000 NSC 31/24 Q1012 A2988 HR65 FU RWY NML=@CAELT@
ZPX0217 241253@CAELT@GG SLZZYMYT@CAELT@241254 SLVRYGYZ@CAELT@SABO SLVR 241300@CAELT@METAR SLVR 241300Z 33012G23KT 3000 FU NSC 31/22 Q1010 A2984 HR60@CAELT@NOSIG=@CAELT@
ZPX0218 241253@CAELT@GG SLZZYMYT@CAELT@241246 SLETYMYC@CAELT@SABO SLET 241300@CAELT@METAR SLET 241300Z 311323KT 4000 FU NSC 30/21 Q1010 A2983 HR59 NOSIG=@CAELT@
ZPX0219 241254@CAELT@GG SLZZYMYT@CAELT@241254 SLSAYGYS@CAELT@SABO SLSA 241300@CAELT@METAR SLSA 241300Z 32012KT 8000 NSC 31/23 Q1010 A2983 HR65 FU CI=@CAELT@
ZPX0220 241254@CAELT@GG SLZZYMYT@CAELT@241254 SLSAYGYS@CAELT@SABO SLSA 241300@CAELT@METAR SLSA 241300Z 32012KT 8000 NSC 31/23 Q1010 A2983 HR65 FU CI=@CAELT@
ZPX0223 241254@CAELT@GG SLZZYMYT@CAELT@241255 SLSBYSYX@CAELT@SABO SLSB 241300@CAELT@METAR SLSB 241300Z 31006KT 8000 NSC 29/23 Q1009 A2981 HR72 FU RWY NML=@CAELT@
ZPX0224 241254@CAELT@GG SLZZYMYT@CAELT@241253 SLRYYSYX@CAELT@SABO SLRY 241300@CAELT@METAR SLRY 241300Z 34008KT 8000 NSC 30/23 Q1007 A2976 HR67 FU RWY NML@CAELT@
ZPX0225 241255@CAELT@GG SLZZYMYT@CAELT@241255 SLTRYGYZ@CAELT@SABO SLTR 241300@CAELT@METAR SLTR 241300Z 32016KT 8000 NSC 31/23 Q1010 A2985 992.3 HR62@CAELT@FU CI NOSIG=@CAELT@
ZPX0226 241255@CAELT@GG SLZZYMYT@CAELT@241255 SLRQYSYX@CAELT@SABO SLRQ 241300@CAELT@METAR SLRQ 241300Z 00000KT 9999 NSC 28/24 Q1009 A2982 985.8 HR76=@CAELT@
ZPX0227 241255@CAELT@GG SLZZYMYT@CAELT@241255 SLCAYGYS@CAELT@SABO SLCA 241300@CAELT@METAR SLCA 241300Z 00000KT 9999 NSC 28/19 Q1013 A2991 HR60 FU RWY NML@CAELT@
ZPX0228 241256@CAELT@GG SLZZYMYT@CAELT@241256 SLTRYGYS@CAELT@SABO SLTR 241300@CAELT@METAR SLTR 241300Z 32016KT 8000 NSC 31/23 Q1010 A2985 992.3 HR62@CAELT@FU CI NOSIG=@CAELT@METAR SLGM 241300Z 36004KT 8000 FEW080 29/24 Q1011 A2987 HR76 FU=@CAELT@METAR SLRI 241300Z 36004KT 9999 NSC 30/22 Q1012 A2991 HR66=@CAELT@METAR SLJO 241300Z 36012KT 7000 NSC 29/23 Q1011 A2988 HR72 FU CIRWY NML=METAR SLRA 241300Z 34010KT 8000 NSC 31/24 Q1010 A2985 HR67 FUMETAR SLMG 241300Z 32010KT 8000 SCT080 30/23 Q1009 A2981 HR67FU RWY NML=METAR SLBU 241300Z NIL=METAR SLSA 241300Z 32012KT 8000 NSC 31/23 Q1010 A2983 HR65 FU CI=METAR SLSR 241300Z 32015KT 8000 NSC 31/22 Q1009 A2980 HR62 FUMETAR SLSM 241300Z 36010KT 9999 NSC 30/24 Q1010 A2983 HR71 RWY NML=
ZPX0229 241256@CAELT@GG SLZZYMYT@CAELT@241257 SLCOYGYZ@CAELT@SABO SLCO 241300@CAELT@METAR SLCO 241300Z 30010KT 9999 NSC 30/23 Q1012 A2989 984.7 HR69 FU=@CAELT@
ZPX0230 241257@CAELT@GG SLZZYMYT@CAELT@241256 SLLPYGYZ@CAELT@SABO SLLP 241300@CAELT@METAR SLLP 241300Z VRB02KT 9999 FEW015 SCT200 12/02 Q1040 A3072@CAELT@629.4 HR53 P93// FU NOSIG=@CAELT@
ZPX0231 241258@CAELT@GG SLZZYMYT@CAELT@241258 SLCBYGYZ@CAELT@SABO SLCB 241300@CAELT@METAR SLCB 241300Z 00000KT 9999 FEW033 23/09 Q1026 A3030 752.2 HR40@CAELT@FU NOSIG=@CAELT@
ZPX0233 241258@CAELT@GG SLZZYMYT@CAELT@241258 SLCBYGYS@CAELT@SABO SLCB 241300@CAELT@METAR SLCB 241300Z 00000KT 9999 FEW033 23/09 Q1026 A3030 752.2 HR40@CAELT@FU NOSIG=@CAELT@METAR SLAL 241300Z 31006KT 9999 SCT015 16/10 Q1030 A3044 704.8 HR66=@CAELT@
ZPX0235 241300@CAELT@GG SLZZYMYT@CAELT@241259 SLVRYGYS@CAELT@SABO SLVR 241300@CAELT@METAR SLVR 241300Z 33012G23KT 3000 FU NSC 31/22 Q1010 A2984 HR60@CAELT@NOSIG=@CAELT@METAR SLET 241300Z 311323KT 4000 FU NSC 30/21 Q1010 A2983 HR59 NOSIG=@CAELT@METAR SLAS 241300Z 36012KT 2000 FU NSC 31/24 Q1012 A2989 HR65 RWY NML@CAELT@METAR SLJV 241300Z 34005KT 5000 FU NSC 29/23 Q1011 A2985 HR69 RWY NMLMETAR SLCP 241300Z 30006KT 5000 FU NSC 28/23 Q1014 A2994 HR72 RWY NMLMETAR SLSI 241300Z 36010KT 4000 FU NSC 29/23 Q1012 A2988 HR69 RWY NMLMETAR SLTI 241300Z 00000KT 9999 BKN070 31/22 Q1014 A2994 HR61 FU RWYNML=METAR SLJE 241300Z 35006KT 2500 FU NSC 32/24 Q1013 A2991 HR63 RWY NMLMETAR SLVG 241300Z 00000KT 9999 FEW020 SCT070 21/15 Q1024 A3024 HR71FU RWY NML=METAR SLRB 241300Z 36015KT 8000 NSC 31/24 Q1012 A2988 HR65 FU RWY NMLMETAR SLPS 241300Z NIL=METAR SLCA 241300Z 00000KT 9999 NSC 28/19 Q1013 A2991 HR60 FU RWY NML
ZPX0236 241301@CAELT@GG SLZZYMYT@CAELT@241300 SLLPYFYA@CAELT@SABO SLLP 241300@CAELT@METAR SLLP 241300Z VRB02KT 9999 FEW015 SCT200 12/02 Q1040 A3072@CAELT@629.4 HR53 P93// FU NOSIG=@CAELT@METAR SLCO 241300Z 30010KT 9999 NSC 30/23 Q1012 A2989 984.7 HR69 FU=@CAELT@METAR SLRY 241300Z 34008KT 8000 NSC 30/23 Q1007 A2976 HR67@CAELT@FU RWY NML=METAR SLRQ 241300Z 00000KT 9999 NSC 28/24 Q1009 A2982 985.8 HR76=METAR SLAP 241300Z 00000KT 9999 NSC 24/20 Q1018 A3006 858.6 HR77=METAR SLSB 241300Z 31006KT 8000 NSC 29/23 Q1009 A2981 HR72 FU RWY NML
ZPX0258 241351@CAELT@GG SLZZYMYT@CAELT@241350 SLRBYGYS@CAELT@SABO SLRB 241400@CAELT@METAR SLRB 241400Z 36018KT 8000 NSC 32/24 Q1012 A2988 HR60 FU RWY NML=@CAELT@
ZPX0263 241354@CAELT@GG SLZZYMYT@CAELT@241355 SLCOYGYZ@CAELT@SABO SLCO 241400@CAELT@METAR SLCO 241400Z 32008KT 9999 FEW025 32/23 Q1012 A2989 984.7 HR60@CAELT@
ZPX0264 241354@CAELT@GG SLZZYMYT@CAELT@241355 SLRQYSYX@CAELT@SABO SLRQ 241400@CAELT@METAR SLRQ 241400Z 00000KT 9999 FEW017 31/24 Q1009 A2981 985.5 HR68=@CAELT@
ZPX0265 241354@CAELT@GG SLZZYMYT@CAELT@241353 SLRYYSYX@CAELT@SABO SLRY 241400@CAELT@METAR SLRY 241400Z 34012KT 8000 NSC 33/24 Q1007 A2976 HR60 FU RWY NML@CAELT@
ZPX0266 241355@CAELT@GG SLZZYMYT@CAELT@241355 SLSBYSYX@CAELT@SABO SLSB 241400@CAELT@METAR SLSB 241400Z 32006KT 8000 NSC 31/24 Q1009 A2979 HR65 FU RWY NML=@CAELT@
ZPX0267 241355@CAELT@GG SLZZYMYT@CAELT@241355 SLTRYGYZ@CAELT@SABO SLTR 241400@CAELT@METAR SLTR 241400Z 32016KT 8000 NSC 33/23 Q1010 A2985 992.2 HR55@CAELT@FU NOSIG=@CAELT@
ZPX0268 241355@CAELT@GG SLZZYMYT@CAELT@241355 SLCAYGYS@CAELT@SABO SLCA 241400@CAELT@METAR SLCA 241400Z 00000KT 9999 NSC 31/19 Q1012 A2988 HR51 FU RWY NML@CAELT@
ZPX0269 241356@CAELT@GG SLZZYMYT@CAELT@241356 SLVRYGYZ@CAELT@SABO SLVR 241400@CAELT@METAR SLVR 241400Z 33013G25KT 4000 FU NSC 33/22 Q1010 A2984 HR52@CAELT@NOSIG=@CAELT@
ZPX0270 241356@CAELT@GG SLZZYMYT@CAELT@241356 SLSAYGYS@CAELT@SABO SLSA 241400@CAELT@METAR SLSA 241400Z 33015KT 8000 FEW020 33/23 Q1010 A2983 HR54 FU CI=@CAELT@
ZPX0271 241356@CAELT@GG SLZZYMYT@CAELT@241356 SLSAYGYS@CAELT@SABO SLSA 241400@CAELT@METAR SLSA 241400Z 33015KT 8000 FEW020 33/23 Q1010 A2983 HR54 FU CI=@CAELT@
ZPX0272 241356@CAELT@GG SLZZYMYT@CAELT@241354 SLETYMYC@CAELT@SABO SLET 241400@CAELT@METAR SLET 241400Z 32016G27KT 7000 FEW017 32/21 Q1009 A2982 HR53 FU@CAELT@NOSIG=@CAELT@
ZPX0273 241356@CAELT@GG SLZZYMYT@CAELT@241356 SLCBYGYZ@CAELT@SABO SLCB 241400@CAELT@METAR SLCB 241400Z 33003KT 9999 FEW033 25/09 Q1025 A3028 751.7 HR37@CAELT@FU NOSIG=@CAELT@
ZPX0274 241357@CAELT@GG SLZZYMYT@CAELT@241357 SLTRYGYS@CAELT@SABO SLTR 241400@CAELT@METAR SLTR 241400Z 32016KT 8000 NSC 33/23 Q1010 A2985 992.2 HR55@CAELT@FU NOSIG=@CAELT@METAR SLGM 241400Z 36006KT 8000 SCT080 32/23 Q1012 A2989 HR62 FU=@CAELT@METAR SLRI 241400Z 00000KT 9999 NSC 32/23 Q1012 A2991 HR59=@CAELT@METAR SLJO 241400Z 36012KT 7000 NSC 32/23 Q1012 A2989 HR60 FUCI RWY NML=METAR SLRA 241400Z 34014KT 8000 NSC 33/23 Q1010 A2985 HR58 FUMETAR SLMG 241400Z 32012KT 8000 NSC 31/24 Q1009 A2981 HR65 FUMETAR SLBU 241400Z NIL=METAR SLSA 241400Z 33015KT 8000 FEW020 33/23 Q1010 A2983 HR54 FU CI=METAR SLSR 241400Z 32015KT 8000 NSC 32/23 Q1009 A2980 HR57 FURWY NML=METAR SLSM 241400Z 34004KT 9999 NSC 32/24 Q1010 A2983 HR63 RWY NML=
ZPX0275 241358@CAELT@GG SLZZYMYT@CAELT@241358 SLLPYGYZ@CAELT@SABO SLLP 241400@CAELT@METAR SLLP 241400Z VRB02KT 9999 FEW020 SCT200 13/03 Q1040 A3073@CAELT@629.6 HR51 P93// FU NOSIG=@CAELT@
ZPX0276 241358@CAELT@GG SLZZYMYT@CAELT@241359 SLVRYGYS@CAELT@SABO SLVR 241400@CAELT@METAR SLVR 241400Z 33013G25KT 4000 FU NSC 33/22 Q1010 A2984 HR52@CAELT@NOSIG=@CAELT@METAR SLET 241400Z 32016G27KT 7000 FEW017 32/21 Q1009 A2982 HR53 FU@CAELT@METAR SLAS 241400Z 36012KT 4000 FU NSC 33/24 Q1012 A2989 HR61 RWY NML@CAELT@METAR SLJV 241400Z 34005KT 5000 FU NSC 32/24 Q1010 A2983 HR61 RWY NMLMETAR SLCP 241400Z 30008KT 6000 NSC 30/23 Q1014 A2994 HR67 FU RWY NMLMETAR SLSI 241400Z 33010KT 4000 FU NSC 31/22 Q1011 A2985 HR59 RWY NMLMETAR SLTI 241400Z 00000KT 9000 BKN070 33/23 Q1014 A2994 HR56 FU RWYNML=METAR SLJE 241400Z 35008KT 2500 FU NSC 35/25 Q1012 A2988 HR55 RWY NMLMETAR SLVG 241400Z 00000KT 9999 SCT023 23/16 Q1023 A3021 HR62 FU RWYMETAR SLRB 241400Z 36018KT 8000 NSC 32/24 Q1012 A2988 HR60 FU RWY NMLMETAR SLPS 241400Z NIL=METAR SLCA 241400Z 00000KT 9999 NSC 31/19 Q1012 A2988 HR51 FU RWY NML
ZPX0278 241401@CAELT@GG SLZZYMYT@CAELT@241400 SLCBYGYS@CAELT@SABO SLCB 241400@CAELT@METAR SLCB 241400Z 33003KT 9999 FEW033 25/09 Q1025 A3028 751.7 HR37@CAELT@FU NOSIG=@CAELT@METAR SLAL 241400Z 00000KT 9999 SCT017 18/09 Q1030 A3043 704.5 HR57=@CAELT@
ZPX0282 241403@CAELT@GG SLZZYMYT@CAELT@241400 SLLPYFYA@CAELT@SABO SLLP 241400@CAELT@METAR SLLP 241400Z VRB02KT 9999 FEW020 SCT200 13/03 Q1040 A3073@CAELT@629.6 HR51 P93// FU NOSIG=@CAELT@METAR SLCO 241400Z 32008KT 9999 FEW025 32/23 Q1012 A2989 984.7 HR60@CAELT@METAR SLRY 241400Z 34012KT 8000 NSC 33/24 Q1007 A2976 HR60@CAELT@FU RWY NML=METAR SLRQ 241400Z 00000KT 9999 FEW017 31/24 Q1009 A2981 985.5 HR68=METAR SLAP 241400Z 00000KT 9999 NSC 26/19 Q1018 A3006 858.6 HR66=METAR SLSB 241400Z 32006KT 8000 NSC 31/24 Q1009 A2979 HR65 FU RWY NML
ZPX0304 241449@CAELT@GG SLZZYMYT@CAELT@241450 SLRBYGYS@CAELT@SABO SLRB 241500@CAELT@METAR SLRB 241500Z 36015KT 8000 FEW020 34/23 Q1011 A2985 HR53 FU RWY@CAELT@NML=@CAELT@
ZPX0305 241450@CAELT@GG SLZZYMYT@CAELT@241451 SLVRYGYZ@CAELT@SABO SLVR 241500@CAELT@METAR SLVR 241500Z 33019G32KT 6000 NSC 34/22 Q1009 A2980 HR50 FU@CAELT@NOSIG=@CAELT@
ZPX0306 241451@CAELT@GG SLZZYMYT@CAELT@241451 SLCAYGYS@CAELT@SABO SLCA 241500@CAELT@METAR SLCA 241500Z 00000KT 9999 SCT033 34/18 Q1012 A2988 HR40 FU RWY@CAELT@NML=@CAELT@
ZPX0311 241454@CAELT@GG SLZZYMYT@CAELT@241455 SLCOYGYZ@CAELT@SABO SLCO 241500@CAELT@METAR SLCO 241500Z 29012KT 9999 FEW025 33/24 Q1011 A2986 983.7 HR58@CAELT@FU=@CAELT@
ZPX0312 241454@CAELT@GG SLZZYMYT@CAELT@241454 SLSAYGYS@CAELT@SABO SLSA 241500@CAELT@METAR SLSA 241500Z 33015KT 8000 SCT020 35/22 Q1009 A2981 HR46 FU=@CAELT@
ZPX0314 241454@CAELT@GG SLZZYMYT@CAELT@241455 SLRQYSYX@CAELT@SABO SLRQ 241500@CAELT@METAR SLRQ 241500Z 00000KT 8000 FEW020 33/25 Q1008 A2979 984.8 HR63@CAELT@
ZPX0315 241455@CAELT@GG SLZZYMYT@CAELT@241455 SLSBYSYX@CAELT@SABO SLSB 241500@CAELT@METAR SLSB 241500Z 34008KT 8000 NSC 33/23 Q1008 A2979 HR57 FU RWY NML=@CAELT@
ZPX0316 241455@CAELT@GG SLZZYMYT@CAELT@241453 SLRYYSYX@CAELT@SABO SLRY 241500@CAELT@METAR SLRY 241500Z 34014KT 9999 NSC 33/23 Q1007 A2976 HR55 FU RWY NML@CAELT@
ZPX0317 241455@CAELT@GG SLZZYMYT@CAELT@241455 SLTRYGYZ@CAELT@SABO SLTR 241500@CAELT@METAR SLTR 241500Z 31018KT 8000 NSC 33/23 Q1009 A2982@CAELT@991.3 HR53 FU NOSIG=@CAELT@
ZPX0319 241456@CAELT@GG SLZZYMYT@CAELT@241456 SLLPYGYZ@CAELT@SABO SLLP 241500@CAELT@METAR SLLP 241500Z VRB02KT 9999 FEW020 SCT200 15/01 Q1040 A3071 629.3@CAELT@HR40 P93// FU NOSIG=@CAELT@
ZPX0320 241459@CAELT@GG SLZZYMYT@CAELT@241459 SLVRYGYS@CAELT@SABO SLVR 241500@CAELT@METAR SLVR 241500Z 33019G32KT 6000 NSC 34/22 Q1009 A2980 HR50 FU@CAELT@NOSIG=@CAELT@METAR SLET 241500Z 31020G32KT 9999 FEW017 34/20 Q1009 A29.80 HR46@CAELT@NOSIG=.@CAELT@METAR SLAS 241500Z 34012KT 6000 NSC 34/24 Q1012 A2989 HR56 FU RWY NMLMETAR SLJV 241500Z 34005KT 6000 NSC 33/24 Q1010 A2983 HR59 FU RWY NMLMETAR SLCP 241500Z 30010KT 8000 FEW020 32/21 Q1013 A2991 HR53 FU RWYNML=METAR SLSI 241500Z 36010KT 5000 FU SCT017 33/22 Q1011 A2985 HR53 RWYMETAR SLTI 241500Z 00000KT 8000 FEW020 BKN070 35/23 Q1013 A2991 HR51FU RWY NML=METAR SLJE 241500Z 35012KT 3000 FU FEW020 36/23 Q1012 A2988 HR49 RWYMETAR SLVG 241500Z 00000KT 9999 SCT027 26/15 Q1023 A3021 HR49 FU RWYMETAR SLRB 241500Z 36015KT 8000 FEW020 34/23 Q1011 A2985 HR53 FU RWYMETAR SLPS 241500Z NIL=METAR SLCA 241500Z 00000KT 9999 SCT033 34/18 Q1012 A2988 HR40 FU RWY
ZPX0321 241500@CAELT@GG SLZZYMYT@CAELT@241459 SLCBYGYZ@CAELT@SABO SLCB 241500@CAELT@METAR SLCB 241500Z 27006KT 9999 FEW033 26/07 Q1024 A3025 750.9 HR28@CAELT@FU NOSIG=@CAELT@
ZPX0323 241500@CAELT@GG SLZZYMYT@CAELT@241500 SLCBYGYS@CAELT@SABO SLCB 241500@CAELT@METAR SLCB 241500Z 27006KT 9999 FEW033 26/07 Q1024 A3025 750.9 HR28@CAELT@FU NOSIG=@CAELT@METAR SLAL 241500Z 00000KT 9999 SCT023 20/08 Q1029 A3041 704.0 HR46=@CAELT@
ZPX0324 241500@CAELT@GG SLZZYMYT@CAELT@241500 SLTRYGYS@CAELT@SABO SLTR 241500@CAELT@METAR SLTR 241500Z 31018KT 8000 NSC 33/23 Q1009 A2982 991.3 HR53@CAELT@FU NOSIG=@CAELT@METAR SLGM 241500Z 36008KT 8000 SCT080 33/24 Q1012 A2988 HR59 FU=@CAELT@METAR SLRI 241500Z 34006KT 9999 FEW017 33/24 Q1011 A2988 HR61=@CAELT@METAR SLJO 241500Z 35010KT 8000 NSC 34/23 Q1011 A2988 HR52 FU CIRWY NML=METAR SLRA 241500Z 33012KT 8000 FEW020 35/22 Q1010 A2983 HR48 FUCI RWY NML=METAR SLMG 241500Z 32012KT 8000 FEW017 35/23 Q1009 A2980 HR49 FUMETAR SLBU 241500Z NIL=METAR SLSA 241500Z 33015KT 8000 SCT020 35/22 Q1009 A2981 HR46 FU=METAR SLSR 241500Z 32015KT 8000 FEW017 33/22 Q1008 A2978 HR52 FUMETAR SLSM 241500Z 34012KT 9999 NSC 34/24 Q1009 A2981 HR54 RWY NML=
ZPX0329 241503@CAELT@GG SLZZYMYT@CAELT@241500 SLLPYFYA@CAELT@SABO SLLP 241500@CAELT@METAR SLLP 241500Z VRB02KT 9999 FEW020 SCT200 15/01 Q1040 A3071 629.3@CAELT@HR40 P93// FU NOSIG=@CAELT@METAR SLCO 241500Z 29012KT 9999 FEW025 33/24 Q1011 A2986 983.7 HR58@CAELT@FU=@CAELT@METAR SLRY 241500Z 34014KT 9999 NSC 33/23 Q1007 A2976 HR55FU RWY NML=METAR SLRQ 241500Z 00000KT 8000 FEW020 33/25 Q1008 A2979 984.8 HR63METAR SLAP 241500Z 00000KT 9999 FEW025 28/19 Q1017 A3004 858.1 HR60=METAR SLSB 241500Z 34008KT 8000 NSC 33/23 Q1008 A2979 HR57 FU RWY NML
ZPX0352 241551@CAELT@GG SLZZYMYT@CAELT@241552 SLVRYGYZ@CAELT@SABO SLVR 241600@CAELT@METAR SLVR 241600Z 33019G32KT 8000 FEW020 35/22 Q1008 A2979 HR46 FU@CAELT@NOSIG=@CAELT@
ZPX0356 241554@CAELT@GG SLZZYMYT@CAELT@241553 SLRYYSYX@CAELT@SABO SLRY 241600@CAELT@METAR SLRY 241600Z 34014KT 9999 FEW020 35/23 Q1006 S2973 HR50 FU RWY@CAELT@NML=@CAELT@
ZPX0357 241554@CAELT@GG SLZZYMYT@CAELT@241554 SLCAYGYS@CAELT@SABO SLCA 241600@CAELT@METAR SLCA 241600Z 00000KT 9999 SCT033 35/18 Q1010 A2983 HR38 FU RWY@CAELT@NML=@CAELT@
ZPX0358 241555@CAELT@GG SLZZYMYT@CAELT@241555 SLETYMYC@CAELT@SABO SLET 241600@CAELT@METAR SLET 241600Z 32020G34KT 9999 FEW020 34/20 Q1008 A2977 HR44@CAELT@NOSIG=@CAELT@
ZPX0359 241555@CAELT@GG SLZZYMYT@CAELT@241554 SLSAYGYS@CAELT@SABO SLSA 241600@CAELT@METAR SLSA 241600Z 31014KT 8000 SCT020 36/23 Q1008 A2978 HR47 FU=@CAELT@
ZPX0360 241555@CAELT@GG SLZZYMYT@CAELT@241554 SLSAYGYS@CAELT@SABO SLSA 241600@CAELT@METAR SLSA 241600Z 31014KT 8000 SCT020 36/23 Q1008 A2978 HR47 FU=@CAELT@
ZPX0361 241556@CAELT@GG SLZZYMYT@CAELT@241555 SLRBYGYS@CAELT@SABO SLRB 241600@CAELT@METAR SLRB 241600Z 36012KT 8000 SCT020 35/23 Q1010 A2983 HR49 FU RWY@CAELT@NML=@CAELT@
ZPX0362 241556@CAELT@GG SLZZYMYT@CAELT@241555 SLRQYSYX@CAELT@SABO SLRQ 241600@CAELT@METAR SLRQ 241600Z 36004KT 8000 SCT020 35/25 Q1008 A2976 983.9 HR55@CAELT@
ZPX0363 241556@CAELT@GG SLZZYMYT@CAELT@241557 SLLPYGYZ@CAELT@SABO SLLP 241600@CAELT@METAR SLLP 241600Z 29005KT 220V330 9999 SCT020 15/01 Q1039 A3069@CAELT@628.8 HR38 P94// FU NOSIG=@CAELT@
ZPX0364 241557@CAELT@GG SLZZYMYT@CAELT@241555 SLTRYGYZ@CAELT@SABO SLTR 241600@CAELT@METAR SLTR 241600Z 31012G22KT 8000 FEW020 35/22 Q1008 A2978 990.1@CAELT@HR46 FU NOSIG=@CAELT@
ZPX0365 241558@CAELT@GG SLZZYMYT@CAELT@241557 SLTRYGYS@CAELT@SABO SLTR 241600@CAELT@METAR SLTR 241600Z 31012G22KT 8000 FEW020 35/22 Q1008 A2978 990.1@CAELT@HR46 FU NOSIG=@CAELT@
ZPX0366 241558@CAELT@GG SLZZYMYT@CAELT@241558 SLCBYGYZ@CAELT@SABO SLCB 241600@CAELT@METAR SLCB 241600Z 24005KT 9999 FEW033 28/06 Q1023 A3022 750.0 HR24@CAELT@FU NOSIG=@CAELT@
ZPX0367 241559@CAELT@GG SLZZYMYT@CAELT@241558 SLVRYGYS@CAELT@SABO SLVR 241600@CAELT@METAR SLVR 241600Z 33019G32KT 8000 FEW020 35/22 Q1008 A2979 HR46 FU@CAELT@NOSIG=@CAELT@METAR SLET 241600Z 32020G34KT 9999 FEW020 34/20 Q1008 A2977 HR44@CAELT@METAR SLAS 241600Z 34012KT 8000 FEW020 35/24 Q1011 A2986 HR52 FU RWY@CAELT@NML=METAR SLJV 241600Z 36008KT 6000 NSC 34/24 Q1010 A2883 HR57 RWY NML=METAR SLCP 241600Z 30008KT 9999 FEW020 33/22 Q1012 A2988 HR52 FU RWYMETAR SLSI 241600Z 33006KT 5000 FU SCT017 34/22 Q1010 A2983 HR48 RWYMETAR SLRB 241600Z 36012KT 8000 SCT020 35/23 Q1010 A2983 HR49 FU RWYMETAR SLCA 241600Z 00000KT 9999 SCT033 35/18 Q1010 A2983 HR38 FU RWY
ZPX0368 241559@CAELT@GG SLZZYMYT@CAELT@241558 SLTRYGYS@CAELT@SABO SLTR 241600@CAELT@METAR SLTR 241600Z 31012G22KT 8000 FEW020 35/22 Q1008 A2978 990.1@CAELT@HR46 FU NOSIG=@CAELT@METAR SLGM 241600Z 36008KT 8000 FEW017 34/24 Q1010 A2982 HR56 FU=@CAELT@METAR SLRI 241600Z 32008KT 9999 SCT017 FEW020CB 34/23 Q1010 A2985@CAELT@HR53 CB NW=METAR SLJO 241600Z 34012KT 8000 FEW020 35/23 Q1010 A2985 HR49 FUCI RWY NML=METAR SLRA 241600Z 32010KT 8000 FEW020 36/22 Q1009 A2980 HR44 FUMETAR SLMG 241600Z 32014KT 8000 SCT017 36/22 Q1008 A2977 HR44 FURWY NML=METAR SLBU 241600Z NIL=METAR SLSA 241600Z 31014KT 8000 SCT020 36/23 Q1008 A2978 HR47 FU=METAR SLSR 241600Z 34014KT 9999 SCT017 35/23 Q1008 A2977 HR50METAR SLSM 241600Z 32015G25KT 7000 FEW017 34/22 Q1008 A2977 HR48FU RWY NML=
ZPX0369 241559@CAELT@GG SLZZYMYT@CAELT@241559 SLCBYGYS@CAELT@SABO SLCB 241600@CAELT@METAR SLCB 241600Z 24005KT 9999 FEW033 28/06 Q1023 A3022 750.0 HR24@CAELT@FU NOSIG=@CAELT@METAR SLAL 241600Z 00000KT 9999 SCT023 23/08 Q1028 A3038 703.4 HR39=@CAELT@
ZPX0370 241600@CAELT@GG SLZZYMYT@CAELT@241559 SLSBYSYX@CAELT@SABO SLSB 241600@CAELT@METAR SLSB 241600Z 33008KT 8000 FEW017 33/24 Q1007 A2973 HR57 FU RWY@CAELT@NML=@CAELT@
ZPX0371 241602@CAELT@GG SLZZYMYT@CAELT@241603 SLCOYGYZ@CAELT@SABO SLCO 241600 RRA@CAELT@METAR RTD SLCO 241600Z 33008KT 9999 SCT027 36/24 Q1010 A2982 982.7@CAELT@HR51 FU=@CAELT@
ZPX0373 241603@CAELT@GG SLZZYMYT@CAELT@241601 SLLPYFYA@CAELT@SABO SLLP 241600@CAELT@METAR SLLP 241600Z 29005KT 220V330 9999 SCT020 15/01 Q1039 A3069@CAELT@628.8 HR38 P94// FU NOSIG=@CAELT@METAR SLRY 241600Z 34014KT 9999 FEW020 35/23 Q1006 S2973 HR50 FU RWY@CAELT@NML=@CAELT@METAR SLRQ 241600Z 36004KT 8000 SCT020 35/25 Q1008 A2976 983.9 HR55METAR SLAP 241600Z 00000KT 9999 FEW025 30/20 Q1016 A3001 857.1 HR56=METAR SLSB 241600Z 33008KT 8000 FEW017 33/24 Q1007 A2973 HR57 FU RWY
ZPX0374 241604@CAELT@GG SLZZYMYT@CAELT@241604 SLLPYFYA@CAELT@SABO SLLP 241600 RRA@CAELT@METAR SLLP 241600Z 29005KT 220V330 9999 SCT020 15/01 Q1039 A3069@CAELT@628.8 HR38 P94// FU NOSIG=@CAELT@METAR RTD SLCO 241600Z 33008KT 9999 SCT027 36/24 Q1010 A2982 982.7@CAELT@HR51 FU=@CAELT@METAR SLRY 241600Z 34014KT 9999 FEW020 35/23 Q1006 S2973 HR50 FU RWYNML=METAR SLRQ 241600Z 36004KT 8000 SCT020 35/25 Q1008 A2976 983.9 HR55METAR SLAP 241600Z 00000KT 9999 FEW025 30/20 Q1016 A3001 857.1 HR56=METAR SLSB 241600Z 33008KT 8000 FEW017 33/24 Q1007 A2973 HR57 FU RWY
ZPX0396 241650@CAELT@GG SLZZYMYT@CAELT@241650 SLRBYGYS@CAELT@SABO SLRB 241700@CAELT@METAR SLRB 241700Z 36016KT 8000 SCT020 37/22 Q1009 A2980 HR44 FU RWY@CAELT@NML=@CAELT@
ZPX0397 241651@CAELT@GG SLZZYMYT@CAELT@241652 SLVRYGYZ@CAELT@SABO SLVR 241700@CAELT@METAR SLVR 241700Z 33019G32KT 8000 FEW020 35/22 Q1007 A2976 HR46 FU@CAELT@NOSIG=@CAELT@
ZPX0399 241653@CAELT@GG SLZZYMYT@CAELT@241653 SLCAYGYS@CAELT@SABO SLCA 241700@CAELT@METAR SLCA 241700Z 00000KT 9999 SCT033 35/17 Q1010 A2983 HR34 FU RWY@CAELT@NML=@CAELT@
ZPX0400 241653@CAELT@GG SLZZYMYT@CAELT@241654 SLSAYGYS@CAELT@SABO SLSA 241700@CAELT@METAR SLSA 241700Z 32015KT 8000 SCT020 37/23 Q1007 A2975 HR44 FU=@CAELT@
ZPX0401 241653@CAELT@GG SLZZYMYT@CAELT@241654 SLSAYGYS@CAELT@SABO SLSA 241700@CAELT@METAR SLSA 241700Z 32015KT 8000 SCT020 37/23 Q1007 A2975 HR44 FU=@CAELT@
ZPX0403 241655@CAELT@GG SLZZYMYT@CAELT@241652 SLETYMYC@CAELT@SABO SLET 241700@CAELT@METAR SLET 241700Z 3202032KT 9999 FEW027CB 35/20 Q1007 A2974 HR41 CB@CAELT@S NOSIG=@CAELT@
ZPX0404 241655@CAELT@GG SLZZYMYT@CAELT@241655 SLTRYGYZ@CAELT@SABO SLTR 241700@CAELT@METAR SLTR 241700Z 31012G22KT 8000 FEW020 36/22 Q1007 A2974@CAELT@988.8 HR45 FU NOSIG=@CAELT@
ZPX0405 241655@CAELT@GG SLZZYMYT@CAELT@241654 SLRYYSYX@CAELT@SABO SLRY 241700@CAELT@METAR SLRY 241700Z 34014KT 9999 FEW020 36/22 Q1005 A2969 HR46 FU RWY@CAELT@NML=@CAELT@
ZPX0407 241656@CAELT@GG SLZZYMYT@CAELT@241655 SLRQYSYX@CAELT@SABO SLRQ 241700@CAELT@METAR SLRQ 241700Z 36004KT 8000 SCT020 37/25 Q1006 A2972 982.3 HR50@CAELT@
ZPX0409 241657@CAELT@GG SLZZYMYT@CAELT@241658 SLCOYGYZ@CAELT@SABO SLCO 241700@CAELT@METAR SLCO 241700Z 34010KT 9999 SCT030 SCT200 37/25 Q1009 A2979 981.5@CAELT@HR50 FU=@CAELT@
ZPX0410 241657@CAELT@GG SLZZYMYT@CAELT@241657 SLCBYGYZ@CAELT@SABO SLCB 241700@CAELT@METAR SLCB 241700Z 26007KT 9999 FEW033 29/04 Q1021 A3017 748.8 HR20@CAELT@NOSIG=@CAELT@
ZPX0411 241658@CAELT@GG SLZZYMYT@CAELT@241657 SLSBYSYX@CAELT@SABO SLSB 241700@CAELT@METAR SLSB 241700Z 32010KT 8000 FEW017 33/23 Q1006 A2971 HR51 FU RWY@CAELT@NML=@CAELT@
ZPX0412 241659@CAELT@GG SLZZYMYT@CAELT@241658 SLTRYGYS@CAELT@SABO SLTR 241700@CAELT@METAR SLTR 241700Z 31012G22KT 8000 FEW020 36/22 Q1007 A2974@CAELT@988.8 HR45 FU NOSIG=@CAELT@METAR SLGM 241700Z 36008KT 9999 FEW017 35/25 Q1009 A2980 HR55=@CAELT@METAR SLRI 241700Z 36006KT 9999 SCT017 FEW020CB 36/22@CAELT@Q1009 A2982 HR45 CB N=METAR SLJO 241700Z 34012KT 9999 FEW020 36/22 Q1010 A2984 HR45 FU CIRWY NML=METAR SLRA 241700Z 32012KT 8000 FEW020 37/22 Q1008 A2977 HR42 FU CIMETAR SLMG 241700Z 32010KT 8000 SCT017 38/22 Q1007 A2975 HR40 FUMETAR SLBU 241700Z NIL=METAR SLSA 241700Z 32015KT 8000 SCT020 37/23 Q1007 A2975 HR44 FU=METAR SLSR 241700Z 32015G25KT 7000 FEW017 36/22 Q1005 A2970 HR45 FUMETAR SLSM 241700Z NIL=
ZPX0415 241701@CAELT@GG SLZZYMYT@CAELT@241655 SLLPYGYZ@CAELT@SABO SLLP 241700@CAELT@METAR SLLP 241700Z 28005KT 220V320 9999 FEW020 FEW023CB 17/M02 Q1038@CAELT@A3066 628.2 HR29 P0784 CB/SH N FU NOSIG=@CAELT@
ZPX0416 241702@CAELT@GG SLZZYMYT@CAELT@241701 SLCBYGYS@CAELT@SABO SLCB 241700@CAELT@METAR SLCB 241700Z 26007KT 9999 FEW033 29/04 Q1021 A3017 748.8 HR20@CAELT@NOSIG=@CAELT@
ZPX0417 241702@CAELT@GG SLZZYMYT@CAELT@241701 SLVRYGYS@CAELT@SABO SLVR 241700@CAELT@METAR SLVR 241700Z 33019G32KT 8000 FEW020 35/22 Q1007 A2976 HR46 FU@CAELT@NOSIG=@CAELT@METAR SLET 241700Z 3202032KT 9999 FEW027CB 35/20 Q1007 A2974 HR41 CB/@CAELT@S NOSIG=@CAELT@METAR SLAS 241700Z 34012KT 9999 FEW020 36/23 Q1009 A2980 HR48 RWY NMLMETAR SLJV 241700Z 36010KT 6000 NSC 35/21 Q1009 A2980 HR46 FU RWY NMLMETAR SLCP 241700Z 30006KT 9999 FEW020 33/22 Q1011 A2985 HR52 FU RWYNML=METAR SLSI 241700Z 33010KT 5000 FU SCT017 35/22 Q1008 A2977 HR45 RWYMETAR SLRB 241700Z 36016KT 8000 SCT020 37/22 Q1009 A2980 HR44 FU RWYMETAR SLCA 241700Z 00000KT 9999 SCT033 35/17 Q1010 A2983 HR34 FU RWY
ZPX0421 241712@CAELT@GG SLZZYMYT@CAELT@241704 SLLPYFYA@CAELT@SABO SLLP 241700@CAELT@METAR SLLP 241700Z 28005KT 220V320 9999 FEW020 FEW023CB 17/M02 Q1038@CAELT@A3066 628.2 HR29 P0784 CB/SH N FU NOSIG=@CAELT@METAR SLCO 241700Z 34010KT 9999 SCT030 SCT200 37/25 Q1009 A2979 981.5@CAELT@HR50 FU=@CAELT@METAR SLRY 241700Z 34014KT 9999 FEW020 36/22 Q1005 A2969 HR46 FU RWYNML=METAR SLRQ 241700Z 36004KT 8000 SCT020 37/25 Q1006 A2972 982.3 HR50METAR SLAP 241700Z 00000KT 9999 FEW025 32/19 Q1016 A3000 856.9 HR46=METAR SLSB 241700Z 32010KT 8000 FEW017 33/23 Q1006 A2971 HR51 FU RWY
ZPX0422 241715@CAELT@GG SLZZYMYT@CAELT@241715 SLTRYGYS@CAELT@SABO SLTR 241700 RRA@CAELT@METAR SLTR 241700Z 31012G22KT 8000 FEW020 36/22 Q1007 A2974@CAELT@988.8 HR45 FU NOSIG=@CAELT@METAR SLGM 241700Z 36008KT 9999 FEW017 35/25 Q1009 A2980 HR55=@CAELT@METAR SLRI 241700Z 36006KT 9999 SCT017 FEW020CB 36/22@CAELT@Q1009 A2982 HR45 CB N=METAR SLJO 241700Z 34012KT 9999 FEW020 36/22 Q1010 A2984 HR45 FU CIRWY NML=METAR SLRA 241700Z 32012KT 8000 FEW020 37/22 Q1008 A2977 HR42 FU CIMETAR SLMG 241700Z 32010KT 8000 SCT017 38/22 Q1007 A2975 HR40 FUMETAR SLBU 241700Z NIL=METAR SLSA 241700Z 32015KT 8000 SCT020 37/23 Q1007 A2975 HR44 FU=METAR SLSR 241700Z 32015G25KT 7000 FEW017 36/22 Q1005 A2970 HR45 FUMETAR RTD SLSM 241700Z 34014KT 9999 SCT017 36/23 Q1007 A2974 HR48
ZPX0436 241752@CAELT@GG SLZZYMYT@CAELT@241753 SLVRYGYZ@CAELT@SABO SLVR 241800@CAELT@METAR SLVR 241800Z 33018G31KT 8000 FEW020 36/22 Q1006 A2972 HR45 FU@CAELT@NOSIG=@CAELT@
ZPX0437 241754@CAELT@GG SLZZYMYT@CAELT@241753 SLRBYGYS@CAELT@SABO SLRB 241800@CAELT@METAR SLRB 241800Z 16015KT 8000 TS BKN020 FEW025CB 27/24 Q1010 A2983@CAELT@HR83 FU CB/TS S/SE/SW RWY NML=@CAELT@
ZPX0438 241754@CAELT@GG SLZZYMYT@CAELT@241753 SLRYYSYX@CAELT@SABO SLRY 241800@CAELT@METAR SLRY 241800Z 34010KT 9999 FEW023 36/23 Q1004 A2966 HR46 FU RWY@CAELT@NML=@CAELT@
ZPX0439 241754@CAELT@GG SLZZYMYT@CAELT@241754 SLSBYSYX@CAELT@SABO SLSB 241800@CAELT@METAR SLSB 241800Z 30015KT 8000 FEW020 35/24 Q1004 A2967 HR53 FU@CAELT@RWY NML=@CAELT@
ZPX0440 241755@CAELT@GG SLZZYMYT@CAELT@241755 SLLPYGYZ@CAELT@SABO SLLP 241800@CAELT@METAR SLLP 241800Z 24008KT 190V280 9999 SCT020 FEW023CB 18/M02 Q1037@CAELT@A3062 627.3 HR27 P94XX CB/SH NW AC/CI NOSIG=@CAELT@
ZPX0441 241755@CAELT@GG SLZZYMYT@CAELT@241755 SLSAYGYS@CAELT@SABO SLSA 241800@CAELT@METAR SLSA 241800Z 32015KT 8000 SCT020 37/22 Q1006 A2971 HR40 FU=@CAELT@
ZPX0442 241755@CAELT@GG SLZZYMYT@CAELT@241755 SLSAYGYS@CAELT@SABO SLSA 241800@CAELT@METAR SLSA 241800Z 32015KT 8000 SCT020 37/22 Q1006 A2971 HR40 FU=@CAELT@
ZPX0443 241756@CAELT@GG SLZZYMYT@CAELT@241755 SLCAYGYS@CAELT@SABO SLCA 241800@CAELT@METAR SLCA 241800Z 21005KT 9999 SCT033 FEW040CB 36/16 Q1008 A2977@CAELT@HR32 CB N FU RWY NML=@CAELT@
ZPX0444 241756@CAELT@GG SLZZYMYT@CAELT@241756 SLTRYGYZ@CAELT@SABO SLTR 241800@CAELT@METAR SLTR 241800Z 32016KT 8000 FEW020 36/22 Q1006 A2971 987.8@CAELT@HR44 FU NOSIG=@CAELT@
ZPX0445 241756@CAELT@GG SLZZYMYT@CAELT@241755 SLRQYSYX@CAELT@SABO SLRQ 241800@CAELT@METAR SLRQ 241800Z 36004KT 8000 SCT020 38/25 Q1004 A2967 980.7 HR47@CAELT@
ZPX0447 241757@CAELT@GG SLZZYMYT@CAELT@241755 SLETYMYC@CAELT@SABO SLET 241800@CAELT@METAR SLET 241800Z 30017G30KT 9999 FEW020 FEW030CB 36/19 Q1005 A2970@CAELT@HR38 CB S/SW/W CI NOSIG=@CAELT@
ZPX0448 241758@CAELT@GG SLZZYMYT@CAELT@241758 SLTRYGYS@CAELT@SABO SLTR 241800@CAELT@METAR SLTR 241800Z 32016KT 8000 FEW020 36/22 Q1006 A2971 987.8 HR44@CAELT@FU NOSIG=@CAELT@METAR SLGM 241800Z 36008KT 9999 SCT017 35/24 Q1008 A2977 HR53=@CAELT@METAR SLRI 241800Z 36008KT 9999 SCT017 FEW020CB 36/22 Q1008 A2978@CAELT@HR45 CB NE=METAR SLJO 241800Z NIL=METAR SLRA 241800Z 32014KT 8000 SCT020 38/22 Q1011 A2986 HR41 FURWY NML=METAR SLMG 241800Z 32012KT 8000 SCT017 38/21 Q1006 A2973 HR38 FUMETAR SLBU 241800Z NIL=METAR SLSA 241800Z 32015KT 8000 SCT020 37/22 Q1006 A2971 HR40 FU=METAR SLSR 241800Z 32015G25KT 8000 FEW017 36/22 Q1005 A2968 HR45 FUMETAR SLSM 241800Z 34014KT 9999 SCT017 36/24 Q1005 A2968 HR48
ZPX0449 241758@CAELT@GG SLZZYMYT@CAELT@241757 SLCBYGYZ@CAELT@SABO SLCB 241800@CAELT@METAR SLCB 241800Z 28005KT 9999 FEW033 32/01 Q1019 A3012 747.4 HR13@CAELT@FU NOSIG=@CAELT@
ZPX0451 241758@CAELT@GG SLZZYMYT@CAELT@241758 SLVRYGYS@CAELT@SABO SLVR 241800@CAELT@METAR SLVR 241800Z 33018G31KT 8000 FEW020 36/22 Q1006 A2972 HR45 FU@CAELT@NOSIG=@CAELT@METAR SLET 241800Z 30017G30KT 9999 FEW020 FEW030CB 36/19 Q1005 A2970@CAELT@HR38 CB S/SW/W CI NOSIG=@CAELT@METAR SLAS 241800Z 33012KT 9999 FEW020 37/23 Q1008 A2977 HR46 FU RWYNML=METAR SLJV 241800Z 34010KT 6000 NSC 36/21 Q1007 A2974 HR42 FU RWY NMLMETAR SLCP 241800Z 30008KT 9999 FEW020 34/22 Q1010 A2983 HR51 FU RWYMETAR SLSI 241800Z 33006KT 5000 FU SCT017 35/22Q1007 A2974 HR47 RWYMETAR SLTI 241800Z 36004KT 7000 SCT020 37/23 Q1009 A2980 HR46 FU RWYMETAR SLJE 241800Z 32012KT 8000 SCT020 40/24 Q1009 A2980 HR40 FU RWYMETAR SLVG 241800Z 18005KT 7000 -TSRA SCT027 FEW030CB OVC070 19/16Q1022 A3018 HR78 TSCB/ON STN /NW RWY HUM OPR=METAR SLRB 241800Z 16015KT 8000 TS BKN020 FEW025CB 27/24 Q1010 A2983HR83 FU CB/TS S/SE/SW RWY NML=METAR SLCA 241800Z 21005KT 9999 SCT033 FEW040CB 36/16 Q1008 A2977HR32 CB N FU RWY NML=
ZPX0452 241759@CAELT@GG SLZZYMYT@CAELT@241758 SLCBYGYS@CAELT@SABO SLCB 241800@CAELT@METAR SLCB 241800Z 28005KT 9999 FEW033 32/01 Q1019 A3012 747.4 HR13@CAELT@FU NOSIG=@CAELT@
ZPX0454 241801@CAELT@GG SLZZYMYT@CAELT@241800 SLLPYFYA@CAELT@SABO SLLP 241800@CAELT@METAR SLLP 241800Z 24008KT 190V280 9999 SCT020 FEW023CB 18/M02 Q1037@CAELT@A3062 627.3 HR27 P94XX CB/SH NW AC/CI NOSIG=@CAELT@METAR SLRY 241800Z 34010KT 9999 FEW023 36/23 Q1004 A2966 HR46 FU RWY@CAELT@NML=@CAELT@METAR SLRQ 241800Z 36004KT 8000 SCT020 38/25 Q1004 A2967 980.7 HR47METAR SLAP 241800Z 00000KT 9999 FEW025 32/19 Q1013 A2994 855.0 HR45=METAR SLSB 241800Z 30015KT 8000 FEW020 35/24 Q1004 A2967 HR53 FURWY NML=
ZPX0474 241853@CAELT@GG SLZZYMYT@CAELT@241847 SLETYMYC@CAELT@SABO SLET 241900@CAELT@METAR SLET 241900Z 31020G30KT 9999 FEW020 36/19 Q1005 A2968 HR36@CAELT@NOSIG=@CAELT@
ZPX0475 241854@CAELT@GG SLZZYMYT@CAELT@241851 SLCAYGYS@CAELT@SABO SLCA 241900@CAELT@METAR SLCA 241900Z 21005KT 9999 SCT033 FEW040CB 36/16 Q1008 A2977@CAELT@HR31 CB N/SW FU RWY NML=@CAELT@
ZPX0476 241854@CAELT@GG SLZZYMYT@CAELT@241855 SLRQYSYX@CAELT@SABO SLRQ 241900@CAELT@METAR SLRQ 241900Z 36012KT 8000 SCT020 37/24 Q1004 A2965 980.0 HR48@CAELT@
ZPX0477 241854@CAELT@GG SLZZYMYT@CAELT@241853 SLRBYGYS@CAELT@SABO SLRB 241900@CAELT@METAR SLRB 241900Z 16010KT 8000 BKN020 FEW025CB 27/23 Q1008 A2977@CAELT@HR78 RETS FU CB/S/SE/SW/N RWY NML=@CAELT@
ZPX0478 241854@CAELT@GG SLZZYMYT@CAELT@241854 SLSBYSYX@CAELT@SABO SLSB 241900@CAELT@METAR SLSB 241900Z 31012KT 8000 FEW020 36/22 Q1004 A2965 HR46 FU@CAELT@RWY NML=@CAELT@
ZPX0479 241854@CAELT@GG SLZZYMYT@CAELT@241853 SLRYYSYX@CAELT@SABO SLRY 241900@CAELT@METAR SLRY 241900Z 34010KT 9999 FEW023 37/22 Q1003 A2964 HR43 FU RWY@CAELT@NML=@CAELT@
ZPX0480 241855@CAELT@GG SLZZYMYT@CAELT@241855 SLLPYGYZ@CAELT@SABO SLLP 241900@CAELT@METAR SLLP 241900Z 25007KT 190V320 9999 SCT020 FEW023CB SCT200 18/M02@CAELT@Q1035 A3058 626.4 HR25 P0784 CB/SH N/NW AC NOSIG=@CAELT@
ZPX0481 241855@CAELT@GG SLZZYMYT@CAELT@241855 SLTRYGYZ@CAELT@SABO SLTR 241900@CAELT@METAR SLTR 241900Z 30016KT 8000 FEW020 37/22 Q1004 A2967 986.4 HR42@CAELT@FU NOSIG=@CAELT@
ZPX0483 241856@CAELT@GG SLZZYMYT@CAELT@241857 SLVRYGYZ@CAELT@SABO SLVR 241900@CAELT@METAR SLVR 241900Z 34018G30KT 8000 FEW020 SCT200 36/22 Q1005 A2969@CAELT@HR44 FU NOSIG=@CAELT@
ZPX0484 241856@CAELT@GG SLZZYMYT@CAELT@241856 SLSAYGYS@CAELT@SABO SLSA 241900@CAELT@METAR SLSA 241900Z 31015KT 6000 SCT020 36/21 Q1005 A2968 HR42 FU=@CAELT@
ZPX0485 241856@CAELT@GG SLZZYMYT@CAELT@241856 SLSAYGYS@CAELT@SABO SLSA 241900@CAELT@METAR SLSA 241900Z 31015KT 6000 SCT020 36/21 Q1005 A2968 HR42 FU=@CAELT@
ZPX0487 241857@CAELT@GG SLZZYMYT@CAELT@241857 SLVRYGYS@CAELT@SABO SLVR 241900@CAELT@METAR SLVR 241900Z 34018G30KT 8000 FEW020 SCT200 36/22 Q1005 A2969@CAELT@HR44 FU NOSIG=@CAELT@METAR SLET 241900Z 31020G30KT 9999 FEW020 36/19 Q1005 A2968 HR36@CAELT@NOSIG=@CAELT@METAR SLAS 241900Z 33012KT 9999 FEW020 38/23 Q1006 A2971 HR43 FU RWYNML=METAR SLJV 241900Z 34008KT 6000 NSC 35/22 Q1006 A2971 HR44 FU RWY NMLMETAR SLCP 241900Z 30006KT 9000 FEW020 35/22 Q1009 A2980 HR48 FU RWYMETAR SLSI 241900Z 36006KT 5000 FU SCT017 35/23 Q1006 A2971 HR48 RWYMETAR SLTI 241900Z 00000KT 7000 FEW020 SCT200 37/22 Q1008 A2977 HR43FU RWY NML=METAR SLJE 241900Z 32012KT 8000 SCT020 40/23 Q1008 A2977 HR39 FU RWYMETAR SLVG 241900Z 00000KT 9999 FEW027 FEW030CB BKN070 22/17 Q1020A3012 HR68 CB/N/SE RETSRA RWY HUM OPR=METAR SLRB 241900Z 16010KT 8000 BKN020 FEW025CB 27/23 Q1008 A2977HR78 RETS FU CB/S/SE/SW/N RWY NML=METAR SLCA 241900Z 21005KT 9999 SCT033 FEW040CB 36/16 Q1008 A2977HR31 CB N/SW FU RWY NML=
ZPX0488 241858@CAELT@GG SLZZYMYT@CAELT@241858 SLTRYGYS@CAELT@SABO SLTR 241900@CAELT@METAR SLTR 241900Z 30016KT 8000 FEW020 37/22 Q1004 A2967 986.4 HR42@CAELT@FU NOSIG=@CAELT@METAR SLGM 241900Z 35006KT 9999 SCT017 35/24 Q1007 A2974 HR51=@CAELT@METAR SLRI 241900Z 36010KT 8000 VCSH SCT017 FEW020CB 36/22 Q1007@CAELT@A2975 HR43 CB/SH N/NE=METAR SLJO 241900Z NIL=METAR SLRA 241900Z 32008KT 8000 SCT020 38/21 Q1005 A2970 HR38 FURWY NML=METAR SLMG 241900Z 32008KT 8000 FEW017 38/21 Q1005 A2970 HR36 FUMETAR SLBU 241900Z NIL=METAR SLSA 241900Z 31015KT 6000 SCT020 36/21 Q1005 A2968 HR42 FU=METAR SLSR 241900Z 32015KT 8000 FEW017 SCT020 36/22 Q1003 A2963 HR43FU RWY NML=METAR SLSM 241900Z 34010KT 9999 FEW017 36/25 Q1003 A2965 HR52
ZPX0490 241859@CAELT@GG SLZZYMYT@CAELT@241859 SLCBYGYZ@CAELT@SABO SLCB 241900@CAELT@METAR SLCB 241900Z 19005KT 9999 FEW033 FEW036CB 31/01 Q1018 A3008 746@CAELT@.3 HR14 CB/N FU NOSIG=@CAELT@
ZPX0494 241906@CAELT@GG SLZZYMYT@CAELT@241901 SLLPYFYA@CAELT@SABO SLLP 241900@CAELT@METAR SLLP 241900Z 25007KT 190V320 9999 SCT020 FEW023CB SCT200 18/M02@CAELT@Q1035 A3058 626.4 HR25 P0784 CB/SH N/NW AC NOSIG=@CAELT@METAR SLRY 241900Z 34010KT 9999 FEW023 37/22 Q1003 A2964 HR43 FU RWY@CAELT@NML=@CAELT@METAR SLRQ 241900Z 36012KT 8000 SCT020 37/24 Q1004 A2965 980.0 HR48METAR SLSB 241900Z 31012KT 8000 FEW020 36/22 Q1004 A2965 HR46 FURWY NML=
ZPX0513 241953@CAELT@GG SLZZYMYT@CAELT@241954 SLSAYGYS@CAELT@SABO SLSA 242000@CAELT@METAR SLSA 242000Z 32014KT 6000 SCT020 37/21 Q1004 A2965 HR41 FU=@CAELT@
ZPX0514 241953@CAELT@GG SLZZYMYT@CAELT@241954 SLSAYGYS@CAELT@SABO SLSA 242000@CAELT@METAR SLSA 242000Z 32014KT 6000 SCT020 37/21 Q1004 A2965 HR41 FU=@CAELT@
ZPX0515 241953@CAELT@GG SLZZYMYT@CAELT@241954 SLVRYGYZ@CAELT@SABO SLVR 242000@CAELT@METAR SLVR 242000Z 34015G25KT 8000 FEW020 SCT200 35/22 Q1004 A2966@CAELT@HR47 FU NOSIG=@CAELT@
ZPX0516 241954@CAELT@GG SLZZYMYT@CAELT@241953 SLRBYGYS@CAELT@SABO SLRB 242000@CAELT@METAR SLRB 242000Z 16006KT 8000 SCT020 29/22 Q1008 A2977 HR66 FU RWY@CAELT@NML=@CAELT@
ZPX0517 241954@CAELT@GG SLZZYMYT@CAELT@241953 SLRYYSYX@CAELT@SABO SLRY 242000@CAELT@METAR SLRY 242000Z 34012KT 9999 FEW023 36/21 Q1002 A2961 HR40 FU RWY@CAELT@NML=@CAELT@
ZPX0518 241955@CAELT@GG SLZZYMYT@CAELT@241955 SLRQYSYX@CAELT@SABO SLRQ 242000@CAELT@METAR SLRQ 242000Z 36008KT 8000 SCT020 37/24 Q1003 A2963 979.3 HR47@CAELT@
ZPX0520 241955@CAELT@GG SLZZYMYT@CAELT@241955 SLETYMYC@CAELT@SABO SLET 242000@CAELT@METAR SLET 242000Z 30015G25KT 9999 FEW030CB BKN200 36/20 Q1004 A2965@CAELT@HR39 CB SW NOSIG=@CAELT@
ZPX0521 241955@CAELT@GG SLZZYMYT@CAELT@241955 SLSBYSYX@CAELT@SABO SLSB 242000@CAELT@METAR SLSB 242000Z 30012KT 8000 FEW020 36/23 Q1003 A2963 HR47 FU@CAELT@RWY NML=@CAELT@
ZPX0522 241955@CAELT@GG SLZZYMYT@CAELT@241955 SLLPYGYZ@CAELT@SABO SLLP 242000@CAELT@METAR SLLP 242000Z 15007KT 050V210 9999 SCT020 FEW023CB BKN200 17/M01@CAELT@Q1034 A3056 625.8 HR29 P0784 CB/SH N/NW AC NOSIG=@CAELT@
ZPX0523 241957@CAELT@GG SLZZYMYT@CAELT@241958 SLVRYGYS@CAELT@SABO SLVR 242000@CAELT@METAR SLVR 242000Z 34015G25KT 8000 FEW020 SCT200 35/22 Q1004 A2966@CAELT@HR47 FU NOSIG=@CAELT@METAR SLET 242000Z 30015G25KT 9999 FEW030CB BKN200 36/20 Q1004 A2965@CAELT@HR39 CB SW NOSIG=@CAELT@METAR SLAS 242000Z 33012KT 9999 FEW020 38/23 Q1006 A2972 HR43 FU RWYNML=METAR SLJV 242000Z 34005KT 6000 NSC 35/22 Q1005 A2968 HR47 FU RWY NMLMETAR SLCP 242000Z 30008KT 7000 FEW020 34/22 Q1008 A2977 HR49 FU RWYMETAR SLSI 242000Z 33006KT 5000 FU SCT017 36/23 Q1005 A2968 HR47 RWYMETAR SLTI 242000Z 00000KT 7000 SCT020 BKN200 36/21 Q1008 A2977 HR42FU RWY NML=METAR SLJE 242000Z 32010KT 9000 SCT020 40/23 Q1007 A2974 HR39 FU RWYMETAR SLVG 242000Z 35004KT 9999 FEW027 BKN200 23/17 Q1020 A3012 HR62RWY NML=METAR SLRB 242000Z 16006KT 8000 SCT020 29/22 Q1008 A2977 HR66 FU RWYMETAR SLCA 242000Z 00000KT 6000 TS VCSH BKN033 FEW040CB 34/18 Q1008A2977 HR38 CB/TS/SH N/NE FU RWY NML=
ZPX0524 241958@CAELT@GG SLZZYMYT@CAELT@241958 SLCBYGYZ@CAELT@SABO SLCB 242000@CAELT@METAR SLCB 242000Z 33006KT 9999 FEW033 FEW036CB 31/01 Q1017 A3003 745@CAELT@.2 HR14 CB/NW FU CI NOSIG=@CAELT@
ZPX0528 242000@CAELT@GG SLZZYMYT@CAELT@242000 SLLPYFYA@CAELT@SABO SLLP 242000@CAELT@METAR SLLP 242000Z 15007KT 050V210 9999 SCT020 FEW023CB BKN200 17/M01@CAELT@Q1034 A3056 625.8 HR29 P0784 CB/SH N/NW AC NOSIG=@CAELT@METAR SLRY 242000Z 34012KT 9999 FEW023 36/21 Q1002 A2961 HR40 FU RWY@CAELT@NML=@CAELT@METAR SLRQ 242000Z 36008KT 8000 SCT020 37/24 Q1003 A2963 979.3 HR47METAR SLSB 242000Z 30012KT 8000 FEW020 36/23 Q1003 A2963 HR47 FURWY NML=
ZPX0529 242000@CAELT@GG SLZZYMYT@CAELT@242000 SLCBYGYS@CAELT@SABO SLCB 242000@CAELT@METAR SLCB 242000Z 33006KT 9999 FEW033 FEW036CB 31/01 Q1017 A3003@CAELT@745.2 HR14 CB/NW FU CI NOSIG=@CAELT@
ZPX0530 242000@CAELT@GG SLZZYMYT@CAELT@241959 SLTRYGYZ@CAELT@SABO SLTR 242000@CAELT@METAR SLTR 242000Z 31012KT 8000 FEW020 37/22 Q1004 A2965 985.6@CAELT@HR41 FU NOSIG=@CAELT@
ZPX0531 242001@CAELT@GG SLZZYMYT@CAELT@242000 SLTRYGYS@CAELT@SABO SLTR 242000@CAELT@METAR SLTR 242000Z 31012KT 8000 FEW020 37/22 Q1004 A2965 985.6 HR41@CAELT@FU NOSIG=@CAELT@METAR SLGM 242000Z 36006KT 9999 FEW017 FEW020CB 35/24 Q1006 A2971@CAELT@HR51 CB N=@CAELT@METAR SLRI 242000Z 03006KT 8000 VCSH SCT017 FEW020CB 36/22 Q1006A2971 HR43 CB/SH N/NE=METAR SLJO 242000Z NIL=METAR SLRA 242000Z 32008KT 8000 SCT020 38/21 Q1004 A2967 HR38 FURWY NMLMETAR SLMG 242000Z 32008KT 8000 FEW017 38/20 Q1004 A2967 HR35 FURWY NML=METAR SLBU 242000Z NIL=METAR SLSA 242000Z 32014KT 6000 SCT020 37/21 Q1004 A2965 HR41 FU=METAR SLSR 242000Z 32015KT 8000 FEW017 SCT200 37/22 Q1002 A2961 HR42FU RWY NML=METAR SLSM 242000Z 34010KT 9999 FEW017 36/25 Q1003 A2963 HR52
ZPX0533 242005@CAELT@GG SLZZYMYT@CAELT@242005 SLCAYGYS@CAELT@SABO SLCA 242000@CAELT@METAR SLCA 242000Z 00000KT 6000 TS VCSH BKN033 FEW040CB 34/18 Q1008@CAELT@A2977 HR38 CB/TS/SH N/NE FU RWY NML=@CAELT@
ZPX0549 242054@CAELT@GG SLZZYMYT@CAELT@242053 SLRBYGYS@CAELT@SABO SLRB 242100@CAELT@METAR SLRB 242100Z 00000KT 8000 SCT020 29/22 Q1007 A2974 HR66 FU RWY@CAELT@NML=@CAELT@
ZPX0550 242054@CAELT@GG SLZZYMYT@CAELT@242053 SLRYYSYX@CAELT@SABO SLRY 242100@CAELT@METAR SLRY 242100Z 34010KT 9999 FEW023 36/22 Q1002 A2961 HR44 FU RWY@CAELT@NML=@CAELT@
ZPX0552 242055@CAELT@GG SLZZYMYT@CAELT@242055 SLRQYSYX@CAELT@SABO SLRQ 242100@CAELT@METAR SLRQ 242100Z 36004KT 8000 FEW020 35/24 Q1003 A2962 979.0 HR52@CAELT@
ZPX0553 242055@CAELT@GG SLZZYMYT@CAELT@242054 SLSAYGYS@CAELT@SABO SLSA 242100@CAELT@METAR SLSA 242100Z 31010KT 6000 SCT020 36/22 Q1004 A2965 HR43 FU=@CAELT@
ZPX0554 242055@CAELT@GG SLZZYMYT@CAELT@242054 SLSAYGYS@CAELT@SABO SLSA 242100@CAELT@METAR SLSA 242100Z 31010KT 6000 SCT020 36/22 Q1004 A2965 HR43 FU=@CAELT@
ZPX0555 242055@CAELT@GG SLZZYMYT@CAELT@242055 SLSBYSYX@CAELT@SABO SLSB 242100@CAELT@METAR SLSB 242100Z 29006KT 8000 FEW020 36/22 Q1003 A2962 HR47 FU@CAELT@RWY NML=@CAELT@
ZPX0556 242055@CAELT@GG SLZZYMYT@CAELT@242055 SLSBYSYX@CAELT@SABO SLSB 242100@CAELT@METAR SLSB 242100Z 29006KT 8000 FEW020 36/22 Q1003 A2962 HR47 FU@CAELT@RWY NML=@CAELT@
ZPX0557 242056@CAELT@GG SLZZYMYT@CAELT@242056 SLCAYGYS@CAELT@SABO SLCA 242100@CAELT@METAR SLCA 242100Z 00000KT 9999 TS BKN033 FEW040CB OVC070 32/17 Q1009@CAELT@A2980 HR42 CB/TS S FU RWY NML=@CAELT@
ZPX0558 242057@CAELT@GG SLZZYMYT@CAELT@242056 SLTRYGYZ@CAELT@SABO SLTR 242100@CAELT@METAR SLTR 242100Z 31010KT 8000 FEW020 36/22 Q1003 A2964 985.2@CAELT@HR43 FU NOSIG=@CAELT@
ZPX0559 242057@CAELT@GG SLZZYMYT@CAELT@242057 SLLPYGYZ@CAELT@SABO SLLP 242100@CAELT@METAR SLLP 242100Z 13008KT 080V160 9999 SCT020 FEW023CB BKN200 16/M02@CAELT@Q1034 A3054 625.5 HR30 P6784 CB/SH N/E/NW AC NOSIG=@CAELT@
ZPX0562 242058@CAELT@GG SLZZYMYT@CAELT@242057 SLTRYGYS@CAELT@SABO SLTR 242100@CAELT@METAR SLTR 242100Z 31010KT 8000 FEW020 36/22 Q1003 A2964 985.2 HR43@CAELT@FU NOSIG=@CAELT@METAR SLGM 242100Z 36006KT 9999 FEW017 35/23 Q1004 A2966 HR51=@CAELT@METAR SLRI 242100Z 03004KT 9999 SCT017 FEW020CB 35/23 Q1005 A2969@CAELT@HR51 CB SE=METAR SLJO 242100Z NIL=METAR SLRA 242100Z 32006KT 8000 FEW020 37/21 Q1004 A2965 HR39 FURWY NML=METAR SLMG 242100Z 32006KT 8000 FEW017 38/20 Q1004 A2967 HR37 FUMETAR SLBU 242100Z NIL=METAR SLSA 242100Z 31010KT 6000 SCT020 36/22 Q1004 A2965 HR43 FU=METAR SLSR 242100Z 32010KT 5000 FU SCT017 BKN200 36/22 Q1002 A2960HR45 RWY NML=METAR SLSM 242100Z 36010KT 9999 NSC 36/24 Q1002 A2962 HR52 RWY NML=
ZPX0563 242058@CAELT@GG SLZZYMYT@CAELT@242057 SLCBYGYZ@CAELT@SABO SLCB 242100@CAELT@METAR SLCB 242100Z 30006KT 9999 FEW033 FEW036CB 31/00 Q1016 A3002 744@CAELT@.8 HR13 CB/NW FU CI NOSIG=@CAELT@
ZPX0566 242100@CAELT@GG SLZZYMYT@CAELT@242101 SLVRYGYZ@CAELT@SABO SLVR 242100@CAELT@METAR SLVR 242100Z 34015KT 8000 FEW020 SCT200 35/22 Q1004 A2966 HR47@CAELT@FU NOSIG=@CAELT@
ZPX0567 242101@CAELT@GG SLZZYMYT@CAELT@242100 SLVRYGYS@CAELT@SABO SLVR 242100@CAELT@METAR SLVR 242100Z 34015KT 8000 FEW020 SCT200 35/22 Q1004 A2966 HR47@CAELT@FU NOSIG=@CAELT@METAR SLET 242100Z 30010G22KT 9999 NSC 34/19 Q1004 A2966 HR42 NOSIG=@CAELT@METAR SLAS 242100Z 34010KT 9999 NSC 37/24 Q1005 A2968 HR47 FU RWY NML@CAELT@METAR SLJV 242100Z 34005KT 6000 NSC 35/22 Q1005 A2968 HR48 FU RWY NMLMETAR SLCP 242100Z 30010KT 6000 NSC 34/20 Q1008 A2977 HR47 FU RWY NMLMETAR SLSI 242100Z 36006KT 5000 FU SCT017 36/24 Q1004 A2965 HR49 RWYNML=METAR SLTI 242100Z 18014KT 6000 BKN020 FEW030CB BKN200 34/22 Q1009A2980 HR49 CB/SH/S/SW FU RWY NML=METAR SLJE 242100Z 32006KT 9000 FEW020 FEW030CB 38/23 Q1007 A2974HR42 CB/E FU RWY NML=METAR SLVG 242100Z 00000KT 9999 NSC 22/16 Q1020 A3012 HR64 CI RWY NMLMETAR SLRB 242100Z 00000KT 8000 SCT020 29/22 Q1007 A2974 HR66 FU RWYMETAR SLCA 242100Z 00000KT 9999 TS BKN033 FEW040CB OVC070 32/17 Q1009A2980 HR42 CB/TS S FU RWY NML=
ZPX0569 242102@CAELT@GG SLZZYMYT@CAELT@242101 SLLPYFYA@CAELT@SABO SLLP 242100@CAELT@METAR SLLP 242100Z 13008KT 080V160 9999 SCT020 FEW023CB BKN200 16/M02@CAELT@Q1034 A3054 625.5 HR30 P6784 CB/SH N/E/NW AC NOSIG=@CAELT@METAR SLRY 242100Z 34010KT 9999 FEW023 36/22 Q1002 A2961 HR44 FU RWY@CAELT@NML=@CAELT@METAR SLRQ 242100Z 36004KT 8000 FEW020 35/24 Q1003 A2962 979.0 HR52METAR SLSB 242100Z 29006KT 8000 FEW020 36/22 Q1003 A2962 HR47 FURWY NML=
ZPX0573 242104@CAELT@GG SLZZYMYT@CAELT@242103 SLCBYGYS@CAELT@SABO SLCB 242100@CAELT@METAR SLCB 242100Z 30006KT 9999 FEW033 FEW036CB 31/00 Q1016 A3002@CAELT@744.8 HR13 CB/NW FU CI NOSIG=@CAELT@
ZPX0581 242154@CAELT@GG SLZZYMYT@CAELT@242154 SLSAYGYS@CAELT@SABO SLSA 242200@CAELT@METAR SLSA 242200Z 32007KT 7000 SCT020 BKN200 35/22 Q1004 A2965@CAELT@HR45 FU=@CAELT@
ZPX0582 242154@CAELT@GG SLZZYMYT@CAELT@242154 SLSAYGYS@CAELT@SABO SLSA 242200@CAELT@METAR SLSA 242200Z 32007KT 7000 SCT020 BKN200 35/22 Q1004 A2965@CAELT@HR45 FU=@CAELT@
ZPX0583 242154@CAELT@GG SLZZYMYT@CAELT@242154 SLSBYSYX@CAELT@SABO SLSB 242200@CAELT@METAR SLSB 242200Z 33004KT 8000 NSC 34/22 Q1003 A2962 HR49 FU RWY NML=@CAELT@
ZPX0584 242154@CAELT@GG SLZZYMYT@CAELT@242153 SLRBYGYS@CAELT@SABO SLRB 242200@CAELT@METAR SLRB 242200Z 00000KT 8000 SCT020 28/22 Q1008 A2977 HR72 FU RWY@CAELT@NML=@CAELT@
ZPX0585 242154@CAELT@GG SLZZYMYT@CAELT@242152 SLRYYSYX@CAELT@SABO SLRY 242200@CAELT@METAR SLRY 242200Z 34008KT 9999 NSC 34/22 Q1002 A2961 HR48 FU CI RWY@CAELT@NML=@CAELT@
ZPX0586 242155@CAELT@GG SLZZYMYT@CAELT@242155 SLTRYGYZ@CAELT@SABO SLTR 242200@CAELT@METAR SLTR 242200Z 32008KT 8000 NSC 35/22 Q1003 A2963 985.1 HR46@CAELT@FU NOSIG=@CAELT@
ZPX0587 242155@CAELT@GG SLZZYMYT@CAELT@242156 SLVRYGYZ@CAELT@SABO SLVR 242200@CAELT@METAR SLVR 242200Z 32011KT 8000 FEW020 SCT200 33/23 Q1004 A2965 HR54@CAELT@FU NOSIG=@CAELT@
ZPX0588 242156@CAELT@GG SLZZYMYT@CAELT@242156 SLTRYGYS@CAELT@SABO SLTR 242200@CAELT@METAR SLTR 242200Z 32008KT 8000 NSC 35/22 Q1003 A2963 985.1 HR46@CAELT@FU NOSIG=@CAELT@METAR SLGM 242200Z 02005KT 9999 FEW017 34/24 Q1004 A2966 HR55=@CAELT@METAR SLRI 242200Z 00000KT 9999 FEW017 FEW020CB 33/24 Q1005 A2968@CAELT@HR58 CB NE=METAR SLJO 242200Z NIL=METAR SLRA 242200Z 32004KT 8000 FEW020 36/21 Q1004 A2965 HR43 FURWY NML=METAR SLMG 242200Z 32003KT 8000 FEW017 36/21 Q1004 A2965 HR41 FUMETAR SLBU 242200Z NIL=METAR SLSA 242200Z 32007KT 7000 SCT020 BKN200 35/22 Q1004 A2965 HR45METAR SLSR 242200Z 32006KT 5000 FU FEW017 FEW023CB BKN200 35/23Q1002 A2959 HR48 CB SW RWY NML=METAR SLSM 242200Z 33006KT 9999 NSC 35/24 Q1002 A2961 HR60 RWY NML=
ZPX0589 242156@CAELT@GG SLZZYMYT@CAELT@242155 SLLPYGYZ@CAELT@SABO SLLP 242200@CAELT@METAR SLLP 242200Z 17006KT 130V270 9999 FEW020 FEW023CB BKN200 14/M03@CAELT@Q1034 A3056 625.9 HR29 P4783 CB/SH N/NE/SW/NW AC NOSIG=@CAELT@
ZPX0590 242156@CAELT@GG SLZZYMYT@CAELT@242156 SLCAYGYS@CAELT@SABO SLCA 242200@CAELT@METAR SLCA 242200Z 00000KT 7000 TS VCSH BKN033 FEW040CB OVC070 27/20@CAELT@Q1009 A2980 HR65 CB/TS/SH S/SW FU RWY NML=@CAELT@
ZPX0591 242157@CAELT@GG SLZZYMYT@CAELT@242155 SLRQYSYX@CAELT@SABO SLRQ 242200@CAELT@METAR SLRQ 242200Z 00000KT 9999 FEW020 SCT200 34/23 Q1003 A2962 979.2@CAELT@HR51 FU=@CAELT@
ZPX0593 242157@CAELT@GG SLZZYMYT@CAELT@242156 SLETYMYC@CAELT@SABO SLET 242200@CAELT@METAR SLET 242200Z 30013KT 9999 FEW070 BKN200 32/21 Q1004 A2966 HR51@CAELT@NOSIG=@CAELT@
ZPX0594 242157@CAELT@GG SLZZYMYT@CAELT@242157 SLVRYGYS@CAELT@SABO SLVR 242200@CAELT@METAR SLVR 242200Z 32011KT 8000 FEW020 SCT200 33/23 Q1004 A2965 HR54@CAELT@FU NOSIG=@CAELT@METAR SLET 242200Z 30013KT 9999 FEW070 BKN200 32/21 Q1004 A2966 HR51@CAELT@NOSIG=@CAELT@METAR SLAS 242200Z 00000KT 8000 NSC 36/23 Q1005 A2968 HR48 FU RWY NMLMETAR SLJV 242200Z 00000KT 6000 NSC 32/22 Q1005 A2968 HR57 FU RWY NMLMETAR SLCP 242200Z 00000KT 6000 NSC 32/23 Q1008 A2977 HR58 FU RWY NMLMETAR SLSI 242200Z 00000KT 5000 FU FEW017 34/23 Q1005 A2968 HR53 RWYNML=METAR SLTI 242200Z 00000KT 6000 BKN020 OVC200 29/23 Q1009 A2980 HR72FU RWY NML=METAR SLJE 242200Z 00000KT 9000 FEW020 FEW030CB 37/23 Q1007 A2974HR45 CB/E/SE/S FU RWY NML=METAR SLRB 242200Z 00000KT 8000 SCT020 28/22 Q1008 A2977 HR72 FU RWYMETAR SLCA 242200Z 00000KT 7000 TS VCSH BKN033 FEW040CB OVC070 27/20Q1009 A2980 HR65 CB/TS/SH S/SW FU RWY NML=
ZPX0595 242159@CAELT@GG SLZZYMYT@CAELT@242158 SLCBYGYZ@CAELT@SABO SLCB 242200@CAELT@METAR SLCB 242200Z 31012KT 9999 FEW033 FEW036CB 28/04 Q1017 A3004 745@CAELT@.3 HR20 CB/NW FU AC CI NOSIG=@CAELT@
ZPX0597 242159@CAELT@GG SLZZYMYT@CAELT@242159 SLCBYGYS@CAELT@SABO SLCB 242200@CAELT@METAR SLCB 242200Z 31012KT 9999 FEW033 FEW036CB 28/04 Q1017 A3004@CAELT@745.3 HR20 CB/NW FU AC CI NOSIG=@CAELT@
ZPX0601 242203@CAELT@GG SLZZYMYT@CAELT@242200 SLLPYFYA@CAELT@SABO SLLP 242200@CAELT@METAR SLLP 242200Z 17006KT 130V270 9999 FEW020 FEW023CB BKN200 14/M03@CAELT@Q1034 A3056 625.9 HR29 P4783 CB/SH N/NE/SW/NW AC NOSIG=@CAELT@METAR SLRY 242200Z 34008KT 9999 NSC 34/22 Q1002 A2961 HR48 FU CI RWY@CAELT@NML=@CAELT@METAR SLRQ 242200Z 00000KT 9999 FEW020 SCT200 34/23 Q1003 A2962 979.2HR51 FU=METAR SLSB 242200Z 33004KT 8000 NSC 34/22 Q1003 A2962 HR49 FU RWY NML
ZPX0612 242247@CAELT@GG SLZZYMYT@CAELT@242247 SLCAYGYS@CAELT@METAR SLCA 242300Z 00000KT 7000 TS VCSH BKN033 FEW040CB OVC070 24/20@CAELT@Q1009 A2980 HR75 CB/TS /SH S/SW FU RWY NML=@CAELT@
ZPX0614 242253@CAELT@GG SLZZYMYT@CAELT@242253 SLSBYSYX@CAELT@SABO SLSB 242300@CAELT@METAR SLSB 242300Z 00000KT 8000 NSC 31/24 Q1003 A2962 HR65 FU RWY NML=@CAELT@
ZPX0615 242253@CAELT@GG SLZZYMYT@CAELT@242253 SLRBYGYS@CAELT@SABO SLRB 242300@CAELT@METAR SLRB 242300Z 00000KT 8000 SCT020 27/22 Q1007 A2974 HR74 FU RWY@CAELT@NML=@CAELT@
ZPX0616 242254@CAELT@GG SLZZYMYT@CAELT@242254 SLCBYGYZ@CAELT@SABO SLCB 242300@CAELT@METAR SLCB 242300Z 09009KT 9999 FEW033 FEW036CB SCT200 25/04 Q1017@CAELT@A3006 745.9 HR26 CB/NW AC FU NOSIG=@CAELT@
ZPX0617 242255@CAELT@GG SLZZYMYT@CAELT@242255 SLTRYGYZ@CAELT@SABO SLTR 242300@CAELT@METAR SLTR 242300Z 33004KT 8000 NSC 33/23 Q1003 A2964 985.3 HR53@CAELT@FU NOSIG=@CAELT@
ZPX0618 242255@CAELT@GG SLZZYMYT@CAELT@242256 SLVRYGYZ@CAELT@SABO SLVR 242300@CAELT@METAR SLVR 242300Z 32005KT 8000 NSC 31/23 Q1004 A2967 HR61 CI FU@CAELT@NOSIG=@CAELT@
ZPX0619 242256@CAELT@GG SLZZYMYT@CAELT@242255 SLSAYGYS@CAELT@SABO SLSA 242300@CAELT@METAR SLSA 242300Z 00000KT 7000 NSC 32/22 Q1004 A2965 HR57 FU CI=@CAELT@
ZPX0620 242256@CAELT@GG SLZZYMYT@CAELT@242255 SLSAYGYS@CAELT@SABO SLSA 242300@CAELT@METAR SLSA 242300Z 00000KT 7000 NSC 32/22 Q1004 A2965 HR57 FU CI=@CAELT@
ZPX0621 242256@CAELT@GG SLZZYMYT@CAELT@242255 SLLPYGYZ@CAELT@SABO SLLP 242300@CAELT@METAR SLLP 242300Z 29011KT 250V010 9999 FEW017 FEW020CB BKN200 12/M03@CAELT@Q1035 A3057 626.2 HR34 CB/SH SW/W AC NOSIG=@CAELT@
ZPX0622 242257@CAELT@GG SLZZYMYT@CAELT@242257 SLTRYGYS@CAELT@SABO SLTR 242300@CAELT@METAR SLTR 242300Z 33004KT 8000 NSC 33/23 Q1003 A2964 985.3 HR53@CAELT@FU NOSIG=@CAELT@METAR SLGM 242300Z 02004KT 9999 NSC 31/24 Q1005 A2968 HR66 CI=@CAELT@METAR SLRI 242300Z 00000KT 9999 NSC 31/24 Q1006 A2971 HR66 CI=@CAELT@METAR SLSA 242300Z 00000KT 7000 NSC 32/22 Q1004 A2965 HR57 FU CI=
ZPX0623 242257@CAELT@GG SLZZYMYT@CAELT@242257 SLVRYGYS@CAELT@SABO SLVR 22300@CAELT@METAR SLVR 242300Z 32005KT 8000 NSC 31/23 Q1004 A2967 HR61 CI FU@CAELT@NOSIG=@CAELT@METAR SLSI 242300Z 00000KT 5000 FU NSC 33/23 Q1005 A2968 HR55 RWY@CAELT@NML=@CAELT@METAR SLRB 242300Z 00000KT 8000 SCT020 27/22 Q1007 A2974 HR74 FU RWYMETAR SLCA 242300Z 00000KT 7000 TS VCSH BKN033 FEW040CB OVC070 24/20Q1009 A2980 HR75 CB/TS /SH S/SW FU RWY NML=
ZPX0625 242301@CAELT@GG SLZZYMYT@CAELT@242300 SLLPYFYA@CAELT@SABO SLLP 242300@CAELT@METAR SLLP 242300Z 29011KT 250V010 9999 FEW017 FEW020CB BKN200 12/M03@CAELT@Q1035 A3057 626.2 HR34 CB/SH SW/W AC NOSIG=@CAELT@METAR SLSB 242300Z 00000KT 8000 NSC 31/24 Q1003 A2962 HR65 FU RWY NML@CAELT@
ZPX0633 242355@CAELT@GG SLZZYMYT@CAELT@242355 SLVRYGYZ@CAELT@SABO SLVR 250000@CAELT@METAR SLVR 250000Z 33005KT 8000 NSC 29/23 Q1005 A2969 HR68 CI FU@CAELT@NOSIG=@CAELT@
ZPX0634 242355@CAELT@GG SLZZYMYT@CAELT@242354 SLCBYGYZ@CAELT@SABO SLCB 250000@CAELT@METAR SLCB 250000Z 12010KT 9999 FEW033 SCT200 23/06 Q1019 A3010 747.0@CAELT@HR33 FU NOSIG=@CAELT@
