
ZPX0002 290000@CAELT@GG SLZZYMYT@CAELT@290000 SLCBYGYZ@CAELT@SABO SLCB 290000 CCA@CAELT@METAR COR SLCB 290000Z 00000KT 9999 FEW008 SCT020 BKN070 14/14 Q1024@CAELT@A3026 751.1 HR94 SH NW/N ST BAJOS W/NW/N/NE NOSIG=@CAELT@
ZPX0004 290001@CAELT@GG SLZZYMYT@CAELT@290000 SLCBYGYS@CAELT@SABO SLCB 290000 CCA@CAELT@METAR COR SLCB 290000Z 00000KT 9999 FEW008 SCT020 BKN070 14/14 Q1024@CAELT@A3026 751.1 HR94 SH NW/N ST BAJOS W/NW/N/NE CI NOSIG=@CAELT@METAR SLAL 290000Z 01007KT 9999 FEW015 13/10 Q1028 A3038 703.4 HR79@CAELT@AC/CI=@CAELT@METAR SLTJ 290000Z 00000KT 9999 FEW030 FEW033CB BKN200 23/14 Q1017A3006 813.1 HR58 CB W=
ZPX0020 290056@CAELT@GG SLLPZRZX@CAELT@290055 SLLPYGYZ@CAELT@SABO SLLP 290100@CAELT@METAR SLLP 290100Z 12008KT 4000E VCFG FEW003 SCT012 BKN070 06/05@CAELT@Q1035 A3059 626.5 HR90 VCFG N/NE/E/SE AC NOSIG=@CAELT@
ZPX0021 290056@CAELT@GG SLZZYMYT@CAELT@290057 SLVRYGYZ@CAELT@SABO SLVR 290100@CAELT@METAR SLVR 290100Z 34008KT 9999 NSC 25/24 Q1009 A2982 HR94 NOSIG=@CAELT@
ZPX0022 290058@CAELT@GG SLZZYMYT@CAELT@290058 SLCBYGYZ@CAELT@SABO SLCB 290100@CAELT@METAR SLCB 290100Z 00000KT 9999 FEW010 SCT020 BKN070 14/14 Q1024@CAELT@A3026 751.2 HR98 ST BAJOS W/NW/N/NE CI NOSIG=@CAELT@
ZPX0031 290156@CAELT@GG SLLPZRZX@CAELT@290155 SLLPYGYZ@CAELT@SABO SLLP 290200@CAELT@METAR SLLP 290200Z 12006KT 4000E VCFG FEW003 SCT012 BKN200 06/05@CAELT@Q1036 A3061 627.0 HR91 VCFG N/NE/E/SE AC NOSIG=@CAELT@
ZPX0032 290156@CAELT@GG SLZZYMYT@CAELT@290157 SLVRYGYZ@CAELT@SABO SLVR 290200@CAELT@METAR SLVR 290200Z 34005KT 9999 FEW012 BKN200 24/23 Q1009 A2982 HR98@CAELT@NOSIG=@CAELT@
ZPX0033 290158@CAELT@GG SLZZYMYT@CAELT@290158 SLCBYGYZ@CAELT@SABO SLCB 290200@CAELT@METAR SLCB 290200Z 36003KT 9999 FEW012 SCT020 BKN070 14/14 Q1025@CAELT@A3027 751.5 HR98 CI NOSIG=@CAELT@
ZPX0042 290255@CAELT@GG SLLPZRZX@CAELT@290255 SLLPYGYZ@CAELT@SABO SLLP 290300@CAELT@METAR SLLP 290300Z 11004KT 4000E VCFG FEW003 SCT070 BKN200 06/05@CAELT@Q1036 A3062 627.2 HR91 VCFG NE/E NOSIG=@CAELT@
ZPX0045 290257@CAELT@GG SLZZYMYT@CAELT@290257 SLVRYGYZ@CAELT@SABO SLVR 290300@CAELT@METAR SLVR 290300Z 32006KT 9999 NSC 24/23 Q1010 A2983 HR98 NOSIG=@CAELT@
ZPX0046 290257@CAELT@GG SLZZYMYT@CAELT@290257 SLCBYGYZ@CAELT@SABO SLCB 290300@CAELT@METAR SLCB 290300Z 00000KT 9999 FEW012 BKN020 BKN070 15/14 Q1025@CAELT@A3028 751.6 HR97 NOSIG=@CAELT@
ZPX0055 290355@CAELT@GG SLZZYMYT@CAELT@290355 SLVRYGYZ@CAELT@SABO SLVR 290400@CAELT@METAR SLVR 290400Z 36005KT 9999 SCT005 BKN200 23/23 Q1010 A2982 HR98@CAELT@NOSIG=@CAELT@
ZPX0056 290356@CAELT@GG SLLPZRZX@CAELT@290355 SLLPYGYZ@CAELT@SABO SLLP 290400@CAELT@METAR SLLP 290400Z VRB02KT 9999 FEW003 SCT070 BKN200 06/05 Q1036@CAELT@A3060 626.9 HR92 NOSIG=@CAELT@
ZPX0057 290356@CAELT@GG SLZZYMYT@CAELT@290356 SLCBYGYZ@CAELT@SABO SLCB 290400@CAELT@METAR SLCB 290400Z 00000KT 9999 FEW012 SCT020 BKN070 15/14 Q1025@CAELT@A3027 751.5 HR98 NOSIG=@CAELT@
ZPX0072 290455@CAELT@GG SLZZYMYT@CAELT@290454 SLVRYGYZ@CAELT@SABO SLVR 290500@CAELT@METAR SLVR 290500Z 36006KT 9999 NSC 23/23 Q1009 A2981 HR99 NOSIG=@CAELT@
ZPX0073 290455@CAELT@GG SLZZYMYT@CAELT@290455 SLCBYGYZ@CAELT@SABO SLCB 290500@CAELT@METAR SLCB 290500Z 00000KT 9999 -RA FEW012 BKN020 OVC070 14/14 Q1024@CAELT@A3026 751.1 HR98 NOSIG=@CAELT@
ZPX0074 290457@CAELT@GG SLLPZRZX@CAELT@290455 SLLPYGYZ@CAELT@SABO SLLP 290500@CAELT@METAR SLLP 290500Z 16007KT 9999 FEW003 SCT070 BKN200 06/05 Q1036@CAELT@A3060 626.7 HR91 VCFG N/NE/E NOSIG=@CAELT@
ZPX0082 290555@CAELT@GG SLZZYMYT@CAELT@290556 SLVRYGYZ@CAELT@SABO SLVR 290600@CAELT@METAR SLVR 290600Z 33006KT 9999 NSC 23/22 Q1009 A2982 HR98 NOSIG=@CAELT@
ZPX0083 290556@CAELT@GG SLLPZRZX@CAELT@290555 SLLPYGYZ@CAELT@SABO SLLP 290600@CAELT@METAR SLLP 290600Z 08005KT 4000E VCFG FEW003 SCT012 BKN200 04/04@CAELT@Q1035 A3057 626.1 HR97 VCFG N/NE/E/SE/S AC NOSIG=@CAELT@
ZPX0084 290557@CAELT@GG SLZZYMYT@CAELT@290556 SLCBYGYZ@CAELT@SABO SLCB 290600@CAELT@METAR SLCB 290600Z 00000KT 9999 FEW012 BKN020 BKN070 14/14 Q1024@CAELT@A3024 750.6 HR98 SH NW/N/NE/E NOSIG=@CAELT@
ZPX0095 290655@CAELT@GG SLZZYMYT@CAELT@290655 SLVRYGYZ@CAELT@SABO SLVR 290700@CAELT@METAR SLVR 290700Z 35007KT 9999 FEW005 BKN200 23/23 Q1010 A2982 HR100@CAELT@TEMPO 6000 BR=@CAELT@
ZPX0096 290656@CAELT@GG SLLPZRZX@CAELT@290655 SLLPYGYZ@CAELT@SABO SLLP 290700@CAELT@METAR SLLP 290700Z 10008KT 4000E VCFG FEW002 SCT012 BKN070 05/05@CAELT@Q1034 A3056 625.8 HR98 VCFG NE/E/SE CI NOSIG=@CAELT@
ZPX0097 290657@CAELT@GG SLZZYMYT@CAELT@290657 SLCBYGYZ@CAELT@SABO SLCB 290700@CAELT@METAR SLCB 290700Z 00000KT 9999 FEW012 BKN020 BKN070 15/14 Q1023@CAELT@A3023 750.5 HR95 NOSIG=@CAELT@
ZPX0740 290755@CAELT@GG SLLPZRZX@CAELT@290755 SLLPYGYZ@CAELT@SABO SLLP 290800@CAELT@METAR SLLP 290800Z 11007KT 4000E VCFG FEW002 SCT012 BKN200 06/05@CAELT@Q1034 A3056 625.9 HR93 VCFG NE/E/SE/S AC NOSIG=@CAELT@
ZPX0741 290757@CAELT@GG SLZZYMYT@CAELT@290757 SLCBYGYZ@CAELT@SABO SLCB 290800@CAELT@METAR SLCB 290800Z 00000KT 9999 FEW012 BKN020 OVC070 15/13 Q1023@CAELT@A3023 750.5 HR92 NOSIG=@CAELT@
ZPX0742 290757@CAELT@GG SLZZYMYT@CAELT@290756 SLVRYGYZ@CAELT@SABO SLVR 290800@CAELT@METAR SLVR 290800Z 35008KT 9999 SCT006 BKN200 23/22 Q1010 A2983 HR94@CAELT@AC TEMPO BKN006=@CAELT@
ZPX0743 290757@CAELT@GG SLZZYMYT@CAELT@290757 SLVRYGYZ@CAELT@SABO SLVR 290800@CAELT@METAR SLVR 290800Z 35008KT 9999 SCT006 BKN200 23/22 Q1010 A2983 HR94@CAELT@AC TEMPO BKN006=@CAELT@
ZPX0746 291619@CAELT@GG SLLPZRZX@CAELT@290855 SLLPYGYZ@CAELT@SABO SLLP 290900@CAELT@METAR SLLP 290900Z 10004KT 4000E VCFG FEW003 SCT012 BKN200 06/05@CAELT@Q1035 A3057 626.0 HR95 VCFG NE/E/SE AC NOSIG=@CAELT@
ZPX0748 291657@CAELT@GG SLZZYMYT@CAELT@291655 SLLPYGYZ@CAELT@SABO SLLP 291700@CAELT@METAR SLLP 291700Z 13012KT 9999 SCT015 FEW017CB SCT070 BKN200 12/06@CAELT@Q1035 A3058 626.2 HR66 P1784 CB/SH NE/NW NOSIG=@CAELT@
ZPX0749 291658@CAELT@GG SLZZYMYT@CAELT@291556 SLTRYGYZ@CAELT@SABO SLTR 291600@CAELT@METAR SLTR 291600Z 01009KT 5000 VCSH SCT015 FEW017CB BKN200 27/24@CAELT@Q1010 A2983 991.5 HR85 CB SE SH N/SE/SW/W/NW TEMPO SHRA=@CAELT@
ZPX0750 291728@CAELT@GG SLZZYMYT@CAELT@291700 SLCBYGYZ@CAELT@SABO SLCB 291700@CAELT@METAR SLCB 291700Z 14007KT 3000 TSRA SCT025 FEW027CB OVC070 15/14@CAELT@Q1024 A3025 750.8 HR91 TS/CB ON STN TEMPO 18015KT=@CAELT@
ZPX0753 291728@CAELT@GG SLZZYMYT@CAELT@291656 SLTRYGYZ@CAELT@SABO SLTR 291700@CAELT@METAR SLTR 291700Z 36008KT 2000 RA BKN015 FEW017CB BKN200 25/24@CAELT@Q1009 A2981 991.0 HR97 CB ON STN/N/NW TEMPO 5000=@CAELT@
ZPX0773 291752@CAELT@GG SLZZYMYT@CAELT@291752 SLCAYGYS@CAELT@SABO SLCA 291800@CAELT@METAR SLCA 291800Z 00000KT 9999 FEW036 FEW040CB BKN070 28/20 Q1012@CAELT@A2988 HR60 CB S RWY NML=@CAELT@
ZPX0775 291752@CAELT@GG SLZZYMYT@CAELT@291752 SLORYGYZ@CAELT@SABO SLOR 291800@CAELT@METAR SLOR 291800Z 07015KT 9999 SCT023 20/06 Q1032 A3049 654.1 HR41@CAELT@AC/CI=@CAELT@
ZPX0777 291754@CAELT@GG SLZZYMYT@CAELT@291753 SLRBYGYS@CAELT@SABO SLRB 291800@CAELT@METAR SLRB 291800Z 36006KT 9999 BKN020 32/22 Q1011 A2985 HR56 RWY NML=@CAELT@
ZPX0778 291754@CAELT@GG SLZZYMYT@CAELT@291755 SLAGYSYX@CAELT@SABO SLAG 291800@CAELT@METAR SLAG 291800Z 16007KT 9999 FEW023 FEW030CB SCT070 BKN200 30/19@CAELT@Q1013 A2994 886.3 HR51 CB/NE=@CAELT@
ZPX0779 291754@CAELT@GG SLZZYMYT@CAELT@291755 SLCOYGYZ@CAELT@SABO SLCO 291800@CAELT@METAR SLCO 291800Z 32006KT 9999 SCT016 FEW020CB BKN200 30/24 Q1009@CAELT@A2981 982.2 HR69 CB/NE AC=@CAELT@
ZPX0781 291755@CAELT@GG SLZZYMYT@CAELT@291755 SLSBYSYX@CAELT@SABO SLSB 291800@CAELT@METAR SLSB291800Z 00000KT 9999 BKN020 32/25 Q1008 A2977 HR66@CAELT@RWY WET OPR C210=@CAELT@
ZPX0782 291755@CAELT@GG SLZZYMYT@CAELT@291755 SLLPYGYZ@CAELT@SABO SLLP 291800@CAELT@METAR SLLP 291800Z 10010KT 9999 SCT017 FEW020CB SCT070 BKN200@CAELT@13/05 Q1034 A3055 625.7 HR57 P94// CB/SH W/NW NOSIG=@CAELT@
ZPX0784 291757@CAELT@GG SLZZYMYT@CAELT@291755 SLCBYGYZ@CAELT@SABO SLCB 291800@CAELT@METAR SLCB 291800Z 27003KT 7000 -RA FEW010 SCT022 FEW027CB BKN070 15/@CAELT@14 Q1023 A3023 750.5 HR96 CB/E/SE SH/W FU TEMPO 8000 TSRA=@CAELT@
ZPX0785 291757@CAELT@GG SLZZYMYT@CAELT@291758 SLVRYGYZ@CAELT@SABO SLVR 291800@CAELT@METAR SLVR 291800Z 35012KT 9999 FEW015 BKN020 31/23 Q1009 A2980 HR63@CAELT@CI NOSIG=@CAELT@
ZPX0788 291758@CAELT@GG SLZZYMYT@CAELT@291758 SLTJYGYZ@CAELT@SABO SLTJ 291800@CAELT@METAR SLTJ 291800Z 13008KT 9999 FEW030 FEW036CB BKN200 25/17 Q1017@CAELT@A3006 813.1 HR64 CB/SW/W AC=@CAELT@
ZPX0789 291758@CAELT@GG SLZZYMYT@CAELT@291758 SLCBYGYZ@CAELT@SABO SLCB 291700@CAELT@METAR SLCB 291700Z 14007KT 3000 TSRA SCT025 FEW027CB OVC070 15/14@CAELT@Q1024 A3025 750.8 HR91 TS/CB ON STN TEMPO 18015KT=@CAELT@
ZPX0790 291758@CAELT@GG SLZZYMYT@CAELT@291756 SLTRYGYZ@CAELT@SABO SLTR 291800@CAELT@METAR SLTR 291800Z 34007KT 5000 -RA SCT005 BKN015 FEW020CB BKN200@CAELT@26/25 Q1008 A2978 990.0 HR95 CB N/W/NW TEMPO 2000 BKN005=@CAELT@
ZPX0792 291800@CAELT@GG SLZZYMYT@CAELT@291801 SLVRYFYC@CAELT@SABO SLVR 291800@CAELT@METAR SLVR 291800Z 35012KT 9999 FEW015 BKN020 31/23 Q1009 A2980 HR63@CAELT@CI NOSIG=@CAELT@METAR SLET 291800Z 31010G20KT 9999 SCT015 BKN020 30/23 Q1008 A2978@CAELT@HR65 CI NOSIG=@CAELT@METAR SLAS 291800Z 35010KT 9999 BKN015 FEW030CB BKN200 29/24 Q1011A2986 HR75 CB/SH/N RWY NML=METAR SLJV 291800Z 36005KT 9999 BKN013 29/23 Q1009 A2980 HR72 RWY NMLMETAR SLCP 291800Z 00000KT 9999 BKN017 FEW027CB BKN200 25/24 Q1012A2988 HR96 CB NW/N RERA RWY WET OPR=METAR SLSI 291800Z 33006KT 9999 BKN017 30/22 Q1011 A2985 HR67 RWY NMLMETAR SLTI 291800Z 00000KT 9999 SCT017 BKN200 34/24 Q1012 A2988 HR57RWY NML=METAR SLJE 291800Z 32006KT 9999 BKN017 33/23 Q1011 A2985 HR55 RWY NMLMETAR SLVG 291800Z 36015KT 4000 TS VCSH SCT027 FEW030CB BKN200 25/15Q1022 A3018 HR59 TS/CB NE/W SH N/NE/W RWY NML=METAR SLRB 291800Z 36006KT 9999 BKN020 32/22 Q1011 A2985 HR56 RWY NMLMETAR SLPS 291800Z 09005KT 8000 VCSH BKN017 FEW030CB BKN200 33/25Q1007 A2974 HR64 CB/SH NE/E/SW=METAR SLCA 291800Z 00000KT 9999 FEW036 FEW040CB BKN070 28/20 Q1012A2988 HR60 CB S RWY NML=
ZPX0793 291800@CAELT@GG SLZZYMYT@CAELT@291800 SLCBYGYS@CAELT@SABO SLCB 291800@CAELT@METAR SLCB 291800Z 27003KT 7000 -RA FEW010 SCT022 FEW027CB BKN070 15/@CAELT@14 Q1023 A3023 750.5 HR96 CB/E/SE SH/W FU TEMPO 8000 TSRA=@CAELT@METAR SLAL 291800Z 00000KT 8000 -RA BKN017 FEW030CB BKN070 12/10@CAELT@Q1029 A3039 703.6 HR88 CB/SE/S/SW/W CI=@CAELT@METAR SLAG 291800Z 16007KT 9999 FEW023 FEW030CB SCT070 BKN200 30/19Q1013 A2994 886.3 HR51 CB/NE=METAR SLVM 291800Z 18005KT 9999 FEW025 SCT070 36/24 Q1006 A2974 HR50FU CI=METAR SLTJ 291800Z 13008KT 9999 FEW030 FEW036CB BKN200 25/17 Q1017A3006 813.1 HR64 CB/SW/W AC=METAR SLYA 291800Z 21008KT 9999 FEW023 FEW027CB 33/26 Q1009 A2980 934.0 HR64 CB N/NE=
ZPX0795 291802@CAELT@GG SLZZYMYT@CAELT@291802 SLTRYGYS@CAELT@SABO SLTR 291800@CAELT@METAR SLTR 291800Z 34007KT 5000 -RA SCT005 BKN015 FEW020CB BKN200@CAELT@26/25 Q1008 A2978 990.0 HR95 CB N/W/NW TEMPO 2000 BKN005=@CAELT@METAR SLGM 291800Z 31006KT 9999 BKN015 FEW020CB BKN070 28/23 Q1010@CAELT@A2984 HR76 CB NE/E=@CAELT@METAR SLRI 291800Z 36004KT 9999 BKN015 FEW020CB BKN070 27/24 Q1011A2986 HR80 CB E/SE=METAR SLJO 291800Z NIL=METAR SLRA 291800Z 36010KT 7000 VCSH SCT017 FEW023CB BKN200 30/24Q1009 A2982 HR73 CB/SH S/W RWY NML=METAR SLMG 291800Z 32010KT 9999 SCT017 BKN200 29/23 Q1009 A2980 HR70RWY NML=METAR SLBU 291800Z 36008KT 9999 SCT017 BKN080 30/25 Q1008 A2979 HR71METAR SLSA 291800Z 32006KT 6000 VCSH SCT007 BKN017 BKN070 26/24Q1008 A2977 HR88 SH SE/W/NW=METAR SLSR 291800Z 32008KT 8000 VCSH SCT015 FEW023CB BKN200 29/24Q1008 A2978 HR73 CB/SH NE/E/SE RWY OPR C210=METAR SLSM 291800Z NIL=
ZPX0798 291806@CAELT@GG SLZZYMYT@CAELT@291800 SLLPYFYA@CAELT@SABO SLLP 291800@CAELT@METAR SLLP 291800Z 10010KT 9999 SCT017 FEW020CB SCT070 BKN200@CAELT@13/05 Q1034 A3055 625.7 HR57 P94// CB/SH W/NW NOSIG=@CAELT@METAR SLCO 291800Z 32006KT 9999 SCT016 FEW020CB BKN200 30/24 Q1009@CAELT@A2981 982.2 HR69 CB/NE AC=@CAELT@METAR SLRY 291800Z 34004KT 9999 BKN015 29/24 Q1007 A2976 HR74 RWY HUMOPR C210METAR SLRQ 291800Z 29004KT 9999 BKN020 BKN200 29/25 Q1008 A2977984.2 HR81=METAR SLAP 291800Z 00000KT 9999 SCT015 BKN070 23/19 Q1016 A3003857.6 HR76=METAR SLSB 291800Z 00000KT 9999 BKN020 32/25 Q1008 A2977 HR66RWY WET OPR C210=METAR SLOR 291800Z 07015KT 9999 SCT023 20/06 Q1032 A3049 654.1 HR41AC/CI=
ZPX0802 291810@CAELT@GG SLZZYMYT@CAELT@291808 SLTRYGYS@CAELT@SABO SLTR 291800 RRA@CAELT@METAR SLTR 291800Z 34007KT 5000 -RA SCT005 BKN015 FEW020CB BKN200@CAELT@26/25 Q1008 A2978 990.0 HR95 CB N/W/NW TEMPO 2000 BKN005=@CAELT@METAR SLGM 291800Z 31006KT 9999 BKN015 FEW020CB BKN070 28/23 Q1010@CAELT@A2984 HR76 CB NE/E=@CAELT@METAR SLRI 291800Z 36004KT 9999 BKN015 FEW020CB BKN070 27/24 Q1011A2986 HR80 CB E/SE=METAR SLJO 291800Z NIL=METAR SLRA 291800Z 36010KT 7000 VCSH SCT017 FEW023CB BKN200 30/24Q1009 A2982 HR73 CB/SH S/W RWY NML=METAR SLMG 291800Z 32010KT 9999 SCT017 BKN200 29/23 Q1009 A2980 HR70RWY NML=METAR SLBU 291800Z 36008KT 9999 SCT017 BKN080 30/25 Q1008 A2979 HR71METAR SLSA 291800Z 32006KT 6000 VCSH SCT007 BKN017 BKN070 26/24Q1008 A2977 HR88 SH SE/W/NW=METAR SLSR 291800Z 32008KT 8000 VCSH SCT015 FEW023CB BKN200 29/24Q1008 A2978 HR73 CB/SH NE/E/SE RWY OPR C210=METAR RTD SLSM 291800Z 00000KT 9999 SCT015 FEW020CB BKN070 28/25Q1008 A2977 HR86 RERA CB N/NE/NW RWY WET OPR C206=
ZPX0831 291853@CAELT@GG SLZZYMYT@CAELT@291854 SLVRYGYZ@CAELT@SABO SLVR 291900@CAELT@METAR SLVR 291900Z 34015KT 9999 BKN020 31/23 Q1008 A2979 HR63 CI@CAELT@NOSIG=@CAELT@
ZPX0833 291853@CAELT@GG SLZZYMYT@CAELT@291853 SLCAYGYS@CAELT@SABO SLCA 291900@CAELT@METAR SLCA 291900Z 00000KT 9999 FEW036CB SCT070 BKN200 29/20 Q1011@CAELT@A2985 HR59 CB NE RWY NML=@CAELT@
ZPX0834 291853@CAELT@GG SLZZYMYT@CAELT@291853 SLRBYGYS@CAELT@SABO SLRB 291900@CAELT@METAR SLRB 291900Z 36004KT 9999 BKN020 32/22 Q1009 A2980 HR56 RWY NML=@CAELT@
ZPX0835 291853@CAELT@GG SLZZYMYT@CAELT@291852 SLPSYGYS@CAELT@SABO SLPS 291900@CAELT@METAR SLPS 291900Z 09005KT 9999 BKN017 FEW030CB BKN200 34/25 Q1007@CAELT@A2974 HR65 CB/NE/E=@CAELT@
ZPX0838 291855@CAELT@GG SLZZYMYT@CAELT@291855 SLTJYGYZ@CAELT@SABO SLTJ 291900@CAELT@METAR SLTJ 291900Z 09004KT 9999 FEW030 FEW036CB BKN200 25/17 Q1016@CAELT@A3002 812.2 HR61 CB/SW/W AC=@CAELT@
ZPX0839 291855@CAELT@GG SLZZYMYT@CAELT@291855 SLCOYGYZ@CAELT@SABO SLCO 291900@CAELT@METAR SLCO 291900Z 34008KT 9999 SCT020 FEW023CB BKN200 31/24 Q1008@CAELT@A2977 980.9 HR67 CB/N/NE AC=@CAELT@
ZPX0841 291855@CAELT@GG SLZZYMYT@CAELT@291855 SLSAYGYS@CAELT@SABO SLSA 291900@CAELT@METAR SLSA 291900Z 31006KT 5000 -RA SCT006 BKN015 BKN070 24/23@CAELT@Q1007 A2976 HR95=@CAELT@
ZPX0843 291856@CAELT@GG SLZZYMYT@CAELT@291855 SLLPYGYZ@CAELT@SABO SLLP 291900@CAELT@METAR SLLP 291900Z 12009KT 9999 SCT017 FEW020CB BKN200 13/05@CAELT@Q1033 A3052 625.0 HR60 P93// CB/SH SW AC NOSIG=@CAELT@
ZPX0844 291857@CAELT@GG SLZZYMYT@CAELT@291856 SLSBYSYX@CAELT@SABO SLSB 291900@CAELT@METAR SLSB 291900Z 00000KT 8000 VCSH BKN020 FEW023CB 32/25 Q1007@CAELT@A2974 HR66 CBSH/W/NW RWY WET OPR C210=@CAELT@
ZPX0845 291857@CAELT@GG SLZZYMYT@CAELT@291857 SLTRYGYZ@CAELT@SABO SLTR 291900@CAELT@METAR SLTR 291900Z 34008KT 8000 VCSH SCT008 FEW020CB BKN200 26/25@CAELT@Q1007 A2975 988.9 HR91 RERA CB/SH SE NOSIG=@CAELT@
ZPX0846 291858@CAELT@GG SLZZYMYT@CAELT@291858 SLTRYGYS@CAELT@SABO SLTR 291900@CAELT@METAR SLTR 291900Z 34008KT 8000 VCSH SCT008 FEW020CB BKN200 26/25@CAELT@Q1007 A2975 988.9 HR91 RERA CB/SH SE NOSIG=@CAELT@METAR SLGM 291900Z 27008KT 9999 BKN015 FEW020CB BKN080 29/23 Q1008@CAELT@A2979 HR73 CB NE/E=@CAELT@METAR SLRI 291900Z 03006KT 7000 VCSH SCT015 FEW020CB BKN080 28/23Q1010 A2983 HR75 CB/SH N/NE=METAR SLJO 291900Z NIL=METAR SLRA 291900Z 35008KT 7000 VCSH SCT017 FEW023CB BKN200 28/23Q1009 A2980 HR74 CB/SH N/NE RWY NML=METAR SLMG 291900Z 32012KT 9999 SCT017 BKN200 29/24 Q1008 A2977 HR74RWY NML=METAR SLBU 291900Z 36008KT 9999 SCT017 BKN200 31/25 Q1007 A2976 HR71AC RWY NML=METAR SLSA 291900Z 31006KT 5000 -RA SCT006 BKN015 BKN070 24/23 Q1007A2976 HR95=METAR SLSR 291900Z 32008KT 9999 SCT015 FEW023CB BKN200 30/24 Q1007A2974 HR71 CB N/NE/E/SE RWY OPR C210=METAR SLSM 291900Z 03004KT 9999 VCTS SCT013 FEW020CB BKN070 27/25Q1007 A2974 HR88 CB N/NE/W TS W RWY OPR C206=
ZPX0847 291859@CAELT@GG SLZZYMYT@CAELT@291856 SLCBYGYZ@CAELT@SABO SLCB 291900@CAELT@METAR SLCB 291900Z 29004KT 9999 SCT020 FEW025CB BKN070 15/14 Q1023@CAELT@A3022 750.0 HR93 CB/E/SE FU CI NOSIG=@CAELT@
ZPX0848 291859@CAELT@GG SLZZYMYT@CAELT@291900 SLVRYFYC@CAELT@SABO SLVR 291900@CAELT@METAR SLVR 291900Z 34015KT 9999 BKN020 31/23 Q1008 A2979 HR63 CI@CAELT@NOSIG=@CAELT@METAR SLET 291900Z 32012KT 9999 FEW015 BKN020 31/22 Q1007 A2975 HR62@CAELT@CI NOSIG=@CAELT@METAR SLAS 291900Z 34010KT 9999 SCT017 FEW030CB BKN200 30/23 Q1009A2980 HR70 CB/SH/N/W/E RWY NML=METAR SLJV 291900Z 36005KT 9999 BKN015 FEW030CB BKN200 26/24 Q1008A2977 HR86 CB/N/NE/E RESH RWY HUM OPR=METAR SLCP 291900Z 00000KT 9999 BKN017 FEW027CB BKN200 24/24 Q1012A2988 HR98 CB/S/SW RESH RWY WET OPR=METAR SLSI 291900Z 33008KT 9999 BKN017 BKN200 30/23 Q1010 A2983 HR62RWY NMLMETAR SLTI 291900Z 00000KT 9999 SCT017 BKN200 34/23 Q1010 A2983 HR53RWY NML=METAR SLJE 291900Z 32006KT 9999 BKN017 33/23 Q1010 A2983 HR55 RWY NMLMETAR SLVG 291900Z 18005 KT 5000 VCSH SCT027 FEW030CB BKN200 20/15Q101021 A3015 HR74 CB/SH NE/S/SE RETS RWY NML=METAR SLRB 291900Z 36004KT 9999 BKN020 32/22 Q1009 A2980 HR56 RWY NMLMETAR SLPS 291900Z 09005KT 9999 BKN017 FEW030CB BKN200 34/25 Q1007A2974 HR65 CB/NE/E=METAR SLCA 291900Z 00000KT 9999 FEW036CB SCT070 BKN200 29/20 Q1011A2985 HR59 CB NE RWY NML=
ZPX0850 291900@CAELT@GG SLZZYMYT@CAELT@291900 SLLPYFYA@CAELT@SABO SLLP 291900@CAELT@METAR SLLP 291900Z 12009KT 9999 SCT017 FEW020CB BKN200 13/05@CAELT@Q1033 A3052 625.0 HR60 P93// CB/SH SW AC NOSIG=@CAELT@METAR SLCO 291900Z 34008KT 9999 SCT020 FEW023CB BKN200 31/24 Q1008@CAELT@A2977 980.9 HR67 CB/N/NE AC=@CAELT@METAR SLRY 291900Z 34004KT 9999 BKN015 30/25 Q1006 A2972 HR76RWY HUM OPR=METAR SLRQ 291900Z 34004KT 9999 BKN020 BKN200 30/25 Q1006 A2973 HR76=METAR SLSB 291900Z 00000KT 8000 VCSH BKN020 FEW023CB 32/25 Q1007A2974 HR66 CBSH/W/NW RWY WET OPR C210=
ZPX0855 291902@CAELT@GG SLZZYMYT@CAELT@291900 SLCBYGYS@CAELT@SABO SLCB 291900@CAELT@METAR SLCB 291900Z 29004KT 9999 SCT020 FEW025CB BKN070 15/14 Q1023@CAELT@A3022 750.0 HR93 CB/E/SE FU CI NOSIG=@CAELT@METAR SLAL 291900Z 00000KT 9999 SCT020 FEW030CB SCT070 14/10 Q1027@CAELT@A3034 702.6 HR79 CB/SE/S/SW CI RERA=@CAELT@METAR SLVM 291900Z 23005KT 9999 SCT025 FEW030CB OVC070 34/23 Q1006A2971 HR54FU CB ON STN/SE/S/SW=METAR SLTJ 291900Z 09004KT 9999 FEW030 FEW036CB BKN200 25/17 Q1016A3002 812.2 HR61 CB/SW/W AC=
ZPX0891 291951@CAELT@GG SLZZYMYT@CAELT@291951 SLPSYGYS@CAELT@SABO SLPS 292000@CAELT@METAR SLPS 292000Z 09005KT 9999 SCT017 BKN200 30/25 Q1006 A2971 HR78=@CAELT@
ZPX0892 291952@CAELT@GG SLZZYMYT@CAELT@291952 SLCAYGYS@CAELT@SABO SLCA 292000@CAELT@METAR SLCA 292000Z 00000KT 9999 FEW040CB SCT070 BKN200 30/20 Q1010@CAELT@A2983 HR57 CB S RWY NML=@CAELT@
ZPX0893 291953@CAELT@GG SLZZYMYT@CAELT@291953 SLVRYGYZ@CAELT@SABO SLVR 292000@CAELT@METAR SLVR 292000Z 35012KT 9999 SCT020 30/22 Q1007 A2975 HR61 CI@CAELT@NOSIG=@CAELT@
ZPX0895 291953@CAELT@GG SLZZYMYT@CAELT@291953 SLRBYGYS@CAELT@SABO SLRB 292000@CAELT@METAR SLRB 292000Z 36004KT 9999 SCT020 32/22 Q1008 A2977 HR56 RWY NML=@CAELT@
ZPX0896 291954@CAELT@GG SLZZYMYT@CAELT@291954 SLSAYGYS@CAELT@SABO SLSA 292000@CAELT@METAR SLSA 292000Z 00000KT 8000 VCSH SCT017 SCT080 BKN200 26/24@CAELT@Q1006 A2972 HR90 RERA SH SE/SW/NW=@CAELT@
ZPX0898 291954@CAELT@GG SLZZYMYT@CAELT@291955 SLCOYGYZ@CAELT@SABO SLCO 292000@CAELT@METAR SLCO 292000Z 35012KT 6000 -RA FEW006 SCT017 FEW023CB BKN080 27/@CAELT@26 Q1008 A2977 980.7 HR90 CB/N/NE/NW CI=@CAELT@
ZPX0899 291955@CAELT@GG SLZZYMYT@CAELT@291955 SLSBYSYX@CAELT@SABO SLSB 292000@CAELT@METAR SLSB 292000Z 36006KT 8000 VCSH BKN020 FEW023CB 30/24 Q1006@CAELT@A2971 HR67 CB/SH NW/NE/E RWY WET OPR C210=@CAELT@
ZPX0900 291956@CAELT@GG SLZZYMYT@CAELT@291955 SLLPYGYZ@CAELT@SABO SLLP 292000@CAELT@METAR SLLP 292000Z 06011KT 9999 SCT017 FEW020CB BKN200 13/04@CAELT@Q1033 A3050 624.6 HR53 P93// CB/SH NW AC NOSIG=@CAELT@
ZPX0901 291957@CAELT@GG SLZZYMYT@CAELT@291958 SLVRYFYC@CAELT@SABO SLVR 292000@CAELT@METAR SLVR 292000Z 35012KT 9999 SCT020 30/22 Q1007 A2975 HR61 CI@CAELT@NOSIG=@CAELT@METAR SLET 292000Z 33010KT 9999 BKN020 FEW030CB 30/23 Q1006 A2972@CAELT@HR64 CB SW CI NOSIG=@CAELT@METAR SLAS 292000Z 00000KT 9999 SCT017 FEW030CB BKN200 30/24 Q1009A2980 HR70 CB/SH/NW/N/NE RWY NML=METAR SLJV 292000Z 36005KT 9999 BKN015 FEW030CB 29/24 Q1007 A2974HR74 CB/N/NE RWY HUM OPR=METAR SLCP 292000Z 00000KT 9999 BKN017 BKN200 24/24 Q1011 A2985 HR98RWY WET OPR=METAR SLSI 292000Z 36008KT 9999 SCT017 BKN200 31/23 Q1008 A2977 HR63RWY NML=METAR SLTI 292000Z 00000KT 9999 SCT017 SCT200 34/23 Q1009 A2980 HR43METAR SLJE 292000Z 32006KT 9999 BKN017 33/23 Q1009 A2980 HR57 RWY NMLMETAR SLVG 292000Z 18005KT 9999 SCT027 FEW030CB OVC070 18/15 Q1020A3012 HR77 CB ON STN/N/NW/SW SH/SW RESH RWY HUM OPR=METAR SLRB 292000Z 36004KT 9999 SCT020 32/22 Q1008 A2977 HR56 RWY NMLMETAR SLPS 292000Z 09005KT 9999 SCT017 BKN200 30/25 Q1006 A2971 HR78=METAR SLCA 292000Z 00000KT 9999 FEW040CB SCT070 BKN200 30/20 Q1010A2983 HR57 CB S RWY NML=
ZPX0902 291957@CAELT@GG SLZZYMYT@CAELT@291956 SLTJYGYZ@CAELT@SABO SLTJ 292000@CAELT@METAR SLTJ 292000Z 18006KT 9999 FEW030 FEW036CB BKN200 23/16 Q1016@CAELT@A3001 811.7 HR65 CB/N/E/SW AC=@CAELT@
ZPX0903 291957@CAELT@GG SLZZYMYT@CAELT@291957 SLTRYGYZ@CAELT@SABO SLTR 292000@CAELT@METAR SLTR 292000Z 33008KT 9999 SCT015 SCT200 27/24 Q1006 A2971@CAELT@987.6 HR87 NOSIG=@CAELT@
ZPX0904 291957@CAELT@GG SLZZYMYT@CAELT@291956 SLCBYGYZ@CAELT@SABO SLCB 292000@CAELT@METAR SLCB 292000Z 16004KT 9999 SCT020 FEW025CB BKN070 16/14 Q1021@CAELT@A3018 749.0 HR91 CB DIST S FU CI NOSIG=@CAELT@
ZPX0907 292000@CAELT@GG SLZZYMYT@CAELT@292000 SLTRYGYS@CAELT@SABO SLTR 292000@CAELT@METAR SLTR 292000Z 33008KT 9999 SCT015 SCT200 27/24 Q1006 A2971@CAELT@987.6 HR87 NOSIG=@CAELT@METAR SLGM 292000Z 27006KT 9999 SCT017 FEW020CB BKN200 30/24 Q1007@CAELT@A2975 HR71 AC CB NE=@CAELT@METAR SLRI 292000Z 03008KT 9999 SCT015 FEW020CB BKN080 28/23 Q1008A2978 HR74 CB E=METAR SLJO 292000Z NIL=METAR SLRA 292000Z 35008KT 9999 FEW017 FEW023CB BKN200 29/24 Q1007A2976 HR74 CB E RWY NML=METAR SLMG 292000Z 32010KT 9999 SCT017 BKN200 29/24 Q1007 A2975 HR74RWY NML=METAR SLBU 292000Z 36004KT 9999 SCT017 BKN200 30/24 Q1006 A2973 HR72METAR SLSA 292000Z 00000KT 8000 VCSH SCT017 SCT080 BKN200 26/24Q1006 A2972 HR90 RERA SH SE/SW/NW=METAR SLSR 292000Z 32008KT 9999 SCT015 FEW023CB BKN200 30/24 Q1006A2971 HR72 CB SE/SW RWY OPR C210=METAR SLSM 292000Z 00000KT 9999 SCT015 BKN070 26/25 Q1006 A2971 HR93RETS RWY WET OPR C206=
ZPX0909 292001@CAELT@GG SLZZYMYT@CAELT@292001 SLCBYGYS@CAELT@SABO SLCB 292000@CAELT@METAR SLCB 292000Z 16004KT 9999 SCT020 FEW025CB BKN070 16/14 Q1021@CAELT@A3018 749.0 HR91 CB DIST S FU CI NOSIG=@CAELT@METAR SLAL 292000Z 00000KT 9999 SCT020 FEW030CB 15/08 Q1026 A3030 701@CAELT@.7 HR61 CB/N/NE AC/CI=@CAELT@METAR SLTJ 292000Z 18006KT 9999 FEW030 FEW036CB BKN200 23/16 Q1016A3001 811.7 HR65 CB/N/E/SW AC=
ZPX0910 292001@CAELT@GG SLZZYMYT@CAELT@292001 SLLPYFYA@CAELT@SABO SLLP 292000@CAELT@METAR SLLP 292000Z 06011KT 9999 SCT017 FEW020CB BKN200 13/04@CAELT@Q1033 A3050 624.6 HR53 P93// CB/SH NW AC NOSIG=@CAELT@METAR SLCO 292000Z 35012KT 6000 -RA FEW006 SCT017 FEW023CB@CAELT@BKN080 27/26 Q1008 A2977 980.7 HR90 CB/N/NE/NW CI=@CAELT@METAR SLRY 292000Z 34006KT 9999 SCT017 30/24 Q1005 A2968HR73 RWY HUM OPR=METAR SLRQ 292000Z 34004KT 9999 BKN020 SCT200 30/26 Q1005 A2970 HR78=METAR SLSB 292000Z 36006KT 8000 VCSH BKN020 FEW023CB 30/24 Q1006A2971 HR67 CB/SH NW/NE/E RWY WET OPR C210=
ZPX0949 292050@CAELT@GG SLZZYMYT@CAELT@292050 SLCAYGYS@CAELT@SABO SLCA 292100@CAELT@METAR SLCA 292100Z 00000KT 9999 FEW036 SCT070 OVC200 29/21 Q1010@CAELT@A2983 HR61 RWY NML=@CAELT@
ZPX0951 292054@CAELT@GG SLZZYMYT@CAELT@292054 SLVRYGYZ@CAELT@SABO SLVR 292100@CAELT@METAR SLVR 292100Z 34008KT 9999 FEW015 BKN020 BKN200 29/22 Q1007@CAELT@A2975 HR64 NOSIG=@CAELT@
ZPX0953 292054@CAELT@GG SLZZYMYT@CAELT@292054 SLSAYGYS@CAELT@SABO SLSA 292100@CAELT@METAR SLSA 292100Z 32005KT 9999 SCT017 BKN200 29/24 Q1005 A2970 HR74=@CAELT@
ZPX0954 292054@CAELT@GG SLZZYMYT@CAELT@292054 SLCOYGYZ@CAELT@SABO SLCO 292100@CAELT@METAR SLCO 292100Z 35012KT 9999 FEW017 FEW023CB SCT080 BKN200 27/24@CAELT@Q1007 A2976 980.3 HR83 CB/N/SE/S RERA=@CAELT@
ZPX0955 292054@CAELT@GG SLZZYMYT@CAELT@292054 SLSBYSYX@CAELT@SABO SLSB 292100@CAELT@METAR SLSB 292100Z 00000KT 8000 VCSH SCT020 FEW023CB BKN080 29/25@CAELT@Q1005 A2968 HR78 CB/NE E SH/NE E SE S NW RWY NML=@CAELT@
ZPX0956 292055@CAELT@GG SLZZYMYT@CAELT@292053 SLPSYGYS@CAELT@SABO SLPS 292100@CAELT@METAR SLPS 292100Z 00000KT 9999 FEW017 BKN200 30/25 Q1006 A2971 HR79=@CAELT@
ZPX0957 292056@CAELT@GG SLZZYMYT@CAELT@292056 SLRBYGYS@CAELT@SABO SLRB 292100@CAELT@METAR SLRB 292100Z 36006KT 9999 SCT020 32/22 Q1007 A2974 HR57 RWY NML=@CAELT@
ZPX0958 292056@CAELT@GG SLZZYMYT@CAELT@292055 SLLPYGYZ@CAELT@SABO SLLP 292100@CAELT@METAR SLLP 292100Z 05009KT 9999 SCT017 FEW020CB BKN200 13/03@CAELT@Q1032 A3050 624.4 HR51 P93// CB/SH NW AC NOSIG=@CAELT@
ZPX0960 292057@CAELT@GG SLZZYMYT@CAELT@292055 SLCBYGYZ@CAELT@SABO SLCB 292100@CAELT@METAR SLCB 292100Z 00000KT 8000 -RA FEW012 SCT020 FEW025CB BKN070 17/@CAELT@13 Q1021 A3017 748.9 HR78 CB/NW/N/NE/SE TEMPO TSRA=@CAELT@
ZPX0961 292057@CAELT@GG SLZZYMYT@CAELT@292058 SLVRYFYC@CAELT@SABO SLVR 292100@CAELT@METAR SLVR 292100Z 34008KT 9999 FEW015 BKN020 BKN200 29/22 Q1007@CAELT@A2975 HR64 NOSIG=@CAELT@METAR SLET 292100Z 32008KT 9999 SCT020 FEW030CB BKN200 29/22 Q1006@CAELT@A2973 HR66 CB SW/W NOSIG=@CAELT@METAR SLAS 292100Z 00000KT 5000 -RA BKN017 FEW030CB OVC200 25/24Q1008 A2977 HR91 CB/E/SW RWY WET OPR=METAR SLJV 292100Z 36010KT 4000 -RA BKN013 FEW030CB 24/23 Q1007 A2974HR93 CB N/NE/S RWY WET OPR=METAR SLCP 292100Z 00000KT 9999 SCT020 BKN200 25/23 Q1010 A2983 HR88RWY WET OPR=METAR SLSI 292100Z 33008KT 9999 SCT017 BKN200 29/24 Q1008 A2977 HR72RWY NML=METAR SLTI 292100Z 00000KT 9999 FEW020 34/23 Q1009 A2980 HR54 RWY NMLMETAR SLJE 292100Z 32006KT 9999 SCT017 33/23 Q1009 A2980 HR57 RWY NMLMETAR SLVG 292100Z 17004KT 9999 SCT027 FEW030CB OVC070 19/16 Q1020A3012 HR82 CB N/NE SH/N RWY HUM OPR=METAR SLRB 292100Z 36006KT 9999 SCT020 32/22 Q1007 A2974 HR57 RWY NMLMETAR SLPS 292100Z 00000KT 9999 FEW017 BKN200 30/25 Q1006 A2971 HR79=METAR SLCA 292100Z 00000KT 9999 FEW036 SCT070 OVC200 29/21 Q1010A2983 HR61 RWY NML=
ZPX0962 292057@CAELT@GG SLZZYMYT@CAELT@292056 SLTRYGYZ@CAELT@SABO SLTR 292100@CAELT@METAR SLTR 292100Z 33008KT 9999 SCT015 SCT200 28/24 Q1005 A2969@CAELT@987.1 HR88 NOSIG=@CAELT@
ZPX0965 292059@CAELT@GG SLZZYMYT@CAELT@292059 SLTJYGYZ@CAELT@SABO SLTJ 292100@CAELT@METAR SLTJ 292100Z 19006KT 9999 SCT030 FEW036CB BKN200 25/16 Q1015@CAELT@A2998 811.0 HR57 CB N/E/NW=@CAELT@
ZPX0968 292100@CAELT@GG SLZZYMYT@CAELT@292100 SLCBYGYS@CAELT@SABO SLCB 292100@CAELT@METAR SLCB 292100Z 00000KT 8000 -RA FEW012 SCT020 FEW025CB BKN070 17/@CAELT@13 Q1021 A3017 748.9 HR78 CB/NW/N/NE/SE TEMPO TSRA=@CAELT@METAR SLAL 292100Z 02008KT 8000 VCSH FEW020 FEW030CB 17/10 Q1025@CAELT@A3028 701.3 HR64 CB/SH/N/NE AC/CI=@CAELT@METAR SLTJ 292100Z 19006KT 9999 SCT030 FEW036CB BKN200 25/16 Q1015A2998 811.0 HR57 CB N/E/NW=
ZPX0969 292100@CAELT@GG SLZZYMYT@CAELT@292100 SLLPYFYA@CAELT@SABO SLLP 292100@CAELT@METAR SLLP 292100Z 05009KT 9999 SCT017 FEW020CB BKN200 13/03@CAELT@Q1032 A3050 624.4 HR51 P93// CB/SH NW AC NOSIG=@CAELT@METAR SLCO 292100Z 35012KT 9999 FEW017 FEW023CB SCT080 BKN200 27/24@CAELT@Q1007 A2976 980.3 HR83 CB/N/SE/S RERA=@CAELT@METAR SLRY 292100Z 34004KT 9999 FEW017 SCT080 30/24 Q1004 A2967HR72 RWY HUM OPR=METAR SLRQ 292100Z 00000KT 9999 FEW020 SCT200 31/25 Q1005 A2969 981.3HR69=METAR SLSB 292100Z 00000KT 8000 VCSH SCT020 FEW023CB BKN080 29/25Q1005 A2968 HR78 CB/NE E SH/NE E SE S NW RWY NML=
ZPX0971 292102@CAELT@GG SLZZYMYT@CAELT@292101 SLTRYGYS@CAELT@SABO SLTR 292100@CAELT@METAR SLTR 292100Z 33008KT 9999 SCT015 SCT200 28/24 Q1005 A2969@CAELT@987.1 HR88 NOSIG=@CAELT@METAR SLGM 292100Z 30008KT 9999 SCT017 FEW020CB BKN200 30/24 Q1006@CAELT@A2973 HR71 CB NE=@CAELT@METAR SLRI 292100Z 36006KT 9999 SCT015 FEW020CB BKN200 28/23 Q1008A2977 HR76 CB W=METAR SLJO 292100Z NIL=METAR SLRA 292100Z 35006KT 9999 FEW017 BKN200 28/23 Q1007 A2974 HR75RWY NML=METAR SLMG 292100Z 32010KT 9999 SCT017 BKN200 29/24 Q1006 A2973 HR76METAR SLBU 292100Z 36004KT 9999 FEW017 BKN200 30/25 Q1005 A2970 HR73METAR SLSA 292100Z 32005KT 9999 SCT017 BKN200 29/24 Q1005 A2970 HR74=METAR SLSR 292100Z 32008KT 9999 FEW015 FEW023CB BKN200 30/23 Q1005A2968 HR68 CB N/SE RWY OPR C210=METAR SLSM 292100Z 33004KT 9999 SCT015 BKN070 26/25 Q1005 A2968 HR91RWY WET OPR C206=
ZPX0994 292153@CAELT@GG SLZZYMYT@CAELT@292153 SLCAYGYS@CAELT@SABO SLCA 292200@CAELT@METAR SLCA 292200Z 00000KT 9999 FEW036CB SCT070 OVC200 28/22 Q1011@CAELT@A2985 HR71 CB N RWY NML=@CAELT@
ZPX0995 292153@CAELT@GG SLZZYMYT@CAELT@292154 SLVRYGYZ@CAELT@SABO SLVR 292200@CAELT@METAR SLVR 292200Z 35007KT 9999 FEW015 SCT017 FEW030CB BKN200 29/22@CAELT@Q1007 A2975 HR66 CB S/SW/W NOSIG=@CAELT@
ZPX0996 292153@CAELT@GG SLZZYMYT@CAELT@292152 SLPSYGYS@CAELT@SABO SLPS 292200@CAELT@METAR SLPS 292200Z 00000KT 9999 FEW017 BKN200 29/25 Q1006 A2971 HR81=@CAELT@
ZPX0998 292154@CAELT@GG SLZZYMYT@CAELT@292153 SLRBYGYS@CAELT@SABO SLRB 292200@CAELT@METAR SLRB 292200Z 00000KT 9999 FEW020 32/22 Q1007 A2974 HR57 RWY NML=@CAELT@
ZPX0999 292154@CAELT@GG SLZZYMYT@CAELT@292154 SLSAYGYS@CAELT@SABO SLSA 292200@CAELT@METAR SLSA 292200Z 31005KT 8000 VCSH SCT017 BKN200 29/24@CAELT@Q1005 A2969 HR76 SH NE/NW=@CAELT@
