
ZPX0034 050055@CAELT@GG SLZZYMYT@CAELT@050055 SLVRYGYZ@CAELT@SABO SLVR 050100@CAELT@METAR SLVR 050100Z 10004KT 9000 -RA SCT007 BKN017 OVC070 23/22 Q1010@CAELT@A2983 HR97 NOSIG=@CAELT@
ZPX0036 050057@CAELT@GG SLLPZRZX@CAELT@050056 SLLPYGYZ@CAELT@SABO SLLP 050100@CAELT@METAR SLLP 050100Z 03005KT 350V060 9999 VCTS FEW006 FEW017CB@CAELT@SCT070 BKN200 09/05 Q1033 A3052 624.9 HR76 CB/LT N/NE/E/SE/NW@CAELT@TS E/SE NOSIG=@CAELT@
ZPX0037 050057@CAELT@GG SLZZYMYT@CAELT@050056 SLCBYGYZ@CAELT@SABO SLCB 050100@CAELT@METAR SLCB 050100Z 12005KT 9999 FEW030 FEW033CB SCT070 BKN200 20/09@CAELT@Q1018 A3008 746.4 HR47 CB LT/N/NE NOSIG=@CAELT@
ZPX0038 050058@CAELT@GG SLZZYMYT@CAELT@050058 SLCBYGYS@CAELT@SABO SLCB 050100@CAELT@METAR SLCB 050100Z 12005KT 9999 FEW030 FEW033CB SCT070 BKN200 20/09@CAELT@Q1018 A3008 746.4 HR47 CB LT/N/NE NOSIG=@CAELT@METAR SLAL 050100Z 06006KT 9999 FEW005 BKN010 FEW030CB OVC070 11/10@CAELT@Q1026 A3030 701.5 HR96 CB/NE/SE/W/NW ST BAJOS/E/SE/S RERA=@CAELT@
ZPX0050 050157@CAELT@GG SLZZYMYT@CAELT@050156 SLCBYGYZ@CAELT@SABO SLCB 050200@CAELT@METAR SLCB 050200Z 18004KT 9999 FEW030 FEW033CB SCT070 BKN200 19/10@CAELT@Q1019 A3011 747.3 HR54 CB LT/N/NE NOSIG=@CAELT@
ZPX0051 050157@CAELT@GG SLLPZRZX@CAELT@050156 SLLPYGYZ@CAELT@SABO SLLP 050200@CAELT@METAR SLLP 050200Z 09005KT 4000E VCFG FEW004 FEW017CB SCT070 BKN200@CAELT@09/06 Q1034 A3053 625.3 HR85 VCFG NE/E/SE CB/LT E/SE/NW RETS NOSIG=@CAELT@
ZPX0052 050157@CAELT@GG SLZZYMYT@CAELT@050158 SLVRYGYZ@CAELT@SABO SLVR 050200@CAELT@METAR SLVR 050200Z 11003KT 9999 BKN005 BKN015 OVC070 22/22 Q1010@CAELT@A2985 HR97 NOSIG=@CAELT@
ZPX0069 050256@CAELT@GG SLZZYMYT@CAELT@050257 SLVRYGYZ@CAELT@SABO SLVR 050300@CAELT@METAR SLVR 050300Z 09003KT 9999 BKN004 BKN015 OVC070 22/21 Q1010@CAELT@A2985 HR96 NOSIG=@CAELT@
ZPX0070 050257@CAELT@GG SLZZYMYT@CAELT@050256 SLCBYGYZ@CAELT@SABO SLCB 050300@CAELT@METAR SLCB 050300Z 13010KT 9999 FEW030 FEW033CB BKN070 BKN200 19/11@CAELT@Q1020 A3014 747.9 HR59 CB LT/N/NE/S NOSIG=@CAELT@
ZPX0072 050257@CAELT@GG SLLPZRZX@CAELT@050257 SLLPYGYZ@CAELT@SABO SLLP 050300@CAELT@METAR SLLP 050300Z VRB02KT 9999 FEW004 FEW017CB BKN200 08/07 Q1034@CAELT@A3054 625.4 HR94 CB/LT NE/E/SE/NW AC NOSIG=@CAELT@
ZPX0082 050355@CAELT@GG SLZZYMYT@CAELT@050355 SLVRYGYZ@CAELT@SABO SLVR 050400@CAELT@METAR SLVR 050400Z 08002KT 9999 BKN004 BKN015 OVC070 22/21 Q1010@CAELT@A2982 HR96 NOSIG=@CAELT@
ZPX0083 050356@CAELT@GG SLZZYMYT@CAELT@050355 SLCBYGYZ@CAELT@SABO SLCB 050400@CAELT@METAR SLCB 050400Z 00000KT 9999 FEW030 FEW033CB BKN070 BKN200 18/10@CAELT@Q1020 A3014 747.9 HR58 CB LT/N/NE/S NOSIG=@CAELT@
ZPX0084 050356@CAELT@GG SLLPZRZX@CAELT@050356 SLLPYGYZ@CAELT@SABO SLLP 050400@CAELT@METAR SLLP 050400Z 23004KT 4000E VCFG FEW004 FEW017CB SCT200@CAELT@08/04 Q1034 A3054 625.5 HR79 VCFG NE/E/SE CB/LT N/NE/E AC NOSIG=@CAELT@
ZPX0092 050455@CAELT@GG SLZZYMYT@CAELT@050455 SLVRYGYZ@CAELT@SABO SLVR 050500@CAELT@METAR SLVR 050500Z 24002KT 9999 SCT004 BKN015 BKN070 22/21 Q1009@CAELT@A2981 HR95 NOSIG=@CAELT@
ZPX0094 050457@CAELT@GG SLLPZRZX@CAELT@050456 SLLPYGYZ@CAELT@SABO SLLP 050500@CAELT@METAR SLLP 050500Z 06004KT 4000E VCFG FEW004 FEW017CB SCT200 06/05@CAELT@Q1033 A3052 625.0 HR95 VCFG NE/E/SE CB/LT NE AC NOSIG=@CAELT@
ZPX0095 050457@CAELT@GG SLZZYMYT@CAELT@050456 SLCBYGYZ@CAELT@SABO SLCB 050500@CAELT@METAR SLCB 050500Z 15006KT 9999 FEW027 FEW030CB BKN070 BKN200 18/11@CAELT@Q1019 A3011 747.3 HR66 CB LT/NE/E/S NOSIG=@CAELT@
ZPX0104 050555@CAELT@GG SLZZYMYT@CAELT@050556 SLVRYGYZ@CAELT@SABO SLVR 050600@CAELT@METAR SLVR 050600Z 00000KT 9999 SCT005 BKN015 BKN070 22/21 Q1008@CAELT@A2979 HR96 NOSIG=@CAELT@
ZPX0105 050558@CAELT@GG SLLPZRZX@CAELT@050557 SLLPYGYZ@CAELT@SABO SLLP 050600@CAELT@METAR SLLP 050600Z 11003KT 4000E VCFG FEW004 FEW017CB SCT200 06/05@CAELT@Q1033 A3051 624.7 HR95 VCFG NE/E/SE CB/LT N/NE AC NOSIG=@CAELT@
ZPX0106 050600@CAELT@GG SLZZYMYT@CAELT@050557 SLCBYGYZ@CAELT@SABO SLCB 050600@CAELT@METAR SLCB 050600Z 09008KT 8000 -TSRA SCT027 FEW030CB BKN070 BKN200@CAELT@16/13 Q1019 A3011 747.3 HR81 CB/ON STN/N/NE/E TS/LT/NE NOSIG=@CAELT@
ZPX0116 050655@CAELT@GG SLZZYMYT@CAELT@050656 SLVRYGYZ@CAELT@SABO SLVR 050700@CAELT@METAR SLVR 050700Z 08002KT 9999 SCT005 BKN015 BKN070 22/22 Q1008@CAELT@A2979 HR96 NOSIG=@CAELT@
ZPX0117 050656@CAELT@GG SLLPZRZX@CAELT@050657 SLLPYGYZ@CAELT@SABO SLLP 050700@CAELT@METAR SLLP 050700Z VRB02KT 9999 FEW004 FEW017CB SCT200 06/M01@CAELT@Q1032 A3050 624.5 HR62 CB/LT N/NE AC NOSIG=@CAELT@
ZPX0118 050658@CAELT@GG SLZZYMYT@CAELT@050658 SLCBYGYZ@CAELT@SABO SLCB 050700@CAELT@METAR SLCB 050700Z 12004KT 9999 FEW027 FEW030CB BKN070 BKN200 16/13@CAELT@Q1020 A3012 747.5 HR84 CB LT/NE/E NOSIG=@CAELT@
ZPX0125 050756@CAELT@GG SLZZYMYT@CAELT@050756 SLVRYGYZ@CAELT@SABO SLVR 050800@CAELT@METAR SLVR 050800Z VRB02KT 5000 -RADZ BKN004 BKN013 OVC070 22/22@CAELT@Q1009 A2981 HR97 TEMPO 8000=@CAELT@
ZPX0126 050756@CAELT@GG SLLPZRZX@CAELT@050757 SLLPYGYZ@CAELT@SABO SLLP 050800@CAELT@METAR SLLP 050800Z VRB02KT 9999 FEW004 FEW017CB SCT200 04/01@CAELT@Q1032 A3049 624.3 HR76 CB/LT N/NE AC NOSIG=@CAELT@
ZPX0127 050758@CAELT@GG SLZZYMYT@CAELT@050757 SLCBYGYZ@CAELT@SABO SLCB 050800@CAELT@METAR SLCB 050800Z 12008KT 9999 SCT025 FEW027CB BKN070 BKN200 15/11@CAELT@Q1020 A3013 747.8 HR75 CB LT/N/NE NOSIG=@CAELT@
ZPX0139 050851@CAELT@GG SLZZYMYT@CAELT@050850 SLPSYGYS@CAELT@SABO SLPS 050900@CAELT@METAR SLPS 050900Z 00000KT 8000 SCT012 BKN200 23/23 Q1010 A2983 HR100@CAELT@BR=@CAELT@
ZPX0140 050852@CAELT@GG SLZZYMYT@CAELT@050853 SLETYMYC@CAELT@SABO SLET 050900@CAELT@METAR SLET 050900Z 33005KT 3000 RADZ SCT006 BKN010 FEW027CB OVC070 22@CAELT@/22 Q1009 A2981 HR98 CB W/NW NOSIG=@CAELT@
ZPX0142 050855@CAELT@GG SLZZYMYT@CAELT@050855 SLVRYGYZ@CAELT@SABO SLVR 050900@CAELT@METAR SLVR 050900Z 03003KT 5000 -RA BKN004 BKN015 OVC070 22/22 Q1009@CAELT@A2981 HR97 TEMPO 3000=@CAELT@
ZPX0143 050855@CAELT@GG SLZZYMYT@CAELT@050855 SLTRYGYZ@CAELT@SABO SLTR 050900@CAELT@METAR SLTR 050900Z 02004KT 9999 FEW005 BKN080 24/23 Q1007 A2976@CAELT@989.2 HR97 NOSIG=@CAELT@
ZPX0144 050857@CAELT@GG SLLPZRZX@CAELT@050857 SLLPYGYZ@CAELT@SABO SLLP 050900@CAELT@METAR SLLP 050900Z VRB02KT 4000E VCFG FEW004 FEW017CB SCT070 BKN200@CAELT@03/01 Q1033 A3051 624.7 HR90 VCFG NE/E/SE CB/LT DIST/N NOSIG=@CAELT@
ZPX0145 050859@CAELT@GG SLZZYMYT@CAELT@050858 SLCBYGYZ@CAELT@SABO SLCB 050900@CAELT@METAR SLCB 050900Z 13010KT 8000 VCSH FEW013 SCT025 FEW027CB BKN070 15@CAELT@/11 Q1020 A3014 748.1 HR80 CB LT/N SC BAJOS W/NW NOSIG=@CAELT@
ZPX0147 050900@CAELT@GG SLZZYMYT@CAELT@050900 SLVRYGYU@CAELT@SABO SLVR 050900@CAELT@METAR SLVR 050900Z 03003KT 5000 -RA BKN004 BKN015 OVC070 22/22 Q1009@CAELT@A2981 HR97 TEMPO 3000=@CAELT@METAR SLET 050900Z 33005KT 3000 RADZ SCT006 BKN010 FEW027CB OVC070 22@CAELT@/22 Q1009 A2981 HR98 CB W/NW NOSIG=@CAELT@METAR SLPS 050900Z 00000KT 8000 SCT012 BKN200 23/23 Q1010 A2983 HR100BR=
ZPX0148 050901@CAELT@GG SLZZYMYT@CAELT@050900 SLTRYGYS@CAELT@SABO SLTR 050900@CAELT@METAR SLTR 050900Z 02004KT 9999 FEW005 BKN080 24/23 Q1007 A2976 989.2@CAELT@HR97 NOSIG=@CAELT@METAR SLRI 050900Z NIL=@CAELT@
ZPX0169 050952@CAELT@GG SLZZYMYT@CAELT@050950 SLPSYGYS@CAELT@SABO SLPS 051000@CAELT@METAR SLPS 051000Z 00000KT 9999 FEW012 SCT070 BKN200 24/24 Q1010@CAELT@A2983 HR100=@CAELT@
ZPX0171 050954@CAELT@GG SLZZYMYT@CAELT@050953 SLRBYGYS@CAELT@SABO SLRB 051000@CAELT@METAR SLRB 051000Z 00000KT 9999 BKN023 24/21 Q1012 A2988 HR88 RWY NML=@CAELT@
ZPX0172 050954@CAELT@GG SLZZYMYT@CAELT@050954 SLSAYGYS@CAELT@SABO SLSA 051000@CAELT@METAR SLSA 051000Z 36008KT 8000 VCSH FEW005 BKN015 BKN070 24/24@CAELT@Q1007 A2975 HR97 SH N/NW=@CAELT@
ZPX0173 050954@CAELT@GG SLZZYMYT@CAELT@050955 SLVRYGYZ@CAELT@SABO SLVR 051000@CAELT@METAR SLVR 051000Z VRB02KT 2000 TSRA BKN005 BKN015 FEW030CB OVC070 22@CAELT@/22 Q1009 A2982 HR97 CB/TS N TEMPO 1000=@CAELT@
ZPX0174 050954@CAELT@GG SLZZYMYT@CAELT@050952 SLETYMYC@CAELT@SABO SLET 051000@CAELT@METAR SLET 051000Z 35004KT 4000 -RA SCT006 BKN010 FEW027CB 0VC070 23/@CAELT@22 Q1009 A2981 HR96 CB W/NW NOSIG=@CAELT@
ZPX0175 050955@CAELT@GG SLZZYMYT@CAELT@050955 SLCAYGYS@CAELT@SABO SLCA 051000@CAELT@METAR SLCA 051000Z 00000KT 9999 SCT080 19/18 Q1013 A2991 HR94 RWY HUM@CAELT@OPR=@CAELT@
ZPX0176 050955@CAELT@GG SLZZYMYT@CAELT@050955 SLTRYGYZ@CAELT@SABO SLTR 051000@CAELT@METAR SLTR 051000Z 03005KT 5000 -RA SCT005 OVC070 24/23 Q1008 A2977@CAELT@989.6 HR97 TEMPO BKN005=@CAELT@
ZPX0177 050956@CAELT@GG SLZZYMYT@CAELT@050955 SLUYYGYS@CAELT@SABO SLUY 051000@CAELT@METAR SLUY 051000Z 02004KT 9999 SCT017 03/M04 Q1031 A3045@CAELT@656.3 HR60 AC/CI/CC=@CAELT@
ZPX0178 050956@CAELT@GG SLZZYMYT@CAELT@050956 SLCOYGYZ@CAELT@SABO SLCO 051000@CAELT@METAR SLCO 051000Z 36008KT 9999 BKN005 OVC080 25/23 Q1008 A2977 980.7@CAELT@HR93=@CAELT@
ZPX0179 050957@CAELT@GG SLZZYMYT@CAELT@050957 SLLPYGYZ@CAELT@SABO SLLP 051000@CAELT@METAR SLLP 051000Z 08003KT 4000E VCFG FEW004 BKN200 03/03@CAELT@Q1033 A3052 624.9 HR95 P92// VCFG NE/E/SE AC NOSIG=@CAELT@
ZPX0180 050957@CAELT@GG SLZZYMYT@CAELT@050956 SLCBYGYZ@CAELT@SABO SLCB 051000@CAELT@METAR SLCB 051000Z 14008KT 8000 VCSH FEW013 BKN023 FEW027CB BKN070 15@CAELT@/11 Q1021 A3017 748.8 HR79 CB N/NW SH/NW/N/NE TEMPO TS=@CAELT@
ZPX0181 050959@CAELT@GG SLZZYMYT@CAELT@051000 SLVRYFYC@CAELT@SABO SLVR 051000@CAELT@METAR SLVR 051000Z VRB02KT 2000 TSRA BKN005 BKN015 FEW030CB OVC070 22@CAELT@/22 Q1009 A2982 HR97 CB/TS N TEMPO 1000=@CAELT@METAR SLET 051000Z 35004KT 4000 -RA SCT006 BKN010 FEW027CB 0VC070 23/@CAELT@22 Q1009 A2981 HR96 CB W/NW NOSIG=@CAELT@METAR SLCP 051000Z 00000KT 9999 OVC006 21/21 Q1013 A2991 HR98 RWY NMLMETAR SLSI 051000Z 00000KT 9999 SCT017 BKN070 23/22 Q1010 A2983 HR95RWY WET OPR=METAR SLRB 051000Z 00000KT 9999 BKN023 24/21 Q1012 A2988 HR88 RWY NMLMETAR SLPS 051000Z 00000KT 9999 FEW012 SCT070 BKN200 24/24 Q1010A2983 HR100=METAR SLCA 051000Z 00000KT 9999 SCT080 19/18 Q1013 A2991 HR94 RWY HUMOPR=
ZPX0183 051000@CAELT@GG SLZZYMYT@CAELT@050958 SLSBYSYX@CAELT@SABO SLSB 051000@CAELT@METAR SLSB 051000Z 00000KT 2000 -TSRA BKN005 FEW020CB OVC070 24/24@CAELT@Q1006 A2973 HR100 TS/CB ON STN S SW RWY WET INOP=@CAELT@
ZPX0184 051002@CAELT@GG SLZZYMYT@CAELT@051001 SLCBYGYS@CAELT@SABO SLCB 051000@CAELT@METAR SLCB 051000Z 14008KT 8000 VCSH FEW013 BKN023 FEW027CB BKN070 15@CAELT@/11 Q1021 A3017 748.8 HR79 CB N/NW SH/NW/N/NE TEMPO TS=@CAELT@METAR SLAL 051000Z 00000KT 7000 VCFG SCT010 BKN013 BKN070 10/09 Q1026@CAELT@A3032 701.7 HR96 VCFG/N/NE/NW=@CAELT@
ZPX0186 051003@CAELT@GG SLZZYMYT@CAELT@050958 SLLPYFYA@CAELT@SABO SLRY 051000@CAELT@METAR SLRY 051000Z 32003KT 2000 -TSRA SCT005 BKN012 FEW023CB@CAELT@OVC070 23/23 Q1004 A2966 HR100 CB/TS N/NE RWY WET INOP=@CAELT@
ZPX0187 051003@CAELT@GG SLZZYMYT@CAELT@051000 SLTRYGYS@CAELT@SABO SLTR 051000@CAELT@METAR SLTR 051000Z 03005KT 5000 -RA SCT005 OVC070 24/23 Q1008 A2977@CAELT@989.6 HR97 TEMPO BKN005=@CAELT@METAR SLGM 051000Z 02004KT 7000 VCSH SCT005 BKN015 FEW020CB OVC070@CAELT@24/23 Q1008 A2979 HR96 CB/SH NE/E/NW=@CAELT@METAR SLRI 051000Z NIL=METAR SLJO 051000Z 36006KT 7000 VCSH BKN010 FEW023CB OVC070 24/23Q1006 A2973 HR97 CB/SH N/NE/E RWY HUM OPR=METAR SLRA 051000Z 36004KT 9999 FEW020 OVC070 24/23 Q1007 A2976 HR96RWY NML=METAR SLMG 051000Z NIL=METAR SLBU 051000Z NIL=METAR SLSA 051000Z 36008KT 8000 VCSH FEW005 BKN015 BKN070 24/24 Q1007A2975 HR97 SH N/NW=METAR SLSR 051000Z 32006KT 7000 -RA SCT008 FEW020CB OVC070 23/23Q1007 A2974 HR98 CB N/NW RWY WET OPR C206=METAR SLSM 051000Z NIL=
ZPX0188 051004@CAELT@GG SLZZYMYT@CAELT@051004 SLLPYFYA@CAELT@SABO SLLP 051000@CAELT@METAR SLLP 051000Z 08003KT 4000E VCFG FEW004 BKN200 03/03@CAELT@Q1033 A3052 624.9 HR95 P92// VCFG NE/E/SE AC NOSIG=@CAELT@METAR SLCO 051000Z 36008KT 9999 BKN005 OVC080 25/23 Q1008@CAELT@A2977 980.7 HR93=@CAELT@METAR SLRY 051000Z 32003KT 2000 -TSRA SCT005 BKN012 FEW023CBOVC070 23/23 Q1004 A2966 HR100 CB/TS N/NE RWY WET INOP=METAR SLRQ 051000Z 31004KT 4000 -RA BKN007 OVC070 23/23 Q1006A2973 982.6 HR99=METAR SLAP 051000Z 36010KT 9999 SCT015 OVC070 19/17 Q1013 A2992854.4 HR89=METAR SLSB 051000Z 00000KT 2000 -TSRA BKN005 FEW020CB OVC070 24/24Q1006 A2973 HR100 TS/CB ON STN S SW RWY WET INOP=METAR SLUY 051000Z 02004KT 9999 SCT017 03/M04 Q1031 A3045656.3 HR60 AC/CI/CC=
ZPX0189 051006@CAELT@GG SLZZYMYT@CAELT@051005 SLTRYGYS@CAELT@SABO SLTR 051000 RRA@CAELT@METAR SLTR 051000Z 03005KT 5000 -RA SCT005 OVC070 24/23 Q1008 A2977@CAELT@989.6 HR97 TEMPO BKN005=@CAELT@METAR SLGM 051000Z 02004KT 7000 VCSH SCT005 BKN015 FEW020CB OVC070@CAELT@24/23 Q1008 A2979 HR96 CB/SH NE/E/NW=@CAELT@METAR SLRI 051000Z NIL=METAR SLJO 051000Z 36006KT 7000 VCSH BKN010 FEW023CB OVC070 24/23Q1006 A2973 HR97 CB/SH N/NE/E RWY HUM OPR=METAR SLRA 051000Z 36004KT 9999 FEW020 OVC070 24/23 Q1007 A2976 HR96RWY NML=METAR RTD SLMG 051000Z 00000KT 9999 SCT020 OVC200 24/23 Q1008 A2978HR97 RWY NML=METAR SLBU 051000Z NIL=METAR SLSA 051000Z 36008KT 8000 VCSH FEW005 BKN015 BKN070 24/24 Q1007A2975 HR97 SH N/NW=METAR SLSR 051000Z 32006KT 7000 -RA SCT008 FEW020CB OVC070 23/23Q1007 A2974 HR98 CB N/NW RWY WET OPR C206=METAR SLSM 051000Z NIL=
ZPX0190 051008@CAELT@GG SLZZYMYT@CAELT@051007 SLTRYGYS@CAELT@SABO SLTR 051000 RRB@CAELT@METAR SLTR 051000Z 03005KT 5000 -RA SCT005 OVC070 24/23 Q1008 A2977@CAELT@989.6 HR97 TEMPO BKN005=@CAELT@METAR SLGM 051000Z 02004KT 7000 VCSH SCT005 BKN015 FEW020CB OVC070@CAELT@24/23 Q1008 A2979 HR96 CB/SH NE/E/NW=@CAELT@METAR SLRI 051000Z NIL=METAR SLJO 051000Z 36006KT 7000 VCSH BKN010 FEW023CB OVC070 24/23Q1006 A2973 HR97 CB/SH N/NE/E RWY HUM OPR=METAR SLRA 051000Z 36004KT 9999 FEW020 OVC070 24/23 Q1007 A2976 HR96RWY NML=METAR SLMG 051000Z 00000KT 9999 SCT020 OVC200 24/23 Q1008 A2978 HR97METAR SLBU 051000Z NIL=METAR SLSA 051000Z 36008KT 8000 VCSH FEW005 BKN015 BKN070 24/24 Q1007A2975 HR97 SH N/NW=METAR SLSR 051000Z 32006KT 7000 -RA SCT008 FEW020CB OVC070 23/23Q1007 A2974 HR98 CB N/NW RWY WET OPR C206=METAR RTD SLSM 051000Z 00000KT 8000 -RA BKN017 OVC070 23/23 Q1007A2975 HR100 RWY WET INOP=
ZPX0194 051016@CAELT@GG SLZZYMYT@CAELT@051015 SLCBYGYS@CAELT@SABO SLCB 051000 RRA@CAELT@METAR SLCB 051000Z 14008KT 8000 VCSH FEW013 BKN023 FEW027CB BKN070 15@CAELT@/11 Q1021 A3017 748.8 HR79 CB N/NW SH/NW/N/NE TEMPO TS=@CAELT@METAR SLAL 051000Z 00000KT 7000 VCFG SCT010 BKN013 BKN070 10/09 Q1026@CAELT@A3032 701.7 HR96 VCFG/N/NE/NW=@CAELT@METAR RTD SLVM 051000Z 00000KT 9999 NSC 20/19 Q1008 A2978 HR97 FU CI=
ZPX0208 051052@CAELT@GG SLZZYMYT@CAELT@051051 SLPSYGYS@CAELT@SABO SLPS 051100@CAELT@METAR SLPS 051100Z 00000KT 9999 SCT010 BKN070 BKN200 24/24 Q1011@CAELT@A2986 HR100=@CAELT@
ZPX0210 051053@CAELT@GG SLZZYMYT@CAELT@051054 SLVRYGYZ@CAELT@SABO SLVR 051100@CAELT@METAR SLVR 051100Z 34009KT 1800 TSRA BKN005 BKN015 FEW030CB OVC070 22@CAELT@/21 Q1010 A2984 HR98 CB/TS/LT ON STN/N/S/NW BECMG 3000=@CAELT@
ZPX0212 051053@CAELT@GG SLZZYMYT@CAELT@050953 SLETYMYC@CAELT@SABO SLET 051100@CAELT@METAR SLET 051100Z 36004KT 3000 -TSRA SCT006 BKN010 FEW027CB OVC070@CAELT@23/22 Q1010 A2984 HR97 CB TS W/NW NOSIG=@CAELT@
ZPX0213 051054@CAELT@GG SLZZYMYT@CAELT@051054 SLCAYGYS@CAELT@SABO SLCA 051100@CAELT@METAR SLCA 051100Z 00000KT 9999 BKN080 19/18 Q1013 A2991 HR94 RWY HUM@CAELT@OPR=@CAELT@
ZPX0215 051054@CAELT@GG SLZZYMYT@CAELT@051053 SLRBYGYS@CAELT@SABO SLRB 051100@CAELT@METAR SLRB 051100Z 36010KT 9999 BKN023 24/21 Q1012 A2988 HR85 RWY NML=@CAELT@
ZPX0216 051054@CAELT@GG SLZZYMYT@CAELT@051054 SLSBYSYX@CAELT@SABO SLSB 051100@CAELT@METAR SLSB 051100Z 29006KT 2000 -RA BKN005 OVC070 23/23 Q1004 A2967@CAELT@HR100 RETS RWY WET INOP=@CAELT@
ZPX0217 051055@CAELT@GG SLZZYMYT@CAELT@051055 SLTRYGYZ@CAELT@SABO SLTR 051100@CAELT@METAR SLTR 051100Z 02005KT 9999 -RA BKN005 OVC070 24/23 Q1009 A2980@CAELT@990.7 HR97 NOSIG=@CAELT@
ZPX0218 051055@CAELT@GG SLZZYMYT@CAELT@051048 SLUYYGYS@CAELT@SABO SLUY 051100@CAELT@METAR SLUY 051100Z 03004KT 9999 FEW017 05/M04 Q1031 A3046@CAELT@656.6 HR51 AC=@CAELT@
ZPX0219 051055@CAELT@GG SLZZYMYT@CAELT@051055 SLCOYGYZ@CAELT@SABO SLCO 051100@CAELT@METAR SLCO 051100Z 36005KT 9999 BKN005 BKN080 25/24 Q1009 A2979 981.6@CAELT@HR94=@CAELT@
ZPX0220 051055@CAELT@GG SLZZYMYT@CAELT@051055 SLORYGYZ@CAELT@SABO SLOR 051100@CAELT@METAR SLOR 051100Z 00000KT 9999 FEW070 SCT200 03/M01 Q1032 A3048 653.@CAELT@9 HR71=@CAELT@
ZPX0221 051055@CAELT@GG SLZZYMYT@CAELT@051057 SLLPYGYZ@CAELT@SABO SLLP 051100@CAELT@METAR SLLP 051100Z 07004KT 4000E VCFG FEW004 BKN200 06/05@CAELT@Q1034 A3054 625.3 HR95 P92// VCFG NE/E/SE AC NOSIG=@CAELT@
ZPX0222 051056@CAELT@GG SLZZYMYT@CAELT@051055 SLTJYGYZ@CAELT@SABO SLTJ 051100@CAELT@METAR SLTJ 051100Z 00000KT 9999 BKN070 BKN200 17/15 Q1018 A3007 813.4@CAELT@HR83=@CAELT@
ZPX0223 051056@CAELT@GG SLZZYMYT@CAELT@051055 SLSAYGYS@CAELT@SABO SLSA 051100@CAELT@METAR SLSA 051100Z 36008KT 8000 VCSH FEW005 BKN015 BKN070 24/24@CAELT@Q1008 A2977 HR96 SH N/NW=@CAELT@
ZPX0224 051056@CAELT@GG SLZZYMYT@CAELT@051056 SLCBYGYZ@CAELT@SABO SLCB 051100@CAELT@METAR SLCB 051100Z 15004KT 7000 VCSH FEW012 BKN020 FEW030CB BKN070 15@CAELT@/11 Q1023 A3022 750.1 HR78 CB/NW SH W/NW/N/NE NOSIG=@CAELT@
ZPX0226 051058@CAELT@GG SLZZYMYT@CAELT@051059 SLVRYFYC@CAELT@SABO SLVR 051100@CAELT@METAR SLVR 051100Z 34009KT 1800 TSRA BKN005 BKN015 FEW030CB OVC070 22@CAELT@/21 Q1010 A2984 HR98 CB/TS/LT ON STN/N/S/NW BECMG 3000=@CAELT@METAR SLET 051100Z 36004KT 3000 -TSRA SCT006 BKN010 FEW027CB OVC070@CAELT@23/22 Q1010 A2984 HR97 CB TS W/NW NOSIG=@CAELT@METAR SLAS 051100Z 00000KT 8000 VCSH BKN015 FEW030CB OVC200 23/22Q1012 A2989 HR92 CB/SH/NW/N RWY HUM OPR=METAR SLJV 051100Z 36005KT 9999 BKN070 21/21 Q1010 A2983 HR97 RWY WETOPR=METAR SLCP 051100Z 00000KT 9999 BKN008 BKN070 22/21 Q1013 A2991 HR96RWY NML=METAR SLSI 051100Z 00000KT 9999 BKN070 23/22 Q1010 A2983 HR 92 RWYWET OPR=METAR SLTI 051100Z 00000KT 9999 BKN070 24/23 Q1015 A2997 HR93 RWY NMLMETAR SLJE 051100Z 00000KT 9999 OVC008 23/22 Q1013 A2991 HR93 RWY HUMMETAR SLVG 051100Z 00000KT 9999 SCT015 OVC070 14/14 Q1021 A3015 HR99RWY HUM OPR=METAR SLRB 051100Z 36010KT 9999 BKN023 24/21 Q1012 A2988 HR85 RWY NMLMETAR SLPS 051100Z 00000KT 9999 SCT010 BKN070 BKN200 24/24 Q1011A2986 HR100=METAR SLCA 051100Z 00000KT 9999 BKN080 19/18 Q1013 A2991 HR94 RWY HUM
ZPX0227 051059@CAELT@GG SLZZYMYT@CAELT@051059 SLLPYFYA@CAELT@SABO SLRY 051100@CAELT@METAR SLRY 051100Z 36003KT 2000 -RA BKN005 BKN012 OVC200 23/23 Q1005@CAELT@A2968 HR100 RETS RWY WET INOP=@CAELT@
ZPX0229 051100@CAELT@GG SLZZYMYT@CAELT@051100 SLTRYGYS@CAELT@SABO SLTR 051100@CAELT@METAR SLTR 051100Z 02005KT 9999 -RA BKN005 OVC070 24/23 Q1009 A2980@CAELT@990.7 HR97 NOSIG=@CAELT@METAR SLGM 051100Z 02008KT 9999 FEW005 SCT015 FEW020CB BKN080 24/23@CAELT@Q1010 A2982 HR92 CB N/NW=@CAELT@METAR SLRI 051100Z NIL=METAR SLJO 051100Z 36006KT 5000 -RA BKN010 FEW023CB BKN080 23/23Q1007 A2974 HR98 CB N/E/SE RWY WET OPR C206=METAR SLRA 051100Z 36004KT 7000 VCSH SCT008 FEW023CB OVC070 24/23Q1008 A2977 HR96 CB/SH NE/E RWY NML=METAR SLMG 051100Z 00000KT 8000 -RA SCT020 OVC070 23/23 Q1009 A2980HR98 RWY HUM OPR=METAR SLBU 051100Z NIL=METAR SLSA 051100Z 36008KT 8000 VCSH FEW005 BKN015 BKN070 24/24Q1008 A2977 HR96 SH N/NW=METAR SLSR 051100Z 32006KT 7000 -RA SCT008 FEW020CB OVC070 23/23Q1007 A2974 HR98 CB N/NW RWY OPR C206=METAR SLSM 051100Z 00000KT 8000 -RA BKN017 OVC070 24/24 Q1008 A2977HR100 RWY WET INOP=
ZPX0231 051101@CAELT@GG SLZZYMYT@CAELT@051100 SLCBYGYS@CAELT@SABO SLCB 051100@CAELT@METAR SLCB 051100Z 15004KT 7000 VCSH FEW012 BKN020 FEW030CB BKN070@CAELT@15/11 Q1023 A3022 750.1 HR78 CB/NW SH W/NW/N/NE NOSIG=@CAELT@METAR SLAL 051100Z 35003KT 7000 VCFG FEW005 BKN013 OVC070 10/09 Q1027@CAELT@A3034 702.4 HR94 VCFG/N/NE/NW ST BAJOS/S/SW=@CAELT@METAR SLPO 051100Z 00000KT 9999 FEW013 07/05 Q1034 A3053 635.3 HR91=METAR SLYA 051100Z 00000KT 9999 NSC 23/22 Q1009 A2982 934.8 HR92 CI=METAR SLVM 051100Z 00000KT 9999 NSC 22/21 Q1008 A2979 HR90 FU CI=METAR SLTJ 051100Z 00000KT 9999 BKN070 BKN200 17/15 Q1018 A3007 813.4HR83=
ZPX0235 051102@CAELT@GG SLZZYMYT@CAELT@051102 SLLPYFYA@CAELT@SABO SLLP 051100@CAELT@METAR SLLP 051100Z 07004KT 4000E VCFG FEW004 BKN200 06/05@CAELT@Q1034 A3054 625.3 HR95 P92// VCFG NE/E/SE AC NOSIG=@CAELT@METAR SLCO 051100Z 36005KT 9999 BKN005 BKN080 25/24 Q1009 A2979@CAELT@981.6 HR94=@CAELT@METAR SLRY 051100Z 36003KT 2000 -RA BKN005 BKN012 OVC200 23/23Q1005 A2968 HR100 RETS RWY WET INOP=METAR SLRQ 051100Z 00000KT 3000 -RA BKN005 OVC070 23/23 Q1007 A2975983.4 HR99=METAR SLAP 051100Z 36005KT 7000 VCSH SCT015 BKN070 19/18 Q1013A2994 855.0 HR92 SH N/NE/E/NW=METAR SLSB 051100Z 29006KT 2000 -RA BKN005 OVC070 23/23 Q1004 A2967HR100 RETS RWY WET INOP=METAR SLOR 051100Z 00000KT 9999 FEW070 SCT200 03/M01 Q1032 A3048653.9 HR71=METAR SLUY 051100Z 03004KT 9999 FEW017 05/M04 Q1031 A3046656.6 HR51 AC=
ZPX0255 051152@CAELT@GG SLZZYMYT@CAELT@051152 SLVRYGYZ@CAELT@SABO SLVR 051200@CAELT@METAR SLVR 051200Z 32005KT 4000 -TSRA BKN005 BKN017 FEW030CB OVC070@CAELT@22/21 Q1011 A2985 HR97 CB/TS ON STN/NE/S NOSIG=@CAELT@
ZPX0256 051153@CAELT@GG SLZZYMYT@CAELT@051151 SLPSYGYS@CAELT@SABO SLPS 051200@CAELT@METAR SLPS 051200Z 00000KT 9999 BKN010 BKN070 25/24 Q1011 A2986 HR97=@CAELT@
ZPX0257 051153@CAELT@GG SLZZYMYT@CAELT@051152 SLETYMYC@CAELT@SABO SLET 051200@CAELT@METAR SLET 051200Z 31006KT 3000 -TSRA SCT006 BKN013 FEW027CB OVC070@CAELT@23/22 Q1011 A2986 HR97 CB/TS W/NW NOSIG=@CAELT@
ZPX0258 051154@CAELT@GG SLZZYMYT@CAELT@051153 SLRBYGYS@CAELT@SABO SLRB 051200@CAELT@METAR SLRB 051200Z 36008KT 9999 BKN023 25/22 Q1012 A2988 HR85 RWY NML=@CAELT@
ZPX0259 051154@CAELT@GG SLZZYMYT@CAELT@051154 SLSBYSYX@CAELT@SABO SLSB 051200@CAELT@METAR SLSB 051200Z 00000KT 3000 -RA BKN005 OVC070 24/24 Q1005 A2969@CAELT@HR100 RWY WET INOP=@CAELT@
ZPX0261 051155@CAELT@GG SLZZYMYT@CAELT@051154 SLORYGYZ@CAELT@SABO SLOR 051200@CAELT@METAR SLOR 051200Z 04003KT 9999 FEW070 SCT200 07/M00 Q1032 A3049 654.@CAELT@3 HR58=@CAELT@
ZPX0262 051155@CAELT@GG SLZZYMYT@CAELT@051155 SLTRYGYZ@CAELT@SABO SLTR 051200@CAELT@METAR SLTR 051200Z 36006KT 8000 -RA BKN005 OVC070 24/24 Q1010 A2983@CAELT@991.5 HR97 NOSIG=@CAELT@
ZPX0264 051155@CAELT@GG SLZZYMYT@CAELT@051155 SLSAYGYS@CAELT@SABO SLSA 051200@CAELT@METAR SLSA 051200Z 36008KT 9999 SCT005 BKN015 BKN070 24/23@CAELT@Q1008 A2979 HR96=@CAELT@
ZPX0265 051156@CAELT@GG SLZZYMYT@CAELT@051157 SLLPYGYZ@CAELT@SABO SLLP 051200@CAELT@METAR SLLP 051200Z 09006KT 6000 FEW004 SCT015 BKN200 08/05@CAELT@Q1034 A3055 625.8 HR79 P4352 VIS/RED ST/NE/E/SE AC NOSIG=@CAELT@
ZPX0266 051156@CAELT@GG SLZZYMYT@CAELT@051156 SLCBYGYZ@CAELT@SABO SLCB 051200@CAELT@METAR SLCB 051200Z 15003KT 8000 -RA SCT015 SCT023 FEW030CB OVC070 15/@CAELT@11 Q1023 A3023 750.3 HR78 CB/NW NOSIG=@CAELT@
ZPX0267 051157@CAELT@GG SLZZYMYT@CAELT@051156 SLCAYGYS@CAELT@SABO SLCA 051200@CAELT@METAR SLCA 051200Z 00000KT 9999 BKN080 21/19 Q1014 A2994 HR91 RWY HUM@CAELT@OPR=@CAELT@
ZPX0268 051157@CAELT@GG SLZZYMYT@CAELT@051156 SLTJYGYZ@CAELT@SABO SLTJ 051200@CAELT@METAR SLTJ 051200Z 00000KT 9999 FEW025 SCT070 BKN200 19/15 Q1018@CAELT@A3006 813.3 HR78=@CAELT@
ZPX0271 051158@CAELT@GG SLZZYMYT@CAELT@051158 SLUYYGYS@CAELT@SABO SLUY 051200@CAELT@METAR SLUY 051200Z VRB02KT 9999 FEW017 09/M04 Q1031 A3047@CAELT@656.8 HR41 AC=@CAELT@
ZPX0272 051158@CAELT@GG SLZZYMYT@CAELT@051158 SLCBYGYS@CAELT@SABO SLCB 051200@CAELT@METAR SLCB 051200Z 15003KT 8000 -RA SCT015 SCT023 FEW030CB OVC070 15/@CAELT@11 Q1023 A3023 750.3 HR78 CB/NW NOSIG=@CAELT@METAR SLAL 051200Z 35006KT 4000S VCFG FEW005 BKN010 OVC070 11/10@CAELT@Q1027 A3035 702.7 HR92 VCFG/N/NE/S/SW ST BAJOS SE/S=@CAELT@METAR SLPO 051200Z 00000KT 9999 FEW013 09/06 Q1034 A3054 635.5 HR80=METAR SLAG 051200Z NIL=METAR SLVM 051200Z 00000KT 9999 NSC 26/22 Q1009 A2980 HR77 FU CI=METAR SLTJ 051200Z 00000KT 9999 FEW025 SCT070 BKN200 19/15 Q1018A3006 813.3 HR78=METAR SLYA 051200Z 00000KT 9999 NSC 27/23 Q1010 A2983 935.2 HR78 CI=METAR SLBJ 051200Z NIL=METAR SLHI 051200Z NIL=
ZPX0273 051158@CAELT@GG SLZZYMYT@CAELT@051158 SLLPYFYA@CAELT@SABO SLRY 051200@CAELT@METAR SLRY 051200Z 00000KT 3000 -RA BKN005 BKN012 OVC070 23/23 Q1005@CAELT@A2969 HR100 RWY WET INOP=@CAELT@
ZPX0274 051158@CAELT@GG SLZZYMYT@CAELT@051157 SLCOYGYZ@CAELT@SABO SLCO 051200@CAELT@METAR SLCO 051200Z 36008KT 9999 BKN007 BKN080 25/23 Q1010 A2982 982.6@CAELT@HR92=@CAELT@
ZPX0276 051159@CAELT@GG SLZZYMYT@CAELT@051200 SLVRYFYC@CAELT@SABO SLVR 051200@CAELT@METAR SLVR 051200Z 32005KT 4000 -TSRA BKN005 BKN017 FEW030CB OVC070@CAELT@22/21 Q1011 A2985 HR97 CB/TS ON STN/NE/S NOSIG=@CAELT@METAR SLET 051200Z 31006KT 3000 -TSRA SCT006 BKN013 FEW027CB OVC070@CAELT@23/22 Q1011 A2986 HR97 CB/TS W/NW NOSIG=@CAELT@METAR SLAS 051200Z 36004KT 8000 VCSH OVC013 23/22 Q1013 A2992 HR95 SH/NW/N/NE/SE RESH RWY WET OPR=METAR SLJV 051200Z 36005KT 9999 SCT012 BKN070 22/21 Q1010 A2983 HR96RWY WET OPR=METAR SLCP 051200Z 00000KT 9999 BKN008 BKN070 22/21 Q1014 A2994 HR96RWY NML=METAR SLSI 051200Z 00000KT 9999 SCT013 BKN070 24/23 Q1011 A2985 HR90RWY HUM OPR=METAR SLTI 051200Z 00000KT 9999 BKN070 25/23 Q1015 A2997 HR90 RWY NMLMETAR SLJE 051200Z 00000KT 9999 OVC008 24/22 Q1013 A2991 HR93 RWYHUM OPR=METAR SLVG 051200Z 00000KT 9999 SCT015 OVC070 15/14 Q1022 A3018 HR95METAR SLRB 051200Z 36008KT 9999 BKN023 25/22 Q1012 A2988 HR85 RWY NMLMETAR SLPS 051200Z 00000KT 9999 BKN010 BKN070 25/24 Q1011 A2986 HR97=METAR SLCA 051200Z 00000KT 9999 BKN080 21/19 Q1014 A2994 HR91 RWY HUMOPR=
ZPX0278 051200@CAELT@GG SLZZYMYT@CAELT@051200 SLLPYFYA@CAELT@SABO SLLP 051200@CAELT@METAR SLLP 051200Z 09006KT 6000 FEW004 SCT015 BKN200 08/05@CAELT@Q1034 A3055 625.8 HR79 P4352 VIS/RED ST/NE/E/SE AC NOSIG=@CAELT@METAR SLCO 051200Z 36008KT 9999 BKN007 BKN080 25/23 Q1010 A2982@CAELT@982.6 HR92=@CAELT@METAR SLRY 051200Z 00000KT 3000 -RA BKN005 BKN012 OVC070 23/23 Q1005A2969 HR100 RWY WET INOP=METAR SLRQ 051200Z 00000KT 3000 -RA BKN005 OVC070 23/23 Q1008 A2977HR100=METAR SLAP 051200Z 36005KT 7000 VCSH SCT015 OVC070 19/18 Q1014 A2995855.2 HR93 SH N/NE/E/SE/W=METAR SLSB 051200Z 00000KT 3000 -RA BKN005 OVC070 24/24 Q1005 A2969HR100 RWY WET INOP=METAR SLOR 051200Z 04003KT 9999 FEW070 SCT200 07/M00 Q1032 A3049654.3 HR58=METAR SLUY 051200Z VRB02KT 9999 FEW017 09/M04 Q1031 A3047656.8 HR41 AC=
ZPX0280 051202@CAELT@GG SLZZYMYT@CAELT@051202 SLTRYGYS@CAELT@SABO SLTR 051200@CAELT@METAR SLTR 051200Z 36006KT 8000 -RA BKN005 OVC070 24/24 Q1010 A2983@CAELT@991.5 HR97 NOSIG=@CAELT@METAR SLGM 051200Z 02008KT 9999 SCT008 BKN080 25/23 Q1010 A2983 HR90=@CAELT@METAR SLRI 051200Z NIL=@CAELT@METAR SLJO 051200Z 36006KT 7000 VCSH SCT010 FEW023CB BKN080 24/24Q1007 A2976 HR97 RERA CB/SH E/SE/S RWY WET OPR C206=METAR SLRA 051200Z 36006KT 7000 VCSH SCT008 FEW023CB OVC070 24/23Q1009 A2980 HR97 CB/SH N/SE RWY NML=METAR SLMG 051200Z 00000KT 8000 VCSH SCT020 OVC070 24/23 Q1009 A2982HR98 SH SW RWY HUM OPR=METAR SLBU 051200Z NIL=METAR SLSA 051200Z 36008KT 9999 SCT005 BKN015 BKN070 24/23Q1008 A2979 HR96=METAR SLSR 051200Z 32008KT 5000 -RA BKN008 FEW020CB OVC070 23/23Q1008 A2978 HR100 CB W/NW RWY WET INOP=METAR SLSM 051200Z 00000KT 8000 -RA BKN015 OVC070 24/24 Q1008 A2979HR98 RWY WET INOP=
ZPX0300 051251@CAELT@GG SLZZYMYT@CAELT@051251 SLPSYGYS@CAELT@SABO SLPS 051300@CAELT@METAR SLPS 051300Z 36004KT 9999 BKN013 BKN070 25/24 Q1011 A2986 HR92=@CAELT@
ZPX0301 051253@CAELT@GG SLZZYMYT@CAELT@051253 SLSBYSYX@CAELT@SABO SLSB 051300@CAELT@METAR SLSB 051300Z 35004KT 3000 -RA BKN005 OVC070 23/23 Q1004 A2965@CAELT@HR99 RWY WET INOP=@CAELT@
ZPX0302 051253@CAELT@GG SLZZYMYT@CAELT@051253 SLSBYSYX@CAELT@SABO SLSB 051300@CAELT@METAR SLSB 051300Z 35004KT 3000 -RA BKN005 OVC070 23/23 Q1004 A2965@CAELT@HR99 RWY WET INOP=@CAELT@
ZPX0303 051254@CAELT@GG SLZZYMYT@CAELT@051255 SLVRYGYZ@CAELT@SABO SLVR 051300@CAELT@METAR SLVR 051300Z 05005KT 4000 -RA BKN007 BKN017 FEW030CB OVC070 22/@CAELT@21 Q1012 A2989 HR95 RETS CB NE/NW NOSIG=@CAELT@
ZPX0304 051254@CAELT@GG SLZZYMYT@CAELT@051254 SLCAYGYS@CAELT@SABO SLCA 051300@CAELT@METAR SLCA 051300Z 00000KT 9999 BKN080 23/21 Q1014 A2994 HR85 RWY HUM@CAELT@OPR=@CAELT@
ZPX0305 051255@CAELT@GG SLZZYMYT@CAELT@051255 SLORYGYZ@CAELT@SABO SLOR 051300@CAELT@METAR SLOR 051300Z 23005KT 9999 FEW070 SCT200 12/01 Q1032 A3049 654.3@CAELT@HR47=@CAELT@
ZPX0306 051255@CAELT@GG SLZZYMYT@CAELT@051256 SLUYYGYS@CAELT@SABO SLUY 051300@CAELT@METAR SLUY 051300Z 00000KT 9999 FEW017 11/M02 Q1031 A3047@CAELT@656.7 HR41 AC=@CAELT@
ZPX0307 051255@CAELT@GG SLZZYMYT@CAELT@051254 SLRBYGYS@CAELT@SABO SLRB 051300@CAELT@METAR SLRB 051300Z 36010KT 9999 BKN023 27/22 Q1013 A2991 HR74 RWY NML=@CAELT@
ZPX0308 051255@CAELT@GG SLZZYMYT@CAELT@051254 SLETYMYC@CAELT@SABO SLET 051300@CAELT@METAR SLET 051300Z 31006KT 4000 -TSRA SCT006 BKN013 FEW027CB OVC070@CAELT@23/22 Q1011 A2988 HR96 CB/NW NOSIG=@CAELT@
ZPX0309 051255@CAELT@GG SLZZYMYT@CAELT@051255 SLCOYGYZ@CAELT@SABO SLCO 051300@CAELT@METAR SLCO 051300Z 26010KT 9999 BKN007 BKN080 26/23 Q1010 A2984 983.2@CAELT@HR81=@CAELT@
ZPX0311 051256@CAELT@GG SLZZYMYT@CAELT@051255 SLLPYGYZ@CAELT@SABO SLLP 051300@CAELT@METAR SLLP 051300Z 11004KT 050V150 9999 FEW008 BKN200 10/04 Q1035@CAELT@A3056 625.9 HR70 P93// AC NOSIG=@CAELT@
ZPX0312 051256@CAELT@GG SLZZYMYT@CAELT@051255 SLSAYGYS@CAELT@SABO SLSA 051300@CAELT@METAR SLSA 051300Z 36010KT 8000 VCSH SCT006 BKN015 BKN070 25/24@CAELT@Q1009 A2981 HR90 SH S/SW/W=@CAELT@
ZPX0313 051256@CAELT@GG SLZZYMYT@CAELT@051256 SLTJYGYZ@CAELT@SABO SLTJ 051300@CAELT@METAR SLTJ 051300Z 15004KT 9999 FEW030 BKN200 20/15 Q1018 A3007 813.5@CAELT@HR70 AC=@CAELT@
ZPX0314 051256@CAELT@GG SLZZYMYT@CAELT@051256 SLTRYGYZ@CAELT@SABO SLTR 051300@CAELT@METAR SLTR 051300Z 02006KT 9999 -RA SCT005 OVC070 25/24 Q1010@CAELT@A2984 992.0 HR95 TEMPO BKN005=@CAELT@
ZPX0315 051258@CAELT@GG SLZZYMYT@CAELT@051258 SLVRYFYC@CAELT@SABO SLVR 051300@CAELT@METAR SLVR 051300Z 05005KT 4000 -RA BKN007 BKN017 FEW030CB OVC070 22/@CAELT@21 Q1012 A2989 HR95 RETS CB NE/NW NOSIG=@CAELT@METAR SLET 051300Z 31006KT 4000 -TSRA SCT006 BKN013 FEW027CB OVC070@CAELT@23/22 Q1011 A2988 HR96 CB NW NOSIG=@CAELT@METAR SLAS 051300Z 00000KT 8000 TS VCSH OVC013 FEW030CB 23/22 Q1013A2992 HR95 CB/TS/SH SW/W/NW RWY WET OPR=METAR SLJV 051300Z 36005KT 9999 BKN013 BKN070 23/22 Q1010 A2983 HR93RWY WET OPR=METAR SLCP 051300Z 00000KT 9999 BKN013 BKN070 24/23 Q1014 A2994 HR92RWY NML=METAR SLSI 051300Z 00000KT 9999 SCT015 BKN070 25/22 Q1012 A2988 HR83RWY HUM OPR=METAR SLTI 051300Z 00000KT 9999 BKN070 27/23 Q1015 A2997 HR82 RWY NMLMETAR SLJE 051300Z 00000KT 9999 OVC008 25/23 Q1014 A2994 HR90 RWY HUMOPR=METAR SLVG 051300Z 00000KT 9999 SCT015 OVC070 16/15 Q1023 A3021 HR90METAR SLRB 051300Z 36010KT 9999 BKN023 27/22 Q1013 A2991 HR74 RWY NMLMETAR SLPS 051300Z 36004KT 9999 BKN013 BKN070 25/24 Q1011 A2986 HR92=METAR SLCA 051300Z 00000KT 9999 BKN080 23/21 Q1014 A2994 HR85 RWY HUM
ZPX0316 051258@CAELT@GG SLZZYMYT@CAELT@051258 SLCBYGYZ@CAELT@SABO SLCB 051300@CAELT@METAR SLCB 051300Z 30003KT 9000 -RA SCT017 SCT025 BKN070 15/14 Q1024@CAELT@A3024 750.6 HR94 CI NOSIG=@CAELT@
ZPX0318 051300@CAELT@GG SLZZYMYT@CAELT@051300 SLTRYGYS@CAELT@SABO SLTR 051300@CAELT@METAR SLTR 051300Z 02006KT 9999 -RA SCT005 OVC070 25/24 Q1010@CAELT@A2984 992.0 HR95 TEMPO BKN005=@CAELT@METAR SLGM 051300Z 02012KT 9999 SCT012 BKN080 27/24 Q1010 A2985 HR84=@CAELT@METAR SLRI 051300Z 03008KT 9999 SCT008 BKN080 25/24 Q1011 A2988 HR92=@CAELT@METAR SLJO 051300Z 36008KT 7000 VCSH SCT010 FEW023CB BKN080 25/24Q1008 A2979 HR94 CB/SH SE/S RWY WET OPR C206=METAR SLRA 051300Z 36008KT 7000 VCSH SCT008 FEW023CB BKN080 25/24Q1009 A2981 HR92 CB/SH E/SE RWY NML=METAR SLMG 051300Z 34004KT 9999 SCT008 BKN080 OVC200 24/23 Q1010A2982 HR94 RWY HUM OPR=METAR SLBU 051300Z NIL=METAR SLSA 051300Z 36010KT 8000 VCSH SCT006 BKN015 BKN070 25/24Q1009 A2981 HR90 SH S/SW/W=METAR SLSR 051300Z 32008KT 7000 -RA BKN008 FEW020CB OVC070 23/23Q1009 A2980 HR100 CB W/NW RWY WET INOP=METAR SLSM 051300Z 00000KT 3000 -RA BKN015 OVC070 24/24 Q1010 A2983HR99 RWY WET INOP=
ZPX0319 051301@CAELT@GG SLZZYMYT@CAELT@051259 SLLPYFYA@CAELT@SABO SLRY 051300@CAELT@METAR SLRY 051300Z 34003KT 9999 BKN006 BKN012 OVC070 23/23 Q1006@CAELT@A2971 HR98 SH TODIR RERA RWY WET INOP=@CAELT@
ZPX0320 051301@CAELT@GG SLZZYMYT@CAELT@051300 SLCBYGYS@CAELT@SABO SLCB 051300@CAELT@METAR SLCB 051300Z 30003KT 9000 -RA SCT017 SCT025 BKN070 15/14 Q1024@CAELT@A3024 750.6 HR94 CI NOSIG=@CAELT@METAR SLAL 051300Z 34005KT 6000 FEW005 BKN008 BKN070 11/10 Q1028@CAELT@A3036 703.0 HR88 VIS RED ST BAJOS/N/S/SW=@CAELT@METAR SLPO 051300Z 06006KT 9999 SCT015 10/06 Q1034 A3055 635.7 HR77=METAR SLAG 051300Z NIL=METAR SLVM 051300Z 00000KT 9999 NSC 29/23 Q1009 A2982 HR71 FU CI=METAR SLTJ 051300Z 15004KT 9999 FEW030 BKN200 20/15 Q1018 A3007 813.5HR70 AC=METAR SLYA 051300Z 00000KT 9999 NSC 28/23 Q1010 A2985 935.6 HR73=METAR SLBJ 051300Z NIL=METAR SLHI 051300Z NIL=
ZPX0321 051301@CAELT@GG SLZZYMYT@CAELT@051301 SLLPYFYA@CAELT@SABO SLAP 051300@CAELT@METAR SLAP 051300Z 36008KT 5000 -RA BKN012 OVC070 17/17 Q1015 A2996@CAELT@856.3 HR98=@CAELT@
ZPX0323 051303@CAELT@GG SLZZYMYT@CAELT@051303 SLLPYFYA@CAELT@SABO SLLP 051300@CAELT@METAR SLLP 051300Z 11004KT 050V150 9999 FEW008 BKN200 10/04 Q1035@CAELT@A3056 625.9 HR70 P93// AC NOSIG=@CAELT@METAR SLCO 051300Z 26010KT 9999 BKN007 BKN080 26/23 Q1010 A2984 983.2@CAELT@HR81=@CAELT@METAR SLRY 051300Z 34003KT 9999 BKN006 BKN012 OVC070 23/23 Q1006A2971 HR98 SH TODIR RERA RWY WET INOP=METAR SLRQ 051300Z 00000KT 5000 -RA SCT005 BKN010 OVC070 24/24 Q1009A2980 HR100=METAR SLAP 051300Z 36008KT 5000 -RA BKN012 OVC070 17/17 Q1015 A2996856.3 HR98=METAR SLSB 051300Z 35004KT 3000 -RA BKN005 OVC070 23/23 Q1004 A2965HR99 RWY WET INOP=METAR SLOR 051300Z 23005KT 9999 FEW070 SCT200 12/01 Q1032 A3049 654.3HR47=METAR SLUY 051300Z 00000KT 9999 FEW017 11/M02 Q1031 A3047656.7 HR41 AC=
ZPX0328 051310@CAELT@GG SLZZYMYT@CAELT@051310 SLETYMYC@CAELT@SABO SLET 051300 CCA@CAELT@METAR SLET 051300Z 31006KT 4000 -RA SCT006 BKN013 FEW027CB OVC070@CAELT@23/22 Q1011 A2988 HR96 CB/NW NOSIG=@CAELT@
ZPX0350 051351@CAELT@GG SLZZYMYT@CAELT@051350 SLPSYGYS@CAELT@SABO SLPS 051400@CAELT@METAR SLPS 051400Z 00000KT 9999 SCT013 BKN070 26/24 Q1011 A2986 HR89=@CAELT@
ZPX0351 051352@CAELT@GG SLZZYMYT@CAELT@051352 SLSBYSYX@CAELT@SABO SLSB 051400@CAELT@METAR SLSB 051400Z 36004KT 3000 -RA BKN005 OVC070 23/23 Q1005 A2968@CAELT@HR98 RWY WET INOP=@CAELT@
ZPX0352 051352@CAELT@GG SLZZYMYT@CAELT@051352 SLSBYSYX@CAELT@SABO SLSB 051400@CAELT@METAR SLSB 051400Z 36004KT 3000 -RA BKN005 OVC070 23/23 Q1005 A2968@CAELT@HR98 RWY WET INOP=@CAELT@
ZPX0353 051353@CAELT@GG SLZZYMYT@CAELT@051355 SLVRYGYZ@CAELT@SABO SLVR 051400@CAELT@METAR SLVR 051400Z 04005KT 4000 -RA SCT008 BKN017 FEW030CB OVC070 21/@CAELT@21 Q1012 A2989 HR95 CB NE/NW NOSIG=@CAELT@
ZPX0354 051354@CAELT@GG SLZZYMYT@CAELT@051353 SLRBYGYS@CAELT@SABO SLRB 051400@CAELT@METAR SLRB 051400Z 36015KT 9999 BKN023 27/21 Q1013 A2991 HR72 RWY NML=@CAELT@
ZPX0355 051354@CAELT@GG SLZZYMYT@CAELT@051352 SLETYMYC@CAELT@SABO SLET 051400@CAELT@METAR SLET 051400Z 12003KT 4000 -RA SCT006 BKN010 FEW027CB OVC070 22/@CAELT@21 Q1012 A2989 HR97 CB NW/N NOSIG=@CAELT@
ZPX0356 051355@CAELT@GG SLZZYMYT@CAELT@051354 SLSAYGYS@CAELT@SABO SLSA 051400@CAELT@METAR SLSA 051400Z 34006KT 8000 VCSH BKN015 BKN070 26/24@CAELT@Q1010 A2983 HR89 SH S/SW/W=@CAELT@
ZPX0357 051355@CAELT@GG SLZZYMYT@CAELT@051355 SLCOYGYZ@CAELT@SABO SLCO 051300@CAELT@METAR SLCO 051300Z 35012KT 9999 BKN011 SCT080 28/23 Q1010 A2985 983.3@CAELT@HR77=@CAELT@
ZPX0358 051355@CAELT@GG SLZZYMYT@CAELT@051355 SLUYYGYS@CAELT@SABO SLUY 051400@CAELT@METAR SLUY 051400Z VRB02KT 9999 FEW023 12/M01 Q1031 A3046@CAELT@656.6 HR40 AC=@CAELT@
ZPX0359 051355@CAELT@GG SLZZYMYT@CAELT@051355 SLTRYGYZ@CAELT@SABO SLTR 051400@CAELT@METAR SLTR 051400Z 36005KT 5000 -RA SCT005 OVC070 25/24 Q1011 A2986@CAELT@992.6 HR95 TEMPO 3000 BKN005=@CAELT@
ZPX0361 051356@CAELT@GG SLZZYMYT@CAELT@051356 SLCBYGYZ@CAELT@SABO SLCB 051400@CAELT@METAR SLCB 051400Z 20003KT 9999 SCT020 SCT070 BKN200 17/12 Q1023@CAELT@A3023 750.5 HR74 NOSIG=@CAELT@
ZPX0362 051356@CAELT@GG SLZZYMYT@CAELT@051355 SLORYGYZ@CAELT@SABO SLOR 051400@CAELT@METAR SLOR 051400Z 21008KT 9999 FEW017 SCT200 15/02 Q1032 A3049 654.1@CAELT@HR41=@CAELT@
ZPX0363 051356@CAELT@GG SLZZYMYT@CAELT@051356 SLCAYGYS@CAELT@SABO SLCA 051400@CAELT@METAR SLCA 051400Z 00000KT 9999 FEW033 BKN080 25/21 Q014 A2994 HR77@CAELT@RWY HUM OPR=@CAELT@
ZPX0364 051357@CAELT@GG SLZZYMYT@CAELT@051356 SLTJYGYZ@CAELT@SABO SLTJ 051400@CAELT@METAR SLTJ 051400Z 12004KT 9999 FEW030 BKN070 22/14 Q1018 A3008 813.7@CAELT@HR60 CI=@CAELT@
ZPX0365 051357@CAELT@GG SLZZYMYT@CAELT@051355 SLLPYGYZ@CAELT@SABO SLLP 051400@CAELT@METAR SLLP 051400Z 12007KT 050V220 9999 FEW013 BKN200 12/05 Q1035@CAELT@A3057 626.0 HR63 P94// AC NOSIG=@CAELT@
ZPX0366 051359@CAELT@GG SLZZYMYT@CAELT@051358 SLCOYGYZ@CAELT@SABO SLCO 051400 CCA@CAELT@METAR COR SLCO 051400Z 35012KT 9999 BKN011 SCT080 28/23 Q1010 A2985@CAELT@983.3 HR77=@CAELT@
ZPX0367 051359@CAELT@GG SLZZYMYT@CAELT@051358 SLTRYGYS@CAELT@SABO SLTR 051400@CAELT@METAR SLTR 051400Z 36005KT 5000 -RA SCT005 OVC070 25/24 Q1011 A2986@CAELT@992.6 HR95 TEMPO 3000 BKN005=@CAELT@METAR SLGM 051400Z 02012KT 9999 SCT015 BKN080 28/23 Q1011 A2986 HR75=@CAELT@METAR SLRI 051400Z NIL=@CAELT@METAR SLJO 051400Z 36010KT 8000 VCSH SCT010 FEW023CB BKN080 26/24Q1008 A2979 HR89 CB/SH SE RWY HUM OPR=METAR SLRA 051400Z 36008KT 9999 SCT008 FEW023CB OVC070 26/24 Q1009A2982 HR91 CB E RWY NML=METAR SLMG 051400Z 32004KT 9999 SCT010 BKN080 25/24 Q1010 A2984 HR92RWY HUM OPR=METAR SLBU 051400Z NIL=METAR SLSA 051400Z 34006KT 8000 VCSH BKN015 BKN070 26/24Q1010 A2983 HR89 SH S/SW/W=METAR SLSR 051400Z 32008KT 8000 -RA FEW008 SCT010 FEW020CB OVC07023/23 Q1009 A2981 HR98 CB W RWY WET INOP=METAR SLSM 051400Z 09003KT 3000 -RA BKN015 OVC070 24/24 Q1010 A2984HR99 RWY WET INOP=
ZPX0370 051400@CAELT@GG SLZZYMYT@CAELT@051401 SLVRYFYC@CAELT@SABO SLVR 051400@CAELT@METAR SLVR 051400Z 04005KT 4000 -RA SCT008 BKN017 FEW030CB OVC070 21/@CAELT@21 Q1012 A2989 HR95 CB NE/NW NOSIG=@CAELT@METAR SLET 051400Z 12003KT 4000 -RA SCT006 BKN010 FEW027CB OVC070 22/@CAELT@21 Q1012 A2989 HR97 CB NW/N NOSIG=@CAELT@METAR SLAS 051400Z 00000KT 4000 -TSRA BKN013 FEW030CB OVC070 23/22Q1014 A2994 HR95 CB/TS S/SW/W RWY WET OPR=METAR SLJV 051400Z 36005KT 9999 BKN013 BKN070 24/23 Q1011 A2985 HR91RWY HUM OPR=METAR SLCP 051400Z 36006KT 9999 BKN013 BKN070 26/23 Q1014 A2994 HR81RWY NML=METAR SLSI 051400Z 36006KT 9999 SCT015 BKN070 26/22 Q1012 A2988 HR78METAR SLTI 051400Z 00000KT 9999 SCT070 30/24 Q1015 A2997 HR69 RWY NMLMETAR SLJE 051400Z 00000KT 9999 SCT015 BKN070 27/23 Q1015 A2997 HR82METAR SLVG 051400Z 35004KT 9999 SCT017 BKN070 18/14 Q1023 A3021 HR77METAR SLRB 051400Z 36015KT 9999 BKN023 27/21 Q1013 A2991 HR72 RWY NMLMETAR SLPS 051400Z 00000KT 9999 SCT013 BKN070 26/24 Q1011 A2986 HR89=METAR SLCA 051400Z 00000KT 9999 FEW033 BKN080 25/21 Q014 A2994 HR77
ZPX0373 051402@CAELT@GG SLZZYMYT@CAELT@051401 SLCBYGYS@CAELT@SABO SLCB 051400@CAELT@METAR SLCB 051400Z 20003KT 9999 SCT020 SCT070 BKN200 17/12 Q1023@CAELT@A3023 750.5 HR74 NOSIG=@CAELT@METAR SLAL 051400Z 35006KT 9999 FEW010 BKN013 13/10 Q1029 A3036@CAELT@702.8 HR85 AC=@CAELT@METAR SLPO 051400Z 06008KT 9999 SCT015 12/06 Q1033 A3052 635.2 HR67=METAR SLAG 051400Z NIL=METAR SLVM 051400Z 00000KT 9999 NSC 31/22 Q1009 A2982 HR60 FU CI=METAR SLTJ 051400Z 12004KT 9999 FEW030 BKN070 22/14 Q1018 A3008 813.7HR60 CI=METAR SLYA 051400Z 00000KT 9999 SCT023 30/24 Q1011 A2986 935.9 HR68=METAR SLBJ 051400Z NIL=METAR SLHI 051400Z NIL=
ZPX0376 051404@CAELT@GG SLZZYMYT@CAELT@051359 SLLPYFYA@CAELT@SABO SLRY 051400@CAELT@METAR SLRY 051400Z 32003KT 4000 -RA SCT006 BKN012 OVC070 23/23 Q1007@CAELT@A2974 HR98 RWY WET INOP=@CAELT@
ZPX0377 051404@CAELT@GG SLZZYMYT@CAELT@051401 SLLPYFYA@CAELT@SABO SLLP 051400@CAELT@METAR SLLP 051400Z 12007KT 050V220 9999 FEW013 BKN200 12/05 Q1035@CAELT@A3057 626.0 HR63 P94// AC NOSIG=@CAELT@METAR SLCO 051400Z 35012KT 9999 BKN011 SCT080 28/23 Q1010 A2985@CAELT@983.3 HR77=@CAELT@METAR SLRY 051400Z 32003KT 4000 -RA SCT006 BKN012 OVC070 23/23 Q1007A2974 HR98 RWY WET INOP=METAR SLRQ 051400Z 00000KT 2000 RA SCT005 BKN010 OVC070 24/24 Q1009A2982 HR100=METAR SLAP 051400Z 36015KT 7000 VCSH BKN015 OVC070 19/17 Q1015 A2997856.0 HR91 SH N/SE/S/SW RERA=METAR SLSB 051400Z 36004KT 3000 -RA BKN005 OVC070 23/23 Q1005 A2968HR98 RWY WET INOP=METAR SLUY 051400Z VRB02KT 9999 FEW023 12/M01 Q1031 A3046 656.6 HR40METAR SLOR 051400Z 21008KT 9999 FEW017 SCT200 15/02 Q1032 A3049 654.1HR41=
ZPX0399 051451@CAELT@GG SLZZYMYT@CAELT@051451 SLTRYGYS@CAELT@SABO SLTR 051400 RRA@CAELT@METAR SLTR 051400Z 36005KT 5000 -RA SCT005 OVC070 25/24 Q1011 A2986@CAELT@992.6 HR95 TEMPO 3000 BKN005=@CAELT@METAR SLGM 051400Z 02012KT 9999 SCT015 BKN080 28/23 Q1011 A2986 HR75=@CAELT@METAR RTD SLRI 051400Z 03006KT 9999 SCT008 BKN080 26/23 Q1012 A2989@CAELT@HR85=METAR SLJO 051400Z 36010KT 8000 VCSH SCT010 FEW023CB BKN080 26/24Q1008 A2979 HR89 CB/SH SE RWY HUM OPR=METAR SLRA 051400Z 36008KT 9999 SCT008 FEW023CB OVC070 26/24 Q1009A2982 HR91 CB E RWY NML=METAR SLMG 051400Z 32004KT 9999 SCT010 BKN080 25/24 Q1010 A2984 HR92RWY HUM OPR=METAR SLBU 051400Z NIL=METAR SLSA 051400Z 34006KT 8000 VCSH BKN015 BKN070 26/24Q1010 A2983 HR89 SH S/SW/W=METAR SLSR 051400Z 32008KT 8000 -RA FEW008 SCT010 FEW020CB OVC07023/23 Q1009 A2981 HR98 CB W RWY WET INOP=METAR SLSM 051400Z 09003KT 3000 -RA BKN015 OVC070 24/24 Q1010 A2984HR99 RWY WET INOP=
ZPX0402 051452@CAELT@GG SLZZYMYT@CAELT@051453 SLETYMYC@CAELT@SABO SLET 051500@CAELT@METAR SLET 051500Z 31004KT 4000 -RA SCT008 BKN015 OVC070 22/21 Q1012@CAELT@A2989 HR97 NOSIG=@CAELT@
ZPX0403 051452@CAELT@GG SLZZYMYT@CAELT@051450 SLPSYGYS@CAELT@SABO SLPS 051500@CAELT@METAR SLPS 051500Z 00000KT 9999 FEW015 BKN070 27/24 Q1011 A2986 HR87=@CAELT@
ZPX0408 051454@CAELT@GG SLZZYMYT@CAELT@051453 SLRBYGYS@CAELT@SABO SLRB 051500@CAELT@METAR SLRB 051500Z 36012KT 9999 BKN023 29/24 Q1013 A2991 HR72 RWY NML=@CAELT@
ZPX0409 051454@CAELT@GG SLZZYMYT@CAELT@051454 SLSAYGYS@CAELT@SABO SLSA 051500@CAELT@METAR SLSA 051500Z 34008KT 9999 BKN015 BKN070 27/24@CAELT@Q1010 A2983 HR84 SH S/SW=@CAELT@
ZPX0410 051454@CAELT@GG SLZZYMYT@CAELT@051454 SLCAYGYS@CAELT@SABO SLCA 051500@CAELT@METAR SLCA 051500Z 00000KT 9999 FEW033 BKN080 27/21 Q1014 A2994 HR69@CAELT@RWY NML=@CAELT@
ZPX0411 051455@CAELT@GG SLZZYMYT@CAELT@051455 SLVRYGYZ@CAELT@SABO SLVR 051500@CAELT@METAR SLVR 051500Z 04007KT 7000 -RA BKN009 BKN017 FEW030CB OVC070 22/@CAELT@21 Q1012 A2990 HR95 CB NW NOSIG=@CAELT@
ZPX0412 051455@CAELT@GG SLZZYMYT@CAELT@051455 SLLPYFYA@CAELT@SABO SLRY 051500@CAELT@METAR SLRY 051500Z 33003KT 2000 -RA BKN005 BKN010 OVC070 24/24 Q1007@CAELT@A2975 HR98 RWY WET INOP=@CAELT@
ZPX0413 051455@CAELT@GG SLZZYMYT@CAELT@051455 SLTRYGYZ@CAELT@SABO SLTR 051500@CAELT@METAR SLTR 051500Z 35006KT 9999 -RA SCT005 OVC070 25/25 Q1010 A2985@CAELT@992.2 HR96 NOSIG=@CAELT@
ZPX0414 051455@CAELT@GG SLZZYMYT@CAELT@051455 SLCBYGYZ@CAELT@SABO SLCB 051500@CAELT@METAR SLCB 051500Z 26004KT 9999 SCT025 SCT080 BKN200 20/12 Q1023@CAELT@A3022 750.0 HR61 NOSIG=@CAELT@
ZPX0415 051455@CAELT@GG SLZZYMYT@CAELT@051454 SLUYYGYS@CAELT@SABO SLUY 051500@CAELT@METAR SLUY 051500Z VRB02KT 9999 SCT023 15/00 Q1030 A3044@CAELT@656.1 HR38 AC=@CAELT@
ZPX0416 051456@CAELT@GG SLZZYMYT@CAELT@051455 SLLPYGYZ@CAELT@SABO SLLP 051500@CAELT@METAR SLLP 051500Z 14008KT 060V180 9999 SCT015 BKN200 13/05 Q1034@CAELT@A3054 625.5 HR61 P94// AC NOSIG=@CAELT@
ZPX0417 051456@CAELT@GG SLZZYMYT@CAELT@051455 SLCOYGYZ@CAELT@SABO SLCO 051500@CAELT@METAR SLCO 051500Z 34010KT 9999 BKN013 BKN080 28/23 Q1010 A2985 983.3@CAELT@HR74=@CAELT@
ZPX0418 051456@CAELT@GG SLZZYMYT@CAELT@051455 SLORYGYZ@CAELT@SABO SLOR 051500@CAELT@METAR SLOR 051500Z 28005KT 9999 FEW020 SCT200 17/03 Q1031 A3047 653.8@CAELT@HR37=@CAELT@
ZPX0425 051459@CAELT@GG SLZZYMYT@CAELT@051500 SLVRYFYC@CAELT@SABO SLVR 051500@CAELT@METAR SLVR 051500Z 04007KT 7000 -RA BKN009 BKN017 FEW030CB OVC070 22/@CAELT@21 Q1012 A2990 HR95 CB NW NOSIG=@CAELT@METAR SLET 051500Z 31004KT 4000 -RA SCT008 BKN015 OVC070 22/21 Q1012@CAELT@A2989 HR97 NOSIG=@CAELT@METAR SLAS 051500Z 00000KT 3000 -RA BKN012 FEW030CB OVC070 23/22Q1014 A2994 HR95 CB S/SW RETS RWY WET OPR=METAR SLJV 051500Z 36005KT 9999 SCT015 BKN070 26/23 Q1011 A2985 HR87RWY HUM OPR=METAR SLCP 051500Z 36008KT 9999 BKN013 BKN070 27/23 Q1015 A2997 HR78RWY NML=METAR SLSI 051500Z 36008KT 9999 SCT017 BKN070 29/22 Q1012 A2988 HR68METAR SLTI 051500Z 00000KT 9999 SCT017 32/23 Q1015 A2997 HR62 RWY NMLMETAR SLJE 051500Z 35005KT 9999 BKN012 BKN070 28/24 Q1014 A2994 HR76METAR SLVG 051500Z 36007KT 9999 SCT020 BKN070 19/15 Q1023 A3021 HR74METAR SLRB 051500Z 36012KT 9999 BKN023 29/24 Q1013 A2991 HR72 RWY NMLMETAR SLPS 051500Z 00000KT 9999 FEW015 BKN070 27/24 Q1011 A2986 HR87=METAR SLCA 051500Z 00000KT 9999 FEW033 BKN080 27/21 Q1014 A2994 HR69
ZPX0426 051500@CAELT@GG SLZZYMYT@CAELT@051459 SLTJYGYZ@CAELT@SABO SLTJ 051500@CAELT@METAR SLTJ 051500Z 19005KT 9999 FEW030 FEW036CB SCT070 24/15 Q1018@CAELT@A3006 813.3 HR56 CB W TCU N/NE CI=@CAELT@
ZPX0428 051500@CAELT@GG SLZZYMYT@CAELT@051500 SLTRYGYS@CAELT@SABO SLTR 051500@CAELT@METAR SLTR 051500Z 35006KT 9999 -RA SCT005 OVC070 25/25 Q1010 A2985@CAELT@992.2 HR96 NOSIG=@CAELT@METAR SLGM 051500Z 02012KT 9999 SCT017 FEW020CB BKN080 29/24 Q1011@CAELT@A2985 HR74 CB SW/W=@CAELT@METAR SLRI 051500Z 36006KT 7000 VCSH BKN015 BKN080 26/24 Q1011 A2987HR89 RESHRA SH N/NE=METAR SLJO 051500Z 36010KT 7000 VCSH SCT015 FEW023CB BKN080 27/24Q1009 A2980 HR84 CB/SH NE/E RWY HUM OPR=METAR SLRA 051500Z 36008KT 9999 SCT015 OVC070 27/24 Q1010 A2983 HR85RWY NML=METAR SLMG 051500Z 00000KT 9999 BKN015 BKN080 26/24 Q1010 A2985 HR86RWY HUM OPR=METAR SLBU 051500Z NIL=METAR SLSA 051500Z 34008KT 9999 BKN015 BKN070 27/24 Q1010 A2983 HR84SH S/SW=METAR SLSR 051500Z 32008KT 8000 -RA BKN010 FEW020CB OVC070 24/24Q1015 A2983 HR98 CB NW RWY WET INOP=METAR SLSM 051500Z 36003KT 8000 -RA BKN013 OVC070 24/24 Q1010 A2985HR99 RWY WET INOP=
ZPX0429 051502@CAELT@GG SLZZYMYT@CAELT@051501 SLCBYGYS@CAELT@SABO SLCB 051500@CAELT@METAR SLCB 051500Z 26004KT 9999 SCT025 SCT080 BKN200 20/12 Q1023@CAELT@A3022 750.0 HR61 NOSIG=@CAELT@METAR SLAL 051500Z 35007KT 9999 FEW010 BKN015 14/10 Q1028 A3036 702.6@CAELT@HR76 AC=@CAELT@METAR SLPO 051500Z 07010KT 9999 SCT017 13/06 Q1033 A3050 634.7 HR61METAR SLAG 051500Z NIL=METAR SLVM 051500Z 18007KT 9999 SCT030 32/22 Q1009 A2982 HR55 FU CI=METAR SLTJ 051500Z 19005KT 9999 FEW030 FEW036CB SCT070 24/15 Q1018A3006 813.3 HR56 CB W TCU N/NE CI=METAR SLYA 051500Z 21006KT 9999 SCT023 31/24 Q1011 A2986 936.0 HR64=METAR SLBJ 051500Z NIL=METAR SLHI 051500Z NIL=
ZPX0431 051503@CAELT@GG SLZZYMYT@CAELT@051501 SLSBYSYX@CAELT@SABO SLSB 051500@CAELT@METAR SLSB 051500Z 00000KT 5000 -RA BKN005 OVC070 24/23 Q1007 A2975@CAELT@HR98 RWY WET INOP=@CAELT@
ZPX0432 051503@CAELT@GG SLZZYMYT@CAELT@051503 SLLPYFYA@CAELT@SABO SLLP 051500@CAELT@METAR SLLP 051500Z 14008KT 060V180 9999 SCT015 BKN200 13/05 Q1034@CAELT@A3054 625.5 HR61 P94// AC NOSIG=@CAELT@METAR SLCO 051500Z 34010KT 9999 BKN013 BKN080 28/23 Q1010 A2985 983.3@CAELT@HR74=@CAELT@METAR SLRY 051500Z 33003KT 2000 -RA BKN005 BKN010 OVC070 24/24 Q1007A2975 HR98 RWY WET INOP=METAR SLRQ 051500Z 00000KT 3000 -RA SCT005 BKN010 OVC070 24/24 Q1009A2980 HR100=METAR SLAP 051500Z 36015KT 7000 VCSH BKN015 OVC070 18/17 Q1015 A2997856.0 HR91 SH SE/S/SW=METAR SLSB 051500Z 00000KT 5000 -RA BKN005 OVC070 24/23 Q1007 A2975HR98 RWY WET INOP=METAR SLOR 051500Z 28005KT 9999 FEW020 SCT200 17/03 Q1031 A3047653.8 HR37=METAR SLUY 051500Z VRB02KT 9999 SCT023 15/00 Q1030 A3044 656.1 HR38AC=
ZPX0450 051551@CAELT@GG SLZZYMYT@CAELT@051550 SLPSYGYS@CAELT@SABO SLPS 051600@CAELT@METAR SLPS 051600Z 36004KT 9999 SCT015 BKN070 29/25 Q1010 A2983 HR80=@CAELT@
ZPX0451 051553@CAELT@GG SLZZYMYT@CAELT@051555 SLVRYGYZ@CAELT@SABO SLVR 051600@CAELT@METAR SLVR 051600Z 01009KT 7000 -RA BKN010 BKN017 OVC070 22/21 Q1012@CAELT@A2989 HR94 NOSIG=@CAELT@
ZPX0452 051554@CAELT@GG SLZZYMYT@CAELT@051554 SLSBYSYX@CAELT@SABO SLSB 051600@CAELT@METAR SLSB 051600Z 00000KT 4000 -RA BKN005 OVC070 24/23 Q1007 A2976@CAELT@HR98 RWY WET INOP=@CAELT@
ZPX0453 051554@CAELT@GG SLZZYMYT@CAELT@051554 SLCAYGYS@CAELT@SABO SLCA 051600@CAELT@METAR SLCA 051600Z 00000KT 9999 SCT033 BKN080 29/21 Q1013 A2991 HR63@CAELT@RWY NML=@CAELT@
ZPX0455 051554@CAELT@GG SLZZYMYT@CAELT@051554 SLSAYGYS@CAELT@SABO SLSA 051600@CAELT@METAR SLSA 051600Z 34008KT 8000 VCSH BKN015 BKN070 28/23@CAELT@Q1009 A2981 HR75 SH SW/NW=@CAELT@
ZPX0456 051555@CAELT@GG SLZZYMYT@CAELT@051555 SLTJYGYZ@CAELT@SABO SLTJ 051600@CAELT@METAR SLTJ 051600Z 13005KT 9999 SCT033 FEW036CB 25/15 Q1017 A3004 812@CAELT@.6 HR54 CB N/NE AC=@CAELT@
ZPX0457 051555@CAELT@GG SLZZYMYT@CAELT@051555 SLORYGYZ@CAELT@SABO SLOR 051600@CAELT@METAR SLOR 051600Z 20006KT 9999 FEW020 SCT200 18/03 Q1031 A3046 653.4@CAELT@HR35=@CAELT@
ZPX0458 051556@CAELT@GG SLZZYMYT@CAELT@051555 SLCOYGYZ@CAELT@SABO SLCO 051600@CAELT@METAR SLCO 051600Z 34010KT 9999 BKN017 BKN080 29/23 Q1010 A2983 982.8@CAELT@HR72 CI=@CAELT@
ZPX0459 051556@CAELT@GG SLZZYMYT@CAELT@051553 SLRBYGYS@CAELT@SABO SLRB 051600@CAELT@METAR SLRB 051600Z 00000KT 9999 VCSH BKN017 27/24 Q1012 A2988 HR85 SH@CAELT@N/NE/NW RWY NML=@CAELT@
ZPX0460 051556@CAELT@GG SLZZYMYT@CAELT@051556 SLTRYGYZ@CAELT@SABO SLTR 051600@CAELT@METAR SLTR 051600Z 31008KT 5000 -RA SCT005 OVC070 25/25 Q1010 A2984@CAELT@992.0 HR96 TEMPO 3000=@CAELT@
ZPX0461 051556@CAELT@GG SLZZYMYT@CAELT@051556 SLUYYGYS@CAELT@SABO SLUY 051600@CAELT@METAR SLUY 051600Z 22005KT 9999 SCT025 16/M01 Q1030 A3043@CAELT@655.8 HR30 AC=@CAELT@
ZPX0464 051556@CAELT@GG SLZZYMYT@CAELT@051556 SLLPYGYZ@CAELT@SABO SLLP 051600@CAELT@METAR SLLP 051600Z 13006KT 060V200 9999 SCT020 FEW023 BKN200 14/03@CAELT@Q1033 A3052 625.0 HR49 P94// CB/N/NE AC NOSIG=@CAELT@
ZPX0465 051556@CAELT@GG SLZZYMYT@CAELT@051556 SLCBYGYZ@CAELT@SABO SLCB 051600@CAELT@METAR SLCB 051600Z 05006KT 9999 SCT025 FEW030CB SCT080 BKN200 20/11@CAELT@Q1022 A3019 749.3 HR56 CB NW/N SH/NW NOSIG=@CAELT@
ZPX0466 051557@CAELT@GG SLZZYMYT@CAELT@051557 SLLPYFYA@CAELT@SABO SLRY 051600@CAELT@METAR SLRY 051600Z 33003KT 2000 -RA BKN005 BKN010 OVC070 24/24 Q1007@CAELT@A2975 HR98 RWY WET INOP=@CAELT@
ZPX0467 051558@CAELT@GG SLZZYMYT@CAELT@051559 SLVRYFYC@CAELT@SABO SLVR 051600@CAELT@METAR SLVR 051600Z 01009KT 7000 -RA BKN010 BKN017 OVC070 22/21 Q1012@CAELT@A2989 HR94 NOSIG=@CAELT@METAR SLET 051600Z 31006KT 6000 -RA BKN010 BKN015 OVC070 22/21 Q1011@CAELT@A2986 HR94 NOSIG=@CAELT@METAR SLAS 051600Z 00000KT 3000 -RA OVC012 23/22 Q1014 A2994 HR95 RWYWET OPR=METAR SLCP 051600Z 36008KT 9999 BKN017 FEW027CB BKN070 28/23 Q1014A2994 HR75 CB S RWY NML=METAR SLSI 051600Z 36006KT 9999 SCT017 BKN070 30/23 Q1011 A2985 HR65RWY NML=METAR SLRB 051600Z 00000KT 9999 VCSH BKN017 27/24 Q1012 A2988 HR85 SHN/NE/NW RWY NML=METAR SLPS 051600Z 36004KT 9999 SCT015 BKN070 29/25 Q1010 A2983 HR80=METAR SLCA 051600Z 00000KT 9999 SCT033 BKN080 29/21 Q1013 A2991 HR63
ZPX0469 051559@CAELT@GG SLZZYMYT@CAELT@051559 SLLPYFYA@CAELT@SABO SLLP 051600@CAELT@METAR SLLP 051600Z 13006KT 060V200 9999 SCT020 FEW023 BKN200 14/03@CAELT@Q1033 A3052 625.0 HR49 P94// CB/N/NE AC NOSIG=@CAELT@METAR SLCO 051600Z 34010KT 9999 BKN017 BKN080 29/23 Q1010 A2983 982.8@CAELT@HR72 CI=@CAELT@METAR SLRY 051600Z 33003KT 2000 -RA BKN005 BKN010 OVC070 24/24 Q1007A2975 HR98 RWY WET INOP=METAR SLRQ 051600Z 36004KT 1500 RA SCT005 BKN010 OVC070 25/25 Q1009A2980 HR100=METAR SLAP 051600Z 36010KT 7000 VCSH BKN015 OVC070 20/18 Q1014 A2996855.6 HR89 SH SE/S/SW=METAR SLSB 051600Z 00000KT 4000 -RA BKN005 OVC070 24/23 Q1007 A2976HR98 RWY WET INOP=METAR SLOR 051600Z 20006KT 9999 FEW020 SCT200 18/03 Q1031 A3046 653.4HR35=METAR SLUY 051600Z 22005KT 9999 SCT025 16/M01 Q1030 A3043 655.8 HR30AC=
ZPX0470 051559@CAELT@GG SLZZYMYT@CAELT@051558 SLETYMYC@CAELT@SABO SLET 051600@CAELT@METAR SLET 051600Z 31006KT 6000 -RA BKN010 BKN015 OVC070 22/21 Q1011@CAELT@A2986 HR94 NOSIG=@CAELT@
ZPX0471 051559@CAELT@GG SLZZYMYT@CAELT@051559 SLTRYGYS@CAELT@SABO SLTR 051600@CAELT@METAR SLTR 051600Z 31008KT 5000 -RA SCT005 OVC070 25/25 Q1010 A2984@CAELT@992.0 HR96 TEMPO 3000=@CAELT@METAR SLGM 051600Z 02012KT 8000 VCSH SCT017 FEW020CB BKN080 30/24@CAELT@Q1009 A2981 HR70 CB/SH NE/E/W=@CAELT@METAR SLRI 051600Z 36006KT 9999 BKN015 FEW020CB BKN080 29/24 Q1010A2985 HR76 CB N=METAR SLJO 051600Z 35008KT 5000 -RA SCT015 FEW023CB BKN070 OVC20026/25 Q1008 A2979 HR90 CB SE/NW RWY WET INOP=METAR SLRA 051600Z 36010KT 7000 VCSH SCT015 FEW023CB OVC070 28/24Q1010 A2983 HR82 CB/SH N/NE/NW RWY NML=METAR SLMG 051600Z 32004KT 9999 BKN015 BKN080 27/24 Q1010 A2985 HR85RWY HUM OPR=METAR SLBU 051600Z NIL=METAR SLSA 051600Z 34008KT 8000 VCSH BKN015 BKN070 28/23 Q1009A2981 HR75 SH SW/NW=METAR SLSR 051600Z 32008KT 8000 -RA BKN010 FEW020CB OVC070 24/24Q1010 A2984 HR97 CB N/NW RWY WET INOP=METAR SLSM 051600Z 36004KT 8000 -RA BKN013 OVC070 24/23 Q1010 A2984HR96 RWY WET INOP=
ZPX0473 051600@CAELT@GG SLZZYMYT@CAELT@051600 SLCBYGYS@CAELT@SABO SLCB 051600@CAELT@METAR SLCB 051600Z 05006KT 9999 SCT025 FEW030CB SCT080 BKN200 20/11@CAELT@Q1022 A3019 749.3 HR56 CB NW/N SH/NW NOSIG=@CAELT@METAR SLAL 051600Z 05006KT 9999 BKN017 FEW030CB 16/09 Q1027 A3032 702@CAELT@.2 HR66 CB/E AC=@CAELT@METAR SLPO 051600Z 06012KT 9999 SCT017 FEW025CB 14/06 Q1032 A3049 634.5 HR59 CB/SW=METAR SLAG 051600Z NIL=METAR SLVM 051600Z 00000KT 9999 SCT030 33/21 Q1009 A2980 HR49 FU CI=METAR SLTJ 051600Z 13005KT 9999 SCT033 FEW036CB 25/15 Q1017 A3004 812.6 HR54 CB N/NE AC=METAR SLYA 051600Z 21006MT 9999 SCT023 32/24 Q1010 A2984 935.4 HR60=METAR SLBJ 051600Z NIL=METAR SLHI 051600Z NIL=
ZPX0474 051601@CAELT@GG SLZZYMYT@CAELT@051601 SLLPYGYZ@CAELT@SABO SLLP 051600 CCA@CAELT@METAR COR SLLP 051600Z 13006KT 060V200 9999 SCT020 FEW023CB BKN200 14@CAELT@/03 Q1033 A3052 625.0 HR49 P94// CB/N/NE AC NOSIG=@CAELT@
ZPX0475 051602@CAELT@GG SLZZYMYT@CAELT@051602 SLLPYFYA@CAELT@SABO SLLP 051600 CCA@CAELT@METAR COR SLLP 051600Z 13006KT 060V200 9999 SCT020 FEW023CB BKN200@CAELT@14/03 Q1033 A3052 625.0 HR49 P94// CB/N/NE AC NOSIG=@CAELT@METAR SLCO 051600Z 34010KT 9999 BKN017 BKN080 29/23 Q1010 A2983 982.8@CAELT@HR72 CI=@CAELT@METAR SLRY 051600Z 33003KT 2000 -RA BKN005 BKN010 OVC070 24/24 Q1007A2975 HR98 RWY WET INOP=METAR SLRQ 051600Z 36004KT 1500 RA SCT005 BKN010 OVC070 25/25 Q1009A2980 HR100=METAR SLAP 051600Z 36010KT 7000 VCSH BKN015 OVC070 20/18 Q1014 A2996855.6 HR89 SH SE/S/SW=METAR SLSB 051600Z 00000KT 4000 -RA BKN005 OVC070 24/23 Q1007 A2976HR98 RWY WET INOP=METAR SLOR 051600Z 20006KT 9999 FEW020 SCT200 18/03 Q1031 A3046 653.4HR35=METAR SLUY 051600Z 22005KT 9999 SCT025 16/M01 Q1030 A3043 655.8 HR30AC=
ZPX0483 051614@CAELT@GG SLZZYMYT@CAELT@051614 SLCBYGYS@CAELT@SABO SLCB 051600 RRA@CAELT@METAR SLCB 051600Z 05006KT 9999 SCT025 FEW030CB SCT080 BKN200 20/11@CAELT@Q1022 A3019 749.3 HR56 CB NW/N SH/NW NOSIG=@CAELT@METAR SLAL 051600Z 05006KT 9999 BKN017 FEW030CB 16/09 Q1027 A3032 702@CAELT@.2 HR66 CB/E AC=@CAELT@METAR SLPO 051600Z 06012KT 9999 SCT017 FEW025CB 14/06 Q1032 A3049 634.5 HR59 CB/SW=METAR SLAG 051600Z NIL=METAR SLVM 051600Z 00000KT 9999 SCT030 33/21 Q1009 A2980 HR49 FU CI=METAR SLTJ 051600Z 13005KT 9999 SCT033 FEW036CB 25/15 Q1017 A3004 812.6 HR54 CB N/NE AC=METAR COR SLYA 051600Z 21006KT 9999 SCT023 32/24 Q1010 A2984 935.4HR60=METAR SLBJ 051600Z NIL=METAR SLHI 051600Z NIL=
ZPX0494 051652@CAELT@GG SLZZYMYT@CAELT@051651 SLCAYGYS@CAELT@SABO SLCA 051700@CAELT@METAR SLCA 051700Z 00000KT 9999 SCT033 SCT080 30/19 Q1012 A2988 HR53@CAELT@RWY NML=@CAELT@
ZPX0495 051653@CAELT@GG SLZZYMYT@CAELT@051653 SLPSYGYS@CAELT@SABO SLPS 051700@CAELT@METAR SLPS 051700Z 36003KT 9999 FEW017 BKN070 31/25 Q1009 A2980 HR73=@CAELT@
ZPX0496 051653@CAELT@GG SLZZYMYT@CAELT@051654 SLLPYFYA@CAELT@SABO SLRY 051700@CAELT@METAR SLRY 051700Z 32003KT 2000 -RA BKN006 BKN012 OVC070 23/23 Q1006@CAELT@A2972 HR98 RWY WET INOP=@CAELT@
ZPX0497 051653@CAELT@GG SLZZYMYT@CAELT@051653 SLRBYGYS@CAELT@SABO SLRB 051700@CAELT@METAR SLRB 051700Z 00000KT 9999 BKN017 27/24 Q1011 A2985 HR85 RWY NML=@CAELT@
ZPX0498 051654@CAELT@GG SLZZYMYT@CAELT@051654 SLSBYSYX@CAELT@SABO SLSB 051700@CAELT@METAR SLSB 051700Z 00000KT 3000 -RA BKN005 OVC070 23/23 Q1007 A2976@CAELT@HR97 RWY WET INOP=@CAELT@
ZPX0499 051654@CAELT@GG SLZZYMYT@CAELT@051655 SLVRYGYZ@CAELT@SABO SLVR 051700@CAELT@METAR SLVR 051700Z 35010KT 7000 -RA BKN010 BKN017 OVC070 22/21 Q1011@CAELT@A2987 HR94 NOSIG=@CAELT@
ZPX0500 051654@CAELT@GG SLZZYMYT@CAELT@051654 SLSBYSYX@CAELT@SABO SLSB 051700@CAELT@METAR SLSB 051700Z 00000KT 3000 -RA BKN005 OVC070 23/23 Q1007 A2976@CAELT@HR97 RWY WET INOP=@CAELT@
ZPX0501 051654@CAELT@GG SLZZYMYT@CAELT@051654 SLSAYGYS@CAELT@SABO SLSA 051700@CAELT@METAR SLSA 051700Z 34010KT 5000 -RA FEW005 BKN015 BKN070 27/24@CAELT@Q1008 A2979 HR84=@CAELT@
ZPX0502 051655@CAELT@GG SLZZYMYT@CAELT@051655 SLTJYGYZ@CAELT@SABO SLTJ 051700@CAELT@METAR SLTJ 051700Z 09010KT 9999 SCT033 FEW036CB 25/14 Q1016 A3003 812@CAELT@.3 HR52 CB N/E SH/N=@CAELT@
ZPX0503 051655@CAELT@GG SLZZYMYT@CAELT@051655 SLLPYGYZ@CAELT@SABO SLLP 051700@CAELT@METAR SLLP 051700Z 14007KT 080V240 9999 SCT020 FEW023CB BKN200 15/02@CAELT@Q1032 A3049 624.3 HR42 P0784 CB/SH N AC NOSIG=@CAELT@
ZPX0504 051655@CAELT@GG SLZZYMYT@CAELT@051657 SLUYYGYS@CAELT@SABO SLUY 051700@CAELT@METAR SLUY 051700Z 31011KT 9999 SCT027 17/M03 Q1028 A3038@CAELT@654.7 HR25 AC=@CAELT@
ZPX0505 051655@CAELT@GG SLZZYMYT@CAELT@051653 SLETYMYC@CAELT@SABO SLET 051700@CAELT@METAR SLET 051700Z 31007KT 5000 -RA BKN010 BKN015 OVC070 22/21 Q1011@CAELT@A2986 HR95 NOSIG=@CAELT@
ZPX0506 051655@CAELT@GG SLZZYMYT@CAELT@051655 SLCOYGYZ@CAELT@SABO SLCO 051700@CAELT@METAR SLCO 051700Z 33010KT 9999 BKN017 FEW020CB SCT080 30/23 Q1008@CAELT@A2979 981.3 HR67 CB/SW CI=@CAELT@
ZPX0507 051655@CAELT@GG SLZZYMYT@CAELT@051655 SLORYGYZ@CAELT@SABO SLOR 051700@CAELT@METAR SLOR 051700Z 28006KT 9999 FEW020 20/03 Q1030 A3044 653.1 HR33@CAELT@
ZPX0508 051656@CAELT@GG SLZZYMYT@CAELT@051656 SLCBYGYZ@CAELT@SABO SLCB 051700@CAELT@METAR SLCB 051700Z 03007KT 9999 SCT027 FEW030CB BKN080 20/12 Q1021@CAELT@A3016 748.6 HR59 CB NW/N/NE/E SH N/NE CI NOSIG=@CAELT@
ZPX0509 051656@CAELT@GG SLZZYMYT@CAELT@051656 SLTRYGYZ@CAELT@SABO SLTR 051700@CAELT@METAR SLTR 051700Z 32004KT 8000 -RA SCT008 FEW020CB OVC070 26/25@CAELT@Q1009 A2982 991.3 HR95 CB SE/S NOSIG=@CAELT@
ZPX0510 051657@CAELT@GG SLZZYMYT@CAELT@051657 SLLPYFYA@CAELT@SABO SLLP 051700@CAELT@METAR SLLP 051700Z 14007KT 080V240 9999 SCT020 FEW023CB BKN200 15/02@CAELT@Q1032 A3049 624.3 HR42 P0784 CB/SH N AC NOSIG=@CAELT@METAR SLCO 051700Z 33010KT 9999 BKN017 FEW020CB SCT080 30/23 Q1008@CAELT@A2979 981.3 HR67 CB/SW CI=@CAELT@METAR SLRY 051700Z 32003KT 2000 -RA BKN006 BKN012 OVC070 23/23 Q1006A2972 HR98 RWY WET INOP=METAR SLRQ 051700Z 00000KT 1000 +RA BKN005 BKN010 OVC070 24/24 Q1008A2979 HR100=METAR SLAP 051700Z 36005KT 6000 VCSH BKN015 OVC070 20/18 Q1014 A2996855.7 HR86 SH E/SE/S=METAR SLSB 051700Z 00000KT 3000 -RA BKN005 OVC070 23/23 Q1007 A2976HR97 RWY WET INOP=METAR SLOR 051700Z 28006KT 9999 FEW020 20/03 Q1030 A3044 653.1 HR33METAR SLUY 051700Z 31011KT 9999 SCT027 17/M03 Q1028 A3038 654.7 HR25
ZPX0511 051659@CAELT@GG SLZZYMYT@CAELT@051658 SLCBYGYS@CAELT@SABO SLCB 051700@CAELT@METAR SLCB 051700Z 03007KT 9999 SCT027 FEW030CB BKN080 20/12 Q1021@CAELT@A3016 748.6 HR59 CB NW/N/NE/E SH N/NE CI NOSIG=@CAELT@METAR SLAL 051700Z 01004KT 9999 BKN017 FEW030CB 17/09 Q1026 A3030@CAELT@701.6 HR63 CB/NE AC/CI=@CAELT@METAR SLPO 051700Z 07015KT 9999 SCT020 FEW025CB 14/06 Q1032 A3048634.2 HR60 CB/W/NW=METAR SLAG 051700Z NIL=METAR SLVM 051700Z 18008KT 9999 SCT030 34/21 Q1007 A2975 HR47 FU CI=METAR SLTJ 051700Z 09010KT 9999 SCT033 FEW036CB 25/14 Q1016 A3003 812.3 HR52 CB N/E SH/N=METAR SLYA 051700Z 21006KT 9999 SCT023 33/24 Q1010 A2983 935.0 HR58=METAR SLBJ 051700Z NIL=METAR SLHI 051700Z NIL=
ZPX0513 051659@CAELT@GG SLZZYMYT@CAELT@051658 SLTRYGYS@CAELT@SABO SLTR 051700@CAELT@METAR SLTR 051700Z 32004KT 8000 -RA SCT008 FEW020CB OVC070 26/25@CAELT@Q1009 A2982 991.3 HR95 CB SE/S NOSIG=@CAELT@METAR SLGM 051700Z 02016KT 5000 VCSH BKN015 FEW020CB BKN070 30/24@CAELT@Q1009 A2980 HR70 CB/SH NE/E/SE/S=@CAELT@METAR SLRI 051700Z 36008KT 7000 VCSH BKN015 FEW020CB BKN080 29/24Q1009 A2981 HR72 CB/SH N/NE/NW=METAR SLJO 051700Z 34006KT 7000 VCSH SCT017 FEW023CB BKN070 BKN20026/25 Q1007 A2976 HR95 RERA CB/SH S/SW/NW RWY WET INOP=METAR SLRA 051700Z 36008KT 7000 VCSH SCT015 FEW023CB BKN080 27/25Q1009 A2982 HR92 CB/SH N/SE RWY NML=METAR SLMG 051700Z 00000KT 9999 BKN015 BKN080 27/25 Q1009 A2981 HR89RWY HUM OPR=METAR SLBU 051700Z NIL=METAR SLSA 051700Z 34010KT 5000 -RA FEW005 BKN015 BKN070 27/24 Q1008A2979 HR84=METAR SLSR 051700Z 32008KT 8000 -RA BKN010 FEW020CB OVC070 25/24Q1010 A2984 HR95 CN N/NW RWY WET INOP=METAR SLSM 051700Z 36005KT 8000 -RA BKN013 OVC070 24/23 Q1009 A2982HR98 RWY WET INOP=
ZPX0515 051700@CAELT@GG SLZZYMYT@CAELT@051700 SLVRYFYC@CAELT@SABO SLVR 051700@CAELT@METAR SLVR 051700Z 35010KT 7000 -RA BKN010 BKN017 OVC070 22/21 Q1011@CAELT@A2987 HR94 NOSIG=@CAELT@METAR SLET 051700Z 31007KT 5000 -RA BKN010 BKN015 OVC070 22/21 Q1011@CAELT@A2986 HR95 NOSIG=@CAELT@METAR SLAS 051700Z 00000KT 8000 -RA BKN013 24/23 Q1013 A2992 HR93 RWYWET OPR=METAR SLCP 051700Z 34008KT 9999 BKN017 FEW027CB BKN070 28/23 Q1013A2991 HR75 CB NW/S RWY NML=METAR SLSI 051700Z 33008KT 9999 SCT017 30/22 Q1010 A2983 HR62 RWY NMLMETAR SLRB 051700Z 00000KT 9999 BKN017 27/24 Q1011 A2985 HR85 RWY NMLMETAR SLPS 051700Z 36003KT 9999 FEW017 BKN070 31/25 Q1009 A2980 HR73=METAR SLCA 051700Z 00000KT 9999 SCT033 SCT080 30/19 Q1012 A2988 HR53RWY NML=
ZPX0549 051753@CAELT@GG SLZZYMYT@CAELT@051752 SLCAYGYS@CAELT@SABO SLCA 051800@CAELT@METAR SLCA 051800Z 00000KT 9999 BKN033 FEW040CB 32/19 Q1011 A2985@CAELT@HR47 CB NE RWY NML=@CAELT@
ZPX0550 051753@CAELT@GG SLZZYMYT@CAELT@051752 SLETYMYC@CAELT@SABO SLET 051800@CAELT@METAR SLET 051800Z 30011KT 2500 RA BKN010 BKN015 OVC070 22/21 Q1011@CAELT@A2986 HR97 NOSIG=@CAELT@
ZPX0551 051753@CAELT@GG SLZZYMYT@CAELT@051754 SLLPYFYA@CAELT@SABO SLRY 051800@CAELT@METAR SLRY 051800Z 32005KT 3000 -RA BKN006 BKN012 OVC070 23/23 Q1006@CAELT@A2972 HR98 RWY WET INOP=@CAELT@
ZPX0552 051753@CAELT@GG SLZZYMYT@CAELT@051752 SLPSYGYS@CAELT@SABO SLPS 051800@CAELT@METAR SLPS 051800Z 09006KT 9999 FEW017 BKN070 32/26 Q1008 A2977 HR71=@CAELT@
ZPX0553 051754@CAELT@GG SLZZYMYT@CAELT@051755 SLVRYGYZ@CAELT@SABO SLVR 051800@CAELT@METAR SLVR 051800Z 33011KT 6000 -RA SCT012 BKN020 OVC070 21/21 Q1011@CAELT@A2985 HR95 NOSIG=@CAELT@
ZPX0554 051754@CAELT@GG SLZZYMYT@CAELT@051755 SLORYGYZ@CAELT@SABO SLOR 051800@CAELT@METAR SLOR 051800Z 03005KT 9999 FEW020 21/03 Q1030 A3043 652.7 HR30@CAELT@
ZPX0555 051755@CAELT@GG SLZZYMYT@CAELT@051755 SLCOYGYZ@CAELT@SABO SLCO 051800@CAELT@METAR SLCO 051800Z 31012KT 9999 BKN017 FEW020CB SCT200 30/23 Q1007@CAELT@A2974 979.8 HR67 CB/W AC=@CAELT@
ZPX0556 051755@CAELT@GG SLZZYMYT@CAELT@051754 SLRBYGYS@CAELT@SABO SLRB 051800@CAELT@METAR SLRB 051800Z 00000KT 9999 BKN017 30/23 Q1010 A2983 HR67 RWY NML=@CAELT@
ZPX0557 051756@CAELT@GG SLZZYMYT@CAELT@051755 SLSBYSYX@CAELT@SABO SLSB 051800@CAELT@METAR SLSB 051800Z 00000KT 4000 -RA BKN005 OVC070 24/23 Q1008 A2979@CAELT@HR98 RWY WET INOP=@CAELT@
ZPX0558 051756@CAELT@GG SLZZYMYT@CAELT@051755 SLTJYGYZ@CAELT@SABO SLTJ 051800@CAELT@METAR SLTJ 051800Z 09010KT 9999 SCT033 FEW036CB 25/14 Q1016 A3001 811@CAELT@.9 HR51 CB SH SW/W CI=@CAELT@
ZPX0560 051756@CAELT@GG SLZZYMYT@CAELT@051756 SLCBYGYZ@CAELT@SABO SLCB 051800@CAELT@METAR SLCB 051800Z 08008KT 9999 SCT027 FEW030CB BKN080 19/10 Q1020@CAELT@A3015 748.2 HR55 CB N/E/SE/NW SH NW/N CI NOSIG=@CAELT@
ZPX0562 051757@CAELT@GG SLZZYMYT@CAELT@051756 SLSAYGYS@CAELT@SABO SLSA 051800@CAELT@METAR SLSA 051800Z 34005KT 6000 VCSH SCT017 FEW023CB SCT070 BKN200@CAELT@25/24 Q1007 A2975 HR95 RERA CB/SH N/E/SE/NW=@CAELT@
ZPX0563 051757@CAELT@GG SLZZYMYT@CAELT@051757 SLTRYGYZ@CAELT@SABO SLTR 051800@CAELT@METAR SLTR 051800Z 00000KT 2000 RA SCT008 FEW020CB OVC070 25/24@CAELT@Q1009 A2981 991.0 HR97 CB ON STN/SE/S/SW TEMPO BKN008=@CAELT@
ZPX0565 051757@CAELT@GG SLZZYMYT@CAELT@051758 SLLPYGYZ@CAELT@SABO SLLP 051800@CAELT@METAR SLLP 051800Z 13006KT 9999 SCT020 FEW023CB BKN200 15/02 Q1031@CAELT@A3047 623.8 HR42 P0784 CB/SH N AC NOSIG=@CAELT@
ZPX0568 051759@CAELT@GG SLZZYMYT@CAELT@051759 SLCBYGYS@CAELT@SABO SLCB 051800@CAELT@METAR SLCB 051800Z 08008KT 9999 SCT027 FEW030CB BKN080 19/10 Q1020@CAELT@A3015 748.2 HR55 CB N/E/SE/NW SH NW/N CI NOSIG=@CAELT@METAR SLAL 051800Z 03014KT 9999 BKN017 17/09 Q1025 A3027 700.8 HR59@CAELT@METAR SLPO 051800Z NIL=@CAELT@METAR SLAG 051800Z NIL=METAR SLVM 051800Z NIL=METAR SLTJ 051800Z 09010KT 9999 SCT033 FEW036CB 25/14 Q1016 A3001 811.9 HR51 CB SH SW/W CI=METAR SLYA 051800Z 21006KT 9999 FEW023 SCT070 32/23 Q1009 A2980 934.2HR56 CI=METAR SLBJ 051800Z NIL=METAR SLHI 051800Z NIL=
ZPX0570 051800@CAELT@GG SLZZYMYT@CAELT@051800 SLLPYFYA@CAELT@SABO SLLP 051800@CAELT@METAR SLLP 051800Z 13006KT 9999 SCT020 FEW023CB BKN200 15/02 Q1031@CAELT@A3047 623.8 HR42 P0784 CB/SH N AC NOSIG=@CAELT@METAR SLCO 051800Z 31012KT 9999 BKN017 FEW020CB SCT200 30/23 Q1007@CAELT@A2974 979.8 HR67 CB/W AC=@CAELT@METAR SLRY 051800Z 32005KT 3000 -RA BKN006 BKN012 OVC070 23/23 Q1006A2972 HR98 RWY WET INOP=METAR SLRQ 051800Z 36004KT 2000 RA BKN005 BKN010 OVC070 24/24 Q1008A2977 HR100=METAR SLAP 051800Z 36008KT 7000 VCSH SCT017 OVC070 20/17 Q1014 A2996855.5 HR86 SH E/SE/S=METAR SLSB 051800Z 00000KT 4000 -RA BKN005 OVC070 24/23 Q1008 A2979HR98 RWY WET INOP=METAR SLOR 051800Z 03005KT 9999 FEW020 21/03 Q1030 A3043 652.7 HR30
ZPX0571 051801@CAELT@GG SLZZYMYT@CAELT@051800 SLTRYGYS@CAELT@SABO SLTR 051800@CAELT@METAR SLTR 051800Z 00000KT 2000 RA SCT008 FEW020CB OVC070 25/24@CAELT@Q1009 A2981 991.0 HR97 CB ON STN/SE/S/SW TEMPO BKN008=@CAELT@METAR SLGM 051800Z 02016KT 4000 TS VCSH SCT008 BKN015 FEW020CB@CAELT@BKN070 27/24 Q1008 A2978 HR85 CB/SH N/NE/E/SE/SW/W/NW TS N/NW=@CAELT@METAR SLRI 051800Z 36008KT 8000 VCSH SCT015 FEW020CB BKN200 29/24Q1008 A2979 HR75 CB/SH N/NE/E/NW=METAR SLJO 051800Z NIL=METAR SLRA 051800Z 36006KT 7000 VCSH SCT015 FEW023CB OVC070 27/25Q1008 A2979 HR92 RESHRA CB/SH SE/S/SW RWY HUM OPR=METAR SLMG 051800Z 03004KT 8000 VCSH SCT017 FEW023CB BKN080 26/24Q1008 A2979 HR87 RESHRA CB/SH N/NE/E/SE RW HUM OPR=METAR SLBU 051800Z NIL=METAR SLSA 051800Z 34005KT 6000 VCSH SCT017 FEW023CB SCT070 BKN20025/24 Q1007 A2975 HR95 RERA CB/SH N/E/SE/NW=METAR SLSR 051800Z 32006KT 8000 VCSH SCT010 FEW020CB OVC070 25/24Q10009 A2980 HR94 RERA CB/SH N/NE/NW RWY WET INOP=METAR SLSM 051800Z 36003KT 8000 -RA BKN013 OVC070 24/24 Q1009 A2981HR100 RWY WET INOP=
ZPX0572 051801@CAELT@GG SLZZYMYT@CAELT@051800 SLVRYFYC@CAELT@SABO SLVR 051800@CAELT@METAR SLVR 051800Z 33011KT 6000 -RA SCT012 BKN020 OVC070 21/21 Q1011@CAELT@A2985 HR95 NOSIG=@CAELT@METAR SLET 051800Z 30011KT 2500 -RA BKN010 BKN015 OVC070 22/21 Q1011@CAELT@A2986 HR97 NOSIG=@CAELT@METAR SLAS 051800Z 00000KT 9999 BKN013 FEW030CB BKN070 26/23 Q1012A2989 HR86 CB/SH N RERA RWY WET OPR=METAR SLJV 051800Z 00000KT 5000 -TSRA BKN013 FEW030CB OVC200 24/22Q1010 A2983 HR94 CB/TS SE/E RWY WET OPR=METAR SLCP 051800Z 34008KT 4000 -RA BKN013 OVC070 26/25 Q1012 A2988HR92 RWY WET OPR=METAR SLSI 051800Z 33008KT 9999 SCT017 FEW025CB 31/23 Q1009 A2980HR62 CB S/SW RWY NML=METAR SLTI 051800Z 36006KT 9999 SCT017 33/22 Q1012 A2988 HR55 RWY NMLMETAR SLJE 051800Z 00000KT 8000 TS VCSH FEW013 SCT017 FEW030CB OVC07023/23 Q1013 A2991 HR96 CB/TS/SH E/S/SW RERA RWY WET OPR=METAR SLVG 051800Z 35005KT 9999 FEW023 BKN070 22/14 Q1021 A3015 HR57RWY NML=METAR SLRB 051800Z 00000KT 9999 BKN017 30/23 Q1010 A2983 HR67 RWY NMLMETAR SLPS 051800Z 09006KT 9999 FEW017 BKN070 32/26 Q1008 A2977 HR71=METAR SLCA 051800Z 00000KT 9999 BKN033 FEW040CB 32/19 Q1011 A2985HR47 CB NE RWY NML=
ZPX0595 051852@CAELT@GG SLZZYMYT@CAELT@051851 SLPSYGYS@CAELT@SABO SLPS 051900@CAELT@METAR SLPS 051900Z 09004KT 9999 FEW017 SCT200 33/26 Q1007 A2974 HR70=@CAELT@
ZPX0596 051853@CAELT@GG SLZZYMYT@CAELT@051753 SLETYMYC@CAELT@SABO SLET 051800@CAELT@METAR SLET 051800Z 31006KT 4000 -RA SCT010 BKN015 OVC070 21/20 Q1009@CAELT@A2982 HR96 NOSIG=@CAELT@
