
ZPX0014 100054@CAELT@GG SLZZYMYT@CAELT@100055 SLVRYGYZ@CAELT@SABO SLVR 100100@CAELT@METAR SLVR 100100Z 33007KT 6000 NSC 24/21 Q1011 A2985 HR84 FU CI@CAELT@NOSIG=@CAELT@
ZPX0016 100055@CAELT@GG SLLPZRZX@CAELT@100055 SLLPYGYZ@CAELT@SABO SLLP 100100@CAELT@METAR SLLP 100100Z 10009KT 9999 FEW015 FEW017CB BKN200 09/03 Q1036@CAELT@A3062 627.2 HR67 CB/LT/NE FU AC NOSIG=@CAELT@
ZPX0017 100055@CAELT@GG SLZZYMYT@CAELT@100055 SLCBYGYZ@CAELT@SABO SLCB 100100@CAELT@METAR SLCB 100100Z 19006KT 9999 FEW036 SCT200 19/04 Q1022 A3020 749.5@CAELT@HR38 FU NOSIG=@CAELT@
ZPX0044 100154@CAELT@GG SLZZYMYT@CAELT@100155 SLVRYGYZ@CAELT@SABO SLVR 100200@CAELT@METAR SLVR 100200Z 34006KT 6000 NSC 24/22 Q1012 A2989 HR86 FU CI@CAELT@NOSIG=@CAELT@
ZPX0045 100155@CAELT@GG SLLPZRZX@CAELT@100155 SLLPYGYZ@CAELT@SABO SLLP 100200@CAELT@METAR SLLP 100200Z 12013KT 6000 -TSRA SCT010 FEW017CB BKN070 BKN200@CAELT@08/05 Q1038 A3066 628.2 HR78 CB/LT/ON STN SE/S/SW NOSIG=@CAELT@
ZPX0046 100156@CAELT@GG SLZZYMYT@CAELT@100156 SLCBYGYZ@CAELT@SABO SLCB 100200@CAELT@METAR SLCB 100200Z 28003KT 9999 FEW036 19/05 Q1023 A3022 750.0 HR39@CAELT@FU CI NOSIG=@CAELT@
ZPX0060 100255@CAELT@GG SLZZYMYT@CAELT@100255 SLVRYGYZ@CAELT@SABO SLVR 100300@CAELT@METAR SLVR 100300Z 34006KT 6000 NSC 23/21 Q1012 A2989 HR86 FU CI@CAELT@NOSIG=@CAELT@
ZPX0061 100257@CAELT@GG SLLPZRZX@CAELT@100257 SLLPYGYZ@CAELT@SABO SLLP 100300@CAELT@METAR SLLP 100300Z 12012KT 8000 VCTSSH FEW004 FEW017CB SCT070@CAELT@BKN200 05/04 Q1039 A3069 628.7 HR88 CB/LT/SH NE/E/SE TS/SE NOSIG=@CAELT@
ZPX0062 100258@CAELT@GG SLZZYMYT@CAELT@100257 SLCBYGYZ@CAELT@SABO SLCB 100300@CAELT@METAR SLCB 100300Z 00000KT 9999 NSC 18/05 Q1023 A3022 750.2 HR41 FU@CAELT@NOSIG=@CAELT@
ZPX0072 100354@CAELT@GG SLZZYMYT@CAELT@100355 SLVRYGYZ@CAELT@SABO SLVR 100400@CAELT@METAR SLVR 100400Z 34006KT 7000 NSC 23/21 Q1012 A2989 HR86 FU CI@CAELT@NOSIG=@CAELT@
ZPX0073 100355@CAELT@GG SLLPZRZX@CAELT@100355 SLLPYGYZ@CAELT@SABO SLLP 100400@CAELT@METAR SLLP 100400Z 07012KT 4000E VCFG FEW003 FEW017CB BKN200 04/04@CAELT@Q1038 A3067 628.3 HR95 VCFG NE/E CB/LT SE AC RETS NOSIG=@CAELT@
ZPX0074 100356@CAELT@GG SLZZYMYT@CAELT@100355 SLCBYGYZ@CAELT@SABO SLCB 100400@CAELT@METAR SLCB 100400Z 00000KT 9999 NSC 17/04 Q1023 A3023 750.4 HR43 FU@CAELT@NOSIG=@CAELT@
ZPX0084 100455@CAELT@GG SLZZYMYT@CAELT@100455 SLVRYGYZ@CAELT@SABO SLVR 100500@CAELT@METAR SLVR 100500Z 33008KT 7000 NSC 23/21 Q1012 A2989 HR87 FU CI@CAELT@NOSIG=@CAELT@
ZPX0085 100457@CAELT@GG SLZZYMYT@CAELT@100455 SLCBYGYZ@CAELT@SABO SLCB 100500@CAELT@METAR SLCB 100500Z 00000KT 9999 FEW036 FEW040CB 17/04 Q1023 A3022 750@CAELT@.2 HR43 CB/LT SW FU CI NOSIG=@CAELT@
ZPX0086 100457@CAELT@GG SLLPZRZX@CAELT@100456 SLLPYGYZ@CAELT@SABO SLLP 100500@CAELT@METAR SLLP 100500Z 06006KT 9999 FEW004 BKN200 04/02 Q1037 A3064@CAELT@627.6 HR86 AC NOSIG=@CAELT@
ZPX0094 100555@CAELT@GG SLZZYMYT@CAELT@100556 SLVRYGYZ@CAELT@SABO SLVR 100600@CAELT@METAR SLVR 100600Z 35007KT 7000 SCT017 BKN200 23/20 Q1012 A2989 HR87@CAELT@FU NOSIG=@CAELT@
ZPX0095 100556@CAELT@GG SLLPZRZX@CAELT@100555 SLLPYGYZ@CAELT@SABO SLLP 100600@CAELT@METAR SLLP 100600Z 12004KT 9999 FEW005 SCT200 05/02 Q1036 A3062@CAELT@627.2 HR77 NOSIG=@CAELT@
ZPX0096 100556@CAELT@GG SLZZYMYT@CAELT@100555 SLCBYGYZ@CAELT@SABO SLCB 100600@CAELT@METAR SLCB 100600Z 24010G20KT 9999 TS FEW036 FEW040CB BKN070@CAELT@16/07 Q1024 A3025 750.9 HR54 CB/TS S/SW/W FU BECMG TSRA=@CAELT@
ZPX0103 100653@CAELT@GG SLZZYMYT@CAELT@100655 SLVRYGYZ@CAELT@SABO SLVR 100700@CAELT@METAR SLVR 100700Z 34008KT 9000 BKN017 BKN200 23/21 Q1011 A2987 HR88@CAELT@FU NOSIG=@CAELT@
ZPX0104 100656@CAELT@GG SLLPZRZX@CAELT@100656 SLLPYGYZ@CAELT@SABO SLLP 100700@CAELT@METAR SLLP 100700Z 06004KT 9999 FEW017CB SCT200 03/01 Q1036 A3061 627@CAELT@.0 HR87 CB/LT DIST/N NOSIG=@CAELT@
ZPX0105 100656@CAELT@GG SLZZYMYT@CAELT@100656 SLCBYGYZ@CAELT@SABO SLCB 100700@CAELT@METAR SLCB 100700Z 29010KT 8000 -TSRA FEW036 FEW040CB OVC070 13/10@CAELT@Q1025 A3028 751.8 HR79 CB/TS S/SW NOSIG=@CAELT@
ZPX0114 100753@CAELT@GG SLZZYMYT@CAELT@100755 SLVRYGYZ@CAELT@SABO SLVR 100800@CAELT@METAR SLVR 100800Z 34008KT 9000 BKN017 BKN200 23/21 Q1011 A2987 HR88@CAELT@FU NOSIG=@CAELT@
ZPX0115 100755@CAELT@GG SLLPZRZX@CAELT@100755 SLLPYGYZ@CAELT@SABO SLLP 100800@CAELT@METAR SLLP 100800Z 06004KT 9999 FEW017CB SCT200 02/01 Q1036 A3061 626@CAELT@.9 HR92 CB/LT DIST/N NOSIG=@CAELT@
ZPX0116 100756@CAELT@GG SLZZYMYT@CAELT@100755 SLCBYGYZ@CAELT@SABO SLCB 100800@CAELT@METAR SLCB 100800Z 35005KT 9000 -RA FEW020 SCT030 SCT036CB OVC070@CAELT@13/10 Q1025 A3027 751.5 HR84 CB/ON STN RETS NOSIG=@CAELT@
ZPX0126 100854@CAELT@GG SLZZYMYT@CAELT@100855 SLVRYGYZ@CAELT@SABO SLVR 100900@CAELT@METAR SLVR 100900Z 34007KT 9000 BKN017 BKN200 23/21 Q1012 A2989 HR88@CAELT@FU NOSIG=@CAELT@
ZPX0127 100855@CAELT@GG SLZZYMYT@CAELT@100855 SLTRYGYZ@CAELT@SABO SLTR 100900@CAELT@METAR SLTR 100900Z 00000KT 7000 VCSH SCT005 FEW020CB BKN070 24/23@CAELT@Q1011 A2986 992.8 HR95 CB/SH N/NE/E TEMPO SHRA=@CAELT@
ZPX0128 100855@CAELT@GG SLZZYMYT@CAELT@100854 SLPSYGYS@CAELT@SABO SLPS 100900@CAELT@METAR SLPS 100900Z 00000KT 8000 NSC 22/22 Q1012 A2989 HR97 FU CI=@CAELT@
ZPX0129 100857@CAELT@GG SLZZYMYT@CAELT@100857 SLCBYGYZ@CAELT@SABO SLCB 100900@CAELT@METAR SLCB 100900Z 21004KT 9999 FEW020 SCT030 BKN070 13/10 Q1024@CAELT@A3026 751.2 HR87 FU NOSIG=@CAELT@
ZPX0130 100857@CAELT@GG SLLPZRZX@CAELT@100856 SLLPYGYZ@CAELT@SABO SLLP 100900@CAELT@METAR SLLP 100900Z 09004KT 9999 FEW005 FEW017CB SCT200 01/01 Q1036@CAELT@A3062 627.1 HR96 CB/LT DIST/N NOSIG=@CAELT@
ZPX0132 100902@CAELT@GG SLZZYMYT@CAELT@100900 SLTRYGYS@CAELT@SABO SLTR 100900@CAELT@METAR SLTR 100900Z 00000KT 7000 VCSH SCT005 FEW020CB BKN070 24/23@CAELT@Q1011 A2986 992.8 HR95 CB/SH N/NE/E TEMPO SHRA=@CAELT@METAR SLRI 100900Z 00000KT 9999 SCT015 BKN080 23/23 Q1011 A2987 HR97=@CAELT@
ZPX0154 100952@CAELT@GG SLZZYMYT@CAELT@100951 SLETYMYC@CAELT@SABO SLET@CAELT@METAR SLET 33010KT 8000 SCT017 23/20 Q1012 A2989 HR88 FU NOSIG=@CAELT@
ZPX0156 100953@CAELT@GG SLZZYMYT@CAELT@100952 SLPSYGYS@CAELT@SABO SLPS 101000@CAELT@METAR SLPS 101000Z 00000KT 8000 FEW070 SCT200 24/23 Q1012 A2989 HR91@CAELT@
ZPX0157 100954@CAELT@GG SLZZYMYT@CAELT@100953 SLCAYGYS@CAELT@SABO SLCA 101000@CAELT@METAR SLCA 101000Z 00000KT 9999 BKN033 OVC070 22/16 Q1016 A3000 HR69@CAELT@FU RWY NML=@CAELT@
ZPX0158 100954@CAELT@GG SLZZYMYT@CAELT@100953 SLRBYGYS@CAELT@SABO SLRB 101000@CAELT@METAR SLRB 101000Z 00000KT 9999 SCT070 26/22 Q1014 A2994 HR78 RWY NML=@CAELT@
ZPX0159 100954@CAELT@GG SLZZYMYT@CAELT@100955 SLVRYGYZ@CAELT@SABO SLVR 101000@CAELT@METAR SLVR 101000Z 34005KT 8000 BKN017 BKN200 23/21 Q1013 A2992 HR88@CAELT@FU NOSIG=@CAELT@
ZPX0160 100954@CAELT@GG SLZZYMYT@CAELT@100954 SLVRYGYS@CAELT@SABO SLET 101000@CAELT@METAR SLET 101000Z 33010KT 8000 SCT017 23/20 Q1012 A2989 HR88 FU@CAELT@NOSIG=@CAELT@
ZPX0161 100954@CAELT@GG SLZZYMYT@CAELT@100954 SLSBYSYX@CAELT@SABO SLSB 101000@CAELT@METAR SLSB 101000Z 00000KT 8000 BKN017 BKN200 22/22 Q1011 A2988 HR99@CAELT@FU RWY NML=@CAELT@
ZPX0162 100955@CAELT@GG SLZZYMYT@CAELT@100953 SLSAYGYS@CAELT@SABO SLSA 101000@CAELT@METAR SLSA 101000Z 00000KT 9999 SCT017 FEW023CB BKN200 24/23@CAELT@Q1011 A2986 HR96 CB/SH SW/W=@CAELT@
ZPX0163 100955@CAELT@GG SLZZYMYT@CAELT@100955 SLVRYGYS@CAELT@SABO SLVR 101000@CAELT@METAR SLVR 101000Z 34005KT 8000 BKN017 BKN200 23/21 Q1013 A2992 HR88@CAELT@FU NOSIG=@CAELT@
ZPX0164 100955@CAELT@GG SLZZYMYT@CAELT@100955 SLTRYGYZ@CAELT@SABO SLTR 101000@CAELT@METAR SLTR 101000Z 00000KT 8000 VCSH SCT015 FEW020CB BKN080 24/23@CAELT@Q1011 A2988 993.3 HR96 RESHRA CB/SH SE/S NOSIG=@CAELT@
ZPX0165 100956@CAELT@GG SLZZYMYT@CAELT@100956 SLLPYGYZ@CAELT@SABO SLLP 101000@CAELT@METAR SLLP 101000Z VRB02KT 9999 FEW017CB BKN200 02/01 Q1037 A3063 627@CAELT@.4 HR94 P4950 CB N/NE AC NOSIG=@CAELT@
ZPX0166 100956@CAELT@GG SLZZYMYT@CAELT@100955 SLLPYFYA@CAELT@SABO SLRY 101000@CAELT@METAR SLRY 101000Z 00000KT 6000 TS BKN012 FEW023CB OVC070 23/22@CAELT@Q1010 A2983 HR98 CB/TS/NW FU RWY NML=@CAELT@
ZPX0167 100956@CAELT@GG SLZZYMYT@CAELT@100956 SLCBYGYZ@CAELT@SABO SLCB 101000@CAELT@METAR SLCB 101000Z 00000KT 9999 FEW030 SCT070 BKN200 13/11 Q1024@CAELT@A3026 751.1 HR86 FU NOSIG=@CAELT@
ZPX0168 100956@CAELT@GG SLZZYMYT@CAELT@100956 SLUYYGYS@CAELT@SABO SLUY 101000@CAELT@METAR SLUY 101000Z 03004KT 9999 NSC M02/M09 Q1034 A3053 658.3@CAELT@HR56 CI=@CAELT@
ZPX0169 100957@CAELT@GG SLZZYMYT@CAELT@100955 SLRQYSYX@CAELT@SABO SLRQ 101000@CAELT@METAR SLRQ 101000Z 00000KT 5000 TS FU BKN012 FEW017CB OVC070 23/23@CAELT@Q1011 A2987 987.5 HR99 CB/TS N/NE=@CAELT@
ZPX0170 100957@CAELT@GG SLZZYMYT@CAELT@100957 SLRQYSYX@CAELT@SABO SLRQ 101000@CAELT@METAR SLRQ 101000Z 00000KT 5000 TS FU BKN012 FEW017CB OVC070 23/23@CAELT@Q1011 A2987 987.5 HR99 CB/TS N/NE=@CAELT@
ZPX0171 100959@CAELT@GG SLZZYMYT@CAELT@100959 SLCOYGYZ@CAELT@SABO SLCO 101000@CAELT@METAR SLCO 101000Z 00000KT 6000 BKN080 23/22 Q1011 A2988 984.3 HR92@CAELT@
ZPX0172 100959@CAELT@GG SLZZYMYT@CAELT@100959 SLVRYGYS@CAELT@SABO SLVR 101000@CAELT@METAR SLVR 101000Z 34005KT 8000 BKN017 BKN200 23/21 Q1013 A2992 HR88@CAELT@FU NOSIG=@CAELT@METAR SLET 101000Z 33010KT 8000 SCT017 23/20 Q1012 A2989 HR88 FU@CAELT@NOSIG=@CAELT@METAR SLCP 101000Z 00000KT 4000 FU SCT017 BKN070 22/21 Q1016 A3000HR92 RWY NML=METAR SLSI 101000Z 00000KT 9999 BKN070 22/21 Q1013 A2991 HR92 RWY NMLMETAR SLRB 101000Z 00000KT 9999 SCT070 26/22 Q1014 A2994 HR78 RWY NMLMETAR SLPS 101000Z 00000KT 8000 FEW070 SCT200 24/23 Q1012 A2989 HR91METAR SLCA 101000Z 00000KT 9999 BKN033 OVC070 22/16 Q1016 A3000 HR69FU RWY NML=
ZPX0174 101001@CAELT@GG SLZZYMYT@CAELT@101000 SLTRYGYS@CAELT@SABO SLTR 101000@CAELT@METAR SLTR 101000Z 00000KT 8000 VCSH SCT015 FEW020CB BKN080 24/23@CAELT@Q1011 A2988 993.3 HR96 RESHRA CB/SH SE/S NOSIG=@CAELT@METAR SLGM 101000Z 00000KT 9999 FEW020 BKN080 BKN200 23/22 Q1011@CAELT@A2986 HR94=@CAELT@METAR SLRI 101000Z 36006KT 8000 VCSH BKN015 FEW020CB BKN080 23/23Q1012 A2989 HR97 CB/SH N/NE/NW=METAR SLJO 101000Z 00000KT 8000 VCSH FEW020 FEW023CB OVC070 24/23Q1011 A2987 HR98 CB/SH NW RWY HUM OPR=METAR SLRA 101000Z 00000KT 8000 VCSH SCT015 FEW023CB BKN080 24/23Q1011 A2986 HR96 CB/SH SE/W RWY HUM OPR=METAR SLMG 101000Z 00000KT 9999 FEW020 BKN080 24/23 Q1011 A2987 HR95RWY NML=METAR SLBU 101000Z NIL=METAR SLSA 101000Z 00000KT 9999 SCT017 FEW023CB BKN200 24/23 Q1011A2986 HR96 CB/SH SW/W=METAR SLSR 101000Z 00000KT 8000 FEW017 FEW023CB SCT080 BKN200 22/21Q1009 A2980 HR96 CB NE/S/SW FU RWY OPR C206=METAR SLSM 101000Z NIL=
ZPX0175 101001@CAELT@GG SLZZYMYT@CAELT@101000 SLLPYFYA@CAELT@SABO SLLP 101000@CAELT@METAR SLLP 101000Z VRB02KT 9999 FEW017CB BKN200 02/01 Q1037 A3063@CAELT@627.4 HR94 P4950 CB N/NE AC NOSIG=@CAELT@METAR SLCO 101000Z 00000KT 6000 BKN080 23/22 Q1011 A2988 984.3@CAELT@HR92 FU=@CAELT@METAR SLRY 101000Z 00000KT 6000 TS BKN012 FEW023CB OVC070 23/22Q1010 A2983 HR98 CB/TS/NW FU RWY NML=METAR SLRQ 101000Z 00000KT 5000 TS FU BKN012 FEW017CB OVC070 23/23Q1011 A2987 987.5 HR99 CB/TS N/NE=METAR SLAP 101000Z 00000KT 7000 BKN020 OVC070 19/18 Q1017 A3006858.5 HR91 FU=METAR SLSB 101000Z 00000KT 8000 BKN017 BKN200 22/22 Q1011 A2988HR99 FU RWY NML=METAR SLUY 101000Z 03004KT 9999 NSC M02/M09 Q1034 A3053 658.3HR56 CI=
ZPX0176 101001@CAELT@GG SLZZYMYT@CAELT@101000 SLCBYGYS@CAELT@SABO SLCB 101000@CAELT@METAR SLCB 101000Z 00000KT 9999 FEW030 SCT070 BKN200 13/11 Q1024@CAELT@A3026 751.1 HR86 FU NOSIG=@CAELT@METAR SLAL 101000Z 34004KT 7000 FEW010 SCT200 10/09 Q1028 A3036 703.0@CAELT@HR91 FU=@CAELT@
ZPX0190 101050@CAELT@GG SLZZYMYT@CAELT@101044 SLETYMYC@CAELT@SABO SLET@CAELT@METAR SLET 101100Z 30010KT 9999 BKN016 24/21 Q1012 A29.91 HR84 NOSIG=@CAELT@
ZPX0193 101053@CAELT@GG SLZZYMYT@CAELT@101053 SLVRYGYS@CAELT@SABO SLET 101100@CAELT@METAR SLET 101100Z 30010KT 9999 BKN016 24/21 Q1012 A2991 HR84 NOSIG=@CAELT@
ZPX0194 101053@CAELT@GG SLZZYMYT@CAELT@101053 SLPSYGYS@CAELT@SABO SLPS 101100@CAELT@METAR SLPS 101100Z 00000KT 8000 FEW070 SCT200 25/23 Q1013 A2992 HR89@CAELT@
ZPX0197 101054@CAELT@GG SLZZYMYT@CAELT@101055 SLLPYFYA@CAELT@SABO SLRY 101100@CAELT@METAR SLRY 101100Z 00000KT 5000 VCSH SCT006 BKN012 OVC070 23/22@CAELT@Q1011 A2987 HR96 SH W/NW FU RETS RWY NML=@CAELT@
ZPX0198 101054@CAELT@GG SLZZYMYT@CAELT@101055 SLVRYGYZ@CAELT@SABO SLVR 101100@CAELT@METAR SLVR 101100Z 34008KT 8000 BKN017 BKN200 24/21 Q1013 A2993 HR86@CAELT@FU NOSIG=@CAELT@
ZPX0199 101054@CAELT@GG SLZZYMYT@CAELT@101055 SLORYGYZ@CAELT@SABO SLOR 101100@CAELT@METAR SLOR 101100Z 16004KT 9999 NSC 06/M03 Q1035 A3059 656.5 HR52 FU@CAELT@SE/S/SW/NW CI=@CAELT@
ZPX0200 101054@CAELT@GG SLZZYMYT@CAELT@101055 SLORYGYZ@CAELT@SABO SLOR 101100@CAELT@METAR SLOR 101100Z 16004KT 9999 NSC 06/M03 Q1035 A3059 656.5 HR52 FU@CAELT@SE/S/SW/NW CI=@CAELT@
ZPX0203 101054@CAELT@GG SLZZYMYT@CAELT@101053 SLRBYGYS@CAELT@SABO SLRB 101100@CAELT@METAR SLRB 101100Z 00000KT 9999 SCT070 28/22 Q1015 A2997 HR72 RWY NML=@CAELT@
ZPX0204 101054@CAELT@GG SLZZYMYT@CAELT@101055 SLVRYGYS@CAELT@SABO SLVR 101100@CAELT@METAR SLVR 101100Z 34008KT 8000 BKN017 BKN200 24/21 Q1013 A2993 HR86@CAELT@FU NOSIG=@CAELT@
ZPX0205 101054@CAELT@GG SLZZYMYT@CAELT@101054 SLCAYGYS@CAELT@SABO SLCA 101100@CAELT@METAR SLCA 101100Z 00000KT 9999 BKN080 BKN200 23/16 Q1016 A3000 HR67@CAELT@FU RWY NML=@CAELT@
ZPX0206 101055@CAELT@GG SLZZYMYT@CAELT@101055 SLSAYGYS@CAELT@SABO SLSA 101000@CAELT@METAR SLSA 101100Z 00000KT 9999 SCT017 BKN200 24/23 Q1011 A2987 HR96=@CAELT@
ZPX0207 101055@CAELT@GG SLZZYMYT@CAELT@101055 SLCOYGYZ@CAELT@SABO SLCO 101100@CAELT@METAR SLCO 101100Z 21004KT 7000 BKN080 24/22 Q1012 A2989 984.7 HR90@CAELT@
ZPX0208 101055@CAELT@GG SLZZYMYT@CAELT@101055 SLLPYGYZ@CAELT@SABO SLLP 101100@CAELT@METAR SLLP 101100Z VRB02KT 9999 FEW015 BKN200 03/02 Q1038 A3065@CAELT@627.9 HR93 P4350 HZ SW/W/NW AC NOSIG=@CAELT@
ZPX0209 101055@CAELT@GG SLZZYMYT@CAELT@101055 SLUYYGYS@CAELT@SABO SLUY 101100@CAELT@METAR SLUY 101100Z 01004KT 9999 NSC 05/M05 Q1035 A3056 659.0@CAELT@HR51 CI=@CAELT@
ZPX0210 101056@CAELT@GG SLZZYMYT@CAELT@101055 SLCBYGYZ@CAELT@SABO SLCB 101100@CAELT@METAR SLCB 101100Z 07004KT 9999 FEW080 BKN200 16/10 Q1025 A3027 751.4@CAELT@HR69 FU NOSIG=@CAELT@
ZPX0211 101056@CAELT@GG SLZZYMYT@CAELT@101055 SLSBYSYX@CAELT@SABO SLSB 101100@CAELT@METAR SLSB 101100Z 00000KT 8000 BKN017 BKN200 23/22 Q1013 A2992 HR98@CAELT@FU RWY NML=@CAELT@
ZPX0213 101057@CAELT@GG SLZZYMYT@CAELT@101056 SLTRYGYZ@CAELT@SABO SLTR 101100@CAELT@METAR SLTR 101100Z 00000KT 9999 FEW015 BKN200 24/23 Q1012 A2990@CAELT@993.9 HR97 AC NOSIG=@CAELT@
ZPX0214 101057@CAELT@GG SLZZYMYT@CAELT@101055 SLRQYSYX@CAELT@SABO SLRQ 101100@CAELT@METAR SLRQ 101100Z 00000KT 5000 -SHRA FEW008 BKN012 OVC070 24/24@CAELT@Q1012 A2989 988.1 HR99 RETS FU=@CAELT@
ZPX0215 101058@CAELT@GG SLZZYMYT@CAELT@101057 SLTJYGYZ@CAELT@SABO SLTJ 101100@CAELT@METAR SLTJ 101100Z 00000KT 8000 SCT020 BKN200 17/14 Q1020 A3013 815.1@CAELT@HR83 FU=@CAELT@
ZPX0216 101059@CAELT@GG SLZZYMYT@CAELT@101059 SLLPYFYA@CAELT@SABO SLLP 101100@CAELT@METAR SLLP 101100Z VRB02KT 9999 FEW015 BKN200 03/02 Q1038 A3065@CAELT@627.9 HR93 P4350 HZ SW/W/NW AC NOSIG=@CAELT@METAR SLCO 101100Z 21004KT 7000 BKN080 24/22 Q1012 A2989 984.7 HR90@CAELT@METAR SLRY 101100Z 00000KT 5000 VCSH SCT006 BKN012 OVC070 23/22@CAELT@Q1011 A2987 HR96 SH W/NW FU RETS RWY NML=METAR SLRQ 101100Z 00000KT 5000 -SHRA FEW008 BKN012 OVC070 24/24Q1012 A2989 988.1 HR99 RETS FU=METAR SLAP 101100Z 00000KT 7000 BKN020 OVC070 20/18 Q1019 A3010859.6 HR87 FU=METAR SLSB 101100Z 00000KT 8000 BKN017 BKN200 23/22 Q1013 A2992 HR98FU RWY NML=METAR SLOR 101100Z 16004KT 9999 NSC 06/M03 Q1035 A3059 656.5 HR52 FUSE/S/SW/NW CI=METAR SLUY 101100Z 01004KT 9999 NSC 05/M05 Q1035 A3056 659.0HR51 CI=
ZPX0217 101059@CAELT@GG SLZZYMYT@CAELT@101058 SLTRYGYS@CAELT@SABO SLTR 101100@CAELT@METAR SLTR 101100Z 00000KT 9999 FEW015 BKN200 24/23 Q1012 A2990@CAELT@993.9 HR97 AC NOSIG=@CAELT@METAR SLGM 101100Z 36005KT 8000 VCSH FEW015 BKN080 BKN200 24/23@CAELT@Q1011 A2988 HR93 SH N/NW=@CAELT@METAR SLRI 101100Z 36008KT 8000 VCSH BKN015 FEW020CB BKN080 23/23Q1013 A2991 HR97 CB/SH N/W/NW=METAR SLJO 101100Z 36003KT 8000 VCSH SCT017 FEW023CB OVC070 24/23Q1011 A2988 HR96 CB/SH W RWY HUM OPR=METAR SLRA 101100Z 09004KT 8000 VCSH SCT020 FEW023CB BKN080 24/23Q1011 A2987 HR95 CB/SH SE/SW RWY HUM OPR=METAR SLMG 101100Z 00000KT 9999 BKN080 24/23 Q1011 A2987 HR92RWY NML=METAR SLBU 101100Z NIL=METAR SLSA 101100Z 00000KT 9999 SCT017 BKN200 24/23 Q1011 A2987 HR96=METAR SLSR 101100Z 00000KT 8000 FEW017 FEW023CB SCT080 BKN200 23/22Q1011 A2985 HR93 FU CB NE/SW/W RWY WET OPR C206=METAR SLSM 101100Z 00000KT 3000 BR SCT017 SCT200 22/22 Q1013 A2991HR99 RWY HUM OPR=
ZPX0220 101100@CAELT@GG SLZZYMYT@CAELT@101100 SLCBYGYS@CAELT@SABO SLCB 101100@CAELT@METAR SLCB 101100Z 07004KT 9999 FEW080 BKN200 16/10 Q1025 A3027 751.4@CAELT@HR69 FU NOSIG=@CAELT@METAR SLAL 101100Z 36004KT 7000 FEW010 SCT200 11/09 Q1028 A3038 703.4@CAELT@HR84 FU=@CAELT@METAR SLTJ 101100Z 00000KT 8000 SCT020 BKN200 17/14 Q1020 A3013 815.1HR83 FU=METAR SLYA 101100Z 00000KT 9999 BKN070 24/19 Q1012 A2991 937.6 HR74=
ZPX0221 101100@CAELT@GG SLZZYMYT@CAELT@101100 SLVRYGYS@CAELT@SABO SLVR 101100@CAELT@METAR SLVR 101100Z 34008KT 8000 BKN017 BKN200 24/21 Q1013 A2993 HR86@CAELT@FU NOSIG=@CAELT@METAR SLET 101100Z 30010KT 9999 BKN016 24/21 Q1012 A2991 HR84 NOSIG=@CAELT@METAR SLAS 101100Z 36004KT 9999 FEW020 BKN070 24/21 Q1015 A2997 HR87@CAELT@FU RWY NML=METAR SLJV 101100Z 36005KT 9999 BKN023 21/20 Q1013 A2991 HR97 RWY NMLMETAR SLCP 101100Z 00000KT 5000 FU BKN070 22/21 Q1016 A3000 HR92 RWYNML=METAR SLSI 101100Z 00000KT 9999 BKN070 23/21 Q1014 A2994 HR86 RWY NMLMETAR SLTI 101100Z 00000KT 9999 BKN015 OVC070 26/21 Q1017 A3003 HR72SH N RWY NML=METAR SLJE 101100Z 00000KT 9999 BKN070 25/21 Q1016 A3000 HR77 RWY NMLMETAR SLRB 101100Z 00000KT 9999 SCT070 28/22 Q1015 A2997 HR72 RWY NMLMETAR SLPS 101100Z 00000KT 8000 FEW070 SCT200 25/23 Q1013 A2992 HR89METAR SLCA 101100Z 00000KT 9999 BKN080 BKN200 23/16 Q1016 A3000 HR67
ZPX0244 101151@CAELT@GG SLZZYMYT@CAELT@101151 SLCAYGYS@CAELT@SABO SLCA 101200@CAELT@METAR SLCA 101200Z 00000KT 9999 NSC 25/16 Q1016 A3000 HR58 FU CS RWY@CAELT@NML=@CAELT@
ZPX0246 101152@CAELT@GG SLZZYMYT@CAELT@101152 SLPSYGYS@CAELT@SABO SLPS 101200@CAELT@METAR SLPS 101200Z 09004KT 8000 SCT070 BKN200 27/24 Q1013 A2992 HR85@CAELT@
ZPX0247 101154@CAELT@GG SLZZYMYT@CAELT@101155 SLVRYGYZ@CAELT@SABO SLVR 101200@CAELT@METAR SLVR 101200Z 35010KT 8000 BKN017 BKN200 25/22 Q1014 A2995 HR83@CAELT@FU NOSIG=@CAELT@
ZPX0248 101154@CAELT@GG SLZZYMYT@CAELT@101155 SLORYGYZ@CAELT@SABO SLOR 101200@CAELT@METAR SLOR 101200Z 19003KT 9999 NSC 09/M06 Q1036 A3061 656.9 HR35 FU@CAELT@S/SW CI=@CAELT@
ZPX0249 101154@CAELT@GG SLZZYMYT@CAELT@101155 SLCOYGYZ@CAELT@SABO SLCO 101200@CAELT@METAR SLCO 101200Z 17004KT 7000 SCT080 BKN200 25/23 Q1013 A2992 985.9@CAELT@HR89 FU=@CAELT@
ZPX0250 101155@CAELT@GG SLZZYMYT@CAELT@101153 SLRBYGYS@CAELT@SABO SLRB 101200@CAELT@METAR SLRB 101200Z 00000KT 9999 FEW020 SCT070 28/22 Q1016 A3000 HR72@CAELT@RWY NML=@CAELT@
ZPX0252 101156@CAELT@GG SLZZYMYT@CAELT@101155 SLCBYGYZ@CAELT@SABO SLCB 101200@CAELT@METAR SLCB 101200Z 00000KT 9999 FEW080 BKN200 17/11 Q1025 A3028 751.8@CAELT@HR68 FU NOSIG=@CAELT@
ZPX0253 101156@CAELT@GG SLZZYMYT@CAELT@101156 SLTRYGYZ@CAELT@SABO SLTR 101200@CAELT@METAR SLTR 101200Z 03005KT 9999 FEW008 BKN200 25/24 Q1013 A2992@CAELT@994.6 HR92 NOSIG=@CAELT@
ZPX0254 101156@CAELT@GG SLZZYMYT@CAELT@101155 SLAGYSYX@CAELT@SABO SLAG 101200@CAELT@METAR SLAG 101200Z 00000KT 5000 FU FEW010 BKN070 23/16 Q1017 A3006@CAELT@889.9 HR63=@CAELT@
ZPX0255 101156@CAELT@GG SLZZYMYT@CAELT@101155 SLSAYGYS@CAELT@SABO SLSA 101200@CAELT@METAR SLSA 101200Z 00000KT 9999 FEW017 BKN200 25/24 Q1012 A2989 HR92=@CAELT@
ZPX0256 101157@CAELT@GG SLZZYMYT@CAELT@101156 SLSBYSYX@CAELT@SABO SLSB 101200@CAELT@METAR SLSB 101200Z 00000KTE 8000 BKN017 OVC200 24/23 Q1013 A2993 HR93@CAELT@FU RWY NML=@CAELT@
ZPX0257 101157@CAELT@GG SLZZYMYT@CAELT@101156 SLRQYSYX@CAELT@SABO SLRQ 101200@CAELT@METAR SLRQ 101200Z 15004KT 5000 TS SCT008 BKN012 FEW020CB OVC070 24/@CAELT@23 Q1013 A2992 989.2 HR99 CB/TS E/SE FU RESH=@CAELT@
ZPX0258 101157@CAELT@GG SLZZYMYT@CAELT@101158 SLVRYGYS@CAELT@SABO SLVR 101200@CAELT@METAR SLVR 101200Z 35010KT 8000 BKN017 BKN200 25/22 Q1014 A2995 HR83@CAELT@FU NOSIG=@CAELT@METAR SLET 101200Z 31013KT 9999 BKN017 26/21 Q1013 A2993 HR73 NOSIG=@CAELT@METAR SLAS 101200Z 36010KT 9999 SCT070 BKN200 26/22 Q1015 A2997 HR79@CAELT@FU RWY NML=METAR SLJV 101200Z 36008KT 9999 SCT023 BKN070 22/21 Q1013 A2991 HR94METAR SLCP 101200Z 34004KT 9999 FEW012 BKN070 23/21 Q1017 A3003 HR90METAR SLSI 101200Z 00000KT 9999 BKN070 24/21 Q1015 A2997 HR82 RWY NMLMETAR SLTI 101200Z 00000KT 9999 BKN017 OVC070 26/21 Q1018 A3006 HR75RWY NML=METAR SLJE 101200Z 00000KT 9999 BKN070 26/21 Q1017 A3003 HR74 RWY NMLMETAR SLVG 101200Z 00000KT 9999 SCT017 BKN200 16/12 Q1024 A3024 HR76METAR SLRB 101200Z 00000KT 9999 FEW020 SCT070 28/22 Q1016 A3000 HR72METAR SLPS 101200Z 09004KT 8000 SCT070 BKN200 27/24 Q1013 A2992 HR85METAR SLCA 101200Z 00000KT 9999 NSC 25/16 Q1016 A3000 HR58 FU CS RWYNML=
ZPX0259 101157@CAELT@GG SLZZYMYT@CAELT@101156 SLLPYGYZ@CAELT@SABO SLLP 101200@CAELT@METAR SLLP 101200Z 08004KT 9999 FEW006 BKN200 09/02 Q1038 A3068@CAELT@628.5 HR62 P4352 HZ SW/W/NW AC NOSIG=@CAELT@
ZPX0260 101157@CAELT@GG SLZZYMYT@CAELT@101157 SLUYYGYS@CAELT@SABO SLUY 101200@CAELT@METAR SLUY 101200Z 33010KT 9999 NSC 09/M04 Q1035 A3057 659.2@CAELT@HR41=@CAELT@
ZPX0261 101158@CAELT@GG SLZZYMYT@CAELT@101158 SLTJYGYZ@CAELT@SABO SLTJ 101200@CAELT@METAR SLTJ 101200Z 00000KT 8000 FEW020 19/14 Q1020 A3013 815.2 HR74@CAELT@FU AC CI=@CAELT@
ZPX0263 101200@CAELT@GG SLZZYMYT@CAELT@101200 SLTRYGYS@CAELT@SABO SLTR 101200@CAELT@METAR SLTR 101200Z 03005KT 9999 FEW008 BKN200 25/24 Q1013 A2992@CAELT@994.6 HR92 NOSIG=@CAELT@METAR SLGM 101200Z 03006KT 9999 FEW015 BKN080 25/23 Q1012 A2991 HR89@CAELT@METAR SLRI 101200Z 00000KT 9999 SCT017 BKN080 25/24 Q1013 A2992 HR91=@CAELT@METAR SLJO 101200Z 36004KT 9999 SCT017 FEW023CB OVC070 25/24 Q1012A2991 HR96 CB SE RWY HUM OPR=METAR SLRA 101200Z 09006KT 9999 FEW008 BKN080 25/24 Q1011 A2988 HR95RWY HUM OPR=METAR SLMG 101200Z 03004KT 9999 BKN080 25/22 Q1011 A2988 HR88RWY NML=METAR SLBU 101200Z 03004KT 9999 FEW012 BKN080 25/23 Q1012 A2990 HR89METAR SLSA 101200Z 00000KT 9999 FEW017 BKN200 25/24 Q1012 A2989 HR92=METAR SLSR 101200Z 09004KT 8000 VCSH SCT015 FEW023CB OVC200 24/23Q1012 A2988 HR92 FU CB/SH S/SW/W RWY OPR C206=METAR SLSM 101200Z 00000KT 5000 FU SCT017 SCT200 24/24 Q1013 A2993HR99 RWY HUM OPR=
ZPX0264 101201@CAELT@GG SLZZYMYT@CAELT@101201 SLCBYGYS@CAELT@SABO SLCB 101200@CAELT@METAR SLCB 101200Z 00000KT 9999 FEW080 BKN200 17/11 Q1025 A3028 751.8@CAELT@HR68 FU NOSIG=@CAELT@METAR SLAL 101200Z 35007KT 8000 SCT012 SCT200 13/10 Q1029 A3039 703.7@CAELT@HR79 FU=@CAELT@METAR SLPO 101200Z 23004KT 9999 NSC 09/01 Q1037 A3062 637.3 HR55 FUMETAR SLAG 101200Z 00000KT 5000 FU FEW010 BKN070 23/16 Q1017 A3006889.9 HR63=METTAR SLVM 101200Z NIL=METAR SLTJ 101200Z 00000KT 8000 FEW020 19/14 Q1020 A3013 815.2 HR74FU AC CI=METAR SLYA 101200Z 00000KT 9999 SCT070 27/19 Q1013 A2992 938.0 HR62METAR SLBJ 101200Z NIL=METAR SLHI 101200Z NIL=
ZPX0266 101201@CAELT@GG SLZZYMYT@CAELT@101201 SLLPYFYA@CAELT@SABO SLRY 101200@CAELT@METAR SLRY 101200Z 00000KT 5000 TS FU FEW006 BKN015 FEW023CB@CAELT@OVC070 23/23 Q1011 A2988 HR97 CB TS S/SW RERA RWY HUM OPR=@CAELT@
ZPX0269 101203@CAELT@GG SLZZYMYT@CAELT@101200 SLLPYFYA@CAELT@SABO SLLP 101200@CAELT@METAR SLLP 101200Z 08004KT 9999 FEW006 BKN200 09/02 Q1038 A3068@CAELT@628.5 HR62 P4352 HZ SW/W/NW AC NOSIG=@CAELT@METAR SLCO 101200Z 17004KT 7000 SCT080 BKN200 25/23 Q1013 A2992@CAELT@985.9 HR89 FU=@CAELT@METAR SLRY 101200Z 00000KT 5000 TS FU FEW006 BKN015 FEW023CBOVC070 23/23 Q1011 A2988 HR97 CB TS S/SW RERA RWY HUM OPR=METAR SLRQ 101200Z 15004KT 5000 TS SCT008 BKN012 FEW020CB OVC07024/23 Q1013 A2992 989.2 HR99 CB/TS E/SE FU RESH=METAR SLAP 101200Z 36004KT 7000 BKN020 OVC070 21/17 Q1019 A3011860.0 HR80 FU=METAR SLSB 101200Z 00000KT 8000 BKN017 OVC200 24/23 Q1013 A2993HR93 FU RWY NML=METAR SLOR 101200Z 19003KT 9999 NSC 09/M06 Q1036 A3061 656.9 HR35FU S/SW CI=METAR SLUY 101200Z 33010KT 9999 NSC 09/M04 Q1035 A3057 659.2HR41=
ZPX0275 101217@CAELT@GG SLZZYMYT@CAELT@101217 SLCBYGYS@CAELT@SABO SLCB 101200@CAELT@METAR SLCB 101200Z 00000KT 9999 FEW080 BKN200 17/11 Q1025 A3028 751.8@CAELT@HR68 FU NOSIG=@CAELT@METAR SLAL 101200Z 35007KT 8000 SCT012 SCT200 13/10 Q1029 A3039 703.7@CAELT@HR79 FU=@CAELT@METAR SLPO 101200Z 23004KT 9999 NSC 09/01 Q1037 A3062 637.3 HR55 FUMETAR SLAG 101200Z 00000KT 5000 FU FEW010 BKN070 23/16 Q1017 A3006889.9 HR63=METAR SLVM 101200Z 00000KT 9999 FEW070 26/20 Q1012 A2991 HR72 FU CI=METAR SLTJ 101200Z 00000KT 8000 FEW020 19/14 Q1020 A3013 815.2 HR74FU AC CI=METAR SLYA 101200Z 00000KT 9999 SCT070 27/19 Q1013 A2992 938.0 HR62METAR SLBJ 101200Z NIL=METAR SLHI 101200Z NIL=
ZPX0297 101251@CAELT@GG SLZZYMYT@CAELT@101249 SLETYMYC@CAELT@SABO SLET@CAELT@METAR SLET 101300Z 30013G23KT 9999 BKN017 26/22 Q1013 A29.94 HR75@CAELT@NOSIG=@CAELT@
ZPX0298 101253@CAELT@GG SLZZYMYT@CAELT@101253 SLSBYSYX@CAELT@SABO SLSB 101300@CAELT@METAR SLSB 101300Z 00000KT 8000 BKN017 OVC200 25/23 Q1014 A2993 HR89@CAELT@FU RWY NML=@CAELT@
ZPX0299 101253@CAELT@GG SLZZYMYT@CAELT@101253 SLCAYGYS@CAELT@SABO SLCA 101300@CAELT@METAR SLCA 101300Z 00000KT 9999 NSC 28/17 Q1016 A3000 HR53 FU CS RWY@CAELT@NML=@CAELT@
ZPX0300 101253@CAELT@GG SLZZYMYT@CAELT@101253 SLPSYGYS@CAELT@SABO SLPS 101300@CAELT@METAR SLPS 101300Z 09004KT 8000 BKN070 28/24 Q1014 A2995 HR80 FU=@CAELT@
ZPX0301 101254@CAELT@GG SLZZYMYT@CAELT@101255 SLORYGYZ@CAELT@SABO SLOR 101300@CAELT@METAR SLOR 101300Z 19010KT 9999 NSC 13/M10 Q1036 A3061 657.1 HR19 CI=@CAELT@
ZPX0302 101254@CAELT@GG SLZZYMYT@CAELT@101255 SLUYYGYS@CAELT@SABO SLUY 101300@CAELT@METAR SLUY 101300Z 31012KT 9999 NSC 10/M07 Q1035 A3058 659.4@CAELT@HR30 CI=@CAELT@
ZPX0303 101255@CAELT@GG SLZZYMYT@CAELT@101255 SLCOYGYZ@CAELT@SABO SLCO 101300@CAELT@METAR SLCO 101300Z 09003KT 7000 SCT080 BKN200 27/24 Q1014 A2995 986.8@CAELT@HR87 FU=@CAELT@
ZPX0305 101255@CAELT@GG SLZZYMYT@CAELT@101255 SLTJYGYZ@CAELT@SABO SLTJ 101300@CAELT@METAR SLTJ 101300Z 13005KT 9999 FEW023 21/14 Q1020 A3013 815.3 HR67@CAELT@FU=@CAELT@
ZPX0306 101255@CAELT@GG SLZZYMYT@CAELT@101253 SLRBYGYS@CAELT@SABO SLRB 101300@CAELT@METAR SLRB 101300Z 36006KT 9999 SCT023 BKN070 29/22 Q1017 A3003 HR67@CAELT@RWY NML=@CAELT@
ZPX0307 101255@CAELT@GG SLZZYMYT@CAELT@101255 SLCBYGYZ@CAELT@SABO SLCB 101300@CAELT@METAR SLCB 101300Z 00000KT 9999 FEW036 BKN200 19/10 Q1025 A3029 751.9@CAELT@HR55 FU AC NOSIG=@CAELT@
ZPX0308 101255@CAELT@GG SLZZYMYT@CAELT@101255 SLTRYGYZ@CAELT@SABO SLTR 101300@CAELT@METAR SLTR 101300Z 36008KT 9999 FEW015 BKN200 28/24 Q1013 A2994@CAELT@995.2 HR82 NOSIG=@CAELT@
ZPX0310 101255@CAELT@GG SLZZYMYT@CAELT@101254 SLSAYGYS@CAELT@SABO SLSA 101300@CAELT@METAR SLSA 101300Z 36005KT 9999 FEW017 BKN200 28/24 Q1012 A2991 HR80=@CAELT@
ZPX0311 101256@CAELT@GG SLZZYMYT@CAELT@101255 SLAGYSYX@CAELT@SABO SLAG 101300@CAELT@METAR SLAG 101300Z VRB02KT 5000 FU FEW010 BKN070 25/16 Q1018 A3006@CAELT@890.1 HR58=@CAELT@
ZPX0312 101256@CAELT@GG SLZZYMYT@CAELT@101256 SLLPYGYZ@CAELT@SABO SLLP 101300@CAELT@METAR SLLP 101300Z 11004KT 9999 FEW010 BKN200 12/M00 Q1039 A3069@CAELT@628.7 HR44 P93// FU AC NOSIG=@CAELT@
ZPX0313 101256@CAELT@GG SLZZYMYT@CAELT@101257 SLVRYGYZ@CAELT@SABO SLVR 101300@CAELT@METAR SLVR 101300Z 35012KT 7000 FEW015 BKN017 26/22 Q1014 A2996 HR79@CAELT@FU NOSIG=@CAELT@
ZPX0314 101257@CAELT@GG SLZZYMYT@CAELT@101256 SLRQYSYX@CAELT@SABO SLRQ 101300@CAELT@METAR SLRQ 101300Z 00000KT 5000 FU SCT008 BKN015 OVC070 24/24 Q1013@CAELT@A2994 989.6 HR99 RETS=@CAELT@
ZPX0315 101257@CAELT@GG SLZZYMYT@CAELT@101257 SLTRYGYS@CAELT@SABO SLTR 101300@CAELT@METAR SLTR 101300Z 36008KT 9999 FEW015 BKN200 28/24 Q1013 A2994@CAELT@995.2 HR82 NOSIG=@CAELT@METAR SLGM 101300Z 04008KT 9999 FEW015 BKN080 26/23 Q1013 A2993 HR80=@CAELT@METAR SLRI 101300Z 00000KT 9999 SCT017 BKN080 26/23 Q1015 A2997 HR82=@CAELT@METAR SLJO 101300Z 36004KT 9999 SCT017 BKN080 25/24 Q1013 A2992 HR92RWY HUM OPR=METAR SLRA 101300Z 09006KT 9999 FEW008 BKN080 26/24 Q1013 A2991 HR92RWY NML=METAR SLMG 101300Z 03004KT 9999 FEW015 BKN080 25/23 Q1012 A2990 HR87METAR SLBU 101300Z 00000KT 9999 SCT015 BKN080 26/23 Q1013 A2992 HR85METAR SLSA 101300Z 36005KT 9999 FEW017 BKN200 28/24 Q1012 A2991 HR80=METAR SLSR 101300Z 36006KT 7000 VCSH SCT015 FEW023CB BKN200 26/24Q1013 A2991 HR86 FU CB/SH N/W/NW RWY OPR C206=METAR SLSM 101300Z 33004KT 8000 BKN017 26/24 Q1014 A2995 HR88 FU CI
ZPX0316 101257@CAELT@GG SLZZYMYT@CAELT@101257 SLLPYFYA@CAELT@SABO SLRY 101300@CAELT@METAR SLRY 101300Z 00000KT 5000 VCSH FU SCT006 BKN050 OVC070 24/23@CAELT@Q1012 A2991 HR97 SH S/SW/W RETS RWY HUM OPR=@CAELT@
ZPX0318 101300@CAELT@GG SLZZYMYT@CAELT@101300 SLVRYGYS@CAELT@SABO SLVR 101300@CAELT@METAR SLVR 101300Z 35012KT 7000 FEW015 BKN017 26/22 Q1014 A2996 HR79@CAELT@FU NOSIG=@CAELT@METAR SLET 101300Z 30013G23KT 9999 BKN017 26/22 Q1013 A29.94 HR75@CAELT@NOSIG=@CAELT@METAR SLAS 101300Z 36010KT 9999 FEW017 OVC070 27/22 Q1016 A3000 HR73FU RWY NML=METAR SLJV 101300Z 36010KT 9999 SCT070 BKN200 24/21 Q1014 A2994 HR79RWY NML=METAR SLCP 101300Z 34008KT 9999 FEW013 BKN070 25/21 Q1018 A3006 HR80METAR SLSI 101300Z 36006KT 9999 BKN070 26/21 Q1015 A2997 HR73METAR SLTI 101300Z 00000KT 9999 BKN020 OVC070 26/22 Q1019 A3009HR78 RWY NML=METAR SLJE 101300Z 36006KT 9999 SCT070 31/22 Q1017 A3003 HR59METAR SLVG 101300Z 00000KT 9999 FEW020 BKN200 19/13 Q1025 A3027HR65 RWY NML=METAR SLRB 101300Z 36006KT 9999 SCT023 BKN070 29/22 Q1017 A3003HR67 RWY NML=METAR SLPS 101300Z 09004KT 8000 BKN070 28/24 Q1014 A2995 HR80 FU=METAR SLCA 101300Z 00000KT 9999 NSC 28/17 Q1016 A3000 HR53FU CS RWY NML=
ZPX0320 101302@CAELT@GG SLZZYMYT@CAELT@101302 SLCBYGYS@CAELT@SABO SLCB 101300@CAELT@METAR SLCB 101300Z 00000KT 9999 FEW036 BKN200 19/10 Q1025 A3029 751.9@CAELT@HR55 FU AC NOSIG=@CAELT@METAR SLAL 101300Z 00000KT 8000 SCT015 15/09 Q1029 A3040 703.8 HR68@CAELT@FU CI=@CAELT@METAR SLPO 101300Z 23006KT 9999 NSC 12/M00 Q1037 A3062 637.4 HR45 FUMETAR SLAG 101300Z VRB02KT 5000 FU FEW010 BKN070 25/16 Q1018 A3006890.1 HR58=METAR SLVM 101300Z 00000KT 9999 NSC 29/20 Q1012 A2991 HR61 FU CI=METAR SLTJ 101300Z 13005KT 9999 FEW023 21/14 Q1020 A3013 815.3 HR67FU=METAR SLYA 101300Z 21008KT 9999 SCT070 29/20 Q1013 A2992 938.0 HR57METAR SLBJ 101300Z NIL=METAR SLHI 101300Z NIL=
ZPX0322 101303@CAELT@GG SLZZYMYT@CAELT@101303 SLLPYFYA@CAELT@SABO SLLP 101300@CAELT@METAR SLLP 101300Z 11004KT 9999 FEW010 BKN200 12/M00 Q1039 A3069@CAELT@628.7 HR44 P93// FU AC NOSIG=@CAELT@METAR SLCO 101300Z 09003KT 7000 SCT080 BKN200 27/24 Q1014 A2995 986.8@CAELT@HR87 FU=@CAELT@METAR SLRY 101300Z 00000KT 5000 VCSH FU SCT006 BKN050 OVC070 24/23Q1012 A2991 HR97 SH S/SW/W RETS RWY HUM OPR=METAR SLRQ 101300Z 00000KT 5000 FU SCT008 BKN015 OVC070 24/24 Q1013A2994 989.6 HR99 RETS=METAR SLAP 101300Z 36015KT 9999 BKN020 OVC070 23/18 Q1019 A3011 859.9HR74=METAR SLSB 101300Z 00000KT 8000 BKN017 OVC200 25/23 Q1014 A2993 HR89FU RWY NML=METAR SLOR 101300Z 19010KT 9999 NSC 13/M10 Q1036 A3061 657.1 HR19 CI=METAR SLUY 101300Z 31012KT 9999 NSC 10/M07 Q1035 A3058 659.4HR30 CI=
ZPX0352 101352@CAELT@GG SLZZYMYT@CAELT@101352 SLPSYGYS@CAELT@SABO SLPS 101400@CAELT@METAR SLPS 101400Z 09004KT 8000 FEW020 BKN070 30/23 Q1014 A2995 HR71@CAELT@
ZPX0353 101353@CAELT@GG SLZZYMYT@CAELT@101350 SLCAYGYS@CAELT@SABO SLCA 101400@CAELT@METAR SLCA 101400Z 00000KT 9999 NSC 29/16 Q1016 A3000 HR48 FU CS RWY@CAELT@NML=@CAELT@
ZPX0354 101354@CAELT@GG SLZZYMYT@CAELT@101353 SLRBYGYS@CAELT@SABO SLRB 101400@CAELT@METAR SLRB 101400Z 36008KT 9999 SCT023 BKN070 32/21 Q1016 A3000 HR50@CAELT@RWY NML=@CAELT@
ZPX0355 101355@CAELT@GG SLZZYMYT@CAELT@101353 SLETYMYC@CAELT@SABO SLET 101400@CAELT@METAR SLET 101400Z 33013G23KT 7000 BKN017 26/22 Q1014 A29.95 HR77 FU@CAELT@NOSIG=@CAELT@
ZPX0356 101355@CAELT@GG SLZZYMYT@CAELT@101355 SLORYGYZ@CAELT@SABO SLOR 101400@CAELT@METAR SLOR 101400Z 22005KT 9999 NSC 15/M11 Q1036 A3061 656.9 HR15 CI=@CAELT@
ZPX0357 101355@CAELT@GG SLZZYMYT@CAELT@101355 SLTJYGYZ@CAELT@SABO SLTJ 101400@CAELT@METAR SLTJ 101400Z 16005KT 9999 FEW025 22/14 Q1019 A3012 814.8 HR60@CAELT@FU=@CAELT@
ZPX0358 101355@CAELT@GG SLZZYMYT@CAELT@101355 SLTRYGYZ@CAELT@SABO SLTR 101400@CAELT@METAR SLTR 101400Z 36008KT 9999 FEW015 BKN200 31/24 Q1013 A2994@CAELT@995.3 HR66 NOSIG=@CAELT@
ZPX0360 101355@CAELT@GG SLZZYMYT@CAELT@101355 SLRQYSYX@CAELT@SABO SLRQ 101400@CAELT@METAR SLRQ 101400Z 00000KT 5000 FU SCT008 BKN015 OVC070 24/24 Q1014@CAELT@A2995 990.1 HR99=@CAELT@
ZPX0361 101356@CAELT@GG SLZZYMYT@CAELT@101355 SLCOYGYZ@CAELT@SABO SLCO 101400@CAELT@METAR SLCO 101400Z 04003KT 9999 SCT025 BKN080 28/24 Q1014 A2995 986.8@CAELT@HR82 FU CI=@CAELT@
ZPX0362 101356@CAELT@GG SLZZYMYT@CAELT@101355 SLCBYGYZ@CAELT@SABO SLCB 101400@CAELT@METAR SLCB 101400Z 25004KT 9999 FEW040 BKN200 21/09 Q1025 A3027 751.4@CAELT@HR44 FU NOSIG=@CAELT@
ZPX0363 101356@CAELT@GG SLZZYMYT@CAELT@101355 SLSAYGYS@CAELT@SABO SLSA 101400@CAELT@METAR SLSA 101400Z 36006KT 9999 FEW017 SCT070 BKN200 28/23@CAELT@Q1012 A2991 HR73=@CAELT@
ZPX0364 101356@CAELT@GG SLZZYMYT@CAELT@101357 SLUYYGYS@CAELT@SABO SLUY 101400@CAELT@METAR SLUY 101400Z 31012KT 9999 NSC 11/M09 Q1035 A3058 659.4@CAELT@HR24 CI=@CAELT@
ZPX0366 101357@CAELT@GG SLZZYMYT@CAELT@101357 SLLPYGYZ@CAELT@SABO SLLP 101400@CAELT@METAR SLLP 101400Z 11005KT 9999 FEW015 BKN200 13/M01 Q1039 A3068@CAELT@628.6 HR38 P93// FU AC NOSIG=@CAELT@
ZPX0367 101357@CAELT@GG SLZZYMYT@CAELT@101357 SLVRYGYZ@CAELT@SABO SLVR 101400@CAELT@METAR SLVR 101400Z 36012KT 7000 FEW015 BKN017 26/22 Q1014 A2996 HR80@CAELT@FU TEMPO SHRA=@CAELT@
ZPX0368 101358@CAELT@GG SLZZYMYT@CAELT@101357 SLSBYSYX@CAELT@SABO SLSB 101400@CAELT@METAR SLSB 101400Z 00000KT 8000 SCT012 BKN017 OVC200 25/23 Q1014@CAELT@A2997 HR87 FU RWY NML=@CAELT@
ZPX0369 101358@CAELT@GG SLZZYMYT@CAELT@101357 SLTRYGYS@CAELT@SABO SLTR 101400@CAELT@METAR SLTR 101400Z 36008KT 9999 FEW015 BKN200 31/24 Q1013 A2994@CAELT@995.3 HR66 NOSIG=@CAELT@METAR SLGM 101400Z 00000KT 9999 SCT015 BKN080 27/24 Q1013 A2994 HR83=@CAELT@METAR SLRI 101400Z 00000KT 9999 SCT017 BKN080 27/23 Q1015 A2998 HR79=@CAELT@METAR SLJO 101400Z 36005KT 9999 SCT017 BKN080 27/24 Q1013 A2993 HR86RWY HUM OPR=METAR SLRA 101400Z 36008KT 9999 FEW015 BKN080 27/23 Q1013 A2993 HR80RWY NML=METAR SLMG 101400Z 00000KT 9999 FEW015 BKN080 27/24 Q1012 A2991 HR81METAR SLBU 101400Z 00000KT 9999 SCT015 BKN080 27/23 Q1013 A2993 HR78METAR SLSA 101400Z 36006KT 9999 FEW017 SCT070 BKN200 28/23 Q1012A2991HR73=METAR SLSR 101400Z 32006KT 7000 VCSH SCT015 FEW023CB BKN200 27/24Q1013 A2992 HR83 FU CB/SH W/NW RWY OPR C206=METAR SLSM 101400Z 33004KT 9999 BKN015 28/24 Q1014 A2994 HR81 FU CI
ZPX0370 101358@CAELT@GG SLZZYMYT@CAELT@101357 SLAGYSYX@CAELT@SABO SLAG 101400@CAELT@METAR SLAG 101400Z 00000KT 5000 FU FEW012 BKN070 BKN200 27/16 Q1017@CAELT@A3005 889.7 HR53=@CAELT@
ZPX0371 101359@CAELT@GG SLZZYMYT@CAELT@101358 SLLPYFYA@CAELT@SABO SLRY 101400@CAELT@METAR SLRY 101400Z 00000KT 5000 FU FEW006 BKN015 OVC070 25/24 Q1013@CAELT@A2993 HR92 RWY HUM OPR=@CAELT@
ZPX0372 101359@CAELT@GG SLZZYMYT@CAELT@101359 SLVRYGYS@CAELT@SABO SLVR 101400@CAELT@METAR SLVR 101400Z 36012KT 7000 FEW015 BKN017 26/22 Q1014 A2996@CAELT@HR80 FU TEMPO SHRA=@CAELT@METAR SLET 101400Z 30013G23KT 7000 BKN017 26/22 Q1014 A2995@CAELT@HR77 FU NOSIG=@CAELT@METAR SLAS 101400Z 36010KT 9999 SCT020 BKN070 BKN200 28/22 Q1016A3000 HR71 FU RWY NML=METAR SLJV 101400Z 36010KT 9999 FEW017 BKN200 27/21 Q1014 A2994HR68 RWY NML=METAR SLCP 101400Z 36010KT 9999 SCT015 BKN200 26/20 Q1017 A3003HR72 RWY NML=METAR SLSI 101400Z 36008KT 9999 BKN070 27/21 Q1015 A2997 HR67RWY NML=METAR SLTI 101400Z 00000KT 9999 BKN020 OVC070 27/21 Q1019 A3009HR70 RWY NML=METAR SLJE 101400Z 36006KT 9999 FEW020 SCT070 31/21 Q1017 A3003HR57 RWY NML=METAR SLVG 101400Z 36004KT 9999 SCT023 BKN200 20/12 Q1025 A3027HR59 RWY NML=METAR SLRB 101400Z 36008KT 9999 SCT023 BKN070 32/21 Q1016 A3000HR50 RWY NML=METAR SLPS 101400Z 09004KT 8000 FEW020 BKN070 30/23 Q1014 A2995HR71 FU=METAR SLCA 101400Z 00000KT 9999 NSC 29/16 Q1016 A3000 HR48FU CS RWY NML=
ZPX0374 101401@CAELT@GG SLZZYMYT@CAELT@101357 SLTRYGYS@CAELT@SABO SLTR 101400@CAELT@METAR SLTR 101400Z 36008KT 9999 FEW015 BKN200 31/24 Q1013 A2994@CAELT@995.3 HR66 NOSIG=@CAELT@METAR SLGM 101400Z 00000KT 9999 SCT015 BKN080 27/24 Q1013 A2994 HR83=@CAELT@METAR SLRI 101400Z 00000KT 9999 SCT017 BKN080 27/23 Q1015 A2998 HR79=@CAELT@METAR SLJO 101400Z 36005KT 9999 SCT017 BKN080 27/24 Q1013 A2993 HR86RWY HUM OPR=METAR SLRA 101400Z 36008KT 9999 FEW015 BKN080 27/23 Q1013 A2993 HR80RWY NML=METAR SLMG 101400Z 00000KT 9999 FEW015 BKN080 27/24 Q1012 A2991 HR81METAR SLBU 101400Z 00000KT 9999 SCT015 BKN080 27/23 Q1013 A2993 HR78METAR SLSA 101400Z 36006KT 9999 FEW017 SCT070 BKN200 28/23 Q1012A2991 HR73=METAR SLSR 101400Z 32006KT 7000 VCSH SCT015 FEW023CB BKN200 27/24Q1013 A2992 HR83 FU CB/SH W/NW RWY OPR C206=METAR SLSM 101400Z 33004KT 9999 BKN015 28/24 Q1014 A2994 HR81 FU CI
ZPX0375 101401@CAELT@GG SLZZYMYT@CAELT@101400 SLLPYFYA@CAELT@SABO SLLP 101400@CAELT@METAR SLLP 101400Z 11005KT 9999 FEW015 BKN200 13/M01 Q1039 A3068@CAELT@628.6 HR38 P93// FU AC NOSIG=@CAELT@METAR SLCO 101400Z 04003KT 9999 SCT025 BKN080 28/24 Q1014 A2995@CAELT@986.8 HR82 FU CI=@CAELT@METAR SLRY 101400Z 00000KT 5000 FU FEW006 BKN015 OVC070 25/24 Q1013A2993 HR92 RWY HUM OPR=METAR SLRQ 101400Z 00000KT 5000 FU SCT008 BKN015 OVC070 24/24 Q1014A2995 990.1 HR99=METAR SLAP 101400Z 36015KT 9999 BKN020 OVC070 22/18 Q1020 A3013860.5 HR80=METAR SLSB 101400Z 00000KT 8000 SCT012 BKN017 OVC200 25/23 Q1014A2997 HR87 FU RWY NML=METAR SLOR 101400Z 22005KT 9999 NSC 15/M11 Q1036 A3061 656.9 HR15 CI=METAR SLUY 101400Z 31012KT 9999 NSC 11/M09 Q1035 A3058 659.4HR24 CI=
ZPX0377 101401@CAELT@GG SLZZYMYT@CAELT@101401 SLCBYGYS@CAELT@SABO SLCB 101400@CAELT@METAR SLCB 101400Z 25004KT 9999 FEW040 BKN200 21/09 Q1025 A3027 751.4@CAELT@HR44 FU NOSIG=@CAELT@METAR SLAL 101400Z 01005KT 9999 SCT015 17/09 Q1029 A3039 703.6 HR60@CAELT@FU CI=@CAELT@METAR SLPO 101400Z 24005KT 9999 NSC 14/M01 Q1037 A3062 637.5 HR37 CI=METAR SLAG 101400Z 00000KT 5000 FU FEW012 BKN070 BKN200 27/16 Q1017A3005 889.7 HR53=METAR SLVM 101400Z 00000KT 9999 FEW070 30/21 Q1012 A2991 HR58 FU CI=METAR SLTJ 101400Z 16005KT 9999 FEW025 22/14 Q1019 A3012 814.8 HR60FU=METAR SLYA 101400Z 21008KT 9999 SCT070 29/20 Q1013 A2992 938.0 HR57METAR SLBJ 101400Z NIL=
ZPX0420 101452@CAELT@GG SLZZYMYT@CAELT@101451 SLETYMYC@CAELT@SABO SLET 101500@CAELT@METAR SLET 101500Z 32010KT 5000 FU BKN017 27/22 Q1013 A29.93 HR77@CAELT@NOSIG=@CAELT@
ZPX0422 101452@CAELT@GG SLZZYMYT@CAELT@101452 SLPSYGYS@CAELT@SABO SLPS 101500@CAELT@METAR SLPS 101500Z 09004KT 9000 SCT020 BKN070 32/24 Q1013 A2992 HR64@CAELT@
ZPX0423 101452@CAELT@GG SLZZYMYT@CAELT@101452 SLCAYGYS@CAELT@SABO SLCA 101500@CAELT@METAR SLCA 101500Z 00000KT 9999 SCT033 BKN200 30/15 Q1015 A2997 HR42@CAELT@FU RWY NML=@CAELT@
ZPX0425 101454@CAELT@GG SLZZYMYT@CAELT@101454 SLSBYSYX@CAELT@SABO SLSB 101500@CAELT@METAR SLSB 101500Z 00000KT 8000 FEW012 SCT017 OVC200 26/23 Q1013@CAELT@A2994 HR85 FU RWY NML=@CAELT@
ZPX0426 101454@CAELT@GG SLZZYMYT@CAELT@101455 SLUYYGYS@CAELT@SABO SLUY 101500@CAELT@METAR SLUY 101500Z 31012KT 9999 NSC 13/M09 Q1035 A3056 659.0@CAELT@HR21 CI=@CAELT@
ZPX0427 101455@CAELT@GG SLZZYMYT@CAELT@101455 SLTRYGYZ@CAELT@SABO SLTR 101500@CAELT@METAR SLTR 101500Z 34010KT 9999 SCT017 BKN200 31/24 Q1013 A2994@CAELT@995.3 HR67 NOSIG=@CAELT@
ZPX0428 101455@CAELT@GG SLZZYMYT@CAELT@101455 SLTJYGYZ@CAELT@SABO SLTJ 101500@CAELT@METAR SLTJ 101500Z 18006KT 9999 FEW030 24/14 Q1018 A3008 813.8 HR55@CAELT@
ZPX0429 101455@CAELT@GG SLZZYMYT@CAELT@101455 SLORYGYZ@CAELT@SABO SLOR 101500@CAELT@METAR SLOR 101500Z 26005KT 9999 FEW020 BKN200 17/M12 Q1036 A3060 656.@CAELT@7 HR12=@CAELT@
ZPX0430 101455@CAELT@GG SLZZYMYT@CAELT@101454 SLSAYGYS@CAELT@SABO SLSA 101500@CAELT@METAR SLSA 101500Z 36008KT 9999 FEW017 SCT080 BKN200 29/23@CAELT@Q1012 A2989 HR67=@CAELT@
ZPX0433 101456@CAELT@GG SLZZYMYT@CAELT@101457 SLLPYGYZ@CAELT@SABO SLLP 101500@CAELT@METAR SLLP 101500Z 18004KT 9999 FEW020 BKN200 14/00 Q1038 A3066@CAELT@628.2 HR39 P93// FU AC NOSIG=@CAELT@
ZPX0434 101457@CAELT@GG SLZZYMYT@CAELT@101456 SLRQYSYX@CAELT@SABO SLRQ 101500@CAELT@METAR SLRQ 101500Z 00000KT 5000 FU SCT008 BKN015 OVC070 25/24 Q1014@CAELT@A2995 989.9 HR99=@CAELT@
ZPX0435 101457@CAELT@GG SLZZYMYT@CAELT@101458 SLVRYGYZ@CAELT@SABO SLVR 101500@CAELT@METAR SLVR 101500Z 36014KT 6000 FEW015 BKN017 BKN200 27/23 Q1013@CAELT@A2993 HR76 FU NOSIG=@CAELT@
ZPX0438 101458@CAELT@GG SLZZYMYT@CAELT@101458 SLLPYFYA@CAELT@SABO SLRY 101500@CAELT@METAR SLRY 101500Z 00000KT 5000 FU SCT010 BKN015 OVC070 25/24 Q1013@CAELT@A2993 HR92 RWY HUM OPR=@CAELT@
ZPX0439 101458@CAELT@GG SLZZYMYT@CAELT@101455 SLCBYGYZ@CAELT@SABO SLCB 101500@CAELT@METAR SLCB 101500Z 14003KT 9999 FEW040 BKN200 24/08 Q1024 A3024 750.6@CAELT@HR35 FU NOSIG=@CAELT@
ZPX0440 101459@CAELT@GG SLZZYMYT@CAELT@101458 SLCOYGYZ@CAELT@SABO SLCO 101500@CAELT@METAR SLCO 101500Z 36008KT 9999 SCT025 BKN080 30/24 Q1013 A2993 986.2@CAELT@HR69 FU CI=@CAELT@
ZPX0441 101459@CAELT@GG SLZZYMYT@CAELT@101459 SLVRYGYS@CAELT@SABO SLVR 101500@CAELT@METAR SLVR 101500Z 36014KT 6000 FEW015 BKN017 BKN200 27/23 Q1013@CAELT@A2993 HR76 FU NOSIG=@CAELT@METAR SLET 101500Z 32010KT 5000 FU BKN017 27/22 Q1013 A2993 HR77@CAELT@NOSIG=@CAELT@METAR SLAS 101500Z 36012KT 9999 SCT020 OVC070 28/22 Q1016 A3000 HR70FU RWY NML=METAR SLJV 101500Z 36010KT 9999 BKN017 29/21 Q1013 A2991 HR63RWY NMLMETAR SLCP 101500Z 34010KT 9999 BKN015 28/21 Q1017 A3003 HR67RWY NML=METAR SLSI 101500Z 33008KT 9999 SCT070 29/22 Q1014 A2994 HR65METAR SLTI 101500Z 00000KT 9999 BKN020 BKN070 29/21 Q1018 A3006HR61RWY NML=METAR SLJE 101500Z 36008KT 9999 SCT020 34/22 Q1016 A3000 HR48METAR SLVG 101500Z 36004KT 9999 SCT023 BKN200 22/12 Q1024 A3024 HR50METAR SLRB 101500Z 36010KT 9999 SCT023 BKN070 33/20 Q1016 A3000 HR48METAR SLPS 101500Z 09004KT 9000 SCT020 BKN070 32/24 Q1013 A2992HR64 FU=METAR SLCA 101500Z 00000KT 9999 SCT033 BKN200 30/15 Q1015 A2997 HR42
ZPX0442 101459@CAELT@GG SLZZYMYT@CAELT@101459 SLAGYSYX@CAELT@SABO SLAG 101500@CAELT@METAR SLAG 101500Z 00000KT 5000 FU SCT015 BKN070 BKN200 28/16 Q1016@CAELT@A3002 888.9 HR49=@CAELT@
ZPX0445 101500@CAELT@GG SLZZYMYT@CAELT@101500 SLTRYGYS@CAELT@SABO SLTR 101500@CAELT@METAR SLTR 101500Z 34010KT 9999 SCT017 BKN200 31/24 Q1013 A2994@CAELT@995.3 HR67 NOSIG=@CAELT@METAR SLGM 101500Z 35006KT 9999 SCT015 BKN080 28/24 Q1013 A2992 HR78=@CAELT@METAR SLRI 101500Z 00000KT 9999 SCT017 BKN080 28/23 Q1014 A2996 HR72=@CAELT@METAR SLJO 101500Z 36006KT 9999 SCT017 BKN080 27/23 Q1013 A2993 HR78RWY HUM OPR=METAR SLRA 101500Z 36008KT 9999 FEW015 BKN080 28/23 Q1013 A2993 HR74RWY NML=METAR SLMG 101500Z 03004KT 9999 FEW015 BKN080 28/23 Q1012 A2991 HR73METAR SLBU 101500Z 03006KT 9999 SCT017 BKN080 30/24 Q1013 A2992 HR71METAR SLSA 101500Z 36008KT 9999 FEW017 SCT080 BKN200 29/23 Q1012A2989 HR67=METAR SLSR 101500Z 32010KT 9999 FEW015 FEW023CB BKN070 27/24 Q1013A2992 HR82 CB NW RWY OPR C210=METAR SLSM 101500Z 30004KT 9999 BKN015 28/25 Q1014 A2994 HR83 FUCI RWY NML=
ZPX0446 101502@CAELT@GG SLZZYMYT@CAELT@101502 SLCBYGYS@CAELT@SABO SLCB 101500@CAELT@METAR SLCB 101500Z 14003KT 9999 FEW040 BKN200 24/08 Q1024 A3024 750.6@CAELT@HR35 FU NOSIG=@CAELT@METAR SLAL 101500Z 11004KT 9999 FEW017 20/06 Q1028 A3037 703.1 HR40@CAELT@FU CI=@CAELT@METAR SLPO 101500Z 00000KT 9999 NSC 15/M01 Q1036 A3059 636.7 HR32 CI=METAR SLAG 101500Z 00000KT 5000 FU SCT015 BKN070 BKN200 28/16 Q1016A3002 888.9 HR49=METAR SLVM 101500Z 18010KT 9999 BKN070 31/21 Q1012 A2988 HR55 FU CI=METAR SLTJ 101500Z 18006KT 9999 FEW030 24/14 Q1018 A3008 813.8 HR55METAR SLYA 101500Z 21008KT 9999 FEW023 BKN070 30/20 Q1012 A2990 937.3HR57 FU=METAR SLBJ 101500Z NIL=METAR SLHI 101500Z NIL=
ZPX0448 101503@CAELT@GG SLZZYMYT@CAELT@101502 SLLPYFYA@CAELT@SABO SLLP 101500@CAELT@METAR SLLP 101500Z 18004KT 9999 FEW020 BKN200 14/00 Q1038 A3066@CAELT@628.2 HR39 P93// FU AC NOSIG=@CAELT@METAR SLCO 101500Z 36008KT 9999 SCT025 BKN080 30/24 Q1013 A2993@CAELT@986.2 HR69 FU CI=@CAELT@METAR SLRY 101500Z 00000KT 5000 FU SCT010 BKN015 OVC070 25/24 Q1013A2993 HR92 RWY HUM OPR=METAR SLRQ 101500Z 00000KT 5000 FU SCT008 BKN015 OVC070 25/24 Q1014A2995 989.9 HR99=METAR SLAP 101500Z 36015KT 9999 BKN020 OVC070 24/18 Q1019 A3011860.1 HR72=METAR SLSB 101500Z 00000KT 8000 FEW012 SCT017 OVC200 26/23 Q1013A2994 HR85 FU RWY NML=METAR SLOR 101500Z 26005KT 9999 FEW020 BKN200 17/M12 Q1036 A3060656.7 HR12=METAR SLUY 101500Z 31012KT 9999 NSC 13/M09 Q1035 A3056 659.0HR21 CI=
ZPX0463 101551@CAELT@GG SLZZYMYT@CAELT@101551 SLPSYGYS@CAELT@SABO SLPS 101600@CAELT@METAR SLPS 101600Z 09010KT 9999 FEW020 BKN070 33/24 Q1012 A2989 HR60@CAELT@
ZPX0464 101554@CAELT@GG SLZZYMYT@CAELT@101554 SLSBYSYX@CAELT@SABO SLSB 101600@CAELT@METAR SLSB 101600Z 00000KT 8000 BKN017 SCT080 OVC200 28/24 Q1013@CAELT@A2994 HR78 FU RWY NML=@CAELT@
ZPX0466 101554@CAELT@GG SLZZYMYT@CAELT@101555 SLORYGYZ@CAELT@SABO SLOR 101600@CAELT@METAR SLOR 101600Z 15009KT 9999 FEW020 BKN200 19/M14 Q1035 A3058 656.@CAELT@3 HR10=@CAELT@
ZPX0468 101555@CAELT@GG SLZZYMYT@CAELT@101555 SLTRYGYZ@CAELT@SABO SLTR 101600@CAELT@METAR SLTR 101600Z 33010KT 7000 VCSH SCT017 FEW020CB BKN200 31/24@CAELT@Q1012 A2990 994.1 HR66 CB/SH N/NE TEMPO SHRA=@CAELT@
ZPX0469 101555@CAELT@GG SLZZYMYT@CAELT@101556 SLVRYGYZ@CAELT@SABO SLVR 101600@CAELT@METAR SLVR 101600Z 35014G24KT 8000 FEW015 BKN017 BKN200 30/23 Q1012@CAELT@A2991 HR69 FU NOSIG=@CAELT@
ZPX0470 101555@CAELT@GG SLZZYMYT@CAELT@101555 SLUYYGYS@CAELT@SABO SLUY 101600@CAELT@METAR SLUY 101600Z 33011KT 9999 NSC 14/M10 Q1034 A3054 658.4@CAELT@HR19 CI=@CAELT@
ZPX0471 101555@CAELT@GG SLZZYMYT@CAELT@101555 SLLPYGYZ@CAELT@SABO SLLP 101600@CAELT@METAR SLLP 101600Z 12008KT 9999 FEW023 BKN200 16/M00 Q1037 A3064@CAELT@627.7 HR32 P94// FU AC NOSIG=@CAELT@
ZPX0472 101555@CAELT@GG SLZZYMYT@CAELT@101555 SLCOYGYZ@CAELT@SABO SLCO 101600@CAELT@METAR SLCO 101600Z 36006KT 9999 SCT025 BKN080 31/24 Q1012 A2991 985.3@CAELT@HR66 FU CI=@CAELT@
ZPX0473 101555@CAELT@GG SLZZYMYT@CAELT@101555 SLTJYGYZ@CAELT@SABO SLTJ 101600@CAELT@METAR SLTJ 101600Z 11006KT 9999 FEW030 26/14 Q1017 A3005 813.0 HR47@CAELT@
ZPX0474 101556@CAELT@GG SLZZYMYT@CAELT@101555 SLRQYSYX@CAELT@SABO SLRQ 101600@CAELT@METAR SLRQ 101600Z 00000KT 5000 FU FEW008 BKN015 BKN070 26/25 Q1013@CAELT@A2991 988.8 HR93=@CAELT@
ZPX0476 101556@CAELT@GG SLZZYMYT@CAELT@101556 SLCBYGYZ@CAELT@SABO SLCB 101600@CAELT@METAR SLCB 101600Z 21003KT 9999 FEW040 FEW042TCU BKN200 26/03 Q1022@CAELT@A3020 749.5 HR22 TCU/NW/N FU NOSIG=@CAELT@
ZPX0477 101557@CAELT@GG SLZZYMYT@CAELT@101555 SLAGYSYX@CAELT@SABO SLAG 101600@CAELT@METAR SLAG 101600Z VRB02KT 4000 FU SCT017 BKN070 BKN200 28/16 Q1016@CAELT@A3000 888.3 HR49=@CAELT@
ZPX0480 101559@CAELT@GG SLZZYMYT@CAELT@101559 SLVRYGYS@CAELT@SABO SLVR 101600@CAELT@METAR SLVR 101600Z 35014G24KT 8000 FEW015 BKN017 BKN200 30/23 Q1012@CAELT@A2991 HR69 FU NOSIG=@CAELT@METAR SLET 101600Z 32010KT 6000 SCT017 BKN200 29/22 Q1012 A2989@CAELT@HR67 FU NOSIG=@CAELT@METAR SLAS 101600Z NIL=METAR SLJV 101600Z NIL=METAR SLCP 101600Z 34012KT 9999 BKN015 29/21 Q1016 A3000 HR64 RWY NMLMETAR SLSI 101600Z 36008KT 9999 SCT017 SCT070 31/22 Q1013 A2991HR58 RWY NML=METAR SLTI 101600Z NIL=METAR SLJE 101600Z NIL=METAR SLVG 101600Z NIL=METAR SLRB 101600Z 36008KT 9999 SCT023 BKN070 34/20 Q1014 A2994 HR45RWY NML=METAR SLPS 101600Z 09010KT 9999 FEW020 BKN070 33/24 Q1012 A2989HR60 FU=METAR SLCA 101600Z 00000KT 9999 SCT033 BKN200 31/16 Q1014 A2994HR41 FU RWY NML=
ZPX0482 101559@CAELT@GG SLZZYMYT@CAELT@101557 SLETYMYC@CAELT@SABO SLET 101600@CAELT@METAR SLET 101600Z 32010KT 6000 SCT017 BKN200 29/22 Q1012 A29.89 HR67@CAELT@FU NOSIG=@CAELT@
ZPX0483 101559@CAELT@GG SLZZYMYT@CAELT@101556 SLSAYGYS@CAELT@SABO SLSA 101600@CAELT@METAR SLSA 101600Z 34008KT 9999 SCT017 SCT080 BKN200 31/23@CAELT@Q1011 A2988 HR63=@CAELT@
ZPX0485 101600@CAELT@GG SLZZYMYT@CAELT@101559 SLTRYGYS@CAELT@SABO SLTR 101600@CAELT@METAR SLTR 101600Z 33010KT 7000 VCSH SCT017 FEW020CB BKN200 31/24@CAELT@Q1012 A2990 994.1 HR66 CB/SH N/NE TEMPO SHRA=@CAELT@METAR SLGM 101600Z 06006KT 9999 SCT015 FEW020CB BKN080 29/24 Q1012@CAELT@A2989 HR73 CB SE=@CAELT@METAR SLRI 101600Z 03006KT 9999 SCT017 BKN200 30/24 Q1013 A2992 HR70=METAR SLJO 101600Z 36006KT 9999 SCT017 BKN080 29/24 Q1013 A2992 HR75RWY HUM OPR=METAR SLRA 101600Z 36006KT 9999 FEW015 BKN080 29/23 Q1013 A2993 HR69RWY NML=METAR SLMG 101600Z 03004KT 9999 BKN080 30/23 Q1012 A2989 HR66METAR SLBU 101600Z 03006KT 9999 SCT017 BKN080 31/22 Q1012 A2989 HR62METAR SLSA 101600Z 34008KT 9999 SCT017 SCT080 BKN200 31/23 Q1011A2988 HR63=METAR SLSR 101600Z 32008KT 8000 VCSH SCT017 FEW023CB SCT080 BKN20029/24 Q1012 A2988 HR76 CB/SH W/NW RWY OPR C210=METAR SLSM 101600Z 00000KT 5000 -TSRA BKN015 FEW020CB 26/25 Q1013A2992 HR95 CB SE/S/SW/W TS S/SW CI RWY WET OPR C210=
ZPX0487 101601@CAELT@GG SLZZYMYT@CAELT@101600 SLLPYFYA@CAELT@SABO SLRY 101600@CAELT@METAR SLRY 101600Z 00000KT 5000 FU BKN015 BKN070 26/24 Q1012 A2991@CAELT@HR89 RWY NML=@CAELT@
ZPX0488 101602@CAELT@GG SLZZYMYT@CAELT@101601 SLLPYFYA@CAELT@SABO SLLP 101600@CAELT@METAR SLLP 101600Z 12008KT 9999 FEW023 BKN200 16/M00 Q1037 A3064@CAELT@627.7 HR32 P94// FU AC NOSIG=@CAELT@METAR SLCO 101600Z 36006KT 9999 SCT025 BKN080 31/24 Q1012 A2991@CAELT@985.3 HR66 FU CI=@CAELT@METAR SLRY 101600Z 00000KT 5000 FU BKN015 BKN070 26/24 Q1012A2991 HR89 RWY NML=METAR SLRQ 101600Z 00000KT 5000 FU FEW008 BKN015 BKN070 26/25Q1013 A2991 988.8 HR93=METAR SLAP 101600Z 36010KT 9999 SCT020 BKN070 27/19 Q1019 A3009859.5 HR62=METAR SLSB 101600Z 00000KT 8000 BKN017 SCT080 OVC200 28/24 Q1013A2994 HR78 FU RWY NML=METAR SLOR 101600Z 15009KT 9999 FEW020 BKN200 19/M14 Q1035 A3058656.3 HR10=METAR SLUY 101600Z 33011KT 9999 NSC 14/M10 Q1034 A3054 658.4HR19 CI=
ZPX0490 101603@CAELT@GG SLZZYMYT@CAELT@101602 SLCBYGYS@CAELT@SABO SLCB 101600@CAELT@METAR SLCB 101600Z 21003KT 9999 FEW040 FEW042TCU BKN200 26/03 Q1022@CAELT@A3020 749.5 HR22 TCU/NW/N FU NOSIG=@CAELT@METAR SLAL 101600Z 35006KT 9999 FEW020 21/05 Q1027 A3034 702.5 HR36@CAELT@FU CI=@CAELT@METAR SLPO 101600Z 00000KT 9999 NSC 16/M02 Q1035 A3056 636.0 HR30 CI=METAR SLAG 101600Z VRB02KT 4000 FU SCT017 BKN070 BKN200 28/16 Q1016A3000 888.3 HR49=METAR SLVM 101600Z 00000KT 9999 FEW030 OVC070 32/21 Q1011 A2986 HR54METAR SLTJ 101600Z 11006KT 9999 FEW030 26/14 Q1017 A3005 813.0 HR47METAR SLYA 101600Z 21008KT 9999 SCT023 OVC070 29/20 Q1012 A2989 937.0HR60 FU=METAR SLBJ 101600Z NIL=METAR SLHI 101600Z NIL=
ZPX0508 101653@CAELT@GG SLZZYMYT@CAELT@101652 SLPSYGYS@CAELT@SABO SLPS 101700@CAELT@METAR SLPS 101700Z 36010KT 9999 SCT020 BKN070 34/24 Q1011 A2986 HR58@CAELT@
ZPX0509 101653@CAELT@GG SLZZYMYT@CAELT@101651 SLETYMYC@CAELT@SABO SLET@CAELT@METAR SLET 101700Z 30010KT 7000 SCT013 BKN017 26/22 Q1011 A29.88 HR79@CAELT@FU SH SE NOSIG=@CAELT@
ZPX0510 101654@CAELT@GG SLZZYMYT@CAELT@101654 SLSAYGYS@CAELT@SABO SLSA 101700@CAELT@METAR SLSA 101700Z 34008KT 9999 BKN017 BKN200 31/23 Q1011 A2988 HR62=@CAELT@
ZPX0511 101654@CAELT@GG SLZZYMYT@CAELT@101655 SLORYGYZ@CAELT@SABO SLOR 101700@CAELT@METAR SLOR 101700Z 28005KT 9999 FEW023 BKN200 20/M16 Q1035 A3057 656.@CAELT@0 HR08=@CAELT@
ZPX0512 101654@CAELT@GG SLZZYMYT@CAELT@101654 SLSBYSYX@CAELT@SABO SLSB 101700@CAELT@METAR SLSB 101700Z 30004KT 8000 SCT017 BKN200 30/24 Q1011 A2988 HR72@CAELT@RWY NML=@CAELT@
ZPX0513 101654@CAELT@GG SLZZYMYT@CAELT@101655 SLRQYSYX@CAELT@SABO SLRQ 101700@CAELT@METAR SLRQ 101700Z 00000KT 7000 SCT015 SCT080 BKN200 28/25 Q1011@CAELT@A2988 987.8 HR81 FU=@CAELT@
ZPX0514 101654@CAELT@GG SLZZYMYT@CAELT@101654 SLCAYGYS@CAELT@SABO SLCA 101700@CAELT@METAR SLCA 101700Z 00000KT 9999 SCT033 BKN200 32/15 Q1013 A2991 HR37@CAELT@FU RWY NML=@CAELT@
ZPX0515 101655@CAELT@GG SLZZYMYT@CAELT@101655 SLCOYGYZ@CAELT@SABO SLCO 101700@CAELT@METAR SLCO 101700Z 34005KT 9999 SCT025 BKN080 32/24 Q1011 A2988 984.3@CAELT@HR60 FU CI=@CAELT@
ZPX0516 101655@CAELT@GG SLZZYMYT@CAELT@101655 SLTJYGYZ@CAELT@SABO SLTJ 101600@CAELT@METAR SLTJ 101700Z 11009KT 9999 FEW030 FEW033TCU 26/15 Q1017 A3004@CAELT@812.7 HR52 TCU N/W FU=@CAELT@
ZPX0517 101655@CAELT@GG SLZZYMYT@CAELT@101655 SLTRYGYZ@CAELT@SABO SLTR 101700@CAELT@METAR SLTR 101700Z 01010KT 8000 VCSH SCT017 FEW020CB BKN200 32/24@CAELT@Q1011 A2986 992.8 HR63 CB/SH E/SE NOSIG=@CAELT@
ZPX0518 101655@CAELT@GG SLZZYMYT@CAELT@101657 SLUYYGYS@CAELT@SABO SLUY 101700@CAELT@METAR SLUY 101700Z 32011KT 9999 FEW025 15/M12 Q1033 A3051 657.8@CAELT@HR14 CI=@CAELT@
ZPX0519 101655@CAELT@GG SLZZYMYT@CAELT@101655 SLAGYSYX@CAELT@SABO SLAG 101700@CAELT@METAR SLAG 101700Z VRB02KT 4000 FU SCT020 SCT070 BKN200 29/17 Q1015@CAELT@A2998 887.5 HR46=@CAELT@
ZPX0520 101656@CAELT@GG SLZZYMYT@CAELT@101656 SLLPYGYZ@CAELT@SABO SLLP 101700@CAELT@METAR SLLP 101700Z VRB02KT 9999 SCT023 BKN200 16/M01 Q1036 A3061@CAELT@627.1 HR30 P94// FU AC NOSIG=@CAELT@
ZPX0521 101656@CAELT@GG SLZZYMYT@CAELT@101655 SLCBYGYZ@CAELT@SABO SLCB 101700@CAELT@METAR SLCB 101700Z 21004KT 9999 FEW042 FEW045CB BKN200 28/M04 Q1021@CAELT@A3015 748.3 HR11 CB/NW/N FU AC NOSIG=@CAELT@
ZPX0522 101656@CAELT@GG SLZZYMYT@CAELT@101657 SLTRYGYS@CAELT@SABO SLTR 101700@CAELT@METAR SLTR 101700Z 01010KT 8000 VCSH SCT017 FEW020CB BKN200 32/24@CAELT@Q1011 A2986 992.8 HR63 CB/SH E/SE NOSIG=@CAELT@METAR SLGM 101700Z 04008KT 9999 SCT017 FEW020CB BKN080 31/23 Q1011@CAELT@A2986 HR62 CB N=@CAELT@METAR SLRI 101700Z 03008KT 9999 SCT017 BKN200 31/24 Q1012 A2989 HR64=METAR SLJO 101700Z 36008KT 9999 FEW020 BKN080 30/24 Q1012 A2991 HR71RWY NML=METAR SLRA 101700Z 36008KT 9999 FEW017 BKN080 31/22 Q1012 A2990 HR61METAR SLMG 101700Z 34004KT 9999 BKN080 30/23 Q1011 A2987 HR63METAR SLBU 101700Z 03006KT 9999 SCT017 BKN080 33/24 Q1011 A2986 HR58METAR SLSA 101700Z 34008KT 9999 BKN017 BKN200 31/23 Q1011 A2988 HR62=METAR SLSR 101700Z 32008KT 8000 VCSH SCT017 FEW023CB BKN200 31/24Q1011 A2986 HR67 CB/SH N/NE/E RWY HUM OPR=METAR SLSM 101700Z 00000KT 9999 TS BKN015 FEW020CB BKN200 26/24Q1012 A2990 HR89 RERA CB S/SW/W/NW TS W/NW RWY WET OPR C210=
ZPX0524 101658@CAELT@GG SLZZYMYT@CAELT@101659 SLVRYGYZ@CAELT@SABO SLVR 101700@CAELT@METAR SLVR 101700Z 33013G24KT 8000 VCSH SCT015 BKN017 FEW030CB 28/23@CAELT@Q1011 A2988 HR76 FU CB/SH NW CI TEMPO SHRA=@CAELT@
ZPX0525 101658@CAELT@GG SLZZYMYT@CAELT@101658 SLVRYGYS@CAELT@SABO SLVR 101700@CAELT@METAR SLVR 101700Z 33013G24KT 8000 VCSH SCT015 BKN017 FEW030CB 28/23@CAELT@Q1011 A2988 HR76 FU CB/SH NW CI TEMPO SHRA=@CAELT@METAR SLET 101700Z 30010KT 7000 SCT013 BKN017 26/22 Q1011 A29.88@CAELT@HR79 FU SH SE NOSIG=@CAELT@METAR SLCP 101700Z 34014KT 9999 BKN017 30/23 Q1015 A2997 HR62 RWY NMLMETAR SLSI 101700Z 33006KT 9999 SCT017 BKN070 31/23 Q1013 A2991 HR60RWY NML=METAR SLRB 101700Z 36010KT 9999 SCT020 BKN070 35/19 Q1013 A2991HR41 RWY NNL=METAR SLPS 101700Z 36010KT 9999 SCT020 BKN070 34/24 Q1011 A2986HR58 FU=METAR SLCA 101700Z 00000KT 9999 SCT033 BKN200 32/15 Q1013 A2991HR37 FU RWY NML=
ZPX0526 101658@CAELT@GG SLZZYMYT@CAELT@101657 SLETYMYC@CAELT@SABO SLET@CAELT@METAR SLET 101700Z 30010KT 9999 SCT013 BKN017 26/22 Q1011 A29.88@CAELT@HR79FU SH SE NOSIG=@CAELT@
ZPX0530 101702@CAELT@GG SLZZYMYT@CAELT@101701 SLETYMYC@CAELT@SABO SLET 101700 CCA@CAELT@METAR SLET 101700Z 30010KT 9999 SCT013 BKN017 26/22 Q1011 A29.88@CAELT@HR79 FU SH SE NOSIG=@CAELT@
ZPX0531 101702@CAELT@GG SLZZYMYT@CAELT@101702 SLLPYFYA@CAELT@SABO SLLP 101700@CAELT@METAR SLLP 101700Z VRB02KT 9999 SCT023 BKN200 16/M01 Q1036 A3061@CAELT@627.1 HR30 P94// FU AC NOSIG=@CAELT@METAR SLCO 101700Z 34005KT 9999 SCT025 BKN080 32/24 Q1011 A2988@CAELT@984.3 HR60 FU CI=@CAELT@METAR SLRY 101700Z 32003KT 6000 SCT016 SCT070 BKN200 28/24 Q1011A2988 HR79 FU RWY NML=METAR SLRQ 101700Z 00000KT 7000 SCT015 SCT080 BKN200 28/25 Q1011A2988 987.8 HR81 FU=METAR SLAP 101700Z 36010KT 9999 FEW020 SCT070 29/20 Q1017 A3005858.4 HR59=METAR SLSB 101700Z 30004KT 8000 SCT017 BKN200 30/24 Q1011 A2988HR72 RWY NML=METAR SLOR 101700Z 28005KT 9999 FEW023 BKN200 20/M16 Q1035 A3057656.0 HR08=METAR SLUY 101700Z 32011KT 9999 FEW025 15/M12 Q1033 A3051 657.8HR14 CI=
ZPX0533 101703@CAELT@GG SLZZYMYT@CAELT@101703 SLCBYGYS@CAELT@SABO SLCB 101700@CAELT@METAR SLCB 101700Z 21004KT 9999 FEW042 FEW045CB BKN200 28/M04 Q1021@CAELT@A3015 748.3 HR11 CB/NW/N FU AC NOSIG=@CAELT@METAR SLAL 101700Z 04013KT 9999 SCT023 22/05 Q1026 A3030 701.6 HR32@CAELT@FU CI=@CAELT@METAR SLPO 101700Z NIL=METAR SLAG 101700Z VRB02KT 4000 FU SCT020 SCT070 BKN200 29/17 Q1015A2998 887.5 HR46=METAR SLVM 101700Z NIL=METAR SLTJ 101700Z 11009KT 9999 FEW030 FEW033TCU 26/15 Q1017 A3004812.7 HR52 TCU N/W FU=METAR SLYA 101700Z 21008KT 9999 SCT020 OVC070 27/21 Q1012 A2990 937.2HR70=METAR SLBJ 101700Z NIL=METAR SLHI 101700Z NIL=
ZPX0555 101751@CAELT@GG SLZZYMYT@CAELT@101751 SLPSYGYS@CAELT@SABO SLPS 101800@CAELT@METAR SLPS 101800Z 36009KT 9999 FEW020 BKN070 34/25 Q1011 A2986 HR59=@CAELT@
ZPX0557 101754@CAELT@GG SLZZYMYT@CAELT@101755 SLORYGYZ@CAELT@SABO SLOR 101800@CAELT@METAR SLOR 101800Z 33004KT 9999 FEW023 BKN200 20/M18 Q1034 A3055 655.@CAELT@5 HR06=@CAELT@
ZPX0558 101754@CAELT@GG SLZZYMYT@CAELT@101754 SLSAYGYS@CAELT@SABO SLSA 101800@CAELT@METAR SLSA 101800Z 31010KT 9999 BKN017 FEW023CB BKN200 31/23 Q1009@CAELT@A2982 HR62 CB S/SW=@CAELT@
ZPX0559 101754@CAELT@GG SLZZYMYT@CAELT@101754 SLSAYGYS@CAELT@SABO SLSA 101800@CAELT@METAR SLSA 101800Z 31010KT 9999 BKN017 FEW023CB BKN200 31/23 Q1009@CAELT@A2982 HR62 CB S/SW=@CAELT@
ZPX0561 101755@CAELT@GG SLZZYMYT@CAELT@101755 SLSBYSYX@CAELT@SABO SLSB 101800@CAELT@METAR SLSB 101800Z 30006KT 8000 BKN017 BKN200 29/22 Q1010 A2984 HR64@CAELT@FU RWY NML=@CAELT@
ZPX0562 101755@CAELT@GG SLZZYMYT@CAELT@101755 SLAGYSYX@CAELT@SABO SLAG 101800@CAELT@METAR SLAG 101800Z 08004KT 4000 FU SCT023 SCT070 BKN200 30/16 Q1013@CAELT@A2994 886.4 HR44=@CAELT@
ZPX0564 101756@CAELT@GG SLZZYMYT@CAELT@101757 SLVRYGYZ@CAELT@SABO SLVR 101800@CAELT@METAR SLVR 101800Z 32015G26KT 8000 VCSH SCT017 FEW030CB BKN200 30/23@CAELT@Q1010 A2985 HR68 FU CB/SH NE AC NOSIG=@CAELT@
ZPX0565 101756@CAELT@GG SLZZYMYT@CAELT@101756 SLTJYGYZ@CAELT@SABO SLTJ 101800@CAELT@METAR SLTJ 101800Z 13012KT 9999 SCT033 24/14 Q1017 A3004 812.7 HR54@CAELT@
ZPX0566 101757@CAELT@GG SLZZYMYT@CAELT@101756 SLLPYGYZ@CAELT@SABO SLLP 101800@CAELT@METAR SLLP 101800Z 17007KT 090V250 9999 SCT023 FEW025CB BKN200@CAELT@16/M03 Q1035 A3057 626.2 HR27 P94// CB/SH NW FU AC NOSIG=@CAELT@
ZPX0567 101757@CAELT@GG SLZZYMYT@CAELT@101756 SLCBYGYZ@CAELT@SABO SLCB 101800@CAELT@METAR SLCB 101800Z 17005KT 9999 FEW042 FEW045CB BKN200 29/M02 Q1019@CAELT@A3010 747.0 HR13 CB/NW/W FU AC NOSIG=@CAELT@
ZPX0568 101757@CAELT@GG SLZZYMYT@CAELT@101755 SLRQYSYX@CAELT@SABO SLRQ 101800@CAELT@METAR SLRQ 101800Z 00000KT 8000 BKN015 BKN200 30/26 Q1010 A2983 HR77@CAELT@
ZPX0571 101758@CAELT@GG SLZZYMYT@CAELT@101756 SLTRYGYZ@CAELT@SABO SLTR 101800@CAELT@METAR SLTR 101800Z 03008KT 8000 VCSH SCT017 FEW020CB BKN200 32/24@CAELT@Q1010 A2983 991.5 HR60 CB/SH W/NW NOSIG=@CAELT@
ZPX0572 101758@CAELT@GG SLZZYMYT@CAELT@101758 SLLPYFYA@CAELT@SABO SLRY 101800@CAELT@METAR SLRY 101800Z 32003KT 8000 SCT080 BKN200 29/24 Q1010 A2983@CAELT@HR70 FU RWY NML=@CAELT@
ZPX0573 101758@CAELT@GG SLZZYMYT@CAELT@101758 SLCOYGYZ@CAELT@SABO SLCO 101800@CAELT@METAR SLCO 101800Z 27004KT 9999 SCT025 BKN080 34/24 Q1010 A2982 982.6@CAELT@HR57 FU CI=@CAELT@
ZPX0576 101759@CAELT@GG SLZZYMYT@CAELT@101757 SLCAYGYS@CAELT@SABO SLCA 101800@CAELT@METAR SLCA 101800Z 00000KT 9999 BKN033 BKN200 31/16 Q1012 A2988 HR43@CAELT@FU RWY NML=@CAELT@
ZPX0577 101759@CAELT@GG SLZZYMYT@CAELT@101759 SLVRYGYS@CAELT@SABO SLVR 101800@CAELT@METAR SLVR 101800Z 32015G26KT 8000 VCSH SCT017 FEW030CB BKN200@CAELT@30/23 Q1010 A2985 HR68 FU CB/SH NE AC NOSIG=@CAELT@METAR SLET 101800Z 32012KT 8000 SCT017 BKN200 27/22 Q1010 A2985@CAELT@HR72 FU NOSIG=@CAELT@METAR SLAS 101800Z 36012KT 9999 SCT020 FEW030CB 33/22 Q1012 A2989HR53 CB/SH/N/NE RWY NML=METAR SLJV 101800Z 33010KT 9999 SCT020 FEW030CB 32/22 Q1011 A2985HR57 CB/NE/E RWY NML=METAR SLCP 101800Z 36010KT 9999 BKN017 29/21 Q1014 A2994 HR62RWY NML=METAR SLSI 101800Z 33008KT 9999 SCT017 BKN070 31/20 Q1012 A2988HR55 RWY NML=METAR SLTI 101800Z 00000KT 9999 BKN070 32/20 Q1015 A2997 HR52METAR SLJE 101800Z 36006KT 9999 BKN020 36/21 Q1013 A2991 HR42METAR SLVG 101800Z 36010KT 9999 SCT025 BKN200 24/14 Q1022 A3018HR49 FU RWY NML=METAR SLRB 101800Z 36006KT 9999 BKN020 36/21 Q1012 A2988 HR42 RWY NMLMETAR SLPS 101800Z 36009KT 9999 FEW020 BKN070 34/25 Q1011 A2986HR59=METAR SLCA 101800Z 101800Z 00000KT 9999 BKN033 BKN200 31/16 Q1012A2988 HR43 FU RWY NML=
ZPX0578 101800@CAELT@GG SLZZYMYT@CAELT@101759 SLTRYGYS@CAELT@SABO SLTR 101800@CAELT@METAR SLTR 101800Z 03008KT 8000 VCSH SCT017 FEW020CB BKN200 32/24@CAELT@Q1010 A2983 991.5 HR60 CB/SH W/NW NOSIG=@CAELT@METAR SLGM 101800Z 34015KT 9999 BKN017 FEW020CB BKN080 32/24 Q1010@CAELT@A2984 HR62 CB N/E=@CAELT@METAR SLRI 101800Z 09008KT 9999 SCT017 BKN200 32/24 Q1011 A2986 HR61METAR SLJO 101800Z NIL=METAR SLRA 101800Z 34010KT 9999 FEW020 SCT080 BKN200 33/21 Q1011A2986 HR52 RWY NML=METAR SLMG 101800Z 34004KT 9999 FEW017 BKN080 30/23 Q1010 A2985HR65 RWY NML=METAR SLBU 101800Z NIL=METAR SLSA 101800Z 31010KT 9999 BKN017 FEW023CB BKN200 31/23 Q1009A2982 HR62 CB S/SW=METAR SLSR 101800Z 32008KT 8000 VCSH SCT017 FEW023CB BKN200 30/24Q1009 A2982 HR73 CB/SH N/NE RWY HUM OPR=METAR SLSM 101800Z 33004KT 9999 TS SCT017 FEW020CB BKN200 25/24Q1011 A2986 HR92 CB S/SW/W/NW TS NW/W RWY WET OPR C210=
ZPX0579 101802@CAELT@GG SLZZYMYT@CAELT@101802 SLCBYGYS@CAELT@SABO SLCB 101800@CAELT@METAR SLCB 101800Z 17005KT 9999 FEW042 FEW045CB BKN200 29/M02 Q1019@CAELT@A3010 747.0 HR13 CB/NW/W FU AC NOSIG=@CAELT@METAR SLAL 101800Z 02014KT 9999 FEW023 FEW033CB SCT200 22/06 Q1024@CAELT@A3026 700.7 HR36 CB/NW FU=@CAELT@METAR SLPO 101800Z NIL=METAR SLAG 101800Z 08004KT 4000 FU SCT023 SCT070 BKN200 30/16 Q1013A2994 886.4 HR44=METAR SLVM 101800Z NIL=METAR SLTJ 101800Z 13012KT 9999 SCT033 24/14 Q1017 A3004 812.7 HR54METAR SLYA 101800Z 21006KT 9999 FEW020 OVC070 26/21 Q1011 A2988 936.5HR72=METAR SLBJ 101800Z NIL=METAR SLHI 101800Z NIL=
ZPX0580 101802@CAELT@GG SLZZYMYT@CAELT@101802 SLVRYGYS CCA@CAELT@SABO SLVR 101800@CAELT@METAR SLVR 101800Z 32015G26KT 8000 VCSH SCT017 FEW030CB BKN200@CAELT@30/23 Q1010 A2985 HR68 FU CB/SH NE AC NOSIG=@CAELT@METAR SLET 101800Z 32012KT 8000 SCT017 BKN200 27/22 Q1010 A2985@CAELT@HR72 FU NOSIG=@CAELT@METAR SLAS 101800Z 36012KT 9999 SCT020 FEW030CB 33/22 Q1012 A2989HR53 CB/SH/N/NE RWY NML=METAR SLJV 101800Z 33010KT 9999 SCT020 FEW030CB 32/22 Q1011 A2985HR57 CB/NE/E RWY NML=METAR SLCP 101800Z 36010KT 9999 BKN017 29/21 Q1014 A2994 HR62RWY NML=METAR SLSI 101800Z 33008KT 9999 SCT017 BKN070 31/20 Q1012 A2988HR55 RWY NML=METAR SLTI 101800Z 00000KT 9999 BKN070 32/20 Q1015 A2997 HR52METAR SLJE 101800Z 36006KT 9999 BKN020 36/21 Q1013 A2991 HR42METAR SLVG 101800Z 36010KT 9999 SCT025 BKN200 24/14 Q1022 A3018HR49 FU RWY NML=METAR SLRB 101800Z 36006KT 9999 BKN020 36/21 Q1012 A2988 HR42 RWY NMLMETAR SLPS 101800Z 36009KT 9999 FEW020 BKN070 34/25 Q1011 A2986HR59=METAR COR SLCA 101800Z 00000KT 9999 BKN033 BKN200 31/16 Q1012A2988 HR43 FU RWY NML=
ZPX0582 101803@CAELT@GG SLZZYMYT@CAELT@101802 SLLPYFYA@CAELT@SABO SLRY 101800 CCA@CAELT@METAR COR SLRY 101800Z 32003KT 8000 SCT016 SCT080 BKN200 29/24 Q1010@CAELT@A2983 HR70 FU RWY NML=@CAELT@
ZPX0584 101804@CAELT@GG SLZZYMYT@CAELT@101803 SLCBYGYS@CAELT@SABO SLCB 101800 RTD@CAELT@METAR SLCB 101800Z 17005KT 9999 FEW042 FEW045CB BKN200 29/M02 Q1019@CAELT@A3010 747.0 HR13 CB/NW/W FU AC NOSIG=@CAELT@METAR SLAL 101800Z 02014KT 9999 FEW023 FEW033CB SCT200 22/06 Q1024@CAELT@A3026 700.7 HR36 CB/NW FU=@CAELT@METAR SLPO 101800Z NIL=METAR SLAG 101800Z 08004KT 4000 FU SCT023 SCT070 BKN200 30/16 Q1013A2994 886.4 HR44=METAR SLVM RTD 101800Z 18008KT 9999 FEW030 OVC070 33/21 Q1009 A2982HR51 FU=METAR SLTJ 101800Z 13012KT 9999 SCT033 24/14 Q1017 A3004 812.7 HR54METAR SLYA 101800Z 21006KT 9999 FEW020 OVC070 26/21 Q1011 A2988 936.5HR72=METAR SLBJ 101800Z NIL=METAR SLHI 101800Z NIL=
ZPX0586 101806@CAELT@GG SLZZYMYT@CAELT@101805 SLLPYFYA@CAELT@SABO SLLP 101800@CAELT@METAR SLLP 101800Z 17007KT 090V250 9999 SCT023 FEW025CB BKN200@CAELT@16/M03 Q1035 A3057 626.2 HR27 P94// CB/SH NW FU AC NOSIG=@CAELT@METAR SLCO 101800Z 27004KT 9999 SCT025 BKN080 34/24 Q1010 A2982@CAELT@982.6 HR57 FU CI=@CAELT@METAR SLRY 101800Z 32003KT 8000 SCT080 BKN200 29/24 Q1010 A2983HR70 FU RWY NML=METAR SLRQ 101800Z 00000KT 8000 BKN015 BKN200 30/26 Q1010 A2983HR77 FU=METAR SLAP 101800Z 36015KT 9999 FEW025 SCT070 29/19 Q1016 A3001857.2 HR55=METAR SLSB 101800Z 30006KT 8000 BKN017 BKN200 29/22 Q1010 A2984HR64 FU RWY NML=METAR SLOR 101800Z 33004KT 9999 FEW023 BKN200 20/M18 Q1034 A3055655.5 HR06=
ZPX0587 101809@CAELT@GG SLZZYMYT@CAELT@101808 SLLPYFYA@CAELT@SABO SLLP 101800 CCA@CAELT@METAR SLLP 101800Z 17007KT 090V250 9999 SCT023 FEW025CB BKN200@CAELT@16/M03 Q1035 A3057 626.2 HR27 P94// CB/SH NW FU AC NOSIG=@CAELT@METAR SLCO 101800Z 27004KT 9999 SCT025 BKN080 34/24 Q1010 A2982@CAELT@982.6 HR57 FU CI=@CAELT@METAR COR SLRY 101800Z 32003KT 8000 SCT016 SCT080 BKN200 29/24Q1010 A2983 HR70 FU RWY NML=METAR SLRQ 101800Z 00000KT 8000 BKN015 BKN200 30/26 Q1010 A2983HR77 FU=METAR SLAP 101800Z 36015KT 9999 FEW025 SCT070 29/19 Q1016 A3001857.2 HR55=METAR SLSB 101800Z 30006KT 8000 BKN017 BKN200 29/22 Q1010 A2984HR64 FU RWY NML=METAR SLOR 101800Z 33004KT 9999 FEW023 BKN200 20/M18 Q1034 A3055655.5 HR06=
ZPX0611 101853@CAELT@GG SLZZYMYT@CAELT@101853 SLPSYGYS@CAELT@SABO SLPS 101900@CAELT@METAR SLPS 101900Z 09004KT 9999 FEW020 BKN200 34/25 Q1010 A2983 HR58=@CAELT@
ZPX0612 101854@CAELT@GG SLZZYMYT@CAELT@101853 SLCAYGYS@CAELT@SABO SLCA 101900@CAELT@METAR SLCA 101900Z 00000KT 9999 BKN033 BKN200 31/16 Q1012 A2988 HR43@CAELT@FU RWY NML=@CAELT@
ZPX0614 101854@CAELT@GG SLZZYMYT@CAELT@101855 SLVRYGYZ@CAELT@SABO SLVR 101900@CAELT@METAR SLVR 101900Z 32014G25KT 9999 SCT017 BKN200 30/24 Q1010 A2983@CAELT@HR67 FU AC NOSIG=@CAELT@
ZPX0615 101855@CAELT@GG SLZZYMYT@CAELT@101855 SLSBYSYX@CAELT@SABO SLSB 101900@CAELT@METAR SLSB 101900Z 31005KT 8000 BKN017 BKN200 30/29 Q1008 A2979 HR94@CAELT@FU RWY NML=@CAELT@
ZPX0616 101855@CAELT@GG SLZZYMYT@CAELT@101855 SLAGYSYX@CAELT@SABO SLAG 101900@CAELT@METAR SLAG 101900Z 12007KT 5000 FU SCT023 SCT070 BKN200 30/16 Q1013@CAELT@A2992 885.7 HR43 SH/NE=@CAELT@
ZPX0617 101855@CAELT@GG SLZZYMYT@CAELT@101855 SLCBYGYZ@CAELT@SABO SLCB 101900@CAELT@METAR SLCB 101900Z 21005KT 9999 FEW042 FEW045CB BKN200 29/M01 Q1017@CAELT@A3006 745.9 HR14 CB/E/SW FU NOSIG=@CAELT@
ZPX0618 101855@CAELT@GG SLZZYMYT@CAELT@101855 SLRQYSYX@CAELT@SABO SLRQ 101900@CAELT@METAR SLRQ 101900Z 36005KT 9999 SCT017 BKN200 32/26 Q1009 A2980 HR69=@CAELT@
ZPX0620 101855@CAELT@GG SLZZYMYT@CAELT@101856 SLLPYGYZ@CAELT@SABO SLLP 101900@CAELT@METAR SLLP 101900Z 11004KT 9999 SCT023 FEW025CB BKN200 16/M04 Q1034@CAELT@A3053 625.3 HR25 P94// CB/SH NW FU AC NOSIG=@CAELT@
ZPX0621 101855@CAELT@GG SLZZYMYT@CAELT@101854 SLTJYGYZ@CAELT@SABO SLTJ 101900@CAELT@METAR SLTJ 101900Z 13011KT 9999 SCT033 FEW036CB 20/15 Q1017 A3004 812@CAELT@.7 HR72 CB N/SW/W FU AC=@CAELT@
ZPX0622 101856@CAELT@GG SLZZYMYT@CAELT@101855 SLRBYGYS@CAELT@SABO SLRB 101900@CAELT@METAR SLRB 101900Z 36008KT 9999 BKN020 35/21 Q1011 A2985 HR46 RWY NML=@CAELT@
ZPX0623 101856@CAELT@GG SLZZYMYT@CAELT@101855 SLETYMYC@CAELT@SABO SLET 101900Z@CAELT@METAR SLET 101900Z 31018KT 9999 BKN017 BKN200 29/22 Q1009 A29.81 HR65@CAELT@TEMPO SH=@CAELT@
ZPX0624 101857@CAELT@GG SLZZYMYT@CAELT@101857 SLVRYGYS@CAELT@SABO SLVR 101900@CAELT@METAR SLVR 101900Z 32014G25KT 9999 SCT017 BKN200 30/24 Q1010 A2983@CAELT@HR67 AC NOSIG=@CAELT@METAR SLET 101900Z 31018KT 9999 BKN017 BKN200 29/22 Q1009 A2981 HR65@CAELT@TEMPO SH=@CAELT@METAR SLAS 101900Z 36010KT 4000 -TSRA BKN017 FEW030/CB OVC070 25/23Q1012A2989 HR88 CB/TS N/NW RWY HUM OPR=METAR SLJV 101900Z 34010KT 9999 SCT020 FEW030CB 31/22 Q1009 A2980HR61 CB/E RWY NML=METAR SLCP 101900Z 00000KT 9999 BKN017 BKN070 27/22 Q1013 A2991 HR76RWY NML=METAR SLSI 101900Z 33006KT 9999 SCT017 BKN070 30/21 Q1010 A2983 HR57METAR SLTI 101900Z 00000KT 9999 BKN070 33/20 Q1014 A2994 HR46METAR SLJE 101900Z 36006KT 9999 BKN020 36/21 Q1012 A2988 HR41METAR SLVG 101900Z 02010KT 9999 SCT025 BKN200 23/14 Q1021 A3015 HR52FU RWY NML=METAR SLRB 101900Z 36008KT 9999 BKN020 35/21 Q1011 A2985 HR46METAR SLPS 101900Z 09004KT 9999 FEW020 BKN200 34/25 Q1010 A2983 HR58=METAR SLCA 101900Z 00000KT 9999 BKN033 BKN200 31/16 Q1012 A2988HR43 FU RWY NML=
ZPX0626 101857@CAELT@GG SLZZYMYT@CAELT@101856 SLTRYGYZ@CAELT@SABO SLTR 101900@CAELT@METAR SLTR 101900Z 34008KT 8000 VCSH SCT017 FEW020CB BKN200 31/23@CAELT@Q1008 A2979 990.3 HR61 CB/SH W/NW NOSIG=@CAELT@
ZPX0627 101857@CAELT@GG SLZZYMYT@CAELT@101857 SLCOYGYZ@CAELT@SABO SLCO 101900@CAELT@METAR SLCO 101900Z 17006KT 9999 BKN025 35/24 Q1008 A2977 980.9 HR55@CAELT@FU AC/CI=@CAELT@
ZPX0628 101858@CAELT@GG SLZZYMYT@CAELT@101857 SLSAYGYS@CAELT@SABO SLSA 101900@CAELT@METAR SLSA 101900Z 32010KT 8000 VCSH SCT017 FEW023CB BKN200 32/23@CAELT@Q1008 A2979 HR60 CB/SH S/SW/W=@CAELT@
ZPX0629 101858@CAELT@GG SLZZYMYT@CAELT@101857 SLSAYGYS@CAELT@SABO SLSA 101900@CAELT@METAR SLSA 101900Z 32010KT 8000 VCSH SCT017 FEW023CB BKN200 32/23@CAELT@Q1008 A2979 HR60 CB/SH S/SW/W=@CAELT@
ZPX0631 101859@CAELT@GG SLZZYMYT@CAELT@101858 SLSBYSYX@CAELT@SABO SLSB 101900 CCA@CAELT@METAR COR SLSB 101900Z 31005KT 8000 BKN017 BKN200 30/22 Q1008 A2979@CAELT@HR63 FU RWY NML=@CAELT@
ZPX0632 101859@CAELT@GG SLZZYMYT@CAELT@101859 SLTRYGYS@CAELT@SABO SLTR 101900@CAELT@METAR SLTR 101900Z 34008KT 8000 VCSH SCT017 FEW020CB BKN200 31/23@CAELT@Q1008 A2979 990.3 HR61 CB/SH W/NW NOSIG=@CAELT@METAR SLGM 101900Z 06008KT 9999 BKN017 FEW020CB BKN080 32/24 Q1009@CAELT@A2981 HR62 CB N/E/SE=@CAELT@METAR SLRI 101900Z 09005KT 8000 VCSH SCT017 FEW020CB BKN200 32/22Q1009 A2980 HR57 CB/SH SW/W/NW AC=METAR SLJO 101900Z NIL=METAR SLRA 101900Z 35010KT 9999 FEW020 SCT080 BKN200 33/23 Q1009A2982 HR55 RWY NML=METAR SLMG 101900Z 36006KT 9999 FEW017 BKN080 31/23 Q1009 A2982HR63 RWY NML=METAR SLBU 101900Z NIL=METAR SLSA 101900Z 32010KT 8000 VCSH SCT017 FEW023CB BKN200 32/23Q1008 A2979 HR60 CB/SH S/SW/W=METAR SLSR 101900Z 32006KT 9999 SCT017 FEW023CB BKN200 30/23 Q1009A2980 HR64 CB N/NE/E RWY HUM OPR=METAR SLSM 101900Z 33004KT 9999 SCT017 FEW020CB BKN200 25/24 Q1009A2982 HR93 CB NE/E/NW RWY WET OPR C210=
ZPX0634 101900@CAELT@GG SLZZYMYT@CAELT@101859 SLLPYFYA@CAELT@SABO SLRY 101900@CAELT@METAR SLRY 101900Z 32003KT 9999 SCT016 BKN200 30/23 Q1009 A2980@CAELT@HR65 FU AC RWY NML=@CAELT@
ZPX0637 101901@CAELT@GG SLZZYMYT@CAELT@101901 SLCBYGYS@CAELT@SABO SLCB 101900@CAELT@METAR SLCB 101900Z 21005KT 9999 FEW042 FEW045CB BKN200 29/M01 Q1017@CAELT@A3006 745.9 HR14 CB/E/SW FU NOSIG=@CAELT@METAR SLAL 101900Z 01019KT 9999 FEW023 FEW033CB BKN200 21/09 Q1024@CAELT@A3024 700.2 HR45 CB/N FU=@CAELT@METAR SLPO 101900Z NIL=METAR SLAG 101900Z 12007KT 5000 FU SCT023 SCT070 BKN200 30/16 Q1013A2992 885.7 HR43 SH/NE=METAR SLVM 101900Z NIL=METAR SLTJ 101900Z 13011KT 9999 SCT033 FEW036CB 20/15 Q1017 A3004812.7 HR72 CB N/SW/W FU AC=METAR SLYA 101900Z NIL=METAR SLBJ 101900Z NIL=METAR SLHI 101900Z NIL=
ZPX0640 101902@CAELT@GG SLZZYMYT@CAELT@101901 SLLPYFYA@CAELT@SABO SLLP 101900@CAELT@METAR SLLP 101900Z 11004KT 9999 SCT023 FEW025CB BKN200 16/M04 Q1034@CAELT@A3053 625.3 HR25 P94// CB/SH NW FU AC NOSIG=@CAELT@METAR SLCO 101900Z 17006KT 9999 BKN025 35/24 Q1008 A2977 980.9@CAELT@HR55 FU AC/CI=@CAELT@METAR SLRY 101900Z 32003KT 9999 SCT016 BKN200 30/23 Q1009 A2980HR65 FU AC RWY NML=METAR SLRQ 101900Z 36005KT 9999 SCT017 BKN200 32/26 Q1009 A2980 HR69=METAR SLSB 101900Z 31005KT 8000 BKN017 BKN200 30/22 Q1008 A2979HR63 FU RWY NML=
ZPX0659 101936@CAELT@GG SLZZYMYT@CAELT@101936 SLVRYGYH@CAELT@SABO SLAS 101900 CCA@CAELT@METAR COR SLAS 101900Z 36010KT 4000 -TSRA BKN017 FEW030CB OVC070@CAELT@25/23 Q1012 A2989 HR88 CB/TS N/NW RWY HUM OPR=@CAELT@
ZPX0671 101951@CAELT@GG SLZZYMYT@CAELT@101951 SLPSYGYS@CAELT@SABO SLPS 102000@CAELT@METAR SLPS 102000Z 26008KT 9999 FEW020 SCT070 34/25 Q1008 A2977 HR59=@CAELT@
ZPX0673 101952@CAELT@GG SLZZYMYT@CAELT@101952 SLCAYGYS@CAELT@SABO SLCA 102000@CAELT@METAR SLCA 102000Z 00000KT 9999 SCT033 BKN200 32/16 Q1011 A2985 HR41@CAELT@FU RWY NML=@CAELT@
ZPX0674 101953@CAELT@GG SLZZYMYT@CAELT@101950 SLETYMYC@CAELT@SABO SLET 102000Z@CAELT@METAR SLET 102000Z 30015KT 9999 FEW017 BKN200 29/21 Q1008 A29.79 HR60@CAELT@NOSIG=@CAELT@
ZPX0676 101955@CAELT@GG SLZZYMYT@CAELT@101954 SLSAYGYS@CAELT@SABO SLSA 102000@CAELT@METAR SLSA 102000Z 32008KT 8000 VCSH SCT017 FEW023CB BKN200 32/23@CAELT@Q1008 A2978 HR59 CB/SH E/S/SW=@CAELT@
ZPX0677 101955@CAELT@GG SLZZYMYT@CAELT@101954 SLSAYGYS@CAELT@SABO SLSA 102000@CAELT@METAR SLSA 102000Z 32008KT 8000 VCSH SCT017 FEW023CB BKN200 32/23@CAELT@Q1008 A2978 HR59 CB/SH E/S/SW=@CAELT@
ZPX0678 101955@CAELT@GG SLZZYMYT@CAELT@101955 SLCOYGYZ@CAELT@SABO SLCO 102000@CAELT@METAR SLCO 102000Z 22006KT 9999 SCT025 FEW027CB BKN200 30/26 Q1007@CAELT@A2975 980.0 HR79 CB/NE/NW AC=@CAELT@
ZPX0679 101955@CAELT@GG SLZZYMYT@CAELT@101955 SLTRYGYZ@CAELT@SABO SLTR 102000@CAELT@METAR SLTR 102000Z 32006KT 9999 SCT017 FEW020CB BKN200 30/24 Q1008@CAELT@A2979 990.2 HR71 CB W/NW NOSIG=@CAELT@
ZPX0680 101956@CAELT@GG SLZZYMYT@CAELT@101955 SLTJYGYZ@CAELT@SABO SLTJ 102000@CAELT@METAR SLTJ 102000Z 13010KT 9999 BKN027 FEW030CB 20/13 Q1017 A3006 813@CAELT@.1 HR67 CB SW/W SH SW FU AC=@CAELT@
ZPX0681 101956@CAELT@GG SLZZYMYT@CAELT@101956 SLVRYGYZ@CAELT@SABO SLVR 102000@CAELT@METAR SLVR 102000Z 32014KT 9999 SCT017 BKN200 29/23 Q1009 A2980 HR69@CAELT@FU AC NOSIG=@CAELT@
ZPX0683 101956@CAELT@GG SLZZYMYT@CAELT@101957 SLLPYGYZ@CAELT@SABO SLLP 102000@CAELT@METAR SLLP 102000Z 17008G20KT 290V040 9999 SCT023 FEW025CB BKN200 15/@CAELT@M04 Q1033 A3051 624.7 HR27 P4754 CB/SH N/NE FU AC NOSIG=@CAELT@
ZPX0684 101956@CAELT@GG SLZZYMYT@CAELT@101956 SLSBYSYX@CAELT@SABO SLSB 102000@CAELT@METAR SLSB 102000Z 30004KT 8000 SCT020 OVC200 30/24 Q1007 A2976 HR70@CAELT@FU SH DIST NE E RWY NML=@CAELT@
ZPX0685 101957@CAELT@GG SLZZYMYT@CAELT@101956 SLRBYGYS@CAELT@SABO SLRB 102000@CAELT@METAR SLRB 102000Z 36008KT 9999 SCT020 35/21 Q1010 A2983 HR46 RWY NML=@CAELT@
ZPX0686 101957@CAELT@GG SLZZYMYT@CAELT@101955 SLCBYGYZ@CAELT@SABO SLCB 102000@CAELT@METAR SLCB 102000Z 22005KT 9999 FEW042 FEW045CB BKN200 29/00 Q1016@CAELT@A3003 745.0 HR14 CB/VIRGA ON STN FU AC NOSIG=@CAELT@
ZPX0687 101957@CAELT@GG SLZZYMYT@CAELT@101956 SLLPYFYA@CAELT@SABO SLRY 102000@CAELT@METAR SLRY 102000Z 00000KT 9999 FEW017 BKN200 30/23 Q1008 A2979@CAELT@HR65 FU RWY NML=@CAELT@
ZPX0688 101957@CAELT@GG SLZZYMYT@CAELT@101956 SLRQYSYX@CAELT@SABO SLRQ 102000@CAELT@METAR SLRQ 102000Z 36004KT 9999 FEW017 BKN200 30/25 Q1008 A2977 HR73=@CAELT@
ZPX0690 102000@CAELT@GG SLZZYMYT@CAELT@101958 SLTRYGYS@CAELT@SABO SLTR 102000@CAELT@METAR SLTR 102000Z 32006KT 9999 SCT017 FEW020CB BKN200 30/24 Q1008@CAELT@A2979 990.2 HR71 CB W/NW NOSIG=@CAELT@METAR SLRI 102000Z 27007KT 8000 VCSH SCT017 FEW020CB BKN200 29/24@CAELT@Q1008 A2979 HR76 CB/SH SW/W/NW AC=@CAELT@METAR SLGM 102000Z 05010KT 9999 SCT017 FEW020CB BKN200 32/21 Q1007A2976 HR63 AC CB NE/S=METAR SLJO 102000Z NIL=METAR SLRA 102000Z 36010KT 8000 VCSH FEW020 FEW023CB BKN200 33/23Q1008 A2979 HR55 AC CB/SH NE RWY NML=METAR SLMG 102000Z 03004KT 9999 FEW017 FEW023CB BKN080 31/23 Q1009A2980 HR63 CB W RWY NML=METAR SLBU 102000Z NIL=METAR SLSA 102000Z 32008KT 8000 VCSH SCT017 FEW023CB BKN200 32/23Q1008 A2978 HR59 CB/SH E/S/SW=METAR SLSR 102000Z 32006KT 8000 VCSH SCT017 FEW023CB BKN200 30/24Q1008 A2977 HR69 CB/SH N/SE/S RWY HUM OPR=METAR SLSM 102000Z 33004KT 9999 FEW017 FEW020CB BKN200 25/23 Q1009A2980 HR89 CB NE/E/S RWY WET OPR C210=
ZPX0691 102000@CAELT@GG SLZZYMYT@CAELT@102000 SLLPYFYA@CAELT@SABO SLLP 102000@CAELT@METAR SLLP 102000Z 17008G20KT 290V040 9999 SCT023 FEW025CB BKN200@CAELT@15/M04 Q1033 A3051 624.7 HR27 P4754 CB/SH N/NE FU AC NOSIG=@CAELT@METAR SLCO 102000Z 22006KT 9999 SCT025 FEW027CB BKN200 30/26 Q1007@CAELT@A2975 980.0 HR79 CB/NE/NW AC=@CAELT@METAR SLRY 102000Z 00000KT 9999 FEW017 BKN200 30/23 Q1008 A2979HR65 FU RWY NML=METAR SLRQ 102000Z 36004KT 9999 FEW017 BKN200 30/25 Q1008 A2977HR73=METAR SLSB 102000Z 30004KT 8000 SCT020 OVC200 30/24 Q1007 A2976HR70 FU SH DIST NE E RWY NML=
ZPX0692 102000@CAELT@GG SLZZYMYT@CAELT@101958 SLTRYGYS@CAELT@SABO SLTR 102000@CAELT@METAR SLTR 102000Z 32006KT 9999 SCT017 FEW020CB BKN200 30/24 Q1008@CAELT@A2979 990.2 HR71 CB W/NW NOSIG=@CAELT@METAR SLGM 102000Z 05010KT 9999 SCT017 FEW020CB BKN200 32/21 Q1007@CAELT@A2976 HR63 AC CB NE/S=@CAELT@METAR SLRI 102000Z 27007KT 8000 VCSH SCT017 FEW020CB BKN200 29/24Q1008 A2979 HR76 CB/SH SW/W/NW AC=METAR SLJO 102000Z NIL=METAR SLRA 102000Z 36010KT 8000 VCSH FEW020 FEW023CB BKN200 33/23Q1008 A2979 HR55 AC CB/SH NE RWY NML=METAR SLMG 102000Z 03004KT 9999 FEW017 FEW023CB BKN080 31/23 Q1009A2980 HR63 CB W RWY NML=METAR SLBU 102000Z NIL=METAR SLSA 102000Z 32008KT 8000 VCSH SCT017 FEW023CB BKN200 32/23Q1008 A2978 HR59 CB/SH E/S/SW=METAR SLSR 102000Z 32006KT 8000 VCSH SCT017 FEW023CB BKN200 30/24Q1008 A2977 HR69 CB/SH N/SE/S RWY HUM OPR=METAR SLSM 102000Z 33004KT 9999 FEW017 FEW020CB BKN200 25/23 Q1009A2980 HR89 CB NE/E/S RWY WET OPR C210=
ZPX0696 102003@CAELT@GG SLZZYMYT@CAELT@102003 SLCBYGYS@CAELT@SABO SLCB 102000@CAELT@METAR SLCB 102000Z 22005KT 9999 FEW042 FEW045CB BKN200 29/00 Q1016@CAELT@A3003 745.0 HR14 CB/VIRGA ON STN FU AC NOSIG=@CAELT@METAR SLAL 102000Z 03017KT 9999 FEW023 FEW033CB BKN200 20/09 Q1023@CAELT@A3022 699.8 HR47 CB SE/S/SW FU=@CAELT@METAR SLPO 102000Z NIL=METAR SLAG 102000Z NIL=METAR SLVM 102000Z NIL=METAR SLTJ 102000Z 13010KT 9999 BKN027 FEW030CB 20/13 Q1017 A3006813.1 HR67 CB SW/W SH SW FU AC=METAR SLYA 102000Z NILMETAR SLBJ 102000Z NIL=METAR SLHI 102000Z NIL=
ZPX0697 102004@CAELT@GG SLZZYMYT@CAELT@102004 SLVRYGYS@CAELT@SABO SLVR 102000@CAELT@METAR SLVR 102000Z 32014KT 9999 SCT017 BKN200 29/23 Q1009 A2980@CAELT@HR69 FU AC NOSIG=@CAELT@METAR SLET 102000Z 30015KT 9999 FEW017 BKN200 29/21 Q1008 A29.79@CAELT@HR60 NOSIG=@CAELT@METAR SLAS 102000Z 00000KT 9999 TS SCT020 FEW030CB OVC200 25/24Q1011 A2986 HR91 CB/TS/SH/E/SE/S RERA RWY HUM OPR=METAR SLJV 102000Z 34012KT 9999 SCT020 FEW030CB BKN200 28/21 Q1010A2983 HR66 CB/N/NW RWY NML=METAR SLCP 102000Z 00000KT 9999 SCT017 BKN070 27/21 Q1013 A2991HR71 RWY NML=METAR SLSI 102000Z 33010KT 9999 SCT017 BKN070 31/21Q1010 A2983HR54 RWY NML=METAR SLTI 102000Z 00000KT 9999 BKN070 32/19 Q1013 A2991 HR46RWY NML=METAR SLJE 102000Z 36006KT 9999 SCT020 36/21 Q1011 A2985 HR42METAR SLVG 102000Z 02007KT 9999 FEW025 BKN200 22/14 Q1020 A3012HR57 FU RWY NML=METAR SLRB 102000Z 36008KT 9999 SCT020 35/21 Q1010 A2983 HR46METAR SLPS 102000Z 26008KT 9999 FEW020 SCT070 34/25 Q1008 A2977HR59=METAR SLCA 102000Z 00000KT 9999 SCT033 BKN200 32/16 Q1011 A2985HR41 FU RWY NML=
ZPX0715 102051@CAELT@GG SLZZYMYT@CAELT@102051 SLPSYGYS@CAELT@SABO SLPS 102100@CAELT@METAR SLPS 102100Z 26006KT 9999 FEW070 33/25 Q1007 A2974 HR63=@CAELT@
ZPX0716 102052@CAELT@GG SLZZYMYT@CAELT@102051 SLETYMYC@CAELT@SABO SLET 102100Z@CAELT@METAR SLET 102100Z 30013KT 9999 FEW017 BKN200 28/21 Q1008 A29.79 HR63@CAELT@NOSIG=@CAELT@
ZPX0718 102054@CAELT@GG SLZZYMYT@CAELT@102055 SLCOYGYZ@CAELT@SABO SLCO 102100@CAELT@METAR SLCO 102100Z 07008KT 6000 TS VCSH BKN025 FEW027CB BKN200 29/25@CAELT@Q1007 A2976 980.5 HR80 TS/NE CB/SH/N/NE/E/SE AC=@CAELT@
ZPX0720 102054@CAELT@GG SLZZYMYT@CAELT@102054 SLSAYGYS@CAELT@SABO SLSA 102100@CAELT@METAR SLSA 102100Z 33006KT 9999 SCT017 FEW023CB BKN200 31/22 Q1007@CAELT@A2976 HR58 CB E=@CAELT@
ZPX0721 102055@CAELT@GG SLZZYMYT@CAELT@102054 SLSAYGYS@CAELT@SABO SLSA 102100@CAELT@METAR SLSA 102100Z 33006KT 9999 SCT017 FEW023CB BKN200 31/22 Q1007@CAELT@A2976 HR58 CB E=@CAELT@
ZPX0722 102055@CAELT@GG SLZZYMYT@CAELT@102056 SLVRYGYZ@CAELT@SABO SLVR 102100@CAELT@METAR SLVR 102100Z 32011KT 9999 FEW017 BKN200 29/23 Q1008 A2979 HR69@CAELT@FU NOSIG=@CAELT@
ZPX0723 102055@CAELT@GG SLZZYMYT@CAELT@102055 SLSBYSYX@CAELT@SABO SLSB 102100@CAELT@METAR SLSB 102100Z 27003KT 8000 FEW020 OVC200 30/24 Q1006 A2973 HR72@CAELT@FU RWY NML=@CAELT@
ZPX0725 102055@CAELT@GG SLZZYMYT@CAELT@102055 SLCAYGYS@CAELT@SABO SLCA 102100@CAELT@METAR SLCA 102100Z 00000KT 9999 SCT033 BKN200 31/17 Q1011 A2985 HR43@CAELT@FU RWY NML=@CAELT@
ZPX0726 102057@CAELT@GG SLZZYMYT@CAELT@102056 SLRQYSYX@CAELT@SABO SLRQ 102100@CAELT@METAR SLRQ 102100Z 00000KT 9999 FEW017 BKN200 28/25 Q1007 A2975 HR83=@CAELT@
ZPX0727 102057@CAELT@GG SLZZYMYT@CAELT@102056 SLCBYGYZ@CAELT@SABO SLCB 102100@CAELT@METAR SLCB 102100Z 18006KT 9999 FEW040 FEW042CB BKN200 27/M01 Q1016@CAELT@A3002 744.9 HR15 CB/E/SE/SW VIRGA/SW FU AC NOSIG=@CAELT@
ZPX0728 102057@CAELT@GG SLZZYMYT@CAELT@102056 SLTRYGYZ@CAELT@SABO SLTR 102100@CAELT@METAR SLTR 102100Z 00000KT 9999 FEW017 FEW020CB BKN200 29/23 Q1007@CAELT@A2976 989.2 HR70 CB NE/E/SE NOSIG=@CAELT@
ZPX0729 102058@CAELT@GG SLZZYMYT@CAELT@102056 SLRBYGYS@CAELT@SABO SLRB 102100@CAELT@METAR SLRB 102100Z 36008KT 9999 SCT020 33/22 Q1010 A2983 HR52 RWY NML=@CAELT@
ZPX0730 102058@CAELT@GG SLZZYMYT@CAELT@102056 SLTJYGYZ@CAELT@SABO SLTJ 102100@CAELT@METAR SLTJ 102100Z 15008KT 9000 SCT025 FEW030CB SCT070 19/13 Q1017@CAELT@A3006 813.1 HR70 CB/NE/SW CI FU=@CAELT@
ZPX0731 102059@CAELT@GG SLZZYMYT@CAELT@102059 SLLPYGYZ@CAELT@SABO SLLP 102100@CAELT@METAR SLLP 102100Z 11005KT 9999 SCT023 FEW025CB BKN200 16/M05 Q1032@CAELT@A3050 624.5 HR24 P1784 CB/SH NE FU AC NOSIG=@CAELT@
ZPX0732 102059@CAELT@GG SLZZYMYT@CAELT@102059 SLVRYGYS@CAELT@SABO SLVR 102100@CAELT@METAR SLVR 102100Z 32011KT 9999 FEW017 BKN200 29/23 Q1008 A2979@CAELT@HR69 FU NOSIG=@CAELT@METAR SLET 102100Z 30013KT 9999 FEW017 BKN200 28/21 Q1008 A29.79@CAELT@HR63 NOSIG=@CAELT@METAR SLAS 102100Z 00000KT 9999 TS SCT017 FEW030CB OVC200 25/23Q1011 A2986 HR85 CB/TS/S/SW RWY HUM OPR=METAR SLJV 102100Z 34010KT 9999 FEW020 BKN200 25/20 Q1009 A2980HR77 RWY NML=METAR SLCP 102100Z 00000KT 9999 FEW017 BKN070 27/21 Q1012 A2988HR71 RWY NML=METAR SLSI 102100Z 33008KT 9999 SCT017 BKN070 30/22 Q1009 A2980HR60 RWY NML=METAR SLTI 102100Z 00000KT 9999 BKN070 32/21 Q1012 A2988 HR51 RWY NMLMETAR SLJE 102100Z 36006KT 9999 SCT020 35/21 Q1011 A2985 HR43 RWY NMLMETAR SLVG 102100Z 35006KT 9999 FEW025 FEW030CB BKN200 22/14 Q1020A3012 HR57 CB/S FU RWY NML=METAR SLRB 102100Z 36008KT 9999 SCT020 33/22 Q1010 A2983 HR52RWY NML=METAR SLPS 102100Z 26006KT 9999 FEW070 33/25 Q1007 A2974 HR63=METAR SLCA 102100Z 00000KT 9999 SCT033 BKN200 31/17 Q1011 A2985HR43 FU RWY NML=
ZPX0734 102059@CAELT@GG SLZZYMYT@CAELT@102058 SLTRYGYS@CAELT@SABO SLTR 102100@CAELT@METAR SLTR 102100Z 00000KT 9999 FEW017 FEW020CB BKN200 29/23 Q1007@CAELT@A2976 989.2 HR70 CB NE/E/SE NOSIG=@CAELT@METAR SLGM 102100Z 00000KT 8000 VCSH SCT017 FEW020CB BKN200 33/24@CAELT@Q1007 A2975 HR61 CB/SH NE/SE/S=@CAELT@METAR SLRI 102100Z 27007KT 6000 VCSH SCT015 FEW020CB BKN200 27/24Q1009 A2980 HR85 CB/SH SW/W/NW AC=METAR SLJO 102100Z NIL=METAR SLRA 102100Z 06006KT 8000 VCSH FEW020 FEW023CB BKN200 29/24Q1008 A2977 HR74 AC CB/SH W RWY NML=METAR SLMG 102100Z 00000KT 9999 FEW017 BKN080 31/24 Q1008 A2979 HR67RWY NML=METAR SLBU 102100Z NIL=METAR SLSA 102100Z 33006KT 9999 SCT017 FEW023CB BKN200 31/22 Q1007A2976 HR58 CB E=METAR SLSR 102100Z 32004KT 8000 VCSH FEW017 FEW023CB BKN200 30/24Q1004 A2970 HR70 CB/SH N/NW RWY HUM OPR=METAR SLSM 102100Z 00000KT 9999 FEW020 FEW023CB BKN200 26/24 Q1008A2977 HR88 CB NE RWY HUM OPR=
ZPX0736 102101@CAELT@GG SLZZYMYT@CAELT@102102 SLLPYGYZ@CAELT@SABO SLLP 102100 CCA@CAELT@METAR COR SLLP 102100Z 11005KT 9999 FEW023 FEW025CB BKN200 16/M05@CAELT@Q1032 A3050 624.5 HR24 P1784 CB/SH NE FU AC NOSIG=@CAELT@
ZPX0737 102102@CAELT@GG SLZZYMYT@CAELT@102102 SLCBYGYS@CAELT@SABO SLCB 102100@CAELT@METAR SLCB 102100Z 18006KT 9999 FEW040 FEW042CB BKN200 27/M01 Q1016@CAELT@A3002 744.9 HR15 CB/E/SE/SW VIRGA/SW FU AC NOSIG=@CAELT@METAR SLAL 102100Z 06018KT 9999 FEW023 FEW033CB BKN200 20/09 Q1023@CAELT@A3023 699.9 HR51 CB S/SW FU=@CAELT@METAR SLPO 102100Z NIL=METAR SLAG 102100Z NIL=METAR SLVM 102100Z NIL=METAR SLTJ 102100Z 15008KT 9000 SCT025 FEW030CB SCT070 19/13 Q1017A3006 813.1 HR70 CB/NE/SW CI FU=METAR SLYA 102100Z NILMETAR SLBJ 102100Z NIL=METAR SLHI 102100Z NIL=
ZPX0739 102103@CAELT@GG SLZZYMYT@CAELT@102101 SLLPYFYA@CAELT@SABO SLRY 102100@CAELT@METAR SLRY 102100Z 32003KT 9999 FEW020 BKN200 30/23 Q1007 A2975@CAELT@HR67 FU RWY NML=@CAELT@
ZPX0741 102105@CAELT@GG SLZZYMYT@CAELT@102105 SLLPYFYA@CAELT@SABO SLLP 102100@CAELT@METAR SLLP 102100Z 11005KT 9999 FEW023 FEW025CB BKN200 16/M05@CAELT@Q1032 A3050 624.5 HR24 P1784 CB/SH NE FU AC NOSIG=@CAELT@METAR SLCO 102100Z 07008KT 6000 TS VCSH BKN025 FEW027CB BKN200@CAELT@29/25 Q1007 A2976 980.5 HR80 TS/NE CB/SH/N/NE/E/SE AC=@CAELT@METAR SLRY 102100Z 32003KT 9999 FEW020 BKN200 30/23 Q1007 A2975HR67 FU RWY NML=METAR SLRQ 102100Z 00000KT 9999 FEW017 BKN200 28/25 Q1007 A2975 HR83=METAR SLSB 102100Z 27003KT 8000 FEW020 OVC200 30/24 Q1006 A2973 HR72FU RWY NML=
ZPX0761 102153@CAELT@GG SLZZYMYT@CAELT@102151 SLETYMYC@CAELT@SABO SLET 102200Z@CAELT@METAR SLET 102200Z 31013KT 9999 FEW017 BKN200 28/21 Q1009 A2980 HR65@CAELT@NOSIG@CAELT@
ZPX0762 102154@CAELT@GG SLZZYMYT@CAELT@102154 SLPSYGYS@CAELT@SABO SLPS 102200@CAELT@METAR SLPS 102200Z 26006KT 9999 FEW070 31/26 Q1007 A2974 HR74=@CAELT@
ZPX0763 102154@CAELT@GG SLZZYMYT@CAELT@102155 SLRQYSYX@CAELT@SABO SLRQ 102200@CAELT@METAR SLRQ 102200Z 00000KT 9999 SCT080 BKN200 28/25 Q1007 A2975 HR83=@CAELT@
ZPX0764 102155@CAELT@GG SLZZYMYT@CAELT@102155 SLLPYGYZ@CAELT@SABO SLLP 102200@CAELT@METAR SLLP 102200Z 06010KT 020V080 9999 FEW020 BKN200 14/M02 Q1032@CAELT@A3049 624.3 HR32 P93// AC FU NOSIG=@CAELT@
ZPX0765 102155@CAELT@GG SLZZYMYT@CAELT@102154 SLCAYGYS@CAELT@SABO SLCA 102200@CAELT@METAR SLCA 102200Z 00000KT 9999 SCT033 FEW040CB BKN200 30/17 Q1011@CAELT@A2985 HR46 CB W FU RWY NML=@CAELT@
ZPX0766 102156@CAELT@GG SLZZYMYT@CAELT@102155 SLTRYGYZ@CAELT@SABO SLTR 102200@CAELT@METAR SLTR 102200Z 00000KT 9999 FEW017 FEW020CB BKN200 28/23 Q1007@CAELT@A2974 988.8 HR73 CB NE/SE NOSIG=@CAELT@
ZPX0767 102156@CAELT@GG SLZZYMYT@CAELT@102155 SLSAYGYS@CAELT@SABO SLSA 102200@CAELT@METAR SLSA 102200Z 00000KT 9999 SCT017 FEW023CB BKN200 29/24 Q1007@CAELT@A2974 HR72 CB N=@CAELT@
ZPX0768 102156@CAELT@GG SLZZYMYT@CAELT@102155 SLSAYGYS@CAELT@SABO SLSA 102200@CAELT@METAR SLSA 102200Z 00000KT 9999 SCT017 FEW023CB BKN200 29/24 Q1007@CAELT@A2974 HR72 CB N=@CAELT@
ZPX0769 102156@CAELT@GG SLZZYMYT@CAELT@102156 SLLPYFYA@CAELT@SABO SLRY 102200@CAELT@METAR SLRY 102200Z 00000KT 9999 FEW020 BKN200 28/23 Q1007 A2974@CAELT@HR76 FU RWY NML=@CAELT@
ZPX0771 102157@CAELT@GG SLZZYMYT@CAELT@102155 SLCBYGYZ@CAELT@SABO SLCB 102200@CAELT@METAR SLCB 102200Z 21012KT 130V260 9999 FEW036 FEW040CB BKN200 25/07@CAELT@Q1016 A3003 745.0 HR32 CB DIST SE FU AC NOSIG=@CAELT@
ZPX0772 102157@CAELT@GG SLZZYMYT@CAELT@102157 SLVRYGYZ@CAELT@SABO SLVR 102200@CAELT@METAR SLVR 102200Z 32010KT 9999 FEW017 BKN200 28/22 Q1009 A2982 HR70@CAELT@FU NOSIG=@CAELT@
ZPX0774 102157@CAELT@GG SLZZYMYT@CAELT@102156 SLSBYSYX@CAELT@SABO SLSB 102200@CAELT@METAR SLS 102200Z 00000KT 8000 NSC 28/24 Q1006 A2973 HR76 FU RWY NML=@CAELT@
ZPX0776 102157@CAELT@GG SLZZYMYT@CAELT@102156 SLRBYGYS@CAELT@SABO SLRB 102200@CAELT@METAR SLRB 102200Z 36005KT 9999 FEW020 33/22 Q1010 A2983 HR52 RWY NML=@CAELT@
ZPX0777 102158@CAELT@GG SLZZYMYT@CAELT@102157 SLTJYGYZ@CAELT@SABO SLTJ 102200@CAELT@METAR SLTJ 102200Z 15006KT 9000 SCT025 FEW030CB SCT070 18/13 Q1018@CAELT@A3007 813.4 HR69 CB/SH/SW CI FU=@CAELT@
ZPX0780 102159@CAELT@GG SLZZYMYT@CAELT@102159 SLCBYGYS@CAELT@SABO SLCB 102200@CAELT@METAR SLCB 102200Z 21012KT 130V260 9999 FEW036 FEW040CB BKN200 25/07@CAELT@Q1016 A3003 745.0 HR32 CB DIST SE FU AC NOSIG=@CAELT@METAR SLTJ 102200Z 15006KT 9000 SCT025 FEW030CB SCT070 18/13 Q1018@CAELT@A3007 813.4 HR69 CB/SH/SW CI FU=@CAELT@
ZPX0781 102159@CAELT@GG SLZZYMYT@CAELT@102158 SLTRYGYS@CAELT@SABO SLTR 102200@CAELT@METAR SLTR 102200Z 00000KT 9999 FEW017 FEW020CB BKN200 28/23 Q1007@CAELT@A2974 988.8 HR73 CB NE/SE NOSIG=@CAELT@METAR SLGM 102200Z 00000KT 8000 VCSH SCT017 FEW020CB BKN200 30/24@CAELT@Q1008 A2977 HR69 CB/SH NE/SE/S=@CAELT@METAR SLRI 102200Z 30007KT 8000 VCSH SCT015 FEW020CB BKN200 26/24Q1009 A2980 HR88 CB N/SW/W/NW SH/SW AC=METAR SLJO 102200Z NIL=METAR SLRA 102200Z 09003KT 9999 FEW020 BKN200 29/24 Q1007 A2975HR72 RWY NML=METAR SLMG 102200Z 00000KT 9999 FEW017 BKN200 30/24 Q1008 A2977HR68 RWY NML=METAR SLBU 102200Z NIL=METAR SLSA 102200Z 00000KT 9999 SCT017 FEW023CB BKN200 29/24 Q1007A2974 HR72 CB N=METAR SLSR 102200Z 32004KT 7000 VCSH SCT017 FEW023CB BKN200 30/24Q1006 A2971 HR73 CB/SH W/NW RWY HUM OPR=METAR SLSM 102200Z 00000KT 9999 FEW020 FEW023CB BKN200 26/24 Q1007A2976 HR88 CB NE RWY HUM OPR=
ZPX0788 102202@CAELT@GG SLZZYMYT@CAELT@102201 SLLPYFYA@CAELT@SABO SLLP 102200@CAELT@METAR SLLP 102200Z 06010KT 020V080 9999 FEW020 BKN200 14/M02 Q1032@CAELT@A3049 624.3 HR32 P93// AC FU NOSIG=@CAELT@METAR SLRY 102200Z 00000KT 9999 FEW020 BKN200 28/23 Q1007 A2974@CAELT@HR76 FU RWY NML=@CAELT@METAR SLRQ 102200Z 00000KT 9999 SCT080 BKN200 28/25 Q1007 A2975 HR83=METAR SLSB 102200Z 00000KT 8000 NSC 28/24 Q1006 A2973 HR76 FU RWY NML=
ZPX0789 102202@CAELT@GG SLZZYMYT@CAELT@102202 SLVRYGYS@CAELT@SABO SLVR 102200@CAELT@METAR SLVR 102200Z 32010KT 9999 FEW017 BKN200 28/22 Q1009 A2982@CAELT@HR70 FU NOSIG=@CAELT@METAR SLET 102200Z 31013KT 9999 FEW017 BKN200 28/21 Q1009 A2980@CAELT@HR65 NOSIG=@CAELT@METAR SLAS 102200Z 00000KT 9999 NSC 25/23 Q1011 A2986 HR 91 RETSRWY HUM OPR=METAR SLJV 102200Z 34005KT 9999 FEW020 BKN200 24/20 Q1009 A2980HR77 RWY NML=METAR SLCP 102200Z 00000KT 9999 BKN070 26/22 Q1012 A2988 HR76RWY NML=METAR SLSI 102200Z 36006KT 9999 BKN070 29/22 Q1010 A2983 HR64METAR SLTI 102200Z 00000KT 9999 BKN070 31/21 Q1012 A2988 HR56METAR SLJE 102200Z 36005KT 9999 FEW020 33/20 Q1011 A2985 HR47METAR SLVG 102200Z NIL=METAR SLRB 102200Z 36005KT 9999 FEW020 33/22 Q1010 A2983 HR52METAR SLPS 102200Z 26006KT 9999 FEW070 31/26 Q1007 A2974 HR74=METAR SLCA 102200Z 00000KT 9999 SCT033 FEW040CB BKN200 30/17 Q1011A2985 HR46 CB W FU RWY NML=
ZPX0794 102211@CAELT@GG SLZZYMYT@CAELT@102201 SLCBYGYS@CAELT@SABO SLCB 102200@CAELT@METAR SLCB 102200Z 21012KT 130V260 9999 FEW036 FEW040CB BKN200 25/07@CAELT@Q1016 A3003 745.0 HR32 CB DIST SE FU AC NOSIG=@CAELT@METAR SLAL 102200Z 04016KT 9999 FEW023 FEW033CB BKN200 16/11 Q1025@CAELT@A3027 700.9 HR70 CB SE/S/SW/W FU=@CAELT@METAR SLTJ 102200Z 15006KT 9000 SCT025 FEW030CB SCT070 18/13 Q1018A3007 813.4 HR69 CB/SH/SW CI FU=
ZPX0806 102247@CAELT@GG SLZZYMYT@CAELT@102247 SLCAYGYS@CAELT@SABO SLCA 102300@CAELT@METAR SLCA 102300Z 00000KT 9999 SCT033 FEW040CB OVC200 29/17 Q1012@CAELT@A2988 HR50 CB W FU RWY NML=@CAELT@
ZPX0808 102256@CAELT@GG SLZZYMYT@CAELT@102255 SLSBYSYX@CAELT@SABO SLSB 102300@CAELT@METAR SLSB 102300Z 00000KT 5000 FU NSC 27/25 Q1008 A2978 HR86 CS RWY@CAELT@NML=@CAELT@
ZPX0809 102256@CAELT@GG SLZZYMYT@CAELT@102255 SLRBYGYS@CAELT@SABO SLRB 102300@CAELT@METAR SLRB 102300Z 00000KT 9999 NSC 31/21 Q1010 A2983 HR56 RWY NML=@CAELT@
ZPX0810 102256@CAELT@GG SLZZYMYT@CAELT@102256 SLTJYGYZ@CAELT@SABO SLTJ 102300@CAELT@METAR SLTJ 102300Z 14008KT 9000 SCT023 BKN070 18/13 Q1019 A3009 814.1@CAELT@HR73 CI FU=@CAELT@
ZPX0811 102257@CAELT@GG SLZZYMYT@CAELT@102257 SLVRYGYZ@CAELT@SABO SLVR 102300@CAELT@METAR SLVR 102300Z 31010KT 9999 SCT017 FEW027CB BKN200 26/22 Q1010@CAELT@A2983 HR75 CB NE FU NOSIG=@CAELT@
ZPX0812 102257@CAELT@GG SLZZYMYT@CAELT@102255 SLTRYGYZ@CAELT@SABO SLTR 102300@CAELT@METAR SLTR 102300Z 00000KT 9999 FEW017 FEW023CB BKN200 27/23 Q1008@CAELT@A2977 989.5 HR78 CB NE NOSIG=@CAELT@
ZPX0813 102258@CAELT@GG SLZZYMYT@CAELT@102258 SLVRYGYS@CAELT@SABO SLVR 102300@CAELT@METAR SLVR 102300Z 31010KT 9999 SCT017 FEW027CB BKN200 26/22 Q1010@CAELT@A2983 HR75 CB NE FU NOSIG=@CAELT@METAR SLSI 102300Z 00000KT 9999 BKN070 29/23 Q1010 A2983 HR72 RWY NML@CAELT@METAR SLRB 102300Z 00000KT 9999 NSC 31/21 Q1010 A2983 HR56 RWY NML=@CAELT@METAR SLCA 102300Z 00000KT 9999 SCT033 FEW040CB OVC200 29/17 Q1012A2988 HR50 CB W FU RWY NML=
ZPX0814 102258@CAELT@GG SLZZYMYT@CAELT@102256 SLTRYGYS@CAELT@SABO SLTR 102300@CAELT@METAR SLTR 102300Z 00000KT 9999 FEW017 FEW023CB BKN200 27/23 Q1008@CAELT@A2977 989.5 HR78 CB NE NOSIG=@CAELT@METAR SLRI 102300Z 36010KT 8000 -SHRA FEW004 SCT015 FEW020CB BKN200@CAELT@25/23 Q1010 A2983 HR89 CB N/NE/NW AC=@CAELT@METAR SLMG 102300Z 00000KT 9999 NSC 29/25 Q1008 A2977 HR76 CIRWY NML=METAR SLSA 102300Z 00000KT 9999 FEW017 FEW023CB BKN200 28/24 Q1007A2975 HR78 CB W=
ZPX0815 102258@CAELT@GG SLZZYMYT@CAELT@102258 SLCBYGYZ@CAELT@SABO SLCB 102300@CAELT@METAR SLCB 102300Z 14009KT 9999 FEW033 FEW036CB BKN200 22/09 Q1018@CAELT@A3008 746.4 HR41 CB DIST S AC NOSIG=@CAELT@
ZPX0816 102259@CAELT@GG SLZZYMYT@CAELT@102259 SLCBYGYS@CAELT@SABO SLCB 102300@CAELT@METAR SLCB 102300Z 14009KT 9999 FEW033 FEW036CB BKN200 22/09 Q1018@CAELT@A3008 746.4 HR41 CB DIST S AC NOSIG=@CAELT@METAR SLAL 102300Z 05017KT 8000 FEW020 FEW033CB BKN200 14/09 Q1025@CAELT@A3029 701.2 HR69 CB S/SW/NW FU=@CAELT@METAR SLTJ 102300Z 14008KT 9000 SCT023 BKN070 18/13 Q1019 A3009 814.1HR73 CI FU=
ZPX0818 102300@CAELT@GG SLLPZRZX@CAELT@102256 SLLPYGYZ@CAELT@SABO SLLP 102300@CAELT@METAR SLLP 102300Z 05008KT 9999 FEW017 BKN200 10/M00 Q1033 A3052@CAELT@625.0 HR48 AC FU NOSIG=@CAELT@
ZPX0819 102301@CAELT@GG SLZZYMYT@CAELT@102301 SLLPYFYA@CAELT@SABO SLLP 102300@CAELT@METAR SLLP 102300Z 05008KT 9999 FEW017 BKN200 10/M00 Q1033 A3052@CAELT@625.0 HR48 AC FU NOSIG=@CAELT@METAR SLSB 102300Z 00000KT 5000 FU NSC 27/25 Q1008 A2978 HR86@CAELT@CS RWY NML=@CAELT@
ZPX0827 102355@CAELT@GG SLLPZRZX@CAELT@102355 SLLPYGYZ@CAELT@SABO SLLP 110000@CAELT@METAR SLLP 110000Z 04008KT 360V070 9999 FEW015 BKN200 09/01 Q1034@CAELT@A3055 625.7 HR55 AC FU NOSIG=@CAELT@
ZPX0828 102356@CAELT@GG SLZZYMYT@CAELT@102356 SLCBYGYZ@CAELT@SABO SLCB 110000@CAELT@METAR SLCB 110000Z 10006KT 9999 FEW033 FEW036CB BKN200 21/07 Q1020@CAELT@A3013 747.8 HR40 CB/LT DIST S AC FU NOSIG=@CAELT@
