
ZPX0002 150001@CAELT@GG SLZZYMYT@CAELT@150001 SLCBYGYS@CAELT@SABO SLCB 150000@CAELT@METAR SLCB 150000Z 12012KT 9999 FEW033 SCT080 20/06 Q1020 A3014 748.0@CAELT@HR42 CI NOSIG=@CAELT@METAR SLAL 150000Z 35012KT 9999 BKN013 FEW027CB BKN200 11/09 Q1027@CAELT@A3032 702.1 HR91 CB/N/SW/NW AC=@CAELT@METAR SLTJ 150000Z 00000KT 9999 FEW030 SCT200 21/13 Q1015 A2999 811.2HR60=
ZPX0023 150056@CAELT@GG SLLPZRZX@CAELT@150055 SLLPYGYZ@CAELT@SABO SLLP 150100@CAELT@METAR SLLP 150100Z 07005KT 9999 FEW013 FEW017CB BKN200 07/04 Q1035@CAELT@A3059 626.6 HR79 CB/LT N AC NOSIG=@CAELT@
ZPX0025 150057@CAELT@GG SLZZYMYT@CAELT@150056 SLVRYGYZ@CAELT@SABO SLVR 150100Z@CAELT@METAR SLVR 150100Z 04003KT 9999 BKN006 BKN200 20/20 Q1010 A2983 HR98@CAELT@NOSIG=@CAELT@
ZPX0028 150059@CAELT@GG SLZZYMYT@CAELT@150058 SLCBYGYZ@CAELT@SABO SLCB 150100@CAELT@METAR SLCB 150100Z 13004KT 9999 FEW033 SCT080 18/10 Q1021 A3018 749.0@CAELT@HR57 NOSIG=@CAELT@
ZPX0040 150156@CAELT@GG SLLPZRZX@CAELT@150155 SLLPYGYZ@CAELT@SABO SLLP 150200@CAELT@METAR SLLP 150200Z 07006KT 9999 FEW013 FEW017CB SCT200 06/04 Q1036@CAELT@A3062 627.2 HR85 CB/LT SE AC NOSIG=@CAELT@
ZPX0041 150157@CAELT@GG SLZZYMYT@CAELT@150157 SLCBYGYZ@CAELT@SABO SLCB 150200@CAELT@METAR SLCB 150200Z 12006KT 9999 FEW033 18/10 Q1023 A3023 750.3 HR58@CAELT@AC NOSIG=@CAELT@
ZPX0042 150157@CAELT@GG SLZZYMYT@CAELT@150156 SLVRYGYZ@CAELT@SABO SLVR 150200Z@CAELT@METAR SLVR 150200Z VRB02KT 7000 BKN006 20/20 Q1010 A2983 HR100 BR@CAELT@TEMPO 1000 FG=@CAELT@
ZPX0051 150256@CAELT@GG SLLPZRZX@CAELT@150255 SLLPYGYZ@CAELT@SABO SLLP 150300@CAELT@METAR SLLP 150300Z 08006KT 9999 FEW006 SCT200 06/04 Q1037 A3063@CAELT@627.4 HR88 AC NOSIG=@CAELT@
ZPX0057 150300@CAELT@GG SLZZYMYT@CAELT@150259 SLCBYGYZ@CAELT@SABO SLCB 150300@CAELT@METAR SLCB 150300Z 12008KT 9999 FEW033 BKN200 17/09 Q1024 A3024 750.7@CAELT@HR60 NOSIG=@CAELT@
ZPX0061 150304@CAELT@GG SLZZYMYT@CAELT@150303 SLVRYGYU@CAELT@SABO SLVR 150300@CAELT@METAR SLVR 150300Z 05004KT 0500 FG BKN008 19/19 Q1010 A2984 HR100@CAELT@NOSIG=@CAELT@
ZPX0069 150356@CAELT@GG SLLPZRZX@CAELT@150355 SLLPYGYZ@CAELT@SABO SLLP 150400@CAELT@METAR SLLP 150400Z 06006KT 9999 FEW003 SCT200 05/04 Q1036 A3062@CAELT@627.2 HR94 AC BECMG 4000E VCFG=@CAELT@
ZPX0070 150356@CAELT@GG SLZZYMYT@CAELT@150356 SLCBYGYZ@CAELT@SABO SLCB 150400@CAELT@METAR SLCB 150400Z 12006KT 9999 FEW033 SCT200 17/10 Q1023 A3022 750.1@CAELT@HR63 NOSIG=@CAELT@
ZPX0071 150357@CAELT@GG SLZZYMYT@CAELT@150357 SLVRYGYZ@CAELT@SABO SLVR 150400Z@CAELT@METAR SLVR 150400Z 04006KT 0400 FG VV/// 20/20 Q1010 A2984 HR100@CAELT@NOSIG=@CAELT@
ZPX0082 150455@CAELT@GG SLZZYMYT@CAELT@150454 SLVRYGYZ@CAELT@SABO SLVR 150500Z@CAELT@METAR SLVR 150500Z 36004KT 9999 BKN012 19/19 Q1010 A2985 HR100 NOSIG=@CAELT@
ZPX0083 150456@CAELT@GG SLZZYMYT@CAELT@150456 SLCBYGYZ@CAELT@SABO SLCB 150500@CAELT@METAR SLCB 150500Z 13004KT 9999 NSC 16/10 Q1022 A3020 749.5 HR66@CAELT@NOSIG=@CAELT@
ZPX0084 150456@CAELT@GG SLLPZRZX@CAELT@150455 SLLPYGYZ@CAELT@SABO SLLP 150500@CAELT@METAR SLLP 150500Z 07007KT 4000E VCFG FEW002 SCT200 05/04 Q1036 A3060@CAELT@626.9 HR96 VCFG NE/E/SE AC NOSIG=@CAELT@
ZPX0092 150555@CAELT@GG SLZZYMYT@CAELT@150555 SLCBYGYZ@CAELT@SABO SLCB 150600@CAELT@METAR SLCB 150600Z 17003KT 9999 NSC 15/10 Q1021 A3017 748.8 HR71@CAELT@NOSIG=@CAELT@
ZPX0093 150558@CAELT@GG SLLPZRZX@CAELT@150557 SLLPYGYZ@CAELT@SABO SLLP 150600@CAELT@METAR SLLP 150600Z 09006KT 3000E VCFG FEW002 SCT200 04/04 Q1035 A3058@CAELT@626.3 HR98 VCFG NE/E/SE/S AC NOSIG=@CAELT@
ZPX0094 150559@CAELT@GG SLZZYMYT@CAELT@150558 SLVRYGYZ@CAELT@SABO SLVR 150600Z@CAELT@METAR SLVR 150600Z 34006KT 9999 SCT005 OVC012 19/19 Q1010 A2983 HR100@CAELT@NOSIG=@CAELT@
ZPX0101 150655@CAELT@GG SLZZYMYT@CAELT@150655 SLCBYGYZ@CAELT@SABO SLCB 150700@CAELT@METAR SLCB 150700Z 13003KT 9999 NSC 14/10 Q1020 A3014 748.1 HR77 FU@CAELT@CI NOSIG=@CAELT@
ZPX0102 150657@CAELT@GG SLLPZRZX@CAELT@150657 SLLPYGYZ@CAELT@SABO SLLP 150700@CAELT@METAR SLLP 150700Z 09008KT 2000E VCFG FEW002 SCT200 05/05 Q1034@CAELT@A3056 625.8 HR98 VCFG NE/E/SE/S AC NOSIG=@CAELT@
ZPX0103 150659@CAELT@GG SLZZYMYT@CAELT@150656 SLVRYGYZ@CAELT@SABO SLVR 150700Z@CAELT@METAR SLVR 150700Z 32006KT 7000 SCT004 OVC010 20/20 Q1009 A2981 HR100@CAELT@BR TEMPO 800 FG=@CAELT@
ZPX0114 150755@CAELT@GG SLZZYMYT@CAELT@150755 SLCBYGYZ@CAELT@SABO SLCB 150800@CAELT@METAR SLCB 150800Z 15004KT 9999 NSC 13/10 Q1020 A3014 748.1 HR79 FU@CAELT@CI NOSIG=@CAELT@
ZPX0115 150755@CAELT@GG SLZZYMYT@CAELT@150756 SLVRYGYZ@CAELT@SABO SLVR 150800@CAELT@METAR SLVR 150800Z 33007KT 5000 BKN003 OVC006 20/20 Q1009 A2980 HR100@CAELT@BR TEMPO 0800 FG=@CAELT@
ZPX0116 150757@CAELT@GG SLLPZRZX@CAELT@150757 SLLPYGYZ@CAELT@SABO SLLP 150800@CAELT@METAR SLLP 150800Z 09008KT 3000E VCFG FEW002 SCT010 BKN200 05/04@CAELT@Q1034 A3056 625.9 HR99 VCFG NE/E/SE/S AC NOSIG=@CAELT@
ZPX0124 150853@CAELT@GG SLZZYMYT@CAELT@150852 SLPSYGYS@CAELT@SABO SLPS 150900@CAELT@METAR SLPS 150900Z 00000KT 9999 NSC 20/19 Q1013 A2992 HR96 CI=@CAELT@
ZPX0125 150856@CAELT@GG SLZZYMYT@CAELT@150856 SLTRYGYZ@CAELT@SABO SLTR 150900@CAELT@METAR SLTR 150900Z 33003KT 9999 FEW003 SCT070 BKN200 22/22 Q1008@CAELT@A2979 990.2 HR100 NOSIG=@CAELT@
ZPX0126 150857@CAELT@GG SLLPZRZX@CAELT@150856 SLLPYGYZ@CAELT@SABO SLLP 150900@CAELT@METAR SLLP 150900Z 07005KT 4000E VCFG FEW002 SCT010 BKN200 04/04@CAELT@Q1035 A3057 626.0 HR98 VCFG NE/E/SE/S AC NOSIG=@CAELT@
ZPX0127 150857@CAELT@GG SLZZYMYT@CAELT@150856 SLCBYGYZ@CAELT@SABO SLCB 150900@CAELT@METAR SLCB 150900Z 17003KT 9999 NSC 13/10 Q1020 A3014 748.1 HR82 FU@CAELT@CI NOSIG=@CAELT@
ZPX0128 150858@CAELT@GG SLZZYMYT@CAELT@150858 SLVRYGYZ@CAELT@SABO SLVR 150900@CAELT@METAR SLVR 150900Z 33007KT 7000 BKN003 OVC006 19/19 Q1008 A2979 HR98@CAELT@BR TEMPO 0800 FG=@CAELT@
ZPX0129 150858@CAELT@GG SLZZYMYT@CAELT@150858 SLTRYGYS@CAELT@SABO SLTR 150900@CAELT@METAR SLTR 150900Z 33003KT 9999 FEW003 SCT070 BKN200 22/22 Q1008@CAELT@A2979 990.2 HR100 NOSIG=@CAELT@METAR SLRI 150900Z 36005KT 9999 SCT005 BKN200 23/23 Q1010 A2984@CAELT@HR98=@CAELT@
ZPX0133 150903@CAELT@GG SLZZYMYT@CAELT@150900 SLETYMYC@CAELT@SABO SLET 150900@CAELT@METAR SLET 150900Z 33008KT 9999 SCT006 BKN010 21/20 Q1008 A2977 HR96@CAELT@NOSIG=@CAELT@
ZPX0134 150907@CAELT@GG SLZZYMYT@CAELT@150906 SLVRYGYU@CAELT@SABO SLVR 150900@CAELT@METAR SLVR 150900Z 33007KT 7000 BKN003 OVC006 19/19 Q1008 A2979 HR98@CAELT@BR TEMPO 0800 FG=@CAELT@METAR SLET 150900Z 33008KT 9999 SCT006 BKN010 21/20 Q1008 A2977 HR96@CAELT@NOSIG=@CAELT@METAR SLPS 150900Z 00000KT 9999 NSC 20/19 Q1013 A2992 HR96 CI=
ZPX0154 150951@CAELT@GG SLZZYMYT@CAELT@150951 SLCAYGYS@CAELT@SABO SLCA 151000@CAELT@METAR SLCA 151000Z 00000KT 9999 BKN030 18/16 Q1009 A2980 HR88 RWY NML@CAELT@
ZPX0155 150955@CAELT@GG SLZZYMYT@CAELT@150954 SLPSYGYS@CAELT@SABO SLPS 151000@CAELT@METAR SLPS 151000Z 00000KT 9999 NSC 23/22 Q1013 A2992 HR91 CI=@CAELT@
ZPX0157 150955@CAELT@GG SLZZYMYT@CAELT@150955 SLSBYSYX@CAELT@SABO SLSB 151000@CAELT@METAR SLSB 151000Z 00000KT 9999 BKN080 21/21 Q1009 A2982 HR98 RWY NML=@CAELT@
ZPX0159 150955@CAELT@GG SLZZYMYT@CAELT@150956 SLVRYGYZ@CAELT@SABO SLVR 151000@CAELT@METAR SLVR 151000Z 33009KT 9999 BKN003 OVC006 20/19 Q1009 A2980 HR97@CAELT@NOSIG=@CAELT@
ZPX0160 150956@CAELT@GG SLZZYMYT@CAELT@150955 SLETYMYC@CAELT@SABO SLET 151000@CAELT@METAR SLET 151000Z 32008KT 9999 BKN006 BKN015 20/19 Q1008 A2978 HR95@CAELT@NOSIG=@CAELT@
ZPX0161 150956@CAELT@GG SLZZYMYT@CAELT@150956 SLTRYGYZ@CAELT@SABO SLTR 151000@CAELT@METAR SLTR 151000Z 32006KT 9999 FEW003 SCT070 BKN200 23/23 Q1009@CAELT@A2980 990.8 HR98 NOSIG=@CAELT@
ZPX0162 150956@CAELT@GG SLZZYMYT@CAELT@150957 SLLPYFYA@CAELT@SABO SLRY 151000@CAELT@METAR SLRY 151000Z 00000KT 9999 BKN020 21/21 Q1008 A2979 HR98@CAELT@RWY NML=@CAELT@
ZPX0163 150957@CAELT@GG SLZZYMYT@CAELT@150956 SLUYYGYS@CAELT@SABO SLUY 151000@CAELT@METAR SLUY 151000Z 03004KT 9999 FEW070 M02/M13 Q1031 A3044 656.2@CAELT@HR41 CI=@CAELT@
ZPX0164 150957@CAELT@GG SLZZYMYT@CAELT@150957 SLLPYGYZ@CAELT@SABO SLLP 151000@CAELT@METAR SLLP 151000Z 08005KT 3000E VCFG FEW002 SCT010 BKN200 02/02@CAELT@Q1035 A3058 626.3 HR98 P92// VCFG NE/E/SE AC NOSIG=@CAELT@
ZPX0165 150958@CAELT@GG SLZZYMYT@CAELT@150957 SLVRYFYC@CAELT@SABO SLVR 151000Z@CAELT@METAR SLVR 151000Z 33009KT 9999 BKN003 OVC006 20/19 Q1009 A2980 HR97@CAELT@NOSIG=@CAELT@METAR SLET 151000Z 32008KT 9999 BKN006 BKN015 20/19 Q1008 A2978 HR95@CAELT@METAR SLCP 151000Z 00000KT 9999 OVC007 21/21 Q1012 A2988 HR98 RWY NML@CAELT@METAR SLSI 151000Z 00000KT 9999 OVC010 22/22 Q1010 A2983 HR95 RWY NMLMETAR SLRB 151000Z 00000KT 9999 NSC 22/21 Q1011 A2985 HR95 RWY HUMOPR=METAR SLPS 151000Z 00000KT 9999 NSC 23/22 Q1013 A2992 HR91 CI=METAR SLCA 151000Z 00000KT 9999 BKN030 18/16 Q1009 A2980 HR88 RWY NML
ZPX0166 150959@CAELT@GG SLZZYMYT@CAELT@150955 SLCBYGYZ@CAELT@SABO SLCB 151000@CAELT@METAR SLCB 151000Z 21003KT 8000 NSC 11/09 Q1021 A3017 748.8 HR86 FU@CAELT@CI NOSIG=@CAELT@
ZPX0168 151001@CAELT@GG SLZZYMYT@CAELT@151000 SLCOYGYZ@CAELT@SABO SLCO 151000@CAELT@METAR SLCO 151000Z 00000KT 9999 SCT020 BKN080 25/24 Q1011 A2985 983.6@CAELT@HR96 CI=@CAELT@
ZPX0169 151001@CAELT@GG SLZZYMYT@CAELT@151000 SLCBYGYS@CAELT@SABO SLCB 151000@CAELT@METAR SLCB 151000Z 21003KT 8000 NSC 11/09 Q1021 A3017 748.8 HR86 FU@CAELT@CI NOSIG=@CAELT@METAR SLAL 151000Z 00000KT 9999 FEW070 08/07 Q1024 A3025 700.3 HR90@CAELT@METAR SLVM 151000Z 36005KT 9999 NSC 19/19 Q1005 A2968 HR100 CI=@CAELT@
ZPX0170 151002@CAELT@GG SLZZYMYT@CAELT@151001 SLLPYFYA@CAELT@SABO SLLP 151000@CAELT@METAR SLLP 151000Z 08005KT 3000E VCFG FEW002 SCT010 BKN200 02/02@CAELT@Q1035 A3058 626.3 HR98 P92// VCFG NE/E/SE AC NOSIG=@CAELT@METAR SLCO 151000Z 00000KT 9999 SCT020 BKN080 25/24 Q1011 A2985@CAELT@983.6 HR96 CI=@CAELT@METAR SLRY 151000Z 00000KT 9999 BKN020 21/21 Q1008 A2979 HR98RWY NML=METAR SLRQ 151000Z 00000KT 9999 FEW006 BKN015 OVC070 22/22 Q1010A2983 HR98=METAR SLAP 151000Z 00000KT 9999 FEW030 SCT070 BKN200 18/17 Q1015A2998 HR95=METAR SLSB 151000Z 00000KT 9999 BKN080 21/21 Q1009 A2982 HR98METAR SLUY 151000Z 03004KT 9999 FEW070 M02/M13 Q1031 A3044 656.2HR41 CI=
ZPX0172 151004@CAELT@GG SLZZYMYT@CAELT@151000 SLTRYGYS@CAELT@SABO SLTR 151000@CAELT@METAR SLTR 151000Z 32006KT 9999 FEW003 SCT070 BKN200 23/23 Q1009@CAELT@A2980 990.8 HR98 NOSIG=@CAELT@METAR SLGM 151000Z 36006KT 7000 VCSH FEW006 BKN015 FEW020CB OVC070@CAELT@23/22 Q1009 A2981 HR97 CB/SH N/NE/E=@CAELT@METAR SLRI 151000Z 36005KT FEW005 SCT020 BKN200 23/23 Q1011 A2986HR98 AC=NIL=METAR SLRA 151000Z 00000KT 9999 FEW012 SCT080 BKN200 23/22 Q1009A2982 HR92 RWY NML=METAR SLMG 151000Z 00000KT 9999 FEW008 BKN200 23/22 Q1009 A2982HR98 RWY NML=METAR SLBU 151000Z NIL=METAR SLSA 151000Z 00000KT 9999 BKN006 BKN200 23/23 Q1008 A2977HR98=METAR SLSR 151000Z 00000KT 9999 BKN010 FEW023CB OVC070 23/22Q1009 A2978 HR97 CB S/SW/W RWY NML=METAR SLSM 151000Z 00000KT 6000 VCH BKN006 OVC070 21/21 Q1009A2982 HR98 SH N/NE/NW RWY WET INOP=
ZPX0179 151029@CAELT@GG SLZZYMYT@CAELT@151015 SLCBYGYS@CAELT@SABO SLCB 151000 RRA@CAELT@METAR SLCB 151000Z 21003KT 8000 NSC 11/09 Q1021 A3017 748.8 HR86 FU@CAELT@CI NOSIG=@CAELT@METAR SLAL 151000Z 00000KT 9999 FEW070 08/07 Q1024 A3025 700.3 HR90@CAELT@METAR RTD SLVM 151000Z 36005KT 9999 NSC 19/19 Q1005 A2968 HR100 CI=@CAELT@
ZPX0191 151052@CAELT@GG SLZZYMYT@CAELT@151051 SLPSYGYS@CAELT@SABO SLPS 151100@CAELT@METAR SLPS 151100Z 09004KT 9999 NSC 25/23 Q1013 A2992 HR89 CI=@CAELT@
ZPX0193 151054@CAELT@GG SLZZYMYT@CAELT@151052 SLRBYGYS@CAELT@SABO SLRB 151100@CAELT@METAR SLRB 151100Z 00000KT 9999 NSC 23/22 Q1012 A2988 HR90 RWY HUM@CAELT@OPR=@CAELT@
ZPX0194 151054@CAELT@GG SLZZYMYT@CAELT@151054 SLSAYGYS@CAELT@SABO SLSA 151100@CAELT@METAR SLSA 151100Z 34008KT 9999 SCT006 SCT070 OVC200 24/23 Q1008@CAELT@A2979 HR98=@CAELT@
ZPX0195 151055@CAELT@GG SLZZYMYT@CAELT@151055 SLSBYSYX@CAELT@SABO SLSB 151100@CAELT@METAR SLSB 151100Z 00000KT 9999 SCT013 BKN080 22/21 Q1010 A2983 HR95@CAELT@RWY NML=@CAELT@
ZPX0196 151055@CAELT@GG SLZZYMYT@CAELT@151055 SLLPYGYZ@CAELT@SABO SLLP 151100@CAELT@METAR SLLP 151100Z 09005KT 4000E VCFG FEW002 SCT010 BKN200 05/04@CAELT@Q1036 A3060 626.7 HR98 P92// VCFG NE/E/SE AC NOSIG=@CAELT@
ZPX0198 151056@CAELT@GG SLZZYMYT@CAELT@151055 SLCOYGYZ@CAELT@SABO SLCO 151100@CAELT@METAR SLCO 151100Z 02004KT 9999 FEW005 SCT080 BKN200 25/24 Q1010@CAELT@A2985 983.5 HR93=@CAELT@
ZPX0199 151056@CAELT@GG SLZZYMYT@CAELT@151056 SLCAYGYS@CAELT@SABO SLCA 151100@CAELT@METAR SLCA 151100Z 00000KT 9999 BKN030 19/17 Q1009 A2980 HR88 RWY NML@CAELT@
ZPX0200 151056@CAELT@GG SLZZYMYT@CAELT@151056 SLVRYGYZ@CAELT@SABO SLVR 151100@CAELT@METAR SLVR 151100Z 34010KT 9999 BKN004 OVC008 20/20 Q1009 A2982 HR96@CAELT@NOSIG=@CAELT@
ZPX0201 151056@CAELT@GG SLZZYMYT@CAELT@151055 SLETYMYC@CAELT@SABO SLET 151100@CAELT@METAR SLET 151100Z 32010KT 6000 -DZ BKN006 BKN015 20/20 Q1009 A2980@CAELT@HR96 TEMPO 2000=@CAELT@
ZPX0202 151056@CAELT@GG SLZZYMYT@CAELT@151056 SLLPYFYA@CAELT@SABO SLRY 151100@CAELT@METAR SLRY 151100Z 00000KT 9999 BKN020 21/21 Q1009 A2980 HR98@CAELT@RWY NML=@CAELT@
ZPX0203 151057@CAELT@GG SLZZYMYT@CAELT@151056 SLORYGYZ@CAELT@SABO SLOR 151100@CAELT@METAR SLOR 151100Z 00000KT 9999 FEW070 BKN200 07/02 Q1033 A3051 656.6@CAELT@HR66 FU=@CAELT@
ZPX0204 151057@CAELT@GG SLZZYMYT@CAELT@151056 SLORYGYZ@CAELT@SABO SLOR 151100@CAELT@METAR SLOR 151100Z 00000KT 9999 FEW070 BKN200 07/02 Q1033 A3051 656.6@CAELT@HR66 FU=@CAELT@
ZPX0205 151057@CAELT@GG SLZZYMYT@CAELT@151055 SLAGYSYX@CAELT@SABO SLAG 151100@CAELT@METAR SLAG 151100Z 00000KT 9999 FEW012 SCT200 18/16 Q1010 A2983 883.0@CAELT@HR87=@CAELT@
ZPX0206 151057@CAELT@GG SLZZYMYT@CAELT@151057 SLTRYGYZ@CAELT@SABO SLTR 151100@CAELT@METAR SLTR 151100Z 34003KT 9999 SCT003 SCT070 BKN200 23/23 Q1010@CAELT@A2983 991.6 HR97 NOSIG=@CAELT@
ZPX0207 151058@CAELT@GG SLZZYMYT@CAELT@151055 SLUYYGYS@CAELT@SABO SLUY 151100@CAELT@METAR SLUY 151100Z 03005KT 9999 NSC 05/M10 Q1031 A3047 656.8@CAELT@HR30 CI=@CAELT@
ZPX0208 151058@CAELT@GG SLZZYMYT@CAELT@151057 SLTJYGYZ@CAELT@SABO SLTJ 151100@CAELT@METAR SLTJ 151100Z 00000KT 9999 NSC 18/13 Q1013 A2992 809.3 HR72=@CAELT@
ZPX0209 151058@CAELT@GG SLZZYMYT@CAELT@151058 SLVRYFYC@CAELT@SABO SLVR 151100@CAELT@METAR SLVR 151100Z 34010KT 9999 BKN004 OVC008 20/20 Q1009 A2982 HR96@CAELT@NOSIG=@CAELT@METAR SLET 151100Z 32010KT 6000 -DZ BKN006 BKN015 20/20 Q1009 A2980@CAELT@HR96 TEMPO 2000=@CAELT@METAR SLAS 151100Z 36004KT 8000 OVC008 23/22 Q1012 A2989 HR95 BR RWYNML=METAR SLJV 151100Z 36010KT 9999 BKN010 22/22 Q1009 A2980 HR97 RWY NMLMETAR SLCP 151100Z 00000KT 9999 OVC013 22/21 Q1013 A2991 HR83 RWY NMLMETAR SLSI 151100Z 00000KT 9999 OVC010 22/22 Q1011 A2985 HR94 RWY NMLMETAR SLTI 151100Z 00000KT 9999 NSC 24/23 Q1014 A2994 HR92 RWY HUMOPR=METAR SLJE 151100Z 00000KT 9999 OVC008 22/20 Q1012 A2988 HR91 RWY NMLMETAR SLVG 151100Z 00000KT 9999 NSC 12/12 Q1019 A3009 HR94 CI RWY NMLMETAR SLRB 151100Z 00000KT 9999 NSC 23/22 Q1012 A2988 HR90 RWY HUMMETAR SLPS 151100Z 09004KT 9999 NSC 25/23 Q1013 A2992 HR89 CI=METAR SLCA 151100Z 00000KT 9999 BKN030 19/17 Q1009 A2980 HR88 RWY NML
ZPX0210 151059@CAELT@GG SLZZYMYT@CAELT@151058 SLTRYGYS@CAELT@SABO SLTR 151100@CAELT@METAR SLTR 151100Z 34003KT 9999 SCT003 SCT070 BKN200 23/23 Q1010@CAELT@A2983 991.6 HR97 NOSIG=@CAELT@METAR SLGM 151100Z 36003KT 7000 VCSH FEW006 SCT015 FEW020CB BKN070 23@CAELT@/22 Q1010 A2985 HR94 CB/SH E/SE=@CAELT@METAR SLRI 151100Z 03007KT 9999 FEW005 SCT020 BKN080 BKN200 23/23Q1012 A2988 HR98=METAR SLJO 151100Z 00000KT 9999 FEW017 FEW023CB BKN200 23/21 Q1010A2983 HR92 CB NE RWY NML=METAR SLRA 151100Z 12003KT 9999 FEW080 BKN200 25/23 Q1010 A2983 HR90RWY NML=METAR SLMG 151100Z 32004KT 9999 FEW010 SCT080 SCT200 23/23 Q1010A2983 HR95 RWY NML=METAR SLBU 151100Z NIL=METAR SLSA 151100Z 34008KT 9999 SCT006 SCT070 OVC200 24/23 Q1008A2979 HR98=METAR SLSR 151100Z 00000KT 5000 -DZ BKN010 FEW023CB OVC070 23/22Q1009 A2980 HR97 CB SW/W/NW RWY NML=METAR SLSM 151100Z 00000KT 8000 VCSH BKN006 OVC070 22/22 Q1010 A2983HR98 SH N/NE/NW RWY WET INOP=
ZPX0211 151059@CAELT@GG SLZZYMYT@CAELT@151058 SLTRYGYS@CAELT@SABO SLTR 151100@CAELT@METAR SLTR 151100Z 34003KT 9999 SCT003 SCT070 BKN200 23/23 Q1010@CAELT@A2983 991.6 HR97 NOSIG=@CAELT@METAR SLGM 151100Z 36003KT 7000 VCSH FEW006 SCT015 FEW020CB BKN070 23@CAELT@/22 Q1010 A2985 HR94 CB/SH E/SE=@CAELT@METAR SLRI 151100Z 03007KT 9999 FEW005 SCT020 BKN080 BKN200 23/23Q1012 A2988 HR98=METAR SLJO 151100Z 00000KT 9999 FEW017 FEW023CB BKN200 23/21 Q1010A2983 HR92 CB NE RWY NML=METAR SLRA 151100Z 12003KT 9999 FEW080 BKN200 25/23 Q1010 A2983 HR90RWY NML=METAR SLMG 151100Z 32004KT 9999 FEW010 SCT080 SCT200 23/23 Q1010A2983 HR95 RWY NML=METAR SLBU 151100Z NIL=METAR SLSA 151100Z 34008KT 9999 SCT006 SCT070 OVC200 24/23 Q1008A2979 HR98=METAR SLSR 151100Z 00000KT 5000 -DZ BKN010 FEW023CB OVC070 23/22Q1009 A2980 HR97 CB SW/W/NW RWY NML=METAR SLSM 151100Z 00000KT 8000 VCSH BKN006 OVC070 22/22 Q1010 A2983HR98 SH N/NE/NW RWY WET INOP=
ZPX0213 151100@CAELT@GG SLZZYMYT@CAELT@151057 SLCBYGYZ@CAELT@SABO SLCB 151100@CAELT@METAR SLCB 151100Z 20004KT 4000SE FU FEW033 BKN200 13/10 Q1022 A3019@CAELT@749.4 HR83 VIS RED NE/E/SE RESTO 9999 AC NOSIG=@CAELT@
ZPX0215 151101@CAELT@GG SLZZYMYT@CAELT@151100 SLLPYFYA@CAELT@SABO SLLP 151100@CAELT@METAR SLLP 151100Z 09005KT 4000E VCFG FEW002 SCT010 BKN200 05/04@CAELT@Q1036 A3060 626.7 HR98 P92// VCFG NE/E/SE AC NOSIG=@CAELT@METAR SLCO 151100Z 02004KT 9999 FEW005 SCT080 BKN200 25/24 Q1010@CAELT@A2985 983.5 HR93=@CAELT@METAR SLRY 151100Z 00000KT 9999 BKN020 21/21 Q1009 A2980 HR98RWY NML=METAR SLRQ 151100Z 00000KT 9999 BKN017 BKN200 22/22 Q1010 A2984HR98=METAR SLAP 151100Z 00000KT 9999 FEW030 SCT070 BKN200 18/17 Q1015A3000 856.7 HR92=METAR SLSB 151100Z 00000KT 9999 SCT013 BKN080 22/21 Q1010 A2983HR95 RWY NML=METAR SLUY 151100Z 03005KT 9999 NSC 05/M10 Q1031 A3047 656.8 HR30
ZPX0216 151101@CAELT@GG SLZZYMYT@CAELT@151100 SLCBYGYS@CAELT@SABO SLCB 151100@CAELT@METAR SLCB 151100Z 20004KT 4000SE FU FEW033 BKN200 13/10 Q1022 A3019@CAELT@749.4 HR83 VIS RED NE/E/SE RESTO 9999 AC NOSIG=@CAELT@METAR SLAL 151100Z 00000KT 9999 NSC 10/08 Q1025 A3027 700.7 HR88 CI=@CAELT@METAR SLAG 151100Z 00000KT 9999 FEW012 SCT200 18/16 Q1010 A2983 883.0@CAELT@HR87=METAR SLVM 151100Z 36005KT 9999 NSC 21/19 Q1005 A2969 HR88 CI=METAR SLTJ 151100Z 00000KT 9999 NSC 18/13 Q1013 A2992 809.3 HR72=METAR SLYA 151100Z 06007KT 9999 SCT018 18/16 Q1006 A2972 9311, HR96=
ZPX0245 151150@CAELT@GG SLZZYMYT@CAELT@151150 SLRBYGYS@CAELT@SABO SLRB 151200@CAELT@METAR SLRB 151200Z 36006KT 9999 NSC 25/22 Q1013 A2991 HR84 RWY HUM@CAELT@OPR=@CAELT@
ZPX0246 151153@CAELT@GG SLZZYMYT@CAELT@151152 SLPSYGYS@CAELT@SABO SLPS 151200@CAELT@METAR SLPS 151200Z 09004KT 9999 NSC 27/24 Q1013 A2992 HR87 CI=@CAELT@
ZPX0248 151153@CAELT@GG SLZZYMYT@CAELT@151153 SLCAYGYS@CAELT@SABO SLCA 151200@CAELT@METAR SLCA 151200Z 36004KT 9999 BKN027 21/17 Q1009 A2980 HR81 RWY NML@CAELT@
ZPX0251 151154@CAELT@GG SLZZYMYT@CAELT@151155 SLORYGYZ@CAELT@SABO SLOR 151200@CAELT@METAR SLOR 151200Z 21004KT 9999 FEW070 BKN200 09/M00 Q1033 A3052 654.@CAELT@9 HR52 FU=@CAELT@
ZPX0253 151155@CAELT@GG SLZZYMYT@CAELT@151155 SLETYMYC@CAELT@SABO SLET 151200@CAELT@METAR SLET 151200Z 31012G24KT 9999 BKN008 BKN015 21/19 Q1009 A2980@CAELT@HR90 NOSIG=@CAELT@
ZPX0254 151155@CAELT@GG SLZZYMYT@CAELT@151155 SLUYYGYS@CAELT@SABO SLUY 151200@CAELT@METAR SLUY 151200Z 36008KT 9999 NSC 08/M11 Q1032 A3050 657.4@CAELT@HR28 CI=@CAELT@
ZPX0256 151155@CAELT@GG SLZZYMYT@CAELT@151155 SLTJYGYZ@CAELT@SABO SLTJ 151200@CAELT@METAR SLTJ 151200Z 00000KT 9999 NSC 20/14 Q1013 A2994 809.7 HR68=@CAELT@
ZPX0257 151156@CAELT@GG SLZZYMYT@CAELT@151155 SLSBYSYX@CAELT@SABO SLSB 151200@CAELT@METAR SLSB 151200Z 00000KT 9999 BKN015 OVC080 23/21 Q1010 A2985 HR92@CAELT@RWY NML=@CAELT@
ZPX0258 151156@CAELT@GG SLZZYMYT@CAELT@151156 SLVRYGYZ@CAELT@SABO SLVR 151200@CAELT@METAR SLVR 151200Z 34012KT 9999 BKN004 OVC008 21/20 Q1010 A2982 HR94@CAELT@NOSIG=@CAELT@
ZPX0259 151156@CAELT@GG SLZZYMYT@CAELT@151155 SLCOYGYZ@CAELT@SABO SLCO 151200@CAELT@METAR SLCO 151200Z 06003KT 9999 FEW005 SCT080 BKN200 25/24 Q1011@CAELT@A2988 984.3 HR94=@CAELT@
ZPX0260 151156@CAELT@GG SLZZYMYT@CAELT@151155 SLTRYGYZ@CAELT@SABO SLTR 151200@CAELT@METAR SLTR 151200Z 32007KT 9999 SCT005 BKN200 25/23 Q1010 A2984 992.0@CAELT@HR94 TEMPO BKN005=@CAELT@
ZPX0261 151156@CAELT@GG SLZZYMYT@CAELT@151156 SLLPYGYZ@CAELT@SABO SLLP 151200@CAELT@METAR SLLP 151200Z VRB02KT 9999 FEW012 BKN200 09/04 Q1036 A3062@CAELT@627.2 HR72 P93// HZ SW/W AC NOSIG=@CAELT@
ZPX0262 151156@CAELT@GG SLZZYMYT@CAELT@151155 SLSAYGYS@CAELT@SABO SLSA 151200@CAELT@METAR SLSA 151200Z 34005KT 9999 SCT007 SCT070 OVC200 24/24 Q1009@CAELT@A2981 HR97=@CAELT@
ZPX0263 151157@CAELT@GG SLZZYMYT@CAELT@151156 SLCBYGYZ@CAELT@SABO SLCB 151200@CAELT@METAR SLCB 151200Z 20004KT 9999 FEW033 BKN200 19/10 Q1023 A3021 749.9@CAELT@HR57 FU AC NOSIG=@CAELT@
ZPX0264 151157@CAELT@GG SLZZYMYT@CAELT@151155 SLAGYSYX@CAELT@SABO SLAG 151200@CAELT@METAR SLAG 151200Z 00000KT 9999 FEW012 21/17 Q1010 A2983 882.9 HR77@CAELT@
ZPX0265 151158@CAELT@GG SLZZYMYT@CAELT@151155 SLLPYFYA@CAELT@SABO SLRY 151200@CAELT@METAR SLRY 151200Z 00000KT 9999 BKN012 BKN030 23/21 Q1009 A2982@CAELT@HR92 RWY NML=@CAELT@
ZPX0266 151159@CAELT@GG SLZZYMYT@CAELT@151158 SLVRYFYC@CAELT@SABO SLVR 151200@CAELT@METAR SLVR 151200Z 34012KT 9999 BKN004 OVC008 21/20 Q1010 A2982 HR94@CAELT@NOSIG=@CAELT@METAR SLET 151200Z 31012G24KT 9999 BKN008 BKN015 21/19 Q1009 A2980@CAELT@HR90 NOSIG=@CAELT@METAR SLAS 151200Z 36006KT 9999 BKN010 24/23 Q1012 A2989 HR90 RWY NMLMETAR SLJV 151200Z 36010KT 9999 BKN010 23/21 Q1010 A2983 HR90 RWY NMLMETAR SLCP 151200Z 33005KT 9999 OVC013 23/21 Q1014 A2994 HR92 RWY NMLMETAR SLSI 151200Z 33006KT 9999 OVC010 24/22 Q1012 A2988 HR92 RWY NMLMETAR SLTI 151200Z 00000KT 9999 NSC 26/23 Q1015 A2997 HR85 RWY HUMOPR=METAR SLJE 151200Z 00000KT 9999 OVC008 23/22 Q1013 A2991 HR90 RWY NMLMETAR SLVG 151200Z 35004KT 9999 SCT015 BKN200 14/13 Q1019 A3009 HR90RWY NML=METAR SLRB 151200Z 36006KT 9999 NSC 25/22 Q1013 A2991 HR84 RWY HUMMETAR SLPS 151200Z 09004KT 9999 NSC 27/24 Q1013 A2992 HR87 CI=METAR SLCA 151200Z 36004KT 9999 BKN027 21/17 Q1009 A2980 HR81 RWY NML
ZPX0268 151200@CAELT@GG SLZZYMYT@CAELT@151200 SLLPYSYX@CAELT@SABO SLLP 151200@CAELT@METAR SLLP 151200Z VRB02KT 9999 FEW012 BKN200 09/04 Q1036=@CAELT@METAR SLVR 151200Z 34012KT 9999 BKN004 OVC008 21/20 Q1010=@CAELT@METAR SLCB 151200Z 20004KT 9999 FEW033 BKN200 19/10 Q1023=@CAELT@
ZPX0270 151200@CAELT@GG SLZZYMYT@CAELT@151159 SLLPYFYA@CAELT@SABO SLLP 151200@CAELT@METAR SLLP 151200Z VRB02KT 9999 FEW012 BKN200 09/04 Q1036 A3062@CAELT@627.2 HR72 P93// HZ SW/W AC NOSIG=@CAELT@METAR SLCO 151200Z 06003KT 9999 FEW005 SCT080 BKN200 25/24 Q1011@CAELT@A2988 984.3 HR94=@CAELT@METAR SLRY 151200Z 00000KT 9999 BKN012 BKN030 23/21 Q1009 A2982HR92 RWY NML=METAR SLRQ 151200Z 32003KT 8000 VCSH BKN017 OVC070 24/22 Q1011A2985 HR90 SH/NW=METAR SLSB 151200Z 00000KT 9999 BKN015 OVC080 23/21 Q1010 A2985METAR SLAP 151200Z 00000KT 9999 FEW030 BKN200 19/17 Q1016 A3002857.5 HR87 AC=METAR SLOR 151200Z 21004KT 9999 FEW070 BKN200 09/M00 Q1033 A3052654.9 HR52 FU=METAR SLUY 151200Z 36008KT 9999 NSC 08/M11 Q1032 A3050 657.4HR28 CI=
ZPX0272 151200@CAELT@GG SLZZYMYT@CAELT@151200 SLTRYGYS@CAELT@SABO SLTR 151200@CAELT@METAR SLTR 151200Z 32007KT 9999 SCT005 BKN200 25/23 Q1010 A2984 992.0@CAELT@HR94 TEMPO BKN005=@CAELT@METAR SLGM 151200Z 36012KT 9999 FEW008 SCT080 BKN200 25/23 Q1011@CAELT@A2987 HR88=@CAELT@METAR SLRI 151200Z 02010KT 9999 SCT008 BKN080 BKN200 24/23 Q1012A2990 HR90=METAR SLSA 151200Z 34005KT 9999 SCT007 SCT070 OVC200 24/24 Q1009A2981 HR97=METAR SLJO 151200Z 34004KT 9999 FEW015 FEW023CB BKN200 24/22Q1011 A2986 HR88 CB N RWY NML=METAR SLRA 151200Z 18003KT 9999 FEW015 BKN200 27/22 Q1010 A2985HR75 AC RWY NML=METAR SLMG 151200Z 00000KT 9999 FEW010 SCT080 SCT200 25/23 Q1010A2984 HR89 RWY NML=METAR SLBU 151200Z 00000KT 9999 FEW008 BKN200 25/23 Q1010 A2984HR87 RWY OPR C210=METAR SLSR 151200Z 00000KT 7000 VCSH BKN010 FEW023CB OVC070 23/22Q1010 A2984 HR93 CB/SH W/NW RWY NML=METAR SLSM 151200Z 00000KT 9999 BKN006 OVC070 23/23 Q1010 A2984HR97 RWY WET INOP=
ZPX0274 151203@CAELT@GG SLZZYMYT@CAELT@151200 SLCBYGYS@CAELT@SABO SLCB 151200@CAELT@METAR SLCB 151200Z 20004KT 9999 FEW033 BKN200 19/10 Q1023 A3021 749.9@CAELT@HR57 FU AC NOSIG=@CAELT@METAR SLAL 151200Z 00000KT 9999 NSC 12/09 Q1025 A3029 701.4 HR80 CI=@CAELT@METAR SLPO 151200Z NIL=@CAELT@METAR SLAG 151200Z 00000KT 9999 FEW012 21/17 Q1010 A2983 882.9 HR77METAR SLVM 151200Z 36007KT 9999 SCT025 23/20 Q1005 A2970 HR84 CI=METAR SLTJ 151200Z 00000KT 9999 NSC 20/14 Q1013 A2994 809.7 HR68=METAR SLYA 151200Z 06010KT 9999 BKN016 23/20 Q1006 A2973 932.0 HR88=METAR SLBJ 151200Z NIL=METAR SLHI 151200Z NIL=
ZPX0297 151252@CAELT@GG SLZZYMYT@CAELT@151252 SLCAYGYS@CAELT@SABO SLCA 151300@CAELT@METAR SLCA 151300Z 36006KT 9999 SCT036 22/16 Q1009 A2980 HR70 RWY NML@CAELT@
ZPX0298 151253@CAELT@GG SLZZYMYT@CAELT@151252 SLPSYGYS@CAELT@SABO SLPS 151300@CAELT@METAR SLPS 151300Z 09004KT 9999 NSC 29/25 Q1012 A2989 HR79 CI=@CAELT@
ZPX0302 151254@CAELT@GG SLZZYMYT@CAELT@151255 SLSBYSYX@CAELT@SABO SLSB 151300@CAELT@METAR SLSB 151300Z 29003KT 9999 BKN015 OVC080 24/22 Q1011 A2987 HR86@CAELT@RWY NML=@CAELT@
ZPX0303 151254@CAELT@GG SLZZYMYT@CAELT@151253 SLRBYGYS@CAELT@SABO SLRB 151300@CAELT@METAR SLRB 151300Z 36008KT 9999 NSC 27/23 Q1013 A2991 HR77 RWY HUM@CAELT@OPR=@CAELT@
ZPX0304 151255@CAELT@GG SLZZYMYT@CAELT@151254 SLSAYGYS@CAELT@SABO SLSA 151300@CAELT@METAR SLSA 151300Z 33006KT 9999 SCT007 SCT070 OVC200 25/24 Q1010@CAELT@A2983 HR94=@CAELT@
ZPX0305 151255@CAELT@GG SLZZYMYT@CAELT@151254 SLSAYGYS@CAELT@SABO SLSA 151300@CAELT@METAR SLSA 151300Z 33006KT 9999 SCT007 SCT070 OVC200 25/24 Q1010@CAELT@A2983 HR94=@CAELT@
ZPX0306 151256@CAELT@GG SLZZYMYT@CAELT@151255 SLCOYGYZ@CAELT@SABO SLCO 151300@CAELT@METAR SLCO 151300Z 36005KT 9999 BKN010 BKN200 25/24 Q1012 A2989 984.6@CAELT@HR91=@CAELT@
ZPX0307 151256@CAELT@GG SLZZYMYT@CAELT@151255 SLETYMYC@CAELT@SABO SLET 151300@CAELT@METAR SLET 151300Z 32012G24KT 5000 -DZ BKN008 BKN015 21/20 Q1009@CAELT@A2981 HR91 TEMPO 2000=@CAELT@
ZPX0309 151256@CAELT@GG SLZZYMYT@CAELT@151256 SLVRYGYZ@CAELT@SABO SLVR 151300@CAELT@METAR SLVR 151300Z 35010G22KT 3000 -DZ OVC006 21/20 Q1010 A2982 HR94@CAELT@NOSIG=@CAELT@
ZPX0310 151256@CAELT@GG SLZZYMYT@CAELT@151256 SLTRYGYZ@CAELT@SABO SLTR 151300@CAELT@METAR SLTR 151300Z 31011KT 9999 SCT008 SCT200 27/24 Q1010 A2984@CAELT@992.1 HR88 NOSIG=@CAELT@
ZPX0311 151257@CAELT@GG SLZZYMYT@CAELT@151257 SLLPYGYZ@CAELT@SABO SLLP 151300@CAELT@METAR SLLP 151300Z VRB02KT 9999 FEW015 BKN200 11/M04 Q1037@CAELT@A3063 627.3 HR36 P93// HZ SW/W AC NOSIG=@CAELT@
ZPX0312 151257@CAELT@GG SLZZYMYT@CAELT@151256 SLORYGYZ@CAELT@SABO SLOR 151300@CAELT@METAR SLOR 151300Z 19003KT 9999 FEW070 BKN200 12/02 Q1034 A3053 655.2@CAELT@HR51=@CAELT@
ZPX0313 151257@CAELT@GG SLZZYMYT@CAELT@151257 SLUYYGYS@CAELT@SABO SLUY 151300@CAELT@METAR SLUY 151300Z 35010KT 9999 NSC 10/M09 Q1033 A3050 657.6@CAELT@HR25 CI=@CAELT@
ZPX0314 151257@CAELT@GG SLZZYMYT@CAELT@151255 SLCBYGYZ@CAELT@SABO SLCB 151300@CAELT@METAR SLCB 151300Z 27004KT 9999 FEW033 BKN200 21/10 Q1023 A3021 749.8@CAELT@HR48 FU AC NOSIG=@CAELT@
ZPX0315 151258@CAELT@GG SLZZYMYT@CAELT@151258 SLAGYSYX@CAELT@SABO SLAG 151300@CAELT@METAR SLAG 151300Z 00000KT 9999 FEW015 23/17 Q1010 A2983 883.0 HR69@CAELT@
ZPX0316 151258@CAELT@GG SLZZYMYT@CAELT@151255 SLLPYFYA@CAELT@SABO SLRY 151300@CAELT@METAR SLRY 151300Z 00000KT 9999 BKN013 BKN033 24/22 Q1010 A2984@CAELT@HR87 RWY NML=@CAELT@
ZPX0320 151300@CAELT@GG SLZZYMYT@CAELT@151300 SLLPYFYA@CAELT@SABO SLLP 151300@CAELT@METAR SLLP 151300Z VRB02KT 9999 FEW015 BKN200 11/M04 Q1037@CAELT@A3063 627.3 HR36 P93// HZ SW/W AC NOSIG=@CAELT@METAR SLCO 151300Z 36005KT 9999 BKN010 BKN200 25/24 Q1012 A2989@CAELT@984.6 HR91=@CAELT@METAR SLRY 151300Z 00000KT 9999 BKN013 BKN033 24/22 Q1010 A2984HR87 RWY NML=METAR SLRQ 151300Z 00000KT 9999 SCT015 BKN200 24/23 Q1011 A2987HR96=METAR SLAP 151300Z 36008KT 9999 FEW030 OVC200 21/17 Q1017 A3002857.7 HR78 AC=METAR SLSB 151300Z 29003KT 9999 BKN015 OVC080 24/22 Q1011 A2987HR86 RWY NML=METAR SLOR 151300Z 19003KT 9999 FEW070 BKN200 12/02 Q1034 A3053655.2 HR51=METAR SLUY 151300Z 35010KT 9999 NSC 10/M09 Q1033 A3050 657.6HR25 CI=
ZPX0321 151300@CAELT@GG SLZZYMYT@CAELT@151300 SLVRYFYC@CAELT@SABO SLVR 151300@CAELT@METAR SLVR 151300Z 35010G22KT 3000 -DZ OVC006 21/20 Q1010 A2982 HR94@CAELT@NOSIG=@CAELT@METAR SLET 151300Z 32012G24KT 5000 -DZ BKN008 BKN015 21/20 Q1009@CAELT@A2981 HR91 TEMPO 2000=@CAELT@METAR SLAS 151300Z 36008KT 9999 BKN012 25/23 Q1013 A2992 HR88 RWY NMLMETAR SLJV 151300Z 36010KT 9999 OVC012 24/22 Q1010 A2983 HR87 RWY NMLMETAR SLCP 151300Z 36006KT 9999 BKN015 24/22 Q1014 A2994 HR84 RWY NMLMETAR SLSI 151300Z 33008KT 9999 BKN013 26/23 Q1012 A2988 HR82 RWY NMLMETAR SLTI 151300Z 00000KT 9999 NSC 28/23 Q1015 A2997 HR76 RWY NML=METAR SLJE 151300Z 00000KT 9999 OVC010 25/22 Q1013 A2991 HR86 RWY NMLMETAR SLVG 151300Z 35006KT 9999 NSC 17/13 Q1019 A3009 HR76 CI RWY NMLMETAR SLRB 151300Z 36008KT 9999 NSC 27/23 Q1013 A2991 HR77 RWY HUMOPR=METAR SLPS 151300Z 09004KT 9999 NSC 29/25 Q1012 A2989 HR79 CI=METAR SLCA 151300Z 36006KT 9999 SCT036 22/16 Q1009 A2980 HR70 RWY NML
ZPX0323 151304@CAELT@GG SLZZYMYT@CAELT@151300 SLCBYGYS@CAELT@SABO SLCB 151300@CAELT@METAR SLCB 151300Z 27004KT 9999 FEW033 BKN200 21/10 Q1023 A3021 749.8@CAELT@HR48 FU AC NOSIG=@CAELT@METAR SLAL 151300Z 20005KT 9999 NSC 15/09 Q1026 A3029 701.5 HR80 CI=@CAELT@METAR SLPO 151300Z NIL=@CAELT@METAR SLAG 151300Z 00000KT 9999 FEW015 23/17 Q1010 A2983 883.0 HR69METAR SLVM 151300Z 00000KT 9999 SCT025 26/21 Q1005 A2970 HR77 CI=METAR SLTJ 151300Z NIL=METAR SLYA 151300Z 06010KT 9999 BKN018 24/21 Q1007 A2974 932.2 HR86=METAR SLBJ 151300Z NIL=METAR SLHI 151300Z NIL=
ZPX0324 151305@CAELT@GG SLZZYMYT@CAELT@151304 SLTRYGYS@CAELT@SABO SLTR 151300 RRA@CAELT@METAR SLTR 151300Z 31011KT 9999 SCT008 SCT200 27/24 Q1010 A2984@CAELT@992.1 HR88 NOSIG=@CAELT@METAR SLGM 151300Z 36010KT 9999 SCT015 FEW020CB SCT080 BKN200 27/23@CAELT@Q1012 A2988 HR80 CB E/SE=@CAELT@METAR SLRI 151300Z 36010KT 9999 FEW010 SCT080 BKN200 26/23 Q1013A2991 HR85=METAR SLJO 151300Z 34008KT 9999 FEW015 BKN200 26/22 Q1011 A2988HR79 RWY NML=METAR SLRA 151300Z 03007KT 9999 FEW017 SCT200 28/23 Q1010 A2985HR75 AC RWY NML=METAR SLMG 151300Z 32006KT 9999 FEW080 BKN200 26/23 Q1010 A2985HR83 RWY NML=METAR SLBU 151300Z 32004KT 9999 FEW010 BKN200 27/24 Q1010 A2985HR82 RWY HUM OPR=METAR SLSA 151300Z 33006KT 9999 SCT007 SCT070 OVC200 25/24 Q1010A2983 HR94=METAR SLSR 151300Z 00000KT 7000 VCSH FEW010 SCT015 FEW023CB BKN07024/23 Q1010 A2984 HR92 CB/SH N/W/NW RWY NML=METAR SLSM 151300Z 33008KT 9999 SCT012 BKN080 24/23 Q1010 A2985HR92 RWY WET INOP=
ZPX0325 151305@CAELT@GG SLZZYMYT@CAELT@151300 SLTJYGYZ@CAELT@SABO SLTJ 151300 RRA@CAELT@METAR RTD SLTJ 151300Z 00000KT 9999 NSC 22/14 Q1013 A2994 809.7 HR61@CAELT@
ZPX0327 151307@CAELT@GG SLZZYMYT@CAELT@151304 SLCBYGYS@CAELT@SABO SLCB 151300 RRA@CAELT@METAR SLCB 151300Z 27004KT 9999 FEW033 BKN200 21/10 Q1023 A3021 749.8@CAELT@HR48 FU AC NOSIG=@CAELT@METAR SLAL 151300Z 20005KT 9999 NSC 15/09 Q1026 A3029 701.5 HR80 CI=@CAELT@METAR SLPO 151300Z NIL=@CAELT@METAR SLAG 151300Z 00000KT 9999 FEW015 23/17 Q1010 A2983 883.0 HR69METAR SLVM 151300Z 00000KT 9999 SCT025 26/21 Q1005 A2970 HR77 CI=METAR RTD SLTJ 151300Z 00000KT 9999 NSC 22/14 Q1013 A2994 809.7 HR61METAR SLYA 151300Z 06010KT 9999 BKN018 24/21 Q1007 A2974 932.2 HR86=METAR SLBJ 151300Z NIL=METAR SLHI 151300Z NIL=
ZPX0350 151350@CAELT@GG SLZZYMYT@CAELT@151350 SLRBYGYS@CAELT@SABO SLRB 151400@CAELT@METAR SLRB 151400Z 36010KT 9999 NSC 28/23 Q1013 A2991 HR77 RWY NML=@CAELT@
ZPX0352 151353@CAELT@GG SLZZYMYT@CAELT@151353 SLCAYGYS@CAELT@SABO SLCA 151400@CAELT@METAR SLCA 151400Z 36004KT 9999 FEW036 25/16 Q1009 A2980 HR58 RWY NML@CAELT@
ZPX0353 151353@CAELT@GG SLZZYMYT@CAELT@151349 SLPSYGYS@CAELT@SABO SLPS 151400@CAELT@METAR SLPS 151400Z 00000KT 9999 FEW017 SCT200 33/24 Q1012 A2989 HR59=@CAELT@
ZPX0354 151354@CAELT@GG SLZZYMYT@CAELT@151355 SLSBYSYX@CAELT@SABO SLSB 151400@CAELT@METAR SLSB 151400Z 28006KT 9999 BKN017 BKN080 27/23 Q1010 A2985 HR79@CAELT@RWY NML=@CAELT@
ZPX0355 151355@CAELT@GG SLZZYMYT@CAELT@151354 SLSAYGYS@CAELT@SABO SLSA 151400@CAELT@METAR SLSA 151400Z 32010KT 9999 BKN015 BKN080 27/24 Q1010 A2983 HR84=@CAELT@
ZPX0356 151355@CAELT@GG SLZZYMYT@CAELT@151354 SLSAYGYS@CAELT@SABO SLSA 151400@CAELT@METAR SLSA 151400Z 32010KT 9999 BKN015 BKN080 27/24 Q1010 A2983 HR84=@CAELT@
ZPX0357 151355@CAELT@GG SLZZYMYT@CAELT@151355 SLCOYGYZ@CAELT@SABO SLCO 151400@CAELT@METAR SLCO 151400Z 02008KT 9999 BKN015 BKN200 27/24 Q1012 A2989 984.7@CAELT@HR83=@CAELT@
ZPX0359 151356@CAELT@GG SLZZYMYT@CAELT@151355 SLCBYGYZ@CAELT@SABO SLCB 151400@CAELT@METAR SLCB 151400Z 13004KT 9999 FEW036 BKN200 23/07 Q1022 A3019 749.4@CAELT@HR37 FU NOSIG=@CAELT@
ZPX0360 151357@CAELT@GG SLZZYMYT@CAELT@151356 SLUYYGYS@CAELT@SABO SLUY 151400@CAELT@METAR SLUY 151400Z 33011KT 9999 NSC 13/M08 Q1032 A3050 657.5@CAELT@HR23 CI=@CAELT@
ZPX0361 151357@CAELT@GG SLZZYMYT@CAELT@151357 SLLPYGYZ@CAELT@SABO SLLP 151400@CAELT@METAR SLLP 151400Z 22004KT 150V290 9999 FEW017 BKN200 13/M03@CAELT@Q1037 A3063 627.4 HR34 P93// HZ SW/W AC NOSIG=@CAELT@
ZPX0362 151357@CAELT@GG SLZZYMYT@CAELT@151357 SLVRYGYZ@CAELT@SABO SLVR 151400@CAELT@METAR SLVR 151400Z 35010G20KT 1600 DZ OVC006 21/20 Q1010 A2982 HR94@CAELT@TEMPO 3000=@CAELT@
ZPX0363 151358@CAELT@GG SLZZYMYT@CAELT@151356 SLAGYSYX@CAELT@SABO SLAG 151400@CAELT@METAR SLAG 151400Z 18003KT 9999 FEW015 25/17 Q1010 A2983 882.9 HR64@CAELT@
ZPX0364 151358@CAELT@GG SLZZYMYT@CAELT@151357 SLTRYGYZ@CAELT@SABO SLTR 151400@CAELT@METAR SLTR 151400Z 29008KT 9999 SCT010 SCT017 28/24 Q1010 A2985@CAELT@992.2 HR83 NOSIG=@CAELT@
ZPX0365 151358@CAELT@GG SLZZYMYT@CAELT@151356 SLETYMYC@CAELT@SABO SLET 151400@CAELT@METAR SLET 151400Z 32012G22KT 5000 -DZ BKN008 BKN015 21/20 Q1009@CAELT@A2981 HR93 NOSIG=@CAELT@
ZPX0367 151359@CAELT@GG SLZZYMYT@CAELT@151359 SLVRYFYC@CAELT@SABO SLVR 151400@CAELT@METAR SLVR 151400Z 35010G20KT 1600 DZ OVC006 21/20 Q1010 A2982 HR94@CAELT@TEMPO 3000=@CAELT@METAR SLET 151400Z 32012G22KT 5000 -DZ BKN008 BKN015 21/20 Q1009@CAELT@A2981 HR93 NOSIG=@CAELT@METAR SLAS 151400Z 36010KT 9999 BKN015 28/23 Q1013 A2992 HR74 RWY NMLMETAR SLJV 151400Z 36010KT 9999 BKN013 26/22 Q1010 A2983 HR78 RWY NMLMETAR SLCP 151400Z 36006KT 9999 BKN015 26/22 Q1014 A2994 HR78 RWY NMLMETAR SLSI 151400Z 33006KT 9999 BKN015 27/22 Q1012 A2988 HR75 RWY NMLMETAR SLTI 151400Z 00000KT 9999 FEW015 30/23 Q1015 A2997 HR67 RWY NMLMETAR SLJE 151400Z 35006KT 9999 BKN012 27/23 Q1013 A2991 HR76 RWY NMLMETAR SLVG 151400Z 35005KT 9999 NSC 20/13 Q1019 A3009 HR63 RWY NML=METAR SLRB 151400Z 36010KT 9999 NSC 28/23 Q1013 A2991 HR77 RWY NML=METAR SLPS 151400Z 00000KT 9999 FEW017 SCT200 33/24 Q1012 A2989 HR59=METAR SLCA 151400Z 36004KT 9999 FEW036 25/16 Q1009 A2980 HR58 RWY NML
ZPX0368 151359@CAELT@GG SLZZYMYT@CAELT@151357 SLTJYGYZ@CAELT@SABO SLTJ 151400@CAELT@METAR SLTJ 151400Z 19004KT 9999 FEW036 25/14 Q1013 A2992 809.2 HR50@CAELT@
ZPX0369 151359@CAELT@GG SLZZYMYT@CAELT@151355 SLLPYFYA@CAELT@SABO SLRY 151400@CAELT@METAR SLRY 151400Z 00000KT 9999 BKN015 26/23 Q1010 A2985 HR84@CAELT@RWY NML=@CAELT@
ZPX0371 151400@CAELT@GG SLZZYMYT@CAELT@151359 SLTRYGYS@CAELT@SABO SLTR 151400@CAELT@METAR SLTR 151400Z 29008KT 9999 SCT010 SCT017 28/24 Q1010 A2985@CAELT@992.2 HR83 NOSIG=@CAELT@METAR SLGM 151400Z 04012KT 8000 VCSH BKN015 FEW020CB BKN200 27/23@CAELT@Q1012 A2990 HR76 CB/SH E/SE=@CAELT@METAR SLRI 151400Z 36005KT 9999 SCT010 BKN200 28/22 Q1012 A2991 HR72METAR SLJO 151400Z 34008KT 9999 FEW015 BKN200 29/23 Q1012 A2989HR73 RWY NML=METAR SLRA 151400Z 36008KT 9999 FEW017 SCT200 29/23 Q1010 A2985HR69 AC RWY NML=METAR SLMG 151400Z 32008KT 9999 FEW017 BKN200 29/23 Q1011 A2985HR72 RWY NML=METAR SLBU 151400Z 32004KT 9999 FEW015 BKN200 29/23 Q1011 A2986HR70 RWY NML=METAR SLSA 151400Z 32010KT 9999 BKN015 BKN080 27/24 Q1010 A2983 HR84=METAR SLSR 151400Z 32008KT 9999 SCT012 FEW023CB BKN070 26/23Q1010 A2983 HR85 CB N/NW RWY NML=METAR SLSM 151400Z 33008KT 9999 BKN015 BKN080 26/24 Q1011 A2985HR89 RWY OPR C206=
ZPX0373 151401@CAELT@GG SLZZYMYT@CAELT@151400 SLCBYGYS@CAELT@SABO SLCB 151400@CAELT@METAR SLCB 151400Z 13004KT 9999 FEW036 BKN200 23/07 Q1022 A3019 749.4@CAELT@HR37 FU NOSIG=@CAELT@METAR SLAL 151400Z 18007KT 9999 NSC 17/02 Q1026 A3029 701.5 HR35 CI=@CAELT@METAR SLPO 151400Z NIL=@CAELT@METAR SLAG 151400Z 18003KT 9999 FEW015 25/17 Q1010 A2983 882.9 HR64METAR SLVM 151400Z 00000KT 9999 BKN025 26/21 Q1006 A2971 HR76 CI=METAR SLTJ 151400Z 19004KT 9999 FEW036 25/14 Q1013 A2992 809.2 HR50METAR SLYA 151400Z 06010KT 9999 BKN018 25/21 Q1007 A2975 932.4 HR82=METAR SLBJ 151400Z NIL=METAR SLHI 151400Z NIL=
ZPX0374 151402@CAELT@GG SLZZYMYT@CAELT@151401 SLORYGYZ@CAELT@SABO SLOR 151400@CAELT@METAR SLOR 151400Z 19003KT 9999 FEW070 BKN200 14/01 Q1034 A3053 655.0@CAELT@HR50=@CAELT@
ZPX0377 151403@CAELT@GG SLZZYMYT@CAELT@151402 SLLPYFYA@CAELT@SABO SLLP 151400@CAELT@METAR SLLP 151400Z 22004KT 150V290 9999 FEW017 BKN200 13/M03@CAELT@Q1037 A3063 627.4 HR34 P93// HZ SW/W AC NOSIG=@CAELT@METAR SLCO 151400Z 02008KT 9999 BKN015 BKN200 27/24 Q1012 A2989@CAELT@984.7 HR83=@CAELT@METAR SLRY 151400Z 00000KT 9999 BKN015 26/23 Q1010 A2985 HR84RWY NML=METAR SLRQ 151400Z 32004KT 9999 BKN015 SCT200 26/23 Q1011 A2986986.9 HR83=METAR SLAP 151400Z 36015KT 9999 FEW030 OVC200 22/17 Q1016 A3003857.6 HR73 AC=METAR SLSB 151400Z 28006KT 9999 BKN017 BKN080 27/23 Q1010 A2985HR79 RWY NML=METAR SLOR 151400Z 19003KT 9999 FEW070 BKN200 14/01 Q1034 A3053655.0 HR50=METAR SLUY 151400Z 33011KT 9999 NSC 13/M08 Q1032 A3050 657.5HR23 CI=
ZPX0412 151450@CAELT@GG SLZZYMYT@CAELT@151450 SLRBYGYS@CAELT@SABO SLRB 151500@CAELT@METAR SLRB 151500Z 36010KT 9999 FEW020 30/24 Q1013 A2991 HR73 RWY NML=@CAELT@
ZPX0413 151451@CAELT@GG SLZZYMYT@CAELT@151450 SLPSYGYS@CAELT@SABO SLPS 151500@CAELT@METAR SLPS 151500Z 09004KT 9999 FEW017 SCT200 33/24 Q1013 A2992 HR59=@CAELT@
ZPX0415 151453@CAELT@GG SLZZYMYT@CAELT@151454 SLORYGYZ@CAELT@SABO SLOR 151500@CAELT@METAR SLOR 151500Z 22008KT 9999 FEW017 BKN200 17/05 Q1033 A3052 655.0@CAELT@HR45=@CAELT@
ZPX0416 151454@CAELT@GG SLZZYMYT@CAELT@151454 SLCAYGYS@CAELT@SABO SLCA 151500@CAELT@METAR SLCA 151500Z 36006KT 9999 NSC 28/16 Q1008 A2980 HR50 RWY NML=@CAELT@
ZPX0418 151454@CAELT@GG SLZZYMYT@CAELT@151455 SLSBYSYX@CAELT@SABO SLSB 151500@CAELT@METAR SLSB 151500Z 28010KT 9999 SCT017 BKN080 29/23 Q1009 A2982 HR73@CAELT@RWY NML=@CAELT@
ZPX0419 151455@CAELT@GG SLZZYMYT@CAELT@151454 SLSAYGYS@CAELT@SABO SLSA 151500@CAELT@METAR SLSA 151500Z 33010KT 9999 BKN015 BKN080 27/24 Q1010 A2983 HR82=@CAELT@
ZPX0421 151455@CAELT@GG SLZZYMYT@CAELT@151455 SLCOYGYZ@CAELT@SABO SLCO 151500@CAELT@METAR SLCO 151500Z 02009KT 9999 BKN017 29/25 Q1011 A2988 984.4 HR75@CAELT@
ZPX0422 151455@CAELT@GG SLZZYMYT@CAELT@151455 SLAGYSYX@CAELT@SABO SLAG 151500@CAELT@METAR SLAG 151500Z 17003KT 9999 FEW017 26/18 Q1009 A2981 882.3 HR59@CAELT@
ZPX0423 151455@CAELT@GG SLZZYMYT@CAELT@151455 SLETYMYC@CAELT@SABO SLET 151500@CAELT@METAR SLET 151500Z 32012G24KT 6000 -DZ BKN008 BKN015 22/20 Q1008@CAELT@A2978 HR92 NOSIG=@CAELT@
ZPX0424 151456@CAELT@GG SLZZYMYT@CAELT@151455 SLLPYFYA@CAELT@SABO SLRY 151500@CAELT@METAR SLRY 151500Z 34008KT 9999 BKN015 28/23 Q1009 A2982 HR78@CAELT@RWY NML=@CAELT@
ZPX0425 151456@CAELT@GG SLZZYMYT@CAELT@151456 SLTRYGYZ@CAELT@SABO SLTR 151500@CAELT@METAR SLTR 151500Z 31011KT 9999 SCT017 28/24 Q1010 A2983 991.8 HR78@CAELT@AC NOSIG=@CAELT@
ZPX0426 151457@CAELT@GG SLZZYMYT@CAELT@151455 SLTJYGYZ@CAELT@SABO SLTJ 151500@CAELT@METAR SLTJ 151500Z 15005KT 9999 FEW036 27/14 Q1012 A2990 808.8 HR44@CAELT@
ZPX0428 151457@CAELT@GG SLZZYMYT@CAELT@151456 SLCBYGYZ@CAELT@SABO SLCB 151500@CAELT@METAR SLCB 151500Z 15005KT 9999 FEW036 BKN200 26/06 Q1021 A3015 748.3@CAELT@HR28 FU NOSIG=@CAELT@
ZPX0429 151457@CAELT@GG SLZZYMYT@CAELT@151457 SLLPYGYZ@CAELT@SABO SLLP 151500@CAELT@METAR SLLP 151500Z 26005KT 160V310 9999 FEW017 BKN200 15/M02@CAELT@Q1036 A3061 627.0 HR32 P93// AC NOSIG=@CAELT@
ZPX0432 151459@CAELT@GG SLZZYMYT@CAELT@151459 SLVRYFYC@CAELT@SABO SLVR 151500@CAELT@METAR SLVR 151500Z 36012G23KT 2500 DZ OVC006 22/20 Q1009 A2981 HR92@CAELT@NOSIG=@CAELT@METAR SLET 151500Z 32012G24KT 6000 -DZ BKN008 BKN015 22/20 Q1008@CAELT@A2978 HR92 NOSIG=@CAELT@METAR SLAS 151500Z 36012KT 9999 BKN015 30/23 Q1013 A2992 HR70 RWY NMLMETAR SLJV 151500Z 36010KT 9999 BKN013 28/23 Q1010 A2983 HR74 RWY NMLMETAR SLCP 151500Z 34008KT 9999 BKN017 27/22 Q1014 A2994 HR71 RWY NMLMETAR SLSI 151500Z 36006KT 9999 BKN015 28/22 Q1012 A2988 HR72 RWY NMLMETAR SLTI 151500Z 00000KT 9999 BKN017 31/24 Q1015 A2997 HR65 RWY NMLMETAR SLJE 151500Z 35006KT 9999 OVC013 29/23 Q1013 A2991 HR72 RWY NMLMETAR SLVG 151500Z 35009KT 9999 NSC 22/15 Q1018 A3006 HR61 RWY NML=METAR SLRB 151500Z 36010KT 9999 FEW020 30/24 Q1013 A2991 HR73 RWY NMLMETAR SLPS 151500Z 09004KT 9999 FEW017 SCT200 33/24 Q1013 A2992 HR59=METAR SLCA 151500Z 36006KT 9999 NSC 28/16 Q1008 A2980 HR50 RWY NML=
ZPX0433 151459@CAELT@GG SLZZYMYT@CAELT@151459 SLTRYGYS@CAELT@SABO SLTR 151500@CAELT@METAR SLTR 151500Z 31011KT 9999 SCT017 28/24 Q1010 A2983 991.8 HR78@CAELT@AC NOSIG=@CAELT@METAR SLGM 151500Z 36008KT 9999 SCT017 FEW020CB BKN200 28/23 Q1012@CAELT@A2988 HR72 CB NE/E=@CAELT@METAR SLRI 151500Z 09008KT 9999 SCT017 FEW020CB BKN200 28/22 Q1012A2991 HR71 CB/NW AC=METAR SLJO 151500Z 34012KT 9999 FEW017 BKN200 29/23 Q1012 A2989 HR71RWY NML=METAR SLRA 151500Z 34010KT 9999 FEW017 SCT080 30/22 Q1010 A2985 HR64CI RWY NML=METAR SLMG 151500Z 32008KT 9999 SCT017 BKN200 30/24 Q1011 A2984 HR70METAR SLBU 151500Z 32006KT 9999 SCT017 BKN200 30/23 Q1010 A2984 HR64RWY HUM OPR=METAR SLSA 151500Z 33010KT 9999 BKN015 BKN080 27/24 Q1010 A2983 HR82=METAR SLSR 151500Z 32008KT 9999 SCT012 BKN080 27/22 Q1009 A2981 HR79METAR SLSM 151500Z 33008KT 9999 BKN015 BKN080 26/24 Q1010 A2985 HR85RWY OPR C206=
ZPX0434 151500@CAELT@GG SLZZYMYT@CAELT@151459 SLCBYGYS@CAELT@SABO SLCB 151500@CAELT@METAR SLCB 151500Z 15005KT 9999 FEW036 BKN200 26/06 Q1021 A3015 748.3@CAELT@HR28 FU NOSIG=@CAELT@METAR SLAL 151500Z 00000KT 9999 NSC 19/02 Q1025 A3028 701.1 HR32 CI=@CAELT@METAR SLPO 151500Z NIL=@CAELT@METAR SLAG 151500Z 17003KT 9999 FEW017 26/18 Q1009 A2981 882.3 HR59METAR SLVM 151500Z 18005KT 9999 BKN025 28/23 Q1005 A2970 HR72=METAR SLTJ 151500Z 15005KT 9999 FEW036 27/14 Q1012 A2990 808.8 HR44METAR SLYA 151500Z 00000KT 9999 SCT020 27/22 Q1007 A2974 932.2 HR75=METAR SLBJ 151500Z NIL=METAR SLHI 151500Z NIL=
ZPX0435 151500@CAELT@GG SLZZYMYT@CAELT@151500 SLUYYGYS@CAELT@SABO SLUY 151500@CAELT@METAR SLUY 151500Z 33010KT 9999 NSC 13/M09 Q1032 A3049 657.3@CAELT@HR20 CI=@CAELT@
ZPX0436 151501@CAELT@GG SLZZYMYT@CAELT@151500 SLLPYFYA@CAELT@SABO SLLP 151500@CAELT@METAR SLLP 151500Z 26005KT 160V310 9999 FEW017 BKN200 15/M02@CAELT@Q1036 A3061 627.0 HR32 P93// AC NOSIG=@CAELT@METAR SLCO 151500Z 02009KT 9999 BKN017 29/25 Q1011 A2988 984.4@CAELT@HR75 CI=@CAELT@METAR SLRY 151500Z 34008KT 9999 BKN015 28/23 Q1009 A2982 HR78RWY NML=METAR SLRQ 151500Z 33006KT 9999 BKN015 SCT200 28/23 Q1010 A2984986.3 HR77 AC=METAR SLSB 151500Z 28010KT 9999 SCT017 BKN080 29/23 Q1009 A2982HR73 RWY NML=METAR SLAP 151500Z 36015KT 9999 FEW030 OVC200 24/17 Q1016 A3000856.9 HR67 AC=METAR SLOR 151500Z 22008KT 9999 FEW017 BKN200 17/05 Q1033 A3052655.0 HR45=METAR SLUY 151500Z 33010KT 9999 NSC 13/M09 Q1032 A3049 657.3HR20 CI=
ZPX0466 151553@CAELT@GG SLZZYMYT@CAELT@151552 SLRBYGYS@CAELT@SABO SLRB 151600@CAELT@METAR SLRB 151600Z 36010KT 9999 FEW020 31/24 Q1012 A2988 HR67 RWY NML=@CAELT@
ZPX0467 151553@CAELT@GG SLZZYMYT@CAELT@151550 SLPSYGYS@CAELT@SABO SLPS 151600@CAELT@METAR SLPS 151600Z 09004KT 9999 SCT017 34/23 Q1012 A2989 HR57=@CAELT@
ZPX0468 151554@CAELT@GG SLZZYMYT@CAELT@151554 SLCAYGYS@CAELT@SABO SLCA 151600@CAELT@METAR SLCA 151600Z 00000KT 9999 NSC 30/17 Q1007 A2974 HR46 RWY NML=@CAELT@
ZPX0469 151554@CAELT@GG SLZZYMYT@CAELT@151555 SLSBYSYX@CAELT@SABO SLSB 151600@CAELT@METAR SLSB 151600Z 34010KT 9999 BKN017 SCT080 29/24 Q1008 A2979 HR76@CAELT@RWY NML=@CAELT@
ZPX0471 151555@CAELT@GG SLZZYMYT@CAELT@151554 SLSAYGYS@CAELT@SABO SLSA 151600@CAELT@METAR SLSA 151600Z 33012KT 9999 BKN015 BKN080 28/24 Q1009 A2980 HR77=@CAELT@
ZPX0472 151555@CAELT@GG SLZZYMYT@CAELT@151555 SLORYGYZ@CAELT@SABO SLOR 151600@CAELT@METAR SLOR 151600Z 17005KT 9999 FEW020 BKN200 19/05 Q1032 A3049 654.1@CAELT@HR39=@CAELT@
ZPX0473 151555@CAELT@GG SLZZYMYT@CAELT@151555 SLETYMYC@CAELT@SABO SLET 151600@CAELT@METAR SLET 151600Z 32014G26KT 9999 SCT010 BKN017 25/22 Q1007 A2976@CAELT@HR85 NOSIG=@CAELT@
ZPX0475 151555@CAELT@GG SLZZYMYT@CAELT@151555 SLETYMYC@CAELT@SABO SLET 151600@CAELT@METAR SLET 151600Z 32014G26KT 9999 SCT010 BKN017 25/22 Q1007 A2976@CAELT@HR85 NOSIG=@CAELT@
ZPX0476 151556@CAELT@GG SLZZYMYT@CAELT@151555 SLAGYSYX@CAELT@SABO SLAG 151600@CAELT@METAR SLAG 151600Z 16003KT 9999 FEW017 28/17 Q1008 A2979 881.7 HR52@CAELT@
ZPX0478 151556@CAELT@GG SLZZYMYT@CAELT@151555 SLVRYGYZ@CAELT@SABO SLVR 151600@CAELT@METAR SLVR 151600Z 35014G25KT 9000 -DZ OVC007 23/21 Q1008 A2979 HR88@CAELT@NOSIG=@CAELT@
ZPX0479 151556@CAELT@GG SLZZYMYT@CAELT@151555 SLCOYGYZ@CAELT@SABO SLCO 151600@CAELT@METAR SLCO 151600Z 01008KT 9999 SCT020 BKN200 30/24 Q1010 A2985 983.5@CAELT@HR69=@CAELT@
ZPX0480 151556@CAELT@GG SLZZYMYT@CAELT@151557 SLLPYGYZ@CAELT@SABO SLLP 151600@CAELT@METAR SLLP 151600Z 29005KT 220V340 9999 FEW017 BKN200 16/M07@CAELT@Q1035 A3058 626.4 HR20 P7483 AC NOSIG=@CAELT@
ZPX0481 151556@CAELT@GG SLZZYMYT@CAELT@151556 SLTRYGYZ@CAELT@SABO SLTR 151600@CAELT@METAR SLTR 151600Z 29014KT 9999 SCT017 BKN200 29/24 Q1009 A2981@CAELT@991.0 HR74 AC SH SE/NW TEMPO SHRA=@CAELT@
ZPX0482 151557@CAELT@GG SLZZYMYT@CAELT@151556 SLVRYFYC@CAELT@SABO SLVR 151600@CAELT@METAR SLVR 151600Z 35014G25KT 9000 -DZ OVC007 23/21 Q1008 A2979 HR88@CAELT@NOSIG=@CAELT@METAR SLET 151600Z 32014G26KT 9999 SCT010 BKN017 25/22 Q1007 A2976@CAELT@HR85 NOSIG=@CAELT@METAR SLAS 151600Z 36012KT 9999 BKN017 FEW030CB 31/23 Q1012 A2989HR66 CB/SH SE/S RWY NML=METAR SLCP 151600Z 34008KT 9999 BKN017 28/22 Q1013 A2991 HR71 RWY NMLMETAR SLSI 151600Z 33008KT 9999 BKN015 30/22 Q1011 A2985 HR65 RWY NMLMETAR SLRB 151600Z 36010KT 9999 FEW020 31/24 Q1012 A2988 HR67 RWY NMLMETAR SLPS 151600Z 09004KT 9999 SCT017 34/23 Q1012 A2989 HR57=METAR SLCA 151600Z 00000KT 9999 NSC 30/17 Q1007 A2974 HR46 RWY NML=
ZPX0483 151557@CAELT@GG SLZZYMYT@CAELT@151557 SLTJYGYZ@CAELT@SABO SLTJ 151600@CAELT@METAR SLTJ 151600Z 21006KT 9999 FEW036 FEW040CB 29/13 Q1011 A2988@CAELT@808.1 HR35 CB SW/W=@CAELT@
ZPX0484 151558@CAELT@GG SLZZYMYT@CAELT@151556 SLCBYGYZ@CAELT@SABO SLCB 151600@CAELT@METAR SLCB 151600Z 20005KT 9999 FEW036 BKN200 27/05 Q1019 A3010 746.9@CAELT@HR24 FU NOSIG=@CAELT@
ZPX0485 151558@CAELT@GG SLZZYMYT@CAELT@151557 SLUYYGYS@CAELT@SABO SLUY 151600@CAELT@METAR SLUY 151600Z 32008KT 9999 NSC 15/M10 Q1031 A3047 656.8@CAELT@HR18 CI=@CAELT@
ZPX0486 151558@CAELT@GG SLZZYMYT@CAELT@151555 SLLPYFYA@CAELT@SABO SLRY 151600@CAELT@METAR SLRY 151600Z 34016KT 9999 BKN015 29/23 Q1009 A2980 HR72@CAELT@RWY NML=@CAELT@
ZPX0487 151600@CAELT@GG SLZZYMYT@CAELT@151559 SLTRYGYS@CAELT@SABO SLTR 151600@CAELT@METAR SLTR 151600Z 29014KT 9999 SCT017 BKN200 29/24 Q1009 A2981@CAELT@991.0 HR74 AC SH SE/NW TEMPO SHRA=@CAELT@METAR SLGM 151600Z 36006KT 9999 SCT017 FEW020CB BKN200 29/23 Q1011@CAELT@A2985 HR67 CB E=@CAELT@METAR SLRI 151600Z 02006KT 9999 SCT017 BKN200 29/23 Q1011 A2988 HR66METAR SLJO 151600Z 32012KT 9999 SCT017 BKN080 BKN200 30/23 Q1011A2987 HR67 SH NE RWY NML=METAR SLRA 151600Z 34014KT 9999 FEW017 SCT080 31/23 Q1010 A2984HR62 CI RWY NML=METAR SLMG 151600Z 32010KT 9999 SCT017 30/23 Q1010 A2985 HR66RWY NML=METAR SLBU 151600Z 32006KT 9999 SCT017 32/23 Q1009 A2981 HR60 CIRWY HUM OPR=METAR SLSA 151600Z 33012KT 9999 BKN015 BKN080 28/24 Q1009 A2980 HR77=METAR SLSR 151600Z 32008KT 8000 VCSH BKN012 FEW023CB OVC070 27/23HR78 Q1008 A2979 HR78 CB/SH N/NE/NW RWY NML=METAR SLSM 151600Z 33012KT 9999 BKN015 BKN080 28/24 Q1009 A2982HR81 RWY OPR C210=
ZPX0490 151600@CAELT@GG SLZZYMYT@CAELT@151559 SLLPYFYA@CAELT@SABO SLLP 151600@CAELT@METAR SLLP 151600Z 29005KT 220V340 9999 FEW017 BKN200 16/M07@CAELT@Q1035 A3058 626.4 HR20 P7483 AC NOSIG=@CAELT@METAR SLCO 151600Z 01008KT 9999 SCT020 BKN200 30/24 Q1010 A2985@CAELT@983.5 HR69=@CAELT@METAR SLRY 151600Z 34016KT 9999 BKN015 29/23 Q1009 A2980 HR72RWY NML=METAR SLRQ 151600Z 33009KT 9999 BKN015 SCT200 29/24 Q1009 A2981985.4 HR74 AC=METAR SLSB 151600Z 34010KT 9999 BKN017 SCT080 29/24 Q1008 A2979HR76 RWY NML=METAR SLAP 151600Z 36015G25KT 9999 FEW030 BKN200 25/17 Q1015A2999 856.4 HR62=METAR SLOR 151600Z 17005KT 9999 FEW020 BKN200 19/05 Q1032 A3049654.1 HR39=METAR SLUY 151600Z 32008KT 9999 NSC 15/M10 Q1031 A3047 656.8HR18 CI=
ZPX0491 151601@CAELT@GG SLZZYMYT@CAELT@151600 SLCBYGYS@CAELT@SABO SLCB 151600@CAELT@METAR SLCB 151600Z 20005KT 9999 FEW036 BKN200 27/05 Q1019 A3010 746.9@CAELT@HR24 FU NOSIG=@CAELT@METAR SLAL 151600Z 15004KT 9999 NSC 21/01 Q1024 A3025 700.5 HR27 CI=@CAELT@METAR SLPO 151600Z NIL=@CAELT@METAR SLAG 151600Z 16003KT 9999 FEW017 28/17 Q1008 A2979 881.7 HR52METAR SLVM 151600Z 18005KT 9999 BKN025 28/23 Q1005 A2969 HR71 CI=METAR SLTJ 151600Z 21006KT 9999 FEW036 FEW040CB 29/13 Q1011 A2988808.1 HR35 CB SW/W=METAR SLYA 151600Z 06008KT 9999 SCT023 28/22 Q1006 A2973 932.0 HR69=METAR SLBJ 151600Z NIL=METAR SLHI 151600Z NIL=
ZPX0528 151652@CAELT@GG SLZZYMYT@CAELT@151651 SLCAYGYS@CAELT@SABO SLCA 151700@CAELT@METAR SLCA 151700Z 18004KT 9999 NSC 31/17 Q1007 A2974 HR43 RWY NML=@CAELT@
ZPX0529 151652@CAELT@GG SLZZYMYT@CAELT@151651 SLPSYGYS@CAELT@SABO SLPS 151700@CAELT@METAR SLPS 151700Z 09009KT 9999 SCT017 34/23 Q1012 A2989 HR53=@CAELT@
ZPX0533 151655@CAELT@GG SLZZYMYT@CAELT@151655 SLSBYSYX@CAELT@SABO SLSB 151700@CAELT@METAR SLSB 151700Z 32008KT 9999 BKN017 SCT080 30/24 Q1008 A2978 HR72@CAELT@RWY NML=@CAELT@
ZPX0534 151655@CAELT@GG SLZZYMYT@CAELT@151646 SLSAYGYS@CAELT@SABO SLSA 151700@CAELT@METAR SLSA 151700Z 32012KT 9999 BKN017 BKN080 30/24 Q1008 A2978 HR70=@CAELT@
ZPX0535 151655@CAELT@GG SLZZYMYT@CAELT@151646 SLSAYGYS@CAELT@SABO SLSA 151700@CAELT@METAR SLSA 151700Z 32012KT 9999 BKN017 BKN080 30/24 Q1008 A2978 HR70=@CAELT@
ZPX0536 151655@CAELT@GG SLZZYMYT@CAELT@151655 SLCOYGYZ@CAELT@SABO SLCO 151700@CAELT@METAR SLCO 151700Z 31010KT 9999 SCT020 BKN200 31/24 Q1010 A2983 982.7@CAELT@HR65=@CAELT@
ZPX0537 151655@CAELT@GG SLZZYMYT@CAELT@151655 SLORYGYZ@CAELT@SABO SLOR 151700@CAELT@METAR SLOR 151700Z 21008KT 9999 FEW020 BKN200 20/04 Q1031 A3047 653.8@CAELT@HR36=@CAELT@
ZPX0538 151655@CAELT@GG SLZZYMYT@CAELT@151655 SLTJYGYZ@CAELT@SABO SLTJ 151700@CAELT@METAR SLTJ 151700Z 13004KT 9999 FEW036 FEW040CB 31/13 Q1011 A2986 807@CAELT@.7 HR32 CB DIST SW/W=@CAELT@
ZPX0539 151656@CAELT@GG SLZZYMYT@CAELT@151655 SLRBYGYS@CAELT@SABO SLRB 151700@CAELT@METAR SLRB 151700Z 36008KT 9999 SCT020 32/24 Q1011 A2985 HR63 RWY NML=@CAELT@
ZPX0540 151656@CAELT@GG SLZZYMYT@CAELT@151655 SLUYYGYS@CAELT@SABO SLUY 151700@CAELT@METAR SLUY 151700Z 31008KT 9999 NSC 16/M10 Q1031 A3044 656.2@CAELT@HR16 CI=@CAELT@
ZPX0542 151656@CAELT@GG SLZZYMYT@CAELT@151656 SLTRYGYZ@CAELT@SABO SLTR 151700@CAELT@METAR SLTR 151700Z 30009KT 9999 FEW017 SCT070 BKN200 28/26 Q1008@CAELT@A2979 990.4 HR87 RESHRA SH SE/NW TEMPO SHRA=@CAELT@
ZPX0543 151656@CAELT@GG SLZZYMYT@CAELT@151656 SLVRYGYZ@CAELT@SABO SLVR 151700@CAELT@METAR SLVR 151700Z 36016G28KT 9999 BKN008 BKN013 25/21 Q1008 A2978@CAELT@HR81 NOSIG=@CAELT@
ZPX0544 151656@CAELT@GG SLZZYMYT@CAELT@151655 SLCBYGYZ@CAELT@SABO SLCB 151700@CAELT@METAR SLCB 151700Z 30005KT 9999 FEW040 BKN200 30/04 Q1017 A3006 745.9@CAELT@HR19 FU NOSIG=@CAELT@
ZPX0545 151657@CAELT@GG SLZZYMYT@CAELT@151656 SLETYMYC@CAELT@SABO SLET 151700@CAELT@METAR SLET 151700Z 32015G27KT 9999 BKN008 BKN017 25/22 Q1007 A2976@CAELT@HR86 NOSIG=@CAELT@
ZPX0546 151657@CAELT@GG SLZZYMYT@CAELT@151657 SLLPYGYZ@CAELT@SABO SLLP 151700@CAELT@METAR SLLP 151700Z 22008KT 150V300 9999 FEW020 BKN200 18/M12@CAELT@Q1034 A3055 625.7 HR12 P94// AC NOSIG=@CAELT@
ZPX0547 151657@CAELT@GG SLZZYMYT@CAELT@151656 SLAGYSYX@CAELT@SABO SLAG 151700@CAELT@METAR SLAG 151700Z 03008KT 9999 FEW020 SCT200 30/18 Q1007 A2976 881.0@CAELT@HR49=@CAELT@
ZPX0548 151657@CAELT@GG SLZZYMYT@CAELT@151655 SLLPYFYA@CAELT@SABO SLRY 151700@CAELT@METAR SLRY 151700Z 34016KT 9999 BKN015 BKN080 29/23 Q1008 A2979@CAELT@HR72 RWY NML=@CAELT@
ZPX0549 151657@CAELT@GG SLZZYMYT@CAELT@151657 SLVRYFYC@CAELT@SABO SLVR 151700@CAELT@METAR SLVR 151700Z 36016G28KT 9999 BKN008 BKN013 25/21 Q1008 A2978@CAELT@HR81 NOSIG=@CAELT@METAR SLET 151700Z 32015G27KT 9999 BKN008 BKN017 25/22 Q1007 A2976@CAELT@HR86 NOSIG=@CAELT@METAR SLAS 151700Z 36012KT 9999 BKN017 FEW030CB 31/23 Q1011 A2986HR64 CB/SH E/S RWY NML=METAR SLCP 151700Z 36008KT 9999 BKN017 29/23 Q1012 A2988 HR66 RWY NMLMETAR SLSI 151700Z 36006KT 9999 BKN017 31/22 Q1011 A2985 HR63 RWY NMLMETAR SLRB 151700Z 36008KT 9999 SCT020 32/24 Q1011 A2985 HR63 RWY NMLMETAR SLPS 151700Z 09009KT 9999 SCT017 34/23 Q1012 A2989 HR53=METAR SLCA 151700Z 18004KT 9999 NSC 31/17 Q1007 A2974 HR43 RWY NML=
ZPX0552 151658@CAELT@GG SLZZYMYT@CAELT@151658 SLTRYGYS@CAELT@SABO SLTR 151700@CAELT@METAR SLTR 151700Z 30009KT 9999 FEW017 SCT070 BKN200 28/26 Q1008@CAELT@A2979 990.4 HR87 RESHRA SH SE/NW TEMPO SHRA=@CAELT@METAR SLGM 151700Z 32005KT 9999 SCT017 BKN200 31/23 Q1010 A2982@CAELT@HR62=@CAELT@METAR SLRI 151700Z 36008KT 9999 SCT017 BKN200 30/23 Q1011 A2986 HR66METAR SLJO 151700Z 32012KT 8000 VCSH SCT017 SCT080 BKN200 31/23Q1010 A2985 HR64 CB/SH NE/E RWY NML=METAR SLRA 151700Z 36015KT 9999 FEW017 32/22 Q1010 A2983 HR58AC/CI RWY NML=METAR SLMG 151700Z 32012KT 9999 SCT017 30/23 Q1010 A2984 HR65RWY NML=METAR SLBU 151700Z 32008KT 9999 SCT017 33/24 Q1008 A2978 HR57CI RWY NML=METAR SLSA 151700Z 32012KT 9999 BKN017 BKN080 30/24 Q1008 A2978 HR70=METAR SLSR 151700Z 32012KT 8000 VCSH BKN012 FEW023CB OVC070 27/23Q1007 A2976 HR78 CB/SH NE/E/SE/SW RWY NML=METAR SLSM 151700Z 33012KT 9999 SCT015 BKN200 29/24 Q1009 A2980HR73 RWY C21=
ZPX0553 151659@CAELT@GG SLZZYMYT@CAELT@151659 SLLPYFYA@CAELT@SABO SLLP 151700@CAELT@METAR SLLP 151700Z 22008KT 150V300 9999 FEW020 BKN200 18/M12@CAELT@Q1034 A3055 625.7 HR12 P94// AC NOSIG=@CAELT@METAR SLCO 151700Z 31010KT 9999 SCT020 BKN200 31/24 Q1010 A2983@CAELT@982.7 HR65=@CAELT@METAR SLRY 151700Z 34016KT 9999 BKN015 BKN080 29/23 Q1008 A2979HR72 RWY NML=METAR SLRQ 151700Z 32010KT 9999 BKN015 SCT200 30/24 Q1008 A2979984.6 HR69 AC=METAR SLAP 151700Z 36015G25KT 9999 FEW030 BKN200 24/17 Q1014A2995 855.4 HR64=METAR SLSB 151700Z 32008KT 9999 BKN017 SCT080 30/24 Q1008 A2978METAR SLOR 151700Z 21008KT 9999 FEW020 BKN200 20/04 Q1031 A3047653.8 HR36=METAR SLUY 151700Z 31008KT 9999 NSC 16/M10 Q1031 A3044 656.2HR16 CI=
ZPX0554 151659@CAELT@GG SLZZYMYT@CAELT@151659 SLCBYGYS@CAELT@SABO SLCB 151700@CAELT@METAR SLCB 151700Z 30005KT 9999 FEW040 BKN200 30/04 Q1017 A3006 745.9@CAELT@HR19 FU NOSIG=@CAELT@METAR SLAL 151700Z 00000KT 9999 FEW020 SCT200 23/01 Q1023 A3023 699.8@CAELT@HR23=@CAELT@METAR SLPO 151700Z NIL=METAR SLAG 151700Z 03008KT 9999 FEW020 SCT200 30/18 Q1007 A2976 881.0HR49=METAR SLVM 151700Z 18007KT 9999 BKN025 28/23 Q1005 A2969 HR72 CI=METAR SLTJ 151700Z 13004KT 9999 FEW036 FEW040CB 31/13 Q1011 A2986 807.7 HR32 CB DIST SW/W=METAR SLYA 151700Z 09008KT 9999 BKN023 30/23 Q1006 A2972 931.5 HR63=METAR SLBJ 151700Z NIL=METAR SLHI 151700Z NIL=
ZPX0589 151751@CAELT@GG SLZZYMYT@CAELT@151750 SLRBYGYS@CAELT@SABO SLRB 151800@CAELT@METAR SLRB 151800Z 36015KT 9999 SCT020 33/24 Q1010 A2983 HR57 RWY NML=@CAELT@
ZPX0592 151753@CAELT@GG SLZZYMYT@CAELT@151752 SLCAYGYS@CAELT@SABO SLCA 151800@CAELT@METAR SLCA 151800Z 18004KT 9999 NSC 31/18 Q1007 A2974 HR45 RWY NML=@CAELT@
ZPX0593 151753@CAELT@GG SLZZYMYT@CAELT@151752 SLPSYGYS@CAELT@SABO SLPS 151800@CAELT@METAR SLPS 151800Z 09013KT 9999 SCT017 35/23 Q1011 A2986 HR50=@CAELT@
ZPX0594 151754@CAELT@GG SLZZYMYT@CAELT@151754 SLSAYGYS@CAELT@SABO SLSA 151800@CAELT@METAR SLSA 151800Z 32010KT 9999 BKN017 FEW023CB 29/24 Q1008 A2977@CAELT@HR73 AC CB NE=@CAELT@
ZPX0595 151755@CAELT@GG SLZZYMYT@CAELT@151754 SLCAYGYS@CAELT@SABO SLCA 151800@CAELT@METAR SLCA 151800Z 18004KT 9999 NSC 31/18 Q1007 A2974 HR45 RWY NML=@CAELT@
ZPX0596 151755@CAELT@GG SLZZYMYT@CAELT@151755 SLORYGYZ@CAELT@SABO SLOR 151800@CAELT@METAR SLOR 151800Z 16005KT 9999 FEW020 BKN200 21/04 Q1031 A3046 653.6@CAELT@HR32=@CAELT@
ZPX0597 151755@CAELT@GG SLZZYMYT@CAELT@151755 SLSBYSYX@CAELT@SABO SLSB 151800@CAELT@METAR SLSB 151800Z 33012G22KT 9999 BKN020 SCT080 30/24 Q1007 A2976@CAELT@HR70 RWY NML=@CAELT@
ZPX0598 151755@CAELT@GG SLZZYMYT@CAELT@151755 SLVRYGYZ@CAELT@SABO SLVR 151800@CAELT@METAR SLVR 151800Z 35013G25KT 9999 BKN010 BKN015 25/21 Q1007 A2976@CAELT@HR79 NOSIG=@CAELT@
ZPX0599 151755@CAELT@GG SLZZYMYT@CAELT@151755 SLTJYGYZ@CAELT@SABO SLTJ 151800@CAELT@METAR SLTJ 151800Z 13015KT 9999 FEW036 FEW040CB 31/11 Q1011 A2986 807@CAELT@.7 HR29 CB/N/SW=@CAELT@
ZPX0600 151755@CAELT@GG SLZZYMYT@CAELT@151755 SLAGYSYX@CAELT@SABO SLAG 151800@CAELT@METAR SLAG 151800Z 04006KT 9999 FEW023 SCT200 31/18 Q1007 A2975 880.6@CAELT@HR46=@CAELT@
ZPX0601 151756@CAELT@GG SLZZYMYT@CAELT@151755 SLCOYGYZ@CAELT@SABO SLCO 151800@CAELT@METAR SLCO 151800Z 34010KT 9999 FEW023 BKN200 32/23 Q1009 A2980 981.8@CAELT@HR61=@CAELT@
ZPX0602 151756@CAELT@GG SLZZYMYT@CAELT@151755 SLLPYFYA@CAELT@SABO SLRY 151800@CAELT@METAR SLRY 151800Z 34012KT 9999 BKN015 BKN200 30/23 Q1007 A2976@CAELT@HR67 RWY NML=@CAELT@
ZPX0603 151756@CAELT@GG SLZZYMYT@CAELT@151755 SLETYMYC@CAELT@SABO SLET 151800@CAELT@METAR SLET 151800Z 32016G28KT 9999 SCT008 BKN017 26/22 Q1007 A2974@CAELT@HR80 NOSIG=@CAELT@
ZPX0605 151756@CAELT@GG SLZZYMYT@CAELT@151756 SLCBYGYZ@CAELT@SABO SLCB 151800@CAELT@METAR SLCB 151800Z 16007KT 9999 FEW040 BKN200 30/04 Q1016 A3001 744.5@CAELT@HR18 FU NOSIG=@CAELT@
ZPX0607 151757@CAELT@GG SLZZYMYT@CAELT@151756 SLVRYFYC@CAELT@SABO SLVR 151800@CAELT@METAR SLVR 151800Z 35013G25KT 9999 BKN010 BKN015 25/21 Q1007 A2976@CAELT@HR79 NOSIG=@CAELT@METAR SLET 151800Z 32016G28KT 9999 SCT008 BKN017 26/22 Q1007 A2974@CAELT@HR80 NOSIG=@CAELT@METAR SLAS 151800Z 36015KT 9999 BKN017 FEW030CB 31/24 Q1010 A2983HR65 CB/SH N/S RWY NML=METAR SLJV 151800Z 36012KT 9999 SCT015 30/23 Q1008 A2977 HR67 RWY NMLMETAR SLCP 151800Z 34010KT 9999 BKN017 30/22 Q1012 A2988 HR61 RWY NMLMETAR SLSI 151800Z 36008KT 9999 BKN017 31/22 Q1009 A2980 HR58 RWY NMLMETAR SLTI 151800Z 36010KT 9999 BKN017 35/23 Q1012 A2988 HR52 RWY NMLMETAR SLJE 151800Z 35006KT 9999 BKN017 FEW030CB 32/23 Q1011 A2985HR58 CB E/SW RWY NML=METAR SLVG 151800Z 36010KT 9999 NSC 25/15 Q1016 A3000 HR50 RWY NML=METAR SLRB 151800Z 36015KT 9999 SCT020 33/24 Q1010 A2983 HR57 RWY NMLMETAR SLPS 151800Z 09013KT 9999 SCT017 35/23 Q1011 A2986 HR50=METAR SLCA 151800Z 18004KT 9999 NSC 31/18 Q1007 A2974 HR45 RWY NML=
ZPX0609 151757@CAELT@GG SLZZYMYT@CAELT@151757 SLLPYGYZ@CAELT@SABO SLLP 151800@CAELT@METAR SLLP 151800Z 24008KT 9999 FEW020 BKN200 18/M14 Q1033@CAELT@A3053 625.2 HR10 P94// AC NOSIG=@CAELT@
ZPX0610 151758@CAELT@GG SLZZYMYT@CAELT@151756 SLTRYGYZ@CAELT@SABO SLTR 151800@CAELT@METAR SLTR 151800Z 31009KT 8000 VCSH SCT017 BKN200 28/25 Q1008@CAELT@A2977 989.6 HR83 AC SH SE NOSIG=@CAELT@
ZPX0612 151759@CAELT@GG SLZZYMYT@CAELT@151759 SLTRYGYS@CAELT@SABO SLTR 151800@CAELT@METAR SLTR 151800Z 31009KT 8000 VCSH SCT017 BKN200 28/25 Q1008@CAELT@A2977 989.6 HR83 AC SH SE NOSIG=@CAELT@METAR SLGM 151800Z 32006KT 9999 SCT017 FEW020CB BKN200 32/23 Q1009@CAELT@A2979 HR61 CB E=@CAELT@METAR SLRI 151800Z 36010KT 9999 SCT017 BKN200 32/23 Q1010 A2983 HR59=METAR SLJO 151800Z NIL=METAR SLRA 151800Z 35015KT 9999 FEW017 32/22 Q1009 A2981 HR56 ACRWY NML=METAR SLMG 151800Z 32012KT 9999 SCT017 31/23 Q1009 A2981 HR62METAR SLBU 151800Z 32008KT 9999 SCT017 32/24 Q1007 A2975 HR65METAR SLSA 151800Z 32010KT 9999 BKN017 FEW023CB 29/24 Q1008 A2977HR73 AC CB NE=METAR SLSR 151800Z 32012KT 8000 VCSH BKN015 FEW023CB OVC070 28/23Q1007 A2974 HR76 CB/SH NE/E/SE RWY NML=METAR SLSM 151800Z 32010KT 9999 SCT015 BKN200 30/24 Q1008 A2977 HR72RWY OPR C210=
ZPX0613 151759@CAELT@GG SLZZYMYT@CAELT@151759 SLCBYGYS@CAELT@SABO SLCB 151800@CAELT@METAR SLCB 151800Z 16007KT 9999 FEW040 BKN200 30/04 Q1016 A3001 744.5@CAELT@HR18 FU NOSIG=@CAELT@METAR SLAL 151800Z 01006KT 9999 FEW020 24/M01 Q1022 A3019 699,0 HR19@CAELT@METAR SLPO 151800Z NIL=@CAELT@METAR SLAG 151800Z 04006KT 9999 FEW023 SCT200 31/18 Q1007 A2975 880.6HR46=METAR SLVM 151800Z 18005KT 9999 BKN025 29/22 Q1005 A2968 HR68 CI=METAR SLTJ 151800Z 13015KT 9999 FEW036 FEW040CB 31/11 Q1011 A2986807.7 HR29 CB/N/SW=METAR SLYA 151800Z 12008KT 9999 SCT023 BKN070 29/22 Q1006 A2972 931.5HR66=METAR SLBJ 151800Z NIL=METAR SLHI 151800Z NIL=
ZPX0617 151801@CAELT@GG SLZZYMYT@CAELT@151800 SLLPYFYA@CAELT@SABO SLLP 151800@CAELT@METAR SLLP 151800Z 24008KT 9999 FEW020 BKN200 18/M14 Q1033@CAELT@A3053 625.2 HR10 P94// AC NOSIG=@CAELT@METAR SLCO 151800Z 34010KT 9999 FEW023 BKN200 32/23 Q1009 A2980@CAELT@981.8 HR61=@CAELT@METAR SLRY 151800Z 34012KT 9999 BKN015 BKN200 30/23 Q1007 A2976HR67 RWY NML=METAR SLRQ 151800Z 36009KT 9999 BKN017 SCT200 30/24 Q1007 A2975983.3 HR72 AC=METAR SLAP 151800Z 36015G25KT 9999 FEW030 BKN200 24/17 Q1013 A2994854.9 HR64=METAR SLSB 151800Z 33012G22KT 9999 BKN020 SCT080 30/24 Q1007 A2976HR70 RWY NML=METAR SLOR 151800Z 16005KT 9999 FEW020 BKN200 21/04 Q1031 A3046653.6 HR32=
ZPX0641 151851@CAELT@GG SLZZYMYT@CAELT@151850 SLRBYGYS@CAELT@SABO SLRB 151900@CAELT@METAR SLRB 151900Z 36006KT 9999 SCT020 34/23 Q1009 A2980 HR55 RWY NML=@CAELT@
ZPX0642 151851@CAELT@GG SLZZYMYT@CAELT@151851 SLPSYGYS@CAELT@SABO SLPS 151900@CAELT@METAR SLPS 151900Z 09010KT 9999 SCT017 35/23 Q1009 A2980 HR49=@CAELT@
ZPX0643 151852@CAELT@GG SLZZYMYT@CAELT@151852 SLCAYGYS@CAELT@SABO SLCA 151900@CAELT@METAR SLCA 151900Z 18004KT 9999 NSC 32/18 Q1006 A2971 HR43 RWY NML=@CAELT@
ZPX0645 151855@CAELT@GG SLZZYMYT@CAELT@151855 SLSBYSYX@CAELT@SABO SLSB 151900@CAELT@METAR SLSB 151900Z 33010KT 9999 SCT020 BKN200 30/24 Q1006 A2972 HR67@CAELT@RWY NML=@CAELT@
ZPX0648 151856@CAELT@GG SLZZYMYT@CAELT@151854 SLSAYGYS@CAELT@SABO SLSA 151900@CAELT@METAR SLSA 151900Z 34005KT 8000 TS VCSH BKN017 FEW023CB 26/24@CAELT@Q1007 A2975 HR91 RESHRA CB/TS/SH NE/E=@CAELT@
ZPX0650 151856@CAELT@GG SLZZYMYT@CAELT@151855 SLTJYGYZ@CAELT@SABO SLTJ 151900@CAELT@METAR SLTJ 151900Z 14020KT 9999 FEW036 FEW040CB 27/13 Q1011 A2988 808@CAELT@.2 HR44 CB NE/W CI=@CAELT@
ZPX0651 151856@CAELT@GG SLZZYMYT@CAELT@151856 SLETYMYC@CAELT@SABO SLET 151900@CAELT@METAR SLET 151900Z 33018G30KT 9999 SCT008 BKN017 28/22 Q1006 A2972@CAELT@HR71 CI NOSIG=@CAELT@
ZPX0652 151857@CAELT@GG SLZZYMYT@CAELT@151856 SLVRYGYZ@CAELT@SABO SLVR 151900@CAELT@METAR SLVR 151900Z 34015G27KT 9999 SCT010 BKN015 26/21 Q1007 A2975@CAELT@HR76 CI NOSIG=@CAELT@
ZPX0653 151857@CAELT@GG SLZZYMYT@CAELT@151857 SLTRYGYZ@CAELT@SABO SLTR 151900@CAELT@METAR SLTR 151900Z 31010KT 9999 SCT017 BKN200 28/25 Q1007 A2974@CAELT@988.7 HR83 RESHRA NOSIG=@CAELT@
ZPX0654 151858@CAELT@GG SLZZYMYT@CAELT@151857 SLCOYGYZ@CAELT@SABO SLCO 151900@CAELT@METAR SLCO 151900Z 36010KT 6000 VCSH FEW023 FEW025CB BKN200 32/24@CAELT@Q1007 A2975 980.2 HR62 CB/SH/S/SW AC=@CAELT@
ZPX0655 151858@CAELT@GG SLZZYMYT@CAELT@151857 SLVRYFYC@CAELT@SABO SLVR 151900@CAELT@METAR SLVR 151900Z 34015G27KT 9999 SCT010 BKN015 26/21 Q1007 A2975@CAELT@HR76 CI NOSIG=@CAELT@METAR SLET 151900Z 33018G30KT 9999 SCT008 BKN017 28/22 Q1006 A2972@CAELT@HR71 CI NOSIG=@CAELT@METAR SLAS 151900Z 34010KT 9999 SCT020 FEW030CB 32/24 Q1008 A2977HR66 CB/SH SE RWY NML=METAR SLJV 151900Z 36012KT 9999 SCT017 30/25 Q1007 A2974 HR74 RWY NMLMETAR SLCP 151900Z 36010KT 9999 BKN017 31/22 Q1011 A2985 HR59 RWY NMLMETAR SLSI 151900Z 33008KT 9999 BKN017 32/22 Q1008 A2977 HR55 RWY NMLMETAR SLTI 151900Z 36010KT 9999 SCT017 36/21 Q1011 A2985 HR44 RWY NMLMETAR SLJE 151900Z 35008KT 9999 BKN017 FEW030CB 33/23 Q1010 A2983HR55 CB E/SE/NW RWY NML=METAR SLVG 151900Z 35012KT 9999 NSC 24/14 Q1016 A3000 HR53 RWY NML=METAR SLRB 151900Z 36006KT 9999 SCT020 34/23 Q1009 A2980 HR55 RWY NMLMETAR SLPS 151900Z 09010KT 9999 SCT017 35/23 Q1009 A2980 HR49=METAR SLCA 151900Z 18004KT 9999 NSC 32/18 Q1006 A2971 HR43 RWY NML=
ZPX0656 151858@CAELT@GG SLZZYMYT@CAELT@151855 SLLPYFYA@CAELT@SABO SLRY 151900@CAELT@METAR SLRY 151900Z 34012KT 9999 SCT015 BKN200 30/23 Q1006 A2971@CAELT@HR69 RWY NML=@CAELT@
ZPX0657 151858@CAELT@GG SLZZYMYT@CAELT@151857 SLCBYGYZ@CAELT@SABO SLCB 151900@CAELT@METAR SLCB 151900Z 09010KT 9999 FEW040 BKN200 29/04 Q1015 A2998 743.7@CAELT@HR19 FU NOSIG=@CAELT@
ZPX0658 151858@CAELT@GG SLZZYMYT@CAELT@151857 SLLPYGYZ@CAELT@SABO SLLP 151900@CAELT@METAR SLLP 151900Z 22007KT 130V280 9999 FEW020 BKN200 19/M15@CAELT@Q1032 A3049 624.4 HR09 P94// AC NOSIG=@CAELT@
ZPX0662 151901@CAELT@GG SLZZYMYT@CAELT@151900 SLLPYFYA@CAELT@SABO SLLP 151900@CAELT@METAR SLLP 151900Z 22007KT 130V280 9999 FEW020 BKN200 19/M15@CAELT@Q1032 A3049 624.4 HR09 P94// AC NOSIG=@CAELT@METAR SLCO 151900Z 36010KT 6000 VCSH FEW023 FEW025CB BKN200@CAELT@32/24 Q1007 A2975 980.2 HR62 CB/SH/S/SW AC=@CAELT@METAR SLRY 151900Z 34012KT 9999 SCT015 BKN200 30/23 Q1006 A2971HR69 RWY NML=METAR SLRQ 151900Z 36007KT 9999 SCT020 BKN200 30/24 Q1005 A2970981.8 HR72=METAR SLSB 151900Z 33010KT 9999 SCT020 BKN200 30/24 Q1006 A2972HR67 RWY NML=
ZPX0663 151901@CAELT@GG SLZZYMYT@CAELT@151900 SLCBYGYS@CAELT@SABO SLTR 151900@CAELT@METAR SLTR 151900Z 31010KT 9999 SCT017 BKN200 28/25 Q1007 A2974@CAELT@988.7 HR83 RESHRA NOSIG=@CAELT@METAR SLAL 151900Z 01014KT 9999 FEW023 SCT200 25/M06 Q1021 A3015 698.@CAELT@2 HR13=@CAELT@METAR SLPO 151900Z NIL=METAR SLAG 151900Z NIL=METAR SLVM 151900Z 00000KT 9999 SCT025 BKN070 28/22 Q1005 A2968 HR70METAR SLTJ 151900Z 14020KT 9999 FEW036 FEW040CB 27/13 Q1011 A2988 808.2 HR44 CB NE/W CI=METAR SLYA 151900Z NIL=METAR SLBJ 151900Z NIL=METAR SLHI 151900Z NIL=
ZPX0664 151902@CAELT@GG SLZZYMYT@CAELT@151901 SLTRYGYS@CAELT@SABO SLTR 151900@CAELT@METAR SLTR 151900Z 31010KT 9999 SCT017 BKN200 28/25 Q1007 A2974@CAELT@988.7 HR83 RESHRA NOSIG=@CAELT@METAR SLGM 151900Z 02006KT 9999 SCT017 FEW020CB BKN200 32/23 Q1008@CAELT@A2977 HR60 CB E=@CAELT@METAR SLRI 151900Z 36010KT 9999 SCT017 FEW020CB BKN200 31/24Q1008 A2979 HR64 CB N=METAR SLJO 151900Z NIL=METAR SLRA 151900Z 36014KT 9999 FEW020 33/22 Q1008 A2977 HR54 ACRWY NML=METAR SLMG 151900Z 32010KT 9999 SCT017 32/24 Q1008 A2979 HR64METAR SLBU 151900Z 32008KT 9999 SCT017 33/24 Q1006 A2972 HR61METAR SLSA 151900Z 34005KT 8000 TS VCSH BKN017 FEW023CB 26/24Q1007 A2975 HR91 RESHRA CB/TS/SH NE/E=METAR SLSR 151900Z 32012KT 9999 SCT015 FEW023CB BKN080 29/24 Q1006A2971 HR73 CB N/NE/E RWY NML=METAR SLSM 151900Z 33010KT 9999 SCT017 BKN200 30/25 Q1007 A2974 HR73RWY OPR C210=
ZPX0667 151906@CAELT@GG SLZZYMYT@CAELT@151904 SLCBYGYS@CAELT@SABO SLCB 151900@CAELT@METAR SLCB 151900Z 09010KT 9999 FEW040 BKN200 29/04 Q1015 A2998 743.7@CAELT@HR19 FU NOSIG=@CAELT@METAR SLAL 151900Z 01014KT 9999 FEW023 SCT200 25/M06 Q1021 A3015 698.@CAELT@2 HR13=@CAELT@METAR SLPO 151900Z NIL=METAR SLAG 151900Z NIL=METAR SLVM 151900Z NIL=METAR SLTJ 151900Z 14020KT 9999 FEW036 FEW040CB 27/13 Q1011 A2988 808.2 HR44 CB NE/W CI=METAR SLYA 151900Z NIL=METAR SLBJ 151900Z NIL=METAR SLHI 151900Z NIL=
ZPX0668 151907@CAELT@GG SLZZYMYT@CAELT@151906 SLCBYGYS@CAELT@SABO SLCB 151900 RRB@CAELT@METAR SLCB 151900Z 09010KT 9999 FEW040 BKN200 29/04 Q1015 A2998 743.7@CAELT@HR19 FU NOSIG=@CAELT@METAR SLAL 151900Z 01014KT 9999 FEW023 SCT200 25/M06 Q1021 A3015 698.@CAELT@2 HR13=@CAELT@METAR SLPO 151900Z NIL=METAR SLAG 151900Z NIL=METAR RTD SLVM 151900Z 00000KT 9999 SCT025 BKN070 28/22 Q1005 A2968HR70 CI=METAR SLTJ 151900Z 14020KT 9999 FEW036 FEW040CB 27/13 Q1011 A2988 808.2 HR44 CB NE/W CI=METAR SLYA 151900Z NIL=METAR SLBJ 151900Z NIL=METAR SLHI 151900Z NIL=
ZPX0689 151950@CAELT@GG SLZZYMYT@CAELT@151950 SLCAYGYS@CAELT@SABO SLCA 152000@CAELT@METAR SLCA 152000Z 18006KT 9999 FEW036 32/18 Q1006 A2971 HR42 RWY NML@CAELT@
ZPX0690 151950@CAELT@GG SLZZYMYT@CAELT@151950 SLRBYGYS@CAELT@SABO SLRB 152000@CAELT@METAR SLRB 152000Z 36006KT 9999 SCT020 34/23 Q1009 A2980 HR55 RWY NML=@CAELT@
ZPX0691 151951@CAELT@GG SLZZYMYT@CAELT@151950 SLPSYGYS@CAELT@SABO SLPS 152000@CAELT@METAR SLPS 152000Z 09008KT 9999 SCT017 35/23 Q1009 A2980 HR49=@CAELT@
ZPX0694 151955@CAELT@GG SLZZYMYT@CAELT@151955 SLSBYSYX@CAELT@SABO SLSB 152000@CAELT@METAR SLSB 152000Z 30012KT 9999 SCT020 BKN200 29/23 Q1005 A2969 HR68@CAELT@RWY NML=@CAELT@
ZPX0695 151955@CAELT@GG SLZZYMYT@CAELT@151955 SLTJYGYZ@CAELT@SABO SLTJ 152000@CAELT@METAR SLTJ 152000Z 14014KT 9999 SCT033 FEW036CB 23/14 Q1012 A2991 809@CAELT@.0 HR56 CB NE/W CI=@CAELT@
ZPX0696 151955@CAELT@GG SLZZYMYT@CAELT@151955 SLETYMYC@CAELT@SABO SLET 152000@CAELT@METAR SLET 152000Z 33020G32KT 9999 FEW015 SCT070 28/21 Q1005 A2969@CAELT@HR68 CI NOSIG=@CAELT@
ZPX0697 151955@CAELT@GG SLZZYMYT@CAELT@151954 SLSAYGYS@CAELT@SABO SLSA 152000@CAELT@METAR SLSA 152000Z 00000KT 8000 VCSH SCT017 FEW023CB SCT080 BKN200 26@CAELT@/24 Q1006 A2973 HR87 RETS CB/SH SE=@CAELT@
ZPX0699 151956@CAELT@GG SLZZYMYT@CAELT@151957 SLLPYGYZ@CAELT@SABO SLLP 152000@CAELT@METAR SLLP 152000Z 30004KT 9999 FEW023 BKN200 20/M16 Q1031@CAELT@A3047 623.9 HR08 P4453 AC NOSIG=@CAELT@
ZPX0700 151957@CAELT@GG SLZZYMYT@CAELT@151956 SLLPYFYA@CAELT@SABO SLRY 152000@CAELT@METAR SLRY 152000Z 34016KT 9999 FEW017 BKN200 31/23 Q1005 A2969@CAELT@HR62 RWY NML=@CAELT@
ZPX0701 151957@CAELT@GG SLZZYMYT@CAELT@151955 SLCBYGYZ@CAELT@SABO SLCB 152000@CAELT@METAR SLCB 152000Z 10008KT 9999 FEW040 BKN200 30/03 Q1014 A2995 742.9@CAELT@HR18 FU NOSIG=@CAELT@
ZPX0702 151957@CAELT@GG SLZZYMYT@CAELT@151955 SLCOYGYZ@CAELT@SABO SLCO 152000@CAELT@METAR SLCO 152000Z 22006KT 8000 TS VCSH SCT023 FEW025CB BKN200 28/24@CAELT@Q1006 A2973 979.6 HR82 TS/SH/S CB/N/S AC=@CAELT@
ZPX0703 151957@CAELT@GG SLZZYMYT@CAELT@151957 SLTRYGYZ@CAELT@SABO SLTR 152000@CAELT@METAR SLTR 152000Z 32012KT 9999 FEW017 FEW020CB BKN200 30/24@CAELT@Q1006 A2971 987.8 HR70 CB N NOSIG=@CAELT@
ZPX0704 151958@CAELT@GG SLZZYMYT@CAELT@151957 SLVRYFYC@CAELT@SABO SLVR 152000@CAELT@METAR SLVR 152000Z 34020G30KT 9999 FEW012 SCT017 FEW027CB BKN200 28/@CAELT@22 Q1006 A2973 HR70 CB N/NE/E AC NOSIG=@CAELT@METAR SLET 152000Z 33020G32KT 9999 FEW015 SCT070 28/21 Q1005 A2969@CAELT@HR68 CI NOSIG=@CAELT@METAR SLAS 152000Z 36015KT 9999 BKN020 FEW030CB 30/23 Q1008 A2977HR67 CB/SH S/W/NW RWY NML=METAR SLJV 152000Z 36012KT 9999 SCT017 FEW030CB 29/22 Q1006 A2971HR66 CB N/NE RWY NML=METAR SLCP 152000Z 33008KT 9999 BKN017 31/22 Q1010 A2983 HR59 RWY NMLMETAR SLSI 152000Z 00000KT 9999 BKN017 FEW030CB 24/22 Q1008 A2977HR86 CB NW RESH RWY WET OPR=METAR SLTI 152000Z 36010KT 9999 FEW017 36/23 Q1009 A2980 HR47 RWY NMLMETAR SLJE 152000Z 00000KT 9999 SCT017 FEW030CB 32/23 Q1009 A2980HR58 CB NE/SE RWY NML=METAR SLVG 152000Z 36012KT 9999 NSC 24/15 Q1016 A3000 HR56 RWY NML=METAR SLRB 152000Z 36006KT 9999 SCT020 34/23 Q1009 A2980 HR55 RWY NMLMETAR SLPS 152000Z 09008KT 9999 SCT017 35/23 Q1009 A2980 HR49=METAR SLCA 152000Z 18006KT 9999 FEW036 32/18 Q1006 A2971 HR42 RWY NML
ZPX0705 151958@CAELT@GG SLZZYMYT@CAELT@151959 SLLPYFYA@CAELT@SABO SLLP 152000@CAELT@METAR SLLP 152000Z 30004KT 9999 FEW023 BKN200 20/M16 Q1031@CAELT@A3047 623.9 HR08 P4453 AC NOSIG=@CAELT@METAR SLCO 152000Z 22006KT 8000 TS VCSH SCT023 FEW025CB BKN200@CAELT@28/24 Q1006 A2973 979.6 HR82 TS/SH/S CB/N/S AC=@CAELT@METAR SLRY 152000Z 34016KT 9999 FEW017 BKN200 31/23 Q1005 A2969HR62 RWY NML=METAR SLRQ 152000Z 00000KT 9999 SCT020 BKN200 30/25 Q1005 A2968981.1 HR72=METAR SLSB 152000Z 30012KT 9999 SCT020 BKN200 29/23 Q1005 A2969HR68 RWY NML=
ZPX0706 151959@CAELT@GG SLZZYMYT@CAELT@151958 SLTRYGYS@CAELT@SABO SLTR 152000@CAELT@METAR SLTR 152000Z 32012KT 9999 FEW017 FEW020CB BKN200 30/24@CAELT@Q1006 A2971 987.8 HR70 CB N NOSIG=@CAELT@METAR SLGM 152000Z 00000KT 8000 VCSH SCT017 FEW020CB BKN200 30/23@CAELT@Q1006 A2973 HR67 RESHRA CB/SH SE=@CAELT@METAR SLRI 152000Z 36012KT 9999 SCT017 FEW020CB BKN200 31/23Q1007 A2976 HR62 CB N/NW=METAR SLJO 152000Z NIL=METAR SLRA 152000Z 34012KT 9999 FEW020 33/22 Q1007 A2974 HR54 CIRWY NML=METAR SLMG 152000Z 32010KT 9999 SCT017 32/24 Q1007 A2976 HR64METAR SLBU 152000Z 32006KT 9999 SCT017 34/24 Q1005 A2968 HR59METAR SLSA 152000Z 00000KT 8000 VCSH SCT017 FEW023CB SCT080 BKN20026/24 Q1006 A2973 HR87 RETS CB/SH SE=METAR SLSR 152000Z 32012KT 9999 SCT015 FEW023CB BKN200 29/24 Q1005A2968 HR75 CB N/NE/E RWY NML=METAR SLSM 152000Z 33012KT 9999 SCT017 FEW023CB BKN200 31/25 Q1005A2970 HR70 CB NE/SW RWY OPR C210=
ZPX0708 151959@CAELT@GG SLZZYMYT@CAELT@151957 SLVRYGYZ@CAELT@SABO SLVR 152000@CAELT@METAR SLVR 152000Z 34020G30KT 9999 FEW012 SCT017 FEW027CB BKN200 28/@CAELT@22 Q1006 A2973 HR70 CB/N/NE/E AC NOSIG=@CAELT@
ZPX0711 152003@CAELT@GG SLZZYMYT@CAELT@152000 SLCBYGYS@CAELT@SABO SLCB 152000@CAELT@METAR SLCB 152000Z 10008KT 9999 FEW040 BKN200 30/03 Q1014 A2995 742.9@CAELT@HR18 FU NOSIG=@CAELT@METAR SLAL 152000Z 16007KT 9999 FEW023 25/M03 Q1020 A3013 697.7 HR15@CAELT@METAR SLPO 152000Z NIL=@CAELT@METAR SLAG 152000Z NIL=METAR SLVM 152000Z 00000KT 9999 FEW025 OVC070 28/23 Q1005 A2968 HR76=METAR SLTJ 152000Z 14014KT 9999 SCT033 FEW036CB 23/14 Q1012 A2991 809.0 HR56 CB NE/W CI=METAR SLYA 152000Z NIL=METAR SLBJ 152000Z NIL=METAR SLHI 152000Z NIL=
ZPX0742 152050@CAELT@GG SLZZYMYT@CAELT@152050 SLRBYGYS@CAELT@SABO SLRB 152100@CAELT@METAR SLRB 152100Z 36005KT 9999 FEW020 33/24 Q1008 A2977 HR59 RWY NML=@CAELT@
ZPX0743 152051@CAELT@GG SLZZYMYT@CAELT@152050 SLCAYGYS@CAELT@SABO SLCA 152100@CAELT@METAR SLCA 152100Z 18006KT 9999 SCT036 33/17 Q1006 A2971 HR40 RWY NML@CAELT@
ZPX0744 152052@CAELT@GG SLZZYMYT@CAELT@152051 SLPSYGYS@CAELT@SABO SLPS 152100@CAELT@METAR SLPS 152100Z 09006KT 9999 FEW017 35/24 Q1008 A2977 HR54=@CAELT@
ZPX0746 152054@CAELT@GG SLZZYMYT@CAELT@152055 SLLPYFYA@CAELT@SABO SLRY 152100@CAELT@METAR SLRY 152100Z 34016KT 9999 FEW017 BKN200 32/23 Q1005 A2968@CAELT@HR59 RWY NML=@CAELT@
ZPX0747 152054@CAELT@GG SLZZYMYT@CAELT@152052 SLCOYGYZ@CAELT@SABO SLCO 152100@CAELT@METAR SLCO 152100Z 22003KT 9999 FEW023 SCT080 BKN200 27/25 Q1006@CAELT@A2972 979.1 HR85 RETS=@CAELT@
ZPX0749 152055@CAELT@GG SLZZYMYT@CAELT@152054 SLSAYGYS@CAELT@SABO SLSA 152100@CAELT@METAR SLSA 152100Z 34006KT 9999 SCT017 FEW023CB BKN200 28/24@CAELT@Q1005 A2970 HR76 CB SE/NW=@CAELT@
ZPX0750 152055@CAELT@GG SLZZYMYT@CAELT@152055 SLSBYSYX@CAELT@SABO SLSB 152100@CAELT@METAR SLSB 152100Z 31010KT 9999 FEW020 BKN200 29/23 Q1005 A2969 HR75@CAELT@RWY NML=@CAELT@
ZPX0751 152055@CAELT@GG SLZZYMYT@CAELT@152055 SLVRYGYZ@CAELT@SABO SLVR 152100@CAELT@METAR SLVR 152100Z 36016G28KT 9999 FEW017 FEW027CB BKN200 28/22 Q1005@CAELT@A2970 HR68 CB/N/NE/E NOSIG=@CAELT@
ZPX0752 152056@CAELT@GG SLZZYMYT@CAELT@152055 SLETYMYC@CAELT@SABO SLET 152100@CAELT@METAR SLET 152100Z 33014G26KT 9999 FEW015 FEW027CB SCT200 27/22 Q1005@CAELT@A2968 HR71 CB N/NE NOSIG=@CAELT@
ZPX0753 152056@CAELT@GG SLZZYMYT@CAELT@152057 SLLPYGYZ@CAELT@SABO SLLP 152100@CAELT@METAR SLLP 152100Z 21007KT 170V250 9999 FEW023 BKN200 19/M14 Q1031@CAELT@A3046 623.6 HR09 P93// AC NOSIG=@CAELT@
ZPX0755 152057@CAELT@GG SLZZYMYT@CAELT@152056 SLVRYFYC@CAELT@SABO SLVR 152100@CAELT@METAR SLVR 152100Z 36016G28KT 9999 FEW017 FEW027CB BKN200 28/22 Q1005@CAELT@A2970 HR68 CB N/NE/E NOSIG=@CAELT@METAR SLET 152100Z 33014G26KT 9999 FEW015 FEW027CB SCT200 27/22 Q1005@CAELT@A2968 HR71 CB N/NE NOSIG=@CAELT@METAR SLAS 152100Z 34005KT 9999 SCT020 FEW030CB BKN200 27/23 Q1008A2977 HR81 CB/SH NE/SE/S RWY NML=METAR SLJV 152100Z 36012KT 9999 SCT017 FEW030CB 30/23 Q1006 A2971HR67 CB N/NE/S RWY NML=METAR SLCP 152100Z 33006KT 9999 BKN017 30/22 Q1010 A2983 HR65 RWY NMLMETAR SLSI 152100Z 00000KT 9999 SCT017 FEW030CB 25/22 Q1008 A2977HR83 CB NE RWY WET OPR=METAR SLTI 152100Z 35006KT 9999 NSC 35/21 Q1009 A2980 HR45 RWY NML=METAR SLJE 152100Z 00000KT 9999 FEW017 FEW030CB 32/23 Q1009 A2980HR58 CB NE/SE RWY NML=METAR SLVG 152100Z 36010KT 9999 FEW020 BKN200 22/15 Q1016 A3000 HR61RWY NML=METAR SLRB 152100Z 36005KT 9999 FEW020 33/24 Q1008 A2977 HR59 RWY NMLMETAR SLPS 152100Z 09006KT 9999 FEW017 35/24 Q1008 A2977 HR54=METAR SLCA 152100Z 18006KT 9999 SCT036 33/17 Q1006 A2971 HR40 RWY NML
ZPX0758 152057@CAELT@GG SLZZYMYT@CAELT@152057 SLCBYGYZ@CAELT@SABO SLCB 152100@CAELT@METAR SLCB 152100Z 04012KT 9999 FEW036 SCT090 BKN200 29/04 Q1014@CAELT@A2994 742.8 HR20 FU NOSIG=@CAELT@
ZPX0759 152057@CAELT@GG SLZZYMYT@CAELT@152056 SLTRYGYZ@CAELT@SABO SLTR 152100@CAELT@METAR SLTR 152100Z 22012G22KT 8000 VCSH FEW017 FEW020CB BKN200@CAELT@30/23 Q1006 A2971 987.6 HR66 CB/SH E/SE NOSIG=@CAELT@
ZPX0761 152058@CAELT@GG SLZZYMYT@CAELT@152056 SLTJYGYZ@CAELT@SABO SLTJ 152100@CAELT@METAR SLTJ 152100Z 13010KT 9999 BKN033 FEW036TCU 24/14 Q1013 A2993@CAELT@809.4 HR54 TCU SW/W AC/CI=@CAELT@
ZPX0764 152059@CAELT@GG SLZZYMYT@CAELT@152059 SLTRYGYS@CAELT@SABO SLTR 152100@CAELT@METAR SLTR 152100Z 22012G22KT 8000 VCSH FEW017 FEW020CB BKN200@CAELT@30/23 Q1006 A2971 987.6 HR66 CB/SH E/SE NOSIG=@CAELT@METAR SLGM 152100Z 13010KT 3000 -RA SCT017 FEW020CB BKN200 28/24@CAELT@Q1006 A2973 HR81 CB N/NE=@CAELT@METAR SLRI 152100Z 05010KT 7000 VCSH SCT017 FEW020CB BKN200 30/24Q1007 A2975 HR70 CB/SH NE/E/SW/W=METAR SLJO 152100Z NIL=METAR SLRA 152100Z 36010KT 9999 FEW020 33/23 Q1006 A2973 HR55 CIRWY NML=METAR SLMG 152100Z 32010KT 9999 SCT017 32/23 Q1007 A2976 HR60METAR SLBU 152100Z 32006KT 9999 SCT017 33/24 Q1004 A2967 HR60METAR SLSA 152100Z 34006KT 9999 SCT017 FEW023CB BKN200 28/24Q1005 A2970 HR76 CB SE/NW=METAR SLSR 152100Z 32006KT 9999 FEW017 FEW023CB BKN200 29/24 Q1004A2967 HR73 CB N RWY NML=METAR SLSM 152100Z 36006KT 9999 FEW017 BKN200 30/24 Q1005 A2969 HR72RWY OPR C210=
ZPX0767 152100@CAELT@GG SLZZYMYT@CAELT@152100 SLCBYGYS@CAELT@SABO SLCB 152100@CAELT@METAR SLCB 152100Z 04012KT 9999 FEW036 SCT090 BKN200 29/04 Q1014@CAELT@A2994 742.8 HR20 FU NOSIG=@CAELT@METAR SLAL 152100Z 33010KT 9999 FEW023 24/M02 Q1019 A3012 697.3 HR18@CAELT@METAR SLPO 152100Z NIL=@CAELT@METAR SLAG 152100Z NIL=METAR SLVM 152100Z 00000KT 9999 FEW025 OVC070 27/23 Q1005 A2969 HR79=METAR SLTJ 152100Z 13010KT 9999 BKN033 FEW036TCU 24/14 Q1013 A2993809.4 HR54 TCU SW/W AC/CI=METAR SLYA 152100Z NIL=METAR SLBJ 152100Z NIL=METAR SLHI 152100Z NIL=
ZPX0770 152101@CAELT@GG SLZZYMYT@CAELT@152100 SLLPYFYA@CAELT@SABO SLLP 152100@CAELT@METAR SLLP 152100Z 21007KT 170V250 9999 FEW023 BKN200 19/M14@CAELT@Q1031 A3046 623.6 HR09 P93// AC NOSIG=@CAELT@METAR SLCO 152100Z 22003KT 9999 FEW023 SCT080 BKN200 27/25 Q1006@CAELT@A2972 979.1 HR85 RETS=@CAELT@METAR SLRY 152100Z 34016KT 9999 FEW017 BKN200 32/23 Q1005 A2968HR59 RWY NML=METAR SLRQ 152100Z 34004KT 9999 SCT020 BKN200 29/24 Q1004 A2967980.9 HR73=METAR SLSB 152100Z 31010KT 9999 FEW020 BKN200 29/23 Q1005 A2969HR75 RWY NML=
ZPX0772 152103@CAELT@GG SLZZYMYT@CAELT@152102 SLTRYGYZ@CAELT@SABO SLTR 152100 CCA@CAELT@METAR COR SLTR 152100Z 32012G22KT 8000 VCSH FEW017 FEW020CB BKN200@CAELT@30/23 Q1006 A2971 987.6 HR66 CB/SH E/SE NOSIG=@CAELT@
ZPX0773 152103@CAELT@GG SLZZYMYT@CAELT@152102 SLCOYGYZ@CAELT@SABO SLCO 152100 CCA@CAELT@METAR COR SLCO 152100Z 22003KT 9999 FEW023 FEW025CB SCT080 BKN200 27/@CAELT@25 Q1006 A2972 979.1 HR85 CB/N/NE RETS=@CAELT@
ZPX0775 152105@CAELT@GG SLZZYMYT@CAELT@152104 SLLPYFYA@CAELT@SABO SLLP 152100 CCA@CAELT@METAR SLLP 152100Z 21007KT 170V250 9999 FEW023 BKN200 19/M14@CAELT@Q1031 A3046 623.6 HR09 P93// AC NOSIG=@CAELT@METAR COR SLCO 152100Z 22003KT 9999 FEW023 FEW025CB SCT080 BKN200@CAELT@27/25 Q1006 A2972 979.1 HR85 CB/N/NE RETS=@CAELT@METAR SLRY 152100Z 34016KT 9999 FEW017 BKN200 32/23 Q1005 A2968HR59 RWY NML=METAR SLRQ 152100Z 34004KT 9999 SCT020 BKN200 29/24 Q1004 A2967980.9 HR73=METAR SLSB 152100Z 31010KT 9999 FEW020 BKN200 29/23 Q1005 A2969HR75 RWY NML=
ZPX0780 152112@CAELT@GG SLZZYMYT@CAELT@152112 SLTRYGYS@CAELT@SABO SLTR 152100 CCA@CAELT@METAR COR SLTR 152100Z 32012G22KT 8000 VCSH FEW017 FEW020CB BKN200@CAELT@30/23 Q1006 A2971 987.6 HR66 CB/SH E/SE NOSIG=@CAELT@METAR SLGM 152100Z 13010KT 3000 -RA SCT017 FEW020CB BKN200 28/24@CAELT@Q1006 A2973 HR81 CB N/NE=@CAELT@METAR SLRI 152100Z 05010KT 7000 VCSH SCT017 FEW020CB BKN200 30/24Q1007 A2975 HR70 CB/SH NE/E/SW/W=METAR SLJO 152100Z NIL=METAR SLRA 152100Z 36010KT 9999 FEW020 33/23 Q1006 A2973 HR55 CIRWY NML=METAR SLMG 152100Z 32010KT 9999 SCT017 32/23 Q1007 A2976 HR60METAR SLBU 152100Z 32006KT 9999 SCT017 33/24 Q1004 A2967 HR60METAR SLSA 152100Z 34006KT 9999 SCT017 FEW023CB BKN200 28/24Q1005 A2970 HR76 CB SE/NW=METAR SLSR 152100Z 32006KT 9999 FEW017 FEW023CB BKN200 29/24 Q1004A2967 HR73 CB N RWY NML=METAR SLSM 152100Z 36006KT 9999 FEW017 BKN200 30/24 Q1005 A2969 HR72RWY OPR C210=
ZPX0800 152150@CAELT@GG SLZZYMYT@CAELT@152150 SLRBYGYS@CAELT@SABO SLRB 152200@CAELT@METAR SLRB 152200Z 00000KT 9999 NSC 31/24 Q1008 A2977 HR67 RWY NML=@CAELT@
ZPX0801 152154@CAELT@GG SLZZYMYT@CAELT@152153 SLPSYGYS@CAELT@SABO SLPS 152200@CAELT@METAR SLPS 152200Z 09004KT 9999 FEW017 34/25 Q1008 A2977 HR60=@CAELT@
ZPX0802 152155@CAELT@GG SLZZYMYT@CAELT@152154 SLSAYGYS@CAELT@SABO SLSA 152200@CAELT@METAR SLSA 152200Z 32005KT 9999 FEW017 BKN200 27/23 Q1005 A2968 HR79=@CAELT@
ZPX0803 152155@CAELT@GG SLZZYMYT@CAELT@152155 SLSBYSYX@CAELT@SABO SLSB 152200@CAELT@METAR SLSB 152200Z 34007KT 9999 FEW020 BKN200 29/24 Q1005 A2970 HR75@CAELT@RWY NML=@CAELT@
ZPX0804 152155@CAELT@GG SLZZYMYT@CAELT@152155 SLCAYGYS@CAELT@SABO SLCA 152200@CAELT@METAR SLCA 152200Z 18006KT 9999 BKN036 31/19 Q1007 A2974 HR48 RWY NML@CAELT@
ZPX0805 152155@CAELT@GG SLZZYMYT@CAELT@152155 SLVRYGYZ@CAELT@SABO SLVR 152200@CAELT@METAR SLVR 152200Z 34013G24KT 9999 FEW017 FEW027CB BKN200 26/22 Q1005@CAELT@A2970 HR78 CB/N/NE/E NOSIG=@CAELT@
ZPX0806 152155@CAELT@GG SLZZYMYT@CAELT@152155 SLETYMYC@CAELT@SABO SLET 152200@CAELT@METAR SLET 152200Z 32014G24KT 9999 SCT015 FEW027CB 26/22 Q1005 A2968@CAELT@HR76 CB N/NE CI NOSIG=@CAELT@
ZPX0807 152156@CAELT@GG SLZZYMYT@CAELT@152156 SLCOYGYZ@CAELT@SABO SLCO 152200@CAELT@METAR SLCO 152200Z 19003KT 9999 FEW023 FEW025CB BKN200 28/25 Q1005@CAELT@A2969 978.3 HR82 CB/NE AC=@CAELT@
ZPX0808 152156@CAELT@GG SLZZYMYT@CAELT@152156 SLLPYFYA@CAELT@SABO SLRY 152200@CAELT@METAR SLRY 152200Z 34012KT 9999 FEW017 BKN200 29/22 Q1004@CAELT@A2967 HR64 RWY NML=@CAELT@
ZPX0809 152157@CAELT@GG SLZZYMYT@CAELT@152155 SLCBYGYZ@CAELT@SABO SLCB 152200@CAELT@METAR SLCB 152200Z 05010KT 9999 FEW036 SCT090 BKN200 27/04 Q1014@CAELT@A2996 743.3 HR22 FU NOSIG=@CAELT@
ZPX0810 152157@CAELT@GG SLZZYMYT@CAELT@152155 SLTJYGYZ@CAELT@SABO SLTJ 152200@CAELT@METAR SLTJ 152200Z 12009KT 9999 BKN027 23/13 Q1014 A2995 810.0 HR55@CAELT@AC/CI=@CAELT@
ZPX0812 152157@CAELT@GG SLZZYMYT@CAELT@152157 SLTRYGYZ@CAELT@SABO SLTR 152200@CAELT@METAR SLTR 152200Z 34010KT 9999 FEW017 BKN200 29/24 Q1005 A2969@CAELT@987.0 HR75 AC NOSIG=@CAELT@
ZPX0813 152157@CAELT@GG SLZZYMYT@CAELT@152157 SLLPYGYZ@CAELT@SABO SLLP 152200@CAELT@METAR SLLP 152200Z 09012KT 9999 FEW020 BKN200 17/M06 Q1030@CAELT@A3044 623.2 HR20 P93// AC NOSIG=@CAELT@
ZPX0815 152159@CAELT@GG SLZZYMYT@CAELT@152158 SLCBYGYS@CAELT@SABO SLCB 152200@CAELT@METAR SLCB 152200Z 05010KT 9999 FEW036 SCT090 BKN200 27/04 Q1014@CAELT@A2996 743.3 HR22 FU NOSIG=@CAELT@METAR SLAL 152200Z 06019KT 9999 FEW023 BKN200 21/05 Q1020 A3013 697.6@CAELT@HR36=@CAELT@METAR SLTJ 152200Z 12009KT 9999 BKN027 23/13 Q1014 A2995 810.0 HR55AC/CI=
ZPX0818 152200@CAELT@GG SLZZYMYT@CAELT@152200 SLVRYFYC@CAELT@SABO SLVR 152200@CAELT@METAR SLVR 152200Z 34013G24KT 9999 FEW017 FEW027CB BKN200 26/22 Q1005@CAELT@A2970 HR78 CB N/NE/E NOSIG=@CAELT@METAR SLET 152200Z 32014G24KT 9999 SCT015 FEW027CB 26/22 Q1005 A2968@CAELT@HR76 CB N/NE CI NOSIG=@CAELT@METAR SLAS 152200Z 34010KT 2000 TSRA BKN017 FEW030CB 25/23 Q1009A2980 HR91 CB/TS NW/N/NE RWY WET OPR=METAR SLJV 152200Z 00000KT 9999 FEW030CB BKN200 27/22 Q1007 A2974HR75 CB N/NE RWY NML=METAR SLCP 152200Z 34006KT 9999 BKN017 28/22 Q1010 A2983 HR68 RWY NMLMETAR SLSI 152200Z 00000KT 9999 FEW017 SCT200 27/23 Q1008 A2977 HR75RWY HUM OPR=METAR SLTI 152200Z 00000KT 9999 NSC 34/22 Q1009 A2980 HR50 RWY NML=METAR SLJE 152200Z 00000KT 9999 FEW017 31/23 Q1009 A2980 HR64 RWY NMLMETAR SLRB 152200Z 00000KT 9999 NSC 31/24 Q1008 A2977 HR67 RWY NML=METAR SLPS 152200Z 09004KT 9999 FEW017 34/25 Q1008 A2977 HR60=METAR SLCA 152200Z 18006KT 9999 BKN036 31/19 Q1007 A2974 HR48 RWY NML
ZPX0819 152201@CAELT@GG SLZZYMYT@CAELT@152200 SLLPYFYA@CAELT@SABO SLLP 152200@CAELT@METAR SLLP 152200Z 09012KT 9999 FEW020 BKN200 17/M06 Q1030@CAELT@A3044 623.2 HR20 P93// AC NOSIG=@CAELT@METAR SLCO 152200Z 19003KT 9999 FEW023 FEW025CB BKN200 28/25@CAELT@Q1005 A2969 978.3 HR82 CB/NE AC=@CAELT@METAR SLRY 152200Z 34012KT 9999 FEW017 BKN200 29/22 Q1004A2967 HR64 RWY NML=METAR SLRQ 152200Z 00000KT 9999 FEW020 BKN200 29/24 Q1004A2967 980.6 HR73=METAR SLSB 152200Z 34007KT 9999 FEW020 BKN200 29/24 Q1005A2970 HR75 RWY NML=
ZPX0820 152201@CAELT@GG SLZZYMYT@CAELT@152201 SLTRYGYS@CAELT@SABO SLTR 152200@CAELT@METAR SLTR 152200Z 34010KT 9999 FEW017 BKN200 29/24 Q1005 A2969@CAELT@987.0 HR75 AC NOSIG=@CAELT@METAR SLGM 152200Z 35006KT 7000 VCSH SCT017 FEW020CB BKN200 28/24@CAELT@Q1006 A2971 HR79 RERA CB/SH NE/E/S=@CAELT@METAR SLRI 152200Z 00000KT 8000 VCSH SCT015 FEW020CB BKN20028/23 Q1007 A2974 HR75 CB/SH NE/E/SE=METAR SLJO 152200Z NIL=METAR SLRA 152200Z 03007KT 9999 FEW020 32/22 Q1006 A2971 HR57 CIRWY NML=METAR SLMG 152200Z 34006KT 9999 FEW017 30/24 Q1007 A2974 HR67METAR SLBU 152200Z NIL=METAR SLSA 152200Z 32005KT 9999 FEW017 BKN200 27/23 Q1005 A2968 HR79=METAR SLSR 152200Z 32006KT 9999 FEW017 FEW023CB BKN200 29/23 Q1004A2965 HR73 CB NE RWY NML=METAR SLSM 152200Z 36006KT 9999 FEW017 BKN200 29/24 Q1004 A2967 HR75RWY OPR C210=
ZPX0843 152252@CAELT@GG SLZZYMYT@CAELT@152252 SLCAYGYS@CAELT@SABO SLCA 152300@CAELT@METAR SLCA 152300Z 18006KT 9999 BKN036 FEW040CB 29/19 Q1008 A2977@CAELT@HR55 CB S RWY NML=@CAELT@
ZPX0844 152252@CAELT@GG SLZZYMYT@CAELT@152251 SLRBYGYS@CAELT@SABO SLRB 152300@CAELT@METAR SLRB 152300Z 00000KT 9999 NSC 30/25 Q1009 A2980 HR73 RWY NML=@CAELT@
ZPX0845 152253@CAELT@GG SLZZYMYT@CAELT@152252 SLSAYGYS@CAELT@SABO SLSA 152300@CAELT@METAR SLSA 152300Z 00000KT 9999 FEW017 BKN200 26/23 Q1005 A2970 HR80=@CAELT@
ZPX0846 152254@CAELT@GG SLZZYMYT@CAELT@152255 SLSBYSYX@CAELT@SABO SLSB 152300@CAELT@METAR SLSB 152300Z 00000KT 9999 NSC 28/23 Q1004 A2967 HR76 CI RWY NML=@CAELT@
ZPX0848 152255@CAELT@GG SLZZYMYT@CAELT@152255 SLCOYGYZ@CAELT@SABO SLCO 152300@CAELT@METAR SLCO 152300Z 23004KT 9999 FEW023 SCT080 BKN200 27/25 Q1005@CAELT@A2969 978.3 HR89=@CAELT@
ZPX0849 152255@CAELT@GG SLZZYMYT@CAELT@152254 SLETYMYC@CAELT@SABO SLET 152300@CAELT@METAR SLET 152300Z 32010KT 9999 FEW015 FEW027CB SCT200 25/22 Q1006@CAELT@A2971 HR84 CB E NOSIG=@CAELT@
ZPX0850 152256@CAELT@GG SLZZYMYT@CAELT@152255 SLTJYGYZ@CAELT@SABO SLTJ 152300@CAELT@METAR SLTJ 152300Z 14011KT 9999 SCT027 SCT200 21/13 Q1014 A2995 810.1@CAELT@HR61=@CAELT@
ZPX0852 152256@CAELT@GG SLZZYMYT@CAELT@152255 SLCBYGYZ@CAELT@SABO SLCB 152300@CAELT@METAR SLCB 152300Z 09008KT 9999 FEW036 BKN200 25/04 Q1015 A2999@CAELT@744.1 HR25 AC FU NOSIG=@CAELT@
ZPX0854 152256@CAELT@GG SLZZYMYT@CAELT@152256 SLVRYGYZ@CAELT@SABO SLVR 152300@CAELT@METAR SLVR 152300Z 35010KT 9999 FEW017 FEW027CB SCT200 25/22 Q1006@CAELT@A2973 HR87 CB/N/NE/E NOSIG=@CAELT@
ZPX0857 152258@CAELT@GG SLZZYMYT@CAELT@152257 SLCBYGYS@CAELT@SABO SLCB 152300@CAELT@METAR SLCB 152300Z 09008KT 9999 FEW036 BKN200 25/04 Q1015 A2999@CAELT@744.1 HR25 AC FU NOSIG=@CAELT@METAR SLAL 152300Z 06019KT 9999 FEW020 BKN200 19/08 Q1021 A3017 698.5@CAELT@HR51=@CAELT@METAR SLTJ 152300Z 14011KT 9999 SCT027 SCT200 21/13 Q1014 A2995 810.1HR61=
ZPX0858 152258@CAELT@GG SLZZYMYT@CAELT@152257 SLLPYGYZ@CAELT@SABO SLLP 152300@CAELT@METAR SLLP 152300Z 10012KT 9999 FEW017 BKN200 14/01 Q1031@CAELT@A3046 623.7 HR40 AC NOSIG=@CAELT@
ZPX0859 152258@CAELT@GG SLZZYMYT@CAELT@152257 SLVRYFYC@CAELT@SABO SLVR 152300@CAELT@METAR SLVR 152300Z 35010KT 9999 FEW017 FEW027CB SCT200 25/22 Q1006@CAELT@A2973 HR87 CB N/NE/E NOSIG=@CAELT@METAR SLET 152300Z 32010KT 9999 FEW015 FEW027CB SCT200 25/22 Q1006@CAELT@A2971 HR84 CB E NOSIG=@CAELT@METAR SLSI 152300Z 00000KT 9999 FEW030CB BKN200 27/23 Q1009 A2980HR78 CB N RWY HUM OPR=METAR SLRB 152300Z 00000KT 9999 NSC 30/25 Q1009 A2980 HR73 RWY NML=METAR SLCA 152300Z 18006KT 9999 BKN036 FEW040CB 29/19 Q1008 A2977HR55 CB S RWY NML=
ZPX0860 152258@CAELT@GG SLZZYMYT@CAELT@152257 SLTRYGYZ@CAELT@SABO SLTR 152300@CAELT@METAR SLTR 152300Z 34003KT 9999 FEW080 BKN200 27/24 Q1006@CAELT@A2971 987.7 HR82 NOSIG=@CAELT@
ZPX0861 152259@CAELT@GG SLZZYMYT@CAELT@152259 SLLPYFYA@CAELT@SABO SLLP 152300@CAELT@METAR SLLP 152300Z 10012KT 9999 FEW017 BKN200 14/01 Q1031@CAELT@A3046 623.7 HR40 AC NOSIG=@CAELT@METAR SLCO 152300Z 23004KT 9999 FEW023 SCT080 BKN200 27/25@CAELT@Q1005 A2969 978.3 HR89=@CAELT@METAR SLSB 152300Z 00000KT 9999 NSC 28/23 Q1004 A2967 HR76CI RWY NML=
ZPX0863 152300@CAELT@GG SLZZYMYT@CAELT@152300 SLTRYGYS@CAELT@SABO SLTR 152300@CAELT@METAR SLTR 152300Z 34003KT 9999 FEW080 BKN200 27/24 Q1006 A2971@CAELT@987.7 HR82 NOSIG=@CAELT@METAR SLRI 152300Z 00000KT 8000 VCSH SCT015 FEW020CB BKN200 26/23@CAELT@Q1007 A2974 HR83 CB/SH E/SE/SW/NW=@CAELT@METAR SLMG 152300Z 32004KT 9999 FEW017 29/24 Q1007 A2975 HR72RWY NML=METAR SLSA 152300Z 00000KT 9999 FEW017 BKN200 26/23 Q1005 A2970 HR80=
ZPX0883 152355@CAELT@GG SLZZYMYT@CAELT@152355 SLVRYGYZ@CAELT@SABO SLVR 160000@CAELT@METAR SLVR 160000Z 36005KT 9999 FEW017 FEW027CB SCT200 24/22 Q1007@CAELT@A2975 HR87 CB/N/NE NOSIG=@CAELT@
ZPX0884 152356@CAELT@GG SLZZYMYT@CAELT@152355 SLTJYGYZ@CAELT@SABO SLTJ 160000@CAELT@METAR SLTJ 160000Z 12005KT 9999 BKN025 BKN200 21/14 Q1015 A2999 811.1@CAELT@HR66 AC=@CAELT@
