
ZPX0001 040000@CAELT@GG SLZZYMYT@CAELT@040000 SLCBYGYZ@CAELT@SABO SLCB 040000@CAELT@METAR SLCB 040000Z 12006KT 9999 FEW033 FEW036CB SCT090 BKN200 21/05@CAELT@Q1023 A3023 750.4 HR34 CB/NW/N FU NOSIG=@CAELT@
ZPX0010 040052@CAELT@GG SLZZYMYT@CAELT@040053 SLVRYGYZ@CAELT@SABO SLVR 040100@CAELT@METAR SLVR 040100Z 28005KT 9000 FEW070 27/20 Q1011 A2986 HR68 FU@CAELT@NOSIG=@CAELT@
ZPX0011 040055@CAELT@GG SLLPZRZX@CAELT@040055 SLLPYGYZ@CAELT@SABO SLLP 040100@CAELT@METAR SLLP 040100Z 07012KT 9999 FEW015 FEW017CB SCT200 08/M01@CAELT@Q1039 A3068 628.6 HR52 CB/LT NE/E AC NOSIG=@CAELT@
ZPX0012 040057@CAELT@GG SLZZYMYT@CAELT@040057 SLCBYGYZ@CAELT@SABO SLCB 040100@CAELT@METAR SLCB 040100Z 13007KT 9999 FEW033 FEW036CB BKN090 BKN200 21/05@CAELT@Q1025 A3029 752.0 HR34 CB/NW/N FU NOSIG=@CAELT@
ZPX0020 040153@CAELT@GG SLZZYMYT@CAELT@040153 SLVRYGYZ@CAELT@SABO SLVR 040200@CAELT@METAR SLVR 040200Z 27005KT 8000 FEW070 SCT200 25/20 Q1011 A2988 HR74@CAELT@FU NOSIG=@CAELT@
ZPX0021 040156@CAELT@GG SLLPZRZX@CAELT@040155 SLLPYGYZ@CAELT@SABO SLLP 040200@CAELT@METAR SLLP 040200Z 07008KT 9999 SCT015 FEW017CB BKN200 08/M02@CAELT@Q1039 A3070 629.1 HR51 CB/LT E/SE AC NOSIG=@CAELT@
ZPX0022 040157@CAELT@GG SLZZYMYT@CAELT@040157 SLCBYGYZ@CAELT@SABO SLCB 040200@CAELT@METAR SLCB 040200Z 35012KT 9999 SCT033 BKN090 BKN200 19/05 Q1027@CAELT@A3035 753.5 HR39 SH/W/NW/N FU NOSIG=@CAELT@
ZPX0031 040251@CAELT@GG SLZZYMYT@CAELT@040252 SLVRYGYZ@CAELT@SABO SLVR 040300@CAELT@METAR SLVR 040300Z 27005KT 8000 FEW070 SCT200 25/20 Q1011 A2988 HR75@CAELT@FU NOSIG=@CAELT@
ZPX0032 040256@CAELT@GG SLLPZRZX@CAELT@040255 SLLPYGYZ@CAELT@SABO SLLP 040300@CAELT@METAR SLLP 040300Z 07017G28KT 6000 -TSRA SCT015 FEW017CB SCT070@CAELT@BKN200 08/01 Q1040 A3073 629.7 HR61 CB/ON STN/NE/E/SE NOSIG=@CAELT@
ZPX0033 040257@CAELT@GG SLZZYMYT@CAELT@040257 SLCBYGYZ@CAELT@SABO SLCB 040300@CAELT@METAR SLCB 040300Z 26006KT 9999 FEW033 SCT090 BKN200 17/05 Q1028@CAELT@A3036 753.7 HR43 FU NOSIG=@CAELT@
ZPX0040 040355@CAELT@GG SLZZYMYT@CAELT@040356 SLVRYGYZ@CAELT@SABO SLVR 040400@CAELT@METAR SLVR 040400Z 22005KT 8000 SCT070 BKN200 27/21 Q1012 A2989 HR71@CAELT@FU NOSIG=@CAELT@
ZPX0041 040355@CAELT@GG SLZZYMYT@CAELT@040355 SLCBYGYZ@CAELT@SABO SLCB 040400@CAELT@METAR SLCB 040400Z 30004KT 9999 FEW033 BKN200 16/06 Q1027 A3034 753.4@CAELT@HR51 FU AC NOSIG=@CAELT@
ZPX0042 040356@CAELT@GG SLLPZRZX@CAELT@040355 SLLPYGYZ@CAELT@SABO SLLP 040400@CAELT@METAR SLLP 040400Z 08011KT 6000 -RA FEW003 SCT013 FEW017CB@CAELT@BKN070 03/02 Q1042 A3077 630.7 HR92 CB/NE/E RETS CI NOSIG=@CAELT@
ZPX0050 040454@CAELT@GG SLZZYMYT@CAELT@040455 SLVRYGYZ@CAELT@SABO SLVR 040500@CAELT@METAR SLVR 040500Z 19012KT 8000 SCT070 BKN200 28/18 Q1012 A2990 HR53@CAELT@FU NOSIG=@CAELT@
ZPX0051 040455@CAELT@GG SLZZYMYT@CAELT@040455 SLCBYGYZ@CAELT@SABO SLCB 040500@CAELT@METAR SLCB 040500Z 00000KT 9999 FEW033 BKN200 16/06 Q1027 A3034 753.4@CAELT@HR52 FU NOSIG=@CAELT@
ZPX0052 040455@CAELT@GG SLLPZRZX@CAELT@040455 SLLPYGYZ@CAELT@SABO SLLP 040500@CAELT@METAR SLLP 040500Z 05006KT 9999 FEW005 SCT013 BKN070 04/02@CAELT@Q1040 A3072 629.4 HR88 CI NOSIG=@CAELT@
ZPX0059 040551@CAELT@GG SLZZYMYT@CAELT@040552 SLVRYGYZ@CAELT@SABO SLVR 040600@CAELT@METAR SLVR 040600Z 18010KT 9000 SCT070 BKN200 27/15 Q1013 A2991 HR48@CAELT@FU NOSIG=@CAELT@
ZPX0060 040557@CAELT@GG SLLPZRZX@CAELT@040555 SLLPYGYZ@CAELT@SABO SLLP 040600@CAELT@METAR SLLP 040600Z 08010KT 9999 FEW005 SCT070 BKN200 04/02 Q1039@CAELT@A3068 628.6 HR85 NOSIG=@CAELT@
ZPX0061 040557@CAELT@GG SLZZYMYT@CAELT@040557 SLCBYGYZ@CAELT@SABO SLCB 040600@CAELT@METAR SLCB 040600Z 25003KT 9999 FEW033 SCT200 14/06 Q1027 A3033 753.0@CAELT@HR59 FU NOSIG=@CAELT@
ZPX0070 040650@CAELT@GG SLZZYMYT@CAELT@040651 SLVRYGYZ@CAELT@SABO SLVR 040700@CAELT@METAR SLVR 040700Z 18010KT 9000 SCT070 BKN200 26/15 Q1012 A2991 HR49@CAELT@FU NOSIG=@CAELT@
ZPX0071 040655@CAELT@GG SLZZYMYT@CAELT@040655 SLCBYGYZ@CAELT@SABO SLCB 040700@CAELT@METAR SLCB 040700Z 28003KT 9999 FEW033 SCT200 14/07 Q1026 A3031 752.5@CAELT@HR63 FU NOSIG=@CAELT@
ZPX0072 040657@CAELT@GG SLLPZRZX@CAELT@040657 SLLPYGYZ@CAELT@SABO SLLP 040700@CAELT@METAR SLLP 040700Z 07007KT 9999 FEW005 SCT070 BKN200 04/02 Q1038@CAELT@A3067 628.4 HR87 NOSIG=@CAELT@
ZPX0079 040755@CAELT@GG SLZZYMYT@CAELT@040755 SLVRYGYZ@CAELT@SABO SLVR 040800@CAELT@METAR SLVR 040800Z 17010KT 9000 SCT070 BKN200 25/16 Q1012 A2991 HR55@CAELT@FU NOSIG=@CAELT@
ZPX0080 040755@CAELT@GG SLZZYMYT@CAELT@040755 SLCBYGYZ@CAELT@SABO SLCB 040800@CAELT@METAR SLCB 040800Z 23003KT 9999 FEW033 SCT200 13/06 Q1026 A3031 752.6@CAELT@HR62 FU NOSIG=@CAELT@
ZPX0081 040755@CAELT@GG SLLPZRZX@CAELT@040755 SLLPYGYZ@CAELT@SABO SLLP 040800@CAELT@METAR SLLP 040800Z 05006KT 9999 FEW005 SCT070 BKN200 05/02 Q1038@CAELT@A3067 628.3 HR84 NOSIG=@CAELT@
ZPX0089 040856@CAELT@GG SLLPZRZX@CAELT@040856 SLLPYGYZ@CAELT@SABO SLLP 040900@CAELT@METAR SLLP 040900Z 05013KT 9999 FEW005 SCT070 BKN200 05/02 Q1038@CAELT@A3066 628.0 HR79 NOSIG=@CAELT@
ZPX0090 040857@CAELT@GG SLZZYMYT@CAELT@040858 SLVRYGYZ@CAELT@SABO SLVR 040900@CAELT@METAR SLVR 040900Z 18012KT 9000 FEW070 SCT200 24/14 Q1013 A2992 HR52@CAELT@FU NOSIG=@CAELT@
ZPX0091 040857@CAELT@GG SLZZYMYT@CAELT@040856 SLCBYGYZ@CAELT@SABO SLCB 040900@CAELT@METAR SLCB 040900Z 00000KT 9999 FEW033 12/06 Q1026 A3032 752.8 HR67@CAELT@FU NOSIG=@CAELT@
ZPX0098 040950@CAELT@GG SLZZYMYT@CAELT@040950 SLRBYGYS@CAELT@SABO SLRB 041000@CAELT@METAR SLRB 041000Z 00000KT 8000 NSC 19/18 Q1017 A3003 HR90 FU RWY NML=@CAELT@
ZPX0099 040955@CAELT@GG SLZZYMYT@CAELT@040955 SLLPYGYZ@CAELT@SABO SLLP 041000@CAELT@METAR SLLP 041000Z 06012KT 9999 FEW005 SCT070 BKN200 05/02 Q1038@CAELT@A3067 628.4 HR81 P92// NOSIG=@CAELT@
ZPX0100 040955@CAELT@GG SLZZYMYT@CAELT@040954 SLPSZTZX@CAELT@SABO SLPS 041000@CAELT@METAR SLPS 041000Z 27010KT 4000 FU NSC 22/17 Q1012 A2989 HR76=@CAELT@
ZPX0101 040956@CAELT@GG SLZZYMYT@CAELT@040954 SLRYYSYX@CAELT@SABO SLRY 041000@CAELT@METAR SLRY 041000Z 00000KT 8000 NSC 23/23 Q1008 A2979 HR98 FU CI RWY@CAELT@NML=@CAELT@
ZPX0102 040956@CAELT@GG SLZZYMYT@CAELT@040955 SLRQYSYX@CAELT@SABO SLRQ 041000@CAELT@METAR SLRQ 041000Z 00000KT 9999 FEW080 25/23 Q1011 A2986 HR86=@CAELT@
ZPX0103 040956@CAELT@GG SLZZYMYT@CAELT@040956 SLCAYGYS@CAELT@SABO SLCA 041000@CAELT@METAR SLCA 041000Z 00000KT 9999 NSC 14/10 Q1020 A3012 HR78 FU RWY NML@CAELT@
ZPX0104 040956@CAELT@GG SLZZYMYT@CAELT@040957 SLVRYGYZ@CAELT@SABO SLVR 041000@CAELT@METAR SLVR 041000Z 19012KT 8000 FEW070 SCT200 23/14 Q1014 A2995 HR55@CAELT@FU NOSIG=@CAELT@
ZPX0105 040958@CAELT@GG SLZZYMYT@CAELT@040958 SLCAYGYS@CAELT@SABO SLCA 041000@CAELT@METAR SLCA 041000Z 00000KT 9999 NSC 14/10 Q1020 A3012 HR78 FU RWY NML@CAELT@
ZPX0106 040959@CAELT@GG SLZZYMYT@CAELT@040958 SLETYMYC@CAELT@SABO SLET 041000@CAELT@METAR SLET 041000Z 16011KT 9999 NSC 22/12 Q1015 A2997 HR53 FU NOSIG=@CAELT@
ZPX0107 040959@CAELT@GG SLZZYMYT@CAELT@040959 SLCBYGYZ@CAELT@SABO SLCB 041000@CAELT@METAR SLCB 041000Z 30004KT 9999 FEW033 SCT200 12/06 Q1027 A3034 753.3@CAELT@HR68 FU NOSIG=@CAELT@
ZPX0108 040959@CAELT@GG SLZZYMYT@CAELT@040959 SLSBYSYX@CAELT@SABO SLSB 041000@CAELT@METAR SLSB 041000Z 00000KT 9999 BKN080 23/23 Q1010 A2985 HR98 RWY NML=@CAELT@
ZPX0110 041000@CAELT@GG SLZZYMYT@CAELT@041000 SLVRYGYS@CAELT@SABO SLVR 041000@CAELT@METAR SLVR 041000Z 19012KT 8000 FEW070 SCT200 23/14 Q1014 A2995 HR55@CAELT@FU NOSIG=@CAELT@METAR SLET 041000Z NIL=@CAELT@METAR SLAS 041000Z 00000KT 2000 FU NSC 24/22 Q1014 A2994 HR88 RWY NML@CAELT@METAR SLJV 041000Z 00000KT 5000 FU NSC 22/19 Q1013 A2991 HR88 RWY NMLMETAR SLCP 041000Z 18006KT 4000 FU NSC 24/20 Q1015 A2997 HR80 RWY NMLMETAR SLSI 041000Z 24010KT 8000 NSC 24/20 Q1012 A2988 HR76 FU RWY NMLMETAR SLRB 041000Z 00000KT 8000 NSC 19/18 Q1017 A3003 HR90 FU RWY NMLMETAR SLPS 041000Z 27010KT 4000 FU NSC 22/17 Q1012 A2989 HR76=METAR SLCA 041000Z 00000KT 9999 NSC 14/10 Q1020 A3012 HR78 FU RWY NML
ZPX0112 041002@CAELT@GG SLZZYMYT@CAELT@041002 SLVRYGYS@CAELT@SABO SLVR 041000 RRA@CAELT@METAR SLVR 041000Z 19012KT 8000 FEW070 SCT200 23/14 Q1014 A2995 HR55@CAELT@FU NOSIG=@CAELT@METAR RTD SLET 041000Z 16011KT 9999 NSC 22/12 Q1015 A2997 HR53 FU@CAELT@NOSIG=@CAELT@METAR SLAS 041000Z 00000KT 2000 FU NSC 24/22 Q1014 A2994 HR88 RWY NMLMETAR SLJV 041000Z 00000KT 5000 FU NSC 22/19 Q1013 A2991 HR88 RWY NMLMETAR SLCP 041000Z 18006KT 4000 FU NSC 24/20 Q1015 A2997 HR80 RWY NMLMETAR SLSI 041000Z 24010KT 8000 NSC 24/20 Q1012 A2988 HR76 FU RWY NMLMETAR SLRB 041000Z 00000KT 8000 NSC 19/18 Q1017 A3003 HR90 FU RWY NMLMETAR SLPS 041000Z 27010KT 4000 FU NSC 22/17 Q1012 A2989 HR76=METAR SLCA 041000Z 00000KT 9999 NSC 14/10 Q1020 A3012 HR78 FU RWY NML
ZPX0113 041002@CAELT@GG SLZZYMYT@CAELT@041001 SLLPYSYX@CAELT@SABO SLLP 041000@CAELT@METAR SLLP 041000Z 06012KT 9999 FEW005 SCT070 BKN200 05/02 Q1038@CAELT@A3067 628.4 HR81 P92// NOSIG=@CAELT@METAR SLRY 041000Z 00000KT 8000 NSC 23/23 Q1008 A2979 HR98 FU@CAELT@CI RWY NML=@CAELT@METAR SLRQ 041000Z 00000KT 9999 FEW080 25/23 Q1011 A2986 HR86=METAR SLSB 041000Z 00000KT 9999 BKN080 23/23 Q1010 A2985 HR98RWY NML=
ZPX0117 041011@CAELT@GG SLZZYMYT@CAELT@041011 SLTRYGYS@CAELT@SABO SLTR 041000 RRA@CAELT@METAR RTD SLTR 041000Z 00000KT 9999 NSC 21/21 Q1012 A2989 993.5 HR98@CAELT@AC/CI NOSIG=@CAELT@
ZPX0118 041013@CAELT@GG SLZZYMYT@CAELT@041013 SLTRYGYS@CAELT@SABO SLTR 041000 RRA@CAELT@METAR RTD SLTR 041000Z 00000KT 9999 NSC 21/21 Q1012 A2989 993.5 HR98@CAELT@AC/CI NOSIG=@CAELT@METAR SLGM 041000Z NIL=@CAELT@METAR SLRI 041000Z 18005KT 3000 FU FEW080 BKN200 23/23 Q1012 A2989@CAELT@HR98=METAR SLJO 041000Z 00000KT 6000 FEW080 BKN200 22/21 Q1010 A2985 HR94FU RWY NML=METAR SLRA 041000Z 00000KT 8000 FEW020 BKN200 23/22 Q1011 A2986 HR96FU AC RWY NML=METAR SLMG 041000Z 00000KT 5000 FU NSC 23/22 Q1010 A2982 HR94 CIRWY NML=METAR SLBU 041000Z NIL=METAR SLSA 041000Z NIL=METAR SLSR 041000Z NIL=METAR SLSM 040000Z 00000KT 2000 BR FEW005 BKN200 20/20 Q1011 A2987HR100 RWY NML=
ZPX0119 041017@CAELT@GG SLZZYMYT@CAELT@041013 SLTRYGYS@CAELT@SABO SLTR 041000 RRA@CAELT@METAR RTD SLTR 041000Z 00000KT 9999 NSC 21/21 Q1012 A2989 993.5 HR98@CAELT@AC/CI NOSIG=@CAELT@METAR SLGM 041000Z NIL=@CAELT@METAR SLRI 041000Z 18005KT 3000 FU FEW080 BKN200 23/23 Q1012 A2989@CAELT@HR98=METAR SLJO 041000Z 00000KT 6000 FEW080 BKN200 22/21 Q1010 A2985 HR94FU RWY NML=METAR SLRA 041000Z 00000KT 8000 FEW020 BKN200 23/22 Q1011 A2986 HR96FU AC RWY NML=METAR SLMG 041000Z 00000KT 5000 FU NSC 23/22 Q1010 A2982 HR94 CIRWY NML=METAR SLBU 041000Z NIL=METAR SLSA 041000Z NIL=METAR SLSR 041000Z NIL=METAR SLSM 041000Z 00000KT 2000 BR FEW005 BKN200 20/20 Q1011 A2987HR100 RWY NML=DUPE
ZPX0120 041017@CAELT@GG SLZZYMYT@CAELT@041013 SLTRYGYS@CAELT@SABO SLTR 041000 RRA@CAELT@METAR RTD SLTR 041000Z 00000KT 9999 NSC 21/21 Q1012 A2989 993.5 HR98@CAELT@AC/CI NOSIG=@CAELT@METAR SLGM 041000Z NIL=@CAELT@METAR SLRI 041000Z 18005KT 3000 FU FEW080 BKN200 23/23 Q1012 A2989@CAELT@HR98=METAR SLJO 041000Z 00000KT 6000 FEW080 BKN200 22/21 Q1010 A2985 HR94FU RWY NML=METAR SLRA 041000Z 00000KT 8000 FEW020 BKN200 23/22 Q1011 A2986 HR96FU AC RWY NML=METAR SLMG 041000Z 00000KT 5000 FU NSC 23/22 Q1010 A2982 HR94 CIRWY NML=METAR SLBU 041000Z NIL=METAR SLSA 041000Z NIL=METAR SLSR 041000Z NIL=METAR SLSM 041000Z 00000KT 2000 BR FEW005 BKN200 20/20 Q1011 A2987HR100 RWY NML=DUPE
ZPX0127 041052@CAELT@GG SLZZYMYT@CAELT@041052 SLCAYGYS@CAELT@SABO SLCA 041100@CAELT@METAR SLCA 041100Z 00000KT 9999 NSC 15/11 Q1020 A3012 HR77 FU RWY NML@CAELT@
ZPX0129 041054@CAELT@GG SLZZYMYT@CAELT@041052 SLPSZTZX@CAELT@SABO SLPS 041100@CAELT@METAR SLPS 041100Z 27008KT 4000 FU NSC 22/17 Q1012 A2989 HR76=@CAELT@
ZPX0130 041054@CAELT@GG SLZZYMYT@CAELT@041054 SLVRYGYZ@CAELT@SABO SLVR 041100@CAELT@METAR SLVR 041100Z 18012KT 8000 NSC 24/14 Q1014 A2997 HR54 FU NOSIG=@CAELT@
ZPX0131 041055@CAELT@GG SLZZYMYT@CAELT@041054 SLETYMYC@CAELT@SABO SLET 041100@CAELT@METAR SLET 041100Z 16013KT 9999 NSC 22/11 Q1015 A3000 HR48 FU NOSIG=@CAELT@
ZPX0132 041055@CAELT@GG SLZZYMYT@CAELT@041055 SLSBYSYX@CAELT@SABO SLSB 041100@CAELT@METAR SLSB 041100Z 00000KT 5000 FU BKN080 23/23 Q1011 A2988 HR98 RWY@CAELT@NML=@CAELT@
ZPX0134 041055@CAELT@GG SLZZYMYT@CAELT@041055 SLRQYSYX@CAELT@SABO SLRQ 041100@CAELT@METAR SLRQ 041100Z 00000KT 9999 NSC 25/23 Q1011 A2988 HR89 FU CI=@CAELT@
ZPX0135 041055@CAELT@GG SLZZYMYT@CAELT@041054 SLRYYSYX@CAELT@SABO SLRY 041100@CAELT@METAR SLRY 041100Z 00000KT 8000 NSC 24/23 Q1008 A2979 HR96 FU CI RWY@CAELT@NML=@CAELT@
ZPX0136 041056@CAELT@GG SLZZYMYT@CAELT@041055 SLLPYGYZ@CAELT@SABO SLLP 041100@CAELT@METAR SLLP 041100Z 28005KT 8000 FEW005 SCT070 BKN200 05/03 Q1040@CAELT@A3072 629.5 HR89 P92// VIS/RED/SC/BAJOS NE/E/SE NOSIG=@CAELT@
ZPX0137 041056@CAELT@GG SLZZYMYT@CAELT@041055 SLCBYGYZ@CAELT@SABO SLCB 041100@CAELT@METAR SLCB 041100Z 09003KT 9999 FEW033 16/07 Q1028 A3036 753.9 HR57@CAELT@AC NOSIG=@CAELT@
ZPX0138 041058@CAELT@GG SLZZYMYT@CAELT@041057 SLRBYGYS@CAELT@SABO SLRB 041100@CAELT@METAR SLRB 041100Z 00000KT 8000 NSC 20/17 Q1018 A3006 HR83 FU RWY NML=@CAELT@
ZPX0139 041059@CAELT@GG SLZZYMYT@CAELT@041058 SLTRYGYZ@CAELT@SABO SLTR 041100@CAELT@METAR SLTR 041100Z 00000KT 5000 BR NSC 22/22 Q1012 A2989 993.8 HR98@CAELT@AC/CI NOSIG=@CAELT@
ZPX0140 041059@CAELT@GG SLZZYMYT@CAELT@041100 SLVRYGYS@CAELT@SABO SLVR 041100@CAELT@METAR SLVR 041100Z 18012KT 8000 NSC 24/14 Q1014 A2997 HR54 FU NOSIG=@CAELT@METAR SLET 041100Z 16013KT 9999 NSC 22/11 Q1015 A3000 HR48 FU NOSIG=@CAELT@METAR SLAS 041100Z 18006KT 2000 FU NSC 26/22 Q1014 A2994 HR80 RWY NML@CAELT@METAR SLJV 041100Z 00000KT 4000 FU NSC 22/19 Q1013 A2991 HR83 RWY NML@CAELT@METAR SLCP 041100Z 18008KT 4000 FU FEW070 24/20 Q1016 A3000 HR79 RWYNML=METAR SLSI 041100Z 24010KT 8000 NSC 25/20 Q1013 A2991 HR74 FU RWY NMLMETAR SLTI 041100Z 00000KT 5000 FU NSC 26/20 Q1014 A2994 HR70 RWY NMLMETAR SLJE 041100Z 18008KT 5000 FU NSC 23/16 Q1017 A3003 HR64 RWY NMLMETAR SLVG 041100Z 00000KT 8000 NSC 13/11 Q1026 A3030 HR89 FU RWY NMLMETAR SLRB 041100Z 00000KT 8000 NSC 20/17 Q1018 A3006 HR83 FU RWY NMLMETAR SLPS 041100Z 27008KT 4000 FU NSC 22/17 Q1012 A2989 HR76=METAR SLCA 041100Z 00000KT 9999 NSC 15/11 Q1020 A3012 HR77 FU RWY NML
ZPX0142 041102@CAELT@GG SLZZYMYT@CAELT@041102 SLLPYFYA@CAELT@SABO SLLP 041100@CAELT@METAR SLLP 041100Z 28005KT 8000 FEW005 SCT070 BKN200 05/03 Q1040@CAELT@A3072 629.5 HR89 P92// VIS/RED/SC/BAJOS NE/E/SE NOSIG=@CAELT@METAR SLRY 041100Z 00000KT 8000 NSC 24/23 Q1008 A2979 HR96@CAELT@FU CI RWY NML=@CAELT@METAR SLRQ 041100Z 00000KT 9999 NSC 25/23 Q1011 A2988 HR89 FU CI=METAR SLSB 041100Z 00000KT 5000 FU BKN080 23/23 Q1011 A2988HR98 RWY NML=
ZPX0144 041103@CAELT@GG SLZZYMYT@CAELT@041100 SLTRYGYS@CAELT@SABO SLTR 041100@CAELT@METAR SLTR 041100Z 00000KT 5000 BR NSC 22/22 Q1012 A2989 993.8 HR98@CAELT@AC/CI NOSIG=@CAELT@METAR SLGM 041100Z NIL=@CAELT@METAR SLRI 041100Z 00000KT 3000 FU FEW080 BKN200 23/22 Q1013 A2994@CAELT@HR96=METAR SLJO 041100Z 00000KT 6000 FEW020 SCT080 BKN200 23/22 Q1011A2986 HR92 FU RWY NML=METAR SLRA 041100Z 12003KT 8000 SCT080 BKN200 23/22 Q1011 A2988HR94 FU RWY NML=METAR SLMG 041100Z 00000KT 8000 NSC 23/22 Q1010 A2985 HR93 FU CIRWY NML=METAR SLBU 041100Z NIL=METAR SLSA 041100Z NIL=METAR SLSR 041100Z 00000KT 7000 NSC 22/22 Q1009 A2981 HR97 FUMETAR SLSM 041100Z 00000KT 5000 BR FEW008 SCT200 20/20 Q1012 A2989HR100 RWY NML=
ZPX0156 041147@CAELT@GG SLZZYMYT@CAELT@041146 SLPSZTZX@CAELT@SABO SLPS 041200@CAELT@METAR SLPS 041200Z 24010KT 5000 FU NSC 23/19 Q1013 A2992 HR76=@CAELT@
ZPX0158 041150@CAELT@GG SLZZYMYT@CAELT@041150 SLCAYGYS@CAELT@SABO SLCA 041200@CAELT@METAR SLCA 041200Z 00000KT 9999 NSC 18/12 Q1020 A3012 HR68 FU RWY NML@CAELT@
ZPX0159 041155@CAELT@GG SLZZYMYT@CAELT@041155 SLETYMYC@CAELT@SABO SLET 041200@CAELT@METAR SLET 041200Z 16014KT 9999 NSC 23/11 Q1016 A3001 HR47 FU NOSIG=@CAELT@
ZPX0161 041155@CAELT@GG SLZZYMYT@CAELT@041156 SLVRYGYZ@CAELT@SABO SLVR 041200@CAELT@METAR SLVR 041200Z 18015KT 8000 NSC 24/13 Q1016 A3001 HR50 CI FU@CAELT@NOSIG=@CAELT@
ZPX0162 041155@CAELT@GG SLZZYMYT@CAELT@041155 SLSAYGYS@CAELT@SABO SLSA 041200@CAELT@METAR SLSA 041200Z 00000KT 6000 BKN080 23/22 Q1012 A2989 HR94 FU=@CAELT@
ZPX0163 041155@CAELT@GG SLZZYMYT@CAELT@041155 SLSAYGYS@CAELT@SABO SLSA 041200@CAELT@METAR SLSA 041200Z 00000KT 6000 BKN080 23/22 Q1012 A2989 HR94 FU=@CAELT@
ZPX0164 041155@CAELT@GG SLZZYMYT@CAELT@041155 SLSBYSYX@CAELT@SABO SLSB 041200@CAELT@METAR SLSB 041200Z 00000KT 6000 SCT080 26/23 Q1012 A2989 HR88 FU RWY@CAELT@NML=@CAELT@
ZPX0165 041156@CAELT@GG SLZZYMYT@CAELT@041155 SLRBYGYS@CAELT@SABO SLRB 041200@CAELT@METAR SLRB 041200Z 00000KT 8000 NSC 22/17 Q1019 A3009 HR71 FU RWY NML=@CAELT@
ZPX0166 041156@CAELT@GG SLZZYMYT@CAELT@041155 SLRQYSYX@CAELT@SABO SLRQ 041200@CAELT@METAR SLRQ 041200Z 00000KT 9999 NSC 27/25 Q1012 A2990 HR89 FU CI=@CAELT@
ZPX0167 041156@CAELT@GG SLZZYMYT@CAELT@041156 SLTRYGYZ@CAELT@SABO SLTR 041200@CAELT@METAR SLTR 041200Z 00000KT 9999 NSC 23/21 Q1013 A2993 994.9 HR91@CAELT@AC/CI NOSIG=@CAELT@
ZPX0168 041156@CAELT@GG SLZZYMYT@CAELT@041154 SLRYYSYX@CAELT@SABO SLRY 041200@CAELT@METAR SLRY 041200Z 00000KT 8000 NSC 25/23 Q1009 A2980 HR91 FU CI RWY@CAELT@NML=@CAELT@
ZPX0169 041156@CAELT@GG SLZZYMYT@CAELT@041155 SLLPYGYZ@CAELT@SABO SLLP 041200@CAELT@METAR SLLP 041200Z VRB02KT 8000 FEW005 SCT070 BKN200 06/03 Q1041@CAELT@A3075 630.1 HR84 P92// VIS/RED/SC/BAJOS NE/E/SE NOSIG=@CAELT@
ZPX0172 041158@CAELT@GG SLZZYMYT@CAELT@041157 SLCBYGYZ@CAELT@SABO SLCB 041200@CAELT@METAR SLCB 041200Z 30004KT 9999 FEW033 19/07 Q1029 A3039 754.6 HR43@CAELT@AC NOSIG=@CAELT@
ZPX0173 041200@CAELT@GG SLZZYMYT@CAELT@041159 SLVRYGYS@CAELT@SABO SLVR 041200@CAELT@METAR SLVR 041200Z 18015KT 8000 NSC 24/13 Q1016 A3001 HR50 CI FU@CAELT@NOSIG=@CAELT@METAR SLET 041200Z 16014KT 9999 NSC 23/11 Q1016 A3001 HR47 FU NOSIG=@CAELT@METAR SLAS 041200Z 18010KT 3000 FU NSC 28/21 Q1015 A2997 HR67 RWY NML@CAELT@METAR SLJV 041200Z 18010KT 4000 FU NSC 22/19 Q1013 A2991 HR83 RWY NMLMETAR SLCP 041200Z 18010KT 6000 NSC 25/18 Q1016 A3000 HR63 FU RWY NMLMETAR SLSI 041200Z 19012KT 8000 NSC 26/19 Q1013 A2991 HR66 FU RWY NMLMETAR SLTI 041200Z 00000KT 5000 FU NSC 29/21 Q1015 A2997 HR62 RWY NMLMETAR SLJE 041200Z 18008KT 5000 FU NSC 24/16 Q1017 A3003 HR60 RWY NMLMETAR SLVG 041200Z 00000KT 8000 NSC 17/13 Q1027 A3033 HR76 RWY NML=METAR SLRB 041200Z 00000KT 8000 NSC 22/17 Q1019 A3009 HR71 FU RWY NMLMETAR SLPS 041200Z 24010KT 5000 FU NSC 23/19 Q1013 A2992 HR76=METAR SLCA 041200Z 00000KT 9999 NSC 18/12 Q1020 A3012 HR68 FU RWY NML
ZPX0174 041200@CAELT@GG SLZZYMYT@CAELT@041159 SLCBYGYS@CAELT@SABO SLCB 041200@CAELT@METAR SLCB 041200Z 30004KT 9999 FEW033 19/07 Q1029 A3039 754.6 HR43@CAELT@AC NOSIG=@CAELT@METAR SLAL 041200Z 36012KT 9999 NSC 12/07 Q1032 A3049 706.0 HR71=@CAELT@
ZPX0175 041201@CAELT@GG SLZZYMYT@CAELT@041200 SLLPYFYA@CAELT@SABO SLLP 041200@CAELT@METAR SLLP 041200Z VRB02KT 8000 FEW005 SCT070 BKN200 06/03 Q1041@CAELT@A3075 630.1 HR84 P92// VIS/RED/SC/BAJOS NE/E/SE NOSIG=@CAELT@METAR SLRY 041200Z 00000KT 8000 NSC 25/23 Q1009 A2980 HR91 FU CI@CAELT@RWY NML=@CAELT@METAR SLRQ 041200Z 00000KT 9999 NSC 27/25 Q1012 A2990 HR89 FU CI=METAR SLSB 041200Z 00000KT 6000 SCT080 26/23 Q1012 A2989 HR88 FU
ZPX0176 041201@CAELT@GG SLZZYMYT@CAELT@041200 SLTRYGYS@CAELT@SABO SLTR 041200@CAELT@METAR SLTR 041200Z 00000KT 9999 NSC 23/21 Q1013 A2993 994.9 HR91@CAELT@AC/CI NOSIG=@CAELT@METAR SLGM 041200Z 00000KT 5000 FU SCT080 BKN200 26/24 Q1012 A2990@CAELT@HR87=@CAELT@METAR SLRI 041200Z 19007KT 5000 FU SCT080 BKN200 25/22 Q1014 A2996HR84=METAR SLJO 041200Z 00000KT 5000 FU BKN080 BKN200 24/22 Q1012 A2990HR92 RWY NML=METAR SLRA 041200Z 00000KT 8000 FEW020 SCT080 BKN200 24/22 Q112A2991 HR90 FU RWY NML=METAR SLMG 041200Z 00000KT 8000 NSC 25/22 Q1011 A2987 HR84 FU CIRWY NML=METAR SLBU 041200Z 00000KT 8000 NSC 25/22 Q1012 A2990 HR84 FU CIMETAR SLSA 041200Z 00000KT 6000 BKN080 23/22 Q1012 A2989 HR94 FU=METAR SLSR 041200Z 00000KT 7000 NSC 24/22 Q1011 A2986 HR92 FU CIMETAR SLSM 041200Z 00000KT 7000 NSC 24/22 Q111 A2986 HR92 FU CI
ZPX0183 041223@CAELT@GG SLZZYMYT@CAELT@041222 SLTRYGYS@CAELT@SABO SLTR 041200 CCA@CAELT@METAR SLTR 041200Z 00000KT 9999 NSC 23/21 Q1013 A2993 994.9 HR91@CAELT@AC/CI NOSIG=@CAELT@METAR SLGM 041200Z 00000KT 5000 FU SCT080 BKN200 26/24 Q1012 A2990@CAELT@HR87=@CAELT@METAR SLRI 041200Z 19007KT 5000 FU SCT080 BKN200 25/22 Q1014 A2996HR84=METAR COR SLJO 041200Z 00000KT 7000 FU BKN080 BKN200 24/22 Q1012A2990HR92 FU RWY NML=METAR SLRA 041200Z 00000KT 8000 FEW020 SCT080 BKN200 24/22 Q112A2991 HR90 FU RWY NML=METAR SLMG 041200Z 00000KT 8000 NSC 25/22 Q1011 A2987 HR84 FU CIRWY NML=METAR SLBU 041200Z 00000KT 8000 NSC 25/22 Q1012 A2990 HR84 FU CIMETAR SLSA 041200Z 00000KT 6000 BKN080 23/22 Q1012 A2989 HR94 FU=METAR SLSR 041200Z 00000KT 7000 NSC 24/22 Q1011 A2986 HR92 FU CIMETAR SLSM 041200Z 00000KT 7000 NSC 24/22 Q1011 A2986 HR92 FU CI
ZPX0197 041250@CAELT@GG SLZZYMYT@CAELT@041250 SLRBYGYS@CAELT@SABO SLRB 041300@CAELT@METAR SLRB 041300Z 00000KT 8000 NSC 23/17 Q1019 A3009 HR68 FU RWY NML=@CAELT@
ZPX0198 041254@CAELT@GG SLZZYMYT@CAELT@041255 SLETYMYC@CAELT@SABO SLET 041300@CAELT@METAR SLET 041300Z 15015KT 9999 NSC 24/12 Q1016 A3002 HR45 FU NOSIG=@CAELT@
ZPX0199 041254@CAELT@GG SLZZYMYT@CAELT@041255 SLSAYGYS@CAELT@SABO SLSA 041300@CAELT@METAR SLSA 041300Z 00000KT 7000 BKN080 25/23 Q1013 A2992 HR89 FU=@CAELT@
ZPX0200 041254@CAELT@GG SLZZYMYT@CAELT@041255 SLSAYGYS@CAELT@SABO SLSA 041300@CAELT@METAR SLSA 041300Z 00000KT 7000 BKN080 25/23 Q1013 A2992 HR89 FU=@CAELT@
ZPX0201 041255@CAELT@GG SLZZYMYT@CAELT@041255 SLVRYGYZ@CAELT@SABO SLVR 041300@CAELT@METAR SLVR 041300Z 19010G22KT 9000 NSC 25/13 Q1016 A3002 HR46 FU@CAELT@NOSIG=@CAELT@
ZPX0202 041255@CAELT@GG SLZZYMYT@CAELT@041255 SLRQYSYX@CAELT@SABO SLRQ 041300@CAELT@METAR SLRQ 041300Z 00000KT 8000 NSC 30/26 Q1013 A2992 HR78 FU=@CAELT@
ZPX0203 041255@CAELT@GG SLZZYMYT@CAELT@041255 SLCAYGYS@CAELT@SABO SLCA 041300@CAELT@METAR SLCA 041300Z 00000KT 9999 NSC 19/11 Q1020 A3012 HR59 FU RWY NML@CAELT@
ZPX0204 041255@CAELT@GG SLZZYMYT@CAELT@041253 SLRYYSYX@CAELT@SABO SLRY 041300@CAELT@METAR SLRY 041300Z 00000KT 8000 NSC 30/24 Q1009 A2982 HR71 FU CI RWY@CAELT@NML=@CAELT@
ZPX0205 041255@CAELT@GG SLZZYMYT@CAELT@041255 SLSBYSYX@CAELT@SABO SLSB 041300@CAELT@METAR SLSB 041300Z 31003KT 6000 NSC 28/23 Q1013 A2992 HR77 FU CI RWY@CAELT@NML=@CAELT@
ZPX0206 041256@CAELT@GG SLZZYMYT@CAELT@041256 SLTRYGYZ@CAELT@SABO SLTR 041300@CAELT@METAR SLTR 041300Z 00000KT 9999 NSC 26/23 Q1014 A2995 995.5 HR85@CAELT@AC NOSIG=@CAELT@
ZPX0208 041256@CAELT@GG SLZZYMYT@CAELT@041255 SLLPYGYZ@CAELT@SABO SLLP 041300@CAELT@METAR SLLP 041300Z 07005KT 360V140 9999 FEW013 SCT070 BKN200 10/02@CAELT@Q1042 A3077 630.6 HR60 P93// FU NOSIG=@CAELT@
ZPX0209 041257@CAELT@GG SLZZYMYT@CAELT@041255 SLPSZTZX@CAELT@SABO SLPS 041300@CAELT@METAR SLPS 041300Z 24012KT 5000 FU NSC 25/19 Q1014 A2995 HR67=@CAELT@
ZPX0210 041258@CAELT@GG SLZZYMYT@CAELT@041258 SLVRYGYS@CAELT@SABO SLVR 041300@CAELT@METAR SLVR 041300Z 19010G22KT 9000 NSC 25/13 Q1016 A3002 HR46 FU@CAELT@NOSIG=@CAELT@METAR SLET 041300Z 15015KT 9999 NSC 24/12 Q1016 A3002 HR45 FU NOSIG=@CAELT@METAR SLAS 041300Z 18015KT 5000 FU NSC 29/18 Q1015 A2997 HR52 RWY NML@CAELT@METAR SLJV 041300Z 18010KT 5000 FU NSC 22/19 Q1013 A2991 HR81 RWY NMLMETAR SLCP 041300Z 18012KT 8000 NSC 27/17 Q1017 A3003 HR54 FU RWY NMLMETAR SLSI 041300Z 19012KT 8000 NSC 28/18 Q1013 A2991 HR54 FU RWY NMLMETAR SLTI 041300Z 00000KT 5000 FU NSC 31/19 Q1016 A3000 HR48 RWY NMLMETAR SLJE 041300Z 18006KT 5000 FU NSC 27/17 Q1018 A3006 HR57 RWY NMLMETAR SLVG 041300Z 02005KT 8000 NSC 21/14 Q1027 A3033 HR60 FU RWY NMLMETAR SLRB 041300Z 00000KT 8000 NSC 23/17 Q1019 A3009 HR68 FU RWY NMLMETAR SLPS 041300Z 24012KT 5000 FU NSC 25/19 Q1014 A2995 HR67=METAR SLCA 041300Z 00000KT 9999 NSC 19/11 Q1020 A3012 HR59 FU RWY NML=
ZPX0211 041259@CAELT@GG SLZZYMYT@CAELT@041258 SLCBYGYZ@CAELT@SABO SLCB 041300@CAELT@METAR SLCB 041300Z 20003KT 9999 FEW033 22/05 Q1029 A3039 754.6 HR34@CAELT@AC NOSIG=@CAELT@
ZPX0212 041300@CAELT@GG SLZZYMYT@CAELT@041259 SLLPYFYA@CAELT@SABO SLLP 041300@CAELT@METAR SLLP 041300Z 07005KT 360V140 9999 FEW013 SCT070 BKN200 10/02@CAELT@Q1042 A3077 630.6 HR60 P93// FU NOSIG=@CAELT@METAR SLRY 041300Z 00000KT 8000 NSC 30/24 Q1009 A2982 HR71 FU CI@CAELT@RWY NML=@CAELT@METAR SLRQ 041300Z 00000KT 8000 NSC 30/26 Q1013 A2992 HR78 FU=METAR SLSB 041300Z 31003KT 6000 NSC 28/23 Q1013 A2992 HR77 FU CI
ZPX0214 041300@CAELT@GG SLZZYMYT@CAELT@041300 SLTRYGYS@CAELT@SABO SLTR 041300@CAELT@METAR SLTR 041300Z 00000KT 9999 NSC 26/23 Q1014 A2995 995.5 HR85@CAELT@AC NOSIG=@CAELT@METAR SLGM 041300Z 27005KT 5000 FU NSC 28/24 Q1013 A2993 HR79 CI=@CAELT@METAR SLRI 041300Z 20008KT 5000 FU FEW080 BKN200 28/25 Q1014 A2996@CAELT@HR84=METAR SLJO 041300Z 19003KT 7000 SCT080 BKN200 27/23 Q1013 A2992 HR81FU RWY NML=METAR SLRA 041300Z 00000KT 8000 FEW020 SCT200 27/23 Q1013 A2991 HR77FU AC RWY NML=METAR SLMG 041300Z 00000KT 8000 NSC 28/22 Q1012 A2988 HR72 FU CIRWY NML=METAR SLBU 041300Z 00000KT 8000 NSC 27/23 Q1013 A2992 HR79 FU CIMETAR SLSA 041300Z 00000KT 7000 BKN080 25/23 Q1013 A2992 HR89 FU=METAR SLSR 041300Z NIL=METAR SLSM 041300Z 16004KT 9999 NSC 25/23 Q1014 A2996 HR89 FU CI
ZPX0215 041301@CAELT@GG SLZZYMYT@CAELT@041300 SLCBYGYS@CAELT@SABO SLCB 041300@CAELT@METAR SLCB 041300Z 20003KT 9999 FEW033 22/05 Q1029 A3039 754.6 HR34@CAELT@AC NOSIG=@CAELT@METAR SLAL 041300Z 34009KT 9999 NSC 14/06 Q1033 A3051 706.5 HR57=@CAELT@
ZPX0218 041303@CAELT@GG SLZZYMYT@CAELT@041302 SLTRYGYS@CAELT@SABO SLTR 041300 RRA@CAELT@METAR SLTR 041300Z 00000KT 9999 NSC 26/23 Q1014 A2995 995.5 HR85@CAELT@AC NOSIG=@CAELT@METAR SLGM 041300Z 27005KT 5000 FU NSC 28/24 Q1013 A2993 HR79 CI=@CAELT@METAR SLRI 041300Z 20008KT 5000 FU FEW080 BKN200 28/25 Q1014 A2996@CAELT@HR84=METAR SLJO 041300Z 19003KT 7000 SCT080 BKN200 27/23 Q1013 A2992 HR81FU RWY NML=METAR SLRA 041300Z 00000KT 8000 FEW020 SCT200 27/23 Q1013 A2991 HR77FU AC RWY NML=METAR SLMG 041300Z 00000KT 8000 NSC 28/22 Q1012 A2988 HR72 FU CIRWY NML=METAR SLBU 041300Z 00000KT 8000 NSC 27/23 Q1013 A2992 HR79 FU CIMETAR SLSA 041300Z 00000KT 7000 BKN080 25/23 Q1013 A2992 HR89 FU=METAR RTD SLSR 041300Z 35006KT 7000 NSC 27/22 Q1012 A2990 HR77METAR SLSM 041300Z 16004KT 9999 NSC 25/23 Q1014 A2996 HR89 FU CI
ZPX0233 041343@CAELT@GG SLZZYMYT@CAELT@041342 SLPSZTZX@CAELT@SABO SLPS 041400@CAELT@METAR SLPS 041400Z 26008KT 5000 FU NSC 26/19 Q1013 A2992 HR64=@CAELT@
ZPX0235 041351@CAELT@GG SLZZYMYT@CAELT@041350 SLRBYGYS@CAELT@SABO SLRB 041400@CAELT@METAR SLRB 041400Z 00000KT 8000 NSC 24/17 Q1018 A3006 HR66 FU RWY NML=@CAELT@
ZPX0236 041352@CAELT@GG SLZZYMYT@CAELT@041352 SLCAYGYS@CAELT@SABO SLCA 041400@CAELT@METAR SLCA 041400Z 18005KT 9999 NSC 21/10 Q1020 A3012 HR53 FU RWY NML@CAELT@
ZPX0237 041354@CAELT@GG SLZZYMYT@CAELT@041355 SLSBYSYX@CAELT@SABO SLSB 041400@CAELT@METAR SLSB 041400Z 07004KT 7000 SCT080 30/24 Q1013 A2994 HR71 FU CI@CAELT@RWY NML=@CAELT@
ZPX0238 041354@CAELT@GG SLZZYMYT@CAELT@041355 SLETYMYC@CAELT@SABO SLET 041400@CAELT@METAR SLET 041400Z 15013G23KT 9999 NSC 27/12 Q1016 A3001 HR41 FU@CAELT@NOSIG=@CAELT@
ZPX0239 041354@CAELT@GG SLZZYMYT@CAELT@041355 SLSAYGYS@CAELT@SABO SLSA 041400@CAELT@METAR SLSA 041400Z 00000KT 7000 BKN080 27/23 Q1013 A2994 HR76 FU=@CAELT@
ZPX0240 041354@CAELT@GG SLZZYMYT@CAELT@041355 SLSAYGYS@CAELT@SABO SLSA 041400@CAELT@METAR SLSA 041400Z 00000KT 7000 BKN080 27/23 Q1013 A2994 HR76 FU=@CAELT@
ZPX0241 041354@CAELT@GG SLZZYMYT@CAELT@041353 SLRYYSYX@CAELT@SABO SLRY 041400@CAELT@METAR SLRY 041400Z 36006KT 8000 NSC 33/24 Q1010 A2985 HR62 FU CI RWY@CAELT@NML=@CAELT@
ZPX0243 041355@CAELT@GG SLZZYMYT@CAELT@041356 SLVRYGYZ@CAELT@SABO SLVR 041400@CAELT@METAR SLVR 041400Z 18010G21KT 9000 NSC 27/12 Q1016 A3001 HR38 FU@CAELT@NOSIG=@CAELT@
ZPX0244 041356@CAELT@GG SLZZYMYT@CAELT@041355 SLLPYGYZ@CAELT@SABO SLLP 041400@CAELT@METAR SLLP 041400Z 08008KT 030V120 9999 SCT015 SCT200 12/03 Q1042@CAELT@A3078 630.8 HR56 P1483 FU NOSIG=@CAELT@
ZPX0245 041356@CAELT@GG SLZZYMYT@CAELT@041356 SLTRYGYZ@CAELT@SABO SLTR 041400@CAELT@METAR SLTR 041400Z 00000KT 9999 NSC 28/24 Q1014 A2995 995.8 HR78@CAELT@NOSIG=@CAELT@
ZPX0246 041356@CAELT@GG SLZZYMYT@CAELT@041356 SLRQYSYX@CAELT@SABO SLRQ 041400@CAELT@METAR SLRQ 041400Z 00000KT 8000 NSC 32/27 Q1013 A2993 HR74 FU AC=@CAELT@
ZPX0247 041357@CAELT@GG SLZZYMYT@CAELT@041356 SLCBYGYZ@CAELT@SABO SLCB 041400@CAELT@METAR SLCB 041400Z 21006KT 9999 FEW033 23/04 Q1028 A3037 754.0 HR29@CAELT@NOSIG=@CAELT@
ZPX0248 041357@CAELT@GG SLZZYMYT@CAELT@041357 SLVRYGYS@CAELT@SABO SLVR 041400@CAELT@METAR SLVR 041400Z 18010G21KT 9000 NSC 27/12 Q1016 A3001 HR38 FU@CAELT@NOSIG=@CAELT@METAR SLET 041400Z 15013G23KT 9999 NSC 27/12 Q1016 A3001 HR41 FU@CAELT@METAR SLAS 041400Z 18015KT 6000 NSC 30/19 Q1015 A2997 HR50 FU RWY NML@CAELT@METAR SLJV 041400Z 18010KT 5000 FU NSC 23/19 Q1013 A2991 HR79 RWY NMLMETAR SLCP 041400Z 19010KT 9999 NSC 29/19 Q1017 A3003 HR54 FU RWY NMLMETAR SLSI 041400Z 19008KT 8000 NSC 30/18 Q1014 A2994 HR48 FU RWY NMLMETAR SLTI 041400Z 00000KT 5000 FU NSC 34/19 Q1016 A3000 HR42 RWY NMLMETAR SLJE 041400Z 18008KT 5000 FU NSC 29/18 Q1018 A3006 HR54 RWY NMLMETAR SLVG 041400Z 35007KT 9999 NSC 23/13 Q1026 A3030 HR52 FU RWY NMLMETAR SLRB 041400Z 00000KT 8000 NSC 24/17 Q1018 A3006 HR66 FU RWY NMLMETAR SLPS 041400Z 26008KT 5000 FU NSC 26/19 Q1013 A2992 HR64=METAR SLCA 041400Z 18005KT 9999 NSC 21/10 Q1020 A3012 HR53 FU RWY NML=
ZPX0249 041359@CAELT@GG SLZZYMYT@CAELT@041359 SLCBYGYS@CAELT@SABO SLCB 041400@CAELT@METAR SLCB 041400Z 21006KT 9999 FEW033 23/04 Q1028 A3037 754.0 HR29@CAELT@NOSIG=@CAELT@METAR SLAL 041400Z 34012KT 9999 NSC 17/05 Q1032 A3050 706.2 HR46=@CAELT@
ZPX0251 041400@CAELT@GG SLZZYMYT@CAELT@041359 SLLPYFYA@CAELT@SABO SLLP 041400@CAELT@METAR SLLP 041400Z 08008KT 030V120 9999 SCT015 SCT200 12/03 Q1042@CAELT@A3078 630.8 HR56 P1483 FU NOSIG=@CAELT@METAR SLRY 041400Z 36006KT 8000 NSC 33/24 Q1010 A2985 HR62 FU CI@CAELT@RWY NML=@CAELT@METAR SLRQ 041400Z 00000KT 8000 NSC 32/27 Q1013 A2993 HR74 FU AC=METAR SLSB 041400Z 07004KT 7000 SCT080 30/24 Q1013 A2994 HR71 FU CI
ZPX0252 041400@CAELT@GG SLZZYMYT@CAELT@041359 SLTRYGYS@CAELT@SABO SLTR 041400@CAELT@METAR SLTR 041400Z 00000KT 9999 NSC 28/24 Q1014 A2995 995.8 HR78@CAELT@NOSIG=@CAELT@METAR SLGM 041400Z 23005KT 5000 FU FEW017 BKN200 31/24 Q1013 A2993@CAELT@HR66=@CAELT@METAR SLRI 041400Z 23005KT 7000 NSC 29/26 Q1014 A2997 HR84 FU CI=METAR SLJO 041400Z 19004KT 70000 SCT080 BKN200 29/22 Q1013 A2992HR70 FU RWY NML=METAR SLRA 041400Z 12004KT 8000 NSC 30/22 Q1013 A2992 HR62 FU AC/CIRWY NML=METAR SLMG 041400Z 00000KT 8000 NSC 31/22 Q1012 A2989 HR62 FU CIMETAR SLBU 041400Z 27006KT 8000 NSC 30/22 Q1013 A2992 HR62 FU CIMETAR SLSA 041400Z 00000KT 7000 BKN080 27/23 Q1013 A2994 HR76 FU=METAR SLSR 041400Z 35006KT 7000 SCT080 BKN200 28/23 Q1012 A2990HR69 FU RWY NML=METAR SLSM 041400Z N00000KT 9999 NSC 28/23 Q1014 A2996 HR74FU CI
ZPX0278 041450@CAELT@GG SLZZYMYT@CAELT@041450 SLRBYGYS@CAELT@SABO SLRB 041500@CAELT@METAR SLRB 041500Z 00000KT 8000 NSC 27/16 Q1017 A3003 HR52 FU RWY NML=@CAELT@
ZPX0280 041454@CAELT@GG SLZZYMYT@CAELT@041455 SLSBYSYX@CAELT@SABO SLSB 041500@CAELT@METAR SLSB 041500Z 35004KT 8000 SCT080 31/24 Q1013 A2994 HR65 FU RWY@CAELT@NML=@CAELT@
ZPX0282 041454@CAELT@GG SLZZYMYT@CAELT@041454 SLSAYGYS@CAELT@SABO SLSA 041500@CAELT@METAR SLSA 041500Z 00000KT 7000 SCT080 30/23 Q1013 A2992 HR66 FU=@CAELT@
ZPX0283 041454@CAELT@GG SLZZYMYT@CAELT@041455 SLETYMYC@CAELT@SABO SLET 041500@CAELT@METAR SLET 041500Z 15012KT 9999 NSC 28/11 Q1015 A2998 HR35 FU NOSIG=@CAELT@
ZPX0285 041455@CAELT@GG SLZZYMYT@CAELT@041455 SLVRYGYZ@CAELT@SABO SLVR 041500@CAELT@METAR SLVR 041500Z 16013KT 9000 NSC 28/12 Q1015 A2998 HR37 FU NOSIG=@CAELT@
ZPX0286 041455@CAELT@GG SLZZYMYT@CAELT@041454 SLCAYGYS@CAELT@SABO SLCA 041500@CAELT@METAR SLCA 041500Z 18005KT 9999 NSC 23/10 Q1017 A3003 HR47 FU RWY NML@CAELT@
ZPX0287 041456@CAELT@GG SLZZYMYT@CAELT@041455 SLRQYSYX@CAELT@SABO SLRQ 041500@CAELT@METAR SLRQ 041500Z 00000KT 8000 FEW020 SCT200 34/26 Q1013 A2992 HR65@CAELT@
ZPX0288 041456@CAELT@GG SLZZYMYT@CAELT@041455 SLCBYGYZ@CAELT@SABO SLCB 041500@CAELT@METAR SLCB 041500Z 24006KT 9999 FEW036 25/02 Q1027 A3034 753.4 HR21@CAELT@NOSIG=@CAELT@
ZPX0289 041456@CAELT@GG SLZZYMYT@CAELT@041454 SLRYYSYX@CAELT@SABO SLRY 041500@CAELT@METAR SLRY 041500Z 00000KT 8000 SCT080 33/25 Q1010 A2985 HR63 FU RWY@CAELT@NML=@CAELT@
ZPX0290 041456@CAELT@GG SLZZYMYT@CAELT@041456 SLTRYGYZ@CAELT@SABO SLTR 041500@CAELT@METAR SLTR 041500Z 00000KT 9999 NSC 30/24 Q1013 A2994 995.3 HR70@CAELT@NOSIG=@CAELT@
ZPX0291 041457@CAELT@GG SLZZYMYT@CAELT@041457 SLCBYGYS@CAELT@SABO SLCB 041500@CAELT@METAR SLCB 041500Z 24006KT 9999 FEW036 25/02 Q1027 A3034 753.4 HR21@CAELT@NOSIG=@CAELT@METAR SLAL 041500Z 33010KT 9999 NSC 19/06 Q1032 A3048 705.8 HR44=@CAELT@
ZPX0293 041458@CAELT@GG SLZZYMYT@CAELT@041458 SLTRYGYS@CAELT@SABO SLTR 041500@CAELT@METAR SLTR 041500Z 00000KT 9999 NSC 30/24 Q1013 A2994 995.3 HR70@CAELT@NOSIG=@CAELT@METAR SLGM 041500Z 23006KT 5000 FU FEW017 BKN200 32/24 Q1012 A2989@CAELT@HR65=@CAELT@METAR SLRI 041500Z 27005KT 7000 NSC 31/27 Q1014 A2995 HR82 FU CI=METAR SLJO 041500Z 00000KT 7000 FEW080 BKN080 32/22 Q1013 A2992 HR57FU RWY NML=METAR SLRA 041500Z 21006KT 8000 NSC 33/22 Q1012 A2991 HR52 FU AC/CIRWY NML=METAR SLMG 041500Z 16006KT 8000 NSC 34/22 Q1011 A2987 HR52 FU CIMETAR SLBU 041500Z 27006KT 8000 NSC 33/24 Q1013 A2992 HR59 FU CIMETAR SLSA 041500Z 00000KT 7000 SCT080 30/23 Q1013 A2992 HR66 FU=METAR SLSR 041500Z 35006KT 8000 SCT080 BKN200 30/23 Q1012 A2990HR57 FU RWY NML=METAR SLSM 041500Z 00000KT 9999 NSC 30/23 Q1014 A2996 HR61 FU
ZPX0294 041458@CAELT@GG SLZZYMYT@CAELT@041455 SLLPYGYZ@CAELT@SABO SLLP 041500@CAELT@METAR SLLP 041500Z 07010KT 9999 SCT020 12/03 Q1041 A3077 630.5 HR53@CAELT@P94// AC/CI FU NOSIG=@CAELT@
ZPX0295 041459@CAELT@GG SLZZYMYT@CAELT@041459 SLLPYFYA@CAELT@SABO SLLP 041500@CAELT@METAR SLLP 041500Z 07010KT 9999 SCT020 12/03 Q1041 A3077 630.5 HR53@CAELT@P94// AC/CI FU NOSIG=@CAELT@METAR SLRY 041500Z 00000KT 8000 SCT080 33/25 Q1010 A2985 HR63 FU RWY@CAELT@NML=@CAELT@METAR SLRQ 041500Z 00000KT 8000 FEW020 SCT200 34/26 Q1013 A2992 HR65METAR SLSB 041500Z 35004KT 8000 SCT080 31/24 Q1013 A2994 HR65 FU RWY
ZPX0297 041501@CAELT@GG SLZZYMYT@CAELT@041500 SLVRYGYS@CAELT@SABO SLVR 041500@CAELT@METAR SLVR 041500Z 16013KT 9000 NSC 28/12 Q1015 A2998 HR37 FU NOSIG=@CAELT@METAR SLET 041500Z 15012KT 9999 NSC 28/11 Q1015 A2998 HR35 FU NOSIG=@CAELT@METAR SLAS 041500Z 18010KT 6000 NSC 33/19 Q1015 A2997 HR43 FU RWY NML@CAELT@METAR SLJV 041500Z 18010KT 5000 FU NSC 28/18 Q1014 A2994 HR55 RWY NML@CAELT@METAR SLCP 041500Z 19008KT 9999 NSC 30/19 Q1017 A3003 HR51 FU RWY NMLMETAR SLSI 041500Z 19008KT 8000 NSC 32/19 Q1013 A2991 HR46 FU RWY NMLMETAR SLTI 041500Z 00000KT 5000 FU NSC 36/19 Q1015 A2997 HR38 RWY NMLMETAR SLJE 041500Z 18008KT 6000 NSC 31/19 Q1017 A3003 HR51 FU RWY NMLMETAR SLVG 041500Z 36010KT 9999 NSC 24/13 Q1026 A3030 HR46 FU RWY NMLMETAR SLRB 041500Z 00000KT 8000 NSC 27/16 Q1017 A3003 HR52 FU RWY NMLMETAR SLPS 041500Z WO ATTN=METAR SLCA 041500Z 18005KT 9999 NSC 23/10 Q1017 A3003 HR47 FU RWY NML
ZPX0304 041514@CAELT@GG SLZZYMYT@CAELT@041506 SLPSZTZX@CAELT@SABO SLPS RRA 041500@CAELT@METAR RTD SLPS 041500Z 18005KT 5000 FU NSC 28/20 Q1013 A2992 HR62=@CAELT@
ZPX0306 041520@CAELT@GG SLZZYMYT@CAELT@041520 SLVRYGYS@CAELT@SABO SLPS 041500 RRA@CAELT@METAR RTD SLPS 041500Z 18005KT 5000 FU NSC 28/20 Q1013 A2992 HR62=@CAELT@
ZPX0307 041521@CAELT@GG SLZZYMYT@CAELT@041521 SLVRYGYS@CAELT@SABO SLVR 041500 RRA@CAELT@METAR SLVR 041500Z 16013KT 9000 NSC 28/12 Q1015 A2998 HR37 FU NOSIG=@CAELT@METAR SLET 041500Z 15012KT 9999 NSC 28/11 Q1015 A2998 HR35 FU NOSIG=@CAELT@METAR SLAS 041500Z 18010KT 6000 NSC 33/19 Q1015 A2997 HR43 FU RWY NML@CAELT@METAR SLJV 041500Z 18010KT 5000 FU NSC 28/18 Q1014 A2994 HR55 RWY NML@CAELT@METAR SLCP 041500Z 19008KT 9999 NSC 30/19 Q1017 A3003 HR51 FU RWY NMLMETAR SLSI 041500Z 19008KT 8000 NSC 32/19 Q1013 A2991 HR46 FU RWY NMLMETAR SLTI 041500Z 00000KT 5000 FU NSC 36/19 Q1015 A2997 HR38 RWY NMLMETAR SLJE 041500Z 18008KT 6000 NSC 31/19 Q1017 A3003 HR51 FU RWY NMLMETAR SLVG 041500Z 36010KT 9999 NSC 24/13 Q1026 A3030 HR46 FU RWY NMLMETAR SLRB 041500Z 00000KT 8000 NSC 27/16 Q1017 A3003 HR52 FU RWY NMLMETAR RTD SLPS 041500Z 18005KT 5000 FU NSC 28/20 Q1013 A2992 HR62=METAR SLCA 041500Z 18005KT 9999 NSC 23/10 Q1017 A3003 HR47 FU RWY NML
ZPX0322 041551@CAELT@GG SLZZYMYT@CAELT@041551 SLPSZTZX@CAELT@SABO SLPS 041600@CAELT@METAR SLPS 041600Z 19006KT 5000 FU NSC 31/21 Q1012 A2989 HR56=@CAELT@
ZPX0323 041554@CAELT@GG SLZZYMYT@CAELT@041555 SLSBYSYX@CAELT@SABO SLSB 041600@CAELT@METAR SLSB 041600Z 02004KT 8000 NSC 32/25 Q1012 A2991 HR65 FU RWY NML=@CAELT@
ZPX0324 041554@CAELT@GG SLZZYMYT@CAELT@041555 SLVRYGYZ@CAELT@SABO SLVR 041600@CAELT@METAR SLVR 041600Z 15007KT 9000 NSC 30/13 Q1014 A2995 HR35 FU NOSIG=@CAELT@
ZPX0325 041554@CAELT@GG SLZZYMYT@CAELT@041555 SLSAYGYS@CAELT@SABO SLSA 041600@CAELT@METAR SLSA 041600Z 19005KT 8000 SCT080 32/22 Q1011 A2988 HR53 FU=@CAELT@
ZPX0326 041554@CAELT@GG SLZZYMYT@CAELT@041555 SLSAYGYS@CAELT@SABO SLSA 041600@CAELT@METAR SLSA 041600Z 19005KT 8000 SCT080 32/22 Q1011 A2988 HR53 FU=@CAELT@
ZPX0327 041555@CAELT@GG SLZZYMYT@CAELT@041554 SLRBYGYS@CAELT@SABO SLRB 041600@CAELT@METAR SLRB 041600Z 00000KT 8000 NSC 29/19 Q1016 A3000 HR56 FU RWY NML=@CAELT@
ZPX0329 041555@CAELT@GG SLZZYMYT@CAELT@041555 SLETYMYC@CAELT@SABO SLET 041600@CAELT@METAR SLET 041600Z 10005KT 9999 NSC 30/12 Q1014 A2995 HR32 FU NOSIG=@CAELT@
ZPX0330 041555@CAELT@GG SLZZYMYT@CAELT@041554 SLRYYSYX@CAELT@SABO SLRY 041600@CAELT@METAR SLRY 041600Z 00000KT 8000 NSC 34/25 Q1010 A2985 HR61 FU RWY NML@CAELT@
ZPX0331 041555@CAELT@GG SLZZYMYT@CAELT@041555 SLLPYGYZ@CAELT@SABO SLLP 041600@CAELT@METAR SLLP 041600Z 09014KT 070V130 9999 SCT020 FEW023CB 14/02 Q1041@CAELT@A3074 630.0 HR44 P94// CB/SW AC NOSIG=@CAELT@
ZPX0332 041555@CAELT@GG SLZZYMYT@CAELT@041556 SLCBYGYZ@CAELT@SABO SLCB 041600@CAELT@METAR SLCB 041600Z 27005KT 9999 FEW036 26/02 Q1026 A3032 752.7 HR21@CAELT@NOSIG=@CAELT@
ZPX0333 041556@CAELT@GG SLZZYMYT@CAELT@041556 SLTRYGYZ@CAELT@SABO SLTR 041600@CAELT@METAR SLTR 041600Z 00000KT 9999 NSC 32/24 Q1012 A2991 994.2 HR64@CAELT@NOSIG=@CAELT@
ZPX0334 041556@CAELT@GG SLZZYMYT@CAELT@041556 SLVRYGYS@CAELT@SABO SLVR 041600@CAELT@METAR SLVR 041600Z 15007KT 9000 NSC 30/13 Q1014 A2995 HR35 FU NOSIG=@CAELT@METAR SLET 041600Z 10005KT 9999 NSC 30/12 Q1014 A2995 HR32 FU NOSIG=@CAELT@METAR SLAS 041600Z 18005KT 6000 NSC 35/20 Q1014 A2994 HR41 FU RWY NML@CAELT@METAR SLJV 041600Z 18010KT 5000 FU NSC 29/18 Q1014 A2994 HR54 RWY NML@CAELT@METAR SLCP 041600Z 00000KT 9999 NSC 32/21 Q1016 A3000 HR53 FU RWY NMLMETAR SLSI 041600Z 24006KT 8000 NSC 34/19 Q1013 A2991 HR40 FU RWY NMLMETAR SLTI 041600Z 00000KT 5000 FU NSC 38/20 Q1014 A2994 HR36 RWY NMLMETAR SLJE 041600Z 18006KT 6000 NSC 33/21 Q1016 A3000 HR48 FU RWY NMLMETAR SLVG 041600Z 34013KT 9999 FEW023 26/11 Q1025 A3027 HR34 FU RWYNML=METAR SLRB 041600Z 00000KT 8000 NSC 29/19 Q1016 A3000 HR56 FU RWY NMLMETAR SLPS 041600Z 19006KT 5000 FU NSC 31/21 Q1012 A2989 HR56=METAR SLCA 041600Z 18005KT 9999 NSC 25/09 Q1015 A2997 HR37 FU RWY NML=
ZPX0335 041558@CAELT@GG SLZZYMYT@CAELT@041558 SLRQYSYX@CAELT@SABO SLRQ 041600@CAELT@METAR SLRQ 041600Z 00000KT 8000 FEW020 35/27 Q1013 A2989 HR63 FU=@CAELT@
ZPX0336 041558@CAELT@GG SLZZYMYT@CAELT@041558 SLTRYGYS@CAELT@SABO SLTR 041600@CAELT@METAR SLTR 041600Z 00000KT 9999 NSC 32/24 Q1012 A2991 994.2 HR64@CAELT@NOSIG=@CAELT@METAR SLGM 041600Z 21006KT 5000 FU SCT017 BKN200 34/25 Q1012 A2988@CAELT@HR61=@CAELT@METAR SLRI 041600Z 25005KT 7000 FEW017 BKN200 32/28 Q1013 A2993 HR79METAR SLJO 041600Z 27008KT 7000 NSC 35/22 Q1011 A2988 HR45 FU CIRWY NML=METAR SLRA 041600Z 14006KT 8000 NSC 36/21 Q1012 A2989 HR42 FU CIMETAR SLMG 041600Z 14006KT 8000 NSC 35/22 Q1011 A2986 HR49 FU CIMETAR SLBU 041600Z 27006KT 8000 NSC 35/22 Q1012 A2989 HR46 FUMETAR SLSA 041600Z 19005KT 8000 SCT080 32/22 Q1011 A2988 HR53 FU=METAR SLSR 041600Z 35004KT 8000 FEW080 BKN200 32/24 Q1012 A2989HR63 FU RWY NML=METAR SLSM 041600Z 00000KT 9999 NSC 32/23 Q1013 A2993 HR58 FU
ZPX0337 041559@CAELT@GG SLZZYMYT@CAELT@041559 SLCBYGYS@CAELT@SABO SLCB 041600@CAELT@METAR SLCB 041600Z 27005KT 9999 FEW036 26/02 Q1026 A3032 752.7 HR21@CAELT@NOSIG=@CAELT@METAR SLAL 041600Z 31008KT 9999 FEW020 22/02 Q1031 A3046 705.3 HR29=@CAELT@
ZPX0338 041600@CAELT@GG SLZZYMYT@CAELT@041559 SLLPYFYA@CAELT@SABO SLLP 041600@CAELT@METAR SLLP 041600Z 09014KT 070V130 9999 SCT020 FEW023CB 14/02 Q1041@CAELT@A3074 630.0 HR44 P94// CB/SW AC NOSIG=@CAELT@METAR SLRY 041600Z 00000KT 8000 NSC 34/25 Q1010 A2985 HR61 FU RWY@CAELT@NML=@CAELT@METAR SLRQ 041600Z 00000KT 8000 FEW020 35/27 Q1013 A2989 HR63 FU=METAR SLSB 041600Z 02004KT 8000 NSC 32/25 Q1012 A2991 HR65 FU RWY
ZPX0359 041651@CAELT@GG SLZZYMYT@CAELT@041651 SLRBYGYS@CAELT@SABO SLRB 041700@CAELT@METAR SLRB 041700Z 00000KT 8000 NSC 30/19 Q1015 A2997 HR52 FU RWY NML=@CAELT@
ZPX0360 041653@CAELT@GG SLZZYMYT@CAELT@041650 SLCAYGYS@CAELT@SABO SLCA 041700@CAELT@METAR SLCA 041700Z 18005KT 9999 NSC 28/11 Q1014 A2994 HR36 FU RWY NML@CAELT@
ZPX0361 041654@CAELT@GG SLZZYMYT@CAELT@041655 SLRQYSYX@CAELT@SABO SLRQ 041700@CAELT@METAR SLRQ 041700Z 36004KT 8000 FEW020 35/27 Q1011 A2987 987.3 HR62@CAELT@
ZPX0362 041654@CAELT@GG SLZZYMYT@CAELT@041652 SLPSZTZX@CAELT@SABO SLPS 041700@CAELT@METAR SLPS 041700Z 24008KT 5000 FU NSC 33/21 Q1011 A2986 HR50=@CAELT@
ZPX0363 041654@CAELT@GG SLZZYMYT@CAELT@041655 SLSBYSYX@CAELT@SABO SLSB 041700@CAELT@METAR SLSB 041700Z 06005KT 9999 NSC 33/26 Q1011 A2988 HR66 FU RWY NML=@CAELT@
ZPX0364 041654@CAELT@GG SLZZYMYT@CAELT@041655 SLLPYGYZ@CAELT@SABO SLLP 041700@CAELT@METAR SLLP 041700Z 10010KT 060V150 9999 SCT020 FEW023CB 13/01 Q1040@CAELT@A3072 629.4 HR46 P0784 CB/SH N/SW/W AC NOSIG=@CAELT@
ZPX0365 041655@CAELT@GG SLZZYMYT@CAELT@041653 SLRYYSYX@CAELT@SABO SLRY 041700@CAELT@METAR SLRY 041700Z 00000KT 8000 NSC 35/26 Q1010 A2982 HR58 FU RWY NML@CAELT@
ZPX0366 041656@CAELT@GG SLZZYMYT@CAELT@041654 SLETYMYC@CAELT@SABO SLET 041700@CAELT@METAR SLET 041700Z 09003KT 9000 NSC 32/14 Q1012 A2990 HR34 FU NOSIG=@CAELT@
ZPX0367 041656@CAELT@GG SLZZYMYT@CAELT@041655 SLCBYGYZ@CAELT@SABO SLCB 041700@CAELT@METAR SLCB 041700Z 25006KT 9999 SCT036 27/03 Q1025 A3027 751.5 HR21@CAELT@NOSIG=@CAELT@
ZPX0368 041657@CAELT@GG SLZZYMYT@CAELT@041656 SLTRYGYZ@CAELT@SABO SLTR 041700@CAELT@METAR SLTR 041700Z 24004KT 9999 NSC 33/24 Q1011 A2987 992.9 HR60@CAELT@FU CI NOSIG=@CAELT@
ZPX0369 041657@CAELT@GG SLZZYMYT@CAELT@041657 SLCBYGYS@CAELT@SABO SLCB 041700@CAELT@METAR SLCB 041700Z 25006KT 9999 SCT036 27/03 Q1025 A3027 751.5 HR21@CAELT@NOSIG=@CAELT@METAR SLAL 041700Z 30003KT 9999 FEW023 22/02 Q1030 A3042 704.3 HR29=@CAELT@
ZPX0370 041657@CAELT@GG SLZZYMYT@CAELT@041658 SLVRYGYZ@CAELT@SABO SLVR 041700@CAELT@METAR SLVR 041700Z 12004KT 9000 NSC 31/12 Q1012 A2991 HR32 FU NOSIG=@CAELT@
ZPX0371 041659@CAELT@GG SLZZYMYT@CAELT@041659 SLVRYGYS@CAELT@SABO SLVR 041700@CAELT@METAR SLVR 041700Z 12004KT 9000 NSC 31/12 Q1012 A2991 HR32 FU NOSIG=@CAELT@METAR SLET 041700Z 09003KT 9000 NSC 32/14 Q1012 A2990 HR34 FU NOSIG=@CAELT@METAR SLAS 041700Z 18005KT 5000 FU NSC 35/20 Q1013 A2991 HR40 RWY NML@CAELT@METAR SLJV 041700Z 18010KT 5000 FU NSC 29/19 Q1014 A2994 HR53 RWY NML@CAELT@METAR SLCP 041700Z 24004KT 9999 NSC 33/21 Q1014 A2994 HR49 FU RWY NMLMETAR SLSI 041700Z 19006KT 8000 NSC 36/18 Q1011 A2985 HR35 FU RWY NMLMETAR SLTI 041700Z 00000KT 5000 FU NSC 39/21 Q1012 A2988 HR35 RWY NMLMETAR SLJE 041700Z 18005KT 6000 NSC 35/21 Q1015 A2997 HR45 FU RWY NMLMETAR SLVG 041700Z 35012KT 9999 FEW023 27/13 Q1024 A3024 HR36 FU RWYNML=METAR SLRB 041700Z 00000KT 8000 NSC 30/19 Q1015 A2997 HR52 FU RWY NMLMETAR SLPS 041700Z 24008KT 5000 FU NSC 33/21 Q1011 A2986 HR50=METAR SLCA 041700Z 18005KT 9999 NSC 28/11 Q1014 A2994 HR36 FU RWY NML=
ZPX0373 041700@CAELT@GG SLZZYMYT@CAELT@041700 SLLPYFYA@CAELT@SABO SLLP 041700@CAELT@METAR SLLP 041700Z 10010KT 060V150 9999 SCT020 FEW023CB 13/01 Q1040@CAELT@A3072 629.4 HR46 P0784 CB/SH N/SW/W AC NOSIG=@CAELT@METAR SLRY 041700Z 00000KT 8000 NSC 35/26 Q1010 A2982 HR58 FU@CAELT@RWY NML=@CAELT@METAR SLRQ 041700Z 36004KT 8000 FEW020 35/27 Q1011 A2987 987.3HR62 FU=METAR SLSB 041700Z 06005KT 9999 NSC 33/26 Q1011 A2988 HR66 FU RWY NML
ZPX0374 041701@CAELT@GG SLZZYMYT@CAELT@041700 SLTRYGYS@CAELT@SABO SLTR 041700@CAELT@METAR SLTR 041700Z 24004KT 9999 NSC 33/24 Q1011 A2987 992.9 HR60@CAELT@FU CI NOSIG=@CAELT@METAR SLGM 041700Z 21005KT 5000 FU SCT017 BKN080 BKN200 34/25@CAELT@Q1011 A2987 HR59=@CAELT@METAR SLRI 041700Z 27006KT 7000 FEW017 BKN200 33/29 Q1012 A2991 HR79FU AC=METAR SLJO 041700Z 27006KT 7000 NSC 36/22 Q1011 A2986 HR45 FU CIRWY NML=METAR SLRA 041700Z 30007KT 8000 NSC 37/21 Q1011 A2986 HR40 FU CIRW NML=METAR SLMG 041700Z 16008KT 8000 NSC 37/23 Q1010 A2983 HR44 FU CIMETAR SLBU 041700Z 27006KT 8000 NSC 36/21 Q1011 A2986 HR41 FUMETAR SLSA 041700Z NIL=METAR SLSR 041700Z 35004KT 8000 FEW017 BKN200 34/25 Q1010 A2984HR58 FU RWY NML=METAR SLSM 041700Z 00000KT 9999 NSC 33/21 Q1012 A2990 HR49 FU CI
ZPX0388 041751@CAELT@GG SLZZYMYT@CAELT@041751 SLRBYGYS@CAELT@SABO SLRB 041800@CAELT@METAR SLRB 041800Z 00000KT 8000 NSC 32/21 Q1013 A2991 HR51 FU RWY NML=@CAELT@
ZPX0389 041752@CAELT@GG SLZZYMYT@CAELT@041751 SLPSZTZX@CAELT@SABO SLPS 041800@CAELT@METAR SLPS 041800Z 24006KT 5000 FU NSC 34/21 Q1010 A2983 HR48=@CAELT@
ZPX0390 041754@CAELT@GG SLZZYMYT@CAELT@041755 SLETYMYC@CAELT@SABO SLET 041800@CAELT@METAR SLET 041800Z 30005KT 8000 NSC 33/15 Q1010 A2985 HR34 FU NOSIG=@CAELT@
ZPX0392 041755@CAELT@GG SLZZYMYT@CAELT@041754 SLCAYGYS@CAELT@SABO SLCA 041800@CAELT@METAR SLCA 041800Z 18005KT 9999 NSC 30/11 Q1013 A2991 HR33 FU RWY NML@CAELT@
ZPX0393 041755@CAELT@GG SLZZYMYT@CAELT@041753 SLRYYSYX@CAELT@SABO SLRY 041800@CAELT@METAR SLRY 041800Z 00000KT 8000 FEW020 36/25 Q1008 A2979 HR55 FU RWY@CAELT@NML=@CAELT@
ZPX0394 041755@CAELT@GG SLZZYMYT@CAELT@041755 SLVRYGYZ@CAELT@SABO SLVR 041800@CAELT@METAR SLVR 041800Z VRB02KT 9000 NSC 33/15 Q1011 A2986 HR35 FU NOSIG=@CAELT@
ZPX0395 041755@CAELT@GG SLZZYMYT@CAELT@041756 SLVRYGYS@CAELT@SABO SLVR 041800@CAELT@METAR SLVR 041800Z VRB02KT 9000 NSC 33/15 Q1011 A2986 HR35 FU NOSIG=@CAELT@METAR SLET 041800Z 30005KT 8000 NSC 33/15 Q1010 A2985 HR34 FU NOSIG=@CAELT@METAR SLAS 041800Z 27004KT 5000 FU NSC 38/21 Q1012 A2989 HR37 RWY NML@CAELT@METAR SLJV 041800Z 18010KT 5000 FU NSC 34/20 Q1011 A2985 HR45 RWY NML@CAELT@METAR SLCP 041800Z 00000KT 9000 NSC 35/21 Q1013 A2991 HR46 FU RWY NMLMETAR SLSI 041800Z 00000KT 8000 NSC 37/19 Q1010 A2983 HR35 FU RWY NMLMETAR SLTI 041800Z 00000KT 6000 NSC 40/20 Q1011 A2985 HR34 FU RWY NMLMETAR SLJE 041800Z 18005KT 6000 NSC 36/23 Q1014 A2994 HR45 FU RWY NMLMETAR SLVG 041800Z 36014KT 9999 FEW023 27/12 Q1023 A3021 HR36 FU RWYNML=METAR SLRB 041800Z 00000KT 8000 NSC 32/21 Q1013 A2991 HR51 FU RWY NMLMETAR SLPS 041800Z 24006KT 5000 FU NSC 34/21 Q1010 A2983 HR48=METAR SLCA 041800Z 18005KT 9999 NSC 30/11 Q1013 A2991 HR33 FU RWY NML=
ZPX0396 041756@CAELT@GG SLZZYMYT@CAELT@041755 SLRQYSYX@CAELT@SABO SLRQ 041800@CAELT@METAR SLRQ 041800Z 36004KT 8000 FEW020 35/26 Q1010 A2983 986.0 HR60@CAELT@
ZPX0397 041756@CAELT@GG SLZZYMYT@CAELT@041756 SLTRYGYZ@CAELT@SABO SLTR 041800@CAELT@METAR SLTR 041800Z 27006KT 8000 NSC 33/23 Q1010 A2983 991.5 HR56@CAELT@FU CI NOSIG=@CAELT@
ZPX0398 041757@CAELT@GG SLZZYMYT@CAELT@041756 SLLPYGYZ@CAELT@SABO SLLP 041800@CAELT@METAR SLLP 041800Z 08006KT 040V110 9999 SCT020 FEW023CB 15/01 Q1039@CAELT@A3069 628.7 HR39 P3483 CB/SH SW/NW AC NOSIG=@CAELT@
ZPX0400 041757@CAELT@GG SLZZYMYT@CAELT@041757 SLCBYGYZ@CAELT@SABO SLCB 041800@CAELT@METAR SLCB 041800Z 33006KT 9999 SCT036 26/04 Q1023 A3023 750.5 HR24@CAELT@NOSIG=@CAELT@
ZPX0401 041758@CAELT@GG SLZZYMYT@CAELT@041758 SLCBYGYS@CAELT@SABO SLCB 041800@CAELT@METAR SLCB 041800Z 33006KT 9999 SCT036 26/04 Q1023 A3023 750.5 HR24@CAELT@NOSIG=@CAELT@METAR SLAL 041800Z 03015KT 9999 FEW023 23/03 Q1028 A3038 703.5 HR27=@CAELT@
ZPX0403 041759@CAELT@GG SLZZYMYT@CAELT@041759 SLSBYSYX@CAELT@SABO SLSB 041800@CAELT@METAR SLSB 041800Z VRB02KT 9999 NSC 34/25 Q1010 A2983 HR60 RWY NML=@CAELT@
ZPX0405 041800@CAELT@GG SLZZYMYT@CAELT@041800 SLLPYFYA@CAELT@SABO SLLP 041800@CAELT@METAR SLLP 041800Z 08006KT 040V110 9999 SCT020 FEW023CB 15/01 Q1039@CAELT@A3069 628.7 HR39 P3483 CB/SH SW/NW AC NOSIG=@CAELT@METAR SLRY 041800Z 00000KT 8000 FEW020 36/25 Q1008 A2979 HR55 FU RWY@CAELT@NML=@CAELT@METAR SLRQ 041800Z 36004KT 8000 FEW020 35/26 Q1010 A2983 986.0 HR60METAR SLSB 041800Z VRB02KT 9999 NSC 34/25 Q1010 A2983 HR60 RWY NML=
ZPX0406 041802@CAELT@GG SLZZYMYT@CAELT@041800 SLTRYGYS@CAELT@SABO SLTR 041800@CAELT@METAR SLTR 041800Z 27006KT 8000 NSC 33/23 Q1010 A2983 991.5 HR56@CAELT@FU CI NOSIG=@CAELT@METAR SLGM 041800Z NIL=@CAELT@METAR SLRI 041800Z 23005KT 7000 FEW017 SCT080 BKN200 34/30 Q1011@CAELT@A2988 HR81 FU=METAR SLJO 041800Z 30004KT 7000 FEW020 BKN200 37/22 Q1010 A2983 HR41FU RWY NML=METAR SLRA 041800Z 16003KT 8000 FEW023 SCT200 38/20 Q1010 A2983 HR36METAR SLMG 041800Z 16004KT 8000 FEW020 KN200 37/22 Q1009 A2980 HR41METAR SLBU 041800Z 27004KT 8000 FEW017 37/22 Q1010 A2983 HR42 FURWY NML=METAR SLSA 041800Z NIL=METAR SLSR 041800Z 35006KT 8000 FEW017 BKN200 35/25 Q1009 A2980 HR57METAR SLSM 041800Z 00000KT 9999 NSC 34/22 Q1010 A2985 HR49 FU
ZPX0421 041840@CAELT@GG SLZZYMYT@CAELT@041840 SLTRYGYS@CAELT@SABO SLTR 041800 CCA@CAELT@METAR SLTR 041800Z 27006KT 8000 NSC 33/23 Q1010 A2983 991.5 HR56@CAELT@FU CI NOSIG=@CAELT@METAR SLGM 041800Z NIL=@CAELT@METAR SLRI 041800Z 23005KT 7000 FEW017 SCT080 BKN200 34/30 Q1011@CAELT@A2988 HR81 FU=METAR SLJO 041800Z 30004KT 7000 FEW020 BKN200 37/22 Q1010 A2983 HR41FU RWY NML=METAR SLRA 041800Z 16003KT 8000 FEW023 SCT200 38/20 Q1010 A2983 HR36METAR COR SLMG 041800Z 16004KT 8000 FEW020 BKN200 37/22 Q1009 A2980HR41 FU RWY NML=METAR SLBU 041800Z 27004KT 8000 FEW017 37/22 Q1010 A2983 HR42 FURWY NML=METAR SLSA 041800Z NIL=METAR SLSR 041800Z 35006KT 8000 FEW017 BKN200 35/25 Q1009 A2980 HR57METAR SLSM 041800Z 00000KT 9999 NSC 34/22 Q1010 A2985 HR49 FU
ZPX0425 041849@CAELT@GG SLZZYMYT@CAELT@041848 SLPSZTZX@CAELT@SABO SLPS 041900@CAELT@METAR SLPS 041900Z 24010KT 6000 NSC 36/22 Q1009 A2980 HR45 FU=@CAELT@
ZPX0426 041850@CAELT@GG SLZZYMYT@CAELT@041850 SLRBYGYS@CAELT@SABO SLRB 041900@CAELT@METAR SLRB 041900Z 00000KT 8000 NSC 33/20 Q1012 A2988 HR47 FU RWY NML=@CAELT@
ZPX0427 041854@CAELT@GG SLZZYMYT@CAELT@041855 SLSBYSYX@CAELT@SABO SLSB 041900@CAELT@METAR SLSB 041900Z 10003KT 9999 NSC 35/25 Q1009 A2980 HR58 RWY NML=@CAELT@
ZPX0428 041855@CAELT@GG SLZZYMYT@CAELT@041855 SLETYMYC@CAELT@SABO SLET 041900@CAELT@METAR SLET 041900Z 30008KT 8000 NSC 34/15 Q1009 A2981 HR34 FU NOSIG=@CAELT@
ZPX0429 041855@CAELT@GG SLZZYMYT@CAELT@041855 SLCAYGYS@CAELT@SABO SLCA 041900@CAELT@METAR SLCA 041900Z 18005KT 9999 NSC 32/11 Q1011 A2985 HR29 FU RWY NML@CAELT@
ZPX0430 041855@CAELT@GG SLZZYMYT@CAELT@041855 SLVRYGYZ@CAELT@SABO SLVR 041900@CAELT@METAR SLVR 041900Z 33005KT 9000 NSC 33/16 Q1010 A2984 HR36 FU NOSIG=@CAELT@
ZPX0431 041855@CAELT@GG SLZZYMYT@CAELT@041855 SLLPYGYZ@CAELT@SABO SLLP 041900@CAELT@METAR SLLP 041900Z 25009KT 220V280 9999 SCT020 FEW023CB 16/02 Q1038@CAELT@A3067 628.3 HR39 P3483 CB/SH SW/NW AC NOSIG=@CAELT@
ZPX0432 041855@CAELT@GG SLZZYMYT@CAELT@041855 SLRQYSYX@CAELT@SABO SLRQ 041900@CAELT@METAR SLRQ 041900Z 00000KT 8000 FEW020 35/26 Q1009 A2979 984.9 HR59@CAELT@
ZPX0433 041856@CAELT@GG SLZZYMYT@CAELT@041854 SLRYYSYX@CAELT@SABO SLRY 041900@CAELT@METAR SLRY 041900Z 00000KT 8000 NSC 37/25 Q1007 A2976 HR53 FU RWY NML@CAELT@
ZPX0435 041857@CAELT@GG SLZZYMYT@CAELT@041857 SLTRYGYZ@CAELT@SABO SLTR 041900@CAELT@METAR SLTR 041900Z 24006KT 8000 NSC 34/24 Q1008 A2979 990.4 HR56@CAELT@FU CI NOSIG=@CAELT@
ZPX0438 041858@CAELT@GG SLZZYMYT@CAELT@041858 SLVRYGYS@CAELT@SABO SLVR 041900@CAELT@METAR SLVR 041900Z 33005KT 9000 NSC 33/16 Q1010 A2984 HR36 FU NOSIG=@CAELT@METAR SLET 041900Z 30008KT 8000 NSC 34/15 Q1009 A2981 HR34 FU NOSIG=@CAELT@METAR SLAS 041900Z 27004KT 5000 FU NSC 39/21 Q1010 A2983 HR36 RWY NML@CAELT@METAR SLCP 041900Z 30005KT 7000 NSC 36/19 Q1012 A2988 HR38 FU RWY NML@CAELT@METAR SLSI 041900Z 31005KT 8000 SCT020 38/18 Q1008 A2977 HR30 FU RWYNML=METAR SLRB 041900Z 00000KT 8000 NSC 33/20 Q1012 A2988 HR47 FU RWY NMLMETAR SLPS 041900Z 24010KT 6000 NSC 36/22 Q1009 A2980 HR45 FU=METAR SLCA 041900Z 18005KT 9999 NSC 32/11 Q1011 A2985 HR29 FU RWY NML=
ZPX0439 041858@CAELT@GG SLZZYMYT@CAELT@041857 SLCBYGYZ@CAELT@SABO SLCB 041900@CAELT@METAR SLCB 041900Z 35013KT 9999 SCT036 28/04 Q1023 A3021 749.8 HR22@CAELT@NOSIG=@CAELT@
ZPX0440 041858@CAELT@GG SLZZYMYT@CAELT@041858 SLLPYFYA@CAELT@SABO SLLP 041900@CAELT@METAR SLLP 041900Z 25009KT 220V280 9999 SCT020 FEW023CB 16/02 Q1038@CAELT@A3067 628.3 HR39 P3483 CB/SH SW/NW AC NOSIG=@CAELT@METAR SLRY 041900Z 00000KT 8000 NSC 37/25 Q1007 A2976 HR53 FU RWY NML@CAELT@METAR SLRQ 041900Z 00000KT 8000 FEW020 35/26 Q1009 A2979 984.9 HR59@CAELT@METAR SLSB 041900Z 10003KT 9999 NSC 35/25 Q1009 A2980 HR58 RWY NML=
ZPX0442 041900@CAELT@GG SLZZYMYT@CAELT@041900 SLCBYGYS@CAELT@SABO SLCB 041900@CAELT@METAR SLCB 041900Z 35013KT 9999 SCT036 28/04 Q1023 A3021 749.8 HR22@CAELT@NOSIG=@CAELT@METAR SLAL 041900Z 01011KT 9999 FEW023 23/03 Q1027 A3035 702.7 HR27=@CAELT@
ZPX0444 041903@CAELT@GG SLZZYMYT@CAELT@041900 SLTRYGYS@CAELT@SABO SLTR 041900@CAELT@METAR SLTR 041900Z 24006KT 8000 NSC 34/24 Q1008 A2979 990.4 HR56@CAELT@FU CI NOSIG=@CAELT@METAR SLGM 041900Z NIL=@CAELT@METAR SLRI 041900Z 27005KT 7000 FEW017 BKN200 34/30 Q1010 A2983 HR81@CAELT@FU AC=METAR SLJO 041900Z 27006KT 7000 FEW020 BKN200 37/22 Q1009 A2982 HR39FU RWY NML=METAR SLRA 041900Z 03005KT 8000 FEW023 SCT200 38/21 Q1009 A2980 HR36METAR SLMG 041900Z 16004KT 8000 FEW020 BKN200 38/21 Q1008 A2977 HR37METAR SLBU 041900Z 00000KT 8000 FEW017 38/23 Q1009 A2980 HR42 FURWY NML=METAR SLSA 041900Z NIL=METAR SLSR 041900Z 35006KT 8000 FEW017 BKN200 35/25 Q1008 A2977 HR56METAR SLSM 041900Z 00000KT 9999 NSC 24/21 Q1009 A2981 HR46 FU
ZPX0462 041953@CAELT@GG SLZZYMYT@CAELT@041952 SLRBYGYS@CAELT@SABO SLRB 042000@CAELT@METAR SLRB 042000Z 00000KT 8000 NSC 34/22 Q1011 A2985 HR47 FU RWY NML=@CAELT@
ZPX0463 041954@CAELT@GG SLZZYMYT@CAELT@041952 SLRQYSYX@CAELT@SABO SLRQ 042000@CAELT@METAR SLRQ 042000Z 00000KT 8000 FEW020 36/27@CAELT@
ZPX0464 041954@CAELT@GG SLZZYMYT@CAELT@041955 SLETYMYC@CAELT@SABO SLET 042000@CAELT@METAR SLET 042000Z 32010KT 9000 NSC 34/15 Q1008 A2979 HR33 FU NOSIG=@CAELT@
ZPX0465 041955@CAELT@GG SLZZYMYT@CAELT@041955 SLVRYGYZ@CAELT@SABO SLVR 042000@CAELT@METAR SLVR 042000Z 02008KT 9000 NSC 33/16 Q1009 A2981 HR36 FU NOSIG=@CAELT@
ZPX0466 041955@CAELT@GG SLZZYMYT@CAELT@041955 SLSBYSYX@CAELT@SABO SLSB 042000@CAELT@METAR SLSB 042000Z 12004KT 9999 NSC 35/26 Q1008 A2978 HR60 RWY NML=@CAELT@
ZPX0468 041955@CAELT@GG SLZZYMYT@CAELT@041953 SLRYYSYX@CAELT@SABO SLRY 042000@CAELT@METAR SLRY 042000Z 00000KT 8000 FEW020 36/25 Q1007 A2975 HR52 FU RWY@CAELT@NML=@CAELT@
ZPX0469 041956@CAELT@GG SLZZYMYT@CAELT@041955 SLLPYGYZ@CAELT@SABO SLLP 042000@CAELT@METAR SLLP 042000Z 27007KT 210V310 9999 SCT020 FEW023CB 14/01 Q1037@CAELT@A3065 627.9 HR40 P3483 CB/SH S/SW AC NOSIG=@CAELT@
ZPX0470 041956@CAELT@GG SLZZYMYT@CAELT@041955 SLRQYSYX@CAELT@SABO SLRQ 042000@CAELT@METAR SLRQ 042000Z 00000KT 8000 FEW020 36/27 Q1008 A2976 HR58 FU=@CAELT@
ZPX0471 041957@CAELT@GG SLZZYMYT@CAELT@041957 SLVRYGYS@CAELT@SABO SLVR 042000@CAELT@METAR SLVR 042000Z 02008KT 9000 NSC 33/16 Q1009 A2981 HR36 FU NOSIG=@CAELT@METAR SLET 042000Z 32010KT 9000 NSC 34/15 Q1008 A2979 HR33 FU NOSIG=@CAELT@METAR SLAS 042000Z 00000KT 5000 FU NSC 38/21 Q1009 A2980 HR37 RWY NML@CAELT@METAR SLCP 042000Z 30005KT 6000 NSC 36/20 Q1011 A2985 HR40 FU RWY NML@CAELT@METAR SLSI 042000Z 00000KT 8000 SCT020 38/18 Q1007 A2974 HR31 FU RWYNML=METAR SLRB 042000Z 00000KT 8000 NSC 34/22 Q1011 A2985 HR47 FU RWY NMLMETAR SLCA 042000Z 18005KT 9999 NSC 33/13 Q1010 A2983 HR30 FU RWY NML=
ZPX0472 041958@CAELT@GG SLZZYMYT@CAELT@041958 SLTRYGYZ@CAELT@SABO SLTR 042000@CAELT@METAR SLTR 042000Z 26004KT 8000 NSC 34/23 Q1007 A2976 989.3 HR52@CAELT@FU CI NOSIG=@CAELT@
ZPX0473 041958@CAELT@GG SLZZYMYT@CAELT@041958 SLLPYFYA@CAELT@SABO SLLP 042000@CAELT@METAR SLLP 042000Z 27007KT 210V310 9999 SCT020 FEW023CB 14/01 Q1037@CAELT@A3065 627.9 HR40 P3483 CB/SH S/SW AC NOSIG=@CAELT@METAR SLRY 042000Z 00000KT 8000 FEW020 36/25 Q1007 A2975 HR52 FU RWY@CAELT@NML=@CAELT@METAR SLRQ 042000Z 00000KT 8000 FEW020 36/27 Q1008 A2976 HR58 FU=METAR SLSB 042000Z 12004KT 9999 NSC 35/26 Q1008 A2978 HR60 RWY NML=
ZPX0474 041958@CAELT@GG SLZZYMYT@CAELT@041958 SLCBYGYZ@CAELT@SABO SLCB 042000@CAELT@METAR SLCB 042000Z 02012KT 320V050 9999 SCT036 FEW040CB SCT200@CAELT@25/05 Q1022 A3019 749.2 HR26 CB/NE AC NOSIG=@CAELT@
ZPX0477 042000@CAELT@GG SLZZYMYT@CAELT@042000 SLCBYGYS@CAELT@SABO SLCB 042000@CAELT@METAR SLCB 042000Z 02012KT 320V050 9999 SCT036 FEW040CB SCT200@CAELT@25/05 Q1022 A3019 749.2 HR26 CB/NE AC NOSIG=@CAELT@METAR SLAL 042000Z 01012KT 9999 FEW023 23/00 Q1027 A3033 702.4 HR22=@CAELT@
ZPX0481 042007@CAELT@GG SLZZYMYT@CAELT@042000 SLTRYGYS@CAELT@SABO SLTR 042000@CAELT@METAR SLTR 042000Z 26004KT 8000 NSC 34/23 Q1007 A2976 989.3 HR52@CAELT@FU CI NOSIG=@CAELT@METAR SLGM 042000Z NIL=@CAELT@METAR SLRI 042000Z 30005KT 8000 FEW017 BKN080 34/30 Q1007 A2983 HR81@CAELT@FU AC=METAR SLJO 042000Z 27005KT 7000 FEW020 SCT200 37/21 Q1008 A2979 HR40FU RWY NML=METAR SLRA 042000Z 12003KT 8000 FEW023 39/21 Q1007 A2976 HR36 FU CIRWY NML=METAR SLMG 042000Z 16006KT 8000 FEW020 37/21 Q1007 A2976 HR40 FUMETAR SLBU 042000Z NIL=METAR SLSA 042000Z NIL=METAR SLSR 042000Z 35004KT 8000 FEW017 FEW017 BKN200 36/25 Q1006A2973 HR54 FU RWY NML=METAR SLSM 042000Z NIL=
ZPX0486 042018@CAELT@GG SLZZYMYT@CAELT@042017 SLTRYGYS@CAELT@SABO SLTR 042000 RRA@CAELT@METAR SLTR 042000Z 26004KT 8000 NSC 34/23 Q1007 A2976 989.3 HR52@CAELT@FU CI NOSIG=@CAELT@METAR SLGM 042000Z NIL=@CAELT@METAR SLRI 042000Z 30005KT 8000 FEW017 BKN080 34/30 Q1007 A2983 HR81@CAELT@FU AC=METAR SLJO 042000Z 27005KT 7000 FEW020 SCT200 37/21 Q1008 A2979 HR40FU RWY NML=METAR SLRA 042000Z 12003KT 8000 FEW023 39/21 Q1007 A2976 HR36 FU CIRWY NML=METAR SLMG 042000Z 16006KT 8000 FEW020 37/21 Q1007 A2976 HR40 FUMETAR SLBU 042000Z NIL=METAR SLSA 042000Z NIL=METAR SLSR 042000Z 35004KT 8000 FEW017 BKN200 36/25 Q1006 A2973 HR54METAR RTD SLSM 042000Z 00000KT 9999 NSC 35/22 Q1008 A2978 HR96 FU
ZPX0493 042054@CAELT@GG SLZZYMYT@CAELT@042055 SLVRYGYZ@CAELT@SABO SLVR 042100@CAELT@METAR SLVR 042100Z 36007KT 9000 NSC 33/16 Q1009 A2980 HR37 FU NOSIG=@CAELT@
ZPX0494 042055@CAELT@GG SLZZYMYT@CAELT@042055 SLETYMYC@CAELT@SABO SLET 042100@CAELT@METAR SLET 042100Z 32012KT 9000 NSC 32/16 Q1008 A2977 HR38 FU NOSIG=@CAELT@
ZPX0496 042055@CAELT@GG SLZZYMYT@CAELT@042055 SLSBYSYX@CAELT@SABO SLSB 042100@CAELT@METAR SLSB 042100Z 12004KT 9999 NSC 34/25 Q1008 A2976 HR59 RWY NML=@CAELT@
ZPX0497 042056@CAELT@GG SLZZYMYT@CAELT@042056 SLCAYGYS@CAELT@SABO SLCA 042100@CAELT@METAR SLCA 042100Z 12008KT 9999 NSC 33/13 Q1010 A2983 HR31 FU RWY NML@CAELT@
ZPX0498 042056@CAELT@GG SLZZYMYT@CAELT@042056 SLTRYGYZ@CAELT@SABO SLTR 042100@CAELT@METAR SLTR 042100Z 00000KT 8000 NSC 34/23 Q1007 A2974 988.7 HR53@CAELT@FU NOSIG=@CAELT@
ZPX0499 042056@CAELT@GG SLZZYMYT@CAELT@042055 SLLPYGYZ@CAELT@SABO SLLP 042100@CAELT@METAR SLLP 042100Z 25011KT 9999 SCT020 FEW023CB SCT200 14/01 Q1037@CAELT@A3065 627.9 HR40 P1783 CB/SH NE/S AC NOSIG=@CAELT@
ZPX0500 042056@CAELT@GG SLZZYMYT@CAELT@042054 SLRYYSYX@CAELT@SABO SLRY 042100@CAELT@METAR SLRY 042100Z 00000KT 8000 NSC 37/23 Q1006 A2972 HR46 FU RWY NML@CAELT@
ZPX0501 042058@CAELT@GG SLZZYMYT@CAELT@042056 SLRBYGYS@CAELT@SABO SLRB 042100@CAELT@METAR SLRB 042100Z 00000KT 8000 NSC 34/22 Q1010 A2983 HR47 FU RWY NML=@CAELT@
ZPX0502 042058@CAELT@GG SLZZYMYT@CAELT@042057 SLRQYSYX@CAELT@SABO SLRQ 042100@CAELT@METAR SLRQ 042100Z 00000KT 8000 FEW020 35/26 Q1007 A2975 HR58 FU=@CAELT@
ZPX0503 042058@CAELT@GG SLZZYMYT@CAELT@042059 SLVRYGYS@CAELT@SABO SLVR 042100@CAELT@METAR SLVR 042100Z 36007KT 9000 NSC 33/16 Q1009 A2980 HR37 FU NOSIG=@CAELT@METAR SLET 042100Z 32012KT 9000 NSC 32/16 Q1008 A2977 HR38 FU NOSIG=@CAELT@METAR SLAS 042100Z 00000KT 5000 FU NSC 37/21 Q1009 A2980 HR40 RWY NML@CAELT@METAR SLCP 042100Z 00000KT 6000 NSC 35/21 Q1011 A2985 HR44 FU RWY NML@CAELT@METAR SLSI 042100Z 00000KT 8000 NSC 38/19 Q1007 A2974 HR33 FU RWY NMLMETAR SLRB 042100Z 00000KT 8000 NSC 34/22 Q1010 A2983 HR47 FU RWY NMLMETAR SLCA 042100Z 12008KT 9999 NSC 33/13 Q1010 A2983 HR31 FU RWY NML=
ZPX0504 042059@CAELT@GG SLZZYMYT@CAELT@042057 SLCBYGYZ@CAELT@SABO SLCB 042100@CAELT@METAR SLCB 042100Z 36010KT 9999 FEW036 FEW040CB 26/05 Q1021 A3017 748@CAELT@.8 HR25 CB DIST/N AC/CI FU NOSIG=@CAELT@
ZPX0505 042059@CAELT@GG SLZZYMYT@CAELT@042059 SLTRYGYS@CAELT@SABO SLTR 042100@CAELT@METAR SLTR 042100Z 00000KT 8000 NSC 34/23 Q1007 A2974 988.7 HR53@CAELT@FU NOSIG=@CAELT@METAR SLGM 042100Z NIL@CAELT@METAR SLRI 042100Z 30007KT 7000 NSC 34/30 Q1008 HR81 FU CI=@CAELT@METAR SLJO 042100Z 27004KT 8000 FEW020 SCT200 37/21 Q1007 A2976HR41 FU RWY NMLMETAR SLRA 042100Z 09005KT 8000 FEW023 38/21 Q1007 A2974 HR36 FUCI RWY NMLMETAR SLMG 042100Z 16004KT 8000 FEW020 37/22 Q1007 A2975 HR41 FURWY NML=METAR SLBU 042100Z NIL=HR51 FU RWY NML=METAR SLSM 042100Z 00000KT 9999 NSC 35/25 Q1006 A2973 HR55 FU
ZPX0506 042059@CAELT@GG SLZZYMYT@CAELT@042059 SLLPYFYA@CAELT@SABO SLLP 042100@CAELT@METAR SLLP 042100Z 25011KT 9999 SCT020 FEW023CB SCT200 14/01 Q1037@CAELT@A3065 627.9 HR40 P1783 CB/SH NE/S AC NOSIG=@CAELT@METAR SLRY 042100Z 00000KT 8000 NSC 37/23 Q1006 A2972 HR46 FU RWY@CAELT@NML=@CAELT@METAR SLRQ 042100Z 00000KT 8000 FEW020 35/26 Q1007 A2975 HR58 FU=METAR SLSB 042100Z 12004KT 9999 NSC 34/25 Q1008 A2976 HR59 RWY NML=
ZPX0520 042154@CAELT@GG SLZZYMYT@CAELT@042154 SLCAYGYS@CAELT@SABO SLCA 042200@CAELT@METAR SLCA 042200Z 18005KT 9999 NSC 32/15 Q1010 A2983 HR37 FU RWY NML@CAELT@
ZPX0521 042154@CAELT@GG SLZZYMYT@CAELT@042155 SLVRYGYZ@CAELT@SABO SLVR 042200@CAELT@METAR SLVR 042200Z 34006KT 9000 NSC 30/17 Q1009 A2980 HR45 FU NOSIG=@CAELT@
ZPX0522 042155@CAELT@GG SLZZYMYT@CAELT@042155 SLSBYSYX@CAELT@SABO SLSB 042200@CAELT@METAR SLSB 042200Z 00000KT 9999 NSC 33/26 Q1007 A2974 HR67 RWY NML=@CAELT@
ZPX0523 042155@CAELT@GG SLZZYMYT@CAELT@042155 SLVRYGYS@CAELT@SABO SLVR 042200@CAELT@METAR SLVR 042200Z 34006KT 9000 NSC 30/17 Q1009 A2980 HR45 FU NOSIG=@CAELT@METAR SLET 042200Z 33010KT 9000 NSC 30/15 Q1008 A2977 HR40 FU NOSIG=@CAELT@METAR SLAS 042200Z 00000KT 5000 FU NSC 34/21 Q1009 A2980 HR46 RWY NML@CAELT@METAR SLCP 042200Z 00000KT 6000 NSC 34/22 Q1011 A2985 HR49 FU RWY NML@CAELT@METAR SLSI 042200Z 00000KT 8000 NSC 36/20 Q1007 A2974 HR39 FU RWY NMLMETAR SLCA 042200Z 18005KT 9999 NSC 32/15 Q1010 A2983 HR37 FU RWY NML=
ZPX0524 042155@CAELT@GG SLZZYMYT@CAELT@042153 SLRYYSYX@CAELT@SABO SLRY 042200@CAELT@METAR SLRY 042200Z 00000KT 8000 NSC 34/26 Q1005 A2970 HR64 FU RWY NML@CAELT@
ZPX0525 042156@CAELT@GG SLZZYMYT@CAELT@042156 SLTRYGYZ@CAELT@SABO SLTR 042200@CAELT@METAR SLTR 042200Z 00000KT 8000 NSC 33/25 Q1007 A2974 988.8 HR61@CAELT@FU NOSIG=@CAELT@
ZPX0526 042156@CAELT@GG SLZZYMYT@CAELT@042155 SLRQYSYX@CAELT@SABO SLRQ 042200@CAELT@METAR SLRQ 042200Z 00000KT 9999 FEW020 33/28 Q1007 A2974 HR74 FU=@CAELT@
ZPX0527 042156@CAELT@GG SLZZYMYT@CAELT@042156 SLCBYGYZ@CAELT@SABO SLCB 042200@CAELT@METAR SLCB 042200Z 35010KT 9999 FEW036 24/06 Q1021 A3018 749.0 HR30@CAELT@NOSIG=@CAELT@
ZPX0528 042156@CAELT@GG SLZZYMYT@CAELT@042155 SLETYMYC@CAELT@SABO SLET 042200@CAELT@METAR SLET 042200Z 33010KT 9000 NSC 30/15 Q1008 A2977 HR40 FU NOSIG=@CAELT@
ZPX0530 042157@CAELT@GG SLZZYMYT@CAELT@042156 SLRBYGYS@CAELT@SABO SLRB 042200@CAELT@METAR SLRB 042200Z 00000KT 8000 NSC 33/22 Q1010 A2983 HR54 FU RWY NML=@CAELT@
ZPX0531 042157@CAELT@GG SLZZYMYT@CAELT@042157 SLLPYGYZ@CAELT@SABO SLLP 042200@CAELT@METAR SLLP 042200Z VRB02KT 9999 FEW017 FEW020CB 11/00 Q1037 A3065 627@CAELT@.9 HR46 P93// CB/SH S AC NOSIG=@CAELT@
ZPX0533 042159@CAELT@GG SLZZYMYT@CAELT@042159 SLTRYGYS@CAELT@SABO SLTR 042200@CAELT@METAR SLTR 042200Z 00000KT 8000 NSC 33/25 Q1007 A2974 988.8 HR61@CAELT@FU NOSIG=@CAELT@METAR SLGM 042200Z NIL=@CAELT@METAR SLRI 042200Z 00000KT 5000 FU FEW080 BKN200 33/30 Q1008 A2977@CAELT@HR80=METAR SLJO 042200Z 00000KT 8000 FEW020 36/22 Q1007 A2976 HR44 FU CIRWY NML=METAR SLRA 042200Z 14003KT 8000 FEW023 37/22 Q1007 A2974 HR41 FU CIMETAR SLMG 042200Z 00000KT 8000 FEW020 36/23 Q1007 A2975 HR46 FUMETAR SLBU 042200Z NIL=METAR SLSA 042200Z NIL=METAR SLSR 042200Z 00000KT 8000 FEW017 SCT200 35/24 Q1005 A2970 HR53FU RWY NML=METAR SLSM 042200Z 00000KT 9999 NSC 35/27 Q1006 A2973 HR64 FU RWY NML
ZPX0534 042159@CAELT@GG SLZZYMYT@CAELT@042159 SLLPYFYA@CAELT@SABO SLLP 042200@CAELT@METAR SLLP 042200Z VRB02KT 9999 FEW017 FEW020CB 11/00 Q1037 A3065@CAELT@627.9 HR46 P93// CB/SH S AC NOSIG=@CAELT@METAR SLRY 042200Z 00000KT 8000 NSC 34/26 Q1005 A2970 HR64 FU RWY@CAELT@NML=@CAELT@METAR SLRQ 042200Z 00000KT 9999 FEW020 33/28 Q1007 A2974 HR74 FU=METAR SLSB 042200Z 00000KT 9999 NSC 33/26 Q1007 A2974 HR67 RWY NML=
ZPX0537 042204@CAELT@GG SLZZYMYT@CAELT@042205 SLVRYGYS@CAELT@SABO SLVR 042200 RRB@CAELT@METAR SLVR 042200Z 34006KT 9000 NSC 30/17 Q1009 A2980 HR45 FU NOSIG=@CAELT@METAR SLET 042200Z 33010KT 9000 NSC 30/15 Q1008 A2977 HR40 FU NOSIG=@CAELT@METAR SLAS 042200Z 00000KT 5000 FU NSC 34/21 Q1009 A2980 HR46 RWY NML@CAELT@METAR SLCP 042200Z 00000KT 6000 NSC 34/22 Q1011 A2985 HR49 FU RWY NML@CAELT@METAR SLSI 042200Z 00000KT 8000 NSC 36/20 Q1007 A2974 HR39 FU RWY NMLMETAR RTD SLRB 042200Z 00000KT 8000 NSC 33/22 Q1010 A2983 HR54 FU RWYNML=METAR SLCA 042200Z 18005KT 9999 NSC 32/15 Q1010 A2983 HR37 FU RWY NML=
ZPX0543 042246@CAELT@GG SLZZYMYT@CAELT@042245 SLCAYGYS@CAELT@SABO SLCA 042300@CAELT@METAR SLCA 042300Z 18005KT 9999 NSC 28/16 Q1010 A2983 HR49 FU RWY NML@CAELT@
ZPX0544 042250@CAELT@GG SLZZYMYT@CAELT@042250 SLRBYGYS@CAELT@SABO SLRB 042300@CAELT@METAR SLRB 042300Z 00000KT 8000 NSC 30/23 Q1010 A2983 HR66 FU RWY NML=@CAELT@
ZPX0545 042255@CAELT@GG SLZZYMYT@CAELT@042255 SLVRYGYZ@CAELT@SABO SLVR 042300@CAELT@METAR SLVR 042300Z 36005KT 8000 NSC 27/18 Q1009 A2980 HR58 FU NOSIG=@CAELT@
ZPX0546 042256@CAELT@GG SLZZYMYT@CAELT@042256 SLCBYGYZ@CAELT@SABO SLCB 042300@CAELT@METAR SLCB 042300Z 07005KT 9999 FEW036 21/07 Q1022 A3019 749.4 HR39@CAELT@NOSIG=@CAELT@
ZPX0547 042257@CAELT@GG SLLPZRZX@CAELT@042255 SLLPYGYZ@CAELT@SABO SLLP 042300@CAELT@METAR SLLP 042300Z 23003KT 9999 FEW015 10/M01 Q1038 A3066 628.2@CAELT@HR47 AC NOSIG=@CAELT@
ZPX0548 042257@CAELT@GG SLZZYMYT@CAELT@042256 SLSBYSYX@CAELT@SABO SLSB 042300@CAELT@METAR SLSB 042300Z 00000KT 9999 NSC 30/27 Q1007 A2974 HR85 RWY NML=@CAELT@
ZPX0550 042302@CAELT@GG SLZZYMYT@CAELT@042300 SLLPYFYA@CAELT@SABO SLLP 042300@CAELT@METAR SLLP 042300Z 23003KT 9999 FEW015 10/M01 Q1038 A3066 628.2@CAELT@HR47 AC NOSIG=@CAELT@METAR SLSB 042300Z 00000KT 9999 NSC 30/27 Q1007 A2974 HR85 RWY NML=@CAELT@
ZPX0552 042303@CAELT@GG SLZZYMYT@CAELT@042300 SLVRYGYS@CAELT@SABO SLVR 042300@CAELT@METAR SLVR 042300Z 36005KT 8000 NSC 27/18 Q1009 A2980 HR58 FU NOSIG=@CAELT@METAR SLSI 042300Z 00000KT 6000 NSC 33/21 Q1007 A2974 HR49 FU RWY NML@CAELT@METAR SLRB 042300Z 00000KT 8000 NSC 30/23 Q1010 A2983 HR66 FU RWY NML@CAELT@METAR SLCA 042300Z 18005KT 9999 NSC 28/16 Q1010 A2983 HR49 FU RWY NML=@CAELT@
ZPX0566 042354@CAELT@GG SLZZYMYT@CAELT@042355 SLVRYGYZ@CAELT@SABO SLVR 050000@CAELT@METAR SLVR 050000Z 35005KT 8000 NSC 26/18 Q1008 A2979 HR63 FU NOSIG=@CAELT@
ZPX0567 042356@CAELT@GG SLLPZRZX@CAELT@042355 SLLPYGYZ@CAELT@SABO SLLP 050000@CAELT@METAR SLLP 050000Z VRB02KT 9999 FEW015 08/02 Q1039 A3069 628.7 HR64@CAELT@AC NOSIG=@CAELT@
