
ZPX0012 010052@CAELT@GG SLZZYMYT@CAELT@010053 SLVRYGYZ@CAELT@SABO SLVR 010100@CAELT@METAR SLVR 010100Z 34011KT 9999 FEW070 27/21 Q1007 A2976 HR71 NOSIG=@CAELT@
ZPX0013 010054@CAELT@GG SLZZYMYT@CAELT@010054 SLCBYGYZ@CAELT@SABO SLCB 010100@CAELT@METAR SLCB 010100Z 11005KT 9999 FEW036 FEW040CB 18/05 Q1023 A3021 749@CAELT@.8 HR41 CB NE/E FU CI NOSIG=@CAELT@
ZPX0014 010055@CAELT@GG SLLPZRZX@CAELT@010055 SLLPYGYZ@CAELT@SABO SLLP 010100@CAELT@METAR SLLP 010100Z 08005KT 9999 FEW013 FEW017CB SCT200 04/02 Q1037@CAELT@A3064 627.6 HR84 CB/LT SW AC NOSIG=@CAELT@
ZPX0021 010154@CAELT@GG SLZZYMYT@CAELT@010155 SLVRYGYZ@CAELT@SABO SLVR 010200@CAELT@METAR SLVR 010200Z 34011KT 9999 NSC 27/21 Q1008 A2979 HR71 CI NOSIG=@CAELT@
ZPX0022 010155@CAELT@GG SLZZYMYT@CAELT@010155 SLCBYGYZ@CAELT@SABO SLCB 010200@CAELT@METAR SLCB 010200Z 12004KT 9999 FEW036 17/06 Q1023 A3023 750.3 HR48@CAELT@FU CI NOSIG=@CAELT@
ZPX0023 010156@CAELT@GG SLLPZRZX@CAELT@010155 SLLPYGYZ@CAELT@SABO SLLP 010200@CAELT@METAR SLLP 010200Z 07004KT 9999 FEW013 FEW017CB SCT200 05/03 Q1038@CAELT@A3065 627.9 HR86 CB/LT SW AC NOSIG=@CAELT@
ZPX0030 010252@CAELT@GG SLZZYMYT@CAELT@010253 SLVRYGYZ@CAELT@SABO SLVR 010300@CAELT@METAR SLVR 010300Z 34011KT 9999 NSC 27/21 Q1008 A2977 HR72 CI NOSIG=@CAELT@
ZPX0031 010255@CAELT@GG SLLPZRZX@CAELT@010255 SLLPYGYZ@CAELT@SABO SLLP 010300@CAELT@METAR SLLP 010300Z VRB02KT 9999 FEW013 SCT200 03/01 Q1038@CAELT@A3065 628.2 HR90 AC NOSIG=@CAELT@
ZPX0032 010256@CAELT@GG SLZZYMYT@CAELT@010256 SLCBYGYZ@CAELT@SABO SLCB 010300@CAELT@METAR SLCB 010300Z 15003KT 9999 FEW036 15/05 Q1023 A3023 750.3 HR54@CAELT@FU CI NOSIG=@CAELT@
ZPX0042 010352@CAELT@GG SLZZYMYT@CAELT@010353 SLVRYGYZ@CAELT@SABO SLVR 010400@CAELT@METAR SLVR 010400Z 33013G24KT 9999 NSC 27/21 Q1008 A2977 HR72 CI@CAELT@NOSIG=@CAELT@
ZPX0043 010354@CAELT@GG SLZZYMYT@CAELT@010354 SLCBYGYZ@CAELT@SABO SLCB 010400@CAELT@METAR SLCB 010400Z 16003KT 9999 FEW036 14/05 Q1023 A3022 750.2 HR53@CAELT@FU NOSIG=@CAELT@
ZPX0044 010355@CAELT@GG SLLPZRZX@CAELT@010355 SLLPYGYZ@CAELT@SABO SLLP 010400@CAELT@METAR SLLP 010400Z 05006 9999 FEW006 SCT200 02/01 Q1038@CAELT@A3066 628.0 HR94 NOSIG=@CAELT@
ZPX0057 010454@CAELT@GG SLZZYMYT@CAELT@010454 SLCBYGYZ@CAELT@SABO SLCB 010500@CAELT@METAR SLCB 010500Z 14003KT 9999 FEW036 14/05 Q1023 A3022 750.1 HR55@CAELT@FU CI NOSIG=@CAELT@
ZPX0058 010455@CAELT@GG SLLPZRZX@CAELT@010455 SLLPYGYZ@CAELT@SABO SLLP 010500@CAELT@METAR SLLP 010500Z VRB02KT 9999 FEW008 SCT070 03/03 Q1038@CAELT@A3065 627.9 HR96 CI NOSIG=@CAELT@
ZPX0061 010503@CAELT@GG SLZZYMYT@CAELT@010503 SLVRYGYZ@CAELT@SABO SLVR 010500@CAELT@METAR SLVR 010500Z 33013G24KT 9999 NSC 27/21 Q1008 A2977 HR72 CI@CAELT@NOSIG=@CAELT@
ZPX0067 010553@CAELT@GG SLZZYMYT@CAELT@010553 SLVRYGYZ@CAELT@SABO SLVR 010600@CAELT@METAR SLVR 010600Z 33013G23KT 9999 NSC 26/21 Q1007 A2974 HR74 CI@CAELT@NOSIG=@CAELT@
ZPX0068 010554@CAELT@GG SLZZYMYT@CAELT@010554 SLCBYGYZ@CAELT@SABO SLCB 010600@CAELT@METAR SLCB 010600Z 10004KT 9999 FEW036 14/05 Q1023 A3021 749.9 HR56@CAELT@FU CI NOSIG=@CAELT@
ZPX0069 010555@CAELT@GG SLLPZRZX@CAELT@010555 SLLPYGYZ@CAELT@SABO SLLP 010600@CAELT@METAR SLLP 010600Z 07007KT 9999 FEW012 SCT070 04/03 Q1037@CAELT@A3063 627.6 HR90 CI NOSIG=@CAELT@
ZPX0078 010653@CAELT@GG SLZZYMYT@CAELT@010654 SLVRYGYZ@CAELT@SABO SLVR 010700@CAELT@METAR SLVR 010700Z 34015G27KT 9999 NSC 26/21 Q1007 A2974 HR73 CI@CAELT@NOSIG=@CAELT@
ZPX0079 010654@CAELT@GG SLZZYMYT@CAELT@010654 SLCBYGYZ@CAELT@SABO SLCB 010700@CAELT@METAR SLCB 010700Z 20003KT 9999 FEW036 SCT200 13/05 Q1023 A3021 749.8@CAELT@HR58 FU NOSIG=@CAELT@
ZPX0080 010655@CAELT@GG SLLPZRZX@CAELT@010655 SLLPYGYZ@CAELT@SABO SLLP 010700@CAELT@METAR SLLP 010700Z 09005KT 9999 FEW009 SCT070 04/02 Q1036 A3061@CAELT@627.0 HR89 CI NOSIG=@CAELT@
ZPX0087 010754@CAELT@GG SLZZYMYT@CAELT@010754 SLCBYGYZ@CAELT@SABO SLCB 010800@CAELT@METAR SLCB 010800Z 16004KT 9999 FEW036 SCT200 13/05 Q1023 A3021 749.9@CAELT@HR58 FU NOSIG=@CAELT@
ZPX0088 010754@CAELT@GG SLZZYMYT@CAELT@010754 SLVRYGYZ@CAELT@SABO SLVR 010800@CAELT@METAR SLVR 010800Z 34015G26KT 9999 NSC 26/21 Q1007 A2974 HR75 CI@CAELT@NOSIG=@CAELT@
ZPX0089 010755@CAELT@GG SLLPZRZX@CAELT@010755 SLLPYGYZ@CAELT@SABO SLLP 010800@CAELT@METAR SLLP 010800Z 07006KT 9999 FEW008 SCT070 01/M01 Q1036 A3060@CAELT@626.7 HR91 CI NOSIG=@CAELT@
ZPX0100 010854@CAELT@GG SLZZYMYT@CAELT@010854 SLCBYGYZ@CAELT@SABO SLCB 010900@CAELT@METAR SLCB 010900Z 33003KT 9999 FEW033 10/05 Q1023 A3023 750.3 HR72@CAELT@FU CI NOSIG=@CAELT@
ZPX0101 010855@CAELT@GG SLZZYMYT@CAELT@010856 SLVRYGYZ@CAELT@SABO SLVR 010900@CAELT@METAR SLVR 010900Z 35013G24KT 9999 NSC 25/21 Q1007 A2976 HR78 CI@CAELT@NOSIG=@CAELT@
ZPX0102 010856@CAELT@GG SLLPZRZX@CAELT@010855 SLLPYGYZ@CAELT@SABO SLLP 010900@CAELT@METAR SLLP 010900Z 05003KT 9999 FEW007 FEW017CB SCT200 00/M01@CAELT@Q1036 A3060 626.9 HR92 CB/LT/DIST N AC NOSIG=@CAELT@
ZPX0119 010953@CAELT@GG SLZZYMYT@CAELT@010952 SLRBYGYS@CAELT@SABO SLRB 011000@CAELT@METAR SLRB 011000Z 00000KT 8000 NSC 25/22 Q1010 A2983 HR84 FU RWY NML=@CAELT@
ZPX0120 010953@CAELT@GG SLZZYMYT@CAELT@010953 SLPSYGYS@CAELT@SABO SLPS 011000@CAELT@METAR SLPS 011000Z 00000KT 1000 FU NSC 26/23 Q1008 A2977 HR86=@CAELT@
ZPX0121 010954@CAELT@GG SLZZYMYT@CAELT@010953 SLSAYGYS@CAELT@SABO SLSA 011000@CAELT@METAR SLSA 011000Z 00000KT 8000 NSC 23/23 Q1009 A2980 HR96 FU CI=@CAELT@
ZPX0122 010954@CAELT@GG SLZZYMYT@CAELT@010955 SLCOYGYZ@CAELT@SABO SLCO 011000@CAELT@METAR SLCO 011000Z 30003KT 9999 BKN080 24/22 Q1010 A2983 982.8 HR89@CAELT@
ZPX0123 010955@CAELT@GG SLZZYMYT@CAELT@010955 SLTRYGYZ@CAELT@SABO SLTR 011000@CAELT@METAR SLTR 011000Z 32004KT 8000 NSC 24/23 Q1009 A2980 990.6 HR93@CAELT@FU NOSIG=@CAELT@
ZPX0124 010955@CAELT@GG SLZZYMYT@CAELT@010955 SLLPYGYZ@CAELT@SABO SLLP 011000@CAELT@METAR SLLP 011000Z 10009KT 3000E VCFG FEW002 SCT200 03/03 Q1036@CAELT@A3062 627.2 HR99 P/INV VCFG N/NE/E/SE AC NOSIG=@CAELT@
ZPX0125 010955@CAELT@GG SLZZYMYT@CAELT@010955 SLSBYSYX@CAELT@SABO SLSB 011000@CAELT@METAR SLSB 011000Z 00000KT 8000 NSC 22/22 Q1008 A2978 HR97 FU RWY NML=@CAELT@
ZPX0126 010956@CAELT@GG SLZZYMYT@CAELT@010956 SLVRYGYZ@CAELT@SABO SLVR 011000@CAELT@METAR SLVR 011000Z 33016G26KT 9999 NSC 25/21 Q1008 A2977 HR81 CI@CAELT@NOSIG=@CAELT@
ZPX0127 010956@CAELT@GG SLZZYMYT@CAELT@010957 SLUYYGYS@CAELT@SABO SLUY 011000@CAELT@METAR SLUY 011000Z 00000KT 9999 FEW070 M01/M12 Q1033 A3053 658.1@CAELT@HR44 CI=@CAELT@
ZPX0129 010957@CAELT@GG SLZZYMYT@CAELT@010955 SLRYYSYX@CAELT@SABO SLRY 011000@CAELT@METAR SLRY 011000Z 00000KT 9999 NSC 21/21 Q1005 A2970 HR98 CI RWY NML@CAELT@
ZPX0130 010957@CAELT@GG SLZZYMYT@CAELT@010957 SLCAYGYS@CAELT@SABO SLCA 011000@CAELT@METAR SLCA 011000Z 00000KT 6000 NSC 18/12 Q1008 A3006 HR70 FU RWY NML@CAELT@
ZPX0131 010958@CAELT@GG SLZZYMYT@CAELT@010957 SLCBYGYZ@CAELT@SABO SLCB 011000@CAELT@METAR SLCB 011000Z 10003KT 9999 FEW033 10/05 Q1024 A3024 750.7 HR69@CAELT@FU CI NOSIG=@CAELT@
ZPX0132 010959@CAELT@GG SLZZYMYT@CAELT@010958 SLRQYSYX@CAELT@SABO SLRQ 011000@CAELT@METAR SLRQ 011000Z 00000KT 9999 NSC 21/21 Q1009 A2979 984.9 HR94=@CAELT@
ZPX0134 011000@CAELT@GG SLZZYMYT@CAELT@010959 SLCBYGYS@CAELT@SABO SLCB 011000@CAELT@METAR SLCB 011000Z 10003KT 9999 FEW033 10/05 Q1024 A3024 750.7 HR69@CAELT@FU CI NOSIG=@CAELT@
ZPX0136 011001@CAELT@GG SLZZYMYT@CAELT@011000 SLLPYFYA@CAELT@SABO SLLP 011000@CAELT@METAR SLLP 011000Z 10009KT 3000E VCFG FEW002 SCT200 03/03 Q1036@CAELT@A3062 627.2 HR99 P/INV VCFG N/NE/E/SE AC NOSIG=@CAELT@METAR SLCO 011000Z 30003KT 9999 BKN080 24/22 Q1010 A2983 982.8 HR89@CAELT@METAR SLRY 011000Z 00000KT 9999 NSC 21/21 Q1005 A2970 HR98@CAELT@CI RWY NML=METAR SLRQ 011000Z 00000KT 9999 NSC 21/21 Q1009 A2979 984.9 HR94=METAR SLSB 011000Z 00000KT 8000 NSC 22/22 Q1008 A2978 HR97 FU RWY NMLMETAR SLUY 011000Z 00000KT 9999 FEW070 M01/M12 Q1033 A3053 658.1HR44 CI=
ZPX0137 011001@CAELT@GG SLZZYMYT@CAELT@010959 SLTRYGYS@CAELT@SABO SLTR 011000@CAELT@METAR SLTR 011000Z 32004KT 8000 NSC 24/23 Q1009 A2980 990.6 HR93@CAELT@FU NOSIG=@CAELT@METAR SLGM 011000Z 00000KT 3000 FU NSC 24/23 Q1010 A2983 HR92 CI=@CAELT@METAR SLRI 011000Z 00000KT 8000 NSC 25/22 Q1010 A2985 HR87 FU=@CAELT@METAR SLJO 011000Z 00000KT 7000 NSC 23/22 Q1009 A2982 HR94 FU CIRWY NML=METAR SLRA 011000Z 00000KT 9999 FEW080 SCT200 24/23 Q1009 A2980 HR98METAR SLMG 011000Z 00000KT 8000 FEW080 BKN200 23/22 Q1009 A2980 HR93FU RWY NML=METAR SLBU 011000Z NIL=METAR SLSA 011000Z 00000KT 8000 NSC 23/23 Q1009 A2980 HR96 FU CI=METAR SLSR 011000Z 35006KT 9999 NSC 24/22 Q1007 A2974 HR87 CIMETAR SLSM 011000Z 00000KT 2000 BR SCT005 22/22 Q1009 A2980 HR100
ZPX0138 011002@CAELT@GG SLZZYMYT@CAELT@011002 SLVRYGYS@CAELT@SABO SLVR 011000@CAELT@METAR SLVR 011000Z 33016G26KT 9999 NSC 25/21 Q1008 A2977 HR81 CI@CAELT@NOSIG=@CAELT@METAR SLET 011000Z NIL=@CAELT@METAR SLAS 011000Z 00000KT 4000 FU NSC 23/22 Q1011 A2985 HR92 RWY NML@CAELT@METAR SLJV 011000Z 00000KT 7000 NSC 23/20 Q1011 A2985 HR88 FU RWY NMLMETAR SLCP 011000Z 00000KT 2000 FU NSC 22/19 Q1013 A2991 HR84 RWY NMLMETAR SLSI 011000Z 00000KT 8000 NSC 25/21 Q1010 A2983 HR76 FU RWY NMLMETAR SLTI 011000Z 00000KT 9999 NSC 25/21 Q1012 A2988 HR76 FU RWY NMLMETAR SLJE 011000Z 00000KT 6000 NSC 22/19 Q1011 A2985 HR83 FU RWY NMLMETAR SLVG 011000Z 00000KT 9999 NSC 14/11 Q1021 A3015 HR79 RWY NML=METAR SLRB 011000Z 00000KT 8000 NSC 25/22 Q1010 A2983 HR84 FU RWY NMLMETAR SLPS 011000Z 00000KT 1000 FU NSC 26/23 Q1008 A2977 HR86=METAR SLCA 011000Z 00000KT 6000 NSC 18/12 Q1008 A3006 HR70 FU RWY NML=
ZPX0140 011004@CAELT@GG SLZZYMYT@CAELT@011003 SLLPYFYA@CAELT@SABO SLLP 011000 RRA@CAELT@METAR SLLP 011000Z 10009KT 3000E VCFG FEW002 SCT200 03/03 Q1036@CAELT@A3062 627.2 HR99 P/INV VCFG N/NE/E/SE AC NOSIG=@CAELT@METAR SLCO 011000Z 30003KT 9999 BKN080 24/22 Q1010 A2983 982.8 HR89@CAELT@METAR SLRY 011000Z 00000KT 9999 NSC 21/21 Q1005 A2970 HR98@CAELT@CI RWY NML=METAR SLRQ 011000Z 00000KT 9999 NSC 21/21 Q1009 A2979 984.9 HR94=METAR RTD SLAP 011000Z 00000KT 9999 NSC 16/15 Q1018 A3007 858.8 HR96AC=METAR SLSB 011000Z 00000KT 8000 NSC 22/22 Q1008 A2978 HR97 FU RWY NMLMETAR SLUY 011000Z 00000KT 9999 FEW070 M01/M12 Q1033 A3053 658.1HR44 CI=
ZPX0142 011009@CAELT@GG SLZZYMYT@CAELT@011007 SLETYMYC@CAELT@SABO SLET 011000@CAELT@METAR SLET 011000Z 32016G28KT 9999 NSC 24/21 Q1008 A2977 HR82 CI@CAELT@NOSIG=@CAELT@
ZPX0143 011010@CAELT@GG SLZZYMYT@CAELT@011010 SLVRYGYU@CAELT@SABO SLVR 011000 RRA@CAELT@METAR SLVR 011000Z 33016G26KT 9999 NSC 25/21 Q1008 A2977 HR81 CI@CAELT@NOSIG=@CAELT@METAR RTD SLET 011000Z 32016G28KT 9999 NSC 24/21 Q1008 A29.77 HR82 CI@CAELT@METAR SLAS 011000Z 00000KT 4000 FU NSC 23/22 Q1011 A2985 HR92 RWY NML@CAELT@METAR SLJV 011000Z 00000KT 7000 NSC 23/20 Q1011 A2985 HR88 FU RWY NMLMETAR SLCP 011000Z 00000KT 2000 FU NSC 22/19 Q1013 A2991 HR84 RWY NMLMETAR SLSI 011000Z 00000KT 8000 NSC 25/21 Q1010 A2983 HR76 FU RWY NMLMETAR SLTI 011000Z 00000KT 9999 NSC 25/21 Q1012 A2988 HR76 FU RWY NMLMETAR SLJE 011000Z 00000KT 6000 NSC 22/19 Q1011 A2985 HR83 FU RWY NMLMETAR SLVG 011000Z 00000KT 9999 NSC 14/11 Q1021 A3015 HR79 RWY NML=METAR SLRB 011000Z 00000KT 8000 NSC 25/22 Q1010 A2983 HR84 FU RWY NMLMETAR SLPS 011000Z 00000KT 1000 FU NSC 26/23 Q1008 A2977 HR86=METAR SLCA 011000Z 00000KT 6000 NSC 18/12 Q1008 A3006 HR70 FU RWY NML
ZPX0167 011051@CAELT@GG SLZZYMYT@CAELT@011051 SLPSYGYS@CAELT@SABO SLPS 011100@CAELT@METAR SLPS 011100Z 00000KT 1000 FU NSC 28/24 Q1009 A2980 HR79=@CAELT@
ZPX0168 011054@CAELT@GG SLZZYMYT@CAELT@011053 SLRYYSYX@CAELT@SABO SLRY 011100@CAELT@METAR SLRY 011100Z 00000KT 9999 NSC 21/20 Q1006 A2973 RY NML=@CAELT@
ZPX0169 011054@CAELT@GG SLZZYMYT@CAELT@011054 SLSAYGYS@CAELT@SABO SLSA 011100@CAELT@METAR SLSA 011100Z 00000KT 8000 NSC 24/23 Q1010 A2983 HR95 FU CI=@CAELT@
ZPX0170 011055@CAELT@GG SLZZYMYT@CAELT@011055 SLSBYSYX@CAELT@SABO SLSB 011100@CAELT@METAR SLSB 011100Z 00000KT 8000 NSC 23/22 Q1008 A2979 HR95 FU RWY NML=@CAELT@
ZPX0171 011055@CAELT@GG SLZZYMYT@CAELT@011053 SLRYYSYX@CAELT@SABO SLRY 011100@CAELT@METAR SLRY 011100Z 00000KT 9999 NSC 21/20 Q1006 A2973 HR97 RYY NML=@CAELT@
ZPX0172 011055@CAELT@GG SLZZYMYT@CAELT@011055 SLRQYSYX@CAELT@SABO SLRQ 011100@CAELT@METAR SLRQ 011100Z 00000KT 9999 NSC 22/22 Q1009 A2981 985.4 HR99=@CAELT@
ZPX0174 011055@CAELT@GG SLZZYMYT@CAELT@011055 SLORYGYZ@CAELT@SABO SLOR 011100@CAELT@METAR SLOR 011100Z 00000KT 3000N FU FEW070 01/M03 Q1035 A3058 656.3@CAELT@HR72 VIS RED N/NE/NW RESTO 6000 CI=@CAELT@
ZPX0175 011055@CAELT@GG SLZZYMYT@CAELT@011052 SLETYMYC@CAELT@SABO SLET 011100@CAELT@METAR SLET 011100Z 31018G29KT 9999 NSC 25/21 Q1008 A2978 HR81 CI@CAELT@NOSIG=@CAELT@
ZPX0176 011055@CAELT@GG SLZZYMYT@CAELT@011056 SLVRYGYZ@CAELT@SABO SLVR 011100@CAELT@METAR SLVR 011100Z 33016G27KT 9999 NSC 25/22 Q1009 A2980 HR79 CI@CAELT@NOSIG=@CAELT@
ZPX0177 011055@CAELT@GG SLZZYMYT@CAELT@011055 SLCAYGYS@CAELT@SABO SLCA 011100@CAELT@METAR SLCA 011100Z 00000KT 6000 NSC 19/12 Q1008 A2977 HR66 FU RWY NML@CAELT@
ZPX0178 011056@CAELT@GG SLZZYMYT@CAELT@011056 SLUYYGYS@CAELT@SABO SLUY 011100@CAELT@METAR SLUY 011100Z 00000KT 9999 FEW070 M01/M13 Q1034 A3055 658.6@CAELT@HR40 HZ SE/S CI=@CAELT@
ZPX0179 011056@CAELT@GG SLZZYMYT@CAELT@011055 SLLPYGYZ@CAELT@SABO SLLP 011100@CAELT@METAR SLLP 011100Z 08008KT 3000E VCFG FEW002 SCT010 BKN200 04/04@CAELT@Q1037 A3065 627.9 HR100 P/INV VCFG N/NE/E/SE AC NOSIG=@CAELT@
ZPX0180 011056@CAELT@GG SLZZYMYT@CAELT@011055 SLTRYGYZ@CAELT@SABO SLTR 011100@CAELT@METAR SLTR 011100Z 32004KT 8000 NSC 25/23 Q1010 A2983 991.7 HR92@CAELT@FU NOSIG=@CAELT@
ZPX0181 011056@CAELT@GG SLZZYMYT@CAELT@011056 SLRBYGYS@CAELT@SABO SLRB 011100@CAELT@METAR SLRB 011100Z 00000KT 8000 NSC 27/23 Q1011 A2985 HR77 FU RWY NML=@CAELT@
ZPX0183 011057@CAELT@GG SLZZYMYT@CAELT@011057 SLCOYGYZ@CAELT@SABO SLCO 011100@CAELT@METAR SLCO 011100Z 00000KT 9999 BKN080 24/22 Q1011 A2987 984.1 HR86@CAELT@
ZPX0184 011057@CAELT@GG SLZZYMYT@CAELT@011057 SLCBYGYZ@CAELT@SABO SLCB 011100@CAELT@METAR SLCB 011100Z 00000KT 9999 NSC 13/07 Q1024 A3026 751.2 HR66 FU@CAELT@CI NOSIG=@CAELT@
ZPX0185 011058@CAELT@GG SLZZYMYT@CAELT@011058 SLTRYGYS@CAELT@SABO SLTR 011100@CAELT@METAR SLTR 011100Z 32004KT 8000 NSC 25/23 Q1010 A2983 991.7 HR92@CAELT@FU NOSIG=@CAELT@METAR SLGM 011100Z 00000KT 3000 FU NSC 24/23 Q1011 A2985 HR92 CI=@CAELT@METAR SLRI 011100Z 00000KT 8000 NSC 25/22 Q1011 A2987 HR87 FU=@CAELT@METAR SLJO 011100Z 34003KT 7000 NSC 23/22 Q1010 A2983 HR92 FU CIRWY NML=METAR SLRA 011100Z 35004KT 9999 NSC 24/23 Q1009 A2982 HR92 CIMETAR SLMG 011100Z 00000KT 8000 NSC 24/22 Q1009 A2982 HR90 FU CIMETAR SLBU 011100Z NIL=METAR SLSA 011100Z 00000KT 8000 NSC 24/23 Q1010 A2983 HR95 FU CI=METAR SLSR 011100Z 35008KT 9999 NSC 24/22 Q1007 A2975 HR86 CIMETAR SLSM 011100Z 00000KT 4000 BR NSC 23/22 Q1009 A2982 HR97VIS RED S/N RESTO 9999 RWY NML=
ZPX0188 011100@CAELT@GG SLZZYMYT@CAELT@011100 SLLPYFYA@CAELT@SABO SLLP 011100@CAELT@METAR SLLP 011100Z 08008KT 3000E VCFG FEW002 SCT010 BKN200 04/04@CAELT@Q1037 A3065 627.9 HR100 P/INV VCFG N/NE/E/SE AC NOSIG=@CAELT@METAR SLCO 011100Z 00000KT 9999 BKN080 24/22 Q1011 A2987 984.1 HR86@CAELT@METAR SLRY 011100Z 00000KT 9999 NSC 21/20 Q1006 A2973 RY NML=@CAELT@METAR SLRQ 011100Z 00000KT 9999 NSC 22/22 Q1009 A2981 985.4 HR99=METAR SLAP 011100Z 00000KT 9999 NSC 16/15 Q1018 A3008 859.2 HR96 AC=METAR SLSB 011100Z 00000KT 8000 NSC 23/22 Q1008 A2979 HR95 FU RWY NMLMETAR SLOR 011100Z 00000KT 3000N FU FEW070 01/M03 Q1035 A3058 656.3HR72 VIS RED N/NE/NW RESTO 6000 CI=METAR SLUY 011100Z 00000KT 9999 FEW070 M01/M13 Q1034 A3055 658.6HR40 HZ SE/S CI=
ZPX0189 011100@CAELT@GG SLZZYMYT@CAELT@011101 SLVRYGYS@CAELT@SABO SLVR 011100@CAELT@METAR SLVR 011100Z 33016G27KT 9999 NSC 25/22 Q1009 A2980 HR79 CI@CAELT@NOSIG=@CAELT@METAR SLET 011100Z 31018G29KT 9999 NSC 25/21 Q1008 A2978 HR81 CI@CAELT@METAR SLAS 011100Z 00000KT 4000 FU NSC 24/21 Q1012 A2988 HR82 RWY NML@CAELT@METAR SLJV 011100Z 00000KT 7000 NSC 24/20 Q1011 A2985 HR85 FU RWY NMLMETAR SLCP 011100Z 31006KT 5000 FU NSC 23/20 Q1014 A2994 HR84 RWY NMLMETAR SLSI 011100Z 00000KT 8000 NSC 26/20 Q1011 A2985 FU HR73 RWY NMLMETAR SLTI 011100Z 00000KT 9999 NSC 27/20 Q1013 A2991 HR66 FU RWY NMLMETAR SLJE 011100Z 00000KT 6000 NSC 24/21 Q1012 A2988 HR81 FU RWY NMLMETAR SLVG 011100Z 00000KT 9999 NSC 16/10 Q1022 A3018 HR67 RWY NML=METAR SLRB 011100Z 00000KT 8000 NSC 27/23 Q1011 A2985 HR77 FU RWY NMLMETAR SLPS 011100Z 00000KT 1000 FU NSC 28/24 Q1009 A2980 HR79=METAR SLCA 011100Z 00000KT 6000 NSC 19/12 Q1008 A2977 HR66 FU RWY NML=
ZPX0192 011103@CAELT@GG SLZZYMYT@CAELT@011103 SLCBYGYS@CAELT@SABO SLCB 011100@CAELT@METAR SLCB 011100Z 00000KT 9999 NSC 13/07 Q1024 A3026 751.2 HR66 FU@CAELT@CI NOSIG=@CAELT@METAR SLVM 011100Z 00000KT 6000 FEW070 23/18 Q1002 A2960 HR73 FU CI=@CAELT@
ZPX0194 011106@CAELT@GG SLZZYMYT@CAELT@011106 SLCBYGYS@CAELT@SABO RTD SLCB 011100@CAELT@METAR SLCB 011100Z 00000KT 9999 NSC 13/07 Q1024 A3026 751.2 HR66 FU@CAELT@CI NOSIG=@CAELT@METAR SLVM 011100Z 00000KT 6000 FEW070 23/18 Q1002 A2960 HR73 FU CI=@CAELT@METAR RTD SLYA 011100Z 00000KT 9999 NSC 20/16 Q1006 A2964 HR74 FU=@CAELT@
ZPX0226 011149@CAELT@GG SLZZYMYT@CAELT@011150 SLRBYGYS@CAELT@SABO SLRB 011200@CAELT@METAR SLRB 011200Z 00000KT 8000 NSC 29/22 Q1011 A2985 HR66 FU RWY NML=@CAELT@
ZPX0227 011151@CAELT@GG SLZZYMYT@CAELT@011151 SLPSYGYS@CAELT@SABO SLPS 011200@CAELT@METAR SLPS 011200Z 00000KT 1000 FU NSC 30/25 Q1009 A2980 HR74=@CAELT@
ZPX0230 011152@CAELT@GG SLZZYMYT@CAELT@011153 SLVRYGYZ@CAELT@SABO SLVR 011200@CAELT@METAR SLVR 011200Z 32018G32KT 9999 NSC 27/22 Q1009 A2981 HR71 CI@CAELT@NOSIG=@CAELT@
ZPX0231 011152@CAELT@GG SLZZYMYT@CAELT@011154 SLSAYGYS@CAELT@SABO SLSA 011200@CAELT@METAR SLSA 011200Z 34005KT 8000 SCT080 26/24 Q1010 A2985 HR85 FU=@CAELT@
ZPX0232 011153@CAELT@GG SLZZYMYT@CAELT@011120 SLETYMYC@CAELT@SABO SLET 291200@CAELT@METAR SLET 291200Z 31018G30KT 9999 NSC 26/21 Q1009 A2980 HR76 CI@CAELT@NOSIG=@CAELT@
ZPX0233 011154@CAELT@GG SLZZYMYT@CAELT@011153 SLCAYGYS@CAELT@SABO SLCA 011200@CAELT@METAR SLCA 011200Z 00000KT 6000 NSC 24/12 Q1009 A2980 HR48 FU RWY NML@CAELT@
ZPX0235 011155@CAELT@GG SLZZYMYT@CAELT@011155 SLCOYGYZ@CAELT@SABO SLCO 011200@CAELT@METAR SLCO 011200Z 30003KT 9999 BKN090 25/22 Q1012 A2990 985.2 HR81@CAELT@
ZPX0236 011155@CAELT@GG SLZZYMYT@CAELT@011155 SLORYGYZ@CAELT@SABO SLOR 011200@CAELT@METAR SLOR 011200Z 00000KT 8000 FEW015 06/M00 Q1036 A3060 656.7 HR63@CAELT@VIS RED FU N/NE/E/NW AC/CI=@CAELT@
ZPX0237 011155@CAELT@GG SLZZYMYT@CAELT@011155 SLRQYSYX@CAELT@SABO SLRQ 011200@CAELT@METAR SLRQ 011200Z 00000KT 9999 NSC 25/24 Q1010 A2983 986.2 HR92=@CAELT@
ZPX0238 011155@CAELT@GG SLZZYMYT@CAELT@011154 SLSBYSYX@CAELT@SABO SLSB 011200@CAELT@METAR SLSB 011200Z 00000KT 8000 NSC 25/23 Q1009 A2982 HR90 FU RWY NML=@CAELT@
ZPX0239 011156@CAELT@GG SLZZYMYT@CAELT@011156 SLTRYGYZ@CAELT@SABO SLTR 011200@CAELT@METAR SLTR 011200Z 33008KT 8000 FEW080 27/24 Q1011 A2986 992.6@CAELT@HR83 FU NOSIG=@CAELT@
ZPX0241 011156@CAELT@GG SLZZYMYT@CAELT@011156 SLCBYGYZ@CAELT@SABO SLCB 011200@CAELT@METAR SLCB 011200Z 26003KT 9999 NSC 16/06 Q1025 A3028 751.7 HR51 FU@CAELT@CI NOSIG=@CAELT@
ZPX0242 011156@CAELT@GG SLZZYMYT@CAELT@011155 SLRYYSYX@CAELT@SABO SLRY 011200@CAELT@METAR SLRY 011200Z 00000KT 9999 NSC 25/23 Q1006 A2973 HR88 RWY NML=@CAELT@
ZPX0243 011157@CAELT@GG SLZZYMYT@CAELT@011155 SLUYYGYS@CAELT@SABO SLUY 011200@CAELT@METAR SLUY 011200Z 00000KT 9999 FEW080 05/M08 Q1035 A3057 659.2@CAELT@HR38 HZ SE/S CI=@CAELT@
ZPX0245 011157@CAELT@GG SLZZYMYT@CAELT@011155 SLAGYSYX@CAELT@SABO SLAG 011200@CAELT@METAR SLAG 011200Z 00000KT 3000 FU NSC 24/13 Q1010 A2985 883.6 HR50@CAELT@
ZPX0246 011158@CAELT@GG SLZZYMYT@CAELT@011156 SLLPYGYZ@CAELT@SABO SLLP 011200@CAELT@METAR SLLP 011200Z 12008KT 6000 FEW004 SCT012 BKN200 05/03 Q1038@CAELT@A3067 628.4 HR87 P92// VIS RED/ST BJOS NE/E/SE AC NOSIG=@CAELT@
ZPX0247 011158@CAELT@GG SLZZYMYT@CAELT@011158 SLTJYGYZ@CAELT@SABO SLTJ 011200@CAELT@METAR SLTJ 011200Z 00000KT 9999 NSC 18/11 Q1016 A3001 811.9 HR62 FU@CAELT@AC/CI=@CAELT@
ZPX0248 011159@CAELT@GG SLZZYMYT@CAELT@011158 SLVRYGYS@CAELT@SABO SLVR 011200@CAELT@METAR SLVR 011200Z 32018G32KT 9999 NSC 27/22 Q1009 A2981 HR71 CI@CAELT@NOSIG=@CAELT@METAR SLET 011200Z 31018G30KT 9999 NSC 26/21 Q1009 A2980 HR76 CI@CAELT@METAR SLAS 011200Z 00000KT 4000 FU NSC 25/21 Q1013 A2991 HR77 RWY NML@CAELT@METAR SLJV 011200Z 36012KT 7000 NSC 27/22 Q1011 A2985 72 FU RWY NML =METAR SLCP 011200Z 30008KT 6000 NSC 26/20 Q1014 A2994 HR69 FU RWY NMLMETAR SLSI 011200Z 00000KT 8000 NSC 26/22 Q1011 A2985 HR75 FU RWY NMLMETAR SLTI 011200Z 00000KT 9999 NSC 30/19 Q1013 A2991 HR53 FU RWY NMLMETAR SLJE 011200Z 00000KT 5000 FU NSC 30/21 Q1012 A2988 HR61 RWY NMLMETAR SLVG 011200Z 36004KT 9999 NSC 18/11 Q1022 A3018 HR57 RWY NML=METAR SLRB 011200Z 00000KT 8000 NSC 29/22 Q1011 A2985 HR66 FU RWY NMLMETAR SLPS 011200Z 00000KT 1000 FU NSC 30/25 Q1009 A2980 HR74=METAR SLCA 011200Z 00000KT 6000 NSC 24/12 Q1009 A2980 HR48 FU RWY NML
ZPX0249 011159@CAELT@GG SLZZYMYT@CAELT@011158 SLTRYGYS@CAELT@SABO SLTR 011200@CAELT@METAR SLTR 011200Z 33008KT 8000 FEW080 27/24 Q1011 A2986 992.6 HR83@CAELT@FU NOSIG=@CAELT@METAR SLGM 011200Z 36006KT 4000 FU NSC 26/24 Q1011 A2988 HR91 CI=@CAELT@METAR SLRI 011200Z 00000KT 5000 FU NSC 27/24 Q1013 A2993 HR85 CI=@CAELT@METAR SLJO 011200Z 34004KT 8000 NSC 26/23 Q1011 A2986 HR84 FU CIRWY NML=METAR SLRA 011200Z 35006KT 9999 NSC 27/23 Q1010 A2985 HR78 CIMETAR SLMG 011200Z 03004KT 9999 NSC 27/22 Q1010 A2985 HR75 CIMETAR SLBU 011200Z 36006KT 9999 FEW020 BKN200 26/22 Q1010 A2987 HR81METAR SLSA 011200Z 34005KT 8000 SCT080 26/24 Q1010 A2985 HR85 FU=METAR SLSR 011200Z 35012KT 9999 NSC 27/22 Q1008 A2977 HR78 CIMETAR SLSM 011200Z 00000KT 9999 NSC 25/24 Q1010 A2984 HR94 RWY NML=
ZPX0252 011201@CAELT@GG SLZZYMYT@CAELT@011200 SLLPYFYA@CAELT@SABO SLLP 011200@CAELT@METAR SLLP 011200Z 12008KT 6000 FEW004 SCT012 BKN200 05/03@CAELT@Q1038 A3067 628.4 HR87 P92// VIS RED/ST BJOS NE/E/SE AC@CAELT@NOSIG=@CAELT@METAR SLCO 011200Z 30003KT 9999 BKN090 25/22 Q1012 A2990@CAELT@985.2 HR81 FU=METAR SLRY 011200Z 00000KT 9999 NSC 25/23 Q1006 A2973HR88 RWY NML=METAR SLRQ 011200Z 00000KT 9999 NSC 25/24 Q1010 A2983986.2 HR92=METAR SLAP 011200Z 00000KT 9999 FEW070 20/17 Q1019 A3010859.7 HR95 CI=METAR SLSB 011200Z 00000KT 8000 NSC 25/23 Q1009 A2982 HR90FU RWY NML=METAR SLOR 011200Z 00000KT 8000 FEW015 06/M00 Q1036 A3060656.7 HR63 VIS RED FU N/NE/E/NW AC/CI=METAR SLUY 011200Z 00000KT 9999 FEW080 05/M08 Q1035 A3057659.2 HR38 HZ SE/S CI=
ZPX0253 011201@CAELT@GG SLZZYMYT@CAELT@011201 SLCBYGYS@CAELT@SABO SLCB 011200@CAELT@METAR SLCB 011200Z 26003KT 9999 NSC 16/06 Q1025 A3028 751.7 HR51 FU@CAELT@CI NOSIG=@CAELT@METAR SLAG 011200Z 00000KT 3000 FU NSC 24/13 Q1010 A2985 883.6 HR50@CAELT@METAR SLVM 011200Z 00000KT 6000 NSC 28/19 Q1003 A2962 HR58 FU CI=@CAELT@METAR SLTJ 011200Z 00000KT 9999 NSC 18/11 Q1016 A3001 811.9 HR62 FUAC/CI=METAR SLYA 011200Z 00000KT 9999 SCT070 28/19 Q1004 A2967 930.0 HR57
