
ZPX0007 220055@CAELT@GG SLZZYMYT@CAELT@220055 SLCBYGYZ@CAELT@SABO SLCB 220100@CAELT@METAR SLCB 220100Z 13015KT 9999 NSC 22/04 Q1020 A3015 748.2 HR31 FU@CAELT@NOSIG=@CAELT@
ZPX0008 220055@CAELT@GG SLZZYMYT@CAELT@220056 SLVRYGYZ@CAELT@SABO SLVR 220100@CAELT@METAR SLVR 220100Z 28006KT 9999 NSC 24/19 Q1010 A2983 HR72 NOSIG=@CAELT@
ZPX0009 220056@CAELT@GG SLLPZRZX@CAELT@220055 SLLPYGYZ@CAELT@SABO SLLP 220100@CAELT@METAR SLLP 220100Z 08007KT 9999 NSC 10/M04 Q1035 A3057 626.1 HR37@CAELT@CI NOSIG=@CAELT@
ZPX0016 220155@CAELT@GG SLZZYMYT@CAELT@220155 SLVRYGYZ@CAELT@SABO SLVR 220200@CAELT@METAR SLVR 220200Z 25004KT 9999 NSC 24/19 Q1010 A2985 HR73 NOSIG=@CAELT@
ZPX0017 220156@CAELT@GG SLZZYMYT@CAELT@220155 SLCBYGYZ@CAELT@SABO SLCB 220200@CAELT@METAR SLCB 220200Z 13015KT 9999 NSC 20/04 Q1022 A3019 749.4 HR35 FU@CAELT@NOSIG=@CAELT@
ZPX0018 220157@CAELT@GG SLLPZRZX@CAELT@220155 SLLPYGYZ@CAELT@SABO SLLP 220200@CAELT@METAR SLLP 220200Z 14004KT 9999 NSC 07/M02 Q1036 A3060 626.9 HR51@CAELT@CI NOSIG=@CAELT@
ZPX0026 220255@CAELT@GG SLZZYMYT@CAELT@220256 SLVRYGYZ@CAELT@SABO SLVR 220300@CAELT@METAR SLVR 220300Z 26005KT 9999 NSC 23/19 Q1011 A2985 HR75 NOSIG=@CAELT@
ZPX0027 220256@CAELT@GG SLLPZRZX@CAELT@220255 SLLPYGYZ@CAELT@SABO SLLP 220300@CAELT@METAR SLLP 220300Z 07004KT 9999 NSC 07/M00 Q1037 A3063 627.4 HR63@CAELT@CI NOSIG=@CAELT@
ZPX0028 220258@CAELT@GG SLZZYMYT@CAELT@220258 SLCBYGYZ@CAELT@SABO SLCB 220300@CAELT@METAR SLCB 220300Z 15012KT 9999 FEW040 19/06 Q1024 A3024 750.6 HR41@CAELT@FU NOSIG=@CAELT@
ZPX0038 220355@CAELT@GG SLZZYMYT@CAELT@220355 SLVRYGYZ@CAELT@SABO SLVR 220400@CAELT@METAR SLVR 220400Z 24005KT 9999 FEW020 23/19 Q1011 A2986 HR79 NOSIG=@CAELT@
ZPX0039 220355@CAELT@GG SLZZYMYT@CAELT@220355 SLCBYGYZ@CAELT@SABO SLCB 220400@CAELT@METAR SLCB 220400Z 16015KT 9999 FEW040 18/07 Q1024 A3026 751.2 HR46@CAELT@FU NOSIG=@CAELT@
ZPX0040 220356@CAELT@GG SLLPZRZX@CAELT@220355 SLLPYGYZ@CAELT@SABO SLLP 220400@CAELT@METAR SLLP 220400Z 04005KT 9999 NSC 07/01 Q1037 A3063 627.3 HR68@CAELT@CI NOSIG=@CAELT@
ZPX0048 220454@CAELT@GG SLZZYMYT@CAELT@220455 SLCBYGYZ@CAELT@SABO SLCB 220500@CAELT@METAR SLCB 220500Z 14014KT 9999 FEW040 18/06 Q1024 A3027 751.3 HR46@CAELT@FU NOSIG=@CAELT@
ZPX0049 220455@CAELT@GG SLZZYMYT@CAELT@220456 SLVRYGYZ@CAELT@SABO SLVR 220500@CAELT@METAR SLVR 220500Z 26004KT 9999 SCT017 23/19 Q1011 A2985 HR78 NOSIG=@CAELT@
ZPX0050 220456@CAELT@GG SLLPZRZX@CAELT@220455 SLLPYGYZ@CAELT@SABO SLLP 220500@CAELT@METAR SLLP 220500Z 07005KT 9999 NSC 04/01 Q1036 A3061 627.0 HR80@CAELT@CI NOSIG=@CAELT@
ZPX0057 220556@CAELT@GG SLZZYMYT@CAELT@220556 SLVRYGYZ@CAELT@SABO SLVR 220600@CAELT@METAR SLVR 220600Z 26003KT 9999 SCT017 23/18 Q1010 A2984 HR76 NOSIG=@CAELT@
ZPX0058 220556@CAELT@GG SLLPZRZX@CAELT@220555 SLLPYGYZ@CAELT@SABO SLLP 220600@CAELT@METAR SLLP 220600Z 07007KT 4000E VCFG FEW003 04/03 Q1036 A3060 626.8@CAELT@HR92 VCFG NE/E CI NOSIG=@CAELT@
ZPX0059 220556@CAELT@GG SLZZYMYT@CAELT@220555 SLCBYGYZ@CAELT@SABO SLCB 220600@CAELT@METAR SLCB 220600Z 15008KT 9999 FEW040 18/06 Q1024 A3027 751.3 HR47@CAELT@FU NOSIG=@CAELT@
ZPX0066 220656@CAELT@GG SLZZYMYT@CAELT@220656 SLVRYGYZ@CAELT@SABO SLVR 220700@CAELT@METAR SLVR 220700Z VRB02KT 9999 FEW020 SCT070 23/19 Q1010 A2985 HR79@CAELT@NOSIG=@CAELT@
ZPX0067 220656@CAELT@GG SLZZYMYT@CAELT@220656 SLCBYGYZ@CAELT@SABO SLCB 220700@CAELT@METAR SLCB 220700Z 13010KT 9999 FEW036 SCT070 17/07 Q1025 A3027 751.5@CAELT@HR50 FU NOSIG=@CAELT@
ZPX0068 220656@CAELT@GG SLLPZRZX@CAELT@220656 SLLPYGYZ@CAELT@SABO SLLP 220700@CAELT@METAR SLLP 220700Z 07006KT 9999 FEW004 02/02 Q1036 A3060 626.7@CAELT@HR94 CI NOSIG=@CAELT@
ZPX0075 220754@CAELT@GG SLZZYMYT@CAELT@220755 SLVRYGYZ@CAELT@SABO SLVR 220800@CAELT@METAR SLVR 220800Z 24003KT 9999 FEW020 BKN070 23/20 Q1011 A2986 HR81@CAELT@NOSIG=@CAELT@
ZPX0076 220754@CAELT@GG SLZZYMYT@CAELT@220755 SLCBYGYZ@CAELT@SABO SLCB 220800@CAELT@METAR SLCB 220800Z 14008KT 9999 SCT033 BKN070 17/07 Q1025 A3028 751.7@CAELT@HR50 FU NOSIG=@CAELT@
ZPX0077 220758@CAELT@GG SLLPZRZX@CAELT@220756 SLLPYGYZ@CAELT@SABO SLLP 220800@CAELT@METAR SLLP 220800Z 09006KT 3000E VCFG FEW003 02/01 Q1036 A3060@CAELT@626.7 HR94 VCFG NE/E/SE/S CI NOSIG=@CAELT@
ZPX0085 220855@CAELT@GG SLZZYMYT@CAELT@220855 SLVRYGYZ@CAELT@SABO SLVR 220900@CAELT@METAR SLVR 220900Z 24003KT 9999 FEW020 BKN070 23/19 Q1011 A2988 HR78@CAELT@NOSIG=@CAELT@
ZPX0086 220855@CAELT@GG SLZZYMYT@CAELT@220855 SLTRYGYZ@CAELT@SABO SLTR 220900@CAELT@METAR SLTR 220900Z 00000KT 9999 NSC 24/22 Q1010 A2983 991.6 HR88@CAELT@CI NOSIG=@CAELT@
ZPX0087 220858@CAELT@GG SLLPZRZX@CAELT@220856 SLLPYGYZ@CAELT@SABO SLLP 220900@CAELT@METAR SLLP 220900Z 09008KT 4000E VCFG FEW003 SCT010 04/04 Q1036@CAELT@A3062 627.2 HR97 VCFG N/NE/E/SE/S CI NOSIG=@CAELT@
ZPX0088 220859@CAELT@GG SLZZYMYT@CAELT@220859 SLCBYGYZ@CAELT@SABO SLCB 220900@CAELT@METAR SLCB 220900Z 13008KT 9999 FEW033 SCT070 16/07 Q1026 A3030 752.3@CAELT@HR54 FU NOSIG=@CAELT@
ZPX0089 220900@CAELT@GG SLZZYMYT@CAELT@220859 SLTRYGYS@CAELT@SABO SLTR 220900@CAELT@METAR SLTR 220900Z 00000KT 9999 NSC 24/22 Q1010 A2983 991.6 HR88@CAELT@CI NOSIG=@CAELT@METAR SLRI 220900Z 00000KT 9999 NSC 24/23 Q1010 A2983 HR96 CI=@CAELT@
ZPX0103 220952@CAELT@GG SLZZYMYT@CAELT@220952 SLETYMYC@CAELT@SABO SLET 221000@CAELT@METAR SLET 221000Z 21004KT 9999 BKN070 26/17 Q1012 A2989 HR61 NOSIG=@CAELT@
ZPX0104 220954@CAELT@GG SLZZYMYT@CAELT@220954 SLVRYGYZ@CAELT@SABO SLVR 221000@CAELT@METAR SLVR 221000Z 23004KT 9999 FEW023 BKN070 23/19 Q1012 A2990 HR78@CAELT@NOSIG=@CAELT@
ZPX0105 220954@CAELT@GG SLZZYMYT@CAELT@220953 SLSAYGYS@CAELT@SABO SLSA 221000@CAELT@METAR SLSA 221000Z 00000KT 9999 FEW080 SCT200 24/23 Q1009 A2982 HR93=@CAELT@
ZPX0106 220955@CAELT@GG SLZZYMYT@CAELT@220953 SLRBYGYS@CAELT@SABO SLRB 221000@CAELT@METAR SLRB 221000Z 00000KT 9999 NSC 17/16 Q1015 A2997 HR91 RWY NML=@CAELT@
ZPX0107 220955@CAELT@GG SLZZYMYT@CAELT@220955 SLTRYGYZ@CAELT@SABO SLTR 221000@CAELT@METAR SLTR 221000Z 00000KT 9999 NSC 24/22 Q1011 A2986 992.5 HR89@CAELT@CI NOSIG=@CAELT@
ZPX0108 220956@CAELT@GG SLZZYMYT@CAELT@220955 SLRQYSYX@CAELT@SABO SLRQ 221000@CAELT@METAR SLRQ 221000Z 00000KT 9999 FEW080 22/22 Q1010 A2984 HR98=@CAELT@
ZPX0109 220956@CAELT@GG SLZZYMYT@CAELT@220955 SLSBYSYX@CAELT@SABO SLSB 221000@CAELT@METAR SLSB 221000Z 00000KT 8000 FEW080 23/22 Q1011 A2987 HR92 FU@CAELT@RWY NML=@CAELT@
ZPX0110 220957@CAELT@GG SLZZYMYT@CAELT@220956 SLLPYGYZ@CAELT@SABO SLLP 221000@CAELT@METAR SLLP 221000Z 09009KT 3000E VCFG FEW003 SCT010 04/03 Q1037@CAELT@A3063 627.4 HR95 P92// VCFG NE/E/SE/S CI NOSIG=@CAELT@
ZPX0111 220957@CAELT@GG SLZZYMYT@CAELT@220957 SLCAYGYS@CAELT@SABO SLCA 221000@CAELT@METAR SLCA 221000Z 00000KT 9999 NSC 18/14 Q1019 A3009 HR80 RWY NML=@CAELT@
ZPX0112 220959@CAELT@GG SLZZYMYT@CAELT@220959 SLVRYFYC@CAELT@SABO SLVR 221000@CAELT@METAR SLVR 221000Z 23004KT 9999 FEW023 BKN070 23/19 Q1012 A2990 HR78@CAELT@NOSIG=@CAELT@METAR SLET 221000Z 21004KT 9999 BKN070 26/17 Q1012 A2989 HR61 NOSIG=@CAELT@METAR SLCP 221000Z 00000KT 9999 SCT070 22/21 Q1015 A2997 HR92 RWY NML@CAELT@METAR SLSI 221000Z 00000KT 9999 BKN070 22/18 Q1012 A2988 HR82 RWY NMLMETAR SLRB 221000Z 00000KT 9999 NSC 17/16 Q1015 A2997 HR91 RWY NML=METAR SLCA 221000Z 00000KT 9999 NSC 18/14 Q1019 A3009 HR80 RWY NML=
ZPX0114 221002@CAELT@GG SLZZYMYT@CAELT@221000 SLTRYGYS@CAELT@SABO SLTR 221000@CAELT@METAR SLTR 221000Z 00000KT 9999 NSC 24/22 Q1011 A2986 992.5 HR89@CAELT@CI NOSIG=@CAELT@METAR SLGM 221000Z 00000KT 9999 NSC 24/23 Q1009 A2982 HR94 CI=@CAELT@METAR SLRI 221000Z 00000KT 9999 NSC 24/23 Q1010 A2985 HR96 CI=@CAELT@METAR SLJO 221000Z 00000KT 9999 NSC 22/21 Q1009 A2982 HR93 CIRWY NML=METAR SLRA 221000ZMETAR SLMG 221000Z 00000KT 9999 NSC 22/22 Q1009 A2982 HR97 CIMETAR SLBU 221000Z NIL=METAR SLSA 221000Z 00000KT 9999 FEW080 SCT200 24/23 Q1009 A2982 HR93=METAR SLSR 221000Z 00000KT 5000 FU FEW017 BKN200 22/21 Q1009 A2981HR94 RWY NML=METAR SLSM 221000Z 00000KT 9999 NSC 21/21 Q1010 A2984 HR98 CI
ZPX0116 221003@CAELT@GG SLZZYMYT@CAELT@221002 SLCBYGYZ@CAELT@SABO SLCB 221000@CAELT@METAR SLCB 221000Z 12010KT 9999 FEW033 SCT070 16/07 Q1026 A3033 752.9@CAELT@HR54 FU NOSIG=@CAELT@
ZPX0117 221003@CAELT@GG SLZZYMYT@CAELT@221003 SLLPYFYA@CAELT@SABO SLLP 221000@CAELT@METAR SLLP 221000Z 09009KT 3000E VCFG FEW003 SCT010 04/03 Q1037@CAELT@A3063 627.4 HR95 P92// VCFG NE/E/SE/S CI NOSIG=@CAELT@METAR SLRY 221000Z 00000KT 9999 FEW080 22/22 Q1009 A2979 HR100@CAELT@RWY NML=@CAELT@METAR SLRQ 221000Z 00000KT 9999 FEW080 22/22 Q1010 A2984 HR98=METAR SLSB 221000Z 00000KT 8000 FEW080 23/22 Q1011 A2987 HR92FU RWY NML=
ZPX0118 221006@CAELT@GG SLZZYMYT@CAELT@221005 SLTRYGYS@CAELT@SABO SLTR 221000 RRA@CAELT@METAR SLTR 221000Z 00000KT 9999 NSC 24/22 Q1011 A2986 992.5 HR89@CAELT@CI NOSIG=@CAELT@METAR SLGM 221000Z 00000KT 9999 NSC 24/23 Q1009 A2982 HR94 CI=@CAELT@METAR SLRI 221000Z 00000KT 9999 NSC 24/23 Q1010 A2985 HR96 CI=@CAELT@METAR SLJO 221000Z 00000KT 9999 NSC 22/21 Q1009 A2982 HR93 CIRWY NML=METAR RTD SLRA 221000Z 00000KT 9999 NSC 23/22 Q1009 A2981 HR96 CIMETAR SLMG 221000Z 00000KT 9999 NSC 22/22 Q1009 A2982 HR97 CIMETAR SLBU 221000Z NIL=METAR SLSA 221000Z 00000KT 9999 FEW080 SCT200 24/23 Q1009 A2982 HR93=METAR SLSR 221000Z 00000KT 5000 FU FEW017 BKN200 22/21 Q1009 A2981HR94 RWY NML=METAR SLSM 221000Z 00000KT 9999 NSC 21/21 Q1010 A2984 HR98 CI
ZPX0129 221053@CAELT@GG SLZZYMYT@CAELT@221052 SLETYMYC@CAELT@SABO SLET 221100@CAELT@METAR SLET 221100Z 17008KT 9999 BKN070 28/16 Q1013 A2992 HR48 NOSIG=@CAELT@
ZPX0130 221054@CAELT@GG SLZZYMYT@CAELT@221055 SLSAYGYS@CAELT@SABO SLSA 221100@CAELT@METAR SLSA 221100Z 30004KT 9999 FEW080 SCT200 25/23 Q1010 A2985 HR89=@CAELT@
ZPX0131 221054@CAELT@GG SLZZYMYT@CAELT@221054 SLCAYGYS@CAELT@SABO SLCA 221100@CAELT@METAR SLCA 221100Z 00000KT 9999 NSC 20/16 Q1019 A3009 HR75 RWY NML=@CAELT@
ZPX0135 221055@CAELT@GG SLZZYMYT@CAELT@221056 SLVRYGYZ@CAELT@SABO SLVR 221100@CAELT@METAR SLVR 221100Z 22003KT 9999 FEW023 BKN080 26/20 Q1013 A2993 HR69@CAELT@NOSIG=@CAELT@
ZPX0136 221056@CAELT@GG SLZZYMYT@CAELT@221056 SLVRYFYC@CAELT@SABO SLVR 221100@CAELT@METAR SLVR 221100Z 22003KT 9999 FEW023 BKN080 26/20 Q1013 A2993 HR69@CAELT@NOSIG=@CAELT@METAR SLET 221100Z 17008KT 9999 BKN070 28/16 Q1013 A2992 HR48 NOSIG=@CAELT@METAR SLAS 221100Z 00000KT 5000 FU NSC 26/20 Q1014 A2994 HR71 RWY NML@CAELT@METAR SLJV 221100Z 00000KT 9999 NSC 23/20 Q1012 A2988 HR82 RWY NML=METAR SLCP 221100Z 00000KT 9999 NSC 24/22 Q1016 A3000 HR87 RWY NML=METAR SLSI 221100Z 00000KT 9999 BKN070 24/19 Q1013 A2991 HR74 RWY NMLMETAR SLTI 221100Z 00000KT 9999 FEW070 26/19 Q1016 A3000 HR67 RWY NMLMETAR SLJE 221100Z 00000KT 9999 NSC 27/19 Q1015 A2997 HR62 RWY NML=METAR SLRB 221100Z 00000KT 9999 NSC 21/18 Q1014 A2994 HR83 RWY NML=METAR SLCA 221100Z 00000KT 9999 NSC 20/16 Q1019 A3009 HR75 RWY NML=
ZPX0139 221056@CAELT@GG SLZZYMYT@CAELT@221056 SLLPYGYZ@CAELT@SABO SLLP 221100@CAELT@METAR SLLP 221100Z 10010KT 4000E VCFG FEW003 07/03 Q1038 A3066@CAELT@628.1 HR79 P92// VCFG NE/E/SE/S FU CI NOSIG=@CAELT@
ZPX0140 221056@CAELT@GG SLZZYMYT@CAELT@221056 SLCBYGYZ@CAELT@SABO SLCB 221100@CAELT@METAR SLCB 221100Z 12010KT 9999 FEW030 17/07 Q1028 A3036 753.7 HR51@CAELT@FU AC CI NOSIG=@CAELT@
ZPX0141 221057@CAELT@GG SLZZYMYT@CAELT@221057 SLTRYGYZ@CAELT@SABO SLTR 221100@CAELT@METAR SLTR 221100Z 00000KT 9999 NSC 25/23 Q1011 A2987 993.0@CAELT@HR90 CI NOSIG=@CAELT@
ZPX0146 221100@CAELT@GG SLZZYMYT@CAELT@221059 SLLPYFYA@CAELT@SABO SLRQ 221100@CAELT@METAR SLRQ 221100Z 00000KT 9999 FEW080 25/24 Q1011 A2987@CAELT@987.5 HR93 CI=@CAELT@
ZPX0147 221100@CAELT@GG SLZZYMYT@CAELT@221100 SLSBYSYX@CAELT@SABO SLSB 221100@CAELT@METAR SLSB 221100Z 00000KT 6000 NSC 26/23 Q1012 A2990 HR89 FU RWY NML=@CAELT@
ZPX0148 221100@CAELT@GG SLZZYMYT@CAELT@221056 SLRQYSYX@CAELT@SABO SLRQ 221100@CAELT@METAR SLRQ 221100Z 00000KT 9999 FEW080 25/24 Q1011 A2987 987.5 HR93@CAELT@
ZPX0150 221100@CAELT@GG SLZZYMYT@CAELT@221100 SLTRYGYS@CAELT@SABO SLTR 221100@CAELT@METAR SLTR 221100Z 00000KT 9999 NSC 25/23 Q1011 A2987 993.0 HR90 CI@CAELT@NOSIG=@CAELT@METAR SLGM 221100Z 00000KT 9999 NSC 25/23 Q1011 A2985 HR89 CI=@CAELT@METAR SLRI 221100Z NIL=@CAELT@METAR SLJO 221100Z 36003KT 9999 NSC 24/23 Q1010 A2983 HR91 CIRWY NML=METAR SLRA 221100Z 00000KT 9999 NSC 24/22 Q1010 A2985 HR88 CIMETAR SLMG 221100Z 00000KT 9999 NSC 23/22 Q1010 A2985 HR92 CIMETAR SLBU 221100Z NIL=METAR SLSA 221100Z 30004KT 9999 FEW080 SCT200 25/23 Q1010 A2985 HR89=METAR SLSR 221100Z 00000KT 5000 FU NSC 25/23 Q1011 A2985 HR90 CIMETAR SLSM 221100Z 00000KT 9999 NSC 23/23 Q1011 A2986 HR98 CI
ZPX0151 221101@CAELT@GG SLZZYMYT@CAELT@221100 SLLPYFYA@CAELT@SABO SLRY 221100@CAELT@METAR SLRY 221100Z 00000KT 9999 FEW080 23/22 Q1010 A2982 HR95@CAELT@RWY NML=@CAELT@
ZPX0153 221102@CAELT@GG SLZZYMYT@CAELT@221102 SLTRYGYS@CAELT@SABO SLTR 221100 RRA@CAELT@METAR SLTR 221100Z 00000KT 9999 NSC 25/23 Q1011 A2987 993.0 HR90 CI@CAELT@NOSIG=@CAELT@METAR SLGM 221100Z 00000KT 9999 NSC 25/23 Q1011 A2985 HR89 CI=@CAELT@METAR RTD SLRI 221100Z 00000KT 9999 NSC 24/23 Q1012 A2989 HR99 CI=@CAELT@METAR SLJO 221100Z 36003KT 9999 NSC 24/23 Q1010 A2983 HR91 CIRWY NML=METAR SLRA 221100Z 00000KT 9999 NSC 24/22 Q1010 A2985 HR88 CIMETAR SLMG 221100Z 00000KT 9999 NSC 23/22 Q1010 A2985 HR92 CIMETAR SLBU 221100Z NIL=METAR SLSA 221100Z 30004KT 9999 FEW080 SCT200 25/23 Q1010 A2985 HR89=METAR SLSR 221100Z 00000KT 5000 FU NSC 25/23 Q1011 A2985 HR90 CIMETAR SLSM 221100Z 00000KT 9999 NSC 23/23 Q1011 A2986 HR98 CI
ZPX0155 221103@CAELT@GG SLZZYMYT@CAELT@221102 SLLPYFYA@CAELT@SABO SLLP 221100@CAELT@METAR SLLP 221100Z 10010KT 4000E VCFG FEW003 07/03 Q1038 A3066@CAELT@628.1 HR79 P92// VCFG NE/E/SE/S FU CI NOSIG=@CAELT@METAR SLRY 221100Z 00000KT 9999 FEW080 23/22 Q1010 A2982 HR95@CAELT@RWY NML=@CAELT@METAR SLRQ 221100Z 00000KT 9999 FEW080 25/24 Q1011 A2987 987.5HR93 CI=METAR SLSB 221100Z 00000KT 6000 NSC 26/23 Q1012 A2990 HR89 FU RWY NML=
ZPX0167 221153@CAELT@GG SLZZYMYT@CAELT@221154 SLVRYGYZ@CAELT@SABO SLVR 221200@CAELT@METAR SLVR 221200Z 17005KT 9999 FEW023 30/19 Q1014 A2996 HR50 AC@CAELT@NOSIG=@CAELT@
ZPX0168 221154@CAELT@GG SLZZYMYT@CAELT@221154 SLSBYSYX@CAELT@SABO SLSB 221200@CAELT@METAR SLSB 221200Z 00000KT 6000 NSC 28/22 Q1012 A2991 HR72 FU RWY NML=@CAELT@
ZPX0169 221154@CAELT@GG SLZZYMYT@CAELT@221154 SLSAYGYS@CAELT@SABO SLSA 221200@CAELT@METAR SLSA 221200Z 16004KT 9999 FEW080 SCT200 26/23 Q1011 A2986 HR85=@CAELT@
ZPX0170 221154@CAELT@GG SLZZYMYT@CAELT@221154 SLTJYGYZ@CAELT@SABO SLTJ 221200@CAELT@METAR SLTJ 221200Z 00000KT 9999 FEW030 21/15 Q1023 A3022 817.6 HR68=@CAELT@
ZPX0171 221155@CAELT@GG SLZZYMYT@CAELT@221129 SLETYMYC@CAELT@SABO SLET 221200@CAELT@METAR SLET 221200Z 17008KT 9999 FEW023 30/16 Q1014 A2994 HR45 AC@CAELT@NOSIG=@CAELT@
ZPX0172 221155@CAELT@GG SLZZYMYT@CAELT@221155 SLCAYGYS@CAELT@SABO SLCA 221200@CAELT@METAR SLCA 221200Z 00000KT 9999 NSC 24/14 Q1019 A3009 HR54 RWY NML=@CAELT@
ZPX0173 221155@CAELT@GG SLZZYMYT@CAELT@221153 SLRBYGYS@CAELT@SABO SLRB 221200@CAELT@METAR SLRB 221200Z 00000KT 9999 NSC 25/21 Q1016 A3000 HR78 RWY NML=@CAELT@
ZPX0174 221156@CAELT@GG SLZZYMYT@CAELT@221155 SLLPYGYZ@CAELT@SABO SLLP 221200@CAELT@METAR SLLP 221200Z 09009KT 6000 FEW006 09/02 Q1038 A3068 628.6@CAELT@HR65 P92// VIS RED/ST BJOS NE/E/SE/S HZ/SW/W/NW CI NOSIG=@CAELT@
ZPX0175 221156@CAELT@GG SLZZYMYT@CAELT@221156 SLVRYFYC@CAELT@SABO SLVR 221200@CAELT@METAR SLVR 221200Z 17005KT 9999 FEW023 30/19 Q1014 A2996 HR50 AC@CAELT@NOSIG=@CAELT@METAR SLET 221200Z 17008KT 9999 FEW023 30/16 Q1014 A2994 HR45 AC@CAELT@METAR SLAS 221200Z 00000KT 5000 FU NSC 29/20 Q1015 A2997 HR57 RWY NML@CAELT@METAR SLJV 221200Z 00000KT 9999 NSC 25/20 Q1012 A2988 HR75 RWY NML=METAR SLCP 221200Z 00000KT 9999 NSC 26/21 Q1017 A3003 HR76 RWY NML=METAR SLSI 221200Z 00000KT 9999 SCT070 27/20 Q1013 A2991 HR65 RWY NMLMETAR SLTI 221200Z 00000KT 9999 NSC 29/17 Q1016 A3000 HR50 RWY NML=METAR SLJE 221200Z 00000KT 9999 NSC 31/17 Q1016 A3000 HR44 RWY NML=METAR SLVG 221200Z 00000KT 9999 FEW023 20/11 Q1027 A3033 HR51 RWY NMLMETAR SLRB 221200Z 00000KT 9999 NSC 25/21 Q1016 A3000 HR78 RWY NML=METAR SLCA 221200Z 00000KT 9999 NSC 24/14 Q1019 A3009 HR54 RWY NML=
ZPX0176 221156@CAELT@GG SLZZYMYT@CAELT@221156 SLTRYGYZ@CAELT@SABO SLTR 221200@CAELT@METAR SLTR 221200Z 00000KT 9999 NSC 28/22 Q1012 A2989 993.8@CAELT@HR70 CI NOSIG=@CAELT@
ZPX0179 221156@CAELT@GG SLZZYMYT@CAELT@221156 SLRQYSYX@CAELT@SABO SLRQ 221200@CAELT@METAR SLRQ 221200Z 00000KT 9999 FEW080 29/24 Q1012 A2989 988.2 HR74=@CAELT@
ZPX0180 221156@CAELT@GG SLZZYMYT@CAELT@221155 SLSAYGYS@CAELT@SABO SLSA 221200 CCA@CAELT@METAR COR SLSA 221200Z 16004KT 9999 FEW080 SCT200 26/23 Q1011 A2988@CAELT@HR85=@CAELT@
ZPX0181 221157@CAELT@GG SLZZYMYT@CAELT@221156 SLLPYFYA@CAELT@SABO SLRY 221200@CAELT@METAR SLRY 221200Z 00000KT 9999 NSC 27/23 Q1010 A2985 HR76@CAELT@RWY NML=@CAELT@
ZPX0182 221158@CAELT@GG SLZZYMYT@CAELT@221157 SLTRYGYS@CAELT@SABO SLTR 221200@CAELT@METAR SLTR 221200Z 00000KT 9999 NSC 28/22 Q1012 A2989 993.8 HR70 CI@CAELT@NOSIG=@CAELT@METAR SLGM 221200Z 00000KT 9999 NSC 28/24 Q1011 A2987 HR80 CI=@CAELT@METAR SLRI 221200Z 00000KT 9999 NSC 28/24 Q1012 A2991 HR78 CI=@CAELT@METAR SLJO 221200Z 36003KT 9999 NSC 28/23 Q1011 A2987 HR76 CIRWY NML=METAR SLRA 221200Z 36004KT 9999 NSC 26/22 Q1011 A2986 HR77 CIMETAR SLMG 221200Z 00000KT 9999 NSC 26/23 Q1011 A2986 HR84 CIMETAR SLBU 221200Z NIL=METAR SLSA 221200Z 16004KT 9999 FEW080 SCT200 26/23 Q1011 A2986 HR85=METAR SLSR 221200Z 00000KT 5000 FU NSC 28/23 Q1011 A2987 HR76 CIMETAR SLSM 221200Z 00000KT 9999 NSC 28/24 Q1012 A2990 HR81 CI
ZPX0185 221159@CAELT@GG SLZZYMYT@CAELT@221159 SLCBYGYS@CAELT@SABO SLCB 221200@CAELT@METAR SLCB 221200Z 12007KT 070V180 9999 FEW030 FEW033TCU 19/06 Q1028@CAELT@A3037 754.1 HR43 TCU/W CI NOSIG=@CAELT@METAR SLAL 221200Z 01010KT 9999 FEW012 BKN070 11/06 Q1033 A3053@CAELT@706.8 HR69=@CAELT@METAR SLPO 221200Z NIL=METAR SLAG 221200Z NIL=METAR SLVM 221200Z NIL=METAR SLTJ 221200Z 00000KT 9999 FEW030 21/15 Q1023 A3022 817.6 HR68=METAR SLYA 221200Z NIL=METAR SLBJ 221200Z NIL=
ZPX0187 221201@CAELT@GG SLZZYMYT@CAELT@221201 SLLPYFYA@CAELT@SABO SLLP 221200@CAELT@METAR SLLP 221200Z 09009KT 6000 FEW006 09/02 Q1038 A3068 628.6@CAELT@HR65 P92// VIS RED/ST BJOS NE/E/SE/S HZ/SW/W/NW CI NOSIG=@CAELT@METAR SLRY 221200Z 00000KT 9999 NSC 27/23 Q1010 A2985 HR76@CAELT@RWY NML=@CAELT@METAR SLRQ 221200Z 00000KT 9999 FEW080 29/24 Q1012 A2989 988.2HR74=METAR SLSB 221200Z 00000KT 6000 NSC 28/22 Q1012 A2991 HR72 FU
ZPX0188 221202@CAELT@GG SLZZYMYT@CAELT@221202 SLTRYGYS@CAELT@SABO SLTR 221200 CCA@CAELT@METAR SLTR 221200Z 00000KT 9999 NSC 28/22 Q1012 A2989 993.8 HR70 CI@CAELT@NOSIG=@CAELT@METAR SLGM 221200Z 00000KT 9999 NSC 28/24 Q1011 A2987 HR80 CI=@CAELT@METAR SLRI 221200Z 00000KT 9999 NSC 28/24 Q1012 A2991 HR78 CI=@CAELT@METAR SLJO 221200Z 36003KT 9999 NSC 28/23 Q1011 A2987 HR76 CIRWY NML=METAR SLRA 221200Z 36004KT 9999 NSC 26/22 Q1011 A2986 HR77 CIMETAR SLMG 221200Z 00000KT 9999 NSC 26/23 Q1011 A2986 HR84 CIMETAR SLBU 221200Z NIL=METAR COR SLSA 221200Z 16004KT 9999 FEW080 SCT200 26/23 Q1011 A2988HR85=METAR SLSR 221200Z 00000KT 5000 FU NSC 28/23 Q1011 A2987 HR76 CIMETAR SLSM 221200Z 00000KT 9999 NSC 28/24 Q1012 A2990 HR81 CI
ZPX0214 221254@CAELT@GG SLZZYMYT@CAELT@221254 SLSAYGYS@CAELT@SABO SLSA 221300@CAELT@METAR SLSA 221300Z 00000KT 9999 NSC 30/23 Q1012 A2989 HR67=@CAELT@
ZPX0215 221254@CAELT@GG SLZZYMYT@CAELT@221253 SLRBYGYS@CAELT@SABO SLRB 221300@CAELT@METAR SLRB 221300Z 00000KT 9999 NSC 29/22 Q1017 A3003 HR62 RWY NML=@CAELT@
ZPX0216 221255@CAELT@GG SLZZYMYT@CAELT@221255 SLTRYGYZ@CAELT@SABO SLTR 221300@CAELT@METAR SLTR 221300Z 24003KT 9999 NSC 31/22 Q1012 A2990 994.0 HR60@CAELT@CI NOSIG=@CAELT@
ZPX0217 221255@CAELT@GG SLZZYMYT@CAELT@221245 SLETYMYC@CAELT@SABO SLET 221300@CAELT@METAR SLET 221300Z 16008KT 9999 NSC 32/17 Q1014 A2995 HR41 NOSIG=@CAELT@
ZPX0218 221256@CAELT@GG SLZZYMYT@CAELT@221255 SLSBYSYX@CAELT@SABO SLSB 221300@CAELT@METAR SLSB 221300Z 00000KT 8000 NSC 32/23 Q1013 A2992 HR59 FU RWY NML=@CAELT@
ZPX0219 221256@CAELT@GG SLZZYMYT@CAELT@221256 SLVRYGYZ@CAELT@SABO SLVR 221300@CAELT@METAR SLVR 221300Z 19008KT 9999 NSC 31/19 Q1014 A2996 HR47 NOSIG=@CAELT@
ZPX0220 221256@CAELT@GG SLZZYMYT@CAELT@221256 SLCAYGYS@CAELT@SABO SLCA 221300@CAELT@METAR SLCA 221300Z 00000KT 9999 NSC 27/15 Q1019 A3009 HR47 RWY NML=@CAELT@
ZPX0221 221256@CAELT@GG SLZZYMYT@CAELT@221255 SLCBYGYZ@CAELT@SABO SLCB 221300@CAELT@METAR SLCB 221300Z VRB02KT 9999 FEW033 22/07 Q1028 A3037 754.0 HR36@CAELT@FU AC CI NOSIG=@CAELT@
ZPX0222 221257@CAELT@GG SLZZYMYT@CAELT@221255 SLLPYGYZ@CAELT@SABO SLLP 221300@CAELT@METAR SLLP 221300Z 10009KT 8000 FEW008 10/02 Q1039 A3068 628.7@CAELT@HR58 P93// VIS RED/SC BJOS NE/E/SE HZ/SW/NW CI NOSIG=@CAELT@
ZPX0223 221257@CAELT@GG SLZZYMYT@CAELT@221257 SLLPYFYA@CAELT@SABO SLRY 221300@CAELT@METAR SLRY 221300Z 00000KT 9999 NSC 32/23 Q1011 A2988 HR63 RWY NML=@CAELT@
ZPX0224 221257@CAELT@GG SLZZYMYT@CAELT@221257 SLRQYSYX@CAELT@SABO SLRQ 221300@CAELT@METAR SLRQ 221300Z 00000KT 9999 FEW080 31/26 Q1012 A2991 988.7 HR73=@CAELT@
ZPX0225 221258@CAELT@GG SLZZYMYT@CAELT@221258 SLLPYFYA@CAELT@SABO SLLP 221300@CAELT@METAR SLLP 221300Z 10009KT 8000 FEW008 10/02 Q1039 A3068 628.7@CAELT@HR58 P93// VIS RED/SC BJOS NE/E/SE HZ/SW/NW CI NOSIG=@CAELT@METAR SLRY 221300Z 00000KT 9999 NSC 32/23 Q1011 A2988 HR63@CAELT@RWY NML=@CAELT@METAR SLRQ 221300Z 00000KT 9999 FEW080 31/26 Q1012 A2991 988.7HR73=METAR SLSB 221300Z 00000KT 8000 NSC 32/23 Q1013 A2992 HR59 FU
ZPX0227 221259@CAELT@GG SLZZYMYT@CAELT@221259 SLVRYFYC@CAELT@SABO SLVR 221300@CAELT@METAR SLVR 221300Z 19008KT 9999 NSC 31/19 Q1014 A2996 HR47 NOSIG=@CAELT@METAR SLET 221300Z 16008KT 9999 NSC 32/17 Q1014 A29.95 HR41 NOSIG=@CAELT@METAR SLAS 221300Z 00000KT 8000 NSC 33/19 Q1014 A2994 HR46 FU RWY NML@CAELT@METAR SLJV 221300Z NIL=@CAELT@METAR SLCP 221300Z 00000KT 9999 NSC 30/22 Q1017 A3003 HR63 RWY NML=METAR SLSI 221300Z 00000KT 9999 NSC 30/20 Q1013 A2991 HR57 RWY NML=METAR SLTI 221300Z 03005KT 9999 NSC 33/18 Q1016 A3000 HR42 RWY NML=METAR SLJE 221300Z 00000KT 9999 NSC 34/16 Q1016 A3000 HR36 RWY NML=METAR SLVG 221300Z 00000KT 9999 FEW023 21/11 Q1027 A3033 HR49 RWY NMLMETAR SLRB 221300Z 00000KT 9999 NSC 29/22 Q1017 A3003 HR62 RWY NML=METAR SLCA 221300Z 00000KT 9999 NSC 27/15 Q1019 A3009 HR47 RWY NML=
ZPX0228 221300@CAELT@GG SLZZYMYT@CAELT@221257 SLTRYGYS@CAELT@SABO SLTR 221300@CAELT@METAR SLTR 221300Z 24003KT 9999 NSC 31/22 Q1012 A2990 994.0 HR60 CI@CAELT@NOSIG=@CAELT@METAR SLGM 221300Z 02006KT 9999 NSC 30/24 Q1012 A2989 HR70 CI=@CAELT@METAR SLRI 221300Z 00000KT 9999 NSC 30/24 Q1013 A2992 HR67 CI=@CAELT@METAR SLJO 221300Z 36004KT 9999 NSC 32/22 Q1011 A2988 HR58 CIRWY NML=METAR SLRA 221300Z 36003KT 9999 NSC 31/22 Q1011 A2986 HR58 CIMETAR SLMG 221300Z 00000KT 9999 NSC 30/23 Q1011 A2987 HR65 CIMETAR SLBU 221300Z NIL=METAR SLSA 221300Z 00000KT 9999 NSC 30/23 Q1012 A2989 HR67=METAR SLSR 221300Z 00000KT 5000 FU FEW017 SCT200 31/23 Q1012 A2989HR65 RWY NML=METAR SLSM 221300Z 00000KT 9999 NSC 31/24 Q1012 A2990 HR65 CI
ZPX0229 221301@CAELT@GG SLZZYMYT@CAELT@221300 SLCBYGYS@CAELT@SABO SLCB 221300@CAELT@METAR SLCB 221300Z VRB02KT 9999 FEW033 22/07 Q1028 A3037 754.0 HR36@CAELT@FU AC CI NOSIG=@CAELT@METAR SLAL 221300Z 03006KT 9999 SCT015 SCT070 14/05 Q1033 A3053@CAELT@706.8 HR57=@CAELT@METAR SLPO 221300Z NIL=METAR SLAG 221300Z NIL=METAR SLVM 221300Z NIL=METAR SLTJ 221300Z NIL=METAR SLYA 221300Z NIL=METAR SLBJ 221300Z NIL=METAR SLHI 221300Z NIL=
ZPX0230 221302@CAELT@GG SLZZYMYT@CAELT@221301 SLVRYFYC RRA@CAELT@SABO SLJV 221300Z RRA@CAELT@METAR SLJV 221300Z 00000KT 9999 NSC 27/20 Q1012 A2988 HR69 RWY NML=@CAELT@
