
ZPX0002 210002@CAELT@GG SLZZYMYT@CAELT@210000 SLCBYGYS@CAELT@SABO SLCB 210000@CAELT@METAR SLCB 210000Z 14008KT 9999 FEW033 FEW036CB SCT080 BKN200 20/09@CAELT@Q1022 A3018 749.0 HR49 CB/LT/SW NOSIG=@CAELT@METAR SLAL 210000Z 35011KT 9999 NSC 12/09 Q1026 A3031 701.8 HR82 CI=@CAELT@METAR SLTJ 210000Z 00000KT 9999 SCT025 BKN070 BKN200 15/12 Q1019@CAELT@A3010 814.4 HR78=
ZPX0027 210054@CAELT@GG SLZZYMYT@CAELT@210054 SLVRYGYZ@CAELT@SABO SLVR 210100@CAELT@METAR SLVR 210100Z 19007KT 9999 SCT017 BKN200 26/20 Q1009 A2982 HR69@CAELT@AC NOSIG=@CAELT@
ZPX0028 210056@CAELT@GG SLLPZRZX@CAELT@210055 SLLPYGYZ@CAELT@SABO SLLP 210100@CAELT@METAR SLLP 210100Z 06007KT 9999 FEW015 FEW017CB BKN200 08/M00 Q1036@CAELT@A3060 626.7 HR54 CB/LT E/SE/NW AC NOSIG=@CAELT@
ZPX0029 210058@CAELT@GG SLZZYMYT@CAELT@210057 SLCBYGYZ@CAELT@SABO SLCB 210100@CAELT@METAR SLCB 210100Z 34003KT 9999 FEW033 SCT200 19/09 Q1022 A3020 749.7@CAELT@HR51 AC NOSIG=@CAELT@
ZPX0039 210153@CAELT@GG SLZZYMYT@CAELT@210154 SLVRYGYZ@CAELT@SABO SLVR 210200@CAELT@METAR SLVR 210200Z 19008KT 9999 SCT017 BKN200 26/20 Q1010 A2984 HR70@CAELT@AC NOSIG=@CAELT@
ZPX0040 210156@CAELT@GG SLZZYMYT@CAELT@210155 SLCBYGYZ@CAELT@SABO SLCB 210200@CAELT@METAR SLCB 210200Z 34003KT 9999 FEW033 FEW036CB 19/10 Q1023 A3022 750@CAELT@.1 HR54 CB LT DIST W AC CI NOSIG=@CAELT@
ZPX0041 210157@CAELT@GG SLLPZRZX@CAELT@210156 SLLPYGYZ@CAELT@SABO SLLP 210200@CAELT@METAR SLLP 210200Z 08008KT 9999 FEW015 FEW017CB BKN200 08/M01 Q1037@CAELT@A3063 627.4 HR56 CB/LT SE/S/W AC NOSIG=@CAELT@
ZPX0053 210255@CAELT@GG SLZZYMYT@CAELT@210255 SLVRYGYZ@CAELT@SABO SLVR 210300@CAELT@METAR SLVR 210300Z 18006KT 9999 BKN017 BKN070 26/20 Q1011 A2987 HR69@CAELT@NOSIG=@CAELT@
ZPX0054 210256@CAELT@GG SLLPZRZX@CAELT@210255 SLLPYGYZ@CAELT@SABO SLLP 210300@CAELT@METAR SLLP 210300Z 25005KT 9999 FEW012 FEW017CB BKN200 07/04 Q1038@CAELT@A3066 628.1 HR82 CB/LT S/SW AC NOSIG=@CAELT@
ZPX0055 210259@CAELT@GG SLZZYMYT@CAELT@210257 SLCBYGYZ@CAELT@SABO SLCB 210300@CAELT@METAR SLCB 210300Z 00000KT 9999 FEW033 SCT200 17/10 Q1023 A3023 750.4@CAELT@HR61 NOSIG=@CAELT@
ZPX0064 210355@CAELT@GG SLZZYMYT@CAELT@210355 SLVRYGYZ@CAELT@SABO SLVR 210400@CAELT@METAR SLVR 210400Z 14004KT 9999 BKN017 FEW030CB OVC070 25/21 Q1011@CAELT@A2988 HR77 CB/LT NE NOSIG=@CAELT@
ZPX0065 210355@CAELT@GG SLZZYMYT@CAELT@210355 SLCBYGYZ@CAELT@SABO SLCB 210400@CAELT@METAR SLCB 210400Z 00000KT 9999 FEW033 SCT200 18/10 Q1023 A3023 750.3@CAELT@HR59 NOSIG=@CAELT@
ZPX0066 210356@CAELT@GG SLLPZRZX@CAELT@210355 SLLPYGYZ@CAELT@SABO SLLP 210400@CAELT@METAR SLLP 210400Z VRB02KT 9999 FEW008 FEW017CB BKN200 06/04 Q1038@CAELT@A3065 627.9 HR86 CB/LT S AC NOSIG=@CAELT@
ZPX0077 210455@CAELT@GG SLZZYMYT@CAELT@210455 SLCBYGYZ@CAELT@SABO SLCB 210500@CAELT@METAR SLCB 210500Z 00000KT 9999 FEW033 SCT200 17/10 Q1023 A3021 749.8@CAELT@HR60 NOSIG=@CAELT@
ZPX0078 210457@CAELT@GG SLLPZRZX@CAELT@210456 SLLPYGYZ@CAELT@SABO SLLP 210500@CAELT@METAR SLLP 210500Z 03004KT 9999 FEW008 FEW017CB BKN200 05/03 Q1037@CAELT@A3064 627.7 HR85 CB/LT SE AC NOSIG=@CAELT@
ZPX0086 210554@CAELT@GG SLZZYMYT@CAELT@210554 SLVRYGYZ@CAELT@SABO SLVR 210600@CAELT@METAR SLVR 210600Z 16010KT 9999 FEW008 BKN017 FEW030CB OVC070 22/19@CAELT@Q1012 A2989 HR87 CB/LT W/NE RETSRA NOSIG=@CAELT@
ZPX0087 210556@CAELT@GG SLLPZRZX@CAELT@210555 SLLPYGYZ@CAELT@SABO SLLP 210600@CAELT@METAR SLLP 210600Z 08003KT 4000E VCFG FEW003 BKN200 04/03 Q1037@CAELT@A3062 627.3 HR93 VCFG E/SE AC NOSIG=@CAELT@
ZPX0088 210558@CAELT@GG SLZZYMYT@CAELT@210557 SLCBYGYZ@CAELT@SABO SLCB 210600@CAELT@METAR SLCB 210600Z 19003KT 9999 FEW033 BKN200 16/10 Q1023 A3021 749.8@CAELT@HR70 AC NOSIG=@CAELT@
ZPX0095 210655@CAELT@GG SLZZYMYT@CAELT@210655 SLVRYGYZ@CAELT@SABO SLVR 210700@CAELT@METAR SLVR 210700Z 14008KT 9999 BKN017 FEW030CB OVC070 21/18 Q1012@CAELT@A2989 HR85 CB/LT NW/N/NE NOSIG=@CAELT@
ZPX0096 210656@CAELT@GG SLZZYMYT@CAELT@210655 SLCBYGYZ@CAELT@SABO SLCB 210700@CAELT@METAR SLCB 210700Z 29004KT 9999 FEW033 SCT080 BKN200 16/11 Q1022@CAELT@A3020 749.7 HR68 NOSIG=@CAELT@
ZPX0097 210656@CAELT@GG SLLPZRZX@CAELT@210656 SLLPYGYZ@CAELT@SABO SLLP 210700@CAELT@METAR SLLP 210700Z 08004KT 4000E VCFG FEW003 SCT010 BKN200 05/05@CAELT@Q1036 A3061 627.1 HR98 VCFG NE/E/SE AC NOSIG=@CAELT@
ZPX0105 210756@CAELT@GG SLZZYMYT@CAELT@210756 SLVRYGYZ@CAELT@SABO SLVR 210800@CAELT@METAR SLVR 210800Z 17015KT 8000 -RA BKN023 FEW030CB BKN070 20/17@CAELT@Q1011 A2988 HR84 CB LT N NOSIG@CAELT@
ZPX0106 210757@CAELT@GG SLZZYMYT@CAELT@210756 SLCBYGYZ@CAELT@SABO SLCB 210800@CAELT@METAR SLCB 210800Z 24003KT 9999 FEW033 FEW036CB SCT080 16/10 Q1023@CAELT@A3021 749.8 HR68 CB/NE NOSIG=@CAELT@
ZPX0107 210757@CAELT@GG SLLPZRZX@CAELT@210757 SLLPYGYZ@CAELT@SABO SLLP 210800@CAELT@METAR SLLP 210800Z VRB02KT 4000E VCFG FEW003 SCT010 BKN200 06/04@CAELT@Q1036 A3060 626.8 HR90 VCFG NE/E/SE AC NOSIG=@CAELT@
ZPX0117 210857@CAELT@GG SLZZYMYT@CAELT@210857 SLVRYGYZ@CAELT@SABO SLVR 210900@CAELT@METAR SLVR 210900Z 16007KT 9999 BKN025 OVC070 21/17 Q1012 A2989 HR81@CAELT@NOSIG=@CAELT@
ZPX0118 210858@CAELT@GG SLZZYMYT@CAELT@210856 SLCBYGYZ@CAELT@SABO SLCB 210900@CAELT@METAR SLCB 210900Z 00000KT 9999 FEW033 FEW036CB BKN080 16/10 Q1023@CAELT@A3022 750.1 HR69 CB LT NE NOSIG=@CAELT@
ZPX0120 210858@CAELT@GG SLLPZRZX@CAELT@210858 SLLPYGYZ@CAELT@SABO SLLP 210900@CAELT@METAR SLLP 210900Z 35005KT 6000 FEW003 BKN200 05/02 Q1036 A3060@CAELT@626.7 HR81 VIS/RED/ST/BAJOS E/SE AC NOSIG=@CAELT@
ZPX0122 210900@CAELT@GG SLZZYMYT@CAELT@210859 SLTRYGYZ@CAELT@SABO SLTR 210900@CAELT@METAR SLTR 210900Z 07005KT 8000 TS VCSH SCT017 FEW020CB BKN200@CAELT@26/24 Q1008 A2978 990.1 HR92 CB/TS/SH NE/E/SE/S/SW TEMPO TSRA=@CAELT@
ZPX0123 210901@CAELT@GG SLZZYMYT@CAELT@210900 SLTRYGYS@CAELT@SABO SLTR 210900@CAELT@METAR SLTR 210900Z 07005KT 8000 TS VCSH SCT017 FEW020CB BKN200@CAELT@26/24 Q1008 A2978 990.1 HR92 CB/TS/SH NE/E/SE/S/SW TEMPO TSRA=@CAELT@METAR SLRI 210900Z 00000KT 9999 SCT015 24/23 Q1009 A2982 HR95=@CAELT@
ZPX0128 210911@CAELT@GG SLZZYMYT@CAELT@210908 SLETYMYC@CAELT@SABO SLET 210900 RRA@CAELT@METAR RTD SLET 210900Z 16008KT 9000 -RA BKN023 FEW030CB BKN070 21/18@CAELT@Q1012 A2990 HR81 CB/LT W CI NOSIG=@CAELT@
ZPX0144 210951@CAELT@GG SLZZYMYT@CAELT@210950 SLPSYGYS@CAELT@SABO SLPS 211000@CAELT@METAR SLPS 211000Z 00000KT 9999 FEW020 BKN070 25/24 Q1010 A2983 HR91=@CAELT@
ZPX0145 210952@CAELT@GG SLZZYMYT@CAELT@210951 SLRBYGYS@CAELT@SABO SLRB 211000@CAELT@METAR SLRB 211000Z 00000KT 9999 NSC 22/21 Q1016 A3000 HR90 RWY NML=@CAELT@
ZPX0147 210954@CAELT@GG SLZZYMYT@CAELT@210954 SLCAYGYS@CAELT@SABO SLCA 211000@CAELT@METAR SLCA 211000Z 00000KT 9999 SCT036 BKN070 21/14 Q1019 A3009 HR67@CAELT@RWY NML=@CAELT@
ZPX0148 210955@CAELT@GG SLZZYMYT@CAELT@210955 SLSBYSYX@CAELT@SABO SLSB 211000@CAELT@METAR SLSB 211000Z 00000KT 9999 FEW080 22/22 Q1009 A2981 HR98 RWY NML=@CAELT@
ZPX0149 210955@CAELT@GG SLZZYMYT@CAELT@210955 SLETYMYC@CAELT@SABO SLET 211000@CAELT@METAR SLET 211000Z 16008KT 9999 BKN023 FEW030CB BKN070 22/18 Q1013@CAELT@A2992 HR78 CB/SH W/NW CI NOSIG=@CAELT@
ZPX0150 210956@CAELT@GG SLZZYMYT@CAELT@210955 SLSAYGYS@CAELT@SABO SLSA 211000@CAELT@METAR SLSA 211000Z 00000KT 8000 VCSH FEW017 FEW023CB BKN200 25/24@CAELT@Q1007 A2976 HR96 CB/SH E/SE=@CAELT@
ZPX0151 210956@CAELT@GG SLZZYMYT@CAELT@210955 SLSAYGYS@CAELT@SABO SLSA 211000@CAELT@METAR SLSA 211000Z 00000KT 8000 VCSH FEW017 FEW023CB BKN200 25/24@CAELT@Q1007 A2976 HR96 CB/SH E/SE=@CAELT@
ZPX0152 210956@CAELT@GG SLZZYMYT@CAELT@210956 SLVRYGYZ@CAELT@SABO SLVR 211000@CAELT@METAR SLVR 211000Z 16005KT 9999 BKN025 OVC070 21/18 Q1012 A2989 HR85@CAELT@SH N NE NOSIG=@CAELT@
ZPX0153 210957@CAELT@GG SLZZYMYT@CAELT@210956 SLTRYGYZ@CAELT@SABO SLTR 211000@CAELT@METAR SLTR 211000Z 11005KT 9999 -TSRA FEW005 SCT017 FEW020CB BKN070@CAELT@25/24 Q1010 A2983 991.5 HR94 CI CB E/SE/S/SW TS SE/S NOSIG=@CAELT@
ZPX0154 210957@CAELT@GG SLZZYMYT@CAELT@210957 SLLPYGYZ@CAELT@SABO SLLP 211000@CAELT@METAR SLLP 211000Z 32005KT 6000 FEW003 BKN200 05/03 Q1036 A3061@CAELT@627.1 HR88 P4052 VIS/RED/ST/BAJOS E/SE AC NOSIG=@CAELT@
ZPX0155 210957@CAELT@GG SLZZYMYT@CAELT@210956 SLLPYFYA@CAELT@SABO SLRY 211000@CAELT@METAR SLRY 211000Z 00000KT 9999 NSC 21/21 Q1007 A2975 HR98@CAELT@RWY NML=@CAELT@
ZPX0156 210958@CAELT@GG SLZZYMYT@CAELT@210957 SLCOYGYZ@CAELT@SABO SLCO 211000@CAELT@METAR SLCO 211000Z 00000KT 9999 FEW023 BKN200 23/23 Q1009 A2982 982.5@CAELT@HR96=@CAELT@
ZPX0157 210958@CAELT@GG SLZZYMYT@CAELT@210958 SLUYYGYS@CAELT@SABO SLUY 211000@CAELT@METAR SLUY 211000Z 00000KT 9999 FEW070 05/M00 Q1032 A3050 657.5@CAELT@HR70 CI=@CAELT@
ZPX0158 210958@CAELT@GG SLZZYMYT@CAELT@210958 SLCBYGYZ@CAELT@SABO SLCB 211000@CAELT@METAR SLCB 211000Z 14003KT 9999 SCT027 OVC070 17/10 Q1024 A3025 750.9@CAELT@HR62 SH/NW/N NOSIG=@CAELT@
ZPX0159 210958@CAELT@GG SLZZYMYT@CAELT@210959 SLVRYFYC@CAELT@SABO SLVR 211000@CAELT@METAR SLVR 211000Z 16005KT 9999 BKN025 OVC070 21/18 Q1012 A2989 HR85@CAELT@SH N NE NOSIG=@CAELT@METAR SLET 211000Z 16008KT 9999 BKN023 FEW030CB BKN070 22/18 Q1013@CAELT@A2992 HR78 CB/SH W/NW CI NOSIG=@CAELT@METAR SLCP 211000Z 18012KT 9999 BKN015 OVC200 21/20 Q1015 A2997 HR88RWY NML=METAR SLSI 211000Z 19006KT 9999 SCT015 23/21 Q1012 A2988 HR87 RWY NMLMETAR SLRB 211000Z 00000KT 9999 NSC 22/21 Q1016 A3000 HR90 RWY NML=METAR SLPS 211000Z 00000KT 9999 FEW020 BKN070 25/24 Q1010 A2983 HR91=METAR SLCA 211000Z 00000KT 9999 SCT036 BKN070 21/14 Q1019 A3009 HR67
ZPX0161 211001@CAELT@GG SLZZYMYT@CAELT@211000 SLLPYFYA@CAELT@SABO SLAP 211000@CAELT@METAR SLAP 211000 00000KT 9999 NSC 15/14 Q1015 A2998 856.3@CAELT@HR96 CI=@CAELT@
ZPX0162 211002@CAELT@GG SLZZYMYT@CAELT@211000 SLCBYGYS@CAELT@SABO SLCB 211000@CAELT@METAR SLCB 211000Z 14003KT 9999 SCT027 OVC070 17/10 Q1024 A3025@CAELT@750.9 HR62 SH/NW/N NOSIG=@CAELT@METAR SLAL 211000Z 00000KT 9999 FEW005 OVC070 11/10 Q1029 A3041@CAELT@704.1 HR92 ST BAJOS/N/NW=@CAELT@
ZPX0163 211002@CAELT@GG SLZZYMYT@CAELT@211000 SLLPYFYA@CAELT@SABO SLLP 211000@CAELT@METAR SLLP 211000Z 32005KT 6000 FEW003 BKN200 05/03 Q1036 A3061@CAELT@627.1 HR88 P4052 VIS/RED/ST/BAJOS E/SE AC NOSIG=@CAELT@METAR SLCO 211000Z 00000KT 9999 FEW023 BKN200 23/23 Q1009 A2982@CAELT@982.5 HR96=@CAELT@METAR SLRY 211000Z 00000KT 9999 NSC 21/21 Q1007 A2975 HR98RWY NML=METAR SLRQ 211000Z 00000KT 9999 NSC 22/22 Q1008 A2977 HR98=METAR SLAP 211000Z 00000KT 9999 NSC 15/14 Q1015 A2998 856.3HR96 CI=METAR SLSB 211000Z 00000KT 9999 FEW080 22/22 Q1009 A2981 HR98METAR SLUY 211000Z 00000KT 9999 FEW070 05/M00 Q1032 A3050 657.5HR70 CI=
ZPX0164 211002@CAELT@GG SLZZYMYT@CAELT@211000 SLTRYGYS@CAELT@SABO SLTR 211000@CAELT@METAR SLTR 211000Z 11005KT 9999 -TSRA FEW005 SCT017 FEW020CB BKN070@CAELT@25/24 Q1010 A2983 991.5 HR94 CI CB E/SE/S/SW TS SE/S NOSIG=@CAELT@METAR SLGM 211000Z 00000KT 7000 VCSH SCT017 FEW020CB BKN080 25/24@CAELT@Q1010 A2982 HR92 CB/SH SW/W=@CAELT@METAR SLRI 211000Z 00000KT 9999 SCT015 24/23 Q1010 A2983 HR95=METAR SLJO 211000Z NIL=METAR SLRA 211000Z 36008KT 7000 -TSRA SCT015 FEW023CB OVC070 25/24Q1008 A2979 HR98 CB/TS N/NE/NW RWY HUM OPR=METAR SLMG 211000Z 32004KT 8000 TS VCSH FEW015 FEW023CB SCT070BKN200 25/24 Q1009 A2982 HR94 CB/TS/SH NE/E RWY NML=METAR SLBU 211000Z NIL=METAR SLSA 211000Z 00000KT 8000 VCSH FEW017 FEW023CB BKN200 25/24Q1007 A2976 HR96 CB/SH E/SE=METAR SLSR 211000Z 00000KT 9999 FEW017 BKN200 23/22 Q1007 A2974HR95 RWY NML=METAR SLSM 211000Z NIL=
ZPX0166 211002@CAELT@GG SLZZYMYT@CAELT@211000 SLLPYFYA@CAELT@SABO SLAP 211000@CAELT@METAR SLAP 211000Z 00000KT 9999 NSC 15/14 Q1015 A2998 856.3@CAELT@HR96 CI=@CAELT@
ZPX0170 211007@CAELT@GG SLZZYMYT@CAELT@211006 SLTRYGYS@CAELT@SABO SLTR 211000 RRA@CAELT@METAR SLTR 211000Z 11005KT 9999 -TSRA FEW005 SCT017 FEW020CB BKN070@CAELT@25/24 Q1010 A2983 991.5 HR94 CI CB E/SE/S/SW TS SE/S NOSIG=@CAELT@METAR SLGM 211000Z 00000KT 7000 VCSH SCT017 FEW020CB BKN080 25/24@CAELT@Q1010 A2982 HR92 CB/SH SW/W=@CAELT@METAR SLRI 211000Z 00000KT 9999 SCT015 24/23 Q1010 A2983 HR95=METAR RTD SLJO 211000Z 00000KT 5000 -TSRA BKN010 FEW020CB OVC07024/24 Q1010 A2983 HR100 CB N/NE/E/SE/S TS SE/S RWY WET INOP=METAR SLRA 211000Z 36008KT 7000 -TSRA SCT015 FEW023CB OVC070 25/24Q1008 A2979 HR98 CB/TS N/NE/NW RWY HUM OPR=METAR SLMG 211000Z 32004KT 8000 TS VCSH FEW015 FEW023CB SCT070BKN200 25/24 Q1009 A2982 HR94 CB/TS/SH NE/E RWY NML=METAR SLBU 211000Z NIL=METAR SLSA 211000Z 00000KT 8000 VCSH FEW017 FEW023CB BKN200 25/24Q1007 A2976 HR96 CB/SH E/SE=METAR SLSR 211000Z 00000KT 9999 FEW017 BKN200 23/22 Q1007 A2974HR95 RWY NML=METAR RTD SLSM 211000Z NIL=
ZPX0171 211011@CAELT@GG SLZZYMYT@CAELT@211010 SLTRYGYS@CAELT@SABO SLTR 211000 RRA@CAELT@METAR SLTR 211000Z 11005KT 9999 -TSRA FEW005 SCT017 FEW020CB BKN070@CAELT@25/24 Q1010 A2983 991.5 HR94 CI CB E/SE/S/SW TS SE/S NOSIG=@CAELT@METAR SLGM 211000Z 00000KT 7000 VCSH SCT017 FEW020CB BKN080 25/24@CAELT@Q1010 A2982 HR92 CB/SH SW/W=@CAELT@METAR SLRI 211000Z 00000KT 9999 SCT015 24/23 Q1010 A2983 HR95=METAR SLJO 211000Z 00000KT 5000 -TSRA BKN010 FEW020CB OVC07024/24 Q1010 A2983 HR100 CB N/NE/E/SE/S TS SE/S RWY WET INOP=METAR SLRA 211000Z 36008KT 7000 -TSRA SCT015 FEW023CB OVC070 25/24Q1008 A2979 HR98 CB/TS N/NE/NW RWY HUM OPR=METAR SLMG 211000Z 32004KT 8000 TS VCSH FEW015 FEW023CB SCT070BKN200 25/24 Q1009 A2982 HR94 CB/TS/SH NE/E RWY NML=METAR SLBU 211000Z NIL=METAR SLSA 211000Z 00000KT 8000 VCSH FEW017 FEW023CB BKN200 25/24Q1007 A2976 HR96 CB/SH E/SE=METAR SLSR 211000Z 00000KT 9999 FEW017 BKN200 23/22 Q1007 A2974HR95 RWY NML=METAR RTD SLSM 211000Z 00000KT 9999 SCT017 BKN070 23/23 Q1009 A2980HR100 RWY HUM OPR=
ZPX0175 211022@CAELT@GG SLZZYMYT@CAELT@211021 SLCBYGYS@CAELT@SABO SLCB 211000 RRA@CAELT@METAR SLCB 211000Z 14003KT 9999 SCT027 OVC070 17/10 Q1024 A3025@CAELT@750.9 HR62 SH/NW/N NOSIG=@CAELT@METAR SLAL 211000Z 00000KT 9999 FEW005 OVC070 11/10 Q1029 A3041@CAELT@704.1 HR92 ST BAJOS/N/NW=@CAELT@METAR SLVM RTD 211000Z 00000KT 9999 SCT070 18/17 Q1016 A3003 HR97 CI=
ZPX0184 211050@CAELT@GG SLZZYMYT@CAELT@211050 SLRBYGYS@CAELT@SABO SLRB 211100@CAELT@METAR SLRB 211100Z 00000KT 9999 NSC 23/21 Q1017 A3003 HR87 RWY NML=@CAELT@
ZPX0186 211052@CAELT@GG SLZZYMYT@CAELT@211051 SLPSYGYS@CAELT@SABO SLPS 211100@CAELT@METAR SLPS 211100Z 32004KT 9999 FEW020 BKN070 25/23 Q1011 A2986 HR85=@CAELT@
ZPX0187 211054@CAELT@GG SLZZYMYT@CAELT@211054 SLSBYSYX@CAELT@SABO SLSB 211100@CAELT@METAR SLSB 211100Z 00000KT 9999 SCT080 23/22 Q1010 A2984 HR97 RWY NML=@CAELT@
ZPX0188 211054@CAELT@GG SLZZYMYT@CAELT@210956 SLTRYGYZ@CAELT@SABO SLTR 211000@CAELT@METAR SLTR 211000Z 11005KT 9999 -TSRA FEW005 SCT017 FEW020CB BKN070@CAELT@25/24 Q1010 A2983 991.5 HR94 CI CB E/SE/S/SW TS SE/S NOSIG=@CAELT@
ZPX0189 211054@CAELT@GG SLZZYMYT@CAELT@211055 SLORYGYZ@CAELT@SABO SLOR 211100@CAELT@METAR SLOR 211100Z 36003KT 9999 FEW017 SCT200 08/02 Q1034 A3055 655.5@CAELT@HR63 AC=@CAELT@
ZPX0190 211055@CAELT@GG SLZZYMYT@CAELT@211055 SLORYGYZ@CAELT@SABO SLOR 211100@CAELT@METAR SLOR 211100Z 36003KT 9999 FEW017 SCT200 08/02 Q1034 A3055 655.5@CAELT@HR63 AC=@CAELT@
ZPX0191 211055@CAELT@GG SLZZYMYT@CAELT@211054 SLSAYGYS@CAELT@SABO SLSA 211100@CAELT@METAR SLSA 211100Z 33006KT 9999 SCT020 FEW023CB BKN200 25/24 Q1009@CAELT@A2980 HR95 CB E=@CAELT@
ZPX0192 211055@CAELT@GG SLZZYMYT@CAELT@211055 SLCAYGYS@CAELT@SABO SLCA 211100@CAELT@METAR SLCA 211100Z 00000KT 9999 BKN080 21/14 Q1019 A3009 HR64 RWY NML@CAELT@
ZPX0195 211056@CAELT@GG SLZZYMYT@CAELT@211055 SLAGYSYX@CAELT@SABO SLAG 211100@CAELT@METAR SLAG 211100Z 00000KT 9999 SCT015 BKN070 18/16 Q1020 A3014 892.4@CAELT@HR86 CI=@CAELT@
ZPX0196 211056@CAELT@GG SLZZYMYT@CAELT@211055 SLETYMYC@CAELT@SABO SLET 211100@CAELT@METAR SLET 211100Z 17006KT 9999 BKN023 FEW030CB BKN070 23/17 Q1014@CAELT@A2996 HR72 CB/SH NW CI NOSIG=@CAELT@
ZPX0197 211056@CAELT@GG SLZZYMYT@CAELT@211055 SLTJYGYZ@CAELT@SABO SLTJ 211100@CAELT@METAR SLTJ 211100Z 31004KT 9999 FEW018 OVC033 15/12 Q1024 A3025 818.7@CAELT@HR79=@CAELT@
ZPX0198 211057@CAELT@GG SLZZYMYT@CAELT@211056 SLUYYGYS@CAELT@SABO SLUY 211100@CAELT@METAR SLUY 211100Z 00000KT 9999 NSC 09/M00 Q1033 A3053 658.1@CAELT@HR55 CI=@CAELT@
ZPX0199 211057@CAELT@GG SLZZYMYT@CAELT@211057 SLVRYGYZ@CAELT@SABO SLVR 211100@CAELT@METAR SLVR 211100Z 19007KT 9999 BKN023 OVC070 22/19 Q1012 A2990 HR81@CAELT@SH NW NOSIG=@CAELT@
ZPX0200 211057@CAELT@GG SLZZYMYT@CAELT@211055 SLCOYGYZ@CAELT@SABO SLCO 211100@CAELT@METAR SLCO 211100Z 00000KT 9999 FEW023 BKN200 24/23 Q1009 A2982 982.3@CAELT@HR89=@CAELT@
ZPX0201 211057@CAELT@GG SLZZYMYT@CAELT@211057 SLCBYGYZ@CAELT@SABO SLCB 211100@CAELT@METAR SLCB 211100Z 33005KT 9000 -RA SCT027 OVC060 17/12 Q1024 A3025@CAELT@750.9 HR73 NOSIG=@CAELT@
ZPX0202 211058@CAELT@GG SLZZYMYT@CAELT@211056 SLTRYGYZ@CAELT@SABO SLTR 211100@CAELT@METAR SLTR 211100Z 12005KT 8000 -TSRA FEW005 FEW020CB OVC070 24/23@CAELT@Q1011 A2986 992.7 HR97 CB E/SE/S/SW TS SE TEMPO 3000=@CAELT@
ZPX0203 211058@CAELT@GG SLZZYMYT@CAELT@211058 SLLPYGYZ@CAELT@SABO SLLP 211100@CAELT@METAR SLLP 211100Z VRB02KT 9999 FEW005 SCT200 07/03 Q1037 A3064@CAELT@627.7 HR74 P90// AC NOSIG=@CAELT@
ZPX0204 211058@CAELT@GG SLZZYMYT@CAELT@211058 SLCBYGYZ@CAELT@SABO SLCB 211100 CCA@CAELT@METAR COR SLCB 211100Z 33005KT 9000 -RA SCT027 OVC060 17/12 Q1025@CAELT@A3028 751.7 HR73 NOSIG=@CAELT@
ZPX0206 211059@CAELT@GG SLZZYMYT@CAELT@211059 SLLPYFYA@CAELT@SABO SLLP 211100@CAELT@METAR SLLP 211100Z VRB02KT 9999 FEW005 SCT200 07/03 Q1037@CAELT@A3064 627.7 HR74 P90// AC NOSIG=@CAELT@METAR SLCO 211100Z 00000KT 9999 FEW023 BKN200 24/23 Q1009@CAELT@A2982 982.3 HR89=@CAELT@METAR SLRY 211100Z 00000KT 9999 NSC 23/22 Q1007 A2976 HR96RWY NML=METAR SLRQ 211100Z 00000KT 2000SE VCFG OVC005 23/22 Q1009A2982 HR97 VCFG/SE/S/SW/W/NW=METAR SLAP 211100Z 00000KT 9999 FEW003 18/16 Q1016 A3002 857.5HR92 CI=METAR SLSB 211100Z 00000KT 9999 SCT080 23/22 Q1010 A2984 HR97METAR SLOR 211100Z 36003KT 9999 FEW017 SCT200 08/02 Q1034A3055 655.5 HR63 AC=METAR SLUY 211100Z 00000KT 9999 NSC 09/M00 Q1033 A3053 658.1HR55 CI=
ZPX0207 211059@CAELT@GG SLZZYMYT@CAELT@211059 SLVRYFYC@CAELT@SABO SLVR 211100@CAELT@METAR SLVR 211100Z 19007KT 9999 BKN023 OVC070 22/19 Q1012 A2990 HR81@CAELT@SH NW NOSIG=@CAELT@METAR SLET 211100Z 17006KT 9999 BKN023 FEW030CB BKN070 23/17 Q1014@CAELT@A2996 HR72 CB/SH NW CI NOSIG=@CAELT@METAR SLAS 211100Z 18010KT 3000 -RA BKN015 FEW030CB OVC070 20/18Q1015 A2997 HR91 CB/S/SW RWY WET OPR=METAR SLJV 211100Z 19008KT 9999 SCT023 BKN200 21/19 Q1013 A2991 HR92RWY NML=METAR SLCP 211100Z 18010KT 9999 OVC015 22/18 Q1016 A3000 HR80 RWY NMLMETAR SLSI 211100Z 19008KT 9999 SCT015 24/20 Q1013 A2991 HR78 RWY NMLMETAR SLTI 211100Z 00000KT 9999 FEW020 OVC200 27/24 Q1014 A2994 HR86METAR SLJE 211100Z 18006KT 9999 NSC 24/19 Q1015 A2997 HR73 CI RWY NMLMETAR SLVG 211100Z 18007KT 6000 VCSH BKN017 OVC070 12/10 Q1026 A3030HR89 SH/E/SE/S RWY HUM OPR=METAR SLRB 211100Z 00000KT 9999 NSC 23/21 Q1017 A3003 HR87 RWY NML=METAR SLPS 211100Z 32004KT 9999 FEW020 BKN070 25/23 Q1011 A2986 HR85=METAR SLCA 211100Z 00000KT 9999 BKN080 21/14 Q1019 A3009 HR64 RWY NML
ZPX0210 211100@CAELT@GG SLZZYMYT@CAELT@211059 SLCBYGYS@CAELT@SABO SLCB 211100@CAELT@METAR SLCB 211100Z 33005KT 9000 -RA SCT027 OVC060 17/12 Q1024 A3025@CAELT@750.9 HR73 NOSIG=@CAELT@METAR SLAL 211100Z 00000KT 9999 FEW005 SCT070 BKN200 11/10 Q1030@CAELT@A3043 704.6 HR90 ST BAJOS/N/SW=@CAELT@METAR SLPO 211100Z 00000KT 9999 FEW013 BKN070 08/06 Q1037 A3064 637.8HR89=METAR SLAG 211100Z 00000KT 9999 SCT015 BKN070 18/16 Q1020 A3014 892.4HR86 CI=METAR SLVM 211100Z 00000KT 9999 BKN070 21/17 Q1018 A3006 HR79 CI=METAR SLTJ 211100Z 31004KT 9999 FEW018 OVC033 15/12 Q1024 A3025 818.7HR79=METAR SLYA 211100Z 00000KT 9999 BKN070 20/15 Q1018 A3008 943.1 HR70=
ZPX0211 211102@CAELT@GG SLZZYMYT@CAELT@211100 SLTRYGYS@CAELT@SABO SLTR 211100@CAELT@METAR SLTR 211100Z 12005KT 8000 -TSRA FEW005 FEW020CB OVC070 24/23@CAELT@Q1011 A2986 992.7 HR97 CB E/SE/S/SW TS SE TEMPO 3000=@CAELT@METAR SLGM 211100Z 00000KT 7000 VCSH SCT017 FEW020CB SCT080 BKN200@CAELT@25/24 Q1010 A2983 HR91 CB/SH N/NW=@CAELT@METAR SLRI 211100Z 00000KT 9999 SCT017 FEW020CB BKN080 24/23Q1011 A2988 HR95 CB N=METAR SLJO 211100Z 09004KT 7000 -TSRA BKN010 FEW020CB OVC070 24/24Q1010 A2985 HR100 CB NE/E/SE/S TS E/SE RWY WET INOP=METAR SLRA 211100Z 36004KT 7000 -TSRA SCT015 FEW023CB OVC070 25/24Q1009 A2982 HR97 CB/TS N/NW RWY OPR C206=METAR SLMG 211100Z 00000KT 8000 -TSRA FEW020 FEW023CB BKN070 25/24Q1010 A2984 HR93 CB/TS N/E RWY HUM OPR=METAR SLBU 211100Z NIL=METAR SLSA 211100Z 33006KT 9999 SCT020 FEW023CB BKN200 25/24 Q1009A2980 HR95 CB E=METAR SLSR 211100Z 00000KT 9999 FEW017 SCT080 BKN200 23/22 Q1009A2980 HR95 RWY NML=METAR SLSM 211100Z 00000KT 9999 SCT017 BKN070 24/24 Q1010 A2984 HR99RWY NML=
ZPX0234 211150@CAELT@GG SLZZYMYT@CAELT@211150 SLRBYGYS@CAELT@SABO SLRB +211200@CAELT@METAR SLRB 211200Z 00000KT 9999 NSC 25/20 Q1017 A3003 HR73 RWY NML=@CAELT@
ZPX0235 211151@CAELT@GG SLZZYMYT@CAELT@211150 SLPSYGYS@CAELT@SABO SLPS 211200@CAELT@METAR SLPS 211200Z 27008KT 9999 FEW020 BKN070 27/23 Q1012 A2989 HR80=@CAELT@
ZPX0237 211153@CAELT@GG SLZZYMYT@CAELT@211153 SLRBYGYS@CAELT@SABO SLRB 211200@CAELT@METAR SLRB 211200Z 00000KT 9999 NSC 25/20 Q1017 A3003 HR73 RWY NML=@CAELT@
ZPX0239 211154@CAELT@GG SLZZYMYT@CAELT@211154 SLORYGYZ@CAELT@SABO SLOR 211200@CAELT@METAR SLOR 211200Z 36003KT 9999 FEW017 11/03 Q1034 A3055 655.7 HR56@CAELT@
ZPX0240 211154@CAELT@GG SLZZYMYT@CAELT@211154 SLSBYSYX@CAELT@SABO SLSB 211200@CAELT@METAR SLSB 211200Z 00000KT 9999 BKN080 25/24 Q1012 A2989 HR92 RWY NML=@CAELT@
ZPX0241 211154@CAELT@GG SLZZYMYT@CAELT@211154 SLCAYGYS@CAELT@SABO SLCA 211200@CAELT@METAR SLCA 211200Z 00000KT 9999 BKN070 22/14 Q1020 A3012 HR60 RWY NML@CAELT@
ZPX0243 211156@CAELT@GG SLZZYMYT@CAELT@211155 SLLPYGYZ@CAELT@SABO SLLP 211200@CAELT@METAR SLLP 211200Z 29004KT 9999 FEW008 BKN200 09/02 Q1038 A3067@CAELT@628.3 HR60 P93// AC NOSIG=@CAELT@
ZPX0245 211156@CAELT@GG SLZZYMYT@CAELT@211155 SLETYMYC@CAELT@SABO SLET 211200@CAELT@METAR SLET 211200Z 15006KT 9999 BKN023 FEW030CB OVC070 22/18 Q1014@CAELT@A2996 HR82 CB/SH NW NOSIG=@CAELT@
ZPX0246 211156@CAELT@GG SLZZYMYT@CAELT@211155 SLAGYSYX@CAELT@SABO SLAG 211200@CAELT@METAR SLAG 211200Z 00000KT 9999 SCT015 BKN070 19/15 Q1021 A3017 893.2@CAELT@HR76 CI=@CAELT@
ZPX0247 211156@CAELT@GG SLZZYMYT@CAELT@211156 SLVRYGYZ@CAELT@SABO SLVR 211200@CAELT@METAR SLVR 211200Z 12004KT 9999 BKN025 OVC070 22/18 Q1012 A2991 HR79@CAELT@NOSIG=@CAELT@
ZPX0248 211156@CAELT@GG SLZZYMYT@CAELT@211155 SLCBYGYZ@CAELT@SABO SLCB 211200@CAELT@METAR SLCB 211200Z 34005KT 9000 -RA SCT020 OVC060 15/13 Q1026 A3031@CAELT@752.5 HR89 NOSIG=@CAELT@
ZPX0249 211156@CAELT@GG SLZZYMYT@CAELT@211155 SLSAYGYS@CAELT@SABO SLSA 211200@CAELT@METAR SLSA 211200Z 32004KT 9999 SCT020 FEW023CB SCT080 BKN200 25/24@CAELT@Q1010 A2983 HR92 CB SE=@CAELT@
ZPX0250 211156@CAELT@GG SLZZYMYT@CAELT@211156 SLCOYGYZ@CAELT@SABO SLCO 211200@CAELT@METAR SLCO 211200Z 01004KT 9999 FEW023 SCT200 26/23 Q1011 A2985 983.6@CAELT@HR83=@CAELT@
ZPX0251 211157@CAELT@GG SLZZYMYT@CAELT@211156 SLUYYGYS@CAELT@SABO SLUY 211200@CAELT@METAR SLUY 211200Z 00000KT 9999 NSC 13/M02 Q1034 A3054 658.5@CAELT@HR36 CI=@CAELT@
ZPX0252 211157@CAELT@GG SLZZYMYT@CAELT@211158 SLVRYFYC@CAELT@SABO SLVR 211200@CAELT@METAR SLVR 211200Z 12004KT 9999 BKN025 OVC070 22/18 Q1012 A2991 HR79@CAELT@NOSIG=@CAELT@METAR SLET 211200Z 15006KT 9999 BKN023 FEW030CB OVC070 22/18 Q1014@CAELT@A2996 HR82 CB/SH NW NOSIG=@CAELT@METAR SLAS 211200Z 18008KT 8000 -RA BKN017 FEW030 OVC070 20/18 Q1015A2997 HR93 CB/SE/S/SW/N RWY WET OPR=METAR SLJV 211200Z 19010KT 9999 SCT023 BKN200 22/19 Q1014 A2994 HR82RWY NML=METAR SLCP 211200Z 18010KT 9999 BKN015 OVC200 23/17 Q1017 A3003 HR72METAR SLSI 211200Z 19010KT 9999 NSC 26/18 Q1013 A2991 HR63 RWY NML=METAR SLTI 211200Z 00000KT 9999 NSC 28/25 Q1015 A2997 HR80 CI RWY NMLMETAR SLJE 211200Z 18008KT 9999 NSC 24/18 Q1015 A2997 HR70 CI RWY NMLMETAR SLVG 211200Z 18006KT 9999 BKN020 OVC070 14/10 Q1026 A3030 HR75RWY HUM OPR=METAR SLRB 211200Z 00000KT 9999 NSC 25/20 Q1017 A3003 HR73 RWY NML=METAR SLPS 211200Z 27008KT 9999 FEW020 BKN070 27/23 Q1012 A2989 HR80=METAR SLCA 211200Z 00000KT 9999 BKN070 22/14 Q1020 A3012 HR60 RWY NML
ZPX0253 211158@CAELT@GG SLZZYMYT@CAELT@211157 SLLPYFYA@CAELT@SABO SLRY 211200@CAELT@METAR SLRY SLRY 211200Z 00000KT 9999 NSC 25/23 Q1010 A2983 HR88 RWY@CAELT@NML=@CAELT@
ZPX0255 211159@CAELT@GG SLZZYMYT@CAELT@211157 SLTRYGYZ@CAELT@SABO SLTR 211200@CAELT@METAR SLTR 211200Z 10006KT 9999 -TSRA FEW005 FEW020CB BKN070@CAELT@OVC200 25/24 Q1012 A2989 993.6 HR98 CB E/SE/S TS SE NOSIG=@CAELT@
ZPX0256 211200@CAELT@GG SLZZYMYT@CAELT@211157 SLTJYGYZ@CAELT@SABO SLTJ 211200@CAELT@METAR SLTJ 211200Z 31005KT 9999 FEW030 OVC070 16/09 Q1025 A3027 819.1@CAELT@HR62=@CAELT@
ZPX0257 211201@CAELT@GG SLZZYMYT@CAELT@211200 SLLPYFYA@CAELT@SABO SLLP 211200@CAELT@METAR SLLP 211200Z 29004KT 9999 FEW008 BKN200 09/02 Q1038 A3067@CAELT@628.3 HR60 P93// AC NOSIG=@CAELT@METAR SLCO 211200Z 01004KT 9999 FEW023 SCT200 26/23 Q1011 A2985 983.6@CAELT@HR83=@CAELT@METAR SLRY SLRY 211200Z 00000KT 9999 NSC 25/23 Q1010 A2983 HR88 RWYNML=METAR SLRQ 211200Z 00000KT 9999 NSC 25/24 Q1011 A2987 HR92 CI=METAR SLAP 211200Z 00000KT 9999 FEW015 19/18 Q1018 A3006 858.6 HR93CI=METAR SLSB 211200Z 00000KT 9999 BKN080 25/24 Q1012 A2989 HR92 RWY NMLMETAR SLOR 211200Z 36003KT 9999 FEW017 11/03 Q1034 A3055 655.7 HR56METAR SLUY 211200Z 00000KT 9999 NSC 13/M02 Q1034 A3054 658.5HR36 CI=
ZPX0258 211201@CAELT@GG SLZZYMYT@CAELT@211200 SLTRYGYS@CAELT@SABO SLTR 211200@CAELT@METAR SLTR 211200Z 10006KT 9999 -TSRA FEW005 FEW020CB BKN070 OVC200@CAELT@25/24 Q1012 A2989 993.6 HR98 CB E/SE/S TS SE NOSIG=@CAELT@METAR SLGM 212000Z 32004KT 5000 -RA FEW008 SCT017 FEW020CB BKN080@CAELT@24/24 Q1011 A2987 HR97 CB NE/S/SW=@CAELT@METAR SLRI 211200Z 36006KT 9999 SCT017 FEW020CB BKN080 26/24 Q1012A2990 HR92 CB N=METAR SLJO 212000Z 00000KT 7000 -TSRA SCT010 FEW020CB BKN070 OVC20025/24 Q1011 A2988 HR97 CB NE/E/S/SW TS S/SW RWY WET INOP=METAR SLRA 212000Z 36004KT 8000 -TSRA SCT015 FEW023CB OVC070 25/24Q1010 A2984 HR96 CB/TS NW RWY OPR C206=METAR SLMG 212000Z 00000KT 0500 +TSRA BKN010 FEW020CB OVC070 24/24Q1011 A2987 HR100 CB/TS N/SE/NW RWY WET OPR C210=METAR SLBU 212000Z 32004KT 9999 SCT012 FEW023CB BKN200 25/24 Q1011A2987 HR93 CB W RWY NML=METAR SLSA 211200Z 32004KT 9999 SCT020 FEW023CB SCT080 BKN200 25/24Q1010 A2983 HR92 CB SE=METAR SLSR 212000Z 00000KT 9999 FEW017 BKN080 24/23 Q1011 A2985 HR94RWY NML=METAR SLSM 212000Z 00000KT 9999 SCT017 BKN070 25/24 Q1011 A2988 HR96
ZPX0259 211201@CAELT@GG SLZZYMYT@CAELT@211200 SLCBYGYS@CAELT@SABO SLCB 211200@CAELT@METAR SLCB 211200Z 34005KT 9000 -RA SCT020 OVC060 15/13 Q1026 A3031@CAELT@752.5 HR89 NOSIG=@CAELT@METAR SLAL 211200Z 00000KT 9999 BKN015 FEW027CB BKN200 12/10 Q1031@CAELT@A3045 705.0 HR88 CB/ON STN/S AC=@CAELT@METAR SLPO 211200Z 00000KT 9999 FEW015 SCT070 11/06 Q1038 A3065 638.0HR75 CI=METAR SLAG 211200Z 00000KT 9999 SCT015 BKN070 19/15 Q1021 A3017 893.2HR76 CI=METAR SLVM 211200Z 18007KT 9999 BKN070 22/16 Q1019 A3010 HR69 CI=METAR SLTJ 211200Z 31005KT 9999 FEW030 OVC070 16/09 Q1025 A3027 819.1HR62=METAR SLYA 211200Z 00000KT 9999 BKN070 21/15 Q1019 A3011 944.0 HR69=METAR SLBJ 211200Z NIL=METAR SLHI 211200Z NIL=
ZPX0263 211204@CAELT@GG SLZZYMYT@CAELT@211202 SLLPYFYA@CAELT@SABO SLLP 211200 CCA@CAELT@METAR SLLP 211200Z 29004KT 9999 FEW008 BKN200 09/02 Q1038 A3067@CAELT@628.3 HR60 P93// AC NOSIG=@CAELT@METAR SLCO 211200Z 01004KT 9999 FEW023 SCT200 26/23 Q1011 A2985@CAELT@983.6 HR83=@CAELT@METAR COR SLRY 211200Z 00000KT 9999 NSC 25/23 Q1010 A2983 HR88RWY NML=METAR SLRQ 211200Z 00000KT 9999 NSC 25/24 Q1011 A2987 HR92 CI=METAR SLAP 211200Z 00000KT 9999 FEW015 19/18 Q1018 A3006 858.6HR93 CI=METAR SLSB 211200Z 00000KT 9999 BKN080 25/24 Q1012 A2989 HR92METAR SLOR 211200Z 36003KT 9999 FEW017 11/03 Q1034 A3055 655.7HR56 CI=METAR SLUY 211200Z 00000KT 9999 NSC 13/M02 Q1034 A3054 658.5HR36 CI=
ZPX0280 211237@CAELT@GG SLZZYMYT@CAELT@211236 SLTRYGYS@CAELT@SABO SLTR 211200@CAELT@METAR SLTR 211200Z 10006KT 9999 -TSRA FEW005 FEW020CB BKN070 OVC200@CAELT@25/24 Q1012 A2989 993.6 HR98 CB E/SE/S TS SE NOSIG=@CAELT@METAR SLGM 211200Z 32004KT 5000 -RA FEW008 SCT017 FEW020CB BKN080@CAELT@24/24 Q1011 A2987 HR97 CB NE/S/SW=@CAELT@METAR SLRI 211200Z 36006KT 9999 SCT017 FEW020CB BKN080 26/24 Q1012A2990 HR92 CB N=METAR SLJO 211200Z 00000KT 7000 -TSRA SCT010 FEW020CB BKN070 OVC20025/24 Q1011 A2988 HR97 CB NE/E/S/SW TS S/SW RWY WET INOP=METAR SLRA 211200Z 36004KT 8000 -TSRA SCT015 FEW023CB OVC070 25/24Q1010 A2984 HR96 CB/TS NW RWY OPR C206=METAR SLMG 211200Z 00000KT 0500 +TSRA BKN010 FEW020CB OVC070 24/24Q1011 A2987 HR100 CB/TS N/SE/NW RWY WET OPR C210=METAR SLBU 211200Z 32004KT 9999 SCT012 FEW023CB BKN200 25/24 Q1011A2987 HR93 CB W RWY NML=METAR SLSA 21120Z 32004KT 9999 SCT020 FEW023CB SCT080 BKN200 25/24Q1010 A2983 HR92 CB SE=METAR SLSR 211200Z 00000KT 9999 FEW017 BKN080 24/23 Q1011 A2985 HR94RWY NML=METAR SLSM 211200Z 00000KT 9999 SCT017 BKN070 25/24 Q1011 A2988 HR96
ZPX0291 211252@CAELT@GG SLZZYMYT@CAELT@211251 SLCAYGYS@CAELT@SABO SLCA 211300@CAELT@METAR SLCA 211300Z 00000KT 9999 BKN080 23/14 Q1020 A3012 HR56 RWY NML@CAELT@
ZPX0292 211253@CAELT@GG SLZZYMYT@CAELT@211252 SLPSYGYS@CAELT@SABO SLPS 211300@CAELT@METAR SLPS 211300Z 27004KT 9999 FEW020 SCT070 BKN200 28/24 Q1012@CAELT@A2989 HR78=@CAELT@
ZPX0294 211254@CAELT@GG SLZZYMYT@CAELT@211254 SLVRYGYZ@CAELT@SABO SLVR 211300@CAELT@METAR SLVR 211300Z VRB02KT 9999 BKN025 OVC070 23/19 Q1015 A2999 HR80@CAELT@SH W/NW NOSIG=@CAELT@
ZPX0295 211255@CAELT@GG SLZZYMYT@CAELT@211255 SLAGYSYX@CAELT@SABO SLAG 211300@CAELT@METAR SLAG 211300Z 00000KT 9999 SCT015 BKN070 BKN200 21/15 Q1021@CAELT@A3018 893.5 HR72=@CAELT@
ZPX0296 211255@CAELT@GG SLZZYMYT@CAELT@211254 SLSAYGYS@CAELT@SABO SLSA 211300@CAELT@METAR SLSA 211300Z 00000KT 9999 SCT020 BKN200 26/25 Q1010 A2984 HR89=@CAELT@
ZPX0297 211255@CAELT@GG SLZZYMYT@CAELT@211255 SLLPYGYZ@CAELT@SABO SLLP 211300@CAELT@METAR SLLP 211300Z 25004KT 190V310 9999 SCT014 BKN200 11/03 Q1038@CAELT@A3067 628.4 HR55 P93// AC NOSIG=@CAELT@
ZPX0298 211256@CAELT@GG SLZZYMYT@CAELT@211256 SLUYYGYS@CAELT@SABO SLUY 211300@CAELT@METAR SLUY 211300Z 35005KT 9999 NSC 15/03 Q1034 A3054 658.5@CAELT@HR38 CI=@CAELT@
ZPX0299 211256@CAELT@GG SLZZYMYT@CAELT@211255 SLORYGYZ@CAELT@SABO SLOR 211300@CAELT@METAR SLOR 211300Z 36007KT 9999 FEW020 14/04 Q1035 A3056 655.9 HR50@CAELT@
ZPX0300 211256@CAELT@GG SLZZYMYT@CAELT@211255 SLCBYGYZ@CAELT@SABO SLCB 211300@CAELT@METAR SLCB 211300Z 03003KT 9999 -RA FEW012 SCT020 BKN060 15/13 Q1026@CAELT@A3033 752.9 HR83 NOSIG=@CAELT@
ZPX0301 211256@CAELT@GG SLZZYMYT@CAELT@211254 SLCOYGYZ@CAELT@SABO SLCO 211300@CAELT@METAR SLCO 211300Z 35004KT 9999 FEW012 SCT080 29/24 Q1011 A2987 984.2@CAELT@HR75=@CAELT@
ZPX0302 211256@CAELT@GG SLZZYMYT@CAELT@211256 SLSBYSYX@CAELT@SABO SLSB 211300@CAELT@METAR SLSB 211300Z 00000KT 9999 BKN080 27/24 Q1012 A2990 HR86 RWY NML=@CAELT@
ZPX0303 211256@CAELT@GG SLZZYMYT@CAELT@211256 SLTRYGYZ@CAELT@SABO SLTR 211300@CAELT@METAR SLTR 211300Z 14004KT 8000 VCSH FEW005 FEW020CB BKN070 OVC200@CAELT@25/24 Q1013 A2992 994.6 HR98 RETSRA CB/SH E/SE/S TEMPO TSRA=@CAELT@
ZPX0304 211256@CAELT@GG SLZZYMYT@CAELT@211255 SLETYMYC@CAELT@SABO SLET 211300@CAELT@METAR SLET 211300Z VRB02KT 9999 BKN023 OVC070 23/19 Q1015 A2999 HR80@CAELT@SH N/NW NOSIG=@CAELT@
ZPX0305 211257@CAELT@GG SLZZYMYT@CAELT@211255 SLTJYGYZ@CAELT@SABO SLTJ 211300@CAELT@METAR SLTJ 211300Z 25004KT 9999 SCT030 OVC070 18/08 Q1025 A3027 819.2@CAELT@HR55=@CAELT@
ZPX0306 211258@CAELT@GG SLZZYMYT@CAELT@211257 SLRBYGYS@CAELT@SABO SLRB 211300@CAELT@METAR SLRB 211300Z 00000KT 9999 NSC 27/20 Q1017 A3003 HR64 RWY NML=@CAELT@
ZPX0307 211258@CAELT@GG SLZZYMYT@CAELT@211258 SLTRYGYS@CAELT@SABO SLTR 211300@CAELT@METAR SLTR 211300Z 14004KT 8000 VCSH FEW005 FEW020CB BKN070 OVC200@CAELT@25/24 Q1013 A2992 994.6 HR98 RETSRA CB/SH E/SE/S TEMPO TSRA=@CAELT@METAR SLGM 211300Z 02006KT 5000 -RA FEW008 SCT015 FEW020CB BKN070@CAELT@24/24 Q1012 A2991 HR97 CB NE/NW=@CAELT@METAR SLRI 211300Z 30006KT 8000 VCSH SCT015 FEW020CB BKN080 28/24Q1013 A2992 HR80 CB/SH NE/E/W=METAR SLJO 211300Z 36004KT 8000 -RA SCT010 FEW020CB BKN070 OVC20026/25 Q1012 A2989 HR97 RETS CB N/E/SE RWY WET INOP=METAR SLRA 211300Z 36006KT 8000 VCSH SCT015 FEW023CB OVC070 27/25Q1011 A2986 HR92 RETSRA CB/SH E/SE RWY OPR C206=METAR SLMG 211300Z 00000KT 6000 -TSRA SCT010 FEW020CB OVC070 24/24Q1011 A2988 HR98 CB/TS SW/W RWY WET OPR C210=METAR SLBU 211300Z 32004K6 9999 BKN012 FEW023CB BKN200 26/25 Q1011A2988 HR93 CB S/SW RWY NML=METAR SLSA 211300Z 00000KT 9999 SCT020 BKN200 26/25 Q1010 A2984 HR89=METAR SLSR 211300Z 00000KT 9999 FEW017 SCT080 27/24 Q1012 A2988 HR82RWY NML=METAR SLSM 211300Z 00000KT 9999 FEW017 BKN070 26/25 Q1013 A2992 HR93
ZPX0308 211258@CAELT@GG SLZZYMYT@CAELT@211259 SLVRYFYC@CAELT@SABO SLVR 211300@CAELT@METAR SLVR 211300Z VRB02KT 9999 BKN025 OVC070 23/19 Q1015 A2999 HR80@CAELT@SH W/NW NOSIG=@CAELT@METAR SLET 211300Z VRB02KT 9999 BKN023 OVC070 23/19 Q1015 A2999 HR80@CAELT@SH N/NW NOSIG=@CAELT@METAR SLAS 211300Z 18006KT 9999 SCT017 FEW030CB OVC200 21/19 Q1016A3000 HR88 CB/SH N/NE RERA RWY WET OPR=METAR SLJV 211300Z 19010KT 9999 FEW023 BKN200 23/17 Q1013 A2991 HR69RWY NML=METAR SLCP 211300Z 18010KT 9999 BKN015 OVC200 24/17 Q1017 A3003 HR63METAR SLSI 211300Z 18006KT 9999 NSC 27/19 Q1013 A2991 HR60 RWY NML=METAR SLTI 211300Z 00000KT 9999 NSC 31/24 Q1015 A2997 HR65 CI RWY NMLMETAR SLJE 211300Z 18008KT 9999 NSC 27/20 Q1016 A3000 HR68 CI RWY NMLMETAR SLVG 211300Z 18009KT 9999 BKN020 OVC070 15/09 Q1027 A3033 HR66METAR SLRB 211300Z 00000KT 9999 NSC 27/20 Q1017 A3003 HR64 RWY NML=METAR SLPS 211300Z 27004KT 9999 FEW020 SCT070 BKN200 28/24 Q1012A2989 HR78=METAR SLCA 211300Z 00000KT 9999 BKN080 23/14 Q1020 A3012 HR56 RWY NML
ZPX0309 211259@CAELT@GG SLZZYMYT@CAELT@211258 SLLPYFYA@CAELT@SABO SLRY 211300@CAELT@METAR SLRY 211300Z 00000KT BKN080 28/23 Q1011 A2986 HR76 RWY NML=@CAELT@
ZPX0311 211302@CAELT@GG SLZZYMYT@CAELT@211300 SLCBYGYS@CAELT@SABO SLCB 211300@CAELT@METAR SLCB 211300Z 03003KT 9999 -RA FEW012 SCT020 BKN060 15/13 Q1026@CAELT@A3033 752.9 HR83 NOSIG=@CAELT@METAR SLAL 211300Z 34010KT 9999 FEW013 BKN017 BKN200 13/09 Q1031@CAELT@A3046 705.2 HR78 AC=@CAELT@METAR SLPO 211300Z 06004KT 9999 FEW015 SCT200 13/06 Q1038 A3065 638.1HR65 AC=METAR SLAG 211300Z 00000KT 9999 SCT015 BKN070 BKN200 21/15 Q1021A3018 893.5 HR72=METAR SLVM 211300Z 18012G25KT 9999 BKN070 24/16 Q1019 A3010 HR63 CI=METAR SLTJ 211300Z 25004KT 9999 SCT030 OVC070 18/08 Q1025 A3027 819.2HR55=METAR SLYA 211300Z 00000KT 9999 BKN070 22/15 Q1020 A3012 944.3 HR66=METAR SLBJ 211300Z NIL=METAR SLHI 211300Z NIL=
ZPX0313 211304@CAELT@GG SLZZYMYT@CAELT@211300 SLLPYFYA@CAELT@SABO SLLP 211300@CAELT@METAR SLLP 211300Z 25004KT 190V310 9999 SCT014 BKN200 11/03@CAELT@Q1038 A3067 628.4 HR55 P93// AC NOSIG=@CAELT@METAR SLCO 211300Z 35004KT 9999 FEW012 SCT080 29/24 Q1011 A2987@CAELT@984.2 HR75=@CAELT@METAR SLRY 211300Z 00000KT BKN080 28/23 Q1011 A2986 HR76RWY NML=METAR SLRQ 211300Z 00000KT 9999 FEW020 SCT080 28/25 Q1011 A2988HR82=METAR SLAP 211300Z 00000KT 9999 SCT020 21/18 Q1018 A3009 859.3HR80 CI=METAR SLSB 211300Z 00000KT 9999 BKN080 27/24 Q1012 A2990HR86 RWY NML=METAR SLOR 211300Z 36007KT 9999 FEW020 14/04 Q1035 A3056 655.9HR50 CI=METAR SLUY 211300Z 35005KT 9999 NSC 15/03 Q1034 A3054 658.5HR38 CI=
ZPX0321 211313@CAELT@GG SLZZYMYT@CAELT@211307 SLLPYFYA@CAELT@SABO SLLP 211300 CCB@CAELT@METAR SLLP 211300Z 25004KT 190V310 9999 SCT014 BKN200 11/03@CAELT@Q1038 A3067 628.4 HR55 P93// AC NOSIG=@CAELT@METAR SLCO 211300Z 35004KT 9999 FEW012 SCT080 29/24 Q1011 A2987@CAELT@984.2 HR75=@CAELT@METAR COR SLRY 211300Z 00000KT 9999 BKN080 28/23 Q1011 A2986 HR76RWY NML=METAR SLRQ 211300Z 00000KT 9999 FEW020 SCT080 28/25 Q1011 A2988HR82=METAR SLAP 211300Z 00000KT 9999 SCT020 21/18 Q1018 A3009 859.3HR80 CI=METAR SLSB 211300Z 00000KT 9999 BKN080 27/24 Q1012 A2990HR86 RWY NML=METAR SLOR 211300Z 36007KT 9999 FEW020 14/04 Q1035 A3056 655.9HR50 CI=METAR SLUY 211300Z 35005KT 9999 NSC 15/03 Q1034 A3054 658.5HR38 CI=
ZPX0338 211346@CAELT@GG SLZZYMYT@CAELT@211340 SLTRYGYS@CAELT@SABO SLTR 211300 CCA@CAELT@METAR SLTR 211300Z 14004KT 8000 VCSH FEW005 FEW020CB BKN070 OVC200@CAELT@25/24 Q1013 A2992 994.6 HR98 RETSRA CB/SH E/SE/S TEMPO TSRA=@CAELT@METAR SLGM 211300Z 02006KT 5000 -RA FEW008 SCT015 FEW020CB BKN070@CAELT@24/24 Q1012 A2991 HR97 CB NE/NW=@CAELT@METAR SLRI 211300Z 30006KT 8000 VCSH SCT015 FEW020CB BKN080 28/24Q1013 A2992 HR80 CB/SH NE/E/W=METAR SLJO 211300Z 36004KT 8000 -RA SCT010 FEW020CB BKN070 OVC20026/25 Q1012 A2989 HR97 RETS CB N/E/SE RWY WET INOP=METAR SLRA 211300Z 36006KT 8000 VCSH SCT015 FEW023CB OVC070 27/25Q1011 A2986 HR92 RETSRA CB/SH E/SE RWY OPR C206=METAR SLMG 211300Z 00000KT 6000 -TSRA SCT010 FEW020CB OVC070 24/24Q1011 A2988 HR98 CB/TS SW/W RWY WET OPR C210=METAR COR SLBU 211300Z 32004KT 9999 BKN012 FEW023CB BKN200 26/25Q1011 A2988 HR93 CB S/SW RWY NML=METAR SLSA 211300Z 00000KT 9999 SCT020 BKN200 26/25 Q1010 A2984 HR89=METAR SLSR 211300Z 00000KT 9999 FEW017 SCT080 27/24 Q1012 A2988 HR82RWY NML=METAR SLSM 211300Z 00000KT 9999 FEW017 BKN070 26/25 Q1013 A2992 HR93
ZPX0340 211353@CAELT@GG SLZZYMYT@CAELT@211352 SLCAYGYS@CAELT@SABO SLCA 211400@CAELT@METAR SLCA 211400Z 00000KT 9999 SCT080 BKN200 25/14 Q1020 A3012 HR51@CAELT@RWY NML=@CAELT@
ZPX0341 211353@CAELT@GG SLZZYMYT@CAELT@211353 SLRBYGYS@CAELT@SABO SLRB 211400@CAELT@METAR SLRB 211400Z 00000KT 9999 NSC 29/20 Q1017 A3003 HR60 RWY NML=@CAELT@
ZPX0342 211353@CAELT@GG SLZZYMYT@CAELT@211352 SLPSYGYS@CAELT@SABO SLPS 211400@CAELT@METAR SLPS 211400Z 32004KT 9999 FEW020 SCT070 BKN200 29/24 Q1012@CAELT@A2989 HR74=@CAELT@
ZPX0343 211355@CAELT@GG SLZZYMYT@CAELT@211351 SLCOYGYZ@CAELT@SABO SLCO 211400@CAELT@METAR SLCO 211400Z 33006KT 9999 SCT015 BKN080 30/25 Q1012 A2989 984.7@CAELT@HR73=@CAELT@
ZPX0344 211355@CAELT@GG SLZZYMYT@CAELT@211355 SLSBYSYX@CAELT@SABO SLSB 211400@CAELT@METAR SLSB 211400Z 15003KT 9999 SCT025 BKN080 28/25 Q1013 A2992 HR85@CAELT@RWY NML=@CAELT@
ZPX0345 211355@CAELT@GG SLZZYMYT@CAELT@211355 SLORYGYZ@CAELT@SABO SLOR 211400@CAELT@METAR SLOR 211400Z 36004KT 9999 SCT020 SCT200 16/04 Q1035 A3056 655.9@CAELT@HR45=@CAELT@
ZPX0346 211355@CAELT@GG SLZZYMYT@CAELT@211355 SLTJYGYZ@CAELT@SABO SLTJ 211400@CAELT@METAR SLTJ 211400Z 13004KT 9999 FEW030 BKN070 19/07 Q1024 A3027 819.0@CAELT@HR47=@CAELT@
ZPX0347 211356@CAELT@GG SLZZYMYT@CAELT@211356 SLUYYGYS@CAELT@SABO SLUY 211400@CAELT@METAR SLUY 211400Z 32005KT 9999 FEW027 SCT200 17/01 Q1034 A3054@CAELT@658.5 HR36=@CAELT@
ZPX0348 211356@CAELT@GG SLZZYMYT@CAELT@211355 SLLPYGYZ@CAELT@SABO SLLP 211400@CAELT@METAR SLLP 211400Z 18004KT 9999 SCT015 BKN200 12/03 Q1038 A3067@CAELT@628.4 HR55 P93// AC NOSIG=@CAELT@
ZPX0349 211356@CAELT@GG SLZZYMYT@CAELT@211354 SLSAYGYS@CAELT@SABO SLSA 211400@CAELT@METAR SLSA 211400Z 00000KT 9999 SCT020 SCT080 BKN200 28/25@CAELT@Q1011 A2986 HR84=@CAELT@
ZPX0350 211356@CAELT@GG SLZZYMYT@CAELT@211355 SLAGYSYX@CAELT@SABO SLAG 211400@CAELT@METAR SLAG 211400Z 19005KT 9999 FEW017 SCT070 BKN200 24/15 Q1022@CAELT@A3018 893.6 HR57=@CAELT@
ZPX0351 211356@CAELT@GG SLZZYMYT@CAELT@211355 SLETYMYC@CAELT@SABO SLET 211400@CAELT@METAR SLET 211400Z 14004KT 9999 BKN027 BKN070 24/19 Q1015 A2999 HR73@CAELT@NOSIG=@CAELT@
ZPX0352 211357@CAELT@GG SLZZYMYT@CAELT@211357 SLVRYGYZ@CAELT@SABO SLVR 211400@CAELT@METAR SLVR 211400Z 19012KT 9999 BKN025 OVC080 25/18 Q1014 A2997 HR68@CAELT@NOSIG=@CAELT@
ZPX0353 211357@CAELT@GG SLZZYMYT@CAELT@211357 SLCBYGYZ@CAELT@SABO SLCB 211400@CAELT@METAR SLCB 211400Z 04004KT 9999 -RA FEW012 SCT020 BKN060 16/13 Q1027@CAELT@A3033 753.0 HR80 CI NOSIG=@CAELT@
ZPX0354 211357@CAELT@GG SLZZYMYT@CAELT@211356 SLLPYFYA@CAELT@SABO SLRY 211400@CAELT@METAR SLRY 211400Z 00000KT 9999 FEW015 BKN080 29/24 Q1011 A2986 HR75@CAELT@RWY NML=@CAELT@
ZPX0355 211358@CAELT@GG SLZZYMYT@CAELT@211358 SLTRYGYZ@CAELT@SABO SLTR 211400@CAELT@METAR SLTR 211400Z 13009KT 5000 -RA BKN005 FEW020CB OVC070 24/24@CAELT@Q1014 A2994 995.4 HR98 CB E/SE TEMPO 2000=@CAELT@
ZPX0356 211359@CAELT@GG SLZZYMYT@CAELT@211359 SLTRYGYS@CAELT@SABO SLTR 211400@CAELT@METAR SLTR 211400Z 13009KT 5000 -RA BKN005 FEW020CB OVC070 24/24@CAELT@Q1014 A2994 995.4 HR98 CB E/SE TEMPO 2000=@CAELT@METAR SLGM 211400Z 32006KT 7000 -RA SCT008 SCT015 FEW020CB BKN070@CAELT@26/24 Q1013 A2991 HR91 CB N/NW=@CAELT@METAR SLRI 211400Z 32004KT 5000 VCSH SCT007 BKN015 FEW020CB BKN08027/24 Q1014 A2995 HR86 CB/SH NE/E/SW/NW=METAR SLJO 211400Z 09004KT 7000 VCSH FEW005 SCT010 FEW023CB BKN07027/25 Q1012 A2990 HR91 RERA CB/SH E/SE/S RWY WET OPR C206=METAR SLRA 211400Z 36006KT 8000 VCSH FEW008 FEW023CB OVC070 27/25Q1012 A2989 HR90 CB/SH E/SE RWY OPR C206=METAR SLMG 211400Z 00000KT 8000 -TSRA SCT020 FEW023CB OVC070 24/24Q1011 A2988 HR98 CB/TS W/NW RWY WET OPR C206=METAR SLBU 211400Z 00000KT 8000 BKN012 FEW023CB BKN200 26/25 Q1012A2989 HR92 CB/SH S/SW/W RWY NML=METAR SLSA 211400Z 00000KT 9999 SCT020 SCT080 BKN200 28/25 Q1011A2986 HR84=METAR SLSR 211400Z 32004KT 9999 FEW017 SCT080 BKN200 30/24 Q1012A2990 HR72 RWY NML=METAR SLSM 211400Z 00000KT 9999 SCT017 BKN070 26/25 Q1013 A2993 HR91RWY NML=
ZPX0359 211400@CAELT@GG SLZZYMYT@CAELT@211400 SLVRYFYC@CAELT@SABO SLVR 211400@CAELT@METAR SLVR 211400Z 19012KT 9999 BKN025 OVC080 25/18 Q1014 A2997 HR68@CAELT@NOSIG=@CAELT@METAR SLET 211400Z 14004KT 9999 BKN027 BKN070 24/19 Q1015 A2999 HR73@CAELT@METAR SLAS 211400Z 18012KT 9999 SCT020 FEW030CB OVC200 24/20 Q1016@CAELT@A3000 HR80 CB/SH W/NW RWY WET OPR=METAR SLJV 211400Z 18012KT 9999 FEW023 BKN200 24/18 Q1014 A2994 HR67RWY NML=METAR SLCP 211400Z 18010KT 9999 NSC 26/17 Q1017 A3003 HR60 CI RWY NMLMETAR SLSI 211400Z 19012KT 9999 NSC 28/19 Q1013 A2991 HR57 RWY NML=METAR SLTI 211400Z 00000KT 9999 NSC 33/24 Q1015 A2997 HR59 CI RWY NMLMETAR SLJE 211400Z 18006KT 9999 NSC 29/22 Q1017 A3003 HR65 CI RWY NMLMETAR SLVG 211400Z 17010KT 6000 VCSH BKN020 OVC070 13/10 Q1027 A3033HR79 SH E/SE/S RESH RWY NML=METAR SLRB 211400Z 00000KT 9999 NSC 29/20 Q1017 A3003 HR60 RWY NML=METAR SLPS 211400Z 32004KT 9999 FEW020 SCT070 BKN200 29/24 Q1012A2989 HR74=METAR SLCA 211400Z 00000KT 9999 SCT080 BKN200 25/14 Q1020 A3012 HR51
ZPX0361 211400@CAELT@GG SLZZYMYT@CAELT@211359 SLCBYGYS@CAELT@SABO SLCB 211400@CAELT@METAR SLCB 211400Z 04004KT 9999 -RA FEW012 SCT020 BKN060 16/13 Q1027@CAELT@A3033 753.0 HR80 CI NOSIG=@CAELT@METAR SLAL 211400Z 35010KT 9999 FEW013 BKN017 BKN070 13/10 Q1032@CAELT@A3047 705.6 HR81 CI=@CAELT@METAR SLPO 211400Z 06003KT 9999 FEW017 SCT200 14/06 Q1038 A3066 638.2HR60=METAR SLAG 211400Z 19005KT 9999 FEW017 SCT070 BKN200 24/15 Q1022A3018 893.6 HR57=METAR SLVM 211400Z 18015G25KT 9999 SCT070 25/17 Q1018 A3009 HR61 CI=METAR SLTJ 211400Z 13004KT 9999 FEW030 BKN070 19/07 Q1024 A3027 819.0HR47=METAR SLYA 211400Z 00000KT 9999 BKN070 23/16 Q1019 A3011 944.0 HR65=METAR SLBJ 211400Z NIL=METAR SLHI 211400Z NIL=
ZPX0362 211402@CAELT@GG SLZZYMYT@CAELT@211359 SLLPYFYA@CAELT@SABO SLLP 211400@CAELT@METAR SLLP 211400Z 18004KT 9999 SCT015 BKN200 12/03 Q1038 A3067@CAELT@628.4 HR55 P93// AC NOSIG=@CAELT@METAR SLCO 211400Z 33006KT 9999 SCT015 BKN080 30/25 Q1012 A2989@CAELT@984.7 HR73=@CAELT@METAR SLRY 211400Z 00000KT 9999 FEW015 BKN080 29/24 Q1011 A2986HR75 RWY NML=METAR SLRQ 211400Z 00000KT 9999 FEW017 SCT080 30/25 Q1011 A2988HR72=METAR SLAP 211400Z 00000KT 9999 SCT020 25/18 Q1018 A3009 859.3HR69 CI=METAR SLSB 211400Z 15003KT 9999 SCT025 BKN080 28/25 Q1013 A2992HR85 RWY NML=METAR SLOR 211400Z 36004KT 9999 SCT020 SCT200 16/04 Q1035 A3056655.9 HR45=METAR SLUY 211400Z 32005KT 9999 FEW027 SCT200 17/01 Q1034 A3054658.5 HR36=
ZPX0387 211452@CAELT@GG SLZZYMYT@CAELT@211452 SLCAYGYS@CAELT@SABO SLCA 211500@CAELT@METAR SLCA 211500Z 00000KT 9999 SCT080 BKN200 29/10 Q1019 A3009 HR32@CAELT@RWY NML=@CAELT@
ZPX0388 211453@CAELT@GG SLZZYMYT@CAELT@211451 SLPSYGYS@CAELT@SABO SLPS 211500@CAELT@METAR SLPS 211500Z 27008KT 9999 FEW020 BKN200 33/25 Q1012 A2989 HR66=@CAELT@
ZPX0390 211454@CAELT@GG SLZZYMYT@CAELT@211454 SLSBYSYX@CAELT@SABO SLSB 211500@CAELT@METAR SLSB 211500Z 12004KT 9999 FEW015 SCT025 BKN080 28/25 Q1013@CAELT@A2992 HR82 RWY NML=@CAELT@
ZPX0392 211454@CAELT@GG SLZZYMYT@CAELT@211454 SLORYGYZ@CAELT@SABO SLOR 211500@CAELT@METAR SLOR 211500Z 08004KT 9999 SCT020 SCT200 18/04 Q1034 A3055 655.7@CAELT@HR39=@CAELT@
ZPX0393 211455@CAELT@GG SLZZYMYT@CAELT@211455 SLRBYGYS@CAELT@SABO SLRB 211500@CAELT@METAR SLRB 211500Z 00000KT 9999 NSC 31/21 Q1017 A3003 HR55 RWY NML=@CAELT@
ZPX0397 211455@CAELT@GG SLZZYMYT@CAELT@211455 SLAGYSYX@CAELT@SABO SLAG 211500@CAELT@METAR SLAG 211500Z 16007KT 9999 FEW017 SCT070 BKN200 25/15 Q1021@CAELT@A3017 893.2 HR54=@CAELT@
ZPX0398 211456@CAELT@GG SLZZYMYT@CAELT@211455 SLSAYGYS@CAELT@SABO SLSA 211500@CAELT@METAR SLSA 211500Z 00000KT 9999 SCT020 SCT080 BKN200 30/25@CAELT@Q1011 A2986 HR76=@CAELT@
ZPX0399 211456@CAELT@GG SLZZYMYT@CAELT@211456 SLVRYGYZ@CAELT@SABO SLVR 211500@CAELT@METAR SLVR 211500Z 19012KT 9999 SCT025 SCT080 BKN200 28/18 Q1014@CAELT@A2996 HR56 NOSIG=@CAELT@
ZPX0400 211456@CAELT@GG SLZZYMYT@CAELT@211455 SLETYMYC@CAELT@SABO SLET 211500@CAELT@METAR SLET 211500Z 15010KT 9999 SCT027 BKN070 26/19 Q1014 A2996 HR67@CAELT@CI NOSIG=@CAELT@
ZPX0402 211456@CAELT@GG SLZZYMYT@CAELT@211454 SLTJYGYZ@CAELT@SABO SLTJ 211500@CAELT@METAR SLTJ 211500Z 13005KT 9999 FEW030 BKN070 20/05 Q1024 A3025 818.7@CAELT@HR37=@CAELT@
ZPX0403 211456@CAELT@GG SLZZYMYT@CAELT@211455 SLUYYGYS@CAELT@SABO SLUY 211500@CAELT@METAR SLUY 211500Z 31007KT 9999 FEW030 FEW033CB 18/01 Q1033 A3053@CAELT@658.2 HR31 CB E CI=@CAELT@
ZPX0404 211456@CAELT@GG SLZZYMYT@CAELT@211456 SLCBYGYZ@CAELT@SABO SLCB 211500@CAELT@METAR SLCB 211500Z 12003KT 9999 FEW015 SCT020 BKN070 18/12 Q1026@CAELT@A3031 752.6 HR65 CI NOSIG=@CAELT@
ZPX0405 211457@CAELT@GG SLZZYMYT@CAELT@211456 SLLPYFYA@CAELT@SABO SLRY 211500@CAELT@METAR SLRY 211500Z 00000KT 9999 FEW015 BKN080 30/24 Q1011 A2985 HR71@CAELT@RWY NML=@CAELT@
ZPX0407 211457@CAELT@GG SLZZYMYT@CAELT@211457 SLVRYFYC@CAELT@SABO SLVR 211500@CAELT@METAR SLVR 211500Z 19012KT 9999 SCT025 SCT080 BKN200 28/18 Q1014@CAELT@A2996 HR56 NOSIG=@CAELT@METAR SLET 211500Z 15010KT 9999 SCT027 BKN070 26/19 Q1014 A2996 HR67@CAELT@CI NOSIG=@CAELT@METAR SLAS 211500Z 18010KT 9999 SCT020 FEW030CB OVC200 25/19 Q1016A3000 HR69 CB DIST NW RWY WET OPR=METAR SLJV 211500Z 18012KT 9999 FEW023 BKN200 25/18 Q1014 A2994 HR66RWY NML=METAR SLCP 211500Z 18015KT 9999 NSC 27/18 Q1017 A3003 HR57 CI RWY NMLMETAR SLSI 211500Z 19010KT 9999 NSC 29/19 Q1013 A2991 HR55 RWY NML=METAR SLTI 211500Z 00000KT 9999 NSC 34/25 Q1015 A2997 HR59 CI RWY NMLMETAR SLJE 211500Z 18006KT 9999 NSC 30/21 Q1016 A3000 HR61 CI RWY NMLMETAR SLVG 211500Z 17007KT 9999 BKN023 OVC070 16/10 Q1027 A3033 HR63METAR SLRB 211500Z 00000KT 9999 NSC 31/21 Q1017 A3003 HR55 RWY NML=METAR SLPS 211500Z 27008KT 9999 FEW020 BKN200 33/25 Q1012 A2989 HR66=METAR SLCA 211500Z 00000KT 9999 SCT080 BKN200 29/10 Q1019 A3009 HR32
ZPX0408 211457@CAELT@GG SLZZYMYT@CAELT@211456 SLTRYGYZ@CAELT@SABO SLTR 211500@CAELT@METAR SLTR 211500Z 13010KT 9999 -RA BKN005 FEW020CB OVC070 24/23@CAELT@Q1014 A2995 995.6 HR96 CB SE NOSIG=@CAELT@
ZPX0409 211458@CAELT@GG SLZZYMYT@CAELT@211458 SLCOYGYZ@CAELT@SABO SLCO 211500@CAELT@METAR SLCO 211500Z 36005KT 9999 BKN020 31/25 Q1012 A2989 984.7 HR67@CAELT@
ZPX0411 211459@CAELT@GG SLZZYMYT@CAELT@211455 SLLPYGYZ@CAELT@SABO SLLP 211500@CAELT@METAR SLLP 211500Z 12011KT 100V180 9999 SCT017 FEW020CB BKN200@CAELT@13/04 Q1038 A3066 628.2 HR56 P93// CB/NE AC NOSIG=@CAELT@
ZPX0413 211500@CAELT@GG SLZZYMYT@CAELT@211458 SLTRYGYS@CAELT@SABO SLTR 211500@CAELT@METAR SLTR 211500Z 13010KT 9999 -RA BKN005 FEW020CB OVC070 24/23@CAELT@Q1014 A2995 995.6 HR96 CB SE NOSIG=@CAELT@METAR SLGM 211500Z 32004KT 8000 VCSH SCT017 FEW020CB BKN080 29/24@CAELT@Q1013 A2991 HR78 RERA CB/SH W=@CAELT@METAR SLRI 211500Z 00000KT 2000 TSRA SCT004 BKN015 FEW020CB OVC07024/24 Q1014 A2995 HR98 CB/TS N/W/NW=METAR SLJO 211500Z 12004KT 7000 VCSH FEW005 SCT10 FEW023CB BKN07027/25 Q1012 A2991 HR90 CB/SH SE/S RWY WET OPR C206=METAR SLRA 211500Z 36006KT 7000 VCSH FEW008 FEW023CB OVC070 28/26Q1012 A2989 HR89 CB/SH NE/E RWY OPR C206=METAR SLMG 211500Z 00000KT 9999 SCT020 FEW023CB OVC070 25/24 Q1011A2988 HR97 RETSRA CB S/W RWY OPR C206=METAR SLBU 211500Z 27006KT 8000 VCSH SCT015 FEW023CB BKN080 26/24Q1011 A2988 HR93 CB/SH S/SW/W RWY NML=METAR SLSA 211500Z 00000KT 9999 SCT020 SCT080 BKN200 30/25Q1011 A2986 HR76=METAR SLSR 211500Z 32008KT 9999 FEW017 FEW023CB SCT080 BKN200 31/24Q1012 A2988 HR70 CB SW/S RWY NML=METAR SLSM 211500Z 15004KT 8000 -RA BKN017 OVC070 26/24 Q1014 A2995HR91 RWY HUM OPR=
ZPX0414 211501@CAELT@GG SLZZYMYT@CAELT@211459 SLLPYFYA@CAELT@SABO SLLP 211500@CAELT@METAR SLLP 211500Z 12011KT 100V180 9999 SCT017 FEW020CB BKN200@CAELT@13/04 Q1038 A3066 628.2 HR56 P93// CB/NE AC NOSIG=@CAELT@METAR SLCO 211500Z 36005KT 9999 BKN020 31/25 Q1012 A2989 984.7@CAELT@HR67 AC=@CAELT@METAR SLRY 211500Z 00000KT 9999 FEW015 BKN080 30/24 Q1011A2985 HR71 RWY NML=METAR SLRQ 211500Z 00000KT 9999 SCT017 32/24 Q1011 A2988987.8 HR64 AC/CI=METAR SLAP 211500Z 00000KT 9999 SCT020 FEW023CB 23/19 Q1019A3010 859.6 HR77 CB/SH N/NW CI=METAR SLSB 211500Z 12004KT 9999 FEW015 SCT025 BKN080 28/25 Q1013A2992 HR82 RWY NML=METAR SLOR 211500Z 08004KT 9999 SCT020 SCT200 18/04 Q1034A3055 655.7 HR39=METAR SLUY 211500Z 31007KT 9999 FEW030 FEW033CB 18/01 Q1033A3053 658.2 HR31 CB E CI=
ZPX0415 211502@CAELT@GG SLZZYMYT@CAELT@211456 SLCBYGYZ@CAELT@SABO SLCB 211500@CAELT@METAR SLCB 211500Z 12003KT 9999 FEW015 SCT020 BKN070 18/12 Q1026@CAELT@A3031 752.6 HR65 CI NOSIG=@CAELT@
ZPX0417 211503@CAELT@GG SLZZYMYT@CAELT@211500 SLCBYGYS@CAELT@SABO SLCB 211500@CAELT@METAR SLCB 211500Z 12003KT 9999 FEW015 SCT020 BKN070 18/12 Q1026@CAELT@A3031 752.6 HR65 CI NOSIG=@CAELT@METAR SLAL 211500Z 01014KT 9999 SCT015 OVC070 14/10 Q1031 A3046 705.4@CAELT@HR75=@CAELT@METAR SLPO 211500Z 06005KT 9999 SCT017 15/06 Q1037 A3064 637.9 HR57METAR SLAG 211500Z 16007KT 9999 FEW017 SCT070 BKN200 25/15 Q1021A3017 893.2 HR54=METAR SLVM 211500Z 18010G22KT 9999 SCT070 28/19 Q1018 A3007 HR58 CI=METAR SLTJ 211500Z 13005KT 9999 FEW030 BKN070 20/05 Q1024 A3025 818.7HR37=METAR SLYA 211500Z 21010KT 9999 FEW070 24/16 Q1019 A3011 943.8 HR61=METAR SLBJ 211500Z NIL=METAR SLHI 211500Z NIL=
ZPX0420 211513@CAELT@GG SLZZYMYT@CAELT@211513 SLVRYFYC@CAELT@SABO SLVR 211200 CCA@CAELT@METAR SLVR 211200Z 12004KT 9999 BKN025 OVC070 22/18 Q1012 A2991 HR79@CAELT@NOSIG=@CAELT@METAR SLET 211200Z 15006KT 9999 BKN023 FEW030CB OVC070 22/18 Q1014@CAELT@A2996 HR82 CB/SH NW NOSIG=@CAELT@METAR COR SLAS 211200Z 18008KT 8000 -RA BKN017 FEW030CB OVC070 20/18Q1015 A2997 HR93 CB SE/S/SW/N RWY WET OPR=METAR SLJV 211200Z 19010KT 9999 SCT023 BKN200 22/19 Q1014 A2994 HR82RWY NML=METAR SLCP 211200Z 18010KT 9999 BKN015 OVC200 23/17 Q1017 A3003 HR72METAR SLSI 211200Z 19010KT 9999 NSC 26/18 Q1013 A2991 HR63 RWY NML=METAR SLTI 211200Z 00000KT 9999 NSC 28/25 Q1015 A2997 HR80 CI RWY NMLMETAR SLJE 211200Z 18008KT 9999 NSC 24/18 Q1015 A2997 HR70 CI RWY NMLMETAR SLVG 211200Z 18006KT 9999 BKN020 OVC070 14/10 Q1026 A3030 HR75RWY HUM OPR=METAR SLRB 211200Z 00000KT 9999 NSC 25/20 Q1017 A3003 HR73 RWY NML=METAR SLPS 211200Z 27008KT 9999 FEW020 BKN070 27/23 Q1012 A2989 HR80=METAR SLCA 211200Z 00000KT 9999 BKN070 22/14 Q1020 A3012 HR60 RWY NML
ZPX0425 211530@CAELT@GG SLZZYMYT@CAELT@211530 SLTRYGYS@CAELT@SABO SLTR 211500 CCA@CAELT@METAR SLTR 211500Z 13010KT 9999 -RA BKN005 FEW020CB OVC070 24/23@CAELT@Q1014 A2995 995.6 HR96 CB SE NOSIG=@CAELT@METAR SLGM 211500Z 32004KT 8000 VCSH SCT017 FEW020CB BKN080 29/24@CAELT@Q1013 A2991 HR78 RERA CB/SH W=@CAELT@METAR SLRI 211500Z 00000KT 2000 TSRA SCT004 BKN015 FEW020CB OVC07024/24 Q1014 A2995 HR98 CB/TS N/W/NW=METAR COR SLJO 211500Z 12004KT 7000 VCSH FEW005 SCT010 FEW023CBBKN07027/25 Q1012 A2991 HR90 CB/SH SE/S RWY WET OPR C206=METAR SLRA 211500Z 36006KT 7000 VCSH FEW008 FEW023CB OVC070 28/26Q1012 A2989 HR89 CB/SH NE/E RWY OPR C206=METAR SLMG 211500Z 00000KT 9999 SCT020 FEW023CB OVC070 25/24 Q1011A2988 HR97 RETSRA CB S/W RWY OPR C206=METAR SLBU 211500Z 27006KT 8000 VCSH SCT015 FEW023CB BKN080 26/24Q1011 A2988 HR93 CB/SH S/SW/W RWY NML=METAR SLSA 211500Z 00000KT 9999 SCT020 SCT080 BKN200 30/25Q1011 A2986 HR76=METAR SLSR 211500Z 32008KT 9999 FEW017 FEW023CB SCT080 BKN200 31/24Q1012 A2988 HR70 CB SW/S RWY NML=METAR SLSM 211500Z 15004KT 8000 -RA BKN017 OVC070 26/24 Q1014 A2995HR91 RWY HUM OPR=
ZPX0433 211553@CAELT@GG SLZZYMYT@CAELT@211552 SLPSYGYS@CAELT@SABO SLPS 211600@CAELT@METAR SLPS 211600Z 26010KT 9999 FEW020 BKN200 33/26 Q1011 A2986 HR66=@CAELT@
ZPX0434 211554@CAELT@GG SLZZYMYT@CAELT@211554 SLSBYSYX@CAELT@SABO SLSB 211600@CAELT@METAR SLSB 211600Z 11010KT 9999 BKN017 BKN080 30/25 Q1013 A2992 HR77@CAELT@RWY NML=@CAELT@
ZPX0435 211554@CAELT@GG SLZZYMYT@CAELT@211554 SLSAYGYS@CAELT@SABO SLSA 211600@CAELT@METAR SLSA 211600Z 00000KT 9999 BKN020 FEW023CB BKN200 31/24@CAELT@Q1011 A2986 HR66 AC CB NE/E=@CAELT@
ZPX0436 211555@CAELT@GG SLZZYMYT@CAELT@211555 SLCAYGYS@CAELT@SABO SLCA 211600@CAELT@METAR SLCA 211600Z 00000KT 9999 NSC 31/09 Q1018 A3006 HR27 CS RWY NML@CAELT@
ZPX0437 211555@CAELT@GG SLZZYMYT@CAELT@211555 SLTJYGYZ@CAELT@SABO SLTJ 211600@CAELT@METAR SLTJ 211600Z 00000KT 9999 FEW030 BKN070 22/10 Q1023 A3024 818.2@CAELT@HR44=@CAELT@
ZPX0439 211556@CAELT@GG SLZZYMYT@CAELT@211555 SLETYMYC@CAELT@SABO SLET 211600@CAELT@METAR SLET 211600Z 14008KT 9999 BKN027 BKN200 27/20 Q1014 A2996 HR63@CAELT@AC NOSIG=@CAELT@
ZPX0440 211556@CAELT@GG SLZZYMYT@CAELT@211555 SLUYYGYS@CAELT@SABO SLUY 211600@CAELT@METAR SLUY 211600Z 28007KT 9999 FEW033 FEW036CB SCT200 20/03@CAELT@Q1033 A3050 657.6 HR32 CB/SH NE/E=@CAELT@
ZPX0441 211556@CAELT@GG SLZZYMYT@CAELT@211556 SLVRYGYZ@CAELT@SABO SLVR 211600@CAELT@METAR SLVR 211600Z 16008KT 9999 BKN027 BKN080 28/19 Q1014 A2996 HR56@CAELT@CI NOSIG=@CAELT@
ZPX0442 211556@CAELT@GG SLZZYMYT@CAELT@211555 SLLPYFYA@CAELT@SABO SLRY 211600@CAELT@METAR SLRY 211600Z 00000KT 9999 SCT015 SCT080 32/25 Q1010 A2985 HR69@CAELT@RWY NML=@CAELT@
ZPX0443 211556@CAELT@GG SLZZYMYT@CAELT@211556 SLTRYGYZ@CAELT@SABO SLTR 211600@CAELT@METAR SLTR 211600Z 11010KT 9999 BKN005 OVC070 23/22 Q1014 A2995@CAELT@995.6 HR96 RERA NOSIG=@CAELT@
ZPX0444 211557@CAELT@GG SLZZYMYT@CAELT@211556 SLRBYGYS@CAELT@SABO SLRB 211600@CAELT@METAR SLRB 211600Z 00000KT 9999 NSC 31/22 Q1016 A3000 HR53 RWY NML=@CAELT@
ZPX0445 211557@CAELT@GG SLZZYMYT@CAELT@211556 SLCOYGYZ@CAELT@SABO SLCO 211600@CAELT@METAR SLCO 211600Z 33008KT 9999 BKN020 32/24 Q1011 A2987 984.0 HR65@CAELT@AC/CI=@CAELT@
ZPX0446 211557@CAELT@GG SLZZYMYT@CAELT@211556 SLCBYGYZ@CAELT@SABO SLCB 211600@CAELT@METAR SLCB 211600Z 15003KT 9999 FEW025 SCT070 BKN200 21/10 Q1025@CAELT@A3030 752.1 HR51 NOSIG=@CAELT@
ZPX0447 211557@CAELT@GG SLZZYMYT@CAELT@211555 SLLPYGYZ@CAELT@SABO SLLP 211600@CAELT@METAR SLLP 211600Z 12010KT 9999 FEW017 FEW020CB BKN200 15/03 Q1037@CAELT@A3065 627.9 HR42 P93// CB/NW AC NOSIG=@CAELT@
ZPX0448 211558@CAELT@GG SLZZYMYT@CAELT@211557 SLAGYSYX@CAELT@SABO SLAG 211600@CAELT@METAR SLAG 211600Z 18010KT 9999 FEW020 BKN070 BKN200 26/14 Q1021@CAELT@A3015 892.7 HR49=@CAELT@
ZPX0449 211559@CAELT@GG SLZZYMYT@CAELT@211558 SLCBYGYS@CAELT@SABO SLCB 211600@CAELT@METAR SLCB 211600Z 15003KT 9999 FEW025 SCT070 BKN200 21/10 Q1025@CAELT@A3030 752.1 HR51 NOSIG=@CAELT@METAR SLAL 211600Z 01009KT 9999 SCT017 BKN070 15/10 Q1031 A3045 705.0@CAELT@HR74 CI=@CAELT@METAR SLPO 211600Z 06007KT 9999 SCT020 17/06 Q1037 A3062 637.5 HR50METAR SLAG 211600Z 18010KT 9999 FEW020 BKN070 BKN200 26/14 Q1021A3015 892.7 HR49=METAR SLVM 211600Z 18015G28KT 9999 FEW070 29/17 Q1017 A3004 HR51 CI=METAR SLTJ 211600Z 00000KT 9999 FEW030 BKN070 22/10 Q1023 A3024 818.2HR44=METAR SLYA 211600Z 21010KT 9999 NSC 25/16 Q1019 A3009 943.3 HR58=METAR SLBJ 211600Z NIL=METAR SLHI 211600Z NIL=
ZPX0452 211559@CAELT@GG SLZZYMYT@CAELT@211600 SLVRYFYC@CAELT@SABO SLVR 211600@CAELT@METAR SLVR 211600Z 16008KT 9999 BKN027 BKN080 28/19 Q1014 A2996 HR56@CAELT@CI NOSIG=@CAELT@METAR SLET 211600Z 14008KT 9999 BKN027 BKN200 27/20 Q1014 A2996 HR63@CAELT@AC NOSIG=@CAELT@METAR SLAS 211600Z 18006KT 9999 BKN070 OVC200 27/22 Q1016 A3000 HR75RWY WET OPR=METAR SLCP 211600Z 18010KT 9999 NSC 28/19 Q1016 A3000 HR57 CI RWY NMLMETAR SLSI 211600Z 19010KT 9999 NSC 31/21 Q1013 A2991 HR56 RWY NML=METAR SLRB 211600Z 00000KT 9999 NSC 31/22 Q1016 A3000 HR53 RWY NML=METAR SLPS 211600Z 26010KT 9999 FEW020 BKN200 33/26 Q1011 A2986 HR66=METAR SLCA 211600Z 00000KT 9999 NSC 31/09 Q1018 A3006 HR27 CS RWY NML
ZPX0454 211600@CAELT@GG SLZZYMYT@CAELT@211558 SLTRYGYS@CAELT@SABO SLTR 211600@CAELT@METAR SLTR 211600Z 11010KT 9999 BKN005 OVC070 23/22 Q1014 A2995@CAELT@995.6 HR96 RERA NOSIG=@CAELT@METAR SLGM 211600Z 32994KT 8888 SCT017 BKN080 31/24 Q1011 A2988 HR68=@CAELT@METAR SLRI 211600Z 00000KT 5000 -RA SCT004 BKN015 FEW020CB OVC070@CAELT@24/24 Q1013 A2993 HR98 RETSRA CB N/SW/W=METAR SLJO 211600Z 00000KT 7000 TS VCSH SCT010 FEW023CB SCT070 BKN20029/26 Q1011 A2988 HR84 CB/SH N/NW/SW TS NW RWY WET OPR C206=METAR SLRA 211600Z 12006KT 9999 BKN015 OVC070 29/26 Q1012 A2989 HR85RWY OPR C206=METAR SLMG 211600Z 00000KT 9999 SCT015 FEW023CB BKN080 27/25 Q1011A2988 HR88 CB NE/S RWY WET OPR C206=METAR SLBU 211600Z 27008KT 8000 VCSH SCT015 FEW023CB BKN080 26/24Q1011 A2986 HR85 CB/SH S/SW/W RWY NML=METAR SLSA 211600Z 00000KT 9999 BKN020 FEW023CB BKN200 31/24 Q1011A2986 HR66 AC CB NE/E=METAR SLSR 211600Z 32008KT 8000 VCSH SCT017 FEW023CB SCT080 BKN20031/24 Q1011 A2986 HR66 CB/SH E/SE/S RWY NML=METAR SLSM 211600Z 15006KT 9999 -RA BKN015 OVC070 26/24 Q1014 A2995HR90 RWY HUM OPR=
ZPX0455 211601@CAELT@GG SLZZYMYT@CAELT@211559 SLLPYFYA@CAELT@SABO SLLP 211600@CAELT@METAR SLLP 211600Z 12010KT 9999 FEW017 FEW020CB BKN200 15/03@CAELT@Q1037 A3065 627.9 HR42 P93// CB/NW AC NOSIG=@CAELT@METAR SLCO 211600Z 33008KT 9999 BKN020 32/24 Q1011 A2987@CAELT@984.0 HR65 AC/CI=@CAELT@METAR SLRY 211600Z 00000KT 9999 SCT015 SCT080 32/25 Q1010A2985 HR69 RWY NML=METAR SLRQ 211600Z 17006KT 9999 SCT017 32/25 Q1011 A2986987.2 HR67 AC/CC=METAR SLAP 211600Z 00000KT 9999 SCT025 FEW027CB 22/19 Q1018A3009 859.3 HR82 CB/SH S/SW CI=METAR SLSB 211600Z 11010KT 9999 BKN017 BKN080 30/25 Q1013A2992 HR77 RWY NML=METAR SLUY 211600Z 28007KT 9999 FEW033 FEW036CB SCT200 20/03Q1033 A3050 657.6 HR32 CB/SH NE/E=
ZPX0472 211649@CAELT@GG SLZZYMYT@CAELT@211650 SLRBYGYS@CAELT@SABO SLRB 211700@CAELT@METAR SLRB 211700Z 00000KT 9999 NSC 32/23 Q1015 A2997 HR60 RWY NML=@CAELT@
ZPX0474 211652@CAELT@GG SLZZYMYT@CAELT@211651 SLPSYGYS@CAELT@SABO SLPS 211700@CAELT@METAR SLPS 211700Z 26012KT 9999 FEW020 BKN200 34/26 Q1010 A2983 HR62=@CAELT@
ZPX0475 211654@CAELT@GG SLZZYMYT@CAELT@211653 SLCAYGYS@CAELT@SABO SLCA 211700@CAELT@METAR SLCA 211700Z 00000KT 9999 NSC 31/09 Q1018 A3006 HR27 CS RWY NML@CAELT@
ZPX0476 211654@CAELT@GG SLZZYMYT@CAELT@211654 SLSAYGYS@CAELT@SABO SLSA 211700@CAELT@METAR SLSA 211700Z 19015KT 2000 TSRA BKN017 FEW020CB BKN200 27/24@CAELT@Q1010 A2985 HR85 CB/TS ON STN/S/SW=@CAELT@
ZPX0477 211655@CAELT@GG SLZZYMYT@CAELT@211655 SLSBYSYX@CAELT@SABO SLSB 211700@CAELT@METAR SLSB 211700Z 13010G20KT 7000 VCSH BKN017 FEW020CB BKN080 29/25@CAELT@Q1012 A2989 HR79 CB/SH N NE NW RWY NML=@CAELT@
ZPX0478 211655@CAELT@GG SLZZYMYT@CAELT@211655 SLCOYGYZ@CAELT@SABO SLCO 211700@CAELT@METAR SLCO 211700Z 21006KT 8000 VCSH BKN020 FEW023CB 29/25 Q1009@CAELT@A2982 982.3 HR78 CB/SH/SE/SW AC/CI=@CAELT@
ZPX0479 211655@CAELT@GG SLZZYMYT@CAELT@211655 SLCBYGYZ@CAELT@SABO SLCB 211700@CAELT@METAR SLCB 211700Z 13003KT 9999 FEW027 SCT070 BKN200 24/09 Q1024@CAELT@A3027 751.3 HR38 NOSIG=@CAELT@
ZPX0480 211656@CAELT@GG SLZZYMYT@CAELT@211655 SLETYMYC@CAELT@SABO SLET 211700@CAELT@METAR SLET 211700Z 12007KT 9999 FEW027 SCT070 BKN200 30/19 Q1013@CAELT@A2994 HR52 NOSIG=@CAELT@
ZPX0481 211656@CAELT@GG SLZZYMYT@CAELT@211656 SLVRYGYZ@CAELT@SABO SLVR 211700@CAELT@METAR SLVR 211700Z 15009KT 9999 FEW027 SCT080 BKN200 30/19 Q1014@CAELT@A2996 HR53 NOSIG=@CAELT@
ZPX0482 211656@CAELT@GG SLZZYMYT@CAELT@211655 SLTJYGYZ@CAELT@SABO SLTJ 211700@CAELT@METAR SLTJ 211700Z 13006KT 9999 FEW030 BKN070 23/09 Q1023 A3021 817.5@CAELT@HR42=@CAELT@
ZPX0483 211657@CAELT@GG SLZZYMYT@CAELT@211657 SLAGYSYX@CAELT@SABO SLAG 211700@CAELT@METAR SLAG 211700Z 18007KT 9999 FEW020 BKN070 BKN200 26/14 Q1020@CAELT@A3013 892.2 HR47=@CAELT@
ZPX0484 211657@CAELT@GG SLZZYMYT@CAELT@211655 SLLPYGYZ@CAELT@SABO SLLP 211700@CAELT@METAR SLLP 211700Z 14010KT 080V180 9999 VCTS SCT017 FEW020CB BKN200@CAELT@13/03 Q1037 A3062 627.3 HR51 P0784 CB/SH N TS/N AC NOSIG=@CAELT@
ZPX0485 211658@CAELT@GG SLZZYMYT@CAELT@211656 SLTRYGYZ@CAELT@SABO SLTR 211700@CAELT@METAR SLTR 211700Z 13010KT 9999 VCTS BKN005 FEW020CB OVC070 23/22@CAELT@Q1014 A2994 995.4 HR94 CB/TS/SH NE/E TEMPO TSRA=@CAELT@
ZPX0486 211658@CAELT@GG SLZZYMYT@CAELT@211658 SLVRYFYC@CAELT@SABO SLVR 211700@CAELT@METAR SLVR 211700Z 15009KT 9999 FEW027 SCT080 BKN200 30/19 Q1014@CAELT@A2996 HR53 NOSIG=@CAELT@METAR SLET 211700Z 12007KT 9999 FEW027 SCT070 BKN200 30/19 Q1013@CAELT@A2994 HR52 NOSIG=@CAELT@METAR SLAS 211700Z 18005KT 9999 BKN070 OVC200 29/21 Q1016 A3000 HR61RWY WET OPR=METAR SLCP 211700Z 18010KT 9999 NSC 29/18 Q1016 A3000 HR52 CI RWY NMLMETAR SLSI 211700Z 19008KT 9999 NSC 32/20 Q1012 A2988 HR50 RWY NML=METAR SLRB 211700Z 00000KT 9999 NSC 32/23 Q1015 A2997 HR60 RWY NML=METAR SLPS 211700Z 26012KT 9999 FEW020 BKN200 34/26 Q1010 A2983 HR62=METAR SLCA 211700Z 00000KT 9999 NSC 31/09 Q1018 A3006 HR27 CS RWY NML
ZPX0487 211659@CAELT@GG SLZZYMYT@CAELT@211659 SLTRYGYS@CAELT@SABO SLTR 211700@CAELT@METAR SLTR 211700Z 13010KT 9999 VCTS BKN005 FEW020CB OVC070 23/22@CAELT@Q1014 A2994 995.4 HR94 CB/TS/SH NE/E TEMPO TSRA=@CAELT@METAR SLGM 211700Z 32004KT 9999 SCT017 FEW020CB BKN200 31/24 Q1010@CAELT@A2982 HR67 CB N=@CAELT@METAR SLRI 211700Z 00000KT 8000 VCSH SCT015 FEW020CB BKN20027/25 Q1011 A2986 HR86 RERA CB/SH N/NE/S/SW=METAR SLJO 211700Z 36006KT 7000 TS VCSH SCT015 FEW023CB SCT070 BKN20030/26 Q1011 A2986 HR80 CB/SH N/NE/NW TS NW RWY WET OPR C206=METAR SLRA 211700Z 12004KT 7000 VCSH SCT017 FEW023CB BKN080 30/26Q1011 A2988 HR79 CB/SH SE/S/SW RWY OPR C206=METAR SLMG 211700Z 18005KT 9999 SCT017 FEW023CB BKN080 28/25 Q1011A2985 HR84 CB N/NE RWY WET OPR C206=METAR SLBU 211700Z 18008KT 9999 SCT015 FEW023CB BKN080 27/24 Q1010A2983 HR81 CB S/SW RWY NML=METAR SLSA 211700Z 19015KT 2000 TSRA BKN017 FEW020CB BKN200 27/24Q1010 A2985 HR85 CB/TS ON STN/S/SW=METAR SLSR 211700Z 32008KT 6000 VCSH SCT017 FEW023CB BKN200 33/25Q1009 A2982 HR62 CB/SH NE/E/SE/NW RWY NML=METAR SLSM 211700Z 13006KT 9999 BKN015 OVC070 25/23 Q1013 A2993 HR91RERA RWY HUM OPR=
ZPX0488 211659@CAELT@GG SLZZYMYT@CAELT@211659 SLUYYGYS@CAELT@SABO SLUY 211700@CAELT@METAR SLUY 211700Z 29008KT 9999 FEW033 FEW036CB SCT200 21/02@CAELT@Q1032 A3048 657.0 HR28 CB/SH N/NE/E/SE AC=@CAELT@
ZPX0489 211700@CAELT@GG SLZZYMYT@CAELT@211659 SLCBYGYS@CAELT@SABO SLCB 211700@CAELT@METAR SLCB 211700Z 13003KT 9999 FEW027 SCT070 BKN200 24/09 Q1024@CAELT@A3027 751.3 HR38 NOSIG=@CAELT@METAR SLAL 211700Z 01018KT 9999 SCT017 SCT070 16/10 Q1030 A3044 704.7@CAELT@HR72 CI=@CAELT@METAR SLPO 211700Z 07010KT 9999 SCT020 FEW025CB 18/06 Q1036 A3059 636.8 HR46 CB/SW CI=METAR SLAG 211700Z 18007KT 9999 FEW020 BKN070 BKN200 26/14 Q1020A3013 892.2 HR47=METAR SLVM 211700Z 18015G25KT 9999 FEW070 30/18 Q1016 A3002 HR49 CI=METAR SLTJ 211700Z 13006KT 9999 FEW030 BKN070 23/09 Q1023 A3021 817.5HR42=METAR SLYA 211700Z 21010KT 9999 NSC 26/16 Q1018 A3007 942.8 HR55=METAR SLBJ 211700Z NIL=METAR SLHI 211700Z NIL=
ZPX0490 211701@CAELT@GG SLZZYMYT@CAELT@211659 SLUYYGYS@CAELT@SABO SLUY 211700@CAELT@METAR SLUY 211700Z 29008KT 9999 FEW033 FEW036CB SCT200 21/02@CAELT@Q1032 A3048 657.0 HR28 CB/SH N/NE/E/SE AC=@CAELT@
ZPX0491 211702@CAELT@GG SLZZYMYT@CAELT@211701 SLLPYFYA@CAELT@SABO SLRY 211700@CAELT@METAR SLRY 211700Z 00000KT 9999 BKN015 33/25 Q1010 A2983 HR62@CAELT@RWY NML=@CAELT@
ZPX0492 211704@CAELT@GG SLZZYMYT@CAELT@211703 SLLPYFYA@CAELT@SABO SLLP 211700@CAELT@METAR SLLP 211700Z 14010KT 080V180 9999 VCTS SCT017 FEW020CB BKN200@CAELT@13/03 Q1037 A3062 627.3 HR51 P0784 CB/SH N TS/N AC NOSIG=@CAELT@METAR SLCO 211700Z 21006KT 8000 VCSH BKN020 FEW023CB 29/25 Q1009@CAELT@A2982 982.3 HR78 CB/SH/SE/SW AC/CI=@CAELT@METAR SLRY 211700Z 00000KT 9999 BKN015 33/25 Q1010 A2983 HR62RWY NML=METAR SLRQ 211700Z 14005KT 9999 BKN020 33/25 Q1009 A2982 985.8 HR63METAR SLAP 211700Z 00000KT 9999 SCT025 FEW027CB 26/19 Q1017 A3004858,1 HR67 CB/SH SE/S/SW CI=METAR SLSB 211700Z 13010G20KT 7000 VCSH BKN017 FEW020CB BKN080 29/25Q1012 A2989 HR79 CB/SH N NE NW RWY NML=METAR SLUY 211700Z 29008KT 9999 FEW033 FEW036CB SCT200 21/02Q1032 A3048 657.0 HR28 CB/SH N/NE/E/SE AC=
ZPX0514 211750@CAELT@GG SLZZYMYT@CAELT@211750 SLRBYGYS@CAELT@SABO SLRB 211800@CAELT@METAR SLRB 211800Z 00000KT 9999 NSC 32/22 Q1014 A2994 HR58 RWY NML=@CAELT@
ZPX0516 211752@CAELT@GG SLZZYMYT@CAELT@211751 SLPSYGYS@CAELT@SABO SLPS 211800@CAELT@METAR SLPS 211800Z 26010KT 9999 FEW020 BKN200 35/25 Q1009 A2980 HR58=@CAELT@
ZPX0518 211753@CAELT@GG SLZZYMYT@CAELT@211753 SLAGYSYX@CAELT@SABO SLAG 211800@CAELT@METAR SLAG 211800Z 20010KT 9999 FEW023 SCT070 BKN200 27/14 Q1019@CAELT@A3010 891.3 HR45=@CAELT@
ZPX0519 211755@CAELT@GG SLZZYMYT@CAELT@211755 SLTJYGYZ@CAELT@SABO SLTJ 211800@CAELT@METAR SLTJ 211800Z 13008KT 9999 SCT033 BKN070 23/11 Q1022 A3018 816.7@CAELT@HR44=@CAELT@
ZPX0520 211755@CAELT@GG SLZZYMYT@CAELT@211755 SLSAYGYS@CAELT@SABO SLSA 211800@CAELT@METAR SLSA 211800Z 16016KT 1500 TSRA BKN005 BKN015 FEW020CB OVC070 23@CAELT@/23 Q1009 A2982 HR98 CB/TS SE/S=@CAELT@
ZPX0521 211756@CAELT@GG SLZZYMYT@CAELT@211755 SLCBYGYZ@CAELT@SABO SLCB 211800@CAELT@METAR SLCB 211800Z 10007KT 040V160 9999 FEW030 SCT070 BKN200@CAELT@25/08 Q1023 A3022 750.1 HR33 NOSIG=@CAELT@
ZPX0522 211756@CAELT@GG SLZZYMYT@CAELT@211756 SLTRYGYZ@CAELT@SABO SLTR 211800@CAELT@METAR SLTR 211800Z 12010KT 9000 -TSRA BKN005 FEW020CB OVC070 24/23@CAELT@Q1012 A2989 993.8 HR95 CB N/NE/NW TS NE NOSIG=@CAELT@
ZPX0523 211756@CAELT@GG SLZZYMYT@CAELT@211755 SLETYMYC@CAELT@SABO SLET 211800@CAELT@METAR SLET 211800Z 11008KT 9999 SCT070 BKN200 31/18 Q1013 A2992 HR45@CAELT@NOSIG=@CAELT@
ZPX0524 211757@CAELT@GG SLZZYMYT@CAELT@211756 SLVRYGYZ@CAELT@SABO SLVR 211800@CAELT@METAR SLVR 211800Z 15009KT 9999 SCT080 BKN200 32/19 Q1013 A2994 HR48@CAELT@NOSIG=@CAELT@
ZPX0526 211757@CAELT@GG SLZZYMYT@CAELT@211756 SLCOYGYZ@CAELT@SABO SLCO 211800@CAELT@METAR SLCO 211800Z 19006KT 9999 BKN020 FEW023CB.32/26 Q1007 A2976 980@CAELT@.5 HR69 CB/N/SE AC/CI=@CAELT@
ZPX0527 211758@CAELT@GG SLZZYMYT@CAELT@211755 SLLPYGYZ@CAELT@SABO SLLP 211800@CAELT@METAR SLLP 211800Z 10009KT 070V150 9999 VCTS SCT017 FEW020CB BKN200@CAELT@14/04 Q1036 A3060 626.9 HR52 P94// CB/SH NW TS/NW AC NOSIG=@CAELT@
ZPX0528 211759@CAELT@GG SLZZYMYT@CAELT@211758 SLCAYGYS@CAELT@SABO SLCA 211800@CAELT@METAR SLCA 211800Z 00000KT 9999 NSC 32/10 Q1017 A3003 HR26 CS RWY NML@CAELT@
ZPX0531 211800@CAELT@GG SLZZYMYT@CAELT@211759 SLLPYFYA@CAELT@SABO SLRY 211800@CAELT@METAR SLRY 211800Z 00000KT 9999 BKN015 FEW023CB BKN200 34/26 Q1008@CAELT@A2979 HR61 CB/NE/E RWY NML=@CAELT@
ZPX0534 211800@CAELT@GG SLZZYMYT@CAELT@211800 SLVRYFYC@CAELT@SABO SLVR 211800@CAELT@METAR SLVR 211800Z 15009KT 9999 SCT080 BKN200 32/19 Q1013 A2994 HR48@CAELT@NOSIG=@CAELT@METAR SLET 211800Z 11008KT 9999 SCT070 BKN200 31/18 Q1013 A2992 HR45@CAELT@METAR SLAS 211800Z 18006KT 9999 SCT070 OVC200 29/21 Q1014 A2994 HR61@CAELT@RWY HUM OPR=METAR SLJV 211800Z 19010KT 9999 NSC 29/20 Q1012 A2988 HR61 CI RWY NMLMETAR SLCP 211800Z 21010KT 9999 NSC 29/20 Q1015 A2997 HR52 CI RWY NMLMETAR SLSI 211800Z 22008KT 9999 FEW017 BKN200 33/20 Q1011 A2985 HR47RWY NML=METAR SLTI 211800Z 00000KT 9999 BKN017 FEW030CB 36/25 Q1011 A2985HR51 CB/SH NW/N RWY NML=METAR SLJE 211800Z 18006KT 9999 FEW017 BKN200 33/23 Q1015 A2997 HR56METAR SLVG 211800Z 18006KT 9999 BKN027 19/14 Q1026 A3030 HR70 RWY NMLMETAR SLRB 211800Z 00000KT 9999 NSC 32/22 Q1014 A2994 HR58 RWY NML=METAR SLPS 211800Z 26010KT 9999 FEW020 BKN200 35/25 Q1009 A2980 HR58=METAR SLCA 211800Z 00000KT 9999 NSC 32/10 Q1017 A3003 HR26 CS RWY NML
ZPX0536 211801@CAELT@GG SLZZYMYT@CAELT@211800 SLSBYSYX@CAELT@SABO SLSB 211800@CAELT@METAR SLSB 211800Z 12015KT 8000 TS VCSH BKN017 FEW020CB OVC200 26/23@CAELT@Q1011 A2987 HR83 TS/CB/SH N NW RWY NML=@CAELT@
ZPX0537 211802@CAELT@GG SLZZYMYT@CAELT@211800 SLLPYFYA@CAELT@SABO SLLP 211800@CAELT@METAR SLLP 211800Z 10009KT 070V150 9999 VCTS SCT017 FEW020CB BKN200@CAELT@14/04 Q1036 A3060 626.9 HR52 P94// CB/SH NW TS/NW AC NOSIG=@CAELT@METAR SLCO 211800Z 19006KT 9999 BKN020 FEW023CB.32/26 Q1007 A2976 980@CAELT@.5 HR69 CB/N/SE AC/CI=@CAELT@METAR SLRY 211800Z 00000KT 9999 BKN015 FEW023CB BKN200 34/26 Q1008A2979 HR61 CB/NE/E RWY NML=METAR SLRQ 211800Z 12009KT 9999 BKN020 FEW023CB 33/25 Q1008 A2979 984.8 HR62 CB E/SE=METAR SLAP 211800Z 00000KT 9999 SCT025 FEW027CB 24/18 Q1016 A3002 857.4 HR68 CB/SH E/SE/S/SW CI=
ZPX0538 211802@CAELT@GG SLZZYMYT@CAELT@211800 SLCBYGYS@CAELT@SABO SLCB 211800@CAELT@METAR SLCB 211800Z 10007KT 040V160 9999 FEW030 SCT070 BKN200@CAELT@25/08 Q1023 A3022 750.1 HR33 NOSIG=@CAELT@METAR SLAL 211800Z 01014KT 9999 SCT020 FEW030CB 17/10 Q1029 A3040@CAELT@704.0 HR63 CB/SW AC CI=@CAELT@METAR SLPO 211800Z NIL=METAR SLAG 211800Z 20010KT 9999 FEW023 SCT070 BKN200 27/14 Q1019A3010 891.3 HR45=METAR SLVM 211800Z NIL=METAR SLTJ 211800Z 13008KT 9999 SCT033 BKN070 23/11 Q1022 A3018 816.7HR44=METAR SLYA 211800Z 21010KT 9999 NSC 27/17 Q1017 A3005 942.0 HR54=METAR SLBJ 211800Z NIL=METAR SLHI 211800Z NIL=
ZPX0539 211803@CAELT@GG SLZZYMYT@CAELT@211759 SLTRYGYS@CAELT@SABO SLTR 211800@CAELT@METAR SLTR 211800Z 12010KT 9000 -TSRA BKN005 FEW020CB OVC070 24/23@CAELT@Q1012 A2989 993.8 HR95 CB N/NE/NW TS NE NOSIG=@CAELT@METAR SLGM 211800Z 21006KT 9999 BKN017 FEW020CB BKN200 31/24 Q1009@CAELT@A2979 HR66 CB N/NE/E/NW=@CAELT@METAR SLRI 211800Z 00000KT 8000 VCSH SCT017 FEW020CB BKN200 29/25Q1009 A2982 HR79 CB/SH N/NE/SE/W=METAR SLJO 211800Z NIL=METAR SLRA 211800Z 14010KT 7000 -TSRA SCT015 FEW023CB OVC070 26/25Q1010 A2985 HR92 CB/TS ON STN/E/SE RWY PR C206=METAR SLMG 211800Z 16012KT 9999 SCT017 FEW023CB BKN200 28/25 Q1010A2984 HR81 CB NW RWY OPR C206=METAR SLBU 211800Z 18008KT 9999 SCT015 FEW023CB BKN080 29/24 Q1009A2980 HR76 CB SW RWY NML=METAR SLSA 211800Z 16016KT 1500 TSRA BKN005 BKN015 FEW020CB OVC07023/23 Q1009 A2982 HR98 CB/TS SE/S=METAR SLSR 211800Z 12010KT 6000 VCSH SCT017 FEW020CB BKN200 29/24Q1009 A2981 HR73 CB/SH N/NE/SE/S RWY NML=METAR SLSM 211800Z 13004KT 9999 SCT015 OVC070 25/24 Q1012 A2989 HR89RWY NML=
ZPX0541 211805@CAELT@GG SLZZYMYT@CAELT@211804 SLCOYGYZ@CAELT@SABO SLCO 211800 CCA@CAELT@METAR COR SLCO 211800Z 19006KT 9999 BKN020 FEW023CB 32/26 Q1007 A2976@CAELT@980.5 HR69 CB/N/SE AC/CI=@CAELT@
ZPX0542 211811@CAELT@GG SLZZYMYT@CAELT@211807 SLLPYFYA@CAELT@SABO SLLP 211800 CCA@CAELT@METAR SLLP 211800Z 10009KT 070V150 9999 VCTS SCT017 FEW020CB BKN200@CAELT@14/04 Q1036 A3060 626.9 HR52 P94// CB/SH NW TS/NW AC NOSIG=@CAELT@METAR COR SLCO 211800Z 19006KT 9999 BKN020 FEW023CB 32/26 Q1007@CAELT@A2976 980.5 HR69 CB/N/SE AC/CI=@CAELT@METAR SLRY 211800Z 00000KT 9999 BKN015 FEW023CB BKN200 34/26 Q1008A2979 HR61 CB/NE/E RWY NML=METAR SLRQ 211800Z 12009KT 9999 BKN020 FEW023CB 33/25 Q1008 A2979984.8 HR62 CB E/SE=METAR SLAP 211800Z 00000KT 9999 SCT025 FEW027CB 24/18 Q1016 A3002857.4 HR68 CB/SH E/SE/S/SW CI=METAR SLSB 211800Z 12015KT 8000 TS VCSH BKN017 FEW020CB OVC20026/23 Q1011 A2987 HR83 TS/CB/SH N NW RWY NML=
ZPX0560 211850@CAELT@GG SLZZYMYT@CAELT@211850 SLRBYGYS@CAELT@SABO SLRB 211900@CAELT@METAR SLRB 211900Z 00000KT 9999 NSC 33/22 Q1013 A2991 HR57 RWY NML=@CAELT@
ZPX0562 211854@CAELT@GG SLZZYMYT@CAELT@211853 SLPSYGYS@CAELT@SABO SLPS 211900@CAELT@METAR SLPS 211900Z 26010KT 9999 FEW020 BKN200 35/25 Q1008 A2977 HR56=@CAELT@
ZPX0563 211854@CAELT@GG SLZZYMYT@CAELT@211854 SLSBYSYX@CAELT@SABO SLSB 211900@CAELT@METAR SLSB 211900Z 10015KT 9999 BKN017 OVC200 26/23 Q1010 A2983 HR82@CAELT@RWY NML=@CAELT@
ZPX0564 211854@CAELT@GG SLZZYMYT@CAELT@211854 SLORYGYZ@CAELT@SABO SLOR 211900@CAELT@METAR SLOR 211900Z 08004KT 9999 SCT020 FEW023CB BKN200 13/05 Q1033@CAELT@A3051 654.6 HR60 CB/SH N/S/NW AC RERA=@CAELT@
ZPX0565 211855@CAELT@GG SLZZYMYT@CAELT@211855 SLCAYGYS@CAELT@SABO SLCA 211900@CAELT@METAR SLCA 211900Z 00000KT 9999 NSC 33/10 Q1016 A3000 HR26 CS RWY NML@CAELT@
ZPX0566 211856@CAELT@GG SLZZYMYT@CAELT@211856 SLVRYGYZ@CAELT@SABO SLVR 211900@CAELT@METAR SLVR 211900Z 15007KT 9999 FEW080 BKN200 33/19 Q1012 A2989 HR44@CAELT@NOSIG=@CAELT@
ZPX0567 211856@CAELT@GG SLZZYMYT@CAELT@211855 SLTJYGYZ@CAELT@SABO SLTJ 211900@CAELT@METAR SLTJ 211900Z 15010KT 9999 BKN033 BKN070 23/11 Q1021 A3016 816.1@CAELT@HR47=@CAELT@
ZPX0568 211856@CAELT@GG SLZZYMYT@CAELT@211855 SLSAYGYS@CAELT@SABO SLSA 211900@CAELT@METAR SLSA 211900Z 16006KT 8000 TS VCSH BKN017 FEW020CB BKN200@CAELT@25/24 Q1009 A2980 HR91 CB/SH NE/W/NW TS NW=@CAELT@
ZPX0569 211856@CAELT@GG SLZZYMYT@CAELT@211855 SLETYMYC@CAELT@SABO SLET 211900@CAELT@METAR SLET 211900Z 15012KT 9999 FEW070 SCT200 32/16 Q1011 A2987 HR37@CAELT@NOSIG=@CAELT@
ZPX0570 211857@CAELT@GG SLZZYMYT@CAELT@211856 SLCOYGYZ@CAELT@SABO SLCO 211900@CAELT@METAR SLCO 211900Z 30004KT 9999 BKN020 FEW023CB SCT200 33/26 Q1007@CAELT@A2974 979.7 HR66 CB/N/NE/W AC=@CAELT@
ZPX0571 211857@CAELT@GG SLZZYMYT@CAELT@211855 SLLPYGYZ@CAELT@SABO SLLP 211900@CAELT@METAR SLLP 211900Z 04014KT 9999 VCTS SCT017 FEW020CB BKN200 12/01@CAELT@Q1036 A3060 626.7 HR46 P94// CB/SH NW TS/NW AC NOSIG=@CAELT@
ZPX0572 211857@CAELT@GG SLZZYMYT@CAELT@211856 SLCBYGYZ@CAELT@SABO SLCB 211900@CAELT@METAR SLCB 211900Z 33007KT 9999 FEW030 FEW033CB SCT070 BKN200 25/09@CAELT@Q1022 A3019 749.2 HR35 CB NE/E/SE/SW/NW NOSIG=@CAELT@
ZPX0573 211858@CAELT@GG SLZZYMYT@CAELT@211858 SLVRYFYC@CAELT@SABO SLVR 211900@CAELT@METAR SLVR 211900Z 15007KT 9999 FEW080 BKN200 33/19 Q1012 A2989 HR44@CAELT@NOSIG=@CAELT@METAR SLET 211900Z 15012KT 9999 FEW070 SCT200 32/16 Q1011 A2987 HR37@CAELT@METAR SLAS 211900Z 19006KT 9999 SCT070 OVC200 29/20 Q1013 A2992 HR59@CAELT@RWY HUM OPR=METAR SLJV 211900Z 19010KT 9999 SCT070 BKN200 29/19 Q1011 A2985 HR56RWY NML=METAR SLCP 211900Z 22010KT 9999 NSC 29/18 Q1014 A2994 HR50 CI RWY NMLMETAR SLSI 211900Z 22010KT 9999 FEW017 BKN200 33/20 Q1010 A2983 HR45METAR SLTI 211900Z 00000KT 9999 BKN017 FEW030CB OVC200 30/22 Q1011A2985 HR62 CB/SH NE/E RWY NML=METAR SLJE 211900Z 18006KT 9999 FEW017 BKN200 34/22 Q1013 A2991 HR53METAR SLVG 211900Z 17005KT 9999 BKN027 21/11 Q1025 A3027 HR49 RWY NMLMETAR SLRB 211900Z 00000KT 9999 NSC 33/22 Q1013 A2991 HR57 RWY NML=METAR SLPS 211900Z 26010KT 9999 FEW020 BKN200 35/25 Q1008 A2977 HR56=METAR SLCA 211900Z 00000KT 9999 NSC 33/10 Q1016 A3000 HR26 CS RWY NML
ZPX0574 211858@CAELT@GG SLZZYMYT@CAELT@211858 SLTRYGYZ@CAELT@SABO SLTR 211900@CAELT@METAR SLTR 211900Z 15008KT 9999 SCT005 BKN015 FEW020CB BKN070 24/22@CAELT@Q1009 A2982 991.3 HR91 RETSRA CB N/NE TEMPO BKN005=@CAELT@
ZPX0575 211859@CAELT@GG SLZZYMYT@CAELT@211857 SLLPYFYA@CAELT@SABO SLRY 211900@CAELT@METAR SLRY 211900Z 09006KT 0600 +TSRA SCT012 BKN015 FEW023CB OVC080@CAELT@26/26 Q1008 A2977 HR98 TS CB/N/NE/SE RWY WET OPR C206.@CAELT@
ZPX0577 211859@CAELT@GG SLZZYMYT@CAELT@211858 SLTRYGYS@CAELT@SABO SLTR 211900@CAELT@METAR SLTR 211900Z 15008KT 9999 SCT005 BKN015 FEW020CB BKN070 24/22@CAELT@Q1009 A2982 991.3 HR91 RETSRA CB N/NE TEMPO BKN005=@CAELT@METAR SLGM 211900Z 26006KT 8000 VCSH BKN017 FEW020CB BKN200 33/25@CAELT@Q1007 A2976 HR63 CB N/NE/E/S/NW SH NE/E=@CAELT@METAR SLRI 211900Z 00000KT 8000 VCSH SCT017 FEW020CB BKN200 31/25Q1008 A2979 HR72 CB/SH N/NE/SE/W=METAR SLJO 211900Z NIL=METAR SLRA 211900Z 14012KT 5000 -TSRA BKN006 FEW023CB OVC070 23/23Q1010 A2984 HR100 CB/TS W/NW RWY OPR C206=METAR SLMG 211900Z 16010KT 8000 VCSH SCT017 FEW023CB BKN200 29/24Q1009 A2981 HR77 CB/SH N/NE/NW RWY OPR C206=METAR SLBU 211900Z 18008KT 9999 SCT015 BKN080 29/24 Q1008 A2978 HR75RWY NML=METAR SLSA 211900Z 16006KT 8000 TS VCSH BKN017 FEW020CB BKN200 25/24Q1009 A2980 HR91 CB/SH NE/W/NW TS NW=METAR SLSR 211900Z 12010KT 8000 VCSH SCT017 FEW020CB BKN200 26/24Q1008 A2978 HR87 CB/SH N/NE/W/NW RWY NML=METAR SLSM 211900Z 00000KT 9999 BKN017 OVC070 26/24 Q1010 A2984 HR85
ZPX0581 211901@CAELT@GG SLZZYMYT@CAELT@211900 SLCBYGYS@CAELT@SABO SLCB 211900@CAELT@METAR SLCB 211900Z 33007KT 9999 FEW030 FEW033CB SCT070 BKN200 25/09@CAELT@Q1022 A3019 749.2 HR35 CB NE/E/SE/SW/NW NOSIG=@CAELT@METAR SLAL 211900Z 02014KT 9999 SCT020 FEW030CB 18/10 Q1029 A3038@CAELT@703.5 HR61 CB/SW AC CI=@CAELT@METAR SLPO 211900Z NIL=METAR SLAG 211900Z NIL=METAR SLVM 211900Z NIL=METAR SLTJ 211900Z 15010KT 9999 BKN033 BKN070 23/11 Q1021 A3016 816.1HR47=METAR SLYA 211900Z NIL=METAR SLBJ 211900Z NIL=METAR SLHI 211900Z NIL=
ZPX0582 211903@CAELT@GG SLZZYMYT@CAELT@211900 SLLPYFYA@CAELT@SABO SLLP 211900@CAELT@METAR SLLP 211900Z 04014KT 9999 VCTS SCT017 FEW020CB BKN200 12/01@CAELT@Q1036 A3060 626.7 HR46 P94// CB/SH NW TS/NW AC NOSIG=@CAELT@METAR SLCO 211900Z 30004KT 9999 BKN020 FEW023CB SCT200 33/26 Q1007@CAELT@A2974 979.7 HR66 CB/N/NE/W AC=@CAELT@METAR SLRY 211900Z 09006KT 0600 +TSRA SCT012 BKN015 FEW023CB OVC08026/26 Q1008 A2977 HR98 TS CB/N/NE/SE RWY WET OPR C206.METAR SLRQ 211900Z 12013KT 9999 BKN020 FEW023CB 31/25 Q1007 A2976983.8 HR72 CB NE/E/W=METAR SLSB 211900Z 10015KT 9999 BKN017 OVC200 26/23 Q1010 A2983HR82 RWY NML=METAR SLOR 211900Z 08004KT 9999 SCT020 FEW023CB BKN200 13/05 Q1033A3051 654.6 HR60 CB/SH N/S/NW AC RERA=
ZPX0605 211952@CAELT@GG SLZZYMYT@CAELT@211951 SLPSYGYS@CAELT@SABO SLPS 212000@CAELT@METAR SLPS 212000Z 18010KT 9999 FEW020 BKN200 35/26 Q1007 A2974 HR60=@CAELT@
ZPX0607 211955@CAELT@GG SLZZYMYT@CAELT@211955 SLCAYGYS@CAELT@SABO SLCA 212000@CAELT@METAR SLCA 212000Z 00000KT 9999 SCT033 BKN200 31/11 Q1015 A2997 HR30@CAELT@RWY NML=@CAELT@
ZPX0608 211955@CAELT@GG SLZZYMYT@CAELT@211955 SLTJYGYZ@CAELT@SABO SLTJ 212000@CAELT@METAR SLTJ 212000Z 14009KT 9999 SCT033 BKN070 22/11 Q1020 A3015 815.7@CAELT@HR50=@CAELT@
ZPX0609 211955@CAELT@GG SLZZYMYT@CAELT@211955 SLCOYGYZ@CAELT@SABO SLCO 212000@CAELT@METAR SLCO 212000Z 22006KT 6000 TS VCSH FEW020 FEW023CB SCT080 BKN200@CAELT@30/24 Q1006 A2971 978.8 HR72 TS/SE CB/SH/N/E/SE/S/NW=@CAELT@
ZPX0610 211956@CAELT@GG SLZZYMYT@CAELT@211954 SLSAYGYS@CAELT@SABO SLSA 212000@CAELT@METAR SLSA 212000Z 16005KT 9999 FEW006 BKN015 FEW020CB BKN200@CAELT@25/24 Q1008 A2977 HR94 RETS CB/SH N/NW=@CAELT@
ZPX0612 211956@CAELT@GG SLZZYMYT@CAELT@211955 SLETYMYC@CAELT@SABO SLET 212000@CAELT@METAR SLET 212000Z 14010KT 9999 FEW070 SCT200 33/15 Q1010 A2983 HR36@CAELT@NOSIG=@CAELT@
ZPX0613 211956@CAELT@GG SLZZYMYT@CAELT@211955 SLSBYSYX@CAELT@SABO SLSB 212000@CAELT@METAR SLSB 212000Z 11012KT 9999 BKN015 FEW020CB OVC200 25/22 Q1009@CAELT@A2981 HR84 CB/SH N RWY NML=@CAELT@
ZPX0614 211956@CAELT@GG SLZZYMYT@CAELT@211956 SLVRYGYZ@CAELT@SABO SLVR 212000@CAELT@METAR SLVR 212000Z 19009KT 9999 FEW080 BKN200 33/18 Q1010 A2985 HR40@CAELT@NOSIG=@CAELT@
ZPX0617 211957@CAELT@GG SLZZYMYT@CAELT@211955 SLORYGYZ@CAELT@SABO SLOR 212000@CAELT@METAR SLOR 212000Z 08012KT 9999 SCT020 FEW025CB BKN200 16/08 Q1032@CAELT@A3050 654.4 HR62 CB/SH SE/S/NW AC=@CAELT@
ZPX0618 211957@CAELT@GG SLZZYMYT@CAELT@211956 SLRBYGYS@CAELT@SABO SLRB 212000@CAELT@METAR SLRB 212000Z 00000KT 9999 NSC 33/22 Q1013 A2991 HR57 RWY NML=@CAELT@
ZPX0619 211957@CAELT@GG SLZZYMYT@CAELT@211955 SLLPYGYZ@CAELT@SABO SLLP 212000@CAELT@METAR SLLP 212000Z 06009G19KT 9999 SCT017 FEW020CB BKN200 12/02@CAELT@Q1034 A3054 625.4 HR50 P93// CB/SH SW AC NOSIG=@CAELT@
ZPX0621 211957@CAELT@GG SLZZYMYT@CAELT@211957 SLTRYGYZ@CAELT@SABO SLTR 212000@CAELT@METAR SLTR 212000Z 14007KT 8000 VCSH SCT005 FEW020CB BKN070 24/22@CAELT@Q1009 A2981 991.1 HR88 CB/SH N/NE/NW NOSIG=@CAELT@
ZPX0623 211959@CAELT@GG SLZZYMYT@CAELT@211958 SLCBYGYZ@CAELT@SABO SLCB 212000@CAELT@METAR SLCB 212000Z 21008KT 9999 FEW030 FEW033CB SCT070 BKN200 21/11@CAELT@Q1021 A3017 748.7 HR52 CB SW/W/NW NOSIG=@CAELT@
ZPX0624 211959@CAELT@GG SLZZYMYT@CAELT@211959 SLTRYGYS@CAELT@SABO SLTR 212000@CAELT@METAR SLTR 212000Z 14007KT 8000 VCSH SCT005 FEW020CB BKN070 24/22@CAELT@Q1009 A2981 991.1 HR88 CB/SH N/NE/NW NOSIG=@CAELT@METAR SLGM 212000Z 36018KT 6000 VCSH BKN017 FEW020CB BKN200 32/24@CAELT@Q1007 A2974 HR63 CB/SH N/NE/E/SE/S/NW=@CAELT@METAR SLRI 212000Z 00000KT 8000 VCSH SCT017 FEW020CB BKN200 32/25Q1008 A2977 HR67 CB/SH N/NE/E=METAR SLJO 212000Z NIL=METAR SLRA 212000Z 00000KT 8000 -TSRA SCT008 FEW023CB BKN080 24/24Q1009 A2982 HR100 CB/TS N/W RWY OPR C206=METAR SLMG 212000Z 16006KT 9999 FEW015 FEW023CB BKN200 28/24 Q1008A2979 HR78 CB NE/W/NW RWY OPR C206=METAR SLBU 212000Z 18008KT 9999 SCT015 BKN080 29/23 Q1007 A2976 HR70RWY NML=METAR SLSA 212000Z 16005KT 9999 FEW006 BKN015 FEW020CB BKN200 25/24Q1008 A2977 HR94 RETS CB/SH N/NW=METAR SLSR 212000Z 12010KT 8000 VCSH SCT015 FEW023CB OVC200 26/23Q1007 A2976 HR88 CB/SH N/SE/SW RWY NML=METAR SLSM 212000Z 00000KT 9999 SCT017 OVC070 27/24 Q1009 A2981 HR83
ZPX0626 212000@CAELT@GG SLZZYMYT@CAELT@211959 SLCBYGYS@CAELT@SABO SLCB 212000@CAELT@METAR SLCB 212000Z 21008KT 9999 FEW030 FEW033CB SCT070 BKN200 21/11@CAELT@Q1021 A3017 748.7 HR52 CB SW/W/NW NOSIG=@CAELT@METAR SLAL 212000Z 35015KT 9999 SCT020 17/10 Q1028 A3036 703.0 HR62@CAELT@METAR SLPO 212000Z NIL=@CAELT@METAR SLAG 212000Z NIL=METAR SLVM 212000Z NIL=METAR SLTJ 212000Z 14009KT 9999 SCT033 BKN070 22/11 Q1020 A3015 815.7HR50=METAR SLYA 212000Z NIL=METAR SLBJ 212000Z NIL=METAR SLHI 212000Z NIL=
ZPX0627 212000@CAELT@GG SLZZYMYT@CAELT@212000 SLVRYFYC@CAELT@SABO SLVR 212000@CAELT@METAR SLVR 212000Z 19009KT 9999 FEW080 BKN200 33/18 Q1010 A2985 HR40@CAELT@NOSIG=@CAELT@METAR SLET 212000Z 14010KT 9999 FEW070 SCT200 33/15 Q1010 A2983 HR36@CAELT@METAR SLAS 212000Z 19012KT 9999 NSC 28/20 Q1011 A2986 HR71 RWY HUM@CAELT@OPR=METAR SLJV 212000Z 18010KT 9999 NSC 29/18 Q1010 A2983 HR53 CI RWY NMLMETAR SLCP 212000Z 22010KT 9999 NSC 30/19 Q1013 A2991 HR52 CI RWY NMLMETAR SLSI 212000Z 22010KT 9999 FEW017 BKN200 34/21 Q1009 A2980 HR42RWY NML=METAR SLTI 212000Z 00000KT 7000 TS VCSH BKN015 FEW030CB OVC200 28/24Q1012 A2988 HR77 CB/TS/SH S/SW RWY NML=METAR SLJE 212000Z 18008KT 9999 FEW017 BKN200 33/22 Q1012 A2988 HR54METAR SLVG 212000Z 17007KT 9999 SCT027 BKN200 22/11 Q1023 A3021 HR47METAR SLRB 212000Z 00000KT 9999 NSC 33/22 Q1013 A2991 HR57 RWY NML=METAR SLPS 212000Z 18010KT 9999 FEW020 BKN200 35/26 Q1007 A2974 HR60=METAR SLCA 212000Z 00000KT 9999 SCT033 BKN200 31/11 Q1015 A2997 HR30
ZPX0628 212000@CAELT@GG SLZZYMYT@CAELT@211958 SLLPYFYA@CAELT@SABO SLRY 212000@CAELT@METAR SLRY 212000Z 00000KT 9999 BKN015 FEW023CB OVC080 25/24 Q1007@CAELT@A2976 HR98 TS/CB/NW/W TS CB/N/NE/SE RWY WET OPR C206=@CAELT@
ZPX0631 212002@CAELT@GG SLZZYMYT@CAELT@212001 SLLPYFYA@CAELT@SABO SLLP 212000@CAELT@METAR SLLP 212000Z 06009G19KT 9999 SCT017 FEW020CB BKN200 12/02@CAELT@Q1034 A3054 625.4 HR50 P93// CB/SH SW AC NOSIG=@CAELT@METAR SLCO 212000Z 22006KT 6000 TS VCSH FEW020 FEW023CB SCT080 BKN200@CAELT@30/24 Q1006 A2971 978.8 HR72 TS/SE CB/SH/N/E/SE/S/NW=@CAELT@METAR SLRY 212000Z 00000KT 9999 BKN015 FEW023CB OVC080 25/24 Q1007A2976 HR98 TS/CB/NW/W TS CB/N/NE/SE RWY WET OPR C206=METAR SLRQ 212000Z 12015KT 5000 TS VCSH BKN015 FEW020CB BKN200 26/25Q1008 A2977 984.2 HR95 TS CB N/W/NW RESH=METAR SLSB 212000Z 11012KT 9999 BKN015 FEW020CB OVC200 25/22 Q1009A2981 HR84 CB/SH N RWY NML=METAR SLOR 212000Z 08012KT 9999 SCT020 FEW025CB BKN200 16/08 Q1032A3050 654.4 HR62 CB/SH SE/S/NW AC=
ZPX0660 212053@CAELT@GG SLZZYMYT@CAELT@212053 SLRBYGYS@CAELT@SABO SLRB 212100@CAELT@METAR SLRB 212100Z 00000KT 9999 NSC 33/22 Q1013 A2991 HR57 RWY NML=@CAELT@
ZPX0661 212054@CAELT@GG SLZZYMYT@CAELT@212054 SLSBYSYX@CAELT@SABO SLSB 212100@CAELT@METAR SLSB 212100Z 14006KT 9999 OVC015 26/23 Q1008 A2979 HR85 RWY NML=@CAELT@
ZPX0663 212054@CAELT@GG SLZZYMYT@CAELT@212052 SLPSYGYS@CAELT@SABO SLPS 212100@CAELT@METAR SLPS 212100Z 18008KT 9999 SCT020 FEW030CB BKN200 34/26 Q1008@CAELT@A2977 HR64 CB/NE=@CAELT@
ZPX0666 212054@CAELT@GG SLZZYMYT@CAELT@212054 SLCAYGYS@CAELT@SABO SLCA 212100@CAELT@METAR SLCA 212100Z 00000KT 9999 BKN080 31/12 Q1015 A2997 HR33 RWY NML@CAELT@
ZPX0667 212056@CAELT@GG SLZZYMYT@CAELT@212056 SLVRYGYZ@CAELT@SABO SLVR 212100@CAELT@METAR SLVR 212100Z 14006KT 9999 FEW080 BKN200 33/17 Q1010 A2982 HR38@CAELT@NOSIG=@CAELT@
ZPX0669 212056@CAELT@GG SLZZYMYT@CAELT@212055 SLETYMYC@CAELT@SABO SLET 212100@CAELT@METAR SLET 212100Z 13005KT 9999 NSC 33/16 Q1009 A2980 HR37 CI NOSIG=@CAELT@
ZPX0670 212056@CAELT@GG SLZZYMYT@CAELT@212055 SLSAYGYS@CAELT@SABO SLSA 212100@CAELT@METAR SLSA 212100Z 00000KT 9999 BKN020 FEW023CB BKN200@CAELT@25/24 Q1006 A2973 HR94 CB/SH N/NE=@CAELT@
ZPX0671 212056@CAELT@GG SLZZYMYT@CAELT@212055 SLTRYGYZ@CAELT@SABO SLTR 212100@CAELT@METAR SLTR 212100Z 13004KT 9999 FEW008 BKN070 BKN200 25/22 Q1009@CAELT@A2980 990.6 HR84 NOSIG=@CAELT@
ZPX0672 212056@CAELT@GG SLZZYMYT@CAELT@212055 SLTRYGYZ@CAELT@SABO SLTR 212100@CAELT@METAR SLTR 212100Z 13004KT 9999 FEW008 BKN070 BKN200 25/22 Q1009@CAELT@A2980 990.6 HR84 NOSIG=@CAELT@
ZPX0673 212057@CAELT@GG SLZZYMYT@CAELT@212057 SLVRYFYC@CAELT@SABO SLVR 212100@CAELT@METAR SLVR 212100Z 14006KT 9999 FEW080 BKN200 33/17 Q1010 A2982 HR38@CAELT@NOSIG=@CAELT@METAR SLET 212100Z 13005KT 9999 NSC 33/16 Q1009 A2980 HR37 CI NOSIG=@CAELT@METAR SLAS 212100Z 18010KT 9999 NSC 28/21 Q1010 A2983 HR64 RWY HUM@CAELT@OPR=METAR SLJV 212100Z 18010KT 9999 NSC 29/20 Q1009 A2980 HR59 RWY NML=METAR SLCP 212100Z 18008KT 9999 NSC 30/19 Q1012 A2988 HR54 RWY NML=METAR SLSI 212100Z 22012KT 9999 NSC 32/22 Q1008 A2977 HR52 RWY NML=METAR SLTI 212100Z 00000KT 7000 -TSRA BKN015 FEW030CB 26/24 Q1014A2994 HR92 CB/TS S/SW/W RWY WET OPR=METAR SLJE 212100Z 18008KT 9999 NSC 32/23 Q1011 A2985 HR60 RWY NML=METAR SLVG 212100Z 18006KT 9999 SCT027 BKN070 20/11 Q1023 A3021 HR51RWY NML=METAR SLRB 212100Z 00000KT 9999 NSC 33/22 Q1013 A2991 HR57 RWY NML=METAR SLPS 212100Z 18008KT 9999 SCT020 FEW030CB BKN200 34/26 Q1008A2977 HR64 CB NE=METAR SLCA 212100Z 00000KT 9999 BKN080 31/12 Q1015 A2997 HR33 RWY NML
ZPX0675 212057@CAELT@GG SLZZYMYT@CAELT@212056 SLCOYGYZ@CAELT@SABO SLCO 212100@CAELT@METAR SLCO 212100Z 04006KT 6000 TS VCSH FEW017 SCT023CB OVC080 27/24@CAELT@Q1007 A2974 979.9 HR82 CB/TS/SH/N/NE/E/SE/W/NW=@CAELT@
ZPX0677 212058@CAELT@GG SLZZYMYT@CAELT@212057 SLLPYFYA@CAELT@SABO SLRY 212100@CAELT@METAR SLRY 212100Z 14006KT 9999 FEW015 OVC080 25/23 Q1007 A2976@CAELT@HR91 RETS RA RWY WET OPR C206=@CAELT@
ZPX0678 212058@CAELT@GG SLZZYMYT@CAELT@212057 SLORYGYZ@CAELT@SABO SLOR 212100@CAELT@METAR SLOR 212100Z 05015KT 9999 SCT020 FEW025CB BKN200 15/09 Q1032@CAELT@A3048 654.0 HR64 CB/SH SW/W AC=@CAELT@
ZPX0679 212058@CAELT@GG SLZZYMYT@CAELT@212058 SLTJYGYZ@CAELT@SABO SLTJ 212100@CAELT@METAR SLTJ 212100Z 15008KT 9999 SCT033 OVC070 21/11 Q1020 A3014 815.7@CAELT@HR53=@CAELT@
ZPX0681 212100@CAELT@GG SLZZYMYT@CAELT@212055 SLLPYGYZ@CAELT@SABO SLLP 212100@CAELT@METAR SLLP 212100Z 03005KT 9999 SCT017 FEW020CB BKN200 14/01@CAELT@Q1034 A3055 625.8 HR41 P93// CB/SH SW AC NOSIG=@CAELT@
ZPX0682 212101@CAELT@GG SLZZYMYT@CAELT@212059 SLCBYGYZ@CAELT@SABO SLCB 212100@CAELT@METAR SLCB 212100Z 16007KT 9999 FEW030 FEW033CB SCT070 BKN200 25/09@CAELT@Q1020 A3014 748.0 HR35 CB/NW NOSIG=@CAELT@
ZPX0684 212101@CAELT@GG SLZZYMYT@CAELT@212100 SLLPYFYA@CAELT@SABO SLLP 212100@CAELT@METAR SLLP 212100Z 03005KT 9999 SCT017 FEW020CB BKN200 14/01@CAELT@Q1034 A3055 625.8 HR41 P93// CB/SH SW AC NOSIG=@CAELT@METAR SLCO 212100Z 04006KT 6000 TS VCSH FEW017 SCT023CB OVC080@CAELT@27/24 Q1007 A2974 979.9 HR82 CB/TS/SH/N/NE/E/SE/W/NW=@CAELT@METAR SLRY 212100Z 14006KT 9999 FEW015 OVC080 25/23 Q1007 A2976HR91 RETS RA RWY WET OPR C206=METAR SLRQ 212100Z 12010KT 9999 BKN017 BKN200 26/25 Q1007 A2976983.7 HR95 RETS=METAR SLSB 212100Z 14006KT 9999 OVC015 26/23 Q1008 A2979 HR85RWY NML=METAR SLOR 212100Z 05015KT 9999 SCT020 FEW025CB BKN200 15/09Q1032 A3048 654.0 HR64 CB/SH SW/W AC=
ZPX0685 212102@CAELT@GG SLZZYMYT@CAELT@212101 SLCBYGYS@CAELT@SABO SLCB 212100@CAELT@METAR SLCB 212100Z 16007KT 9999 FEW030 FEW033CB SCT070 BKN200 25/09@CAELT@Q1020 A3014 748.0 HR35 CB/NW NOSIG=@CAELT@METAR SLAL 212100Z 02011KT 9999 SCT017 16/10 Q1028 A3035 702.8 HR66=@CAELT@METAR SLPO 212100Z NIL=@CAELT@METAR SLAG 212100Z NIL=METAR SLVM 212100Z NIL=METAR SLTJ 212100Z 15008KT 9999 SCT033 OVC070 21/11 Q1020 A3014 815.7HR53=METAR SLYA 212100Z NIL=METAR SLBJ 212100Z NIL=METAR SLHI 212100Z NIL=
ZPX0687 212102@CAELT@GG SLZZYMYT@CAELT@212100 SLTRYGYS@CAELT@SABO SLTR 212100@CAELT@METAR SLTR 212100Z 13004KT 9999 FEW008 BKN070 BKN200 25/22 Q1009@CAELT@A2980 990.6 HR84 NOSIG=@CAELT@METAR SLGM 212100Z 36006KT 6000 -TSRA BKN015 FEW020CB BKN070 26/25@CAELT@Q1007 A2976 HR92 CB N/NE/E/SE/S TS NE/SE=@CAELT@METAR SLRI 212100Z 00000KT 7000 VCSH SCT017 FEW020CB BKN200 32/23Q1007 A2976 HR59 CB/SH N/NE/S=METAR SLJO 212100Z NIL=METAR SLRA 212100Z 00000KT 8000 VCSH FEW008 FEW023CB BKN080 25/25Q1009 A2980 HR98 RETSRA CB/SH N RWY OPR C206=METAR SLMG 212100Z 16004KT 9999 FEW015 FEW023CB BKN200 28/24 Q1007A2976 HR81 CB N/NW RWY OPR C206=METAR SLBU 212100Z NIL=METAR SLSA 212100Z 00000KT 9999 BKN020 FEW023CB BKN200 25/24 Q1006A2973 HR94 CB/SH N/NE=METAR SLSR 212100Z 12008KT 8000 VCSH SCT015 FEW023CB OVC200 25/23Q1007 A2975 HR87 CB/SH N/SE/SW RWY NML=METAR SLSM 212100Z 15006KT 9999 BKN017 OVC070 25/23 Q1008 A2978 HR87RWY NML=
ZPX0710 212154@CAELT@GG SLZZYMYT@CAELT@212154 SLRBYGYS@CAELT@SABO SLRB 212200@CAELT@METAR SLRB 212200Z 00000KT 9999 NSC 30/23 Q1013 A2991 HR66 RWY NML=@CAELT@
ZPX0711 212154@CAELT@GG SLZZYMYT@CAELT@212153 SLPSYGYS@CAELT@SABO SLPS 212200@CAELT@METAR SLPS 212200Z 18010KT 9999 FEW020 FEW030CB BKN200 33/26 Q1008@CAELT@A2977 HR70 CB/E=@CAELT@
ZPX0712 212154@CAELT@GG SLZZYMYT@CAELT@212154 SLORYGYZ@CAELT@SABO SLOR 212200@CAELT@METAR SLOR 212200Z 06009KT 9999 FEW020 FEW025CB 14/08 Q1032 A3048 654@CAELT@.0 HR65 CB/DIST/S AC/CI=@CAELT@
ZPX0713 212155@CAELT@GG SLZZYMYT@CAELT@212154 SLSBYSYX@CAELT@SABO SLSB 212200@CAELT@METAR SLSB 212200Z 10005KT 9999 BKN015 BKN200 25/23 Q1008 A2978 HR85@CAELT@RWY NML=@CAELT@
ZPX0714 212155@CAELT@GG SLZZYMYT@CAELT@212155 SLVRYGYZ@CAELT@SABO SLVR 212200@CAELT@METAR SLVR 212200Z 14006KT 9999 NSC 30/17 Q1010 A2982 HR43 CI NOSIG=@CAELT@
ZPX0715 212155@CAELT@GG SLZZYMYT@CAELT@212155 SLTRYGYZ@CAELT@SABO SLTR 212200@CAELT@METAR SLTR 212200Z 12004KT 9999 FEW008 BKN070 BKN200 25/22 Q1008@CAELT@A2978 990.0 HR87 NOSIG=@CAELT@
ZPX0716 212156@CAELT@GG SLZZYMYT@CAELT@212155 SLCBYGYZ@CAELT@SABO SLCB 212200@CAELT@METAR SLCB 212200Z 35004KT 9999 FEW030 BKN200 25/07 Q1020 A3014 748.0@CAELT@HR30 AC NOSIG=@CAELT@
ZPX0717 212156@CAELT@GG SLZZYMYT@CAELT@212155 SLCOYGYZ@CAELT@SABO SLCO 212200@CAELT@METAR SLCO 212200Z 35010KT 8000 TS VCSH FEW004 SCT023CB OVC080 25/25@CAELT@Q1007 A2976 980.4 HR98 CB/TS/SH/N/NE/E/W/NW RERA=@CAELT@
ZPX0718 212156@CAELT@GG SLZZYMYT@CAELT@212156 SLCAYGYS@CAELT@SABO SLCA 212200@CAELT@METAR SLCA 212200Z 00000KT 9999 SCT080 30/15 Q1015 A2997 HR40 RWY NML@CAELT@
ZPX0719 212156@CAELT@GG SLZZYMYT@CAELT@212155 SLSAYGYS@CAELT@SABO SLSA 212200@CAELT@METAR SLSA 212200Z 00000KT 9999 BKN020 FEW023CB BKN200@CAELT@26/25 Q1006 A2973 HR94 CB N/NE=@CAELT@
ZPX0720 212156@CAELT@GG SLZZYMYT@CAELT@212156 SLETYMYC@CAELT@SABO SLET 212200@CAELT@METAR SLET 212200Z 11005KT 9999 NSC 31/16 Q1009 A2980 HR40 CI NOSIG=@CAELT@
ZPX0721 212157@CAELT@GG SLZZYMYT@CAELT@212157 SLTRYGYS@CAELT@SABO SLTR 212200@CAELT@METAR SLTR 212200Z 12004KT 9999 FEW008 BKN070 BKN200 25/22 Q1008@CAELT@A2978 990.0 HR87 NOSIG=@CAELT@METAR SLGM 212200Z 06010KT 5000 -TSRA BKN012 FEW020CB OVC070 26/25@CAELT@Q1008 A2977 HR97 CB N/NE/E/SE/S TS N/NE/SE/S=@CAELT@METAR SLRI 212200Z 36012KT 7000 VCSH SCT015 FEW020CB BKN200 29/24Q1008 A2978 HR76 CB/SH N/NE/E/SE=METAR SLJO 212200Z NIL=METAR SLRA 212200Z 00000KT 9999 FEW008 BKN080 OVC200 25/25 Q1008A2977 HR97 RWY OPR C206=METAR SLMG 212200Z 00000KT 9999 SCT015 FEW023CB BKN200 27/24 Q1007A2976 HR84 CB N RWY HUM OPR=METAR SLBU 212200Z NIL=METAR SLSA 212200Z 00000KT 9999 BKN020 FEW023CB BKN200 26/25 Q1006A2973 HR94 CB N/NE=METAR SLSR 212200Z 12008KT 9999 SCT015 FEW023CB OVC200 25/24 Q1007A2974 HR94 CB N/NW RWY NML=METAR SLSM 212200Z 15006KT 9999 SCT017 BKN070 24/22 Q1008 A2979 HR90RWY NML=
ZPX0722 212158@CAELT@GG SLZZYMYT@CAELT@212158 SLTJYGYZ@CAELT@SABO SLTJ 212200@CAELT@METAR SLTJ 212200Z 13006KT 9999 SCT033 OVC070 20/11 Q1021 A3016 816.1@CAELT@HR55=@CAELT@
ZPX0723 212158@CAELT@GG SLZZYMYT@CAELT@212159 SLVRYFYC@CAELT@SABO SLVR 212200@CAELT@METAR SLVR 212200Z 14006KT 9999 NSC 30/17 Q1010 A2982 HR43 CI NOSIG=@CAELT@METAR SLET 212200Z 11005KT 9999 NSC 31/16 Q1009 A2980 HR40 CI NOSIG=@CAELT@METAR SLAS 212200Z 00000KT 9999 NSC 28/22 Q1009 A2980 HR72 RWY HUM@CAELT@OPR=@CAELT@METAR SLJV 212200Z 19007KT 9999 NSC 28/20 Q1008 A2977 HR64 RWY NML=METAR SLCP 212200Z 18005KT 9999 NSC 29/19 Q1012 A2988 HR56 RWY NML=METAR SLSI 212200Z 22015KT 9999 NSC 30/22 Q1009 A2980 HR58 RWY NML=METAR SLTI 212200Z 00000KT 7000 -TSRA BKN015 FEW030CB 26/25 Q1014A2994 HR96 CB/TS SW/W RWY WET OPR=METAR SLJE 212200Z 18006KT 9999 NSC 30/22 Q1012 A2988 HR63 RWY NML=METAR SLRB 212200Z 00000KT 9999 NSC 30/23 Q1013 A2991 HR66 RWY NML=METAR SLPS 212200Z 18010KT 9999 FEW020 FEW030CB BKN200 33/26 Q1008A2977 HR70 CB E=METAR SLCA 212200Z 00000KT 9999 SCT080 30/15 Q1015 A2997 HR40 RWY NML
ZPX0724 212159@CAELT@GG SLZZYMYT@CAELT@212158 SLLPYGYZ@CAELT@SABO SLLP 212200@CAELT@METAR SLLP 212200Z 16007KT 9999 FEW017 FEW020CB BKN200 14/01 Q1034@CAELT@A3056@CAELT@625.9 HR40 P93// CB SH SW AC NOSIG=@CAELT@
ZPX0727 212200@CAELT@GG SLZZYMYT@CAELT@212159 SLLPYFYA@CAELT@SABO SLRY 212200@CAELT@METAR SLRY 212200Z 14006KT 9999 BKN015 OVC080 25/23 Q1007@CAELT@A2976 HR90 RWY WET OPR C206=@CAELT@
ZPX0728 212202@CAELT@GG SLZZYMYT@CAELT@212200 SLCBYGYS@CAELT@SABO SLCB 212200@CAELT@METAR SLCB 212200Z 35004KT 9999 FEW030 BKN200 25/07 Q1020 A3014 748.0@CAELT@HR30 AC NOSIG=@CAELT@METAR SLAL 212200Z NIL=@CAELT@METAR SLTJ 212200Z 13006KT 9999 SCT033 OVC070 20/11 Q1021 A3016 816.1@CAELT@HR55=
ZPX0729 212202@CAELT@GG SLZZYMYT@CAELT@212201 SLLPYFYA@CAELT@SABO SLLP 212200@CAELT@METAR SLLP 212200Z 16007KT 9999 FEW017 FEW020CB BKN200 14/01 Q1034@CAELT@A3056 625.9 HR40 P93// CB SH SW AC NOSIG=@CAELT@METAR SLCO 212200Z 35010KT 8000 TS VCSH FEW004 SCT023CB OVC080 25/25@CAELT@Q1007 A2976 980.4 HR98 CB/TS/SH/N/NE/E/W/NW RERA=@CAELT@METAR SLRY 212200Z 14006KT 9999 BKN015 OVC080 25/23 Q1007A2976 HR90 RWY WET OPR C206=METAR SLRQ 212200Z 00000KT 9999 BKN017 BKN200 25/24 Q1008 A2976983.9 HR95=METAR SLSB 212200Z 10005KT 9999 BKN015 BKN200 25/23 Q1008 A2978HR85 RWY NML=METAR SLOR 212200Z 06009KT 9999 FEW020 FEW025CB 14/08 Q1032 A3048654.0 HR65 CB/DIST/S AC/CI=
ZPX0740 212250@CAELT@GG SLZZYMYT@CAELT@212250 SLRBYGYS@CAELT@SABO SLRB 212300@CAELT@METAR SLRB 212300Z 00000KT 9999 NSC 29/24 Q1013 A2991 HR74 RWY NML=@CAELT@
ZPX0741 212252@CAELT@GG SLZZYMYT@CAELT@212252 SLSAYGYS@CAELT@SABO SLSA 212300@CAELT@METAR SLSA 212300Z 16006KT 9999 BKN020 BKN200 25/24 Q1007 A2976 HR91=@CAELT@
ZPX0743 212253@CAELT@GG SLZZYMYT@CAELT@212253 SLSBYSYX@CAELT@SABO SLSB 212300@CAELT@METAR SLSB 212300Z 09003KT 9999 BKN015 BKN200 25/22 Q1009 A2980 HR84@CAELT@RWY NML=@CAELT@
ZPX0745 212255@CAELT@GG SLZZYMYT@CAELT@212254 SLETYMYC@CAELT@SABO SLET 212300@CAELT@METAR SLET 212300Z 12005KT 9999 NSC 29/15 Q1009 A2982 HR43 CI NOSIG=@CAELT@
ZPX0746 212255@CAELT@GG SLZZYMYT@CAELT@212255 SLTRYGYZ@CAELT@SABO SLTR 212300@CAELT@METAR SLTR 212300Z 00000KT 9999 SCT080 BKN200 24/22 Q1008 A2977@CAELT@989.8 HR90 NOSIG=@CAELT@
ZPX0747 212256@CAELT@GG SLLPZRZX@CAELT@212255 SLLPYGYZ@CAELT@SABO SLLP 212300@CAELT@METAR SLLP 212300Z 23006KT 9999 FEW017 FEW020CB BKN200 11/02 Q1035@CAELT@A3057 626.0 HR53 CB/LT SW AC NOSIG=@CAELT@
ZPX0748 212256@CAELT@GG SLZZYMYT@CAELT@212256 SLVRYGYZ@CAELT@SABO SLVR 212300@CAELT@METAR SLVR 212300Z 14004KT 9999 NSC 27/17 Q1010 A2984 HR54 CI NOSIG=@CAELT@
ZPX0749 212257@CAELT@GG SLZZYMYT@CAELT@212256 SLCBYGYZ@CAELT@SABO SLCB 212300@CAELT@METAR SLCB 212300Z 12004KT 9999 FEW030 FEW033CB BKN200 23/06 Q1021@CAELT@A3016 748.5 HR32 CB NE/SW AC NOSIG=@CAELT@
ZPX0750 212257@CAELT@GG SLZZYMYT@CAELT@212257 SLCOYGYZ@CAELT@SABO SLCO 212300@CAELT@METAR SLCO 212300Z 06003KT 9999 -TSRA FEW010 FEW020CB OVC080 25/24@CAELT@Q1008 A2978 981.0 HR95 CB/TS/NE/W=@CAELT@
ZPX0751 212257@CAELT@GG SLZZYMYT@CAELT@212257 SLTJYGYZ@CAELT@SABO SLTJ 212300@CAELT@METAR SLTJ 212300Z 14006KT 9999 SCT033 BKN070 18/10 Q1021 A3018 816.5@CAELT@HR57=@CAELT@
ZPX0753 212258@CAELT@GG SLZZYMYT@CAELT@212257 SLTRYGYS@CAELT@SABO SLTR 212300@CAELT@METAR SLTR 212300Z 00000KT 9999 SCT080 BKN200 24/22 Q1008 A2977 989.8@CAELT@HR90 NOSIG=@CAELT@METAR SLRI 212300Z 00000KT 8000 VCSH SCT015 FEW020CB BKN200 27/23@CAELT@Q1009 A2981 HR78 CB/SH N/NE/E=@CAELT@METAR SLMG 212300Z 14004KT 9999 SCT015 FEW023CB OVC200 26/24 Q1007A2976 HR89 CB NW RWY HUM OPR=METAR SLSA 212300Z 16006KT 9999 BKN020 BKN200 25/24 Q1007 A2976 HR91=
ZPX0754 212258@CAELT@GG SLZZYMYT@CAELT@212258 SLLPYFYA@CAELT@SABO SLLP 212300@CAELT@METAR SLLP 212300Z 23006KT 9999 FEW017 FEW020CB BKN200 11/02 Q1035@CAELT@A3057 626.0 HR53 CB/LT SW AC NOSIG=@CAELT@METAR SLCO 212300Z 06003KT 9999 -TSRA FEW010 FEW020CB OVC080 25/24@CAELT@Q1008 A2978 981.0 HR95 CB/TS/NE/W=@CAELT@METAR SLSB 212300Z 09003KT 9999 BKN015 BKN200 25/22 Q1009 A2980HR84 RWY NML=
ZPX0755 212259@CAELT@GG SLZZYMYT@CAELT@212258 SLCBYGYS@CAELT@SABO SLCB 212300@CAELT@METAR SLCB 212300Z 12004KT 9999 FEW030 FEW033CB BKN200 23/06 Q1021@CAELT@A3016 748.5 HR32 CB NE/SW AC NOSIG=@CAELT@METAR SLAL 212300Z 01010KT 9999 FEW015 13/09 Q1028 A3037 703.2 HR74=@CAELT@METAR SLTJ 212300Z 14006KT 9999 SCT033 BKN070 18/10 Q1021 A3018@CAELT@816.5 HR57=
ZPX0756 212259@CAELT@GG SLZZYMYT@CAELT@212259 SLVRYFYC@CAELT@SABO SLVR 212300@CAELT@METAR SLVR 212300Z 14004KT 9999 NSC 27/17 Q1010 A2984 HR54 CI NOSIG=@CAELT@METAR SLET 212300Z 12005KT 9999 NSC 29/15 Q1009 A2982 HR43 CI NOSIG=@CAELT@METAR SLSI 212300Z 22006KT 9999 NSC 29/22 Q1010 A2983 HR62 RWY NML=@CAELT@METAR SLRB 212300Z 00000KT 9999 NSC 29/24 Q1013 A2991 HR74 RWY NML=@CAELT@METAR SLCA 212300Z 00000KT 9999 BKN080 27/12 Q1016 A3000 HR41 RWY NML
ZPX0775 212354@CAELT@GG SLZZYMYT@CAELT@212354 SLVRYGYZ@CAELT@SABO SLVR 220000@CAELT@METAR SLVR 220000Z 15004KT 9999 NSC 25/18 Q1011 A2986 HR66 CI NOSIG=@CAELT@
ZPX0776 212357@CAELT@GG SLZZYMYT@CAELT@212356 SLTJYGYZ@CAELT@SABO SLTJ 220000@CAELT@METAR SLTJ 220000Z 13004KT 9999 SCT033 BKN070 18/09 Q1022 A3020 817.1@CAELT@HR56=@CAELT@
ZPX0777 212357@CAELT@GG SLZZYMYT@CAELT@212356 SLCBYGYZ@CAELT@SABO SLCB 220000@CAELT@METAR SLCB 220000Z 13010G22KT 9999 FEW030 FEW033CB SCT080 BKN200 21/@CAELT@09 Q1022 A3019 749.4 HR46 CB DIST SW NOSIG=@CAELT@
