
ZPX0012 090054@CAELT@GG SLZZYMYT@CAELT@090055 SLVRYGYZ@CAELT@SABO SLVR 090100@CAELT@METAR SLVR 090100Z 32003KT 5000 FU NSC 25/19 Q1010 A2983 HR66 NOSIG=@CAELT@
ZPX0013 090056@CAELT@GG SLZZYMYT@CAELT@090055 SLCBYGYZ@CAELT@SABO SLCB 090100@CAELT@METAR SLCB 090100Z 25005KT 200V310 9999 FEW040 19/06 Q1024 A3024 750.@CAELT@7 HR41 FU NOSIG=@CAELT@
ZPX0014 090056@CAELT@GG SLLPZRZX@CAELT@090055 SLLPYGYZ@CAELT@SABO SLLP 090100@CAELT@METAR SLLP 090100Z VRB02KT 9999 SCT015 FEW017CB BKN200 10/00 Q1039@CAELT@A3071 629.2 HR50 CB/LT E AC FU NOSIG=@CAELT@
ZPX0021 090154@CAELT@GG SLZZYMYT@CAELT@090155 SLVRYGYZ@CAELT@SABO SLVR 090200@CAELT@METAR SLVR 090200Z 03004KT 5000 FU NSC 24/19 Q1009 A2982 HR71 CI@CAELT@NOSIG=@CAELT@
ZPX0022 090156@CAELT@GG SLLPZRZX@CAELT@090155 SLLPYGYZ@CAELT@SABO SLLP 090200@CAELT@METAR SLLP 090200Z 06008KT 9999 FEW015 FEW017CB SCT200 09/00 Q1040@CAELT@A3071 629.3 HR54 CB/LT E AC NOSIG=@CAELT@
ZPX0023 090157@CAELT@GG SLZZYMYT@CAELT@090157 SLCBYGYZ@CAELT@SABO SLCB 090200@CAELT@METAR SLCB 090200Z 18005KT 9999 FEW040 19/06 Q1025 A3028 751.7 HR42@CAELT@FU NOSIG=@CAELT@
ZPX0039 090255@CAELT@GG SLZZYMYT@CAELT@090256 SLVRYGYZ@CAELT@SABO SLVR 090300@CAELT@METAR SLVR 090300Z 33005KT 4000 FU NSC 24/19 Q1010 A2984 HR72 CI@CAELT@NOSIG=@CAELT@
ZPX0040 090256@CAELT@GG SLLPZRZX@CAELT@090255 SLLPYGYZ@CAELT@SABO SLLP 090300@CAELT@METAR SLLP 090300Z 04005KT 9999 FEW015 FEW017CB SCT200 08/00 Q1039@CAELT@A3071 629.2 HR57 CB/LT N AC NOSIG=@CAELT@
ZPX0041 090256@CAELT@GG SLZZYMYT@CAELT@090256 SLCBYGYZ@CAELT@SABO SLCB 090300@CAELT@METAR SLCB 090300Z 12005KT 9999 NSC 18/05 Q1025 A3029 752.0 HR43 FU@CAELT@NOSIG=@CAELT@
ZPX0048 090353@CAELT@GG SLZZYMYT@CAELT@090354 SLVRYGYZ@CAELT@SABO SLVR 090400@CAELT@METAR SLVR 090400Z 33004KT 4000 FU NSC 24/19 Q1010 A2984 HR74 CI@CAELT@NOSIG=@CAELT@
ZPX0049 090356@CAELT@GG SLLPZRZX@CAELT@090355 SLLPYGYZ@CAELT@SABO SLLP 090400@CAELT@METAR SLLP 090400Z 03008KT 360V070 9999 FEW015 SCT200 08/M00 Q1039@CAELT@A3069 628.8 HR54 AC NOSIG=@CAELT@
ZPX0050 090358@CAELT@GG SLZZYMYT@CAELT@090357 SLCBYGYZ@CAELT@SABO SLCB 090400@CAELT@METAR SLCB 090400Z 13005KT 9999 NSC 18/05 Q1025 A3028 751.6 HR44 FU@CAELT@NOSIG=@CAELT@
ZPX0058 090455@CAELT@GG SLZZYMYT@CAELT@090456 SLVRYGYZ@CAELT@SABO SLVR 090500@CAELT@METAR SLVR 090500Z 29003KT 4000 FU NSC 24/19 Q1010 A2982 HR74 CI@CAELT@NOSIG=@CAELT@
ZPX0059 090456@CAELT@GG SLZZYMYT@CAELT@090455 SLCBYGYZ@CAELT@SABO SLCB 090500@CAELT@METAR SLCB 090500Z 19005KT 9999 NSC 16/06 Q1024 A3026 751.1 HR52 FU@CAELT@CI NOSIG=@CAELT@
ZPX0060 090456@CAELT@GG SLLPZRZX@CAELT@090455 SLLPYGYZ@CAELT@SABO SLLP 090500@CAELT@METAR SLLP 090500Z 09007KT 9999 FEW015 05/M01 Q1038 A3066 628.2@CAELT@HR63 CI NOSIG=@CAELT@
ZPX0067 090555@CAELT@GG SLZZYMYT@CAELT@090556 SLVRYGYZ@CAELT@SABO SLVR 090600@CAELT@METAR SLVR 090600Z 05003KT 5000 FU NSC 24/19 Q1010 A2984 HR76 CI@CAELT@NOSIG=@CAELT@
ZPX0068 090556@CAELT@GG SLLPZRZX@CAELT@090555 SLLPYGYZ@CAELT@SABO SLLP 090600@CAELT@METAR SLLP 090600Z VRB02KT 9999 FEW013 04/M00 Q1038 A3066 628.1@CAELT@HR73 CI NOSIG=@CAELT@
ZPX0069 090557@CAELT@GG SLZZYMYT@CAELT@090556 SLCBYGYZ@CAELT@SABO SLCB 090600@CAELT@METAR SLCB 090600Z 12004KT 9999 NSC 16/05 Q1024 A3025 750.8 HR48 FU@CAELT@CI NOSIG=@CAELT@
ZPX0080 090655@CAELT@GG SLZZYMYT@CAELT@090655 SLCBYGYZ@CAELT@SABO SLCB 090700@CAELT@METAR SLCB 090700Z 10006KT 9999 NSC 16/05 Q1024 A3025 751.0 HR48 FU@CAELT@NOSIG=@CAELT@
ZPX0081 090655@CAELT@GG SLLPZRZX@CAELT@090655 SLLPYGYZ@CAELT@SABO SLLP 090700@CAELT@METAR SLLP 090700Z VRB02KT 9999 FEW010 02/M01 Q1037 A3064 627.7@CAELT@HR81 CI NOSIG=@CAELT@
ZPX0082 090656@CAELT@GG SLZZYMYT@CAELT@090657 SLVRYGYZ@CAELT@SABO SLVR 090700@CAELT@METAR SLVR 090700Z 35008KT 5000 FU FEW023 FEW027CB BKN200 24/20 Q1011@CAELT@A2986 HR75 CB SE/NW NOSIG=@CAELT@
ZPX0089 090753@CAELT@GG SLZZYMYT@CAELT@090755 SLVRYGYZ@CAELT@SABO SLVR 090800@CAELT@METAR SLVR 090800Z 36008KT 5000 FU SCT023 FEW027CB BKN200 24/20 Q1011@CAELT@A2988 HR78 CB SE/NW NOSIG=@CAELT@
ZPX0090 090754@CAELT@GG SLZZYMYT@CAELT@090755 SLVRYGYZ@CAELT@SABO SLVR 090800@CAELT@METAR SLVR 090800Z 36008KT 5000 FU SCT023 FEW027CB BKN200 24/20 Q1011@CAELT@A2988 HR78 CB SE/NW NOSIG=@CAELT@
ZPX0091 090755@CAELT@GG SLLPZRZX@CAELT@090755 SLLPYGYZ@CAELT@SABO SLLP 090800@CAELT@METAR SLLP 090800Z 07004KT 9999 FEW010 01/M01 Q1037 A3065 627.9 HR86@CAELT@CI NOSIG=@CAELT@
ZPX0092 090756@CAELT@GG SLZZYMYT@CAELT@090756 SLCBYGYZ@CAELT@SABO SLCB 090800@CAELT@METAR SLCB 090800Z 05003KT 9999 NSC 16/05 Q1024 A3027 751.3 HR49 FU@CAELT@NOSIG=@CAELT@
ZPX0103 090854@CAELT@GG SLZZYMYT@CAELT@090855 SLVRYGYZ@CAELT@METAR SLVR 090900Z 34010KT 6000 FEW023 FEW027CB BKN200 25/20 Q1012@CAELT@A2989 HR74 FU CB NW NOSIG=@CAELT@
ZPX0104 090855@CAELT@GG SLZZYMYT@CAELT@090853 SLPSZTZX@CAELT@SABO SLPS 090900@CAELT@METAR SLPS 090900Z 00000KT 8000 FEW020 SCT070 27/22 Q1010 A2983 FU=@CAELT@
ZPX0105 090856@CAELT@GG SLZZYMYT@CAELT@090855 SLCBYGYZ@CAELT@SABO SLCB 090900@CAELT@METAR SLCB 090900Z 00000KT 9999 NSC 13/07 Q1024 A3026 751.1 HR64 FU@CAELT@NOSIG=@CAELT@
ZPX0106 090856@CAELT@GG SLZZYMYT@CAELT@090856 SLVRYGYU@CAELT@SABO SLVR 090900@CAELT@METAR SLVR 090900Z 34010KT 6000 FEW023 FEW027CB BKN200 25/20 Q1012@CAELT@A2989 HR74 FU CB NW NOSIG=@CAELT@METAR SLPS 090900Z 00000KT 8000 FEW020 SCT070 27/22 Q1010 A2983 FU=@CAELT@
ZPX0107 090858@CAELT@GG SLLPZRZX@CAELT@090858 SLLPYGYZ@CAELT@SABO SLLP 090900@CAELT@METAR SLLP 090900Z 07006KT 4000E VCFG FEW002 SCT010 01/01 Q1038@CAELT@A3066 628.2 HR95 VCFG NE/E/SE AC CI NOSIG=@CAELT@
ZPX0110 090903@CAELT@GG SLZZYMYT@CAELT@090900 SLTRYGYS@CAELT@SABO SLTR 090900@CAELT@METAR SLTR 090900Z 00000KT 3000 FU FEW020 SCT200 24/22 Q1011 A2986@CAELT@9927 HR86 NOSI-@CAELT@METAR SLRI 090900Z 00000KT 5000 FU SCT020 BKN080 23/23 Q1011 A2986@CAELT@HR97=@CAELT@
ZPX0129 090952@CAELT@GG SLZZYMYT@CAELT@090934 SLETYMYC@CAELT@SABO SLET 091000@CAELT@METAR SLET 091000Z 31009KT 2500 FU FEW030CB BKN200 25/20 Q1012 A2989@CAELT@HR73 CB NW NOSIG=@CAELT@
ZPX0131 090954@CAELT@GG SLZZYMYT@CAELT@090953 SLPSYGYS@CAELT@SABO SLPS 091000@CAELT@METAR SLPS 091000Z 00000KT 8000 FEW020 SCT070 BKN200 27/23 Q1010@CAELT@A2983 HR79 FU=@CAELT@
ZPX0132 090954@CAELT@GG SLZZYMYT@CAELT@090955 SLVRYGYZ@CAELT@SABO SLVR 091000@CAELT@METAR SLVR 091000Z 32010KT 5000 FU SCT023 FEW027CB BKN200 25/20 Q1012@CAELT@A2989 HR74 CB NW AC NOSIG=@CAELT@
ZPX0133 090955@CAELT@GG SLZZYMYT@CAELT@090955 SLCOYGYZ@CAELT@SABO SLCO 091000@CAELT@METAR SLCO 091000Z 00000KT 3000 FU FEW080 SCT200 24/23 Q1010 A2988@CAELT@984.3 HR91=@CAELT@
ZPX0134 090955@CAELT@GG SLZZYMYT@CAELT@090955 SLCBYGYZ@CAELT@SABO SLCB 090900@CAELT@METAR SLCB 090900Z 00000KT 7000 NSC 13/07 Q1024 A3026 751.2 HR63 FU@CAELT@CI NOSIG=@CAELT@
ZPX0136 090955@CAELT@GG SLZZYMYT@CAELT@090952 SLUYYGYS@CAELT@SABO SLUY 091000@CAELT@METAR SLUY 091000Z 00000KT 9999 FEW070 M01/M13 Q1034 A3056@CAELT@658.9 HR43=@CAELT@
ZPX0137 090955@CAELT@GG SLZZYMYT@CAELT@090955 SLLPYGYZ@CAELT@SABO SLLP 091000@CAELT@METAR SLLP 091000Z VRB02KT 3000E VCFG FEW002 SCT010 03/03 Q1038@CAELT@A3067 628.4 HR97 P92// VCFG N/NE/E/SE AC CI NOSIG=@CAELT@
ZPX0138 090956@CAELT@GG SLZZYMYT@CAELT@090956 SLCAYGYS@CAELT@SABO SLCA 091000@CAELT@METAR SLCA 091000Z 00000KT 4000 FU NSC 19/13 Q1017 A3003 HR68 CS RWY@CAELT@NML=@CAELT@
ZPX0139 090956@CAELT@GG SLZZYMYT@CAELT@090955 SLRBYGYS@CAELT@SABO SLRB 091000@CAELT@METAR SLRB 091000Z 36006KT 8000 NSC 27/21 Q1014 A2994 HR69 FU RWY NML=@CAELT@
ZPX0140 090957@CAELT@GG SLZZYMYT@CAELT@090956 SLSBYSYX@CAELT@SABO SLSB 091000@CAELT@METAR SLSB 091000Z 36003KT 4000 FU SCT015 25/22 Q1010 A2983 HR87 RWY@CAELT@NML=@CAELT@
ZPX0141 090957@CAELT@GG SLZZYMYT@CAELT@090956 SLLPYFYA@CAELT@SABO SLRY 091000@CAELT@METAR SLRY 091000Z 00000KT 3000 FU NSC 23/22 Q1008 A2979 HR95@CAELT@CI RWY NML=@CAELT@
ZPX0142 090957@CAELT@GG SLZZYMYT@CAELT@090957 SLCBYGYZ@CAELT@SABO SLCB 091000@CAELT@METAR SLCB 091000Z 00000KT 7000 NSC 13/07 Q1024 A3026 751.2 HR63 FU@CAELT@CI NOSIG=@CAELT@
ZPX0143 090958@CAELT@GG SLZZYMYT@CAELT@090957 SLSAYGYS@CAELT@SABO SLSA 091000@CAELT@METAR SLSA 091000Z 00000KT 6000 SCT017 FEW023CB BKN080 24/23 Q1010@CAELT@A2985 HR96 FU CB N/NW=@CAELT@
ZPX0144 090958@CAELT@GG SLZZYMYT@CAELT@090957 SLSAYGYS@CAELT@SABO SLSA 091000@CAELT@METAR SLSA 091000Z 00000KT 6000 SCT017 FEW023CB BKN080 24/23 Q1010@CAELT@A2985 HR96 FU CB N/NW=@CAELT@
ZPX0145 090958@CAELT@GG SLZZYMYT@CAELT@090955 SLTRYGYZ@CAELT@SABO SLTR 091000@CAELT@METAR SLTR 091000Z 34006KT 5000 FU FEW020 SCT200 24/21 Q1011 A2987@CAELT@993.0 HR83 NOSIG=@CAELT@
ZPX0146 090958@CAELT@GG SLZZYMYT@CAELT@090958 SLCBYGYS@CAELT@SABO SLCB 091000@CAELT@METAR SLCB 091000Z 00000KT 7000 NSC 13/07 Q1024 A3026 751.2 HR63 FU@CAELT@CI NOSIG=@CAELT@METAR SLAL 091000Z 00000KT 8000 FEW070 08/05 Q1028 A3037 703.3 HR80@CAELT@
ZPX0147 091000@CAELT@GG SLZZYMYT@CAELT@090959 SLTRYGYS@CAELT@SABO SLTR 091000@CAELT@METAR SLTR 091000Z 34006KT 5000 FU FEW020 SCT200 24/21 Q1011 A2987@CAELT@993.0 HR83 NOSIG=@CAELT@METAR SLGM 091000Z 00000KT 5000 FU FEW008 SCT020 BKN200 24/23 Q1011@CAELT@A2988 HR94=@CAELT@METAR SLRI 091000Z 00000KT 5000 FU FEW020 BKN080 23/23 Q1012 A2990HR95 CI=METAR SLJO 091000Z 36010KT 8000 FEW020 BKN200 24/21 Q1010 A2985HR87 FU AC RWY NML=METAR SLRA 091000Z 03008KT 9999 BKN080 BKN200 24/22 Q1011 A2986 HR87RWY NML=METAR SLMG 091000Z 00000KT 9999 SCT080 BKN23/22 Q1010 A2985 HR95METAR SLBU 091000Z NIL=METAR SLSA 091000Z 00000KT 6000 SCT017 FEW023CB BKN080 24/23 Q1010A2985 HR96 FU CB N/NW=METAR SLSR 091000Z 00000KT 2000 FU VCSH SCT015 FEW023CB BKN20024/21 Q1009 A2982 HR92 CB/SH N/NE RWY NML=METAR SLSM 091000Z 00000KT 8000 SCT015 FEW023CB BKN200 24/24 Q1011A2987 HR98 CB W/NW FU RWY NML=
ZPX0148 091000@CAELT@GG SLZZYMYT@CAELT@090959 SLVRYGYS@CAELT@SABO SLVR 091000@CAELT@METAR SLVR 091000Z 32010KT 5000 FU SCT023 FEW027CB BKN200 25/20 Q1012@CAELT@A2989 HR74 CB NW AC NOSIG=@CAELT@METAR SLET 091000Z 31009KT 2500 FU FEW030CB BKN200 25/20 Q1012 A2989@CAELT@HR73 CB NW NOSIG=@CAELT@METAR SLCP 091000Z 00000KT 3000 FU FEW070 BKN200 22/21 Q1015 A2997HR92 RWY NML=METAR SLSI 091000Z 00000KT 8000 SCT017 BKN200 23/21 Q1013 A2991 HR87FU RWY NML=METAR SLRB 091000Z 36006KT 8000 NSC 27/21 Q1014 A2994 HR69 FU RWY NMLMETAR SLPS 091000Z 00000KT 8000 FEW020 SCT070 BKN200 27/23 Q1010A2983 HR79 FU=METAR SLCA 091000Z 00000KT 4000 FU NSC 19/13 Q1017 A3003 HR68 CS RWYNML=
ZPX0149 091000@CAELT@GG SLZZYMYT@CAELT@091000 SLTRYGYS@CAELT@SABO SLTR 091000@CAELT@METAR SLTR 091000Z 34006KT 5000 FU FEW020 SCT200 24/21 Q1011 A2987@CAELT@993.0 HR83 NOSIG=@CAELT@METAR SLGM 091000Z 00000KT 5000 FU FEW008 SCT020 BKN200 24/23 Q1011@CAELT@A2988 HR94=@CAELT@METAR SLRI 091000Z 00000KT 5000 FU FEW020 BKN080 23/23 Q1012 A2990HR95 CI=METAR SLJO 091000Z 36010KT 8000 FEW020 BKN200 24/21 Q1010 A2985HR87 FU AC RWY NML=METAR SLRA 091000Z 03008KT 9999 BKN080 BKN200 24/22 Q1011 A2986 HR87RWY NML=METAR SLMG 091000Z 00000KT 9999 SCT080 BKN23/22 Q1010 A2985 HR95METAR SLBU 091000Z NIL=METAR SLSA 091000Z 00000KT 6000 SCT017 FEW023CB BKN080 24/23 Q1010A2985 HR96 FU CB N/NW=METAR SLSR 091000Z 00000KT 2000 FU VCSH SCT015 FEW023CB BKN20024/21 Q1009 A2982 HR92 CB/SH N/NE RWY NML=METAR SLSM 091000Z 00000KT 8000 SCT015 FEW023CB BKN200 24/24 Q1011A2987 HR98 CB W/NW FU RWY NML=
ZPX0150 091000@CAELT@GG SLZZYMYT@CAELT@091000 SLTRYGYS@CAELT@SABO SLTR 091000@CAELT@METAR SLTR 091000Z 34006KT 5000 FU FEW020 SCT200 24/21 Q1011 A2987@CAELT@993.0 HR83 NOSIG=@CAELT@METAR SLGM 091000Z 00000KT 5000 FU FEW008 SCT020 BKN200 24/23 Q1011@CAELT@A2988 HR94=@CAELT@METAR SLRI 091000Z 00000KT 5000 FU FEW020 BKN080 23/23 Q1012 A2990HR95 CI=METAR SLJO 091000Z 36010KT 8000 FEW020 BKN200 24/21 Q1010 A2985HR87 FU AC RWY NML=METAR SLRA 091000Z 03008KT 9999 BKN080 BKN200 24/22 Q1011 A2986 HR87RWY NML=METAR SLMG 091000Z 00000KT 9999 SCT080 BKN23/22 Q1010 A2985 HR95METAR SLBU 091000Z NIL=METAR SLSA 091000Z 00000KT 6000 SCT017 FEW023CB BKN080 24/23 Q1010A2985 HR96 FU CB N/NW=METAR SLSR 091000Z 00000KT 2000 FU VCSH SCT015 FEW023CB BKN20024/21 Q1009 A2982 HR92 CB/SH N/NE RWY NML=METAR SLSM 091000Z 00000KT 8000 SCT015 FEW023CB BKN200 24/24 Q1011A2987 HR98 CB W/NW FU RWY NML=
ZPX0151 091000@CAELT@GG SLZZYMYT@CAELT@091000 SLLPYFYA@CAELT@SABO SLRQ 091000@CAELT@METAR SLRQ 091000Z 00000KT 5000 FU NSC 24/24 Q1010 A2984@CAELT@HR98=@CAELT@
ZPX0154 091003@CAELT@GG SLZZYMYT@CAELT@091001 SLLPYFYA@CAELT@SABO SLLP 091000@CAELT@METAR SLLP 091000Z VRB02KT 3000E VCFG FEW002 SCT010 03/03 Q1038@CAELT@A3067 628.4 HR97 P92// VCFG N/NE/E/SE AC CI NOSIG=@CAELT@METAR SLRY 091000Z 00000KT 3000 FU NSC 23/22 Q1008 A2979 HR95@CAELT@CI RWY NML=@CAELT@METAR SLRQ 091000Z 00000KT 5000 FU NSC 24/24 Q1010 A2984 HR98=METAR SLSB 091000Z 36003KT 4000 FU SCT015 25/22 Q1010 A2983HR87 RWY NML=METAR SLUY 091000Z 00000KT 9999 FEW070 M01/M13 Q1034 A3056658.9 HR43=
ZPX0171 091050@CAELT@GG SLZZYMYT@CAELT@091050 SLRBYGYS@CAELT@SABO SLRB 091100@CAELT@METAR SLRB 091100Z 36008KT 8000 NSC 28/21 Q1015 A2997 HR65 FU RWY NML=@CAELT@
ZPX0172 091053@CAELT@GG SLZZYMYT@CAELT@091053 SLPSYGYS@CAELT@SABO SLPS 091100@CAELT@METAR SLPS 091100Z 00000KT 8000 SCT070 BKN200 29/24 Q1011 A2986 HR73@CAELT@
ZPX0174 091053@CAELT@GG SLZZYMYT@CAELT@090955 SLTRYGYZ@CAELT@SABO SLTR 091000@CAELT@METAR SLTR 091000Z 34006KT 5000 FU FEW020 SCT200 24/21 Q1011 A2987@CAELT@993.0 HR83 NOSIG=@CAELT@
ZPX0175 091054@CAELT@GG SLZZYMYT@CAELT@091055 SLSBYSYX@CAELT@SABO SLSB 091100@CAELT@METAR SLSB 091100Z 03004KT 3000 FU BKN015 25/23 Q1010 A2985 HR87 SH@CAELT@SE RWY NML=@CAELT@
ZPX0176 091054@CAELT@GG SLZZYMYT@CAELT@091054 SLCAYGYS@CAELT@SABO SLCA 091100@CAELT@METAR SLCA 091100Z 00000KT 4000 FU NSC 20/13 Q1017 A3003 HR65 CS RWY@CAELT@NML=@CAELT@
ZPX0177 091054@CAELT@GG SLZZYMYT@CAELT@091054 SLETYMYC@CAELT@SABO SLET 091100@CAELT@METAR SLET 091100Z 29013KT 2500 FU FEW023 FEW030CB BKN200 25/20 Q1012@CAELT@A2990 HR71 CB NW AC NOSIG=@CAELT@
ZPX0178 091054@CAELT@GG SLZZYMYT@CAELT@091055 SLORYGYZ@CAELT@SABO SLOR 091100@CAELT@METAR SLOR 091100Z 00000KT 7000 NSC 06/00 Q1035 A3059 656.5 HR64 VIS@CAELT@RED FU N/NE/E/SE/S CI=@CAELT@
ZPX0179 091054@CAELT@GG SLZZYMYT@CAELT@091055 SLVRYGYZ@CAELT@SABO SLVR 091100@CAELT@METAR SLVR 091100Z 31012KT 3000 FU FEW023 FEW027CB BKN200 25/21 Q1012@CAELT@A2991 HR76 CB W NOSIG=@CAELT@
ZPX0180 091054@CAELT@GG SLZZYMYT@CAELT@091054 SLSAYGYS@CAELT@SABO SLSA 091100@CAELT@METAR SLSA 091100Z 34005KT 6000 SCT020 SCT080 OVC200 24/23 Q1010@CAELT@A2985 HR94 FU=@CAELT@
ZPX0181 091055@CAELT@GG SLZZYMYT@CAELT@091054 SLSAYGYS@CAELT@SABO SLSA 091100@CAELT@METAR SLSA 091100Z 34005KT 6000 SCT020 SCT080 OVC200 24/23 Q1010@CAELT@A2985 HR94 FU=@CAELT@
ZPX0184 091055@CAELT@GG SLZZYMYT@CAELT@091055 SLTRYGYZ@CAELT@SABO SLTR 091100@CAELT@METAR SLTR 091100Z 34004KT 5000 FU FEW020 BKN200 25/21 Q1011 A2988@CAELT@993.2 HR78 NOSIG=@CAELT@
ZPX0185 091055@CAELT@GG SLZZYMYT@CAELT@091055 SLTJYGYZ@CAELT@SABO SLTJ 091100@CAELT@METAR SLTJ 091100Z 00000KT 7000 NSC 17/15 Q1021 A3017 816.2 HR87 FU=@CAELT@
ZPX0186 091056@CAELT@GG SLZZYMYT@CAELT@091055 SLCBYGYZ@CAELT@SABO SLCB 091100@CAELT@METAR SLCB 091100Z 22004KT 6000 FEW033 16/07 Q1025 A3030 752.1 HR54@CAELT@FU CI NOSIG=@CAELT@
ZPX0187 091057@CAELT@GG SLZZYMYT@CAELT@091057 SLUYYGYS@CAELT@SABO SLUY 091100@CAELT@METAR SLUY 091100Z VRB02KT 9999 FEW070 03/M09 Q1035 A3058@CAELT@659.4 HR41=@CAELT@
ZPX0188 091057@CAELT@GG SLZZYMYT@CAELT@091057 SLLPYGYZ@CAELT@SABO SLLP 091100@CAELT@METAR SLLP 091100Z VRB02KT 6000 FEW003 SCT010 05/03 Q1039 A3070@CAELT@629.0 HR84 P92// VIS/RED/ST/BAJOS NE/E/SE AC CI NOSIG=@CAELT@
ZPX0189 091058@CAELT@GG SLZZYMYT@CAELT@091058 SLTRYGYS@CAELT@SABO SLTR 091100@CAELT@METAR SLTR 091100Z 34004KT 5000 FU FEW020 BKN200 25/21 Q1011 A2988@CAELT@993.2 HR78 NOSIG=@CAELT@METAR SLGM 091100Z 00000KT 5000 FU FEW008 SCT020 BKN200 25/23 Q1013@CAELT@A2989 HR91=@CAELT@METAR SLRI 091100Z 18007KT 5000 FU FEW020 BKN080 BKN200 23/23 Q1013A2994 HR97=METAR SLJO 091100Z 36008KT 8000 FEW020 SCT080 BKN200 24/21 Q1011A2986 HR84 FU RWY NML=METAR SLRA 091100Z 03006KT 9999 SCT080 BKN200 25/22 Q1011 A2987 HR88RWY NML=METAR SLMG 091100Z 32004KT 9999 SCT080 BKN200 23/22 Q1010 A2985 HR92METAR SLBU 091100Z NIL=METAR SLSA 091100Z 34005KT 6000 SCT020 SCT080 OVC200 24/23 Q1010A2985 HR94 FU=METAR SLSR 091100Z 32006KT 2000 FU SCT015 FEW023CB BKN200 24/22Q1010 A2984 HR91 CB N/NE RWY NML=METAR SLSM 091100Z 26004KT 8000 FU SCT015 FEW023CB BKN200 25/24Q1012 A2989 HR93 FU CB W RWY NML=
ZPX0190 091058@CAELT@GG SLZZYMYT@CAELT@091058 SLCOYGYZ@CAELT@SABO SLCO 091100@CAELT@METAR SLCO 091100Z 00000KT 6000 SCT080 BKN200 25/24 Q1011 A2988 984.5@CAELT@HR90 FU=@CAELT@
ZPX0192 091059@CAELT@GG SLZZYMYT@CAELT@091059 SLVRYGYS@CAELT@SABO SLVR 091100@CAELT@METAR SLVR 091100Z 31012KT 3000 FU FEW023 FEW027CB BKN200 25/21 Q1012@CAELT@A2991 HR76 CB W NOSIG=@CAELT@METAR SLET 091100Z 29013KT 2500 FU FEW023 FEW030CB BKN200 25/20 Q1012@CAELT@A2990 HR71 CB NW AC NOSIG=@CAELT@METAR SLAS 091100Z 00000KT 1500 FU NSC 25/21 Q1015 A2997 HR79 RWY NMLMETAR SLJV 091100Z 34005KT 3000 FU SCT020 OVC200 22/19 Q1013 A2991HR83 RWY HUM OPR=METAR SLCP 091100Z 00000KT 3000 FU FEW070 BKN200 23/22 Q1016 A3000HR92 RWY NML=METAR SLSI 091100Z 36006KT 8000 SCT017 BKN200 24/20 Q1014 A2994 HR80FU RWY NML=..METAR SLTI 091100Z 36005KT 9999 SCT020 BKN200 29/21 Q1016 A3000 HR63RWY NML=METAR SLJE 091100Z 00000KT 6000 SCT070 BKN200 26/20 Q1016 A3000 HR72FU RWY NML=METAR SLVG 091100Z 00000KT 2500 FU OVC015 17/15 Q1025 A3027 HR86 RWYNML=METAR SLRB 091100Z 36008KT 8000 NSC 28/21 Q1015 A2997 HR65 FU RWY NMLMETAR SLPS 091100Z 00000KT 8000 SCT070 BKN200 29/24 Q1011 A2986 HR73METAR SLCA 091100Z 00000KT 4000 FU NSC 20/13 Q1017 A3003 HR65 CS RWY
ZPX0196 091101@CAELT@GG SLZZYMYT@CAELT@091100 SLCBYGYS@CAELT@SABO SLCB 091100@CAELT@METAR SLCB 091100Z 22004KT 6000 FEW033 16/07 Q1025 A3030 752.1 HR54@CAELT@FU CI NOSIG=@CAELT@METAR SLAL 091100Z 35006KT 8000 NSC 11/06 Q1031 A3045 705.1 HR72 FU=@CAELT@METAR SLVM 091100Z 00000KT 9999 BKN070 24/18 Q1014 A2994 HR71 FU CI=@CAELT@METAR SLTJ 091100Z 00000KT 7000 NSC 17/15 Q1021 A3017 816.2 HR87 FU=METAR SLYA 091100Z 00000KT 9999 SCT023 BKN200 22/18 Q1017 A2995 938.8HR76=
ZPX0198 091102@CAELT@GG SLZZYMYT@CAELT@091102 SLSBYSYX@CAELT@SABO SLSB 091100@CAELT@METAR SLSB 091100Z 03004KT 3000 FU BKN015 25/23 Q1010 A2985 HR87 SH@CAELT@SE RWY NML=@CAELT@
ZPX0200 091103@CAELT@GG SLZZYMYT@CAELT@091103 SLLPYFYA@CAELT@SABO SLLP 091100@CAELT@METAR SLLP 091100Z VRB02KT 6000 FEW003 SCT010 05/03 Q1039 A3070@CAELT@629.0 HR84 P92// VIS/RED/ST/BAJOS NE/E/SE AC CI NOSIG=@CAELT@METAR SLCO 091100Z 00000KT 6000 SCT080 BKN200 25/24 Q1011 A2988 984.5@CAELT@HR90 FU=@CAELT@METAR SLRY 091100Z 00000KT 2000 FU FEW017 BKN200 24/23 Q1009 A2982HR92 RWY NML=METAR SLRQ 091100Z 00000KT 5000 FU FEW080 25/24 Q011 A2986 HR92=METAR SLAP 091100Z NIL=METAR SLSB 091100Z 03004KT 3000 FU BKN015 25/23 Q1010 A2985 HR87 SHSE RWY NML=METAR SLOR 091100Z 00000KT 7000 NSC 06/00 Q1035 A3059 656.5 HR64VIS RED FU N/NE/E/SE/S CI=METAR SLUY 091100Z VRB02KT 9999 FEW070 03/M09 Q1035 A3058659.4 HR41=
ZPX0203 091105@CAELT@GG SLZZYMYT@CAELT@091105 SLLPYFYA@CAELT@SABO SLLP 091100 CCA@CAELT@METAR SLLP 091100Z VRB02KT 6000 FEW003 SCT010 05/03 Q1039 A3070@CAELT@629.0 HR84 P92// VIS/RED/ST/BAJOS NE/E/SE AC CI NOSIG=@CAELT@METAR SLCO 091100Z 00000KT 6000 SCT080 BKN200 25/24 Q1011 A2988@CAELT@984.5 HR90 FU=@CAELT@METAR SLRY 091100Z 00000KT 2000 FU FEW017 BKN200 24/23 Q1009 A2982HR92 RWY NML=METAR COR SLRQ 091100Z 00000KT 5000 FU FEW080 25/24 Q0119 A2986HR92=METAR SLAP 091100Z NIL=METAR SLSB 091100Z 03004KT 3000 FU BKN015 25/23 Q1010 A2985 HR87SH SE RWY NML=METAR SLOR 091100Z 00000KT 7000 NSC 06/00 Q1035 A3059 656.5 HR64VIS RED FU N/NE/E/SE/S CI=METAR SLUY 091100Z VRB02KT 9999 FEW070 03/M09 Q1035 A3058659.4 HR41=
ZPX0224 091152@CAELT@GG SLZZYMYT@CAELT@091152 SLPSYGYS@CAELT@SABO SLPS 091200@CAELT@METAR SLPS 091200Z 09006KT 9999 FEW070 BKN200 30/23 Q1011 A2986 HR68=@CAELT@
ZPX0226 091154@CAELT@GG SLZZYMYT@CAELT@091155 SLVRYGYZ@CAELT@SABO SLVR 091200@CAELT@METAR SLVR 091200Z 31010G20KT 3000 FU FEW023 FEW030CB BKN200 27/21@CAELT@Q1013 A2993 HR71 CB W NOSIG=@CAELT@
ZPX0227 091154@CAELT@GG SLZZYMYT@CAELT@091059 SLETYMYC@CAELT@SABO SLET 091200@CAELT@METAR SLET 091200Z 28014KT 2500 FU SCT023 FEW030CB BKN200 27/20 Q1013@CAELT@A2993 HR69 CB W/NW AC NOSIG=@CAELT@
ZPX0228 091154@CAELT@GG SLZZYMYT@CAELT@091155 SLSBYSYX@CAELT@SABO SLSB 091200@CAELT@METAR SLSB 091200Z 03006KT 5000 FU SCT015 BKN070 26/23 Q1011 A2988@CAELT@HR85 SH SE S RWY NML=@CAELT@
ZPX0230 091155@CAELT@GG SLZZYMYT@CAELT@091154 SLCAYGYS@CAELT@SABO SLCA 091200@CAELT@METAR SLCA 091200Z 00000KT 4000 FU BKN080 23/15 Q1017 A3003 HR62 RWY@CAELT@NML=@CAELT@
ZPX0231 091155@CAELT@GG SLZZYMYT@CAELT@091155 SLORYGYZ@CAELT@SABO SLOR 091200@CAELT@METAR SLOR 091200Z 01003KT 7000 NSC 10/03 Q1037 A3063 657.4 HR59 FU@CAELT@
ZPX0232 091155@CAELT@GG SLZZYMYT@CAELT@091155 SLCOYGYZ@CAELT@SABO SLCO 091200@CAELT@METAR SLCO 091200Z 00000KT 8000 SCT080 BKN200 27/24 Q1013 A2992 985.6@CAELT@HR84 FU=@CAELT@
ZPX0235 091156@CAELT@GG SLZZYMYT@CAELT@091155 SLUYYGYS@CAELT@SABO SLUY 091200@CAELT@METAR SLUY 091200Z 00000KT 9999 FEW070 08/M14 Q1035 A3059@CAELT@659.5 HR20 HZ SE/S=@CAELT@
ZPX0236 091156@CAELT@GG SLZZYMYT@CAELT@091155 SLSAYGYS@CAELT@SABO SLSA 091200@CAELT@METAR SLSA 091200Z 35005KT 6000 SCT020 SCT080 OVC200 25/24 Q1011@CAELT@A2988 HR92 FU=@CAELT@
ZPX0237 091156@CAELT@GG SLZZYMYT@CAELT@091155 SLSAYGYS@CAELT@SABO SLSA 091200@CAELT@METAR SLSA 091200Z 35005KT 6000 SCT020 SCT080 OVC200 25/24 Q1011@CAELT@A2988 HR92 FU=@CAELT@
ZPX0238 091156@CAELT@GG SLZZYMYT@CAELT@091156 SLLPYGYZ@CAELT@SABO SLLP 091200@CAELT@METAR SLLP 091200Z VRB02KT 6000 FEW004 09/03 Q1040 A3072 629.4 HR70@CAELT@P92// VIS/RED SC/BJOS NE/E/SE FU AC/CI NOSIG=@CAELT@
ZPX0239 091156@CAELT@GG SLZZYMYT@CAELT@091155 SLTRYGYZ@CAELT@SABO SLTR 091200@CAELT@METAR SLTR 091200Z 32004KT 5000 FU FEW020 BKN200 26/22 Q1013 A2992@CAELT@994.6 HR76 NOSIG=@CAELT@
ZPX0240 091157@CAELT@GG SLZZYMYT@CAELT@091156 SLRBYGYS@CAELT@SABO SLRB 091200@CAELT@METAR SLRB 091200Z 36012KT 8000 NSC 29/20 Q1016 A3000 HR60 FU RWY NML=@CAELT@
ZPX0241 091157@CAELT@GG SLZZYMYT@CAELT@091156 SLCBYGYZ@CAELT@SABO SLCB 091200@CAELT@METAR SLCB 091200Z 20004KT 6000 FEW033 18/07 Q1026 A3031 752.6 HR48@CAELT@FU CI NOSIG=@CAELT@
ZPX0243 091158@CAELT@GG SLZZYMYT@CAELT@091158 SLLPYFYA@CAELT@SABO SLRY 091200@CAELT@METAR SLRY 091200Z 35003KT 2000 FU SCT020 BKN200 25/22 Q1010@CAELT@A2985 HR85 RWY NML=@CAELT@
ZPX0244 091159@CAELT@GG SLZZYMYT@CAELT@091157 SLTJYGYZ@CAELT@SABO SLTJ 091200@CAELT@METAR SLTJ 091200Z 15004KT 7000 NSC 18/15 Q1021 A3016 816.0 HR81 FU=@CAELT@
ZPX0246 091200@CAELT@GG SLZZYMYT@CAELT@091200 SLCBYGYS@CAELT@SABO SLCB 091200@CAELT@METAR SLCB 091200Z 20004KT 6000 FEW033 18/07 Q1026 A3031 752.6 HR48@CAELT@FU CI NOSIG=@CAELT@METAR SLAL 091200Z 01004KT 9999 NSC 13/07 Q1032 A3047 705.6 HR66 FU=@CAELT@METAR SLPO 091200Z 00000KT 8000 NSC 10/05 Q1039 A3068 638.7 HR69 FU=@CAELT@METAR SLAG 091200Z 00000KT 1500 FU NSC 23/15 Q1018 A3006 890.1 HR60METAR SLVM 091200Z 18005KT 9999 SCT070 25/18 Q1014 A2995 HR66 FU CI=METAR SLTJ 091200Z 15004KT 7000 NSC 18/15 Q1021 A3016 816.0 HR81 FU=METAR SLYA 091200Z 21010KT 9999 NSC 24/18 Q1015 A2998 939.9 HR70=METAR SLBJ 091200Z NIL=METAR SLHI 091200Z NIL=
ZPX0247 091200@CAELT@GG SLZZYMYT@CAELT@091200 SLTRYGYS@CAELT@SABO SLTR 091200@CAELT@METAR SLTR 091200Z 32004KT 5000 FU FEW020 BKN200 26/22 Q1013 A2992@CAELT@994.6 HR76 NOSIG=@CAELT@METAR SLGM 091200Z 03004KT 6000 FEW020 SCT080 BKN200 26/23 Q1013@CAELT@A2991 HR84 FU=@CAELT@METAR SLRI 091200Z 00000KT 5000 FU FEW020 SCT080 BKN200 25/23 Q1014A2995 HR86=METAR SLJO 091200Z 36006KT 8000 SCT080 OVC200 25/22 Q1012 A2989HR82 FU RWY NML=METAR SLRA 091200Z 04008KT 9999 SCT080 OVC200 26/23 Q1012 A2989HR83 RWY NML=METAR SLMG 091200Z 03004KT 9999 FEW010 SCT080 BKN200 25/23 Q1012A2988 HR91 RWY NML=METAR SLBU 091200Z 03005KT 9999 SCT080 OVC200 24/22 Q1012 A2990HR91 RWY NML=METAR SLSA 091200Z 35005KT 6000 SCT020 SCT080 OVC200 25/24 Q1011A2988 HR92 FU=METAR SLSR 091200Z 34012KT 5000 FU SCT017 FEW023CB BKN200 25/22Q1011 A2987 HR87 CB N/SE RWY NML=METAR SLSM 091200Z 36006KT 8000 FEW015 FEW023CB BKN200 26/24 Q1013A2991 HR85 FU CB SW RWY NML=
ZPX0249 091202@CAELT@GG SLZZYMYT@CAELT@091201 SLVRYGYS@CAELT@SABO SLVR 091200@CAELT@METAR SLVR 091200Z 31010G20KT 3000 FU FEW023 FEW030CB BKN200 27/21@CAELT@Q1013 A2993 HR71 CB W NOSIG=@CAELT@METAR SLET 091200Z 28014KT 2500 FU SCT023 FEW030CB BKN200 27/20 Q1013@CAELT@A2993 HR69 CB W/NW AC NOSIG=@CAELT@METAR SLAS 091200Z 00000KT 1500 FU NSC 25/21 Q1016 A3000 HR75 RWY NMLMETAR SLJV 091200Z 34005KT 3000 FU SCT020 OVC200 22/19 Q1014 A2994HR82 RWY HUM OPR=METAR SLCP 091200Z 03006KT 3500 FU SCT070 BKN200 24/21 Q1017 A3003HR84 RWY NML=METAR SLSI 091200Z 36008KT 9999 BKN017 BKN200 25/21 Q1015 A2997 HR80RWY NML=METAR SLTI 091200Z 36010KT 9999 FEW020 BKN200 30/21 Q1017 A3003 HR58METAR SLJE 091200Z 36005KT 6000 SCT070 BKN200 29/21 Q1017 A3003 HR64FU RWY NML=METAR SLVG 091200Z 36005KT 3000 FU BKN015 18/15 Q1025 A3027 HR82 RWYNML=METAR SLRB 091200Z 36012KT 8000 NSC 29/20 Q1016 A3000 HR60 FU RWY NMLMETAR SLPS 091200Z 09006KT 9999 FEW070 BKN200 30/23 Q1011 A2986 HR68=METAR SLCA 091200Z 00000KT 4000 FU BKN080 23/15 Q1017 A3003 HR62 RWY
ZPX0251 091203@CAELT@GG SLZZYMYT@CAELT@091203 SLLPYFYA@CAELT@SABO SLRQ 091200@CAELT@METAR SLRQ 091200Z 00000KT 5000 FU FEW080 26/24 Q1012 A2991 HR86=@CAELT@
ZPX0253 091204@CAELT@GG SLZZYMYT@CAELT@091204 SLLPYFYA@CAELT@SABO SLLP 091200@CAELT@METAR SLLP 091200Z VRB02KT 6000 FEW004 09/03 Q1040 A3072 629.4 HR70@CAELT@P92// VIS/RED SC/BJOS NE/E/SE FU AC/CI NOSIG=@CAELT@METAR SLCO 091200Z 00000KT 8000 SCT080 BKN200 27/24 Q1013 A2992@CAELT@985.6 HR84 FU=@CAELT@METAR SLRQ 091200Z 00000KT 5000 FU FEW080 26/24 Q1012 A2991 HR86=METAR SLRY 091200Z 35003KT 2000 FU SCT020 BKN200 25/22 Q1010A2985 HR85 RWY NML=METAR SLSB 091200Z 03006KT 5000 FU SCT015 BKN070 26/23 Q1011 A2988HR85 SH SE S RWY NML=METAR SLOR 091200Z 01003KT 7000 NSC 10/03 Q1037 A3063 657.4 HR59 FUMETAR SLUY 091200Z 00000KT 9999 FEW070 08/M14 Q1035 A3059659.5 HR20 HZ SE/S=
ZPX0271 091252@CAELT@GG SLZZYMYT@CAELT@091249 SLETYMYC@CAELT@SABO SLET 091300@CAELT@METAR SLET 091300Z 28013G25KT 2500 FU SCT023 FEW030CB BKN200 28/20@CAELT@Q1014 A2994 HR64 CB NW NOSIG=@CAELT@
ZPX0272 091253@CAELT@GG SLZZYMYT@CAELT@091253 SLPSYGYS@CAELT@SABO SLPS 091300@CAELT@METAR SLPS 091300Z 09006KT 9999 FEW070 BKN200 31/23 Q1012 A2989 HR64@CAELT@
ZPX0273 091253@CAELT@GG SLZZYMYT@CAELT@091253 SLRBYGYS@CAELT@SABO SLRB 091300@CAELT@METAR SLRB 091300Z 36015KT 9999 NSC 30/20 Q1017 A3003 HR59 FU RWY NML=@CAELT@
ZPX0274 091253@CAELT@GG SLZZYMYT@CAELT@091253 SLLPYFYA@CAELT@SABO SLRQ 091300@CAELT@METAR SLRQ 091300Z 00000KT 5000 FU FEW080 28/23 Q1012 A2993 HR74=@CAELT@
ZPX0275 091254@CAELT@GG SLZZYMYT@CAELT@091254 SLORYGYZ@CAELT@SABO SLOR 091300@CAELT@METAR SLOR 091300Z 36004KT 8000 NSC 13/01 Q1037 A3063 657.5 HR44 FU@CAELT@
ZPX0276 091254@CAELT@GG SLZZYMYT@CAELT@091254 SLSAYGYS@CAELT@SABO SLSA 091300@CAELT@METAR SLSA 091300Z 34005KT 6000 SCT015 SCT080 BKN200 28/24 Q1012@CAELT@A2991 HR79 FU=@CAELT@
ZPX0277 091254@CAELT@GG SLZZYMYT@CAELT@091254 SLSAYGYS@CAELT@SABO SLSA 091300@CAELT@METAR SLSA 091300Z 34005KT 6000 SCT015 SCT080 BKN200 28/24 Q1012@CAELT@A2991 HR79 FU=@CAELT@
ZPX0278 091254@CAELT@GG SLZZYMYT@CAELT@091254 SLCAYGYS@CAELT@SABO SLCA 091300@CAELT@METAR SLCA 091300Z 00000KT 4000 FU SCT080 26/16 Q1017 A3003 HR55 RWY@CAELT@NML=@CAELT@
ZPX0279 091255@CAELT@GG SLZZYMYT@CAELT@091254 SLAGYSYX@CAELT@SABO SLAG 091300@CAELT@METAR SLAG 091300Z 00000KT 2000 FU NSC 27/15 Q1017 A3005 889.6 HR49@CAELT@
ZPX0280 091255@CAELT@GG SLZZYMYT@CAELT@091255 SLLPYGYZ@CAELT@SABO SLLP 091300@CAELT@METAR SLLP 091300Z 26004KT 200V350 6000 FEW010 11/02 Q1040 A3072@CAELT@629.4 HR54 P4352 FU CI NOSIG=@CAELT@
ZPX0281 091255@CAELT@GG SLZZYMYT@CAELT@091255 SLTJYGYZ@CAELT@SABO SLTJ 091300@CAELT@METAR SLTJ 091300Z 18003KT 9999 FEW023 20/15 Q1020 A3015 815.7 HR70@CAELT@
ZPX0282 091255@CAELT@GG SLZZYMYT@CAELT@091251 SLUYYGYS@CAELT@SABO SLUY 091300@CAELT@METAR SLUY 091300Z 30003KT 9999 FEW070 12/M16 Q1035 A3058@CAELT@659.4 HR13=@CAELT@
ZPX0284 091256@CAELT@GG SLZZYMYT@CAELT@091255 SLSBYSYX@CAELT@SABO SLSB 091300@CAELT@METAR SLSB 091300Z 00000KT 5000 FU SCT015 BKN070 26/227 Q1013 A2993@CAELT@HR81 SH W NW RWY NML=@CAELT@
ZPX0285 091257@CAELT@GG SLZZYMYT@CAELT@091257 SLLPYFYA@CAELT@SABO SLRY 091300@CAELT@METAR SLRY 091300Z 00000KT 3000 FU SCT023 BKN200 28/23 Q1012@CAELT@A2990 HR73 RWY NML=@CAELT@
ZPX0286 091257@CAELT@GG SLZZYMYT@CAELT@091257 SLCOYGYZ@CAELT@SABO SLCO 091300@CAELT@METAR SLCO 091300Z 36004KT 8000 SCT080 BKN200 28/24 Q1013 A2993 986.1@CAELT@HR78 FU=@CAELT@
ZPX0289 091257@CAELT@GG SLZZYMYT@CAELT@091258 SLVRYGYZ@CAELT@SABO SLVR 091300@CAELT@METAR SLVR 091300Z 32013G23KT 3000 FU SCT023 BKN200 28/21 Q1014 A2996@CAELT@HR66 NOSIG=@CAELT@
ZPX0290 091258@CAELT@GG SLZZYMYT@CAELT@091257 SLCBYGYZ@CAELT@SABO SLCB 091300@CAELT@METAR SLCB 091300Z 20005KT 4000 FU FEW036 22/06 Q1026 A3032 752.7@CAELT@HR35 CI NOSIG=@CAELT@
ZPX0291 091258@CAELT@GG SLZZYMYT@CAELT@091256 SLTRYGYZ@CAELT@SABO SLTR 091300@CAELT@METAR SLTR 091300Z 34006KT 5000 FU FEW015 BKN200 29/23 Q1014 A2996@CAELT@996.0 HR72 NOSIG=@CAELT@
ZPX0292 091258@CAELT@GG SLZZYMYT@CAELT@091258 SLLPYFYA@CAELT@SABO SLLP 091300@CAELT@METAR SLLP 091300Z 26004KT 200V350 6000 FEW010 11/02 Q1040 A3072@CAELT@629.4 HR54 P4352 FU CI NOSIG=@CAELT@METAR SLCO 091300Z 36004KT 8000 SCT080 BKN200 28/24 Q1013 A2993@CAELT@986.1 HR78 FU=@CAELT@METAR SLRY 091300Z 00000KT 3000 FU SCT023 BKN200 28/23 Q1012A2990 HR73 RWY NML=METAR SLRQ 091300Z 00000KT 5000 FU FEW080 28/23 Q1012 A2993 HR74=METAR SLSB 091300Z 00000KT 5000 FU SCT015 BKN070 26/227 Q1013 A2993HR81 SH W NW RWY NML=METAR SLOR 091300Z 36004KT 8000 NSC 13/01 Q1037 A3063 657.5 HR44 FUMETAR SLUY 091300Z 30003KT 9999 FEW070 12/M16 Q1035 A3058659.4 HR13=
ZPX0293 091259@CAELT@GG SLZZYMYT@CAELT@091258 SLTRYGYS@CAELT@SABO SLTR 091300@CAELT@METAR SLTR 091300Z 34006KT 5000 FU FEW015 BKN200 29/23 Q1014 A2996@CAELT@996.0 HR72 NOSIG=@CAELT@METAR SLGM 091300Z 03006KT 7000 FEW015 SCT080 BKN200 27/23 Q1013@CAELT@A2992 HR79 FU=@CAELT@METAR SLRI 091100Z 18007KT 5000 FU FEW020 BKN080 BKN200 23/23 Q1013A2994 HR97=METAR SLJO 091300Z 36006KT 8000 FEW020 SCT080 OVC200 28/23 Q1012A23991 HR78 FU RWY NML=METAR SLRA 091300Z 03006KT 9999 SCT080 OVC200 28/23 Q1013 A2992HR73 RWY NML=METAR SLMG 091300Z 03004KT 9999 FEW015 BKN080 BKN200 25/23 Q1013A2992 HR87 RWY NML=METAR SLBU 091300Z 03006KT 9999 FEW020 SCT080 BKN200 26/23 Q1013A2992 HR85 RWY NML=METAR SLSA 091300Z 34005KT 6000 SCT015 SCT080 BKN200 28/24 Q1012A2991 HR79 FU=METAR SLSR 091300Z 34012KT 5000 FU FEW017 FEW023CB BKN200 27/22Q1012 A2991 HR75 CB N RWY NML=METAR SLSM 091300Z 36006KT 8000 SCT015 FEW023CB BKN200 27/23 Q1014A2995 HR79 CB SW FU RWY NML=
ZPX0295 091300@CAELT@GG SLZZYMYT@CAELT@091300 SLVRYGYS@CAELT@SABO SLVR 091300@CAELT@METAR SLVR 091300Z 32013G23KT 3000 FU SCT023 BKN200 28/21 Q1014 A2996@CAELT@HR66 NOSIG=@CAELT@METAR SLET 091300Z 28013G25KT 2500 FU SCT023 FEW030CB BKN200 28/20@CAELT@Q1014 A2994 HR64 CB NW NOSIG=@CAELT@METAR SLAS 091300Z 36005KT 1000 FU SCT020 OVC200 26/21 Q1017 A3003HR75 RWY NML=METAR SLJV 091300Z 03005KT 3500 FU SCT020 OVC200 23/20 Q1015 A2997HR81 RWY HUM OPR=METAR SLCP 091300Z 03007KT 5000 FU SCT025 BKN200 25/21 Q1018 A3006HR78 RWY NML=METAR SLSI 091300Z 36010KT 9999 BKN017 BKN200 26/22 Q1016 A3000 HR78RWY NML=METAR SLTI 091300Z 36015KT 9999 NSC 33/21 Q1017 A3003 HR49 RWY NML=METAR SLJE 091300Z 36006KT 7000 SCT070 BKN200 32/22 Q1017 A3003 HR55FU RWY NML=METAR SLVG 091300Z 36004KT 3000 FU BKN017 19/14 Q1026 A3030 HR70 RWYNML=METAR SLRB 091300Z 36015KT 9999 NSC 30/20 Q1017 A3003 HR59 FU RWY NMLMETAR SLPS 091300Z 09006KT 9999 FEW070 BKN200 31/23 Q1012 A2989 HR64METAR SLCA 091300Z 00000KT 4000 FU SCT080 26/16 Q1017 A3003 HR55 RWY
ZPX0296 091300@CAELT@GG SLZZYMYT@CAELT@091259 SLCBYGYS@CAELT@SABO SLCB 091300@CAELT@METAR SLCB 091300Z 20005KT 4000 FU FEW036 22/06 Q1026 A3032 752.7@CAELT@HR35 CI NOSIG=@CAELT@METAR SLAL 091300Z 35005KT 8000 NSC 16/07 Q1031 A3046 705.4 HR57 FU=@CAELT@METAR SLPO 091300Z 05005KT 8000 NSC 12/04 Q1039 A3069 639.0 HR60 FU=@CAELT@METAR SLAG 091300Z 00000KT 2000 FU NSC 27/15 Q1017 A3005 889.6 HR49METAR SLVM 091300Z 18007KT 9999 NSC 28/19 Q1014 A2994 HR59 FU CI=METAR SLTJ 091300Z 18003KT 9999 FEW023 20/15 Q1020 A3015 815.7 HR70METAR SLYA 091300Z 21010KT 9999 NSC 24/18 Q1014 A2997 939.5 HR67=METAR SLBJ 091300Z NIL=METAR SLHI 091300Z NIL=
ZPX0297 091301@CAELT@GG SLZZYMYT@CAELT@091300 SLTJYGYZ@CAELT@SABO SLTJ 091300 CCA@CAELT@METAR COR SLTJ 091300Z 18003KT 7000 FEW023 20/15 Q1020 A3015 815.7@CAELT@HR70 FU=@CAELT@
ZPX0304 091305@CAELT@GG SLZZYMYT@CAELT@091304 SLTRYGYS@CAELT@SABO SLTR 091300 CCA@CAELT@METAR SLTR 091300Z 34006KT 5000 FU FEW015 BKN200 29/23 Q1014 A2996@CAELT@996.0 HR72 NOSIG=@CAELT@METAR SLGM 091300Z 03006KT 7000 FEW015 SCT080 BKN200 27/23 Q1013@CAELT@A2992 HR79 FU=@CAELT@METAR SLRI 091300Z 03006KT 7000 FEW007 SCT020 BKN200 26/22 Q1014A2996 HR79 FU=METAR SLJO 091300Z 36006KT 8000 FEW020 SCT080 OVC200 28/23 Q1012A23991 HR78 FU RWY NML=METAR SLRA 091300Z 03006KT 9999 SCT080 OVC200 28/23 Q1013 A2992HR73 RWY NML=METAR SLMG 091300Z 03004KT 9999 FEW015 BKN080 BKN200 25/23 Q1013A2992 HR87 RWY NML=METAR SLBU 091300Z 03006KT 9999 FEW020 SCT080 BKN200 26/23 Q1013A2992 HR85 RWY NML=METAR SLSA 091300Z 34005KT 6000 SCT015 SCT080 BKN200 28/24 Q1012A2991 HR79 FU=METAR SLSR 091300Z 34012KT 5000 FU FEW017 FEW023CB BKN200 27/22Q1012 A2991 HR75 CB N RWY NML=METAR SLSM 091300Z 36006KT 8000 SCT015 FEW023CB BKN200 27/23 Q1014A2995 HR79 CB SW FU RWY NML=
ZPX0305 091305@CAELT@GG SLZZYMYT@CAELT@091304 SLCBYGYS@CAELT@SABO SLCB 091300 CCA@CAELT@METAR SLCB 091300Z 20005KT 4000 FU FEW036 22/06 Q1026 A3032 752.7@CAELT@HR35 CI NOSIG=@CAELT@METAR SLAL 091300Z 35005KT 8000 NSC 16/07 Q1031 A3046 705.4 HR57 FU=@CAELT@METAR SLPO 091300Z 05005KT 8000 NSC 12/04 Q1039 A3069 639.0 HR60 FU=@CAELT@METAR SLAG 091300Z 00000KT 2000 FU NSC 27/15 Q1017 A3005 889.6 HR49METAR SLVM 091300Z 18007KT 9999 NSC 28/19 Q1014 A2994 HR59 FU CI=METAR COR SLTJ 091300Z 18003KT 7000 FEW023 20/15 Q1020 A3015 815.7HR70 FU=METAR SLYA 091300Z 21010KT 9999 NSC 24/18 Q1014 A2997 939.5 HR67=METAR SLBJ 091300Z NIL=METAR SLHI 091300Z NIL=
ZPX0310 091314@CAELT@GG SLZZYMYT@CAELT@090955 SLRQYSYX@CAELT@SABO SLRQ 091000@CAELT@METAR SLRQ 091000Z 00000KT 5000 FU NSC 24/24 Q1010 A2984 HR98=@CAELT@
ZPX0328 091349@CAELT@GG SLZZYMYT@CAELT@091350 SLRBYGYS@CAELT@SABO SLRB 091400@CAELT@METAR SLRB 091400Z 36015KT 9999 NSC 30/20 Q1016 A3000 HR55 FU RWY NML=@CAELT@
ZPX0329 091351@CAELT@GG SLZZYMYT@CAELT@091351 SLPSYGYS@CAELT@SABO SLPS 091400@CAELT@METAR SLPS 091400Z 36014KT 9999 NSC 34/25 Q1012 A2989 HR60 FU=@CAELT@
ZPX0331 091352@CAELT@GG SLZZYMYT@CAELT@091327 SLETYMYC@CAELT@SABO SLET 091400@CAELT@METAR SLET 091400Z 32018G30KT 3500 FU SCT023 BKN200 28/20 Q1014 A2996@CAELT@HR62 NOSIG=@CAELT@
ZPX0333 091353@CAELT@GG SLZZYMYT@CAELT@091355 SLUYYGYS@CAELT@SABO SLUY 091400@CAELT@METAR SLUY 091400Z 33010KT 9999 FEW070 14/M09 Q1035 A3057@CAELT@659.2 HR20=@CAELT@
ZPX0334 091353@CAELT@GG SLZZYMYT@CAELT@091353 SLCAYGYS@CAELT@SABO SLCA 091400@CAELT@METAR SLCA 091400Z 00000KT 4000 FU NSC 30/15 Q1016 A3000 HR41 RWY NML@CAELT@
ZPX0335 091354@CAELT@GG SLZZYMYT@CAELT@091355 SLRQYSYX@CAELT@SABO SLRQ 091400@CAELT@METAR SLRQ 091400Z 00000KT 5000 FU FEW080 SCT200 30/25 Q1013 A2994@CAELT@HR72=@CAELT@
ZPX0336 091354@CAELT@GG SLZZYMYT@CAELT@091355 SLSBYSYX@CAELT@SABO SLSB 091400@CAELT@METAR SLSB 091400Z 00000KT 5000 FU SCT017 BKN070 28/23 Q1014 A2996@CAELT@HR74 RWY NML=@CAELT@
ZPX0337 091355@CAELT@GG SLZZYMYT@CAELT@091355 SLLPYGYZ@CAELT@SABO SLLP 091400@CAELT@METAR SLLP 091400Z 30004KT 8000 FEW015 13/M00 Q1040 A3072 629.4@CAELT@HR41 P4453 FU NOSIG=@CAELT@
ZPX0338 091355@CAELT@GG SLZZYMYT@CAELT@091355 SLTJYGYZ@CAELT@SABO SLTJ 091400@CAELT@METAR SLTJ 091400Z 17004KT 7000 FEW027 22/15 Q1019 A3012 814.9 HR64@CAELT@
ZPX0339 091355@CAELT@GG SLZZYMYT@CAELT@091356 SLVRYGYZ@CAELT@SABO SLVR 091400@CAELT@METAR SLVR 091400Z 34018G28KT 3000 FU SCT020 BKN200 29/21 Q1015 A2997@CAELT@HR63 NOSIG=@CAELT@
ZPX0340 091355@CAELT@GG SLZZYMYT@CAELT@091355 SLORYGYZ@CAELT@SABO SLOR 091400@CAELT@METAR SLOR 091400Z 02005KT 8000 FEW017 16/03 Q1036 A3062 657.2 HR42@CAELT@FU CI=@CAELT@
ZPX0342 091356@CAELT@GG SLZZYMYT@CAELT@091355 SLAGYSYX@CAELT@SABO SLAG 091400@CAELT@METAR SLAG 091400Z 00000KT 3000 FU NSC 30/16 Q1017 A3004 889.4 HR43@CAELT@
ZPX0343 091356@CAELT@GG SLZZYMYT@CAELT@091356 SLSAYGYS@CAELT@SABO SLSA 091400@CAELT@METAR SLSA 091400Z 34007KT 7000 SCT017 BKN200 29/24 Q1013@CAELT@A2992 HR71 FU=@CAELT@
ZPX0344 091356@CAELT@GG SLZZYMYT@CAELT@091356 SLSAYGYS@CAELT@SABO SLSA 091400@CAELT@METAR SLSA 091400Z 34007KT 7000 SCT017 BKN200 29/24 Q1013@CAELT@A2992 HR71 FU=@CAELT@
ZPX0345 091357@CAELT@GG SLZZYMYT@CAELT@091355 SLTRYGYZ@CAELT@SABO SLTR 091400@CAELT@METAR SLTR 091400Z 34005KT 8000 SCT015 BKN080 BKN200 29/22 Q1014@CAELT@A2997 996.2 HR72 NOSIG=@CAELT@
ZPX0346 091358@CAELT@GG SLZZYMYT@CAELT@091358 SLCOYGYZ@CAELT@SABO SLCO 091400@CAELT@METAR SLCO 091400Z 34006KT 9999 BKN080 30/24 Q1013 A2994 986.3 HR72@CAELT@FU CI=@CAELT@
ZPX0348 091359@CAELT@GG SLZZYMYT@CAELT@091357 SLCBYGYZ@CAELT@SABO SLCB 091400@CAELT@METAR SLCB 091400Z 13007KT 6000 FEW036 SCT200 23/05 Q1026 A3031 752.6@CAELT@HR30 FU NOSIG=@CAELT@
ZPX0350 091359@CAELT@GG SLZZYMYT@CAELT@091359 SLVRYGYS@CAELT@SABO SLVR 091400@CAELT@METAR SLVR 091400Z 34018G28KT 3000 FU SCT020 BKN200 29/21 Q1015 A2997@CAELT@HR63 NOSIG=@CAELT@METAR SLET 091400Z 32018G30KT 3500 FU SCT023 BKN200 28/20 Q1014 A2996@CAELT@HR62 NOSIG=@CAELT@METAR SLAS 091400Z 36006KT 9000 SCT020 OVC200 27/21 Q1017 A3003 HR69FU RWY NML=METAR SLJV 091400Z 03005KT 4000 FU SCT020 OVC200 24/20 Q1015 A2997HR78 RWY NML=METAR SLCP 091400Z 03006KT 7000 SCT020 BKN070 BKN200 26/20 Q1018A3006 HR72 FU RWY NML=METAR SLSI 091400Z 36010KT 9999 BKN017 BKN200 27/22 Q1015 A2997 HR71RWY NML=METAR SLTI 091400Z 36005KT 9999 NSC 34/20 Q1017 A3003 HR54 RWY NML=METAR SLJE 091400Z 36008KT 8000 SCT020 BKN200 32/22 Q1017 A3003 HR55METAR SLVG 091400Z 36006KT 5000 FU BKN020 21/14 Q1026 A3030 HR60 RWYNML=METAR SLRB 091400Z 36015KT 9999 NSC 30/20 Q1016 A3000 HR55 FU RWY NMLMETAR SLPS 091400Z 36014KT 9999 NSC 34/25 Q1012 A2989 HR60 FU=METAR SLCA 091400Z 00000KT 4000 FU NSC 30/15 Q1016 A3000 HR41 RWY NML=
ZPX0352 091400@CAELT@GG SLZZYMYT@CAELT@091400 SLCBYGYS@CAELT@SABO SLCB 091400@CAELT@METAR SLCB 091400Z 13007KT 6000 FEW036 SCT200 23/05 Q1026 A3031 752.6@CAELT@HR30 FU NOSIG=@CAELT@METAR SLAL 091400Z 01011KT 9999 FEW017 16/07 Q1031 A3046 705.4 HR55@CAELT@METAR SLPO 091400Z 00000KT 8000 FEW017 14/03 Q1038 A3067 638.5 HR50@CAELT@METAR SLAG 091400Z 00000KT 3000 FU NSC 30/16 Q1017 A3004 889.4 HR43METAR SLVM 091400Z 18005KT 9999 NSC 30/20 Q1013 A2994 HR56 FU CI=METAR SLTJ 091400Z 17004KT 7000 FEW027 22/15 Q1019 A3012 814.9 HR64METAR SLYA 091400Z 21010KT 9999 NSC 26/19 Q1014 A2996 939.3 HR63=METAR SLBJ 091400Z NIL=METAR SLHI 091400Z NIL=
ZPX0353 091401@CAELT@GG SLZZYMYT@CAELT@091400 SLLPYFYA@CAELT@SABO SLRY 091400@CAELT@METAR SLRY 091400Z 36004KT 4000 FU FEW016 SCT200 30/23 Q1013@CAELT@A2992 HR66 RWY NML=@CAELT@
ZPX0355 091401@CAELT@GG SLZZYMYT@CAELT@091358 SLTRYGYS@CAELT@SABO SLTR 091400@CAELT@METAR SLTR 091400Z 34005KT 8000 SCT015 BKN080 BKN200 29/22 Q1014@CAELT@A2997 996.2 HR72 NOSIG=@CAELT@METAR SLGM 091400Z 02008KT 7000 FEW015 SCT080 BKN200 29/24 Q1013@CAELT@A2992 HR73 FU=@CAELT@METAR SLRI 091400Z 09010KT 7000 FEW007 SCT080 BKN200 28/23 Q1014A2995 HR74 FU=METAR SLJO 091400Z 36005KT 8000 FEW020 BKN080 OVC200 28/23 Q1013A2992 HR76 FU RWY NML=METAR SLRA 091400Z 06006KT 9999 FEW020 SCT080 BKN200 29/23 Q1013A2993 HR73 RWY NML=METAR SLMG 091400Z 04004KT 9999 FEW015 BKN080 BKN200 27/23 Q1013A2993 HR80 RWY NML=METAR SLBU 091400Z 03005KT 9999 BKN017 BKN200 28/24 Q1013 A2993HR77 RWY NML=METAR SLSA 091400Z 34007KT 7000 SCT017 BKN200 29/24 Q1013A2992 HR71 FU=METAR SLSR 091400Z 36010KT 5000 FU FEW017 FEW023CB SCT080 BKN20028/23 Q1013 A2992 HR72 CB NE RWY NML=METAR SLSM 091400Z 36006KT 8000 SCT015 FEW023CB OVC200 28/24 Q1014A2995 HR76 FU CB S RWY NML=
ZPX0357 091402@CAELT@GG SLZZYMYT@CAELT@091402 SLLPYFYA@CAELT@SABO SLLP 091400@CAELT@METAR SLLP 091400Z 30004KT 8000 FEW015 13/M00 Q1040 A3072 629.4@CAELT@HR41 P4453 FU NOSIG=@CAELT@METAR SLCO 091400Z 34006KT 9999 BKN080 30/24 Q1013 A2994 986.3@CAELT@HR72 FU CI=@CAELT@METAR SLRY 091400Z 36004KT 4000 FU FEW016 SCT200 30/23 Q1013 A2992HR66 RWY NML=METAR SLRQ 091400Z 00000KT 5000 FU FEW080 SCT200 30/25 Q1013 A2994HR72=METAR SLSB 091400Z 00000KT 5000 FU SCT017 BKN070 28/23 Q1014 A2996HR74 RWY NML=METAR SLOR 091400Z 02005KT 8000 FEW017 16/03 Q1036 A3062 657.2 HR42FU CI=METAR SLUY 091400Z 33010KT 9999 FEW070 14/M09 Q1035 A3057659.2 HR20=
ZPX0373 091422@CAELT@GG SLZZYMYT@CAELT@091421 SLTRYGYZ@CAELT@SABO SLTR 091400 CCA@CAELT@METAR COR SLTR 091400Z 34005KT 8000 SCT015 BKN080 BKN200 29/22 Q1014@CAELT@A2997 996.2 HR72 FU NOSIG=@CAELT@
ZPX0376 091425@CAELT@GG SLZZYMYT@CAELT@091425 SLTRYGYS@CAELT@SABO SLTR 091400 CCA@CAELT@METAR COR SLTR 091400Z 34005KT 8000 SCT015 BKN080 BKN200 29/22 Q1014@CAELT@A2997 996.2 HR72 FU NOSIG=@CAELT@METAR SLGM 091400Z 02008KT 7000 FEW015 SCT080 BKN200 29/24 Q1013@CAELT@A2992 HR73 FU=@CAELT@METAR SLRI 091400Z 09010KT 7000 FEW007 SCT080 BKN200 28/23 Q1014A2995 HR74 FU=METAR SLJO 091400Z 36005KT 8000 FEW020 BKN080 OVC200 28/23 Q1013A2992 HR76 FU RWY NML=METAR SLRA 091400Z 06006KT 9999 FEW020 SCT080 BKN200 29/23 Q1013A2993 HR73 RWY NML=METAR SLMG 091400Z 04004KT 9999 FEW015 BKN080 BKN200 27/23 Q1013A2993 HR80 RWY NML=METAR SLBU 091400Z 03005KT 9999 BKN017 BKN200 28/24 Q1013 A2993HR77 RWY NML=METAR SLSA 091400Z 34007KT 7000 SCT017 BKN200 29/24 Q1013A2992 HR71 FU=METAR SLSR 091400Z 36010KT 5000 FU FEW017 FEW023CB SCT080 BKN20028/23 Q1013 A2992 HR72 CB NE RWY NML=METAR SLSM 091400Z 36006KT 8000 SCT015 FEW023CB OVC200 28/24 Q1014A2995 HR76 FU CB S RWY NML=
ZPX0388 091452@CAELT@GG SLZZYMYT@CAELT@091452 SLPSYGYS@CAELT@SABO SLPS 091500@CAELT@METAR SLPS 091500Z 36010KT 9999 NSC 35/25 Q1011 A2986 HR57 FU=@CAELT@
ZPX0389 091453@CAELT@GG SLZZYMYT@CAELT@091453 SLPSYGYS@CAELT@SABO SLPS 091500 CCA@CAELT@METAR COR SLPS 091500Z 36010KT 9999 NSC 35/25 Q1011 A2986 HR57 FU CI=@CAELT@
ZPX0391 091454@CAELT@GG SLZZYMYT@CAELT@091455 SLRQYSYX@CAELT@SABO SLRQ 091500@CAELT@METAR SLRQ 091500Z 36004KT 5000 FU FEW020 SCT070 32/25 Q1013 A2993@CAELT@HR64=@CAELT@
ZPX0392 091455@CAELT@GG SLZZYMYT@CAELT@091455 SLORYGYZ@CAELT@SABO SLOR 091500@CAELT@METAR SLOR 091500Z 23003KT 9999 FEW020 18/03 Q1036 A3060 656.8 HR38@CAELT@
ZPX0393 091455@CAELT@GG SLZZYMYT@CAELT@091454 SLRBYGYS@CAELT@SABO SLRB 091500@CAELT@METAR SLRB 091500Z 36015KT 9999 NSC 33/22 Q1016 A3000 HR51 FU RWY NML=@CAELT@
ZPX0394 091455@CAELT@GG SLZZYMYT@CAELT@091455 SLSAYGYS@CAELT@SABO SLSA 091500@CAELT@METAR SLSA 091500Z 35008KT 7000 SCT017 BKN200 30/24 Q1013@CAELT@A2991 HR70 FU=@CAELT@
ZPX0395 091455@CAELT@GG SLZZYMYT@CAELT@091455 SLLPYGYZ@CAELT@SABO SLLP 091500@CAELT@METAR SLLP 091500Z 18006KT 140V240 8000 FEW017 15/M03 Q1039 A3070@CAELT@629.0 HR30 P4453 FU NOSIG=@CAELT@
ZPX0396 091456@CAELT@GG SLZZYMYT@CAELT@091456 SLVRYGYZ@CAELT@SABO SLVR 091500@CAELT@METAR SLVR 091500Z 34018G28KT 4000 FU FEW017 SCT020 BKN200 29/21@CAELT@Q1015 A2997 HR60 NOSIG=@CAELT@
ZPX0397 091456@CAELT@GG SLZZYMYT@CAELT@091452 SLUYYGYS@CAELT@SABO SLUY 091500@CAELT@METAR SLUY 091500Z 32015KT 9999 NSC 15/M10 Q1035 A3057@CAELT@659.1 HR17=@CAELT@
ZPX0398 091456@CAELT@GG SLZZYMYT@CAELT@091455 SLTJYGYZ@CAELT@SABO SLTJ 091500@CAELT@METAR SLTJ 091500Z 15004KT 7000 FEW030 24/15 Q1018 A3009 814.0 HR57@CAELT@
ZPX0400 091457@CAELT@GG SLZZYMYT@CAELT@091456 SLSBYSYX@CAELT@SABO SLSB 091500@CAELT@METAR SLSB 091500Z 00000KT 5000 FU SCT017 BKN070 29/23 Q1013 A2992@CAELT@HR72 RWY NML=@CAELT@
ZPX0401 091457@CAELT@GG SLZZYMYT@CAELT@091456 SLAGYSYX@CAELT@SABO SLAG 091500@CAELT@METAR SLAG 091500Z 20003KT 3000 FU FEW020 SCT200 31/16 Q1016 A3001@CAELT@888.4 HR40=@CAELT@
ZPX0403 091458@CAELT@GG SLZZYMYT@CAELT@091458 SLCOYGYZ@CAELT@SABO SLCO 091500@CAELT@METAR SLCO 091500Z 34006KT 9999 BKN080 31/24 Q1014 A2994 986.5 HR66@CAELT@FU CI=@CAELT@
ZPX0405 091458@CAELT@GG SLZZYMYT@CAELT@091458 SLLPYFYA@CAELT@SABO SLRY 091500@CAELT@METAR SLRY 091500Z 00000KT 5000 FU FEW017 SCT200 31/23 Q1013@CAELT@A2991 HR62 RWY NML=@CAELT@
ZPX0406 091459@CAELT@GG SLZZYMYT@CAELT@091458 SLTRYGYZ@CAELT@SABO SLTR 091500@CAELT@METAR SLTR 091500Z 34004KT 8000 SCT015 BKN080 BKN200 31/24 Q1014@CAELT@A2995 995.8 HR66 FU NOSIG=@CAELT@
ZPX0407 091459@CAELT@GG SLZZYMYT@CAELT@091458 SLTRYGYZ@CAELT@SABO SLTR 091500@CAELT@METAR SLTR 091500Z 34004KT 8000 SCT015 BKN080 BKN200 31/24 Q1014@CAELT@A2995 995.8 HR66 FU NOSIG=@CAELT@
ZPX0409 091500@CAELT@GG SLZZYMYT@CAELT@091459 SLTRYGYS@CAELT@SABO SLTR 091500@CAELT@METAR SLTR 091500Z 34004KT 8000 SCT015 BKN080 BKN200 31/24 Q1014@CAELT@A2995 995.8 HR66 FU NOSIG=@CAELT@METAR SLGM 091500Z 02010KT 8000 FEW015 SCT080 BKN200 30/23 Q1013@CAELT@A2993 HR66 FU=@CAELT@METAR SLRI 091500Z 11010KT 7000 FEW010 SCT080 BKN200 29/23 Q1014A2996 HR71 FU=METAR SLJO 091500Z 36004KT 8000 FEW020 FEW023CB BKN080 BKN200 28/24Q1013 A2994 HR74 FU CB NW RWY NML=METAR SLRA 091500Z 09004KT 9999 FEW020 SCT080 OVC200 28/22 Q1013A2993 HR71 RWY NML=METAR SLMG 091500Z 03004KT 9999 FEW015 SCT080 BKN200 28/23 Q1013A2993 HR75 RWY NML=METAR SLBU 091500Z 03006KT 9999 SCT017 BKN200 29/24 Q1013 A2992HR73 RWY NML=METAR SLSA 091500Z 35008KT 7000 SCT017 BKN200 30/24 Q1013A2991 HR70 FU=METAR SLSR 091500Z 34010KT 5000 FU FEW017 SCT080 BKN200 29/23Q1012 A2991 HR68 RWY NML=METAR SLSM 091500Z 36006KT 6000 VCSH BKN015 FEW020CB OVC200 29/23Q1014 A2996 HR71 CB/SH SE/S/SW RWY NML=
ZPX0410 091500@CAELT@GG SLZZYMYT@CAELT@091456 SLCBYGYZ@CAELT@SABO SLCB 091500@CAELT@METAR SLCB 091500Z 02010KT 300V110 7000 FEW036 SCT200 25/05 Q1026@CAELT@A3030 752.3 HR27 FU NOSIG=@CAELT@
ZPX0411 091500@CAELT@GG SLZZYMYT@CAELT@091500 SLVRYGYS@CAELT@SABO SLVR 091500@CAELT@METAR SLVR 091500Z 34018G28KT 4000 FU FEW017 SCT020 BKN200 29/21@CAELT@Q1015 A2997 HR60 NOSIG=@CAELT@METAR SLET 091500Z 31020G33KT 3500 FU FEW015 BKN020 BKN200 29/20@CAELT@Q1014 A2996 HR57 NOSIG=@CAELT@METAR SLAS 091500Z 36006KT 9999 FEW030 OVC200 29/21 Q1017 A3003 HR61FU RWY NML=METAR SLJV 091500Z 34010KT 4000 FU FEW020 OVC200 25/21 Q1014 A2994HR78 RWY NML=METAR SLCP 091500Z 36006KT 9999 SCT017 BKN070 OVC200 28/21 Q1018A3006 HR69 FU RWY NML=METAR SLSI 091500Z 36012KT 9999 BKN017 BKN200 28/22 Q1015 A2997 HR67RWY NML=METAR SLTI 091500Z 36016KT 9999 NSC 35/19 Q1016 A3000 HR38 RWY NML=METAR SLJE 091500Z 36008KT 9000 SCT020 BKN200 34/22 Q1017 A3003 HR51METAR SLVG 091500Z 00000KT 7000 SCT023 BKN200 22/13 Q1025 A3027 HR54METAR SLRB 091500Z 36015KT 9999 NSC 33/22 Q1016 A3000 HR51 FU RWY NMLMETAR SLPS 091500Z 36010KT 9999 NSC 35/25 Q1011 A2986 HR57 FU CI=METAR SLCA 091500Z 00000KT 4000 FU NSC 32/12 Q1015 A2997 HR31 RWY NML=
ZPX0412 091501@CAELT@GG SLZZYMYT@CAELT@091500 SLCBYGYS@CAELT@SABO SLCB 091500@CAELT@METAR SLCB 091500Z 02010KT 300V110 7000 FEW036 SCT200 25/05 Q1026@CAELT@A3030 752.3 HR27 FU NOSIG=@CAELT@METAR SLAL 091500Z 01012KT 8000 FEW017 18/06 Q1031 A3046 705.2 HR49@CAELT@METAR SLPO 091500Z 00000KT 8000 FEW017 16/03 Q1038 A3065 638.1 HR44@CAELT@FU=METAR SLAG 091500Z 20003KT 3000 FU FEW020 SCT200 31/16 Q1016 A3001888.4 HR40=METAR SLVM 091500Z 18005KT 9999 NSC 31/20 Q1013 A2992 HR51 FU CI=METAR SLTJ 091500Z 15004KT 7000 FEW030 24/15 Q1018 A3009 814.0 HR57METAR SLYA 091500Z 21010KT 9999 NSC 28/19 Q1014 A2996 939.2 HR59=METAR SLBJ 091500Z NIL=METAR SLHI 091500Z NIL=
ZPX0413 091501@CAELT@GG SLZZYMYT@CAELT@091501 SLLPYFYA@CAELT@SABO SLLP 091500@CAELT@METAR SLLP 091500Z 18006KT 140V240 8000 FEW017 15/M03 Q1039 A3070@CAELT@629.0 HR30 P4453 FU NOSIG=@CAELT@METAR SLCO 091500Z 34006KT 9999 BKN080 31/24 Q1014 A2994 986.5 HR66@CAELT@FU CI=@CAELT@METAR SLRY 091500Z 00000KT 5000 FU FEW017 SCT200 31/23 Q1013 A2991HR62 RWY NML=METAR SLRQ 091500Z 36004KT 5000 FU FEW020 SCT070 32/25 Q1013 A2993HR64=METAR SLSB 091500Z 00000KT 5000 FU SCT017 BKN070 29/23 Q1013 A2992HR72 RWY NML=METAR SLOR 091500Z 23003KT 9999 FEW020 18/03 Q1036 A3060 656.8 HR38METAR SLUY 091500Z 32015KT 9999 NSC 15/M10 Q1035 A3057659.1 HR17=
ZPX0441 091549@CAELT@GG SLZZYMYT@CAELT@091550 SLRBYGYS@CAELT@SABO SLRB 091600@CAELT@METAR SLRB 091600Z 36018KT 9999 FEW020 BKN200 34/22 Q1015 A2997 HR50@CAELT@FU RWY NML=@CAELT@
ZPX0442 091550@CAELT@GG SLZZYMYT@CAELT@091537 SLETYMYC@CAELT@SABO SLET 091600@CAELT@METAR SLET 091600Z 30021G33KT 4000 FU SCT015 BKN020 BKN200 28/20@CAELT@Q1014 A2996 HR63 NOSIG=@CAELT@
ZPX0443 091553@CAELT@GG SLZZYMYT@CAELT@091553 SLPSYGYS@CAELT@SABO SLPS 091600@CAELT@METAR SLPS 091600Z 36010KT 9999 FEW020 BKN200 36/24 Q1011 A2986 HR53@CAELT@
ZPX0444 091554@CAELT@GG SLZZYMYT@CAELT@091554 SLLPYFYA@CAELT@SABO SLRY 091600@CAELT@METAR SLRY 091600Z 32003KT 5000 FU SCT020 BKN200 32/23 Q1012 A2991@CAELT@HR58 RWY NML=@CAELT@
ZPX0446 091554@CAELT@GG SLZZYMYT@CAELT@091555 SLVRYGYZ@CAELT@SABO SLVR 091600@CAELT@METAR SLVR 091600Z 33015G25KT 4000 FU SCT017 BKN020 BKN200 28/21@CAELT@Q1015 A2997 HR65 NOSIG=@CAELT@
ZPX0447 091555@CAELT@GG SLZZYMYT@CAELT@091553 SLCAYGYS@CAELT@SABO SLCA 091600@CAELT@METAR SLCA 091600Z 00000KT 4000 FU NSC 34/13 Q1014 A2994 HR27 RWY NML@CAELT@
ZPX0448 091555@CAELT@GG SLZZYMYT@CAELT@091555 SLSBYSYX@CAELT@SABO SLSB 091600@CAELT@METAR SLSB 091600Z 00000KT 5000 FU SCT017 BKN070 29/24 Q1012 A2991@CAELT@HR72 RWY NML=@CAELT@
ZPX0449 091555@CAELT@GG SLZZYMYT@CAELT@091553 SLUYYGYS@CAELT@SABO SLUY 091600@CAELT@METAR SLUY 091600Z 32013KT 9999 FEW023 17/M10 Q1034 A3056@CAELT@658.9 HR15=@CAELT@
ZPX0450 091555@CAELT@GG SLZZYMYT@CAELT@091555 SLORYGYZ@CAELT@SABO SLOR 091600@CAELT@METAR SLOR 091600Z 17005KT 9999 FEW020 20/03 Q1035 A3059 656.5 HR33@CAELT@
ZPX0451 091555@CAELT@GG SLZZYMYT@CAELT@091555 SLLPYGYZ@CAELT@SABO SLLP 091600@CAELT@METAR SLLP 091600Z 13007KT 060V190 9999 SCT020 16/M03 Q1038 A3068@CAELT@628.6 HR27 P94// FU NOSIG=@CAELT@
ZPX0452 091556@CAELT@GG SLZZYMYT@CAELT@091555 SLRQYSYX@CAELT@SABO SLRQ 091600@CAELT@METAR SLRQ 091600Z 36004KT 5000 FU SCT020 SCT200 33/25 Q1012 A2991@CAELT@HR63=@CAELT@
ZPX0456 091556@CAELT@GG SLZZYMYT@CAELT@091555 SLTJYGYZ@CAELT@SABO SLTJ 091600@CAELT@METAR SLTJ 091600Z 13008KT 7000 FEW033 26/16 Q1018 A3007 813.4 HR54@CAELT@
ZPX0457 091556@CAELT@GG SLZZYMYT@CAELT@091556 SLSAYGYS@CAELT@SABO SLSA 091600@CAELT@METAR SLSA 091600Z 36006KT 7000 SCT017 BKN200 31/24 Q1012@CAELT@A2989 HR66 FU=@CAELT@
ZPX0458 091557@CAELT@GG SLZZYMYT@CAELT@091556 SLTRYGYZ@CAELT@SABO SLTR 091600@CAELT@METAR SLTR 091600Z 04004KT 8000 SCT015 BKN080 BKN200 30/23 Q1013@CAELT@A2994 995.2 HR66 NOSIG=@CAELT@
ZPX0459 091558@CAELT@GG SLZZYMYT@CAELT@091556 SLCBYGYZ@CAELT@SABO SLCB 091600@CAELT@METAR SLCB 091600Z 11008KT 020V160 8000 FEW036 BKN200 25/05 Q1024@CAELT@A3027 751.3 HR27 FU NOSIG=@CAELT@
ZPX0460 091558@CAELT@GG SLZZYMYT@CAELT@091557 SLVRYGYS@CAELT@SABO SLVR 091600@CAELT@METAR SLVR 091600Z 33015G25KT 4000 FU SCT017 BKN020 BKN200 28/21@CAELT@Q1015 A2997 HR65 NOSIG=@CAELT@METAR SLET 091600Z 30021G33KT 4000 FU SCT015 BKN020 BKN200 28/20@CAELT@Q1014 A2996 HR63 NOSIG=@CAELT@METAR SLAS 091600Z 36008KT 9999 NSC 30/21 Q1016 A3000 HR59 FU RWY NMLMETAR SLCP 091600Z 36010KT 9999 BKN017 OVC200 29/21 Q1017 A3003 HR64FU RWY NML=METAR SLSI 091600Z 33012KT 9999 BKN017 BKN200 30/22 Q1014 A2994 HR61RWY NML=METAR SLRB 091600Z 36018KT 9999 FEW020 BKN200 34/22 Q1015 A2997 HR50METAR SLPS 091600Z 36010KT 9999 FEW020 BKN200 36/24 Q1011 A2986 HR53METAR SLCA 091600Z 00000KT 4000 FU NSC 34/13 Q1014 A2994 HR27 RWY NML
ZPX0461 091558@CAELT@GG SLZZYMYT@CAELT@091557 SLTRYGYS@CAELT@SABO SLTR 091600@CAELT@METAR SLTR 091600Z 04004KT 8000 SCT015 BKN080 BKN200 30/23 Q1013@CAELT@A2994 995.2 HR66 NOSIG=@CAELT@METAR SLGM 091600Z 02014KT 9999 FEW017 SCT080 BKN200 32/22 Q1012@CAELT@A2989 HR57=@CAELT@METAR SLRI 091600Z 09008KT 7000 FEW017 BKN200 31/23 Q1013 A2994 HR61FU AC=METAR SLJO 091600Z 32004KT 8000 FEW020 SCT080 OVC200 30/24 Q1013A2992 HR72 FU RWY NML=METAR SLRA 091600Z 09003KT 9999 FEW020 SCT080 BKN200 31/23 Q1013A2992 HR63 RWY NML=METAR SLMG 091600Z 00000KT 9999 FEW015 SCT080 BKN200 30/24 Q1013A2991 HR70 RWY NML=METAR SLBU 091600Z 03005KT 9999 SCT017 BKN200 30/23 Q1012 A2989HR67 RWY NML=METAR SLSA 091600Z 36006KT 7000 SCT017 BKN200 31/24 Q1012 A2989HR66 FU=METAR SLSR 091600Z 34010KT 7000 FEW017 BKN200 31/23 Q1012 A2990HR64 RWY NML=METAR SLSM 091600Z 18004KT 6000 TS VCSH BKN015 FEW020CB OVC07026/24 Q1014 A2996 HR87 CB/SH SE/S/SW/NW TS S RWY NML=
ZPX0462 091558@CAELT@GG SLZZYMYT@CAELT@091555 SLAGYSYX@CAELT@SABO SLAG 091600@CAELT@METAR SLAG 091600Z 16008KT 3000 FU FEW020 SCT200 32/15 Q1014 A2997@CAELT@887.2 HR34=@CAELT@
ZPX0464 091559@CAELT@GG SLZZYMYT@CAELT@091559 SLCOYGYZ@CAELT@SABO SLCO 091600@CAELT@METAR SLCO 091600Z 36004KT 9999 FEW025 BKN080 31/24 Q1013 A2992 985.8@CAELT@HR65 FU CI=@CAELT@
ZPX0467 091601@CAELT@GG SLZZYMYT@CAELT@091600 SLCBYGYS@CAELT@SABO SLCB 091600@CAELT@METAR SLCB 091600Z 11008KT 020V160 8000 FEW036 BKN200 25/05 Q1024@CAELT@A3027 751.3 HR27 FU NOSIG=@CAELT@METAR SLAL 091600Z 33005KT 8000 FEW017 18/07 Q1030 A3043 704.6 HR49@CAELT@METAR SLPO 091600Z 06007KT 7000 SCT020 15/04 Q1037 A3062 637.3 HR48@CAELT@METAR SLAG 091600Z 16008KT 3000 FU FEW020 SCT200 32/15 Q1014 A2997887.2 HR34=METAR SLVM 091600Z 15007KT 9999 NSC 32/20 Q1012 A2989 HR50 FU CI=METAR SLTJ 091600Z 13008KT 7000 FEW033 26/16 Q1018 A3007 813.4 HR54METAR SLYA 091600Z 21008KT 9999 NSC 28/19 Q1013 A2993 938.2 HR57=METAR SLBJ 091600Z NIL=METAR SLHI 091600Z NIL=
ZPX0468 091601@CAELT@GG SLZZYMYT@CAELT@091601 SLLPYFYA@CAELT@SABO SLLP 091600@CAELT@METAR SLLP 091600Z 13007KT 060V190 9999 SCT020 16/M03 Q1038 A3068@CAELT@628.6 HR27 P94// FU NOSIG=@CAELT@METAR SLCO 091600Z 36004KT 9999 FEW025 BKN080 31/24 Q1013 A2992@CAELT@985.8 HR65 FU CI=@CAELT@METAR SLRY 091600Z 32003KT 5000 FU SCT020 BKN200 32/23 Q1012 A2991HR58 RWY NML=METAR SLRQ 091600Z 36004KT 5000 FU SCT020 SCT200 33/25 Q1012 A2991HR63=METAR SLSB 091600Z 00000KT 5000 FU SCT017 BKN070 29/24 Q1012 A2991HR72 RWY NML=METAR SLOR 091600Z 17005KT 9999 FEW020 20/03 Q1035 A3059 656.5 HR33METAR SLUY 091600Z 32013KT 9999 FEW023 17/M10 Q1034 A3056 658.9HR15=
ZPX0486 091651@CAELT@GG SLZZYMYT@CAELT@091645 SLETYMYC@CAELT@SABO SLET 091700@CAELT@METAR SLET 091700Z 32018G30KT 4000 FU SCT015 BKN020 BKN200 27/20@CAELT@Q1013 A2994 HR65 NOSIG=@CAELT@
ZPX0487 091652@CAELT@GG SLZZYMYT@CAELT@091652 SLPSYGYS@CAELT@SABO SLPS 091700@CAELT@METAR SLPS 091700Z 36014KT 9999 FEW020 BKN200 37/24 Q1010 A2983 HR48@CAELT@
ZPX0488 091654@CAELT@GG SLZZYMYT@CAELT@091654 SLLPYFYA@CAELT@SABO SLRY 091700@CAELT@METAR SLRY 091700Z 35003KT 5000 FU SCT020 BKN200 33/23 Q1011 A2988@CAELT@HR57 RWY NML=@CAELT@
ZPX0489 091654@CAELT@GG SLZZYMYT@CAELT@091654 SLCAYGYS@CAELT@SABO SLCA 091700@CAELT@METAR SLCA 091700Z 00000KT 5000 FU BKN033 3/12 Q1013 A2991 HR23 RWY@CAELT@NML=@CAELT@
ZPX0490 091655@CAELT@GG SLZZYMYT@CAELT@091656 SLVRYGYZ@CAELT@SABO SLVR 091700@CAELT@METAR SLVR 091700Z 35011G21KT 4000 FU SCT015 BKN020 BKN200 27/21@CAELT@Q1014 A2996 HR66 NOSIG=@CAELT@
ZPX0491 091655@CAELT@GG SLZZYMYT@CAELT@091654 SLSAYGYS@CAELT@SABO SLSA 091700@CAELT@METAR SLSA 091700Z 36008KT 7000 SCT017 FEW023CB BKN200 31/23 Q1011@CAELT@A2986 HR61 FU CB NW=@CAELT@
ZPX0492 091655@CAELT@GG SLZZYMYT@CAELT@091654 SLSAYGYS@CAELT@SABO SLSA 091700@CAELT@METAR SLSA 091700Z 36008KT 7000 SCT017 FEW023CB BKN200 31/23 Q1011@CAELT@A2986 HR61 FU CB NW=@CAELT@
ZPX0493 091655@CAELT@GG SLZZYMYT@CAELT@091655 SLLPYGYZ@CAELT@SABO SLLP 091700@CAELT@METAR SLLP 091700Z 17006KT 130V240 9999 SCT020 18/M04 Q1037 A3065@CAELT@627.8 HR23 P94// FU NOSIG=@CAELT@
ZPX0494 091655@CAELT@GG SLZZYMYT@CAELT@091655 SLRQYSYX@CAELT@SABO SLRQ 091700@CAELT@METAR SLRQ 091700Z 00000KT 5000 FU SCT020 BKN200 33/25 Q1011 A2987@CAELT@HR63=@CAELT@
ZPX0495 091655@CAELT@GG SLZZYMYT@CAELT@091655 SLTRYGYZ@CAELT@SABO SLTR 091700@CAELT@METAR SLTR 091700Z 00000KT 8000 SCT015 SCT080 BKN200 31/21 Q1012@CAELT@A2990 994.0 HR67 FU NOSIG=@CAELT@
ZPX0496 091656@CAELT@GG SLZZYMYT@CAELT@091643 SLUYYGYS@CAELT@SABO SLUY 091700@CAELT@METAR SLUY 091700Z 32012KT 9999 FEW023 17/M10 Q1034 A3053@CAELT@658.3 HR14=@CAELT@
ZPX0497 091656@CAELT@GG SLZZYMYT@CAELT@091655 SLAGYSYX@CAELT@SABO SLAG 091700@CAELT@METAR SLAG 091700Z 09006KT 2000 FU SCT023 SCT200 33/15 Q1013 A2993@CAELT@886.1 HR33=@CAELT@
ZPX0498 091656@CAELT@GG SLZZYMYT@CAELT@091655 SLRBYGYS@CAELT@SABO SLRB 091700@CAELT@METAR SLRB 091700Z 36018KT 9999 FEW020 BKN200 34/22 Q1014 A2994 HR50@CAELT@FU RWY NML=@CAELT@
ZPX0499 091656@CAELT@GG SLZZYMYT@CAELT@091656 SLTJYGYZ@CAELT@SABO SLTJ 091700@CAELT@METAR SLTJ 091700Z 13010KT 7000 FEW033 26/15 Q1017 A3004 812.6 HR49@CAELT@
ZPX0500 091657@CAELT@GG SLZZYMYT@CAELT@091656 SLCOYGYZ@CAELT@SABO SLCO 091700@CAELT@METAR SLCO 091700Z 36004KT 9999 SCT025 BKN080 32/24 Q1011 A2987 984.2@CAELT@HR60 FU CI=@CAELT@
ZPX0503 091658@CAELT@GG SLZZYMYT@CAELT@091657 SLTRYGYS@CAELT@SABO SLTR 091700@CAELT@METAR SLTR 091700Z 00000KT 8000 SCT015 SCT080 BKN200 31/21 Q1012@CAELT@A2990 994.0 HR67 FU NOSIG=@CAELT@METAR SLGM 091700Z 02010KT 9999 SCT017 FEW020CB BKN080 32/23 Q1012@CAELT@A2988 HR57 CB E=@CAELT@METAR SLRI 091700Z 09008KT 7000 FEW017 SCT080 31/23 Q1012 A2991 HR61FU CI=METAR SLJO 091700Z 36004KT 8000 FEW020 SCT080 BKN200 32/23 Q1012A2989 HR62 FU RWY NML=METAR SLRA 091700Z 09003KT 9999 FEW020 SCT080 BKN200 32/22 Q1012A2990 HR54 RWY NML=METAR SLMG 091700Z 34005KT 9999 FEW017 SCT080 BKN200 31/24 Q1012A2989 HR67 RWY NML=METAR SLBU 091700Z 03004KT 9999 SCT017 BKN200 31/24 Q1011 A2987HR66 RWY NML=METAR SLSA 091700Z 36008KT 7000 SCT017 FEW023CB BKN200 31/23 Q1011A2986 HR61 FU CB NW=METAR SLSR 091700Z 34010KT 7000 SCT017 FEW023CB BKN200 32/23 Q1011A2986 HR58 CB SW FU RWY NML=METAR SLSM 091700Z 18006KT 2000 TSRA BKN008 FEWE020CB OVC070 24/24Q1014 A2994 HR100 CB SE/S/SW/W TS S/W RWY WET OPR C206=
ZPX0504 091658@CAELT@GG SLZZYMYT@CAELT@091657 SLTRYGYS@CAELT@SABO SLTR 091700@CAELT@METAR SLTR 091700Z 00000KT 8000 SCT015 SCT080 BKN200 31/21 Q1012@CAELT@A2990 994.0 HR67 FU NOSIG=@CAELT@METAR SLGM 091700Z 02010KT 9999 SCT017 FEW020CB BKN080 32/23 Q1012@CAELT@A2988 HR57 CB E=@CAELT@METAR SLRI 091700Z 09008KT 7000 FEW017 SCT080 31/23 Q1012 A2991 HR61FU CI=METAR SLJO 091700Z 36004KT 8000 FEW020 SCT080 BKN200 32/23 Q1012A2989 HR62 FU RWY NML=METAR SLRA 091700Z 09003KT 9999 FEW020 SCT080 BKN200 32/22 Q1012A2990 HR54 RWY NML=METAR SLMG 091700Z 34005KT 9999 FEW017 SCT080 BKN200 31/24 Q1012A2989 HR67 RWY NML=METAR SLBU 091700Z 03004KT 9999 SCT017 BKN200 31/24 Q1011 A2987HR66 RWY NML=METAR SLSA 091700Z 36008KT 7000 SCT017 FEW023CB BKN200 31/23 Q1011A2986 HR61 FU CB NW=METAR SLSR 091700Z 34010KT 7000 SCT017 FEW023CB BKN200 32/23 Q1011A2986 HR58 CB SW FU RWY NML=METAR SLSM 091700Z 18006KT 2000 TSRA BKN008 FEWE020CB OVC070 24/24Q1014 A2994 HR100 CB SE/S/SW/W TS S/W RWY WET OPR C206=
ZPX0505 091658@CAELT@GG SLZZYMYT@CAELT@091657 SLSBYSYX@CAELT@SABO SLSB 091700@CAELT@METAR SLSB 091700Z 13004KT 5000 FU SCT017 BKN070 30/24 Q1011 A2987@CAELT@HR69 RWY NML=@CAELT@
ZPX0506 091658@CAELT@GG SLZZYMYT@CAELT@091658 SLCBYGYZ@CAELT@SABO SLCB 091700@CAELT@METAR SLCB 091700Z 12008KT 030V180 9000 FEW036 BKN200 26/05 Q1023@CAELT@A3021 749.9 HR26 AC FU NOSIG=@CAELT@
ZPX0507 091659@CAELT@GG SLZZYMYT@CAELT@091659 SLVRYGYS@CAELT@SABO SLVR 091700@CAELT@METAR SLVR 091700Z 35011G21KT 4000 FU SCT015 BKN020 BKN200 27/21@CAELT@Q1014 A2996 HR66 NOSIG=@CAELT@METAR SLET 091700Z 32018G30KT 4000 FU SCT015 BKN020 BKN200 27/20@CAELT@Q1013 A2994 HR65 NOSIG=@CAELT@METAR SLAS 091700Z 36012KT 9999 NSC 31/21 Q1015 A2997 HR57 FU RWY NMLMETAR SLCP 091700Z 35012KT 9999 BKN017 OVC200 29/21 Q1016 A3000 HR61FU RWY NML=METAR SLSI 091700Z 36010KT 9999 BKN017 BKN070 30/22 Q1013 A2991 HR61RWY NML=METAR SLRB 091700Z 36018KT 9999 FEW020 BKN200 34/22 Q1014 A2994 HR50METAR SLPS 091700Z 36014KT 9999 FEW020 BKN200 37/24 Q1010 A2983 HR48METAR SLCA 091700Z 00000KT 5000 FU BKN033 3/12 Q1013 A2991 HR23 RWYNML=
ZPX0508 091659@CAELT@GG SLZZYMYT@CAELT@091658 SLORYGYZ@CAELT@SABO SLOR 091700@CAELT@METAR SLOR 091700Z 03009KT 9999 FEW023 20/04 Q1035 A3058 656.2 HR36=@CAELT@
ZPX0510 091700@CAELT@GG SLZZYMYT@CAELT@091700 SLLPYFYA@CAELT@SABO SLLP 091700@CAELT@METAR SLLP 091700Z 17006KT 130V240 9999 SCT020 18/M04 Q1037 A3065@CAELT@627.8 HR23 P94// FU NOSIG=@CAELT@METAR SLCO 091700Z 36004KT 9999 SCT025 BKN080 32/24 Q1011 A2987@CAELT@984.2 HR60 FU CI=@CAELT@METAR SLRY 091700Z 35003KT 5000 FU SCT020 BKN200 33/23 Q1011 A2988HR57 RWY NML=METAR SLRQ 091700Z 00000KT 5000 FU SCT020 BKN200 33/25 Q1011 A2987HR63=METAR SLSB 091700Z 13004KT 5000 FU SCT017 BKN070 30/24 Q1011 A2987HR69 RWY NML=METAR SLOR 091700Z 03009KT 9999 FEW023 20/04 Q1035 A3058 656.2HR36=METAR SLUY 091700Z 32012KT 9999 FEW023 17/M10 Q1034 A3053658.3 HR14=
ZPX0511 091701@CAELT@GG SLZZYMYT@CAELT@091700 SLCBYGYS@CAELT@SABO SLCB 091700@CAELT@METAR SLCB 091700Z 12008KT 030V180 9000 FEW036 BKN200 26/05 Q1023@CAELT@A3021 749.9 HR26 AC FU NOSIG=@CAELT@METAR SLAL 091700Z 01007KT 8000 FEW017 19/07 Q1028 A3038 703.5 HR46@CAELT@METAR SLPO 091700Z NIL=+@CAELT@METAR SLAG 091700Z 09006KT 2000 FU SCT023 SCT200 33/15 Q1013 A2993886.1 HR33=METAR SLVM 091700Z 18005KT 9999 NSC 32/20 Q1011 A2986 HR49 FU CI=METAR SLTJ 091700Z 13010KT 7000 FEW033 26/15 Q1017 A3004 812.6 HR49METAR SLYA 091700Z 21006KT 9999 NSC 30/19 Q1012 A2989 937.0 HR52=METAR SLBJ 091700Z NIL=METAR SLHI 091700Z NIL=
ZPX0536 091750@CAELT@GG SLZZYMYT@CAELT@091656 SLETYMYC@CAELT@SABO SLET 091800@CAELT@METAR SLET 091800Z 32013G28KT 4000 FU SCT015 BKN020 BKN200 28/20@CAELT@Q1012 A2989 HR64 NOSIG=@CAELT@
ZPX0538 091753@CAELT@GG SLZZYMYT@CAELT@091752 SLPSYGYS@CAELT@SABO SLPS 091800@CAELT@METAR SLPS 091800Z 36010KT 9999 FEW020 BKN200 37/24 Q1009 A2980 HR47@CAELT@
ZPX0539 091754@CAELT@GG SLZZYMYT@CAELT@091753 SLCAYGYS@CAELT@SABO SLCA 091800@CAELT@METAR SLCA 091800Z 00000KT 5000 FU BKN033 25/12 Q1011 A2985 HR25 RWY@CAELT@NML=@CAELT@
ZPX0540 091755@CAELT@GG SLZZYMYT@CAELT@091755 SLORYGYZ@CAELT@SABO SLOR 091800@CAELT@METAR SLOR 091800Z 35003KT 9999 FEW023 21/04 Q1034 A3053 655.2 HR33=@CAELT@
ZPX0541 091755@CAELT@GG SLZZYMYT@CAELT@091755 SLRQYSYX@CAELT@SABO SLRQ 091800@CAELT@METAR SLRQ 091800Z 00000KT 5000 FU SCT020 BKN200 34/26 Q1009 A2982@CAELT@985.7 HR63=@CAELT@
ZPX0542 091755@CAELT@GG SLZZYMYT@CAELT@091753 SLSBYSYX@CAELT@SABO SLSB 091800@CAELT@METAR SLSB 091800Z 12008KT 5000 FU VCSH BKN017 FEW020CB OVC200 29/25@CAELT@Q1011 A2988 HR80 CB/SH N NE RWY NML=@CAELT@
ZPX0543 091755@CAELT@GG SLZZYMYT@CAELT@091754 SLSBYSYX@CAELT@SABO SLSB 091800@CAELT@METAR SLSB 091800Z 12008KT 5000 FU VCSH BKN017 FEW020CB OVC200 29/25@CAELT@Q1011 A2988 HR80 CB/SH N NE RWY NML=@CAELT@
ZPX0544 091755@CAELT@GG SLZZYMYT@CAELT@091756 SLVRYGYZ@CAELT@SABO SLVR 091800@CAELT@METAR SLVR 091800Z 33011G21KT 5000 FU FEW015 SCT020 BKN200 29/22@CAELT@Q1012 A2991 HR65 NOSIG=@CAELT@
ZPX0545 091755@CAELT@GG SLZZYMYT@CAELT@091755 SLTJYGYZ@CAELT@SABO SLTJ 091800@CAELT@METAR SLTJ 091800Z 14014KT 7000 FEW033 27/15 Q1015 A3000 811.4 HR48@CAELT@
ZPX0546 091756@CAELT@GG SLZZYMYT@CAELT@091756 SLLPYFYA@CAELT@SABO SLRY 091800@CAELT@METAR SLRY 091800Z 36005KT 5000 FU SCT020 BKN200 34/23 Q1010 A2983@CAELT@HR54 RWY NML=@CAELT@
ZPX0547 091756@CAELT@GG SLZZYMYT@CAELT@091755 SLSAYGYS@CAELT@SABO SLSA 091800@CAELT@METAR SLSA 091800Z 34006KT 7000 SCT017 FEW023CB BKN200 30/25@CAELT@Q1010 A2983 HR71 FU CB SW=@CAELT@
ZPX0548 091756@CAELT@GG SLZZYMYT@CAELT@091756 SLLPYGYZ@CAELT@SABO SLLP 091800@CAELT@METAR SLLP 091800Z 09009KT 020V150 9999 SCT020 FEW023CB 18/M02@CAELT@Q1036 A3060 626.8 HR26 P0784 CB N/W FU AC/CI NOSIG=@CAELT@
ZPX0550 091757@CAELT@GG SLZZYMYT@CAELT@091755 SLAGYSYX@CAELT@SABO SLAG 091800@CAELT@METAR SLAG 091800Z 09010KT 2000 FU SCT023 SCT200 33/15 Q1012 A2989@CAELT@884.9 HR35=@CAELT@
ZPX0551 091757@CAELT@GG SLZZYMYT@CAELT@091757 SLRBYGYS@CAELT@SABO SLRB 0961800@CAELT@METAR SLRB 091800Z 36015KT 9999 FEW020 BKN200 35/21 Q1013 A2991 HR44@CAELT@RWY NML=@CAELT@
ZPX0552 091758@CAELT@GG SLZZYMYT@CAELT@091757 SLTRYGYZ@CAELT@SABO SLTR 091800@CAELT@METAR SLTR 091800Z 00000KT 8000 VCSH SCT015 FEW020CB BKN200 31/23@CAELT@Q1011 A2986 992.5 HR63 FU CB/SH SW/W/NW NOSIG=@CAELT@
ZPX0554 091758@CAELT@GG SLZZYMYT@CAELT@091758 SLVRYGYS@CAELT@SABO SLVR 091800@CAELT@METAR SLVR 091800Z 33011G21KT 5000 FU FEW015 SCT020 BKN200 29/22@CAELT@Q1012 A2991 HR65 NOSIG=@CAELT@METAR SLET 091800Z 32013G28KT 4000 FU SCT015 BKN020 BKN200 28/20@CAELT@Q1012 A2989 HR64 NOSIG=@CAELT@METAR SLAS 091800Z 36010KT 9999 NSC 31/21 Q1014 A2994 HR57 FU RWY NMLMETAR SLJV 091800Z 00000KT 4000 FU SCT070 OVC200 28/21 Q1012 A2988HR65 RWY NML=METAR SLCP 091800Z 35010KT 9999 BKN017 OVC200 29/21 Q1015 A2997 HR61FU RWY NML=METAR SLSI 091800Z 36010KT 9999 SCT017 BKN070 30/21 Q1012 A2988 HR58RWY NML=METAR SLTI 091800Z 36012KT 9999 FEW017 BKN200 35/20 Q1014 A2994 HR42METAR SLJE 091800Z 36008KT 9999 SCT020 OVC200 33/22 Q1015 A2997 HR54METAR SLVG 091800Z 36007KT 9999 SCT025 BKN200 26/13 Q1022 A3018 HR40METAR SLRB 091800Z 36015KT 9999 FEW020 BKN200 35/21 Q1013 A2991 HR44METAR SLPS 091800Z 36010KT 9999 FEW020 BKN200 37/24 Q1009 A2980 HR47METAR SLCA 091800Z 00000KT 5000 FU BKN033 25/12 Q1011 A2985 HR25 RWYNML=
ZPX0555 091758@CAELT@GG SLZZYMYT@CAELT@091758 SLCBYGYZ@CAELT@SABO SLCB 091800@CAELT@METAR SLCB 091800Z 04012KT 320V100 9000 FEW036 FEW040CB BKN200 26/04@CAELT@Q1022 A3018 749.1 HR25 CB/W FU AC NOSIG=@CAELT@
ZPX0556 091759@CAELT@GG SLZZYMYT@CAELT@091759 SLTRYGYS@CAELT@SABO SLTR 091800@CAELT@METAR SLTR 091800Z 00000KT 8000 VCSH SCT015 FEW020CB BKN200 31/23@CAELT@Q1011 A2986 992.5 HR63 FU CB/SH SW/W/NW NOSIG=@CAELT@METAR SLGM 091800Z 03015KT 9999 SCT017 FEW020CB BKN080 33/23 Q1011@CAELT@A2986 HR58 CB N/E=@CAELT@METAR SLRI 091800Z 03004KT 8000 VCSH SCT017 FEW020CB BKN080 31/23Q1011 A2988 HR61 CB/SH NW=METAR SLJO 091800Z NIL=METAR SLRA 091800Z 09008KT 9999 FEW020 BKN200 33/22 Q1011 A2986 HR53RWY NML=METAR SLMG 091800Z 32006KT 9999 SCT017 BKN200 31/24 Q1011 A2986 HR64METAR SLBU 091800Z 03004KT 9999 FEW017 SCT080 BKN200 30/24 Q1011A2986 HR70 RWY NML=METAR SLSA 091800Z 34006KT 7000 SCT017 FEW023CB BKN200 30/25 Q1010A2983 HR71 FU CB SW=METAR SLSR 091800Z 34010KT 8000 VCSH SCT017 FEW023CB BKN200 33/24Q1009 A2981 HR60 FU CB/SH SE/S RWY NML=METAR SLSM 091800Z 18004KT 3000 -TSRA BKN008 FEW020CB OVC070 23/23Q1012 A2991 HR100 CB E/S/SW/W TS SW RWY WET INOP=
ZPX0559 091801@CAELT@GG SLZZYMYT@CAELT@091801 SLLPYFYA@CAELT@SABO SLLP 091800@CAELT@METAR SLLP 091800Z 09009KT 020V150 9999 SCT020 FEW023CB 18/M02@CAELT@Q1036 A3060 626.8 HR26 P0784 CB N/W FU AC/CI NOSIG=@CAELT@METAR SLRY 091800Z 36005KT 5000 FU SCT020 BKN200 34/23 Q1010 A2983@CAELT@HR54 RWY NML=@CAELT@METAR SLRQ 091800Z 00000KT 5000 FU SCT020 BKN200 34/26 Q1009 A2982985.7 HR63=METAR SLSB 091800Z 12008KT 5000 FU VCSH BKN017 FEW020CB OVC200 29/25Q1011 A2988 HR80 CB/SH N NE RWY NML=METAR SLOR 091800Z 35003KT 9999 FEW023 21/04 Q1034 A3053 655.2 HR33=
ZPX0562 091801@CAELT@GG SLZZYMYT@CAELT@091801 SLCBYGYS@CAELT@SABO SLCB 091800 CCB@CAELT@METAR SLCB 091800Z 04012KT 320V100 9000 FEW036 FEW040CB BKN200 26/04@CAELT@Q1022 A3018 749.1 HR25 CB/W FU AC NOSIG=@CAELT@METAR COR SLAL 091800Z 01018KT 8000 FEW017 19/07 Q1026 A3032 702.1@CAELT@HR46 FU=@CAELT@METAR SLPO 091800Z NIL=METAR SLAG 091800Z 09010KT 2000 FU SCT023 SCT200 33/15 Q1012 A2989884.9 HR35=METAR SLVM 091800Z 18008KT 9999 NSC 34/21 Q1009 A2982 HR48 FU CI=METAR SLTJ 091800Z 14014KT 7000 FEW033 27/15 Q1015 A3000 811.4 HR48METAR SLYA 091800Z 21005KT 9999 BKN023 30/19 Q1011 A2987 936.2 HR51METAR SLBJ 091800Z NIL=METAR SLHI 091800Z NIL=
ZPX0573 091835@CAELT@GG SLZZYMYT@CAELT@091835 SLVRYGYS@CAELT@SABO SLVR 091800 CCA@CAELT@METAR SLVR 091800Z 33011G21KT 5000 FU FEW015 SCT020 BKN200 29/22@CAELT@Q1012 A2991 HR65 NOSIG=@CAELT@METAR SLET 091800Z 32013G28KT 4000 FU SCT015 BKN020 BKN200 28/20@CAELT@Q1012 A2989 HR64 NOSIG=@CAELT@METAR SLAS 091800Z 36010KT 9999 NSC 31/21 Q1014 A2994 HR57 FU RWY NMLMETAR SLJV 091800Z 00000KT 4000 FU SCT070 OVC200 28/21 Q1012 A2988HR65 RWY NML=METAR SLCP 091800Z 35010KT 9999 BKN017 OVC200 29/21 Q1015 A2997 HR61FU RWY NML=METAR SLSI 091800Z 36010KT 9999 SCT017 BKN070 30/21 Q1012 A2988 HR58RWY NML=METAR SLTI 091800Z 36012KT 9999 FEW017 BKN200 35/20 Q1014 A2994 HR42METAR SLJE 091800Z 36008KT 9999 SCT020 OVC200 33/22 Q1015 A2997 HR54METAR SLVG 091800Z 36007KT 9999 SCT025 BKN200 26/13 Q1022 A3018 HR40METAR SLRB 091800Z 36015KT 9999 FEW020 BKN200 35/21 Q1013 A2991 HR44METAR SLPS 091800Z 36010KT 9999 FEW020 BKN200 37/24 Q1009 A2980 HR47METAR COR SLCA 091800Z 00000KT 5000 FU BKN033 35/12 Q1011 A2985 HR25
ZPX0579 091850@CAELT@GG SLZZYMYT@CAELT@091840 SLETYMYC@CAELT@SABO SLET 091900@CAELT@METAR SLET 091900Z 31019G32KT 5000 FU FEW015 SCT020 BKN200 30/20@CAELT@Q1010 A2983 HR56 NOSIG=@CAELT@
ZPX0582 091853@CAELT@GG SLZZYMYT@CAELT@091853 SLRBYGYS@CAELT@SABO SLRB 091900@CAELT@METAR SLRB 091900Z 36015KT 9999 FEW020 BKN200 35/21 Q1012 A2988 HR44@CAELT@RWY NML=@CAELT@
ZPX0583 091853@CAELT@GG SLZZYMYT@CAELT@091853 SLPSYGYS@CAELT@SABO SLPS 091900@CAELT@METAR SLPS 091900Z 36008KT 9999 SCT020 BKN200 36/24 Q1008 A2977 HR49@CAELT@
ZPX0586 091854@CAELT@GG SLZZYMYT@CAELT@091854 SLLPYFYA@CAELT@SABO SLRY 091900@CAELT@METAR SLRY 091900Z 00000KT 5000 FU SCT020 BKN200 33/23 Q1008 A2979@CAELT@HR54 RWY NML=@CAELT@
ZPX0587 091854@CAELT@GG SLZZYMYT@CAELT@091854 SLTJYGYZ@CAELT@SABO SLTJ 091900@CAELT@METAR SLTJ 091900Z 13015KT 7000 TS SCT033 FEW036CB 24/15 Q1015 A2999@CAELT@811.1 HR58 CB TS SW FU AC=@CAELT@
ZPX0589 091855@CAELT@GG SLZZYMYT@CAELT@091854 SLSAYGYS@CAELT@SABO SLSA 091900@CAELT@METAR SLSA 091900Z 34005KT 8000 VCSH SCT017 FEW023CB BKN200 31/24@CAELT@Q1008 A2979 HR67 FU CB/SH N/SW/W=@CAELT@
ZPX0590 091855@CAELT@GG SLZZYMYT@CAELT@091856 SLVRYGYZ@CAELT@SABO SLVR 091900@CAELT@METAR SLVR 091900Z 35014G24KT 5000 FU FEW015 SCT020 BKN200 30/22@CAELT@Q1010 A2985 HR59 NOSIG=@CAELT@
ZPX0592 091856@CAELT@GG SLZZYMYT@CAELT@091856 SLCAYGYS@CAELT@SABO SLCA 091900@CAELT@METAR SLCA 091900Z 00000KT 5000 FU BKN033 34/15 Q1010 A2983 HR31 RWY@CAELT@NML=@CAELT@
ZPX0593 091856@CAELT@GG SLZZYMYT@CAELT@091856 SLLPYGYZ@CAELT@SABO SLLP 091900@CAELT@METAR SLLP 091900Z 11007KT 080V150 9999 SCT020 FEW023CB SCT200@CAELT@18/M04 Q1034 A3056 625.9 HR22 P4754 CB/SH N/NW FU AC NOSIG=@CAELT@
ZPX0594 091856@CAELT@GG SLZZYMYT@CAELT@091855 SLCBYGYZ@CAELT@SABO SLCB 091900@CAELT@METAR SLCB 091900Z 09013KT 040V200 9000 FEW036 FEW040CB BKN200 25/04@CAELT@Q1020 A3014 748.0 HR25 CB/W FU AC NOSIG=@CAELT@
ZPX0595 091856@CAELT@GG SLZZYMYT@CAELT@091855 SLAGYSYX@CAELT@SABO SLAG 091900@CAELT@METAR SLAG 091900Z 06010KT 2000 FU SCT025 BKN200 34/15 Q1011 A2987@CAELT@884.3 HR31=@CAELT@
ZPX0596 091858@CAELT@GG SLZZYMYT@CAELT@091857 SLRQYSYX@CAELT@SABO SLRQ 091900@CAELT@METAR SLRQ 091900Z 00000KT 5000 FU SCT020 BKN200 33/25 Q1008 A2979@CAELT@984.7 HR62=@CAELT@
ZPX0597 091858@CAELT@GG SLZZYMYT@CAELT@091857 SLSBYSYX@CAELT@SABO SLSB 091900@CAELT@METAR SLSB 091900Z 10010KT 5000 FU VCSH SCT017 FEW020CB OVC200 26/24@CAELT@Q1010 A2985 HR82 CB/SH N NE RWY NML=@CAELT@
ZPX0598 091859@CAELT@GG SLZZYMYT@CAELT@091858 SLTRYGYZ@CAELT@SABO SLTR 091900@CAELT@METAR SLTR 091900Z 24007KT 7000 VCSH SCT015 FEW020CB BKN070 OVC200@CAELT@26/24 Q1010 A2984 991.9 HR87 RESHRA CB/SH N/NE/E/NW TEMPO TSRA=@CAELT@
ZPX0600 091859@CAELT@GG SLZZYMYT@CAELT@091859 SLTRYGYS@CAELT@SABO SLTR 091900@CAELT@METAR SLTR 091900Z 24007KT 7000 VCSH SCT015 FEW020CB BKN070 OVC200@CAELT@26/24 Q1010 A2984 991.9 HR87 RESHRA CB/SH N/NE/E/NW TEMPO TSRA=@CAELT@METAR SLGM 091900Z 35018KT 7000 VCSH BKN017 FEW020CB BKN080 33/23@CAELT@Q1008 A2979 HR56 CB/SH N/NE/E=@CAELT@METAR SLRI 091900Z 04006KT 8000 VCSH SCT017 FEW020CB BKN200 32/22Q1009 A2981 HR55 CB/SH NE/NW=METAR SLJO 091900Z NIL=METAR SLRA 091900Z 09012KT 9999 FEW020 SCT080 BKN200 34/22 Q1009A2982 HR50 RWY NML=METAR SLMG 091900Z 32006KT 9999 SCT017 BKN200 32/23 Q1009 A2982 HR60RWY NML=METAR SLBU 091900Z 00000KT 9999 FEW017 SCT080 BKN200 30/24 Q1010A2983 HR71 RWY NML=METAR SLSA 091900Z 34005KT 8000 VCSH SCT017 FEW023CB BKN200 31/24Q1008 A2979 HR67 FU CB/SH N/SW/W=METAR SLSR 091900Z 34010KT 6000 TS VCSH SCT015 FEW023CB OVC200 32/24Q1008 A2977 HR61 FU CB/SH SE/S/SW TS SW RWY NML=METAR SLSM 091900Z 00000KT 7000 VCSH FEW008 SCT015 FEW020CB OVC07024/24 Q1010 A2984 HR98 RERA CB/SH N/NW TS NW RWY WET INOP=
ZPX0601 091900@CAELT@GG SLZZYMYT@CAELT@091859 SLCBYGYS@CAELT@SABO SLCB 091900@CAELT@METAR SLCB 091900Z 09013KT 040V200 9000 FEW036 FEW040CB BKN200 25/04@CAELT@Q1020 A3014 748.0 HR25 CB/W FU AC NOSIG=@CAELT@METAR SLAL 091900Z 02018KT 8000 FEW020 FEW033CB 21/06 Q1026 A3030@CAELT@701.6 HR40 CB/SW FU=@CAELT@METAR SLPO 091900Z NIL=METAR SLAG 091900Z 06010KT 2000 FU SCT025 BKN200 34/15 Q1011 A2987884.3 HR31=METAR SLVM 091900Z NIL=METAR SLTJ 091900Z 13015KT 7000 TS SCT033 FEW036CB 24/15 Q1015 A2999811.1 HR58 CB TS SW FU AC=METAR SLYA 091900Z 21005KT 9999 SCT023 BKN070 28/18 Q1011 A2986 936.0HR56=METAR SLBJ 091900Z NIL=METAR SLHI 091900Z NIL=
ZPX0602 091900@CAELT@GG SLZZYMYT@CAELT@091900 SLVRYGYS@CAELT@SABO SLVR 091900@CAELT@METAR SLVR 091900Z 35014G24KT 5000 FU FEW015 SCT020 BKN200 30/22@CAELT@Q1010 A2985 HR59 NOSIG=@CAELT@METAR SLET 091900Z 31019G32KT 5000 FU FEW015 SCT020 BKN200 30/20@CAELT@Q1010 A2983 HR56 NOSIG=@CAELT@METAR SLAS 091900Z 00000KT 9999 SCT020 OVC200 30/22 Q1013 A2991 HR60FU RWY NML=METAR SLJV 091900Z 34008KT 5000 FU SCT070 OVC200 28/21 Q1011 A2985HR68 RWY NML=METAR SLCP 091900Z 36010KT 9999 SCT017 BKN070 OVC200 29/21 Q1014A2994 HR61 FU RWY NML=METAR SLSI 091900Z 36010KT 9999 SCT017 BKN070 30/22 Q1011 A2985 HR61RWY NML=METAR SLTI 091900Z 35015KT 9999 FEW017 BKN200 34/19 Q1012 A2988 HR41METAR SLJE 091900Z 36010KT 9999 SCT020 OVC200 32/22 Q1013 A2991 HR55METAR SLVG 091900Z 36010KT 9999 SCT025 BKN200 26/13 Q1021 A3015 HR40METAR SLRB 091900Z 36015KT 9999 FEW020 BKN200 35/21 Q1012 A2988 HR44METAR SLPS 091900Z 36008KT 9999 SCT020 BKN200 36/24 Q1008 A2977 HR49METAR SLCA 091900Z 00000KT 5000 FU BKN033 34/15 Q1010 A2983 HR31 RWYNML=
ZPX0604 091901@CAELT@GG SLZZYMYT@CAELT@091901 SLLPYFYA@CAELT@SABO SLLP 091900@CAELT@METAR SLLP 091900Z 11007KT 080V150 9999 SCT020 FEW023CB SCT200@CAELT@18/M04 Q1034 A3056 625.9 HR22 P4754 CB/SH N/NW FU AC NOSIG=@CAELT@METAR SLRY 091900Z 00000KT 5000 FU SCT020 BKN200 33/23 Q1008 A2979@CAELT@HR54 RWY NML=@CAELT@METAR SLRQ 091900Z 00000KT 5000 FU SCT020 BKN200 33/25 Q1008 A2979984.7 HR62=METAR SLSB 091900Z 10010KT 5000 FU VCSH SCT017 FEW020CB OVC200 26/24Q1010 A2985 HR82 CB/SH N NE RWY NML=
ZPX0633 091951@CAELT@GG SLZZYMYT@CAELT@091951 SLPSYGYS@CAELT@SABO SLPS 092000@CAELT@METAR SLPS 092000Z 09008KT 9999 SCT020 FEW030CB BKN200 35/24 Q1007@CAELT@A2974 HR56 FU CB/E/SE=@CAELT@
ZPX0636 091953@CAELT@GG SLZZYMYT@CAELT@091953 SLETYMYC@CAELT@SABO SLET 092000@CAELT@METAR SLET 092000Z 32017G28KT 5000 FU FEW015 SCT020 BKN200 29/20@CAELT@Q1008 A2979 HR59 NOSIG=@CAELT@
ZPX0637 091954@CAELT@GG SLZZYMYT@CAELT@091953 SLRBYGYS@CAELT@SABO SLRB 092000@CAELT@METAR SLRB 092000Z 36008KT 9999 FEW020 BKN200 34/20 Q1011 A2985 HR43@CAELT@RWY NML =@CAELT@
ZPX0638 091954@CAELT@GG SLZZYMYT@CAELT@091954 SLCAYGYS@CAELT@SABO SLCA 092000@CAELT@METAR SLCA 092000Z 00000KT 5000 FU BKN033 33/15 Q1009 A2980 HR34 RWY@CAELT@NML=@CAELT@
ZPX0639 091954@CAELT@GG SLZZYMYT@CAELT@091955 SLVRYGYZ@CAELT@SABO SLVR 092000@CAELT@METAR SLVR 092000Z 33015G25KT 6000 FEW015 SCT020 BKN200 30/20 Q1009@CAELT@A2982 HR56 FU NOSIG=@CAELT@
ZPX0640 091955@CAELT@GG SLZZYMYT@CAELT@091954 SLSBYSYX@CAELT@SABO SLSB 092000@CAELT@METAR SLSB 092000Z 00000KT 5000 TS VCSH SCT023 FEW025CB OVC200 25/23@CAELT@Q1008 A2979 HR87 FU TS/CB/SH N NE E RWY NML=@CAELT@
ZPX0642 091955@CAELT@GG SLZZYMYT@CAELT@091955 SLTJYGYZ@CAELT@SABO SLTJ 092000@CAELT@METAR SLTJ 092000Z 13015KT 7000 BKN033 FEW036CB 21/14 Q1015 A2999 811@CAELT@.3 HR65 CB S FU AC=@CAELT@
ZPX0643 091955@CAELT@GG SLZZYMYT@CAELT@091955 SLLPYGYZ@CAELT@SABO SLLP 092000@CAELT@METAR SLLP 092000Z 04014KT 8000 VCTSSH SCT020 FEW023CB SCT200 17/00@CAELT@Q1034 A3054 625.4 HR33 P97// CB N/NE/E/SE TS/E FU AC NOSIG=@CAELT@
ZPX0644 091955@CAELT@GG SLZZYMYT@CAELT@091955 SLTRYGYZ@CAELT@SABO SLTR 092000@CAELT@METAR SLTR 092000Z 34005KT 7000 TS VCSH SCT015 FEW020CB BKN070 OVC070@CAELT@25/23 Q1009 A2982 991.2 HR89 RESHRA CB/SH N/NE/E/NW TS N TEMPO TSRA=@CAELT@
ZPX0645 091956@CAELT@GG SLZZYMYT@CAELT@091956 SLLPYFYA@CAELT@SABO SLRY 092000@CAELT@METAR SLRY 092000Z 12008KT 4000 FU SCT020 FEW025CB BKN200 29/23 Q1008@CAELT@A2978 HR70 RWY NML=@CAELT@
ZPX0646 091956@CAELT@GG SLZZYMYT@CAELT@091955 SLRQYSYX@CAELT@SABO SLRQ 092000@CAELT@METAR SLRQ 092000Z 09010KT 5000 FU SCT020 FEW023CB OVC200 32/25 Q1008@CAELT@A2976 983.9 HR67 CB E/SE=@CAELT@
ZPX0647 091956@CAELT@GG SLZZYMYT@CAELT@091955 SLSAYGYS@CAELT@SABO SLSA 092000@CAELT@METAR SLSA 092000Z 19005KT 5000 TSSHRA SCT017 FEW020CB BKN200 27/24@CAELT@Q1009 A2980 HR86 FU CB/TS ON STN/NW=@CAELT@
ZPX0648 091958@CAELT@GG SLZZYMYT@CAELT@091958 SLLPYFYA@CAELT@SABO SLLP 092000@CAELT@METAR SLLP 092000Z 04014KT 8000 VCTSSH SCT020 FEW023CB SCT200 17/00@CAELT@Q1034 A3054 625.4 HR33 P97// CB N/NE/E/SE TS/E FU AC NOSIG=@CAELT@METAR SLRY 092000Z 12008KT 4000 FU SCT020 FEW025CB BKN200 29/23 Q1008@CAELT@A2978 HR70 RWY NML=@CAELT@METAR SLRQ 092000Z 09010KT 5000 FU SCT020 FEW023CB OVC200 32/25 Q1008A2976 983.9 HR67 CB E/SE=METAR SLSB 092000Z 00000KT 5000 TS VCSH SCT023 FEW025CB OVC200 25/23Q1008 A2979 HR87 FU TS/CB/SH N NE E RWY NML=
ZPX0649 091958@CAELT@GG SLZZYMYT@CAELT@091957 SLCBYGYZ@CAELT@SABO SLCB 092000@CAELT@METAR SLCB 092000Z 09008KT 020V160 9000 FEW036 BKN200 26/01 Q1019@CAELT@A3011 747.1 HR20 FU AC NOSIG=@CAELT@
ZPX0650 091959@CAELT@GG SLZZYMYT@CAELT@091957 SLTRYGYS@CAELT@SABO SLTR 092000@CAELT@METAR SLTR 092000Z 34005KT 7000 TS VCSH SCT015 FEW020CB BKN070 OVC070@CAELT@25/23 Q1009 A2982 991.2 HR89 RESHRA CB/SH N/NE/E/NW TS N TEMPO TSRA=@CAELT@METAR SLGM 092000Z 35015KT 7000 TS VCSH BKN017 FEW020CB BKN200 29/24@CAELT@Q1008 A2977 HR72 RESHRA CB/SH N/NE/SE/SW TS SW=@CAELT@METAR SLRI 092000Z 03006KT 8000 VCSH SCT017 FEW020CB BKN200 32/23Q1008 A2977 HR60 CB/SH N/NE=METAR SLJO 092000Z NIL=METAR SLRA 092000Z 09008KT 8000 VCSH SCT017 FEW023CB BKN200 33/22Q1007 A2976 HR52 CB/SH SW RWY NML=METAR SLMG 092000Z 32004KT 9999 SCT017 BKN200 32/24 Q1008 A2979 HR63RWY NML=METAR SLBU 092000Z 00000KT 9999 SCT080 BKN200 30/24 Q1009 A2981 HR70METAR SLSA 092000Z 19005KT 5000 TSSHRA SCT017 FEW020CB BKN200 27/24Q1009 A2980 HR86 FU CB/TS ON STN/NW=METAR SLSR 092000Z 29008KT 8000 -TSRA SCT015 FEW023CB OVC200 29/23Q1007 A2976 HR68 CB N/NE/E/SE TS NE RWY WET OPR C206=METAR SLSM 092000Z 00000KT 6000 VCSH SCT015 FEW020CB OVC070 23/23Q1009 A2980 HR98 RETS CB/SH SE/W/NW RWY WET INOP=
ZPX0651 091959@CAELT@GG SLZZYMYT@CAELT@091959 SLVRYGYS@CAELT@SABO SLVR 092000@CAELT@METAR SLVR 092000Z 33015G25KT 6000 FEW015 SCT020 BKN200 30/20 Q1009@CAELT@A2982 HR56 FU NOSIG=@CAELT@METAR SLET 092000Z 32017G28KT 5000 FU FEW015 SCT020 BKN200 29/20@CAELT@Q1008 A2979 HR59 NOSIG=@CAELT@METAR SLAS 092000Z 00000KT 9999 FEW020 OVC200 31/22 Q1011 A2986 HR58FU RWY NML=METAR SLJV 092000Z 34008KT 7000 SCT070 BKN200 28/21 Q1010 A2983 HR69METAR SLCP 092000Z 35010KT 9999 FEW017 BKN070 OVC200 29/21 Q1013A2991 HR63 FU RWY NML=METAR SLSI 092000Z 33010KT 9999 SCT017 BKN070 29/22 Q1010 A2983 HR68RWY NML=METAR SLTI 092000Z 35015KT 9999 NSC 36/19 Q1011 A2985 HR37 RWY NML=METAR SLJE 092000Z 36006KT 9999 SCT020 OVC200 31/22 Q1012 A2988 HR58METAR SLVG 092000Z 02008KT 9999 FEW025 BKN200 24/13 Q1021 A3015 HR46METAR SLRB 092000Z 36008KT 9999 FEW020 BKN200 34/20 Q1011 A2985 HR43METAR SLPS 092000Z 09008KT 9999 SCT020 FEW030CB BKN200 35/24 Q1007A2974 HR56 FU CB E/SE=METAR SLCA 092000Z 00000KT 5000 FU BKN033 33/15 Q1009 A2980 HR34 RWYNML=
ZPX0652 092000@CAELT@GG SLZZYMYT@CAELT@091959 SLCBYGYS@CAELT@SABO SLCB 092000@CAELT@METAR SLCB 092000Z 09008KT 020V160 9000 FEW036 BKN200 26/01 Q1019@CAELT@A3011 747.1 HR20 FU AC NOSIG=@CAELT@METAR SLAL 092000Z 35016KT 7000 FEW020 SCT200 20/07 Q1024 A3026 700.7@CAELT@HR45 FU=@CAELT@METAR SLPO 092000Z NIL=METAR SLAG 092000Z NIL=METAR SLVM 092000Z NIL=METAR SLTJ 092000Z 13015KT 7000 BKN033 FEW036CB 21/14 Q1015 A2999811.3 HR65 CB S FU AC=METAR SLYA 092000Z 21005KT 9999 SCT023 BKN070 27/18 Q1010 A2984 935.3HR58 FU=METAR SLBJ 092000Z NIL=METAR SLHI 092000Z NIL=
ZPX0654 092003@CAELT@GG SLZZYMYT@CAELT@092002 SLTRYGYZ@CAELT@SABO SLTR 092000 CCA@CAELT@METAR COR SLTR 092000Z 34005KT 7000 TS VCSH SCT015 FEW020CB BKN070@CAELT@OVC200 25/23 Q1009 A2982 991.2 HR89 RESHRA CB/SH N/NE/E/NW TS N@CAELT@TEMPO TSRA=@CAELT@
ZPX0655 092004@CAELT@GG SLZZYMYT@CAELT@092003 SLTRYGYS@CAELT@SABO SLTR 092000 CCA@CAELT@METAR COR SLTR 092000Z 34005KT 7000 TS VCSH SCT015 FEW020CB BKN070@CAELT@OVC200 25/23 Q1009 A2982 991.2 HR89 RESHRA CB/SH N/NE/E/NW TS N@CAELT@TEMPO TSRA=@CAELT@METAR SLGM 092000Z 35015KT 7000 TS VCSH BKN017 FEW020CB BKN200 29/24@CAELT@Q1008 A2977 HR72 RESHRA CB/SH N/NE/SE/SW TS SW=METAR SLRI 092000Z 03006KT 8000 VCSH SCT017 FEW020CB BKN200 32/23Q1008 A2977 HR60 CB/SH N/NE=METAR SLJO 092000Z NIL=METAR SLRA 092000Z 09008KT 8000 VCSH SCT017 FEW023CB BKN200 33/22Q1007 A2976 HR52 CB/SH SW RWY NML=METAR SLMG 092000Z 32004KT 9999 SCT017 BKN200 32/24 Q1008 A2979 HR63RWY NML=METAR SLBU 092000Z 00000KT 9999 SCT080 BKN200 30/24 Q1009 A2981 HR70METAR SLSA 092000Z 19005KT 5000 TSSHRA SCT017 FEW020CB BKN200 27/24Q1009 A2980 HR86 FU CB/TS ON STN/NW=METAR SLSR 092000Z 29008KT 8000 -TSRA SCT015 FEW023CB OVC200 29/23Q1007 A2976 HR68 CB N/NE/E/SE TS NE RWY WET OPR C206=METAR SLSM 092000Z 00000KT 6000 VCSH SCT015 FEW020CB OVC070 23/23Q1009 A2980 HR98 RETS CB/SH SE/W/NW RWY WET INOP=
ZPX0682 092051@CAELT@GG SLZZYMYT@CAELT@091955 SLETYMYC@CAELT@SABO SLET 092100@CAELT@METAR SLET 092100Z 31011G23KT 5000 FU FEW015 SCT020 BKN200 28/21@CAELT@Q1008 A2977 HR64 NOSIG=@CAELT@
ZPX0686 092052@CAELT@GG SLZZYMYT@CAELT@092052 SLPSYGYS@CAELT@SABO SLPS 092100@CAELT@METAR SLPS 092100Z 09006KT 9999 SCT020 FEW030CB BKN200 32/24 Q1007@CAELT@A2974 HR62 FU CB/N/E/W=@CAELT@
ZPX0689 092054@CAELT@GG SLZZYMYT@CAELT@092054 SLSBYSYX@CAELT@SABO SLSB 092100@CAELT@METAR SLSB 092100Z 03004KT 5000 FU VCSH SCT023 FEW025CB OVC200 25/23@CAELT@Q1008 A2979 HR91 CB/SH E SE RWY NML=@CAELT@
ZPX0690 092054@CAELT@GG SLZZYMYT@CAELT@092055 SLVRYGYZ@CAELT@SABO SLVR 092100@CAELT@METAR SLVR 092100Z 33010G20KT 6000 FEW015 SCT017 BKN200 29/20 Q1008@CAELT@A2979 HR58 FU NOSIG=@CAELT@
ZPX0693 092055@CAELT@GG SLZZYMYT@CAELT@092054 SLRBYGYS@CAELT@SABO SLRB 092100@CAELT@METAR SLRB 092100Z 36006KT 9999 FEW020 BKN200 33/20 Q1010 A2983 HR47@CAELT@RWY NML=@CAELT@
ZPX0694 092056@CAELT@GG SLZZYMYT@CAELT@092055 SLCAYGYS@CAELT@SABO SLCA 092100@CAELT@METAR SLCA 092100Z 00000KT 5000 FU SCT033 OVC070 33/17 Q1009 A2980@CAELT@HR39 RWY NML=@CAELT@
ZPX0695 092056@CAELT@GG SLZZYMYT@CAELT@092056 SLTRYGYZ@CAELT@SABO SLTR 092100@CAELT@METAR SLTR 092100Z 00000KT 8000 VCSH FEW017 FEW020CB BKN070 OVC200@CAELT@25/23 Q1008 A2978 990.0 HR87 RETS CB/SH W/NW NOSIG=@CAELT@
ZPX0696 092056@CAELT@GG SLZZYMYT@CAELT@092056 SLLPYGYZ@CAELT@SABO SLLP 092100@CAELT@METAR SLLP 092100Z 09016KT 8000 VCSH SCT020 FEW023CB BKN200 13/01@CAELT@Q1034 A3054 625.5 HR45 P1487 CB/SH N/E/SE/SW FU AC RETS NOSIG=@CAELT@
ZPX0697 092056@CAELT@GG SLZZYMYT@CAELT@092055 SLRQYSYX@CAELT@SABO SLRQ 092100@CAELT@METAR SLRQ 092100Z 11006KT 5000 FU SCT020 OVC200 28/23 Q1007 A2975@CAELT@983.4 HR75 AC=@CAELT@
ZPX0698 092056@CAELT@GG SLZZYMYT@CAELT@092056 SLCBYGYZ@CAELT@SABO SLCB 092100@CAELT@METAR SLCB 092100Z 12007KT 9999 FEW036 BKN200 26/00 Q1019 A3009 746.7@CAELT@HR18 FU AC NOSIG=@CAELT@
ZPX0699 092057@CAELT@GG SLZZYMYT@CAELT@092057 SLLPYFYA@CAELT@SABO SLRY 092100@CAELT@METAR SLRY 092100Z 14005KT 4000 FU FEW020 BKN200 28/23 Q1007 A2976@CAELT@HR72 RWY NML=@CAELT@
ZPX0700 092057@CAELT@GG SLZZYMYT@CAELT@092055 SLSAYGYS@CAELT@SABO SLSA 092100@CAELT@METAR SLSA 092100Z 16006KT 6000 -TSRA BKN017 FEW020CB BKN200 24/24@CAELT@Q1009 A2982 HR97 CB/TS SW/W=@CAELT@
ZPX0701 092058@CAELT@GG SLZZYMYT@CAELT@092058 SLTJYGYZ@CAELT@SABO SLTJ 092100@CAELT@METAR SLTJ 092100Z 17010KT 7000 SCT033 BKN070 20/14 Q1016 A3001 811.7@CAELT@HR70 FU=@CAELT@
ZPX0702 092058@CAELT@GG SLZZYMYT@CAELT@092058 SLLPYGYZ@CAELT@SABO SLLP 092100 CCA@CAELT@METAR COR SLLP 092100Z 09016KT 8000 VCSH SCT017 FEW020CB BKN200@CAELT@13/01 Q1034 A3054 625.5 HR45 P1487 CB/SH N/E/SE/SW FU AC RETS NOSIG=@CAELT@
ZPX0703 092058@CAELT@GG SLZZYMYT@CAELT@092057 SLTRYGYS@CAELT@SABO SLTR 092100@CAELT@METAR SLTR 092100Z 00000KT 8000 VCSH FEW017 FEW020CB BKN070 OVC200@CAELT@25/23 Q1008 A2978 990.0 HR87 RETS CB/SH W/NW NOSIG=@CAELT@METAR SLGM 092100Z 36010KT 6000 VCSH BKN017 FEW020CB BKN200 29/24@CAELT@Q1007 A2976 HR74 RETS CB/SSH N/NE/SE/SW=@CAELT@METAR SLRI 092100Z 03010KT 8000 VCSH SCT017 FEW020CB BKN200 31/23Q1008 A2978 HR60 CB/SH NE/SE/NW=METAR SLJO 092100Z NIL=METAR SLRA 092100Z 00000KT 7000 VCSH SCT017 FEW023CB BKN200 33/22Q1007 A2976 HR55 CB/SH SW/W RWY NML=METAR SLMG 092100Z 32004KT 9999 FEW017 BKN200 31/24 Q1008 A2979 HR67RWY NML=METAR SLBU 092100Z 00000KT 9999 SCT080 OVC200 29/24 Q1008 A2978 HR77METAR SLSA 092100Z 16006KT 6000 -TSRA BKN017 FEW020CB BKN200 24/24Q1009 A2982 HR97 CB/TS SW/W=METAR SLSR 092100Z 12015G25KT 5000 -TSRA BKN010 FEW020CB OVC070 23/23Q1008 A2977 HR97 CB N/NE/E/SE TS N/NE RWY WET INOP=METAR SLSM 092100Z 33006KT 5000 -RA BKN008 FEW020CB OVC070 23/23Q1009 A2980 HR98 CB N/NW RWY WET INOP=
ZPX0704 092058@CAELT@GG SLZZYMYT@CAELT@092058 SLVRYGYS@CAELT@SABO SLVR 092100@CAELT@METAR SLVR 092100Z 33010G20KT 6000 FEW015 SCT017 BKN200 29/20 Q1008@CAELT@A2979 HR58 FU NOSIG=@CAELT@METAR SLET 092100Z 31011G23KT 5000 FU FEW015 SCT020 BKN200 28/21@CAELT@Q1008 A2977 HR64 NOSIG=@CAELT@METAR SLAS 092100Z 00000KT 9999 NSC 30/21 Q1010 A2983 HR60 FU RWY NMLMETAR SLJV 092100Z 34005KT 7000 SCT070 BKN200 27/21 Q1009 A2980 HR72FU RWY NML=METAR SLCP 092100Z 35008KT 9999 SCT070 OVC200 28/21 Q1012 A2988 HR66METAR SLSI 092100Z 33006KT 9999 SCT017 OVC070 28/23 Q1009 A2980 HR74RWY NML=METAR SLTI 092100Z 35006KT 9999 NSC 35/19 Q1011 A2985 HR40 RWY NML=METAR SLJE 092100Z 36005KT 9999 NSC 31/22 Q1011 A2985 HR58 RWY NML=METAR SLVG 092100Z 35006KT 9999 NSC 23/11 Q1020 A3012 HR45 RWY NML=METAR SLRB 092100Z 36006KT 9999 FEW020 BKN200 33/20 Q1010 A2983 HR47METAR SLPS 092100Z 09006KT 9999 SCT020 FEW030CB BKN200 32/24 Q1007A2974 HR62 FU CB N/E/W=METAR SLCA 092100Z 00000KT 5000 FU SCT033 OVC070 33/17 Q1009 A2980HR39 RWY NML=
ZPX0707 092100@CAELT@GG SLZZYMYT@CAELT@092100 SLLPYFYA@CAELT@SABO SLLP 092100@CAELT@METAR SLLP 092100Z 09016KT 8000 VCSH SCT017 FEW020CB BKN200@CAELT@13/01 Q1034 A3054 625.5 HR45 P1487 CB/SH N/E/SE/SW FU AC RETS NOSIG=@CAELT@METAR SLRY 092100Z 14005KT 4000 FU FEW020 BKN200 28/23 Q1007 A2976@CAELT@HR72 RWY NML=@CAELT@METAR SLRQ 092100Z 11006KT 5000 FU SCT020 OVC200 28/23 Q1007 A2975983.4 HR75 AC=METAR SLSB 092100Z 03004KT 5000 FU VCSH SCT023 FEW025CB OVC200 25/23Q1008 A2979 HR91 CB/SH E SE RWY NML=
ZPX0708 092101@CAELT@GG SLZZYMYT@CAELT@092100 SLCBYGYS@CAELT@SABO SLCB 092100@CAELT@METAR SLCB 092100Z 12007KT 9999 FEW036 BKN200 26/00 Q1019 A3009 746.7@CAELT@HR18 FU AC NOSIG=@CAELT@METAR SLAL 092100Z 35010KT 7000 FEW020 FEW036CB BKN200 19/08 Q1025@CAELT@A3027 700.8 HR49 CB/S/SW/W FU=@CAELT@METAR SLPO 092100Z NIL=METAR SLAG 092100Z NIL=METAR SLVM 092100Z NIL=METAR SLTJ 092100Z 17010KT 7000 SCT033 BKN070 20/14 Q1016 A3001 811.7HR70 FU=METAR SLYA 092100Z NIL=METAR SLBJ 092100Z NIL=METAR SLHI 092100Z NIL=
ZPX0719 092150@CAELT@GG SLZZYMYT@CAELT@092142 SLETYMYC@CAELT@SABO SLET 092200@CAELT@METAR SLET 092200Z 31011G21KT 5000 FU FEW015 SCT020 BKN200 27/21@CAELT@Q1008 A2977 HR68 NOSIG=@CAELT@
ZPX0720 092154@CAELT@GG SLZZYMYT@CAELT@092153 SLPSYGYS@CAELT@SABO SLPS 092200@CAELT@METAR SLPS 092200Z 09014KT TS SCT020 FEW030CB OVC200 28/24 Q1009@CAELT@A2980 HR81 CB/TS/N/NE/E RESH=@CAELT@
ZPX0721 092154@CAELT@GG SLZZYMYT@CAELT@092155 SLRQYSYX@CAELT@SABO SLRQ 092200@CAELT@METAR SLRQ 092200Z 12006KT 5000 FU FEW020 OVC200 27/24 Q1008 A2978@CAELT@984.3 HR85 AC=@CAELT@
ZPX0722 092155@CAELT@GG SLZZYMYT@CAELT@092154 SLRBYGYS@CAELT@SABO SLRB 092200@CAELT@METAR SLRB 092200Z 00000KT 9999 FEW020 BKN200 32/21 Q1009 A2980 HR49@CAELT@RWY NML=@CAELT@
ZPX0723 092155@CAELT@GG SLZZYMYT@CAELT@092155 SLVRYGYZ@CAELT@SABO SLVR 092200@CAELT@METAR SLVR 092200Z 33010KT 6000 FEW015 BKN200 28/21 Q1008 A2979 HR66@CAELT@FU NOSIG=@CAELT@
ZPX0724 092155@CAELT@GG SLZZYMYT@CAELT@092155 SLCAYGYS@CAELT@SABO SLCA 092200@CAELT@METAR SLCA 092200Z 00000KT 5000 FU SCT033 OVC070 31/15 Q1010 A2983@CAELT@HR39 RWY NML=@CAELT@
ZPX0725 092155@CAELT@GG SLZZYMYT@CAELT@092155 SLTRYGYZ@CAELT@SABO SLTR 092200@CAELT@METAR SLTR 092200Z 00000KT 9999 FEW017 FEW020CB SCT070 OVC200 25/23@CAELT@Q1008 A2979 990.2 HR90 CB NW NOSIG=@CAELT@
ZPX0726 092155@CAELT@GG SLZZYMYT@CAELT@092155 SLVRYGYS@CAELT@SABO SLVR 092200@CAELT@METAR SLVR 092200Z 33010KT 6000 FEW015 BKN200 28/21 Q1008 A2979 HR66@CAELT@FU NOSIG=@CAELT@METAR SLET 092200Z 31011G21KT 5000 FU FEW015 SCT020 BKN200 27/21@CAELT@Q1008 A2977 HR68 NOSIG=@CAELT@METAR SLAS 092200Z 00000KT 9999 NSC 29/22 Q1010 A2983 HR70 FU RWY NMLMETAR SLJV 092200Z 00000KT 7000 NSC 26/21 Q1009 A2980 HR75 FU RWY NMLMETAR SLCP 092200Z 36005KT 9999 SCT070 OVC200 27/21 Q1012 A2988 HR72FU RWY NML=METAR SLSI 092200Z 33005KT 9999 BKN017 OVC070 27/22 Q1009 A2980 HR75RWY NML=METAR SLTI 092200Z 34006KT 9999 NSC 32/20 Q1011 A2985 HR50 RWY NML=METAR SLJE 092200Z 00000KT 9999 NSC 31/22 Q1011 A2985 HR58 RWY NML=METAR SLRB 092200Z 00000KT 9999 FEW020 BKN200 32/21 Q1009 A2980 HR49METAR SLPS 092200Z 09014KT TS SCT020 FEW030CB OVC200 28/24 Q1009A2980 HR81 CB/TS N/NE/E RESH=METAR SLCA 092200Z 00000KT 5000 FU SCT033 OVC070 31/15 Q1010 A2983HR39 RWY NML=
ZPX0727 092156@CAELT@GG SLZZYMYT@CAELT@092155 SLSBYSYX@CAELT@SABO SLSB 092200@CAELT@METAR SLSB 092200Z 00000KT 5000 FU SCT025 OVC200 24/22 Q1008 A2978@CAELT@HR90 RWY NML=@CAELT@
ZPX0728 092156@CAELT@GG SLZZYMYT@CAELT@092154 SLSAYGYS@CAELT@SABO SLSA 092200@CAELT@METAR SLSA 092200Z 00000KT 8000 VCSH SCT017 FEW020CB BKN200 23/23@CAELT@Q1008 A2979 HR95 RETSRA CB/SH SW/NW=@CAELT@
ZPX0730 092156@CAELT@GG SLZZYMYT@CAELT@092156 SLLPYGYZ@CAELT@SABO SLLP 092200@CAELT@METAR SLLP 092200Z 05016KT 020V090 9999 SCT017 FEW020CB BKN200@CAELT@11/02 Q1033 A3053 625.2 HR53 P4754 CB/SH N/NE/SW FU AC NOSIG=@CAELT@
ZPX0731 092157@CAELT@GG SLZZYMYT@CAELT@092156 SLCBYGYZ@CAELT@SABO SLCB 092200@CAELT@METAR SLCB 092200Z 09008KT 9999 FEW036 BKN200 25/01 Q1019 A3010 747.0@CAELT@HR20 FU AC NOSIG=@CAELT@
ZPX0733 092158@CAELT@GG SLZZYMYT@CAELT@092158 SLTJYGYZ@CAELT@SABO SLTJ 092200@CAELT@METAR SLTJ 092200Z 15008KT 7000 SCT033 BKN070 19/14 Q1016 A3002 811.1@CAELT@HR69 FU=@CAELT@
ZPX0734 092158@CAELT@GG SLZZYMYT@CAELT@092157 SLTRYGYS@CAELT@SABO SLTR 092200@CAELT@METAR SLTR 092200Z 00000KT 9999 FEW017 FEW020CB SCT070 OVC200 25/23@CAELT@Q1008 A2979 990.2 HR90 CB NW NOSIG=@CAELT@METAR SLGM 092200Z 04015KT 5000 VCSH BKN017 FEW020CB BKN200 28/23@CAELT@Q1008 A2977 HR79 CB/SH N/NE/SE/S/SW=@CAELT@METAR SLRI 092200Z 36008KT 8000 VCSH SCT017 FEW020CB BKN200 29/25Q1008 A2979 HR80 CB/SH E/SE/SW=METAR SLJO 092200Z NIL=METAR SLRA 092200Z 18008KT 7000 TS VCSH SCT017 FEW023CB BKN080 29/21Q1008 A2977 HR64 CB/TS/SH SE/S/SW RWY NML=METAR SLMG 092200Z 32004KT 9999 FEW017 BKN200 30/24 Q1008 A2979 HR71RWY NML=METAR SLSA 092200Z 00000KT 8000 VCSH SCT017 FEW020CB BKN200 23/23Q1008 A2979 HR95 RETSRA CB/SH SW/NW=METAR SLBU 092200Z NIL=METAR SLSR 092200Z 09008KT 7000 TS VCSH BKN010 FEW020CB OVC070 24/23Q1006 A2973 HR93 RERA CB/SH N/NE/NW TS NW RWY WET INOP=METAR SLSM 092200Z 00000KT 7000 VCSH BKN008 FEW020CB OVC070 23/23Q1008 A2979 HR98 RERA CB/SH N/NW RWY WET INOP=
ZPX0735 092159@CAELT@GG SLZZYMYT@CAELT@092158 SLCBYGYS@CAELT@SABO SLCB 092200@CAELT@METAR SLCB 092200Z 09008KT 9999 FEW036 BKN200 25/01 Q1019 A3010 747.0@CAELT@HR20 FU AC NOSIG=@CAELT@METAR SLAL 092200Z 07013KT 7000 FEW020 FEW036CB BKN200 17/09 Q1025@CAELT@A3029 701.2 HR60 CB/NE/S/SW/W FU=@CAELT@METAR SLTJ 092200Z 15008KT 7000 SCT033 BKN070 19/14 Q1016 A3002 811.1HR69 FU=
ZPX0737 092203@CAELT@GG SLZZYMYT@CAELT@092202 SLLPYFYA@CAELT@SABO SLRY 092200@CAELT@METAR SLRY 092200Z 14003KT 50000 FU SCT015 FEW025CB BKN200 27/23@CAELT@Q1008 A2977 HR79 CB N RWY NML=@CAELT@
ZPX0740 092203@CAELT@GG SLZZYMYT@CAELT@092203 SLLPYFYA@CAELT@SABO SLLP 092200@CAELT@METAR SLLP 092200Z 05016KT 020V090 9999 SCT017 FEW020CB BKN200@CAELT@11/02 Q1033 A3053 625.2 HR53 P4754 CB/SH N/NE/SW FU AC NOSIG=@CAELT@METAR SLRY 092200Z 14003KT 5000 FU SCT015 FEW025CB BKN200 27/23@CAELT@Q1008 A2977 HR79 CB N RWY NML=@CAELT@METAR SLRQ 092200Z 12006KT 5000 FU FEW020 OVC200 27/24 Q1008 A2978984.3 HR85 AC=METAR SLSB 092200Z 00000KT 5000 FU SCT025 OVC200 24/22 Q1008 A2978HR90 RWY NML=
ZPX0758 092243@CAELT@GG SLZZYMYT@CAELT@092243 SLVRYGYS@CAELT@SABO SLVR 092200 CCA@CAELT@METAR SLVR 092200Z 33010KT 6000 FEW015 BKN200 28/21 Q1008 A2979 HR66@CAELT@FU NOSIG=@CAELT@METAR SLET 092200Z 31011G21KT 5000 FU FEW015 SCT020 BKN200 27/21@CAELT@Q1008 A2977 HR68 NOSIG=@CAELT@METAR SLAS 092200Z 00000KT 9999 NSC 29/22 Q1010 A2983 HR70 FU RWY NMLMETAR SLJV 092200Z 00000KT 7000 NSC 26/21 Q1009 A2980 HR75 FU RWY NMLMETAR SLCP 092200Z 36005KT 9999 SCT070 OVC200 27/21 Q1012 A2988 HR72FU RWY NML=METAR SLSI 092200Z 33005KT 9999 BKN017 OVC070 27/22 Q1009 A2980 HR75RWY NML=METAR SLTI 092200Z 34006KT 9999 NSC 32/20 Q1011 A2985 HR50 RWY NML=METAR SLJE 092200Z 00000KT 9999 NSC 31/22 Q1011 A2985 HR58 RWY NML=METAR SLRB 092200Z 00000KT 9999 FEW020 BKN200 32/21 Q1009 A2980 HR49METAR COR SLPS 092200Z 09014KT 9999 TS SCT020 FEW030CB OVC200 28/24Q1009 A2980 HR81 CB/TS N/NE/E RESH=METAR SLCA 092200Z 00000KT 5000 FU SCT033 OVC070 31/15 Q1010 A2983HR39 RWY NML=
ZPX0760 092248@CAELT@GG SLZZYMYT@CAELT@092248 SLCAYGYS@CAELT@SABO SLCA 092300@CAELT@METAR SLCA 092300Z 00000KT 5000 FU OVC070 30/16 Q1010 A2983 HR43 RWY@CAELT@NML=@CAELT@
ZPX0763 092254@CAELT@GG SLZZYMYT@CAELT@092253 SLRBYGYS@CAELT@SABO SLRB 092300@CAELT@METAR SLRB 092300Z 00000KT 9999 FEW020 BKN200 31/21 Q1010 A2983 HR56@CAELT@RWY NML=@CAELT@
ZPX0764 092254@CAELT@GG SLZZYMYT@CAELT@092252 SLSAYGYS@CAELT@SABO SLSA 092300@CAELT@METAR SLSA 092300Z 00000KT 9999 FEW017 FEW020CB BKN200 24/23@CAELT@Q1007 A2976 HR93 CB NW=@CAELT@
ZPX0765 092255@CAELT@GG SLZZYMYT@CAELT@092255 SLTRYGYZ@CAELT@SABO SLTR 092300@CAELT@METAR SLTR 092300Z 00000KT 9999 FEW017 OVC200 25/23 Q1009 A2980@CAELT@990.6 HR92 NOSIG=@CAELT@
ZPX0766 092255@CAELT@GG SLLPZRZX@CAELT@092255 SLLPYGYZ@CAELT@SABO SLLP 092300@CAELT@METAR SLLP 092300Z 02011KT 9999 SCT017 FEW020CB BKN200 11/01 Q1034@CAELT@A3055 625.7 HR51 CB/SH N/NE/SW FU AC NOSIG=@CAELT@
ZPX0767 092255@CAELT@GG SLZZYMYT@CAELT@092255 SLSBYSYX@CAELT@SABO SLSB 092300@CAELT@METAR SLSB 092300Z 00000KT 5000 FU SCT025 OVC200 24/23 Q1008 A2978@CAELT@HR93 RWY NML=@CAELT@
ZPX0768 092256@CAELT@GG SLZZYMYT@CAELT@092255 SLTJYGYZ@CAELT@SABO SLTJ 092300@CAELT@METAR SLTJ 092300Z 17008KT 7000 BKN033 OVC070 18/13 Q1017 A3005 812.8@CAELT@HR75 FU=@CAELT@
ZPX0769 092257@CAELT@GG SLZZYMYT@CAELT@092256 SLCBYGYZ@CAELT@SABO SLCB 092300@CAELT@METAR SLCB 092300Z 20005KT 9999 FEW036 BKN200 21/06 Q1019 A3012 747.4@CAELT@HR37 FU AC NOSIG=@CAELT@
ZPX0770 092257@CAELT@GG SLZZYMYT@CAELT@092256 SLTRYGYS@CAELT@SABO SLTR 092300@CAELT@METAR SLTR 092300Z 00000KT 9999 FEW017 OVC200 25/23 Q1009 A2980@CAELT@990.6 HR92 NOSIG=@CAELT@METAR SLRI 092300Z 00000KT 8000 VCSH SCT017 FEW020CB BKN200 27/23@CAELT@Q1009 A2982 HR80 CB/SH SE/S/NW=@CAELT@METAR SLMG 092300Z 36008KT 9999 SCT017 FEW023CB OVC200 28/24 Q1009A2980 HR79 CB N/NE/NW RWY NML=METAR SLSA 092300Z 00000KT 9999 FEW017 FEW020CB BKN200 24/23Q1007 A2976 HR93 CB NW=
ZPX0771 092258@CAELT@GG SLZZYMYT@CAELT@092258 SLLPYFYA@CAELT@SABO SLLP 092300@CAELT@METAR SLLP 092300Z 02011KT 9999 SCT017 FEW020CB BKN200 11/01 Q1034@CAELT@A3055 625.7 HR51 CB/SH N/NE/SW FU AC NOSIG=@CAELT@METAR SLSB 092300Z 00000KT 5000 FU SCT025 OVC200 24/23 Q1008 A2978@CAELT@HR93 RWY NML=@CAELT@
ZPX0773 092300@CAELT@GG SLZZYMYT@CAELT@092300 SLVRYGYZ@CAELT@SABO SLVR 092300@CAELT@METAR SLVR 092300Z 32005KT 6000 NSC 26/22 Q1009 A2980 HR77 FU CI@CAELT@NOSIG=@CAELT@
ZPX0774 092300@CAELT@GG SLZZYMYT@CAELT@092259 SLCBYGYS@CAELT@SABO SLCB 092300@CAELT@METAR SLCB 092300Z 20005KT 9999 FEW036 BKN200 21/06 Q1019 A3012 747.4@CAELT@HR37 FU AC NOSIG=@CAELT@METAR SLAL 092300Z 05018KT 7000 FEW020 SCT033CB BKN200 15/09 Q1026@CAELT@A3031 701.9 HR67 CB/N/NE/E/W/NW AC FU=@CAELT@METAR SLTJ 092300Z 17008KT 7000 BKN033 OVC070 18/13 Q1017 A3005 812.8HR75 FU=
ZPX0775 092300@CAELT@GG SLZZYMYT@CAELT@092300 SLVRYGYS@CAELT@SABO SLVR 092300@CAELT@METAR SLVR 092300Z 32005KT 6000 NSC 26/22 Q1009 A2980 HR77 FU CI@CAELT@NOSIG=@CAELT@METAR SLSI 092300Z 33005KT 9999 BKN017 OVC070 26/23 Q1010 A2983 HR81@CAELT@RWY NML=@CAELT@METAR SLRB 092300Z 00000KT 9999 FEW020 BKN200 31/21 Q1010 A2983 HR56METAR SLCA 092300Z 00000KT 5000 FU OVC070 30/16 Q1010 A2983 HR43 RWYNML=
ZPX0792 092355@CAELT@GG SLZZYMYT@CAELT@092356 SLVRYGYZ@CAELT@SABO SLVR 100000@CAELT@METAR SLVR 100000Z 33004KT 6000 NSC 25/22 Q1010 A2983 HR81 FU CI@CAELT@NOSIG=@CAELT@
ZPX0793 092356@CAELT@GG SLLPZRZX@CAELT@092355 SLLPYGYZ@CAELT@SABO SLLP 100000@CAELT@METAR SLLP 100000Z 03007KT 340V070 9999 FEW015 FEW017CB BKN200@CAELT@11/00 Q1035 A3058 626.3 HR49 CB/LT N/NE FU AC NOSIG=@CAELT@
ZPX0794 092356@CAELT@GG SLZZYMYT@CAELT@092356 SLCBYGYZ@CAELT@SABO SLCB 100000@CAELT@METAR SLCB 100000Z 24004KT 9999 FEW036 BKN200 19/06 Q1021 A3016 748.6@CAELT@HR42 FU NOSIG=@CAELT@
ZPX0795 092357@CAELT@GG SLZZYMYT@CAELT@092357 SLTJYGYZ@CAELT@SABO SLTJ 100000@CAELT@METAR SLTJ 100000Z 17008KT 7000 BKN033 OVC070 18/13 Q1018 A3008 813.7@CAELT@HR73 FU=@CAELT@
