
ZPX0019 110055@CAELT@GG SLLPZRZX@CAELT@110056 SLLPYGYZ@CAELT@SABO SLLP 110100@CAELT@METAR SLLP 110100Z 08006KT 9999 FEW013 BKN200 07/01 Q1036 A3060@CAELT@626.7 HR66 AC FU NOSIG=@CAELT@
ZPX0020 110056@CAELT@GG SLZZYMYT@CAELT@110057 SLVRYGYZ@CAELT@SABO SLVR 110100@CAELT@METAR SLVR 110100Z 35005KT 9999 FEW017 BKN200 24/21 Q1010 A2985 HR82@CAELT@FU NOSIG=@CAELT@
ZPX0023 110100@CAELT@GG SLZZYMYT@CAELT@110100 SLCBYGYZ@CAELT@SABO SLCB 110100@CAELT@METAR SLCB 110100Z 13010KT 9999 FEW033 FEW036CB SCT080 BKN200 20/08@CAELT@Q1021 A3018 749.0 HR45 CB/LT DIST S NOSIG=@CAELT@
ZPX0034 110156@CAELT@GG SLLPZRZX@CAELT@110155 SLLPYGYZ@CAELT@SABO SLLP 110200@CAELT@METAR SLLP 110200Z 15005KT 120V190 9999 FEW013 BKN200 08/03 Q1037@CAELT@A3062 627.3 HR75 FU NOSIG=@CAELT@
ZPX0035 110156@CAELT@GG SLZZYMYT@CAELT@110157 SLVRYGYZ@CAELT@SABO SLVR 110200@CAELT@METAR SLVR 110200Z 36005KT 9999 NSC 23/21 Q1011 A2988 HR85 FU CI@CAELT@NOSIG=@CAELT@
ZPX0036 110158@CAELT@GG SLZZYMYT@CAELT@110158 SLCBYGYZ@CAELT@SABO SLCB 110200@CAELT@METAR SLCB 110200Z 13015KT 9999 FEW033 FEW036CB BKN080 20/07 Q1023@CAELT@A3021 749.9 HR44 CB NE/SW CI NOSIG=@CAELT@
ZPX0045 110256@CAELT@GG SLZZYMYT@CAELT@110257 SLVRYGYZ@CAELT@SABO SLVR 110300@CAELT@METAR SLVR 110300Z 01005KT 9999 NSC 22/21 Q1012 A2989 HR89 FU CI@CAELT@NOSIG=@CAELT@
ZPX0046 110258@CAELT@GG SLLPZRZX@CAELT@110255 SLLPYGYZ@CAELT@SABO SLLP 110300@CAELT@METAR SLLP 110300Z 07004KT 9999 FEW010 BKN200 04/01 Q1037 A3064@CAELT@627.7 HR81 FU NOSIG=@CAELT@
ZPX0047 110259@CAELT@GG SLZZYMYT@CAELT@110258 SLCBYGYZ@CAELT@SABO SLCB 110300@CAELT@METAR SLCB 110300Z 33005KT 9999 FEW030 FEW033CB SCT080 BKN200 17/09@CAELT@Q1023 A3023 750.5 HR59 CB/LT N NOSIG=@CAELT@
ZPX0056 110355@CAELT@GG SLLPZRZX@CAELT@110355 SLLPYGYZ@CAELT@SABO SLLP 110400@CAELT@METAR SLLP 110400Z 06004KT 9999 FEW010 BKN200 03/01 Q1037 A3062@CAELT@627.3 HR84 FU NOSIG=@CAELT@
ZPX0057 110357@CAELT@GG SLZZYMYT@CAELT@110357 SLVRYGYZ@CAELT@SABO SLVR 110400@CAELT@METAR SLVR 110400Z 36006KT 9999 NSC 22/21 Q1011 A2988 HR90 FU CI@CAELT@NOSIG=@CAELT@
ZPX0058 110359@CAELT@GG SLZZYMYT@CAELT@110359 SLCBYGYZ@CAELT@SABO SLCB 110400@CAELT@METAR SLCB 110400Z 25003KT 9999 FEW030 FEW033CB BKN200 16/09 Q1023@CAELT@A3022 750.0 HR61 CB/LT NW AC FU NOSIG=@CAELT@
ZPX0066 110454@CAELT@GG SLZZYMYT@CAELT@110454 SLCBYGYZ@CAELT@SABO SLCB 110500@CAELT@METAR SLCB 110500Z 13005KT 9999 FEW030 FEW033CB SCT080 BKN200 17/08@CAELT@Q1023 A3021 749.9 HR56 CB/LT W/NW FU NOSIG=@CAELT@
ZPX0067 110457@CAELT@GG SLLPZRZX@CAELT@110457 SLLPYGYZ@CAELT@SABO SLLP 110500@CAELT@METAR SLLP 110500Z 09004KT 060V120 4000E VCFG FEW003 BKN200 03/02@CAELT@Q1036 A3061 627.0 HR92 VCFG NE/E/SE NOSIG=@CAELT@
ZPX0068 110457@CAELT@GG SLZZYMYT@CAELT@110457 SLVRYGYZ@CAELT@SABO SLVR 110500@CAELT@METAR SLVR 110500Z 36008KT 9999 NSC 22/21 Q1011 A2987 HR91 FU CI@CAELT@NOSIG=@CAELT@
ZPX0075 110557@CAELT@GG SLZZYMYT@CAELT@110557 SLVRYGYZ@CAELT@SABO SLVR 110600@CAELT@METAR SLVR 110600Z 35007KT 9999 NSC 22/21 Q1011 A2985 HR91 FU CI@CAELT@NOSIG=@CAELT@
ZPX0076 110557@CAELT@GG SLZZYMYT@CAELT@110557 SLCBYGYZ@CAELT@SABO SLCB 110600@CAELT@METAR SLCB 110600Z 12004KT 9999 FEW030 FEW033CB BKN080 17/09 Q1023@CAELT@A3022 750.0 HR60 CB/W CI FU NOSIG=@CAELT@
ZPX0077 110557@CAELT@GG SLLPZRZX@CAELT@110555 SLLPYGYZ@CAELT@SABO SLLP 110600@CAELT@METAR SLLP 110600Z 07003KT 4000E VCFG FEW003 SCT010 FEW017CB BKN200@CAELT@05/04 Q1036 A3060 626.8 HR93 VCFG NE/E/SE CB/LT N AC NOSIG=@CAELT@
ZPX0085 110656@CAELT@GG SLLPZRZX@CAELT@110655 SLLPYGYZ@CAELT@SABO SLLP 110700@CAELT@METAR SLLP 110700Z VRB02KT 4000E VCFG FEW003 SCT010 FEW017CB BKN200@CAELT@05/03 Q1036 A3060 626.7 HR90 VCFG NE/E/SE CB/LT NE AC NOSIG=@CAELT@
ZPX0086 110657@CAELT@GG SLZZYMYT@CAELT@110658 SLVRYGYZ@CAELT@SABO SLVR 110700@CAELT@METAR SLVR 110700Z 33007KT 9999 NSC 22/21 Q1010 A2985 HR92 FU CI@CAELT@NOSIG=@CAELT@
ZPX0094 110755@CAELT@GG SLLPZRZX@CAELT@110755 SLLPYGYZ@CAELT@SABO SLLP 110800@CAELT@METAR SLLP 110800Z VRB02KT 6000 FEW003 FEW017CB BKN200 04/01 Q1035@CAELT@A3059 626.5 HR81 VIS/RED/SC/BJOS NE/E/SE CB/LT NE AC NOSIG=@CAELT@
ZPX0095 110758@CAELT@GG SLZZYMYT@CAELT@110759 SLVRYGYZ@CAELT@SABO SLVR 110800@CAELT@METAR SLVR 110800Z 34005KT 9999 NSC 22/21 Q1011 A2986 HR93 NOSIG=@CAELT@
ZPX0098 110801@CAELT@GG SLZZYMYT@CAELT@110801 SLCBYGYZ@CAELT@SABO SLCB 110800@CAELT@METAR SLCB 110800Z 00000KT 9999 FEW030 BKN070 17/04 Q1022 A3020 749.5@CAELT@HR41 FU CI NOSIG=@CAELT@
ZPX0104 110854@CAELT@GG SLZZYMYT@CAELT@110855 SLVRYGYZ@CAELT@SABO SLVR 110900@CAELT@METAR SLVR 110900Z 34004KT 9999 NSC 22/20 Q1011 A2988 HR92 NOSIG=@CAELT@
ZPX0105 110855@CAELT@GG SLZZYMYT@CAELT@110855 SLCBYGYZ@CAELT@SABO SLCB 110900@CAELT@METAR SLCB 110900Z 14003KT 9999 FEW030 SCT080 BKN200 15/10 Q1023@CAELT@A3021 749.9 HR69 FU NOSIG=@CAELT@
ZPX0106 110856@CAELT@GG SLLPZRZX@CAELT@110855 SLLPYGYZ@CAELT@SABO SLLP 110900@CAELT@METAR SLLP 110900Z 04004KT 9999 FEW003 FEW017CB BKN200 02/02 Q1036@CAELT@A3060 626.7 HR96 CB/LT N/NE AC NOSIG=@CAELT@
ZPX0107 110856@CAELT@GG SLZZYMYT@CAELT@110855 SLPSYGYS@CAELT@SABO SLPS 110900@CAELT@METAR SLPS 110900Z 00000KT 9999 BKN017 OVC070 23/22 Q1011 A2986 HR97=@CAELT@
ZPX0111 110901@CAELT@GG SLZZYMYT@CAELT@110856 SLTRYGYZ@CAELT@SABO SLTR 110900@CAELT@METAR SLTR 110900Z 00000KT 8000 -TSRA SCT008 FEW020CB BKN080 23/23@CAELT@Q1010 A2985 992.3 HR97 CB TS N/NE TEMPO 3000=@CAELT@
ZPX0116 110903@CAELT@GG SLZZYMYT@CAELT@110900 SLTRYGYS@CAELT@SABO SLTR 110900@CAELT@METAR SLTR 110900Z 00000KT 8000 -TSRA SCT008 FEW020CB BKN080 23/23@CAELT@Q1010 A2985 992.3 HR97 CB TS N/NE TEMPO 3000=@CAELT@METAR SLRI 110900Z 00000KT 8000 SCT004 BKN070 23/23 Q1011 A2987@CAELT@HR100 FU CI=@CAELT@
ZPX0132 110950@CAELT@GG SLZZYMYT@CAELT@110950 SLCAYGYS@CAELT@SABO SLCA 111000@CAELT@METAR SLCA 111000Z 18004KT 9999 BKN027 OVC070 23/19 Q1016 A3000 HR81@CAELT@RWY NML=@CAELT@
ZPX0134 110953@CAELT@GG SLZZYMYT@CAELT@110952 SLPSYGYS@CAELT@SABO SLPS 111000@CAELT@METAR SLPS 111000Z 09008KT 9999 BKN017 BKN070 23/21 Q1012 A2989 HR89=@CAELT@
ZPX0136 110954@CAELT@GG SLZZYMYT@CAELT@110955 SLRQYSYX@CAELT@SABO SLRQ 111000@CAELT@METAR SLRQ 111000Z 00000KT 0100 FG VV/// 23/23 Q1011 A2987 HR100=@CAELT@
ZPX0137 110954@CAELT@GG SLZZYMYT@CAELT@110954 SLCBYGYZ@CAELT@SABO SLCB 111000@CAELT@METAR SLCB 111000Z 12004KT 9999 FEW030 BKN200 15/09 Q1024 A3025 750.8@CAELT@HR67 AC FU NOSIG=@CAELT@
ZPX0138 110955@CAELT@GG SLZZYMYT@CAELT@110952 SLRBYGYS@CAELT@SABO SLRB 111000@CAELT@METAR SLRB 111000Z 00000KT 9999 FEW017 SCT070 25/22 Q1014 A2994 HR84@CAELT@RWY NML=@CAELT@
ZPX0139 110955@CAELT@GG SLZZYMYT@CAELT@110954 SLETYMYC@CAELT@SABO SLET 111000@CAELT@METAR SLET 111000Z 33008KT 9999 BKN008 BKN200 22/21 Q1012 A2989 HR92@CAELT@NOSIG=@CAELT@
ZPX0141 110955@CAELT@GG SLZZYMYT@CAELT@110955 SLLPYGYZ@CAELT@SABO SLLP 111000@CAELT@METAR SLLP 111000Z 02003KT 9999 FEW004 FEW017CB BKN200 02/M02 Q1036@CAELT@A3062 627.2 HR75 P4750 CB N/NE AC NOSIG=@CAELT@
ZPX0142 110955@CAELT@GG SLZZYMYT@CAELT@110956 SLVRYGYZ@CAELT@SABO SLVR 111000@CAELT@METAR SLVR 111000Z 32004KT 5000 FU BKN025 BKN200 22/21 Q1012 A2991@CAELT@HR92 NOSIG=@CAELT@
ZPX0143 110956@CAELT@GG SLZZYMYT@CAELT@110956 SLUYYGYS@CAELT@SABO SLUY 111000@CAELT@METAR SLUY 111000Z 00000KT 9999 FEW080 SCT200 M04/M12 Q1033@CAELT@A3051 657.8 HR54=@CAELT@
ZPX0144 110956@CAELT@GG SLZZYMYT@CAELT@110956 SLLPYFYA@CAELT@SABO SLAP 101000@CAELT@METAR SLAP 101000Z 36004KT 9999 NSC 16/16 Q1018 A3008 HR95 AC=@CAELT@
ZPX0145 110957@CAELT@GG SLZZYMYT@CAELT@110956 SLTRYGYZ@CAELT@SABO SLTR 111000@CAELT@METAR SLTR 111000Z 00000KT 8000 TS VCSH SCT012 FEW020CB BKN080 23/23@CAELT@Q1011 A2986 992.8 HR96 RERA CB TS N/NE NOSIG=@CAELT@
ZPX0146 110958@CAELT@GG SLZZYMYT@CAELT@110957 SLSAYGYS@CAELT@SABO SLSA 111000@CAELT@METAR SLSA 111000Z 00000KT 7000 VCSH SCT017 FEW023CB BKN200 24/24@CAELT@Q1011 A2986 HR98 CB/SH NE/E/SE=@CAELT@
ZPX0147 110958@CAELT@GG SLZZYMYT@CAELT@110957 SLSAYGYS@CAELT@SABO SLSA 111000@CAELT@METAR SLSA 111000Z 00000KT 7000 VCSH SCT017 FEW023CB BKN200 24/24@CAELT@Q1011 A2986 HR98 CB/SH NE/E/SE=@CAELT@
ZPX0148 110958@CAELT@GG SLZZYMYT@CAELT@110958 SLCBYGYS@CAELT@SABO SLCB 111000@CAELT@METAR SLCB 111000Z 12004KT 9999 FEW030 BKN200 15/09 Q1024 A3025 750.8@CAELT@HR67 AC FU NOSIG=@CAELT@METAR SLAL 111000Z 34004KT 9999 SCT017 10/09 Q1027 A3035 702.8 HR91@CAELT@AC/CI FU=@CAELT@
ZPX0149 110958@CAELT@GG SLZZYMYT@CAELT@110958 SLLPYFYA@CAELT@SABO SLRY 111000@CAELT@METAR SLRY 111000Z 00000KT 3000 BR SCT070 21/21 Q1010 A2983 HR98 CI@CAELT@RWY NML=@CAELT@
ZPX0150 110959@CAELT@GG SLZZYMYT@CAELT@110958 SLCOYGYZ@CAELT@SABO SLCO 111000@CAELT@METAR SLCO 111000Z 00000KT 4000 FU BKN080 23/22 Q1012 A2989 984.9@CAELT@HR93=@CAELT@
ZPX0151 110959@CAELT@GG SLZZYMYT@CAELT@110959 SLLPYFYA@CAELT@SABO SLAP 111000 CCA@CAELT@METAR COR SLAP 111000Z 36004KT 9999 NSC 16/16 Q1018 A3008 HR95 AC=@CAELT@
ZPX0153 111000@CAELT@GG SLZZYMYT@CAELT@111000 SLVRYGYS@CAELT@SABO SLVR 111000@CAELT@METAR SLVR 111000Z 32004KT 5000 FU BKN025 BKN200 22/21 Q1012 A2991@CAELT@HR92 NOSIG=@CAELT@METAR SLET 111000Z 33008KT 9999 BKN008 BKN200 22/21 Q1012 A2989@CAELT@METAR SLCP 111000Z 00000KT 5000 FU SCT020 BKN070 22/21 Q1015 A2997@CAELT@HR96 RWY NML=METAR SLSI 111000Z 00000KT 9999 BKN017 24/22 Q1012 A2988 HR88RWY NML=METAR SLRB 111000Z 00000KT 9999 FEW017 SCT070 25/22 Q1014 A2994HR84 RWY NML=METAR SLPS 111000Z 09008KT 9999 BKN017 BKN070 23/21 Q1012A2989 HR89=METAR SLCA 111000Z 18004KT 9999 BKN027 OVC070 23/19 Q1016A3000 HR81 RWY NML=
ZPX0154 111000@CAELT@GG SLZZYMYT@CAELT@111000 SLSBYSYX@CAELT@SABO SLSB 111000@CAELT@METAR SLSB 111000Z 00000KT 2000 FU SCT013 BKN200 23/D23 Q1011 A2986@CAELT@HR98 RWY NML=@CAELT@
ZPX0155 111001@CAELT@GG SLZZYMYT@CAELT@111000 SLTRYGYS@CAELT@SABO SLTR 111000@CAELT@METAR SLTR 111000Z 00000KT 8000 TS VCSH SCT012 FEW020CB BKN080 23/23@CAELT@Q1011 A2986 992.8 HR96 RERA CB TS N/NE NOSIG=@CAELT@METAR SLGM 111000Z 27006KT 5000 VCSH SCT004 BKN012 FEW020CB OVC070@CAELT@24/24 Q1011 A2987 HR98 RERA CB/SH N/NE/E/SE/S/SW=@CAELT@METAR SLRI 111000Z 00000KT 5000 FU SCT004 BKN070 23/23 Q1012 A2989HR98 CI=METAR SLJO 111000Z 00000KT 9999 FEW020 BKN080 25/23 Q1010 A2985HR92 RWY NML=METAR SLRA 111000Z 00000KT 9999 FEW020 BKN070 25/23 Q1011 A2986HR90 CI RWY NML=METAR SLMG 111000Z 00000KT 9999 FEW020 BKN080 25/24 Q1010 A2985HR93 RWY NML=METAR SLBU 111000Z NIL=METAR SLSA 111000Z 00000KT 7000 VCSH SCT017 FEW023CB BKN200 24/24Q1011 A2986 HR98 CB/SH NE/E/SE=METAR SLSR 111000Z 32004KT 8000 SCT015 BKN200 24/23 Q1009 A2982HR95 FU RWY NML=METAR SLSM 111000Z 00000KT 9999 SCT010 BKN200 22/22 Q1011 A2987HR98 RWY OPR C206=
ZPX0156 111002@CAELT@GG SLZZYMYT@CAELT@111002 SLLPYFYA@CAELT@SABO SLLP 111000@CAELT@METAR SLLP 111000Z 02003KT 9999 FEW004 FEW017CB BKN200 02/M02 Q1036@CAELT@A3062 627.2 HR75 P4750 CB N/NE AC NOSIG=@CAELT@METAR SLCO 111000Z 00000KT 4000 FU BKN080 23/22 Q1012 A2989 984.9@CAELT@HR93=@CAELT@METAR SLRY 111000Z 00000KT 3000 BR SCT070 21/21 Q1010 A2983 HR98CI RWY NML=METAR SLRQ 111000Z 00000KT 0100 FG VV/// 23/23 Q1011 A2987 HR100=METAR SLAP 111000Z 36004KT 9999 NSC 16/16 Q1018 A3008 HR95 AC=METAR SLSB 111000Z 00000KT 2000 FU SCT013 BKN200 23/D23 Q1011 A2986HR98 RWY NML=METAR SLUY 111000Z 00000KT 9999 FEW080 SCT200 M04/M12 Q1033A3051 657.8 HR54=
ZPX0160 111014@CAELT@GG SLZZYMYT@CAELT@111014 SLTRYGYZ@CAELT@SABO SLTR 111000 CCA@CAELT@METAR COR SLTR 111000Z 00000KT 8000 TS VCSH SCT012 FEW020CB BKN080 23@CAELT@/23 Q1011 A2986 992.8 HR96 RERA CB TS/SH N/NE NOSIG=@CAELT@
ZPX0161 111018@CAELT@GG SLZZYMYT@CAELT@111017 SLTRYGYS@CAELT@SABO SLTR 111000 CCA@CAELT@METAR COR SLTR 111000Z 00000KT 8000 TS VCSH SCT012 FEW020CB BKN080@CAELT@23/23 Q1011 A2986 992.8 HR96 RERA CB TS/SH N/NE NOSIG=@CAELT@METAR SLGM 111000Z 27006KT 5000 VCSH SCT004 BKN012 FEW020CB OVC070@CAELT@24/24 Q1011 A2987 HR98 RERA CB/SH N/NE/E/SE/S/SW=@CAELT@METAR SLRI 111000Z 00000KT 5000 FU SCT004 BKN070 23/23 Q1012 A2989HR98 CI=METAR SLJO 111000Z 00000KT 9999 FEW020 BKN080 25/23 Q1010 A2985HR92 RWY NML=METAR SLRA 111000Z 00000KT 9999 FEW020 BKN070 25/23 Q1011 A2986HR90 CI RWY NML=METAR SLMG 111000Z 00000KT 9999 FEW020 BKN080 25/24 Q1010 A2985HR93 RWY NML=METAR SLBU 111000Z NIL=METAR SLSA 111000Z 00000KT 7000 VCSH SCT017 FEW023CB BKN200 24/24Q1011 A2986 HR98 CB/SH NE/E/SE=METAR SLSR 111000Z 32004KT 8000 SCT015 BKN200 24/23 Q1009 A2982HR95 FU RWY NML=METAR SLSM 111000Z 00000KT 9999 SCT010 BKN200 22/22 Q1011 A2987HR98 RWY OPR C206=
ZPX0177 111050@CAELT@GG SLZZYMYT@CAELT@111050 SLRBYGYS@CAELT@SABO SLRB 111100@CAELT@METAR SLRB 111100Z 00000KT 9999 FEW017 SCT070 26/22 Q1015 A2997 HR77@CAELT@RWY NML=@CAELT@
ZPX0178 111052@CAELT@GG SLZZYMYT@CAELT@111052 SLPSYGYS@CAELT@SABO SLPS 111100@CAELT@METAR SLPS 111100Z 12009KT 9999 SCT017 FEW030CB BKN070 24/21 Q1012@CAELT@A2989 HR82 CB/W=@CAELT@
ZPX0179 111052@CAELT@GG SLZZYMYT@CAELT@111052 SLETYMYC@CAELT@SABO SLET 111100@CAELT@METAR SLET 111100Z 32010KT 9999 BKN011 BKN070 23/21 Q1013 A2992 HR92@CAELT@NOSIG=@CAELT@
ZPX0183 111053@CAELT@GG SLZZYMYT@CAELT@111054 SLVRYGYZ@CAELT@SABO SLVR 111100@CAELT@METAR SLVR 111100Z 35006KT 7000 FEW010 SCT025 BKN200 23/22 Q1013@CAELT@A2993 HR93 FU NOSIG=@CAELT@
ZPX0186 111055@CAELT@GG SLZZYMYT@CAELT@111050 SLCOYGYZ@CAELT@SABO SLCO 111100@CAELT@METAR SLCO 111100Z 00000KT 4000 FU BKN080 23/22 Q1013 A2992 985.7@CAELT@HR93=@CAELT@
ZPX0187 111055@CAELT@GG SLZZYMYT@CAELT@111055 SLLPYFYA@CAELT@SABO SLAP 111100@CAELT@METAR SLAP 111100Z 36005KT 9999 NSC 17/17 Q1018 A3009 HR91 CI=@CAELT@
ZPX0188 111055@CAELT@GG SLZZYMYT@CAELT@111055 SLSBYSYX@CAELT@SABO SLSB 111100@CAELT@METAR SLSB 111100Z 00000KT 4000 FU SCT080 SCT200 24/23 Q1011 A2988@CAELT@HR96 RWY NML=@CAELT@
ZPX0189 111056@CAELT@GG SLZZYMYT@CAELT@111055 SLLPYGYZ@CAELT@SABO SLLP 111100@CAELT@METAR SLLP 111100Z VRB02KT 9999 FEW005 BKN200 05/M02 Q1037 A3064 627.@CAELT@7 HR61 P90// FU AC NOSIG=@CAELT@
ZPX0190 111056@CAELT@GG SLZZYMYT@CAELT@111055 SLRQYSYX@CAELT@SABO SLRQ 111100@CAELT@METAR SLRQ 111100Z 00000KT 0100 FG VV/// 23/23 Q1012 A2989 HR100=@CAELT@
ZPX0191 111057@CAELT@GG SLZZYMYT@CAELT@111056 SLLPYFYA@CAELT@SABO SLRY 111100@CAELT@METAR SLRY 111100Z 00000KT 2000 BR SCT070 22/22 Q1010 A2985 HR98 CI@CAELT@RWY NML=@CAELT@
ZPX0193 111057@CAELT@GG SLZZYMYT@CAELT@111056 SLTRYGYZ@CAELT@SABO SLTR 111100@CAELT@METAR SLTR 111100Z 00000KT 8000 VCSH SCT012 FEW020CB BKN080 24/23@CAELT@Q1012 A2990 994.0 HR95 RETS CB SH N/NE/E NOSIG=@CAELT@
ZPX0194 111058@CAELT@GG SLZZYMYT@CAELT@111057 SLORYGYZ@CAELT@SABO SLOR 111100@CAELT@METAR SLOR 111100Z 00000KT 5000 FU NSC 04/M00 Q1035 A3058 656.2 HR74@CAELT@VIS RED N/NE/E/SE/S RESTO 8000 CI=@CAELT@
ZPX0195 111058@CAELT@GG SLZZYMYT@CAELT@111057 SLTJYGYZ@CAELT@SABO SLTJ 111100@CAELT@METAR SLTJ 111100Z 00000KT 9999 SCT025 BKN070 18/14 Q1021 A3015 815.8@CAELT@HR78 FU=@CAELT@
ZPX0196 111058@CAELT@GG SLZZYMYT@CAELT@111057 SLUYYGYS@CAELT@SABO SLUY 111100@CAELT@METAR SLUY 111100Z 00000KT 9999 NSC 01/M07 Q1034 A3054@CAELT@658.5 HR54=@CAELT@
ZPX0197 111059@CAELT@GG SLZZYMYT@CAELT@111058 SLCBYGYZ@CAELT@SABO SLCB 111100@CAELT@METAR SLCB 111100Z 18003KT 9999 FEW033 BKN200 17/10 Q1024 A3027 751.3@CAELT@HR61 FU NOSIG=@CAELT@
ZPX0198 111100@CAELT@GG SLZZYMYT@CAELT@111058 SLSAYGYS@CAELT@SABO SLSA 111100@CAELT@METAR SLSA 111100Z 00000KT 9999 SCT017 FEW023CB BKN200 24/24@CAELT@Q1012 A2990 HR97 CB NE/E=@CAELT@
ZPX0199 111100@CAELT@GG SLZZYMYT@CAELT@111058 SLSAYGYS@CAELT@SABO SLSA 111100@CAELT@METAR SLSA 111100Z 00000KT 9999 SCT017 FEW023CB BKN200 24/24@CAELT@Q1012 A2990 HR97 CB NE/E=@CAELT@
ZPX0200 111100@CAELT@GG SLZZYMYT@CAELT@111100 SLLPYFYA@CAELT@SABO SLLP 111100@CAELT@METAR SLLP 111100Z VRB02KT 9999 FEW005 BKN200 05/M02 Q1037 A3064@CAELT@627.7 HR61 P90// FU AC NOSIG=@CAELT@METAR SLCO 111100Z 00000KT 4000 FU BKN080 23/22 Q1013 A2992 985.7@CAELT@HR93=@CAELT@METAR SLRY 111100Z 00000KT 2000 BR SCT070 22/22 Q1010 A2985 HR98CI RWY NML=METAR SLRQ 111100Z 00000KT 0100 FG VV/// 23/23 Q1012 A2989 HR100=METAR SLAP 111100Z 36005KT 9999 NSC 17/17 Q1018 A3009 HR91 CI=METAR SLSB 111100Z 00000KT 4000 FU SCT080 SCT200 24/23 Q1011 A2988HR96 RWY NML=METAR SLOR 111100Z 00000KT 5000 FU NSC 04/M00 Q1035 A3058 656.2HR74 VIS RED N/NE/E/SE/S RESTO 8000 CI=METAR SLUY 111100Z 00000KT 9999 NSC 01/M07 Q1034 A3054658.5 HR54=
ZPX0201 111100@CAELT@GG SLZZYMYT@CAELT@111100 SLVRYGYS@CAELT@SABO SLVR 111100@CAELT@METAR SLVR 111100Z 35006KT 7000 FEW010 SCT025 BKN200 23/22 Q1013@CAELT@A2993 HR93 FU NOSIG=@CAELT@METAR SLET 111100Z 32010KT 9999 BKN011 BKN070 23/21 Q1013 A2992@CAELT@HR92 NOSIG=@CAELT@METAR SLAS 111100Z 36012KT 3000 -TSRA OVC015 FEW027CB 23/22 Q1015A2997 HR95 CB/TS/NW/N/NE RWY WET OPR=METAR SLJV 111100Z 36010KT 9999 TS SCT020 FEW030CB BKN070 23/22Q1013 A2991 HR93 CB/TS N/NW RWY NML=METAR SLCP 111100Z 00000KT 9000 SCT020 BKN070 23/22 Q1016 A3000HR96 FU RWY NML=METAR SLSI 111100Z 00000KT 9999 BKN015 24/22 Q1013 A2991 HR88RWY NML=METAR SLTI 111100Z 00000KT 9999 BKN070 26/21 Q1016 A3000 HR75METAR SLJE 111100Z 00000KT 9999 BKN070 26/21 Q1016 A3000 HR74FU RWY NML=METAR SLVG 111100Z 00000KT 9999 BKN015 16/14 Q1024 A3024 HR85METAR SLRB 111100Z 00000KT 9999 FEW017 SCT070 26/22 Q1015 A2997HR77 RWY NML=METAR SLPS 111100Z 12009KT 9999 SCT017 FEW030CB BKN070 24/21 Q1012A2989 HR82 CB/W=METAR SLCA 111100Z 18004KT 9999 BKN027 OVC070 23/19 Q1017 A3003HR81 RWY NML=
ZPX0202 111102@CAELT@GG SLZZYMYT@CAELT@111101 SLTRYGYS@CAELT@SABO SLTR 111100@CAELT@METAR SLTR 111100Z 00000KT 8000 VCSH SCT012 FEW020CB BKN080 24/23@CAELT@Q1012 A2990 994.0 HR95 RETS CB SH N/NE/E NOSIG=@CAELT@METAR SLGM 111100Z 00000KT 6000 VCSH SCT004 BKN012 FEW020CB OVC070@CAELT@24/24 Q1012 A2089 HR98 CB/SH N/NE/E/SE/S/SW=@CAELT@METAR SLRI 111100Z 00000KT 5000 FU FEW004 SCT020 BKN200 23/23 Q1013A2992 HR98 AC=METAR SLJO 111100Z 00000KT 9999 FEW020 BKN080 25/23 Q1011 A2986HR91 RWY NML=METAR SLRA 111100Z 09003KT 9999 FEW020 BKN080 25/23 Q1011 A2988HR87 CI RWY NML=METAR SLMG 111100Z 00000KT 9999 FEW020 BKN080 25/24 Q1011 A2987HR92 RWY NML=METAR SLBU 111100Z NIL=METAR SLSA 111100Z 00000KT 9999 SCT017 FEW023CB BKN200 24/24Q1012 A2990 HR97 CB NE/E=METAR SLSR 111100Z 32006KT 8000 SCT015 BKN200 24/23 Q1010 A2985HR94 FU RWY NML=METAR SLSM 111100Z 00000KT 9999 FEW010 BKN200 23/22 Q1012 A2990HR97 RWY C206=
ZPX0205 111103@CAELT@GG SLZZYMYT@CAELT@111101 SLCBYGYS@CAELT@SABO SLCB 111100@CAELT@METAR SLCB 111100Z 18003KT 9999 FEW033 BKN200 17/10 Q1024 A3027 751.3@CAELT@HR61 FU NOSIG=@CAELT@METAR SLAL 111100Z 34007KT 9999 SCT015 11/09 Q1029 A3040 703.9 HR87@CAELT@CI FU=@CAELT@METAR SLVM 111100Z 00000KT 4000 BKN005 OVC070 23/23 Q1014 A2994 HR100VIS RED ST BAJOS TODAS DIRECC=METAR SLTJ 111100Z 00000KT 9999 SCT025 BKN070 18/14 Q1021 A3015 815.8HR78 FU=
ZPX0227 111150@CAELT@GG SLZZYMYT@CAELT@111150 SLRBYGYS@CAELT@SABO SLRB 111200@CAELT@METAR SLRB 111200Z 36004KT 9999 SCT070 30/22 Q1015 A2997 HR63 RWY NML=@CAELT@
ZPX0228 111151@CAELT@GG SLZZYMYT@CAELT@111151 SLPSYGYS@CAELT@SABO SLPS 111200@CAELT@METAR SLPS 111200Z 09006KT 9999 SCT020 BKN070 27/23 Q1013 A2992 HR80=@CAELT@
ZPX0230 111152@CAELT@GG SLZZYMYT@CAELT@111152 SLETYMYC@CAELT@SABO SLET 111200@CAELT@METAR SLET 111200Z 32008KT 9999 BKN011 BKN070 24/21 Q1014 A2994 HR84@CAELT@NOSIG=@CAELT@
ZPX0232 111152@CAELT@GG SLZZYMYT@CAELT@111153 SLVRYGYZ@CAELT@SABO SLVR 111200@CAELT@METAR SLVR 111200Z 33006KT 8000 SCT005 BKN008 BKN200 25/22 Q1014@CAELT@A2996 HR87 FU NOSIG=@CAELT@
ZPX0233 111154@CAELT@GG SLZZYMYT@CAELT@111155 SLORYGYZ@CAELT@SABO SLOR 111200@CAELT@METAR SLOR 111200Z 05003KT 8000 FEW015 09/02 Q1035 A3058 656.4 HR65@CAELT@VIS RED FU N/NE/E/S CI=@CAELT@
ZPX0235 111155@CAELT@GG SLZZYMYT@CAELT@111155 SLAGYSYX@CAELT@SABO SLAG 111200@CAELT@METAR SLAG 111200Z 00000KT 5000 FU SCT012 OVC070 23/18 Q1019 A3010@CAELT@891.3 HR72=@CAELT@
ZPX0236 111156@CAELT@GG SLZZYMYT@CAELT@111155 SLRQYSYX@CAELT@SABO SLRQ 111200@CAELT@METAR SLRQ 111200Z 00000KT 0500 FG VV/// 23/23 Q1012 A2991 HR100=@CAELT@
ZPX0237 111156@CAELT@GG SLZZYMYT@CAELT@111152 SLUYYGYS@CAELT@SABO SLUY 111200@CAELT@METAR SLUY 111200Z 32005KT 9999 NSC 07/M06 Q1034 A3056@CAELT@658.9 HR41 CI/CC=@CAELT@
ZPX0239 111157@CAELT@GG SLZZYMYT@CAELT@111156 SLTJYGYZ@CAELT@SABO SLTJ 111200@CAELT@METAR SLTJ 111200Z 14004KT 9999 SCT025 BKN070 18/14 Q1021 A3017 816.3@CAELT@HR75 FU=@CAELT@
ZPX0240 111157@CAELT@GG SLZZYMYT@CAELT@111156 SLSBYSYX@CAELT@SABO SLSB 111200@CAELT@METAR SLSB 111200Z 30004KT 5000 FU NSC 27/24 Q1012 A2990 HR86 CI RWY@CAELT@NML=@CAELT@
ZPX0241 111157@CAELT@GG SLZZYMYT@CAELT@111156 SLSAYGYS@CAELT@SABO SLSA 111200@CAELT@METAR SLSA 111200Z 31005KT 9999 SCT020 SCT080 BKN200 26/24 Q1012@CAELT@A2990 HR92=@CAELT@
ZPX0242 111157@CAELT@GG SLZZYMYT@CAELT@111156 SLSAYGYS@CAELT@SABO SLSA 111200@CAELT@METAR SLSA 111200Z 31005KT 9999 SCT020 SCT080 BKN200 26/24 Q1012@CAELT@A2990 HR92=@CAELT@
ZPX0243 111157@CAELT@GG SLZZYMYT@CAELT@111157 SLCOYGYZ@CAELT@SABO SLCO 111200@CAELT@METAR SLCO 111200Z 00000KT 6000 FEW004 BKN080 24/23 Q1014 A2995 986.8@CAELT@HR93 FU=@CAELT@
ZPX0244 111157@CAELT@GG SLZZYMYT@CAELT@111157 SLVRYGYS@CAELT@SABO SLVR 111200@CAELT@METAR SLVR 111200Z 33006KT 8000 SCT005 BKN008 BKN200 25/22 Q1014@CAELT@A2996 HR87 FU NOSIG=@CAELT@METAR SLET 111200Z 32008KT 9999 BKN011 BKN070 24/21 Q1014 A2994@CAELT@HR84 NOSIG=@CAELT@METAR SLAS 111200Z 00000KT 8000 -TSRA BKN017 FEW030CB OVC200 23/22Q1016 A3000 HR94 CB/TS E/NE/N RWY WET OPR=METAR SLJV 111200Z 36010KT 9999 TS SCT020 FEW030CB BKN070 22/21Q1014 A2994 HR93 CB/TS N/NW/W RWY NML=METAR SLCP 111200Z 30010KT 9999 SCT013 BKN070 26/22 Q1017 A3003HR80 FU RWY NML=METAR SLSI 111200Z 00000KT 9999 SCT017 BKN070 25/22 Q1014 A2994HR83 RWY NML=METAR SLTI 111200Z 00000KT 9999 BKN070 29/21 Q1017 A3003 HR64RWY NML=METAR SLJE 111200Z 00000KT 9999 FEW020 BKN070 29/22 Q1016 A3000HR65 FU RWY NML=METAR SLVG 111200Z 00000KT 9999 SCT015 BKN070 17/14 Q1025 A3027HR81 RWY NML=METAR SLRB 111200Z 36004KT 9999 SCT070 30/22 Q1015 A2997 HR63METAR SLPS 111200Z 09006KT 9999 SCT020 BKN070 27/23 Q1013A2992 HR80=METAR SLCA 111200Z 18004KT 9999 BKN027 OVC070 23/19 Q1017 A3003HR78 RWY NML=
ZPX0245 111158@CAELT@GG SLZZYMYT@CAELT@111156 SLTRYGYZ@CAELT@SABO SLTR 111200@CAELT@METAR SLTR 111200Z 00000KT 8000 VCSH SCT012 FEW020CB BKN080 25/24@CAELT@Q1013 A2993 995.0 HR94 CB/SH N/NE/E NOSIG=@CAELT@
ZPX0247 111158@CAELT@GG SLZZYMYT@CAELT@111156 SLLPYGYZ@CAELT@SABO SLLP 111200@CAELT@METAR SLLP 111200Z 06003KT 9999 FEW010 BKN200 11/M03 Q1038 A3066@CAELT@628.2 HR39 P91// HZ SW/W FU AC NOSIG=@CAELT@
ZPX0248 111158@CAELT@GG SLZZYMYT@CAELT@111155 SLLPYFYA@CAELT@SABO SLAP 111200@CAELT@METAR SLAP 111200Z 00000KT 9999 NSC 19/17 Q1019 A3011 HR85 CI=@CAELT@
ZPX0250 111159@CAELT@GG SLZZYMYT@CAELT@111159 SLCBYGYZ@CAELT@SABO SLCB 111200@CAELT@METAR SLCB 111200Z 23003KT 9999 FEW033 BKN200 20/09 Q1025 A3028 751.6@CAELT@HR49 FU NOSIG=@CAELT@
ZPX0252 111201@CAELT@GG SLZZYMYT@CAELT@111158 SLTRYGYS@CAELT@SABO SLTR 111200@CAELT@METAR SLTR 111200Z 00000KT 8000 VCSH SCT012 FEW020CB BKN080 25/24@CAELT@Q1013 A2993 995.0 HR94 CB/SH N/NE/E NOSIG=@CAELT@METAR SLGM 111200Z 00000KT 9999 FEW004 SCT012 FEW020CB BKN070 25/24@CAELT@Q1012 A2990 HR93 CB NE/SW=@CAELT@METAR SLRI 111200Z 00000KT 7000 FEW004 SCT020 BKN200 25/23 Q1014A2995 HR92 AC=METAR SLJO 111200Z 36004KT 9999 FEW020 BKN080 26/22 Q1012 A2989 HR83RWY NML=METAR SLRA 111200Z 09003KT 9999 FEW020 BKN080 26/23 Q1012 A2990 HR81CI RWY NML=METAR SLMG 111200Z 32003KT 9999 FEW020 BKN080 26/24 Q1012 A2989 HR88METAR SLBU 111200Z 32004KT 9999 SCT020 BKN080 26/24 Q1012 A2990 HR86METAR SLSA 111200Z 31005KT 9999 SCT020 SCT080 BKN200 26/24 Q1012A2990 HR92=METAR SLSR 111200Z 32008KT 7000 VCSH SCT015 FEW023CB SCT080 BKN20025/24 Q1011 A2985 HR91 FU CB/SH W/NW RWY NML=METAR SLSM 111200Z 36006KT 9999 SCT015 BKN200 24/23 Q1013 A2992 HR93RWY OPR C206=
ZPX0255 111204@CAELT@GG SLZZYMYT@CAELT@111201 SLLPYFYA@CAELT@SABO SLRY 111200@CAELT@METAR SLRY 111200Z 00000KT 4000 BR FEW005 BKN200 23/22 Q1011 A2988@CAELT@HR34 RWY NML=@CAELT@
ZPX0260 111207@CAELT@GG SLZZYMYT@CAELT@111201 SLLPYFYA@CAELT@SABO SLLP 111200@CAELT@METAR SLLP 111200Z 06003KT 9999 FEW010 BKN200 11/M03 Q1038 A3066@CAELT@628.2 HR39 P91// HZ SW/W FU AC NOSIG=@CAELT@METAR SLCO 111200Z 00000KT 6000 FEW004 BKN080 24/23 Q1014 A2995 986.8@CAELT@HR93 FU=@CAELT@METAR SLRY 111200Z 00000KT 4000 BR FEW005 BKN200 23/22 Q1011 A2988HR34 RWY NML=METAR SLRQ 111200Z 00000KT 0500 FG VV/// 23/23 Q1012 A2991 HR100=METAR SLAP 111200Z 00000KT 9999 NSC 19/17 Q1019 A3011 HR85 CI=METAR SLSB 111200Z 30004KT 5000 FU NSC 27/24 Q1012 A2990 HR86 CI RWYNML=METAR SLOR 111200Z 05003KT 8000 FEW015 09/02 Q1035 A3058 656.4 HR65VIS RED FU N/NE/E/S CI=METAR SLUY 111200Z 32005KT 9999 NSC 07/M06 Q1034 A3056658.9 HR41 CI/CC=
ZPX0266 111219@CAELT@GG SLZZYMYT@CAELT@111210 SLLPYFYA@CAELT@SABO SLRY 111200 CCA@CAELT@METAR SLRY 111200Z 00000KT 4000 BR FEW005 BKN200 23/22 Q1011 A2988@CAELT@HR94 RWY NML=@CAELT@
ZPX0284 111251@CAELT@GG SLZZYMYT@CAELT@111250 SLPSYGYS@CAELT@SABO SLPS 111300@CAELT@METAR SLPS 111300Z 09004KT 9999 BKN070 28/23 Q1013 A2992 HR82=@CAELT@
ZPX0285 111252@CAELT@GG SLZZYMYT@CAELT@111252 SLETYMYC@CAELT@SABO SLET 111300@CAELT@METAR SLET 111300Z 31010KT 9999 SCT011 BKN016 26/22 Q1014 A2996 HR78@CAELT@NOSIG=@CAELT@
ZPX0288 111254@CAELT@GG SLZZYMYT@CAELT@111255 SLORYGYZ@CAELT@SABO SLOR 111300@CAELT@METAR SLOR 111300Z 00000KT 9999 FEW015 12/02 Q1035 A3059 656.5 HR50@CAELT@CI FU=@CAELT@
ZPX0290 111255@CAELT@GG SLZZYMYT@CAELT@111255 SLLPYFYA@CAELT@SABO SLAP 111300@CAELT@METAR SLAP 111300Z 36008KT 9999 NSC 23/17 Q1019 A3012 HR70 CI=@CAELT@
ZPX0291 111255@CAELT@GG SLZZYMYT@CAELT@111251 SLUYYGYS@CAELT@SABO SLUY 111300@CAELT@METAR SLUY 111300Z 32009KT 9999 NSC 09/00 Q1035 A3057@CAELT@659.2 HR55 CI/CC=@CAELT@
ZPX0293 111255@CAELT@GG SLZZYMYT@CAELT@111255 SLCOYGYZ@CAELT@SABO SLCO 111300@CAELT@METAR SLCO 111300Z 00000KT 8000 FEW005 BKN080 25/23 Q1014 A2996 987.1@CAELT@HR90 FU=@CAELT@
ZPX0294 111255@CAELT@GG SLZZYMYT@CAELT@111255 SLSBYSYX@CAELT@SABO SLSB 111300@CAELT@METAR SLSB 111300Z 32006KT 5000 FU NSC 28/23 Q1013 A2993 HR78 RWY NML=@CAELT@
ZPX0295 111255@CAELT@GG SLZZYMYT@CAELT@111254 SLSAYGYS@CAELT@SABO SLSA 111300@CAELT@METAR SLSA 111300Z 32006KT 9999 SCT020 BKN080 BKN200 28/24 Q1013@CAELT@A2992 HR80=@CAELT@
ZPX0296 111255@CAELT@GG SLZZYMYT@CAELT@111254 SLSAYGYS@CAELT@SABO SLSA 111300@CAELT@METAR SLSA 111300Z 32006KT 9999 SCT020 BKN080 BKN200 28/24 Q1013@CAELT@A2992 HR80=@CAELT@
ZPX0297 111255@CAELT@GG SLZZYMYT@CAELT@111255 SLCBYGYZ@CAELT@SABO SLCB 111300@CAELT@METAR SLCB 111300Z 21003KT 9999 FEW033 22/08 Q1025 A3029 751.9 HR41@CAELT@FU CI NOSIG=@CAELT@
ZPX0298 111255@CAELT@GG SLZZYMYT@CAELT@111255 SLTJYGYZ@CAELT@SABO SLTJ 111300@CAELT@METAR SLTJ 111300Z 18005KT 9999 SCT025 SCT070 20/14 Q1021 A3018 816.5@CAELT@HR70 FU=@CAELT@
ZPX0299 111255@CAELT@GG SLZZYMYT@CAELT@111255 SLAGYSYX@CAELT@SABO SLAG 111300@CAELT@METAR SLAG 111300Z 00000KT 5000 FU SCT012 SCT070 BKN200 25/18 Q1019@CAELT@A3011 891.5 HR66=@CAELT@
ZPX0300 111256@CAELT@GG SLZZYMYT@CAELT@111255 SLRQYSYX@CAELT@SABO SLRQ 111300@CAELT@METAR SLRQ 111300Z 00000KT 8000 BKN007 26/24 Q1013 A2992 HR92 FU=@CAELT@
ZPX0301 111256@CAELT@GG SLZZYMYT@CAELT@111255 SLLPYGYZ@CAELT@SABO SLLP 111300@CAELT@METAR SLLP 111300Z 09005KT 9999 FEW012 SCT200 12/M01 Q1038 A3068@CAELT@628.5 HR41 P4053 HZ S/SW/W/NW FU NOSIG=@CAELT@
ZPX0302 111257@CAELT@GG SLZZYMYT@CAELT@111257 SLVRYGYZ@CAELT@SABO SLVR 111300@CAELT@METAR SLVR 111300Z 32013KT 8000 SCT010 BKN013 BKN200 27/22 Q1014@CAELT@A2997 HR75 FU NOSIG=@CAELT@
ZPX0303 111257@CAELT@GG SLZZYMYT@CAELT@111257 SLCAYGYS@CAELT@SABO SLCA 111300@CAELT@METAR SLCA 111300Z 00000KT 9999 SCT027 25/20 Q1017 A3003 HR71 AC RWY@CAELT@NML=@CAELT@
ZPX0304 111257@CAELT@GG SLZZYMYT@CAELT@111256 SLTRYGYZ@CAELT@SABO SLTR 111300@CAELT@METAR SLTR 111300Z 00000KT 8000 VCSH SCT012 FEW020CB BKN080 25/24@CAELT@Q1013 A2993 995.0 HR94 CB SH N/NE/E NOSIG=@CAELT@
ZPX0306 111258@CAELT@GG SLZZYMYT@CAELT@111256 SLRBYGYS@CAELT@SABO SLRB 111300@CAELT@METAR SLRB 111300Z 36004KT 9999 SCT070 31/22 Q1015 A2997 HR59 RWY NML=@CAELT@
ZPX0307 111258@CAELT@GG SLZZYMYT@CAELT@111259 SLVRYGYS@CAELT@SABO SLVR 111300@CAELT@METAR SLVR 111300Z 32013KT 8000 SCT010 BKN013 BKN200 27/22 Q1014@CAELT@A2997 HR75 FU NOSIG=@CAELT@METAR SLET 111300Z 31010KT 9999 SCT011 BKN016 26/22 Q1014 A2996 HR78@CAELT@NOSIG=@CAELT@METAR SLAS 111300Z 00000KT 9999 SCT020 FEW030CB OVC200 24/23 Q1016A3000 HR92 CB/SH/NW/N/SE RETSRA RWY WET OPR=METAR SLJV 111300Z 36008KT 9999 SCT020 BKN200 23/21 Q1014 A2994 HR90RETS RWY NML=METAR SLCP 111300Z 30010KT 9999 SCT020 BKN070 26/21 Q1017 A3003 HR76RWY NML=METAR SLSI 111300Z 00000KT 9999 SCT015 BKN070 27/22 Q1014 A2994 HR74METAR SLTI 111300Z 00000KT 9999 BKN070 35/21 Q1017 A3003 HR45 RWY NMLMETAR SLJE 111300Z 32006KT 9999 SCT070 31/23 Q1017 A3003 HR60 FU RWYNML=METAR SLVG 111300Z 36004KT 9999 BKN017 19/14 Q1025 A3027 HR70 RWY NMLMETAR SLRB 111300Z 36004KT 9999 SCT070 31/22 Q1015 A2997 HR59 RWY NMLMETAR SLPS 111300Z 09004KT 9999 BKN070 28/23 Q1013 A2992 HR82=METAR SLCA 111300Z 00000KT 9999 SCT027 25/20 Q1017 A3003 HR71 AC RWY
ZPX0308 111259@CAELT@GG SLZZYMYT@CAELT@111258 SLTRYGYS@CAELT@SABO SLTR 111300@CAELT@METAR SLTR 111300Z 00000KT 8000 VCSH SCT012 FEW020CB BKN080 25/24@CAELT@Q1013 A2993 995.0 HR94 CB SH N/NE/E NOSIG=@CAELT@METAR SLGM 111300Z 29006KT 9999 FEW004 SCT012 FEW020CB BKN070@CAELT@26/24 Q1013 A2992 HR87 CB NE/SW=@CAELT@METAR SLRI 111300Z 00000KT 7000 SCT020 BKN200 25/23 Q1015 A2998HR88 FU AC=METAR SLJO 111300Z 34006KT 9999 FEW020 BKN080 27/23 Q1013 A2992HR82 RWY NML=METAR SLRA 111300Z 32007KT 9999 BKN080 28/23 Q1013 A2992 HR74 CIRWY NML=METAR SLMG 111300Z 32005KT 9999 FEW020 BKN080 27/24 Q1012 A2991HR80 RWY NML=METAR SLBU 111300Z 32004KT 9999 SCT020 BKN080 29/24 Q1013 A2992HR71 RWY NML=METAR SLSA 111300Z 32006KT 9999 SCT020 BKN080 BKN200 28/24 Q1013A2992 HR80=METAR SLSR 111300Z 32010KT 8000 SCT015 FEW023CB BKN200 27/24 Q1012A2990 HR84 FU CB NE RWY NML=METAR SLSM 111300Z 36004KT 9999 FEW015 SCT080 BKN200 26/23 Q1013A2994 HR87 RWY OPR C206=
ZPX0310 111300@CAELT@GG SLZZYMYT@CAELT@111258 SLLPYFYA@CAELT@SABO SLRY 111300@CAELT@METAR SLRY 111300Z 34003KT 9999 FEW010 BKN200 26/23 Q1012 A2989 HR82@CAELT@FU RWY NML=@CAELT@
ZPX0311 111300@CAELT@GG SLZZYMYT@CAELT@111300 SLCBYGYS@CAELT@SABO SLCB 111300@CAELT@METAR SLCB 111300Z 21003KT 9999 FEW033 22/08 Q1025 A3029 751.9 HR41@CAELT@FU CI NOSIG=@CAELT@METAR SLAG 111300Z 00000KT 5000 FU SCT012 SCT070 BKN200 25/18 Q1019@CAELT@A3011 891.5 HR66=@CAELT@METAR SLPO 111300Z 00000KT 9999 FEW017 12/04 Q1036 A3060 637.0 HR59FU CI=METAR SLVM 111300Z 00000KT 9999 SCT008 BKN070 24/23 Q1014 A2994 HR92METAR SLTJ 111300Z 18005KT 9999 SCT025 SCT070 20/14 Q1021 A3018 816.5HR70 FU=METAR SLYA 111300Z 00000KT 5000 -RA SCT010 SCT020 BKN070 22/22 Q1015A2998 939.8 HR98=METAR SLBJ 111300Z NIL=METAR SLHI 111300Z NIL=
ZPX0313 111302@CAELT@GG SLZZYMYT@CAELT@111301 SLCBYGYS@CAELT@SABO SLCB 111300@CAELT@METAR SLCB 111300Z 21003KT 9999 FEW033 22/08 Q1025 A3029 751.9 HR41@CAELT@FU CI NOSIG=@CAELT@METAR SLAL 111300Z 01009KT 9999 BKN017 14/09 Q1030 A3043 704.6 HR70@CAELT@AC FU=@CAELT@METAR SLPO 111300Z 00000KT 9999 FEW017 12/04 Q1036 A3060 637.0 HR59FU CI=METAR SLAG 111300Z 00000KT 5000 FU SCT012 SCT070 BKN200 25/18 Q1019A3011 891.5 HR66=METAR SLVM 111300Z 00000KT 9999 SCT008 BKN070 24/23 Q1014 A2994 HR92METAR SLTJ 111300Z 18005KT 9999 SCT025 SCT070 20/14 Q1021 A3018 816.5HR70 FU=METAR SLYA 111300Z 00000KT 5000 -RA SCT010 SCT020 BKN070 22/22 Q1015A2998 939.8 HR98=METAR SLBJ 111300Z NIL=METAR SLHI 111300Z NIL=
ZPX0317 111304@CAELT@GG SLZZYMYT@CAELT@111301 SLLPYFYA@CAELT@SABO SLLP 111300@CAELT@METAR SLLP 111300Z 09005KT 9999 FEW012 SCT200 12/M01 Q1038 A3068@CAELT@628.5 HR41 P4053 HZ S/SW/W/NW FU NOSIG=@CAELT@METAR SLCO 111300Z 00000KT 8000 FEW005 BKN080 25/23 Q1014 A2996 987.1@CAELT@HR90 FU=@CAELT@METAR SLRY 111300Z 34003KT 9999 FEW010 BKN200 26/23 Q1012 A2989 HR82FU RWY NML=METAR SLRQ 111300Z 00000KT 8000 BKN007 26/24 Q1013 A2992 HR92 FU=METAR SLSB 111300Z 32006KT 5000 FU NSC 28/23 Q1013 A2993 HR78 RWY NMLMETAR SLAP 111300Z 36008KT 9999 NSC 23/17 Q1019 A3012 HR70 CI=METAR SLOR 111300Z 00000KT 9999 FEW015 12/02 Q1035 A3059 656.5 HR50CI FU=METAR SLUY 111300Z 32009KT 9999 NSC 09/00 Q1035 A3057659.2 HR55 CI/CC=
