
ZPX0010 210055@CAELT@GG SLZZYMYT@CAELT@210056 SLVRYGYZ@CAELT@SABO SLVR 210100@CAELT@METAR SLVR 210100Z 34005KT 8000 NSC 26/21 Q1010 A2983 HR74 FU NOSIG=@CAELT@
ZPX0011 210056@CAELT@GG SLZZYMYT@CAELT@210054 SLCBYGYZ@CAELT@SABO SLCB 210100@CAELT@METAR SLCB 210100Z 10007KT 9999 FEW030 SCT070 BKN200 17/05 Q1025@CAELT@A3028 751.6 HR43 FU NOSIG=@CAELT@
ZPX0013 210100@CAELT@GG SLLPZRZX@CAELT@210055 SLLPYGYZ@CAELT@SABO SLLP 210100@CAELT@METAR SLLP 210100Z 04007KT 320V080 9999 FEW015 FEW017CB SCT200 07/01@CAELT@Q1037 A3063 627.5 HR64 CB/LT SW AC NOSIG=@CAELT@
ZPX0019 210153@CAELT@GG SLZZYMYT@CAELT@210154 SLVRYGYZ@CAELT@SABO SLVR 210200@CAELT@METAR SLVR 210200Z 33006KT 7000 NSC 26/21 Q1011 A2985 HR74 FU NOSIG=@CAELT@
ZPX0020 210156@CAELT@GG SLLPZRZX@CAELT@210155 SLLPYGYZ@CAELT@SABO SLLP 210200@CAELT@METAR SLLP 210200Z 08006KT 9999 FEW013 SCT200 05/01 Q1038 A3065@CAELT@628.0 HR73 AC NOSIG=@CAELT@
ZPX0021 210157@CAELT@GG SLZZYMYT@CAELT@210157 SLCBYGYZ@CAELT@SABO SLCB 210200@CAELT@METAR SLCB 210200Z 08005KT 9999 FEW030 SCT080 BKN200 17/06 Q1026@CAELT@A3030 752.3 HR48 FU NOSIG=@CAELT@
ZPX0028 210255@CAELT@GG SLZZYMYT@CAELT@210256 SLVRYGYZ@CAELT@SABO SLVR 210300@CAELT@METAR SLVR 210300Z 34006KT 7000 NSC 26/21 Q1012 A2989 HR75 FU CI@CAELT@NOSIG=@CAELT@
ZPX0029 210256@CAELT@GG SLLPZRZX@CAELT@210255 SLLPYGYZ@CAELT@SABO SLLP 210300@CAELT@METAR SLLP 210300Z 08008KT 9999 FEW013 SCT200 05/02 Q1038 A3066@CAELT@628.1 HR80 AC NOSIG=@CAELT@
ZPX0037 210355@CAELT@GG SLZZYMYT@CAELT@210355 SLVRYGYZ@CAELT@SABO SLVR 210400@CAELT@METAR SLVR 210400Z 34005KT 7000 NSC 25/21 Q1012 A2990 HR79 FU NOSIG=@CAELT@
ZPX0038 210356@CAELT@GG SLZZYMYT@CAELT@210355 SLCBYGYZ@CAELT@SABO SLCB 210400@CAELT@METAR SLCB 210400Z 00000KT 9999 FEW030 BKN200 15/06 Q1026 A3032 752.7@CAELT@HR55 AC FU NOSIG=@CAELT@
ZPX0039 210357@CAELT@GG SLLPZRZX@CAELT@210355 SLLPYGYZ@CAELT@SABO SLLP 210400@CAELT@METAR SLLP 210400Z 07007KT 9999 FEW004 SCT200 03/02 Q1038 A3066@CAELT@628.1 HR90 NOSIG=@CAELT@
ZPX0048 210456@CAELT@GG SLZZYMYT@CAELT@210455 SLCBYGYZ@CAELT@SABO SLCB 210500@CAELT@METAR SLCB 210500Z 00000KT 9999 FEW030 BKN200 14/06 Q1026 A3031 752.6@CAELT@HR58 AC FU NOSIG=@CAELT@
ZPX0049 210459@CAELT@GG SLLPZRZX@CAELT@210455 SLLPYGYZ@CAELT@SABO SLLP 210500@CAELT@METAR SLLP 210500Z 09007KT 4000E VCFG FEW003 SCT200 03/02 Q1037 A3065@CAELT@627.9 HR93 VCFG NE/E/SE NOSIG=@CAELT@
ZPX0057 210557@CAELT@GG SLZZYMYT@CAELT@210556 SLCBYGYZ@CAELT@SABO SLCB 210600@CAELT@METAR SLCB 210600Z 00000KT 9999 FEW030 BKN200 14/05 Q1026 A3031 752.5@CAELT@HR55 AC FU NOSIG=@CAELT@
ZPX0058 210557@CAELT@GG SLLPZRZX@CAELT@210555 SLLPYGYZ@CAELT@SABO SLLP 210600@CAELT@METAR SLLP 210600Z VRB02KT 9999 FEW004 FEW017CB SCT200 04/02 Q1037@CAELT@A3065 627.9 HR89 CB/LT SW AC NOSIG=@CAELT@
ZPX0073 210656@CAELT@GG SLZZYMYT@CAELT@210655 SLCBYGYZ@CAELT@SABO SLCB 210700@CAELT@METAR SLCB 210700Z 00000KT 9999 FEW030 SCT080 BKN200 14/07 Q1026@CAELT@A3030 752.3 HR62 FU NOSIG=@CAELT@
ZPX0074 210659@CAELT@GG SLLPZRZX@CAELT@210655 SLLPYGYZ@CAELT@SABO SLLP 210700@CAELT@METAR SLLP 210700Z VRB02KT 9999 FEW004 SCT200 03/02 Q1037 A3064 627.6@CAELT@HR94 AC NOSIG=@CAELT@
ZPX0081 210755@CAELT@GG SLZZYMYT@CAELT@210755 SLCBYGYZ@CAELT@SABO SLCB 210800@CAELT@METAR SLCB 210800Z 00000KT 9999 FEW030 SCT080 BKN200 13/07 Q1026@CAELT@A3031 752.5 HR69 FU NOSIG=@CAELT@
ZPX0082 210755@CAELT@GG SLLPZRZX@CAELT@210755 SLLPYGYZ@CAELT@SABO SLLP 210800@CAELT@METAR SLLP 210800Z 06005KT 4000E VCFG FEW003 SCT010 BKN200 02/02@CAELT@Q1037 A3063 627.5 HR97 VCFG NE/E/SE AC NOSIG=@CAELT@
ZPX0092 210855@CAELT@GG SLZZYMYT@CAELT@210855 SLCBYGYZ@CAELT@SABO SLCB 210900@CAELT@METAR SLCB 210900Z 00000KT 9999 FEW030 SCT080 BKN200 13/06 Q1027@CAELT@A3033 753.1 HR60 FU NOSIG=@CAELT@
ZPX0093 210858@CAELT@GG SLLPZRZX@CAELT@210856 SLLPYGYZ@CAELT@SABO SLLP 210900@CAELT@METAR SLLP 210900Z 11003KT 4000E VCFG FEW003 SCT010 BKN200 01/01@CAELT@Q1038 A3065 628.0 HR96 VCFG NE/E/SE AC NOSIG=@CAELT@
ZPX0101 210954@CAELT@GG SLZZYMYT@CAELT@210955 SLUYYGYS@CAELT@SABO SLUY 211000@CAELT@METAR SLUY 211000Z 00000KT 9999 FEW020 05/M01 Q1035 A3057 659.1@CAELT@HR68 FU AC=@CAELT@
ZPX0102 210954@CAELT@GG SLZZYMYT@CAELT@210955 SLLPYFYA@CAELT@SABO SLRY 211000@CAELT@METAR SLRY 211000Z 00000KT 9999 BKN070 22/22 Q1009 A2980@CAELT@HR97 FU RWY NML=@CAELT@
ZPX0103 210955@CAELT@GG SLZZYMYT@CAELT@210955 SLRQYSYX@CAELT@SABO SLRQ 211000@CAELT@METAR SLRQ 211000Z 00000KT 8000 BKN080 23/22 Q1012 A2989 988.0 HR98@CAELT@
ZPX0104 210956@CAELT@GG SLZZYMYT@CAELT@210955 SLLPYGYZ@CAELT@SABO SLLP 211000@CAELT@METAR SLLP 211000Z 11002KT 4000E VCFG FEW003 SCT010 BKN200 01/01@CAELT@Q1038 A3066 628.2 HR97 P92// VCFG NE/E/SE AC NOSIG=@CAELT@
ZPX0105 210956@CAELT@GG SLZZYMYT@CAELT@210955 SLSBYSYX@CAELT@SABO SLSB 211000@CAELT@METAR SLSB 211000Z 00000KT 8000 BKN080 23/23 Q1011 A2986 HR98 FU@CAELT@RWY NML=@CAELT@
ZPX0106 210957@CAELT@GG SLZZYMYT@CAELT@210956 SLTRYGYZ@CAELT@SABO SLTR 211000@CAELT@METAR SLTR 211000Z 04004KT 9999 SCT020 BKN080 24/22 Q1013 A2992@CAELT@994.7 HR95 FU NOSIG=@CAELT@
ZPX0107 210957@CAELT@GG SLZZYMYT@CAELT@210956 SLTRYGYZ@CAELT@SABO SLTR 211000@CAELT@METAR SLTR 211000Z 04004KT 9999 SCT020 BKN080 24/22 Q1013 A2992@CAELT@994.7 HR95 FU NOSIG=@CAELT@
ZPX0108 210958@CAELT@GG SLZZYMYT@CAELT@210958 SLCBYGYZ@CAELT@SABO SLCB 211000@CAELT@METAR SLCB 211000Z 00000KT 2500 FU FEW030 SCT080 BKN200 12/07 Q1028@CAELT@A3037 754.0 HR71 FU TEMPO 1000=@CAELT@
ZPX0109 210959@CAELT@GG SLZZYMYT@CAELT@210958 SLCOYGYZ@CAELT@SABO SLCO 211000@CAELT@METAR SLCO 211000Z 00000KT 9999 OVC080 23/23 Q1013 A2992 985.7 HR96=@CAELT@
ZPX0111 211000@CAELT@GG SLZZYMYT@CAELT@210959 SLLPYFYA@CAELT@SABO SLLP 211000@CAELT@METAR SLLP 211000Z 11002KT 4000E VCFG FEW003 SCT010 BKN200@CAELT@01/01 Q1038 A3066 628.2 HR97 P92// VCFG NE/E/SE AC NOSIG=@CAELT@METAR SLCO 211000Z 00000KT 9999 OVC080 23/23 Q1013 A2992 985.7@CAELT@HR96=@CAELT@METAR SLRY 211000Z 00000KT 9999 BKN070 22/22 Q1009 A2980HR97 FU RWY NML=METAR SLRQ 211000Z 00000KT 8000 BKN080 23/22 Q1012 A2989988.0 HR98 FU=METAR SLAP 211000Z 00000KT 7000 BKN020 OVC070 16/16 Q1019A3012 860.2 HR97 BR=METAR SLSB 211000Z 00000KT 8000 BKN080 23/23 Q1011 A2986HR98 FU RWY NML=METAR SLUY 211000Z 00000KT 9999 FEW020 05/M01 Q1035 A3057659.1 HR68 FU AC=
ZPX0113 211016@CAELT@GG SLZZYMYT@CAELT@211016 SLVRYGYS@CAELT@SABO SLVR 211000@CAELT@METAR SLCP 211000Z NIL=@CAELT@METAR SLSI 211000Z NIL=@CAELT@METAR SLRB 211000Z NIL=@CAELT@METAR SLPS 211000Z NIL=@CAELT@METAR SLCA 211000Z NIL=PARO DE ACTIVIDADES LABORAL INDEFINIDO.
ZPX0134 211053@CAELT@KK SLZZYMYT@CAELT@211055 SLLPYSYX@CAELT@SABO SLRY 211100@CAELT@METAR SLRY 211100Z 00000KT 9999 BKN070 23/23 Q1009 A2982 HR97@CAELT@FU RWY NML=@CAELT@
ZPX0135 211054@CAELT@GG SLZZYMYT@CAELT@211054 SLCBYGYZ@CAELT@SABO SLCB 211100@CAELT@METAR SLCB 211100Z 00000KT 5000 FU FEW030 FEW033TCU SCT080 BKN200 15/@CAELT@08 Q1029 A3039 754.6 HR62 TCU/W VIS RED SW/W RESTO 8000 NOSIG=@CAELT@
ZPX0136 211054@CAELT@GG SLZZYMYT@CAELT@211055 SLORYGYZ@CAELT@SABO SLOR 211100@CAELT@METAR SLOR 211100Z 02005KT 9999 FEW015 SCT070 08/05 Q1036 A3061 657.0@CAELT@HR77 CI FU=@CAELT@
ZPX0137 211055@CAELT@GG SLZZYMYT@CAELT@211055 SLSBYSYX@CAELT@SABO SLSB 211100@CAELT@METAR SLSB 211100Z 00000KT 8000 BKN080 24/24 Q1012 A2989 HR98 FU@CAELT@RWY NML=@CAELT@
ZPX0138 211055@CAELT@GG SLZZYMYT@CAELT@211055 SLLPYGYZ@CAELT@SABO SLLP 211100@CAELT@METAR SLLP 211100Z 10007KT 080V140 4000E VCFG FEW003 SCT010 BKN200 04@CAELT@/03 Q1039 A3069 628.7 HR92 P92// VCFG NE/E/SE AC NOSIG=@CAELT@
ZPX0139 211055@CAELT@GG SLZZYMYT@CAELT@211055 SLRQYSYX@CAELT@SABO SLRQ 211100@CAELT@METAR SLRQ 211100Z 00000KT 8000 BKN080 23/23 Q1013 A2991 988.8 HR100@CAELT@
ZPX0140 211057@CAELT@GG SLZZYMYT@CAELT@211057 SLUYYGYS@CAELT@SABO SLUY 211100@CAELT@METAR SLUY 211100Z 00000KT 9999 FEW023 FEW027CB 06/00 Q1036 A3060@CAELT@659.8 HR65 CB/SW/NW AC FU=@CAELT@
ZPX0144 211103@CAELT@GG SLZZYMYT@CAELT@211103 SLLPYFYA@CAELT@SABO SLLP 211000@CAELT@METAR SLLP 211000Z 11002KT 4000E VCFG FEW003 SCT010 BKN200@CAELT@01/01 Q1038 A3066 628.2 HR97 P92// VCFG NE/E/SE AC NOSIG=@CAELT@METAR SLCO 211000Z 00000KT 9999 OVC080 23/23 Q1013 A2992 985.7@CAELT@HR96=@CAELT@METAR SLRY 211100Z 00000KT 9999 BKN070 23/23 Q1009 A2982 HR97FU RWY NML=METAR SLRQ 211000Z 00000KT 8000 BKN080 23/22 Q1012 A2989 988.0HR98 FU=METAR SLAP 211000Z 00000KT 7000 BKN020 OVC070 16/16 Q1019 A3012860.2 HR97 BR=METAR SLSB 211000Z 00000KT 8000 BKN080 23/23 Q1011 A2986 HR98METAR SLOR 211100Z 02005KT 9999 FEW015 SCT070 08/05 Q1036 A3061657.0 HR77 CI FU=METAR SLUY 211100Z 00000KT 9999 FEW020 05/M01 Q1035 A3057 659.1HR68 FU AC=
ZPX0147 211110@CAELT@GG SLZZYMYT@CAELT@211109 SLLPYFYA@CAELT@SABO SLLP 211100@CAELT@METAR SLLP 211100Z 10007KT 080V140 4000E VCFG FEW003 SCT010 BKN200@CAELT@04/03 Q1039 A3069 628.7 HR92 P92// VCFG NE/E/SE AC NOSIG=@CAELT@METAR SLCO 211100Z NIL=@CAELT@METAR SLRY 211100Z 00000KT 9999 BKN070 23/23 Q1009 A2982 HR97@CAELT@FU RWY NML=METAR SLRQ 211100Z 00000KT 8000 BKN080 23/23 Q1013 A2991 988.8HR100 FU=METAR SLAP 211100Z 00000KT 7000 SCT020 BKN070 17/16 Q1020 A3014861.0 HR95 BR=METAR SLSB 211100Z 00000KT 8000 BKN080 24/24 Q1012 A2989 HR98 FURWY NML=METAR SLOR 211100Z 02005KT 9999 FEW015 SCT070 08/05 Q1036 A3061657.0 HR77 CI FU=METAR SLUY 211100Z 00000KT 9999 FEW023 FEW027CB 06/00 Q1036A3060 659.8 HR65 CB/SW/NW AC FU=
ZPX0153 211119@CAELT@GG SLZZYMYT@CAELT@211117 SLVRYGYS@CAELT@SABO SLVR 201100@CAELT@METAR SLAS 211100Z NIL=@CAELT@METAR SLJV 211100Z NIL=@CAELT@METAR SLCP 211100Z NIL=@CAELT@METAR SLSI 211100Z NIL=@CAELT@METAR SLTI 211100Z NIL=METAR SLJE 211100Z NIL=METAR SLVG 211100Z NIL=METAR SLRB 211100Z NIL=METAR SLPS 211100Z NIL=METAR SLCA 211100Z NIL=PARO LABORAL TOTAL E INDEFINIDO.
ZPX0164 211154@CAELT@GG SLZZYMYT@CAELT@211154 SLSBYSYX@CAELT@SABO SLSB 211200@CAELT@METAR SLSB 211200Z 00000KT 7000 BKN080 25/24 Q1012 A2991 HR96 FU@CAELT@RWY NML=@CAELT@
ZPX0165 211155@CAELT@GG SLZZYMYT@CAELT@211155 SLORYGYZ@CAELT@SABO SLOR 211200@CAELT@METAR SLOR 211200Z 05008KT 9999 FEW015 SCT070 10/05 Q1037 A3063 657.4@CAELT@HR70 CI=@CAELT@
ZPX0166 211156@CAELT@GG SLZZYMYT@CAELT@211155 SLRQYSYX@CAELT@SABO SLRQ 211200@CAELT@METAR SLRQ 211200Z 00000KT 8000 BKN080 24/24 Q1013 A2994 989.7 HR97@CAELT@
ZPX0167 211156@CAELT@GG SLZZYMYT@CAELT@211155 SLLPYGYZ@CAELT@SABO SLLP 211200@CAELT@METAR SLLP 211200Z 11009KT 070V130 6000 FEW005 SCT200 07/03 Q1040@CAELT@A3071 629.3 HR74 VIS/RED/SC NE/E/SE NOSIG=@CAELT@
ZPX0171 211157@CAELT@GG SLZZYMYT@CAELT@211159 SLUYYGYS@CAELT@SABO SLUY 211200@CAELT@METAR SLUY 211200Z 34003KT 9999 SCT025 FEW030CB 11/02 Q1036 A3061@CAELT@660.1 HR56 CB/SH W/NW FU AC/CI=@CAELT@
ZPX0172 211158@CAELT@GG SLZZYMYT@CAELT@211158 SLLPYFYA@CAELT@SABO SLLP 211200@CAELT@METAR SLLP 211200Z 11009KT 070V130 6000 FEW005 SCT200 07/03 Q1040@CAELT@A3071 629.3 HR74 VIS/RED/SC NE/E/SE NOSIG=@CAELT@METAR SLRQ 211200Z 00000KT 8000 BKN080 24/24 Q1013 A2994 989.7 HR97@CAELT@METAR SLSB 211200Z 00000KT 7000 BKN080 25/24 Q1012 A2991 HR96 FU@CAELT@RWY NML=METAR SLOR 211200Z 05008KT 9999 FEW015 SCT070 10/05 Q1037 A3063 657.4HR70 CI=METAR SLUY 211200Z 34003KT 9999 SCT025 FEW030CB 11/02 Q1036 A3061660.1 HR56 CB/SH W/NW FU AC/CI=
ZPX0173 211159@CAELT@GG SLZZYMYT@CAELT@211158 SLCBYGYZ@CAELT@SABO SLCB 211200@CAELT@METAR SLCB 211200Z 00000KT 8000 FEW030 SCT200 16/08 Q1029 A3041 755.1@CAELT@HR62 AC FU NOSIG=@CAELT@
ZPX0174 211159@CAELT@GG SLZZYMYT@CAELT@211200 SLTRYGYS@CAELT@SABO SLTR 211200@CAELT@METAR SLTR 211200Z NIL=@CAELT@METAR SLGM 211200Z NIL=@CAELT@METAR SLRI 211200Z NIL=@CAELT@METAR SLJO 211200Z NIL=@CAELT@METAR SLRA 211200Z NIL=METAR SLMG 211200Z NIL=METAR SLBU 211200Z NIL=METAR SLSA 211200Z NIL=METAR SLSR 211200Z NIL=METAR SLSM 211200Z NIL=PARO LABORAL TOTAL E INDEFINIDO
ZPX0175 211159@CAELT@GG SLZZYMYT@CAELT@211158 SLLPYFYA@CAELT@SABO SLLP 211200@CAELT@METAR SLLP 211200Z 11009KT 070V130 6000 FEW005 SCT200 07/03 Q1040@CAELT@A3071 629.3 HR74 VIS/RED/SC NE/E/SE NOSIG=@CAELT@METAR SLRQ 211200Z 00000KT 8000 BKN080 24/24 Q1013 A2994 989.7 HR97@CAELT@METAR SLAP 211100Z 00000KT 7000 SCT020 BKN070 17/16 Q1020 A3014 861.0@CAELT@HR95 BR=METAR SLSB 211200Z 00000KT 7000 BKN080 25/24 Q1012 A2991 HR96 FURWY NML=METAR SLOR 211200Z 05008KT 9999 FEW015 SCT070 10/05 Q1037 A3063 657.4HR70 CI=METAR SLUY 211200Z 34003KT 9999 SCT025 FEW030CB 11/02 Q1036 A3061660.1 HR56 CB/SH W/NW FU AC/CI=
ZPX0177 211200@CAELT@GG SLZZYMYT@CAELT@211155 SLLPYFZA@CAELT@SABO SLRY 211200@CAELT@METAR SLRY 211200Z 00000KT 9999 BKN070 24/23 Q1010 A2985 HR95@CAELT@FU RWY NML=@CAELT@
ZPX0178 211202@CAELT@GG SLZZYMYT@CAELT@211158 SLLPYFYA@CAELT@SABO SLLP 211200@CAELT@METAR SLLP 211200Z 11009KT 070V130 6000 FEW005 SCT200 07/03 Q1040@CAELT@A3071 629.3 HR74 VIS/RED/SC NE/E/SE NOSIG=@CAELT@METAR SLRY 211200Z 00000KT 9999 BKN070 24/23 Q1010 A2985 HR95@CAELT@FU RWY NML=@CAELT@METAR SLRQ 211200Z 00000KT 8000 BKN080 24/24 Q1013 A2994 989.7 HR97METAR SLAP 211100Z 00000KT 7000 SCT020 BKN070 17/16 Q1020 A3014 861.0HR95 BR=METAR SLSB 211200Z 00000KT 7000 BKN080 25/24 Q1012 A2991 HR96 FURWY NML=METAR SLOR 211200Z 05008KT 9999 FEW015 SCT070 10/05 Q1037 A3063 657.4HR70 CI=METAR SLUY 211200Z 34003KT 9999 SCT025 FEW030CB 11/02 Q1036 A3061660.1 HR56 CB/SH W/NW FU AC/CI=
ZPX0191 211253@CAELT@GG SLZZYMYT@CAELT@211254 SLCBYGYZ@CAELT@SABO SLCB 211300@CAELT@METAR SLCB 211300Z 24003KT 9999 FEW030 SCT200 20/08 Q1029 A3041 755.1@CAELT@HR45 FU NOSIG=@CAELT@
ZPX0192 211254@CAELT@GG SLZZYMYT@CAELT@211257 SLUYYGYS@CAELT@SABO SLUY 211300@CAELT@METAR SLUY 211300Z 25007KT 9999 SCT025 FEW030CB 12/03 Q1037 A3064@CAELT@660.3 HR50 CB/SH NW FU AC/CI=@CAELT@
ZPX0193 211255@CAELT@GG SLZZYMYT@CAELT@211255 SLRQYSYX@CAELT@SABO SLRQ 211300@CAELT@METAR SLRQ 211300Z 00000KT 8000 BKN080 26/24 Q1014 A2997 990.7 HR91@CAELT@
ZPX0194 211255@CAELT@GG SLZZYMYT@CAELT@211255 SLSBYSYX@CAELT@SABO SLSB 211300@CAELT@METAR SLSB 211300Z 00000KT 7000 SCT025 BKN080 26/25 Q1013 A2993 HR90@CAELT@RWY NML=@CAELT@
ZPX0195 211255@CAELT@GG SLZZYMYT@CAELT@211255 SLAGYSYX@CAELT@SABO SLAG 211300@CAELT@METAR SLAG 211300Z 00000KT 9999 SCT012 BKN200 25/18 Q1022 A3019 893.8@CAELT@HR66 AC=@CAELT@
ZPX0197 211256@CAELT@GG SLZZYMYT@CAELT@211256 SLSBYSYX@CAELT@SABO SLSB 211300 CCA@CAELT@METAR COR SLSB 211300Z 00000KT 7000 SCT025 BKN080 26/25 Q1013 A2993@CAELT@HR90 FU RWY NML=@CAELT@
ZPX0199 211257@CAELT@GG SLZZYMYT@CAELT@211256 SLORYGYZ@CAELT@SABO SLOR 211300@CAELT@METAR SLOR 211300Z 04010KT 9999 FEW017 SCT070 14/07 Q1037 A3064 657.6@CAELT@HR65 CI=@CAELT@
ZPX0200 211258@CAELT@GG SLZZYMYT@CAELT@211258 SLTRYGYS@CAELT@SABO SLTR 211300@CAELT@METAR SLTR 211300Z NIL=@CAELT@METAR SLGM 211300Z NIL=@CAELT@METAR SLRI 211300Z NIL=@CAELT@METAR SLJO 211300Z NIL=@CAELT@METAR SLRA 211300Z NIL=METAR SLMG 211300Z NIL=METAR SLBU 211300Z NIL=METAR SLSA 211300Z NIL=METAR SLSR 211300Z NIL=METAR SLSM 211300Z NIL=PARO LABORAL TOTAL E INDEFINIDO
ZPX0205 211309@CAELT@GG SLZZYMYT@CAELT@211300 SLLPYFYA@CAELT@SABO SLRY 213000@CAELT@METAR SLRY 211300Z 00000KT 9999 BKN070 25/23 Q1011 A2988@CAELT@HR89 FU RWY NML=@CAELT@
ZPX0206 211312@CAELT@GG SLZZYMYT@CAELT@211301 SLLPYFYA@CAELT@SABO SLLP 211300@CAELT@METAR SLLP 211300Z 08010KT 040V110 9999 FEW010 SCT200 09/01 Q1040@CAELT@A3073 629.8 HR57 P93// FU NOSIG=@CAELT@METAR SLRY 211300Z 00000KT 9999 BKN070 25/23 Q1011 A2988@CAELT@HR89 FU RWY NML=@CAELT@METAR SLRQ 211300Z 00000KT 8000 BKN080 26/24 Q1014 A2997 990.7 HR91METAR SLAP 211300Z 00000KT 9999 SCT020 BKN070 22/16 Q1021 A3017 861.9HR72METAR SLSB 211300Z 00000KT 7000 SCT025 BKN080 26/25 Q1013 A2993HR90 FU RWY NML=METAR SLOR 211300Z 04010KT 9999 FEW017 SCT070 14/07 Q1037 A3064 657.6HR65 CI=METAR SLUY 211300Z 25007KT 9999 SCT025 FEW030CB 12/03 Q1037 A3064660.3 HR50 CB/SH NW FU AC/CI=
ZPX0216 211354@CAELT@GG SLZZYMYT@CAELT@211355 SLRQYSYX@CAELT@SABO SLRQ 211400@CAELT@METAR SLRQ 211400Z 00000KT 8000 BKN080 26/24 Q1015 A2998 991.0 HR87@CAELT@
ZPX0217 211356@CAELT@GG SLZZYMYT@CAELT@211357 SLUYYGYS@CAELT@SABO SLUY 211400@CAELT@METAR SLUY 211400Z 28008KT 9999 FEW027 FEW030CB 13/04 Q1037 A3063@CAELT@660.6 HR56 CB/SH NE/S FU AC/CI=@CAELT@
ZPX0218 211356@CAELT@GG SLZZYMYT@CAELT@211355 SLAGYSYX@CAELT@SABO SLAG 211400@CAELT@METAR SLAG 211400Z 00000KT 9999 FEW015 BKN200 27/17 Q1021 A3017 893.2@CAELT@HR56 AC=@CAELT@
ZPX0220 211357@CAELT@GG SLZZYMYT@CAELT@211356 SLSBYSYX@CAELT@SABO SLSB 211400@CAELT@METAR SLSB 211400Z 00000KT 7000 SCT025 BKN080 28/25 Q1013 A2993 HR85@CAELT@FU RWY NML=@CAELT@
ZPX0224 211400@CAELT@GG SLZZYMYT@CAELT@211400 SLLPYFYA@CAELT@SABO SLLP 211400@CAELT@METAR SLLP 211400Z 08012KT 060V120 9999 FEW015 FEW017CB SCT200 11/02@CAELT@Q1040 A3074 630.0 HR50 P2483 CB/E AC FU NOSIG=@CAELT@METAR SLRQ 211400Z 00000KT 8000 BKN080 26/24 Q1015 A2998 991.0 HR87@CAELT@METAR SLAP 211400Z 00000KT 9999 SCT020 BKN070 23/18 Q1022 A3019 862.5@CAELT@HR75=METAR SLSB 211400Z 00000KT 7000 SCT025 BKN080 28/25 Q1013 A2993 HR85FU RWY NML=METAR SLUY 211400Z 28008KT 9999 FEW027 FEW030CB 13/04 Q1037 A3063660.6 HR56 CB/SH NE/S FU AC/CI=
ZPX0227 211403@CAELT@GG SLZZYMYT@CAELT@211402 SLORYGYZ@CAELT@SABO SLOR 211400 RRA@CAELT@METAR RTD SLOR 211400Z 04014KT 9999 FEW017 SCT070 14/07 Q1037 A3064@CAELT@657.5 HR50 CI=@CAELT@
ZPX0228 211404@CAELT@GG SLZZYMYT@CAELT@211400 SLTRYGYS@CAELT@SABO SLTR 211400@CAELT@METAR SLTR 211400Z NIL=@CAELT@METAR SLGM 211400Z NIL=@CAELT@METAR SLRI 211400Z NIL=@CAELT@METAR SLJO 211400Z NIL=@CAELT@METAR SLRA 211400Z NIL=METAR SLMG 211400Z NIL=METAR SLBU 211400Z NIL=METAR SLSA 211400Z NIL=METAR SLSR 211400Z NIL=METAR SLSM 211400Z NIL=PARO LABORAL TOTAL E INDEFINIDO
ZPX0232 211408@CAELT@GG SLZZYMYT@CAELT@211408 SLLPYFYA@CAELT@SABO SLLP 211400 RRA@CAELT@METAR SLLP 211400Z 08012KT 060V120 9999 FEW015 FEW017CB SCT200 11/02@CAELT@Q1040 A3074 630.0 HR50 P2483 CB/E AC FU NOSIG=@CAELT@METAR SLRQ 211400Z 00000KT 8000 BKN080 26/24 Q1015 A2998 991.0 HR87@CAELT@METAR SLAP 211400Z 00000KT 9999 SCT020 BKN070 23/18 Q1022 A3019 862.5@CAELT@HR75=METAR SLSB 211400Z 00000KT 7000 SCT025 BKN080 28/25 Q1013 A2993 HR85FU RWY NML=METAR RTD SLOR 211400Z 04014KT 9999 FEW017 SCT070 14/07 Q1037 A3064657.5 HR50 CI=METAR SLUY 211400Z 28008KT 9999 FEW027 FEW030CB 13/04 Q1037 A3063660.6 HR56 CB/SH NE/S FU AC/CI=
ZPX0236 211412@CAELT@GG SLZZYMYT@CAELT@211405 SLLPYFYA@CAELT@SABO SLRY 214000@CAELT@METAR SLRY 211400Z 00000KT 9999 BKN070 26/24 Q1012 A2989@CAELT@HR87 FU RWY NML=@CAELT@
ZPX0237 211412@CAELT@GG SLZZYMYT@CAELT@211408 SLLPYFYA@CAELT@SABO SLLP 211400 RRA@CAELT@METAR SLLP 211400Z 08012KT 060V120 9999 FEW015 FEW017CB SCT200 11/02@CAELT@Q1040 A3074 630.0 HR50 P2483 CB/E AC FU NOSIG=@CAELT@METAR SLRY 211400Z 00000KT 9999 BKN070 26/24 Q1012 A2989@CAELT@HR87 FU RWY NML=@CAELT@METAR SLRQ 211400Z 00000KT 8000 BKN080 26/24 Q1015 A2998 991.0 HR87METAR SLAP 211400Z 00000KT 9999 SCT020 BKN070 23/18 Q1022 A3019 862.5HR75=METAR SLSB 211400Z 00000KT 7000 SCT025 BKN080 28/25 Q1013 A2993 HR85FU RWY NML=METAR RTD SLOR 211400Z 04014KT 9999 FEW017 SCT070 14/07 Q1037 A3064657.5 HR50 CI=METAR SLUY 211400Z 28008KT 9999 FEW027 FEW030CB 13/04 Q1037 A3063660.6 HR56 CB/SH NE/S FU AC/CI=
ZPX0253 211454@CAELT@GG SLZZYMYT@CAELT@211455 SLRQYSYX@CAELT@SABO SLRQ 211500@CAELT@METAR SLRQ 211500Z 00000KT 8000 SCT030 BKN080 29/25 Q1014 A2997 990.6@CAELT@HR79 FU=@CAELT@
ZPX0254 211455@CAELT@GG SLZZYMYT@CAELT@211454 SLSBYSYX@CAELT@SABO SLSB 211500@CAELT@METAR SLSB 211500Z 00000KT 7000 SCT025 BKN080 29/25 Q1014 A2994 HR79@CAELT@FU RWY NML=@CAELT@
ZPX0255 211455@CAELT@GG SLZZYMYT@CAELT@211455 SLORYGYZ@CAELT@SABO SLOR 211500@CAELT@METAR SLOR 211500Z 04010KT 9999 FEW017 SCT070 15/05 Q1037 A3063 657.5@CAELT@HR49 CI=@CAELT@
ZPX0258 211457@CAELT@GG SLZZYMYT@CAELT@211458 SLUYYGYS@CAELT@SABO SLUY 211500@CAELT@METAR SLUY 211500Z 25007KT 9999 SCT027 FEW030 BKN200 15/03 Q1036@CAELT@A3062 660.2 HR45 CB/SH NE/E AC FU=@CAELT@
ZPX0259 211459@CAELT@GG SLZZYMYT@CAELT@211500 SLTRYGYS@CAELT@SABO SLTR 211500@CAELT@METAR SLTR 211500Z NIL=@CAELT@METAR SLGM 211500Z NIL=@CAELT@METAR SLRI 211500Z NIL=@CAELT@METAR SLJO 211500Z NIL=@CAELT@METAR SLRA 211500Z NIL=METAR SLMG 211500Z NIL=METAR SLBU 211500Z NIL=METAR SLSA 211500Z NIL=METAR SLSR 211500Z NIL=METAR SLSM 211500Z NIL=PARO LABORAL TOTAL E INDEFINIDO
ZPX0260 211459@CAELT@GG SLZZYMYT@CAELT@211458 SLLPYGYZ@CAELT@SABO SLLP 211500@CAELT@METAR SLLP 211500Z 08012G22KT 040V130 9999 SCT017 FEW020CB SCT200@CAELT@12/02 Q1040 A3073 629.6 HR49 P1487 CB/SH N/E/SE/SW AC FU NOSIG=@CAELT@
ZPX0261 211500@CAELT@GG SLZZYMYT@CAELT@211458 SLAGYSYX@CAELT@SABO SLAG 211500@CAELT@METAR SLAG 211500Z 00000KT 9999 FEW017 FEW027TCU BKN200 29/16 Q1020@CAELT@A3014 892.5 HR45 TCU NE/W AC=@CAELT@
ZPX0265 211508@CAELT@GG SLZZYMYT@CAELT@211500 SLLPYFYA@CAELT@SABO SLRY 215000@CAELT@METAR SLRY 211500Z 00000KT 9999 BKN070 28/25 Q1012 A2991@CAELT@HR82 FU RWY NML=@CAELT@
ZPX0266 211510@CAELT@GG SLZZYMYT@CAELT@211502 SLLPYFYA@CAELT@SABO SLLP 211500@CAELT@METAR SLLP 211500Z 08012G22KT 040V130 9999 SCT017 FEW020CB SCT200@CAELT@12/02 Q1040 A3073 629.6 HR49 P1487 CB/SH N/E/SE/SW AC FU NOSIG=@CAELT@METAR SLRY 211500Z 00000KT 9999 BKN070 28/25 Q1012 A2991@CAELT@HR82 FU RWY NML=@CAELT@METAR SLRQ 211500Z 00000KT 8000 SCT030 BKN080 29/25 Q1014 A2997 990.6HR79 FU=METAR SLAP 211500Z 00000KT 9999 SCT025 FEW027CB BKN070 22/18 Q1022A3018 862.2 HR77 CB/SH NE/E/SE=METAR SLSB 211500Z 00000KT 7000 SCT025 BKN080 29/25 Q1014 A2994 HR79FU RWY NML=METAR SLOR 211500Z 04010KT 9999 FEW017 SCT070 15/05 Q1037 A3063 657.5HR49 CI=METAR SLUY 211500Z 25007KT 9999 SCT027 FEW030 BKN200 15/03 Q1036A3062 660.2 HR45 CB/SH NE/E AC FU=
ZPX0276 211554@CAELT@GG SLZZYMYT@CAELT@211555 SLAGYSYX@CAELT@SABO SLAG 211600@CAELT@METAR SLAG 211600Z 15003KT 9999 FEW020 FEW027TCU BKN200 31/16 Q1020@CAELT@A3012 891.8 HR40 TCU/NE AC=@CAELT@
ZPX0277 211555@CAELT@GG SLZZYMYT@CAELT@211555 SLSBYSYX@CAELT@SABO SLSB 211600@CAELT@METAR SLSB 211600Z 00000KT 8000 FEW025 BKN080 31/26 Q1014 A2994 HR72@CAELT@FU RWY NML=@CAELT@
ZPX0278 211556@CAELT@GG SLZZYMYT@CAELT@211555 SLRQYSYX@CAELT@SABO SLRQ 211600@CAELT@METAR SLRQ 211600Z 36004KT 8000 FEW017 SCT080 31/25 Q1014 A2995 990.0@CAELT@HR72 FU=@CAELT@
ZPX0279 211556@CAELT@GG SLZZYMYT@CAELT@211557 SLUYYGYS@CAELT@SABO SLUY 211600@CAELT@METAR SLUY 211600Z 08009KT 9999 VCTS SCT027 FEW030CB BKN200 13/03@CAELT@Q1036 A3061 660.0 HR52 CB/SH N/NE/E/SE TS SE AC=@CAELT@
ZPX0280 211556@CAELT@GG SLZZYMYT@CAELT@211556 SLORYGYZ@CAELT@SABO SLOR 211600@CAELT@METAR SLOR 211600Z 06013KT 9999 SCT020 19/05 Q1037 A3062 657.3 HR40@CAELT@AC/CI=@CAELT@
ZPX0281 211558@CAELT@GG SLZZYMYT@CAELT@211558 SLTRYGYS@CAELT@SABO SLTR 211600@CAELT@METAR SLTR 211600Z NIL=@CAELT@METAR SLGM 211600Z NIL=@CAELT@METAR SLRI 211600Z NIL=@CAELT@METAR SLJO 211600Z NIL=@CAELT@METAR SLRA 211600Z NIL=METAR SLMG 211600Z NIL=METAR SLBU 211600Z NIL=METAR SLSA 211600Z NIL=METAR SLSR 211600Z NIL=METAR SLSM 211600Z NIL=PARO LABORAL TOTAL E INDEFINIDO
ZPX0284 211603@CAELT@GG SLZZYMYT@CAELT@211600 SLLPYFYA@CAELT@SABO SLRY 216000@CAELT@METAR SLRY 211600Z 00000KT 9999 BKN080 31/25 Q1012 A2991@CAELT@HR70 FU RWY NML=@CAELT@
ZPX0285 211604@CAELT@GG SLZZYMYT@CAELT@211600 SLLPYFYA@CAELT@SABO SLLP 211600@CAELT@METAR SLLP 211600Z 09014KT 050V120 9999 SCT017 FEW020CB BKN200 12/01@CAELT@Q1040 A3071 629.3 HR47 P3784 CB/SH SE/SW/W/NW AC NOSIG=@CAELT@METAR SLRY 211600Z 00000KT 9999 BKN080 31/25 Q1012 A2991@CAELT@HR70 FU RWY NML=@CAELT@METAR SLRQ 211600Z 36004KT 8000 FEW017 SCT080 31/25 Q1014 A2995 990.0HR72 FU=METAR SLAP 211600Z 03010KT 9999 SCT025 FEW027CB OVC070 20/17 Q1021A3017 861.9 HR83 CB/SH N/NE/E/SE=METAR SLSB 211600Z 00000KT 8000 FEW025 BKN080 31/26 Q1014 A2994 HR72FU RWY NML=METAR SLOR 211600Z 06013KT 9999 SCT020 19/05 Q1037 A3062 657.3 HR40AC/CI=METAR SLUY 211600Z 08009KT 9999 VCTS SCT027 FEW030CB BKN200 13/03Q1036 A3061 660.0 HR52 CB/SH N/NE/E/SE TS SE AC=
ZPX0303 211654@CAELT@GG SLZZYMYT@CAELT@211654 SLSBYSYX@CAELT@SABO SLSB 211700@CAELT@METAR SLSB 211700Z 00000KT 8000 FEW020 SCT080 33/23 Q1013 A2993 HR58@CAELT@FU RWY NML=@CAELT@
ZPX0304 211654@CAELT@GG SLZZYMYT@CAELT@211654 SLCBYGYZ@CAELT@SABO SLCB 211700@CAELT@METAR SLCB 211700Z 29006KT 9999 SCT033 SCT200 25/05 Q1025 A3029 751.9@CAELT@HR27 AC FU NOSIG=@CAELT@
ZPX0305 211654@CAELT@GG SLZZYMYT@CAELT@211655 SLORYGYZ@CAELT@SABO SLOR 211700@CAELT@METAR SLOR 211700Z 02013KT 9999 SCT020 17/02 Q1036 A3061 657.0 HR38@CAELT@AC/CI=@CAELT@
ZPX0307 211654@CAELT@GG SLZZYMYT@CAELT@211654 SLSBYSYX@CAELT@SABO SLSB 211700@CAELT@METAR SLSB 211700Z 00000KT 8000 FEW020 SCT080 33/23 Q1013 A2993 HR58@CAELT@FU RWY NML=@CAELT@
ZPX0308 211654@CAELT@GG SLZZYMYT@CAELT@211657 SLUYYGYS@CAELT@SABO SLUY 211700@CAELT@METAR SLUY 211700Z 08009KT 9999 VCTS SCT027 FEW030CB BKN200 10/04@CAELT@Q1036 A3060 659.9 HR64 CB/SH NE/E/S/SW TS S AC=@CAELT@
ZPX0309 211656@CAELT@GG SLZZYMYT@CAELT@211655 SLRQYSYX@CAELT@SABO SLRQ 211700@CAELT@METAR SLRQ 211700Z 00000KT 8000 SCT017 FEW020CB 34/24 Q1013 A2993 989@CAELT@.4 HR55 CB W/NW FU AC=@CAELT@
ZPX0310 211657@CAELT@GG SLZZYMYT@CAELT@211655 SLAGYSYX@CAELT@SABO SLAG 211700@CAELT@METAR SLAG 211700Z 15006KT 9999 FEW023 FEW030CB SCT200 31/15 Q1018@CAELT@A3007 890.4 HR37 CB NE/W=@CAELT@
ZPX0313 211703@CAELT@GG SLZZYMYT@CAELT@211700 SLLPYFYA@CAELT@SABO SLLP 211700@CAELT@METAR SLLP 211700Z 13006KT 9999 FEW017 FEW020CB SCT070 BKN200 11/01@CAELT@Q1039 A3069 628.8 HR51 P3483 CB/SH SW/NW NOSIG=@CAELT@METAR SLRQ 211700Z 00000KT 8000 SCT017 FEW020CB 34/24 Q1013 A2993 989@CAELT@.4 HR55 CB W/NW FU AC=@CAELT@METAR SLAP 211700Z 03012KT 9999 SCT025 FEW027CB OVC070 20/18 Q1021A3016 861.6 HR87 CB/SH N/NE/E/SE=METAR SLSB 211700Z 00000KT 8000 FEW020 SCT080 33/23 Q1013 A2993 HR58FU RWY NML=METAR SLOR 211700Z 02013KT 9999 SCT020 17/02 Q1036 A3061 657.0 HR38AC/CI=METAR SLUY 211700Z 08009KT 9999 VCTS SCT027 FEW030CB BKN200 10/04Q1036 A3060 659.9 HR64 CB/SH NE/E/S/SW TS S AC=
ZPX0314 211706@CAELT@GG SLZZYMYT@CAELT@211700 SLLPYFYA@CAELT@SABO SLRY 211700@CAELT@METAR SLRY 211700Z 00000KT 9999 FEW017 FEW027CB SCT080 33/24 Q1011@CAELT@A2988 HR61 CB/W FU RWY NML=@CAELT@
ZPX0315 211706@CAELT@GG SLZZYMYT@CAELT@211700 SLLPYFYA@CAELT@SABO SLLP 211700@CAELT@METAR SLLP 211700Z 13006KT 9999 FEW017 FEW020CB SCT070 BKN200 11/01@CAELT@Q1039 A3069 628.8 HR51 P3483 CB/SH SW/NW NOSIG=@CAELT@METAR SLRY 211700Z 00000KT 9999 FEW017 FEW027CB SCT080 33/24 Q1011@CAELT@A2988 HR61 CB/W FU RWY NML=@CAELT@METAR SLRQ 211700Z 00000KT 8000 SCT017 FEW020CB 34/24 Q1013 A2993 989.4 HR55 CB W/NW FU AC=METAR SLAP 211700Z 03012KT 9999 SCT025 FEW027CB OVC070 20/18 Q1021A3016 861.6 HR87 CB/SH N/NE/E/SE=METAR SLSB 211700Z 00000KT 8000 FEW020 SCT080 33/23 Q1013 A2993 HR58FU RWY NML=METAR SLOR 211700Z 02013KT 9999 SCT020 17/02 Q1036 A3061 657.0 HR38AC/CI=METAR SLUY 211700Z 08009KT 9999 VCTS SCT027 FEW030CB BKN200 10/04Q1036 A3060 659.9 HR64 CB/SH NE/E/S/SW TS S AC=
ZPX0340 211755@CAELT@GG SLZZYMYT@CAELT@211755 SLORYGYZ@CAELT@SABO SLOR 211800@CAELT@METAR SLOR 211800Z 05008KT 9999 SCT020 19/02 Q1035 A3056 655.9 HR31@CAELT@AC/CI=@CAELT@
ZPX0341 211755@CAELT@GG SLZZYMYT@CAELT@211755 SLCBYGYZ@CAELT@SABO SLCB 211800@CAELT@METAR SLCB 211800Z 26006KT 9999 SCT033 FEW036CB SCT200 27/04 Q1024@CAELT@A3024 750.7 HR23 CB NW/N/NE/SE AC FU NOSIG=@CAELT@
ZPX0343 211756@CAELT@GG SLZZYMYT@CAELT@211755 SLRQYSYX@CAELT@SABO SLRQ 211800@CAELT@METAR SLRQ 211800Z 00000KT 8000 VCTS SCT017 FEW023CB BKN200 31/25@CAELT@Q1012 A2989 HR70 CB/TS/S/SW FU=@CAELT@
ZPX0344 211757@CAELT@GG SLZZYMYT@CAELT@211756 SLAGYSYX@CAELT@SABO SLAG 211800@CAELT@METAR SLAG 211800Z 15003KT 9999 SCT023 FEW033CB SCT200 31/16 Q1016@CAELT@A3002 888.9 HR40 CB NE/W=@CAELT@
ZPX0345 211757@CAELT@GG SLZZYMYT@CAELT@211755 SLSBYSYX@CAELT@SABO SLSB 211800@CAELT@METAR SLSB 211800Z 33005KT 9999 FEW020 BKN200 34/23 Q1011 A2987 HR54@CAELT@RWY NML=@CAELT@
ZPX0346 211758@CAELT@GG SLZZYMYT@CAELT@211758 SLTRYGYZ@CAELT@SABO SLTR 211800@CAELT@METAR SLTR 211800Z 33003KT 9999 FEW020 FEW023CB 35/21 Q1011 A2986@CAELT@992.8 HR45 FU CI CB NE NOSIG=@CAELT@
ZPX0349 211801@CAELT@GG SLZZYMYT@CAELT@211755 SLLPYFYA@CAELT@SABO SLRY 211800@CAELT@METAR SLRY 211800Z 00000KT 9999 FW020 BKN200 32/24 Q1010 A2985@CAELT@HR63 FU RWY NML=@CAELT@
ZPX0350 211802@CAELT@GG SLZZYMYT@CAELT@211800 SLTRYGYS@CAELT@SABO SLTR 211800@CAELT@METAR SLTR 211800Z 33003KT 9999 FEW020 FEW023CB 35/21 Q1011 A2986@CAELT@992.8 HR45 FU CI CB NE NOSIG=@CAELT@METAR SLGM 211800Z NIL=@CAELT@METAR SLRI 211800Z 20008KT 8000 SCT017 FEW020CB BKN080 35/23 Q1011@CAELT@A2986 HR49 CB N/NE/SE/NW FU CI=METAR SLJO 211800Z NIL=METAR SLRA 211800Z NIL=METAR SLMG 211800Z NIL=METAR SLBU 211800Z NIL=METAR SLSR 211800Z NIL=METAR SLSM 211800Z NIL=
ZPX0352 211803@CAELT@GG SLZZYMYT@CAELT@211800 SLTRYGYS@CAELT@SABO SLTR 211800@CAELT@METAR SLTR 211800Z 33003KT 9999 FEW020 FEW023CB 35/21 Q1011 A2986@CAELT@992.8 HR45 FU CI CB NE NOSIG=@CAELT@METAR SLGM 211800Z NIL=@CAELT@METAR SLRI 211800Z 20008KT 8000 SCT017 FEW020CB BKN080 35/23 Q1011@CAELT@A2986 HR49 CB N/NE/SE/NW FU CI=METAR SLJO 211800Z NIL=METAR SLRA 211800Z NIL=METAR SLMG 211800Z NIL=METAR SLBU 211800Z NIL=METAR SLSA 211800Z NIL=METAR SLSR 211800Z NIL=METAR SLSM 211800Z NIL=
ZPX0353 211803@CAELT@GG SLZZYMYT@CAELT@211800 SLLPYFYA@CAELT@SABO SLLP 211800@CAELT@METAR SLLP 211800Z 12010KT 060V170 9999 FEW017 FEW020CB BKN200 15/M01@CAELT@Q1037 A3065 627.8 HR35 P4453 CB/SH SW/NW AC NOSIG=@CAELT@METAR SLRY 211800Z 00000KT 9999 FW020 BKN200 32/24 Q1010 A2985@CAELT@HR63 FU RWY NML=@CAELT@METAR SLRQ 211800Z 00000KT 8000 VCTS SCT017 FEW023CB BKN200 31/25Q1012 A2989 HR70 CB/TS/S/SW FU=METAR SLSB 211800Z 33005KT 9999 FEW020 BKN200 34/23 Q1011 A2987 HR54RWY NML=METAR SLAP 211800Z 00000KT 5000 VCSH BKN025 FEW027CB OVC070 20/17Q1021 A3014 861.0 HR86 CB/SH N/NE/E/SE=METAR SLOR 211800Z 05008KT 9999 SCT020 19/02 Q1035 A3056 655.9 HR31AC/CI=
ZPX0371 211854@CAELT@GG SLZZYMYT@CAELT@211854 SLCBYGYZ@CAELT@SABO SLCB 211900@CAELT@METAR SLCB 211900Z 36008KT 9999 SCT033 FEW036CB SCT200 25/05 Q1023@CAELT@A3021 749.8 HR27 CB E/SE/S AC FU NOSIG=@CAELT@
ZPX0372 211855@CAELT@GG SLZZYMYT@CAELT@211855 SLSBYSYX@CAELT@SABO SLSB 211900@CAELT@METAR SLSB 211900Z 31007KT 9999 FEW020 BKN200 34/22 Q1009 A2982 HR50@CAELT@RWY NML=@CAELT@
ZPX0373 211856@CAELT@GG SLZZYMYT@CAELT@211855 SLRQYSYX@CAELT@SABO SLRQ 211900@CAELT@METAR SLRQ 211900Z 27006KT 8000 FEW020 FEW023CB BKN200 29/24 Q1010@CAELT@A2984 986.5 HR74 CB SE/W/NW FU RETS=@CAELT@
ZPX0374 211857@CAELT@GG SLZZYMYT@CAELT@211855 SLLPYGYZ@CAELT@SABO SLLP 211900@CAELT@METAR SLLP 211900Z 10007KT 030V160 9999 SCT017 FEW020CB BKN200 13/M01@CAELT@Q1036 A3061 627.0 HR39 P0784 CB/SH N/SW/NW AC NOSIG=@CAELT@
ZPX0375 211857@CAELT@GG SLZZYMYT@CAELT@211855 SLAGYSYX@CAELT@SABO SLAG 211900@CAELT@METAR SLAG 211900Z 14003KT 9999 SCT023 FEW033CB SCT200 32/16 Q1015@CAELT@A2998 887.7 HR38 CB/NE=@CAELT@
ZPX0376 211859@CAELT@GG SLZZYMYT@CAELT@211859 SLTRYGYZ@CAELT@SABO SLTR 211900@CAELT@METAR SLTR 211900Z 33004KT 9999 FEW020 FEW023CB SCT200 34/23 Q1009@CAELT@A2981 991.0 HR52 FU NOSIG=@CAELT@
ZPX0378 211901@CAELT@GG SLZZYMYT@CAELT@211900 SLTRYGYS@CAELT@SABO SLTR 211900@CAELT@METAR SLTR 211900Z 33004KT 9999 FEW020 FEW023CB SCT200 34/23 Q1009@CAELT@A2981 991.0 HR52 FU NOSIG=@CAELT@METAR SLGM 211900Z 10010KT 8000 SCT017 FEW020CB BKN200 35/23 Q1009@CAELT@A2981 HR53 FU AC CB N/NE/E=@CAELT@METAR SLRI 202200Z 21015KT 5000 FU SCT017 FEW020CB 34/22 Q1010 A2983HR52 CB N/E/SW AC CI=METAR SLJO 211900Z NIL=METAR SLRA 211900Z 09006KT 8000 SCT020 36/21 Q1009 A2982 HR43 FURWY NML=METAR SLMG 211900Z NIL=METAR SLBU 211900Z NIL=METAR SLSA 211900Z NIL=METAR SLSR 211900Z NIL=METAR SLSM 211900Z 00000KT 9999 SCT017 FEW023CB 34/23 Q1009 A2982HR54 CB SW RWY NML=
ZPX0379 211902@CAELT@GG SLZZYMYT@CAELT@211857 SLLPYFYA@CAELT@SABO SLRY 211900@CAELT@METAR SLRY 211900Z 27003KT 9999 FEW020 BKN200 31/25 Q1009@CAELT@A2979 HR69 FU RWY NML=@CAELT@
ZPX0380 211902@CAELT@GG SLZZYMYT@CAELT@211902 SLTRYGYS@CAELT@SABO SLTR 211900 CCA@CAELT@METAR SLTR 211900Z 33004KT 9999 FEW020 FEW023CB SCT200 34/23 Q1009@CAELT@A2981 991.0 HR52 FU NOSIG=@CAELT@METAR SLGM 211900Z 10010KT 8000 SCT017 FEW020CB BKN200 35/23 Q1009@CAELT@A2981 HR53 FU AC CB N/NE/E=@CAELT@METAR COR SLRI 201900Z 21015KT 5000 FU SCT017 FEW020CB 34/22 Q1010A2983 HR52 CB N/E/SW AC CI=METAR SLJO 211900Z NIL=METAR SLRA 211900Z 09006KT 8000 SCT020 36/21 Q1009 A2982 HR43 FURWY NML=METAR SLMG 211900Z NIL=METAR SLBU 211900Z NIL=METAR SLSA 211900Z NIL=METAR SLSR 211900Z NIL=METAR SLSM 211900Z 00000KT 9999 SCT017 FEW023CB 34/23 Q1009 A2982HR54 CB SW RWY NML=
ZPX0382 211903@CAELT@GG SLZZYMYT@CAELT@211900 SLLPYFYA@CAELT@SABO SLLP 211900@CAELT@METAR SLLP 211900Z 10007KT 030V160 9999 SCT017 FEW020CB BKN200 13/M01@CAELT@Q1036 A3061 627.0 HR39 P0784 CB/SH N/SW/NW AC NOSIG=@CAELT@METAR SLRY 211900Z 27003KT 9999 FEW020 BKN200 31/25 Q1009@CAELT@A2979 HR69 FU RWY NML=@CAELT@METAR SLRQ 211900Z 27006KT 8000 FEW020 FEW023CB BKN200 29/24 Q1010A2984 986.5 HR74 CB SE/W/NW FU RETS=METAR SLSB 211900Z 31007KT 9999 FEW020 BKN200 34/22 Q1009 A2982 HR50RWY NML=
ZPX0384 211910@CAELT@GG SLZZYMYT@CAELT@211910 SLTRYGYZ@CAELT@SABO SLTR 211900 CCA@CAELT@METAR COR SLTR 211900Z 33004KT 9999 FEW020 FEW023CB SCT200 34/23@CAELT@Q1009 A2981 991.0 HR52 FU CB NE NOSIG=@CAELT@
ZPX0385 211912@CAELT@GG SLZZYMYT@CAELT@211911 SLTRYGYS@CAELT@SABO SLTR 211900 CCB@CAELT@METAR COR SLTR 211900Z 33004KT 9999 FEW020 FEW023CB SCT200 34/23@CAELT@Q1009 A2981 991.0 HR52 FU CB NE NOSIG=@CAELT@METAR SLGM 211900Z 10010KT 8000 SCT017 FEW020CB BKN200 35/23 Q1009@CAELT@A2981 HR53 FU AC CB N/NE/E=@CAELT@METAR SLRI 201900Z 21015KT 5000 FU SCT017 FEW020CB 34/22 Q1010A2983 HR52 CB N/E/SW AC CI=METAR SLJO 211900Z NIL=METAR SLRA 211900Z 09006KT 8000 SCT020 36/21 Q1009 A2982 HR43 FURWY NML=METAR SLMG 211900Z NIL=METAR SLBU 211900Z NIL=METAR SLSA 211900Z NIL=METAR SLSR 211900Z NIL=METAR SLSM 211900Z 00000KT 9999 SCT017 FEW023CB 34/23 Q1009 A2982HR54 CB SW RWY NML=
ZPX0398 211954@CAELT@GG SLZZYMYT@CAELT@211955 SLSBYSYX@CAELT@SABO SLSB 212000@CAELT@METAR SLSB 212000Z 30007KT 9999 FEW020 BKN200 33/23 Q1009 A2979 HR55@CAELT@RWY NML=@CAELT@
ZPX0399 211955@CAELT@GG SLZZYMYT@CAELT@211956 SLVRYGYZ@CAELT@SABO SLVR 212000@CAELT@METAR SLVR 212000Z 17007KT 7000 VCSH SCT020 BKN200 27/23 Q1010 A2985@CAELT@HR80 SH E/SE RESH NOSIG=@CAELT@
ZPX0400 211956@CAELT@GG SLZZYMYT@CAELT@211956 SLSAYGYS@CAELT@SABO SLSA 212000@CAELT@METAR SLSA 212000Z 30010KT 6000 VCSH SCT020 FEW023CB BKN200 30/24@CAELT@Q1009 A2980 HR70 FU CB/SH SE/S/SW/W=@CAELT@
ZPX0401 211957@CAELT@GG SLZZYMYT@CAELT@211956 SLSAYGYS@CAELT@SABO SLSA 212000@CAELT@METAR SLSA 212000Z 30010KT 6000 VCSH SCT020 FEW023CB BKN200 30/24@CAELT@Q1009 A2980 HR70 FU CB/SH SE/S/SW/W=@CAELT@
ZPX0402 211957@CAELT@GG SLZZYMYT@CAELT@211956 SLLPYGYZ@CAELT@SABO SLLP 212000@CAELT@METAR SLLP 212000Z 08009KT 050V220 9999 SCT017 FEW020CB BKN200 14/01@CAELT@Q1035 A3059 626.5 HR43 P0784 CB/SH N/E/S/W AC NOSIG=@CAELT@
ZPX0403 211958@CAELT@GG SLZZYMYT@CAELT@211958 SLRQYSYX@CAELT@SABO SLRQ 212000@CAELT@METAR SLRQ 212000Z 00000KT 8000 FEW020 FEW023CB BKN200 30/23 Q1009@CAELT@A2981 HR67 CB/S FU=@CAELT@
ZPX0404 211959@CAELT@GG SLZZYMYT@CAELT@211959 SLCBYGYZ@CAELT@SABO SLCB 212000@CAELT@METAR SLCB 212000Z 10012KT 9999 SCT033 FEW036CB SCT080 BKN200 24/04@CAELT@Q1022 A3019 749.3 HR28 CB ON STN/E/SE/S/SW FU NOSIG=@CAELT@
ZPX0405 211959@CAELT@GG SLZZYMYT@CAELT@211959 SLTRYGYZ@CAELT@SABO SLTR 212000@CAELT@METAR SLTR 212000Z 34006KT 8000 VCSH FEW020 FEW023CB BKN200 33/23@CAELT@Q1009 A2981 990.9 HR57 CB SW/NW SH NW TEMPO SHRA=@CAELT@
ZPX0406 212000@CAELT@GG SLZZYMYT@CAELT@211956 SLETYMYC@CAELT@SABO SLET@CAELT@METAR SLET 212000Z 30010KT 9999 BKN020 FEW025TCU BKN200 32/25 Q1010@CAELT@A2984 HR67 TCU NE NOSIG=@CAELT@
ZPX0407 212000@CAELT@GG SLZZYMYT@CAELT@212000 SLTRYGYS@CAELT@SABO SLTR 212000@CAELT@METAR SLTR 212000Z 34006KT 8000 VCSH FEW020 FEW023CB BKN200 33/23@CAELT@Q1009 A2981 990.9 HR57 CB SW/NW SH NW TEMPO SHRA=@CAELT@METAR SLGM 212000Z 08012KT 6000 TS VCSH SCT017 FEW020CB BKN200@CAELT@34/24 Q1008 A2979 HR57 FU CB/SH N/NE/E/NW TS NW=@CAELT@METAR SLRI 212000Z 19012KT 5000 -TSRA SCT010 BKN015 FEW020CB BKN07027/25 Q1010 A2983 HR91 CB N/NE/E/NW TS N/E FU CI=METAR SLJO 212000Z NIL=METAR SLRA 212000Z 03006KT 8000 FEW020 FEW023CB SCT200 35/22 Q1008A2979 HR47 FU CB S/SW RWY NML=METAR SLMG 212000Z 00000KT 8000 SCT017 36/22 Q1008 A2977 HR44 FURWY NML=METAR SLBU 212000Z NIL=METAR SLSA 212000Z 30010KT 6000 VCSH SCT020 FEW023CB BKN200 30/24Q1009 A2980 HR70 FU CB/SH SE/S/SW/W=METAR SLSR 212000Z 32012KT 9999 FEW017 FEW023CB BKN200 34/22 Q1008A2977 HR49 CB NE/SW RWY NML=METAR SLSM 212000Z 00000KT 9999 SCT017 FEW020CB 34/22 Q1009 A2980HR49 CB E/SE/S/SW RWY NML=
ZPX0408 212002@CAELT@GG SLZZYMYT@CAELT@212001 SLETYMYC@CAELT@SABO SLET 212000@CAELT@METAR SLET 212000Z 30010KT 9999 BKN020 FEW025TCU BKN200 32/25 Q1010@CAELT@A2984 HR67 TCU NE NOSIG=@CAELT@
ZPX0411 212019@CAELT@GG SLZZYMYT@CAELT@212001 SLLPYFYA@CAELT@SABO SLLP 212000@CAELT@METAR SLLP 212000Z 08009KT 050V220 9999 SCT017 FEW020CB BKN200 14/01@CAELT@Q1035 A3059 626.5 HR43 P0784 CB/SH N/E/S/W AC NOSIG=@CAELT@METAR SLRQ 212000Z 00000KT 8000 FEW020 FEW023CB BKN200 30/23 Q1009@CAELT@A2981 HR67 CB/S FU=@CAELT@
ZPX0414 212022@CAELT@GG SLZZYMYT@CAELT@212000 SLLPYFYA@CAELT@SABO SLRY 212000@CAELT@METAR SLRY 212000Z 25003KT 9999 FEW020 BKN200 30/23 Q1007@CAELT@A2976 HR67 FU RWY NML=@CAELT@
ZPX0415 212022@CAELT@GG SLZZYMYT@CAELT@212001 SLLPYFYA@CAELT@SABO SLLP 212000@CAELT@METAR SLLP 212000Z 08009KT 050V220 9999 SCT017 FEW020CB BKN200 14/01@CAELT@Q1035 A3059 626.5 HR43 P0784 CB/SH N/E/S/W AC NOSIG=@CAELT@METAR SLRY 212000Z 25003KT 9999 FEW020 BKN200 30/23 Q1007@CAELT@A2976 HR67 FU RWY NML=@CAELT@METAR SLRQ 212000Z 00000KT 8000 FEW020 FEW023CB BKN200 30/23 Q1009A2981 HR67 CB/S FU=
ZPX0433 212054@CAELT@GG SLZZYMYT@CAELT@212055 SLETYMYC@CAELT@SABO SLET 212100@CAELT@METAR SLET 212100Z 32010KT 9999 BKN020 FEW025TCU BKN200 30/24 Q1010@CAELT@A2984 HR67 TCU SE NOSIG=@CAELT@
ZPX0435 212054@CAELT@GG SLZZYMYT@CAELT@212052 SLRYYSYX@CAELT@SABO SLRY 212100@CAELT@METAR SLRY 212100Z 00000KT 9999 FEW020 BKN200 31/23 Q1007 A2976 HR62@CAELT@FU RWY NML=@CAELT@
ZPX0437 212054@CAELT@GG SLZZYMYT@CAELT@212055 SLSBYSYX@CAELT@SABO SLSB 212100@CAELT@METAR SLSB 212100Z 30006KT 8000 TS VCSH FEW025CB BKN200 31/22 Q1009@CAELT@A2979 HR58 TS CB SH NE E SE W RWY NML=@CAELT@
ZPX0439 212055@CAELT@GG SLZZYMYT@CAELT@212056 SLVRYGYZ@CAELT@SABO SLVR 212100@CAELT@METAR SLVR 212100Z 32005KT 9999 SCT020 BKN200 29/23 Q1010 A2984 HR70@CAELT@NOSIG=@CAELT@
ZPX0440 212055@CAELT@GG SLZZYMYT@CAELT@212055 SLSAYGYS@CAELT@SABO SLSA 212100@CAELT@METAR SLSA 212100Z 27010KT 6000 SCT020 FEW023CB BKN200 28/22 Q1008@CAELT@A2979 HR70 FU CB E/SE=@CAELT@
ZPX0441 212055@CAELT@GG SLZZYMYT@CAELT@212055 SLSAYGYS@CAELT@SABO SLSA 212100@CAELT@METAR SLSA 212100Z 27010KT 6000 SCT020 FEW023CB BKN200 28/22 Q1008@CAELT@A2979 HR70 FU CB E/SE=@CAELT@
ZPX0443 212056@CAELT@GG SLZZYMYT@CAELT@212055 SLCBYGYZ@CAELT@SABO SLCB 212100@CAELT@METAR SLCB 212100Z 11010KT 9999 SCT033 FEW036CB SCT080 BKN200@CAELT@22/05 Q1022 A3020 749.6 HR33 CB ON STN/SE/W FU NOSIG=@CAELT@
ZPX0444 212056@CAELT@GG SLZZYMYT@CAELT@212055 SLLPYGYZ@CAELT@SABO SLLP 212100@CAELT@METAR SLLP 212100Z 06009KT 9999 SCT017 FEW020CB BKN200 12/02 Q1035@CAELT@A3059 626.5 HR51 P4453 CB/SH S/SW/W/NW AC NOSIG=@CAELT@
ZPX0445 212056@CAELT@GG SLZZYMYT@CAELT@212056 SLTRYGYZ@CAELT@SABO SLTR 212100@CAELT@METAR SLTR 212100Z 29006KT 9999 FEW020 FEW023CB BKN200 29/22 Q1009@CAELT@A2980 990.6 HR63 CB NE/SW NOSIG=@CAELT@
ZPX0446 212057@CAELT@GG SLZZYMYT@CAELT@212056 SLRQYSYX@CAELT@SABO SLRQ 212100@CAELT@METAR SLRQ 212100Z 00000KT 8000 FEW020 SCT200 31/24 Q1009 A2979 HR63@CAELT@
ZPX0449 212059@CAELT@GG SLZZYMYT@CAELT@212059 SLLPYFYA@CAELT@SABO SLLP 212100@CAELT@METAR SLLP 212100Z 06009KT 9999 SCT017 FEW020CB BKN200 12/02 Q1035@CAELT@A3059 626.5 HR51 P4453 CB/SH S/SW/W/NW AC NOSIG=@CAELT@METAR SLRY 212100Z 00000KT 9999 FEW020 BKN200 31/23 Q1007 A2976 HR62@CAELT@FU RWY NML=@CAELT@METAR SLRQ 212100Z 00000KT 8000 FEW020 SCT200 31/24 Q1009 A2979 HR63METAR SLSB 212100Z 30006KT 8000 TS VCSH FEW025CB BKN200 31/22 Q1009A2979 HR58 TS CB SH NE E SE W RWY NML=
ZPX0450 212100@CAELT@GG SLZZYMYT@CAELT@212059 SLTRYGYS@CAELT@SABO SLTR 212100@CAELT@METAR SLTR 212100Z 29006KT 9999 FEW020 FEW023CB BKN200 29/22 Q1009@CAELT@A2980 990.6 HR63 CB NE/SW NOSIG=@CAELT@METAR SLGM 212100Z 35018G28KT 5000 TS VCSH FU SCT017 FEW020CB BKN200@CAELT@31/24 Q1009 A2981 HR66 CB/SH N/NE/E/NW TS NE/NW=@CAELT@METAR SLRI 212100Z 09015KT 5000 -TSRA FEW010 SCT015 FEW020CB BKN07026/24 Q1011 A2987 HR88 CB NE/E/SE TS/E FU CI=METAR SLJO 212100Z NIL=METAR SLRA 212100Z 27008KT 8000 FEW020 FEW023CB BKN200 33/23 Q1008A2979 HR54 FU CB SW RWY NML=METAR SLMG 212100Z 32004KT 8000 FEW017 36/22 Q1008 A2977 HR44 FURWY NML=METAR SLBU 212100Z NIL=METAR SLSA 212100Z 27010KT 6000 SCT020 FEW023CB BKN200 28/22 Q1008A2979 HR70 FU CB E/SE=METAR SLSR 212100Z 32010KT 9999 FEW017 FEW023CB BKN200 34/23 Q1007A2975 HR52 CB NE/S RWY NML=METAR SLSM 212100Z 00000KT 9999 FEW017 FEW020CB 31/22 Q1009 A2980HR60 CB N/NE/E/SE/NW RWY NML=
ZPX0464 212152@CAELT@GG SLZZYMYT@CAELT@212151 SLRYYSYX@CAELT@SABO SLRY 212200@CAELT@METAR SLRY 212200Z 00000KT 9999 FEW020 BKN200 30/23 Q1007 A2975 HR65@CAELT@FU RWY NML=@CAELT@
ZPX0465 212154@CAELT@GG SLZZYMYT@CAELT@212154 SLCBYGYZ@CAELT@SABO SLCB 212200@CAELT@METAR SLCB 212200Z 11006KT 9999 FEW033 FEW036CB SCT200 22/03 Q1023@CAELT@A3021 749.8 HR29 CB/SW AC FU NOSIG=@CAELT@
ZPX0466 212154@CAELT@GG SLZZYMYT@CAELT@212155 SLSBYSYX@CAELT@SABO SLSB 212200@CAELT@METAR SLSB 212200Z 30005KT 9999 BKN200 30/25 Q1009 A2981 HR69 RWY NML=@CAELT@
ZPX0468 212155@CAELT@GG SLZZYMYT@CAELT@212156 SLVRYGYZ@CAELT@SABO SLVR 212200@CAELT@METAR SLVR 212200Z 34005KT 9999 FEW020 FEW023TCU BKN200 29/23 Q1011@CAELT@A2985 HR71 TCU/S NOSIG=@CAELT@
ZPX0469 212155@CAELT@GG SLZZYMYT@CAELT@212155 SLRQYSYX@CAELT@SABO SLRQ 212200@CAELT@METAR SLRQ 212200Z 00000KT 9999 FEW020 BKN200 30/24 Q1009 A2980 HR70@CAELT@
ZPX0470 212156@CAELT@GG SLZZYMYT@CAELT@212155 SLSAYGYS@CAELT@SABO SLSA 212200@CAELT@METAR SLSA 212200Z 00000KT 6000 FEW020 FEW023CB BKN200 27/22 Q1008@CAELT@A2979 HR73 FU CB E=@CAELT@
ZPX0471 212156@CAELT@GG SLZZYMYT@CAELT@212155 SLSAYGYS@CAELT@SABO SLSA 212200@CAELT@METAR SLSA 212200Z 00000KT 6000 FEW020 FEW023CB BKN200 27/22 Q1008@CAELT@A2979 HR73 FU CB E=@CAELT@
ZPX0473 212157@CAELT@GG SLZZYMYT@CAELT@212156 SLETYMYC@CAELT@SABO SLET 212200@CAELT@METAR SLET 212200Z 34004KT 9999 FEW020 FEW030CB BKN200 29/26 Q1010@CAELT@A2985 HR83 CB SE/S NOSIG=@CAELT@
ZPX0474 212157@CAELT@GG SLZZYMYT@CAELT@212157 SLTRYGYZ@CAELT@SABO SLTR 212200@CAELT@METAR SLTR 212200Z 00000KT 9999 FEW020 FEW023CB BKN200 31/21 Q1009@CAELT@A2981 990.9 HR58 AC CB SW NOSIG=@CAELT@
ZPX0475 212159@CAELT@GG SLZZYMYT@CAELT@212156 SLLPYGYZ@CAELT@SABO SLLP 212200@CAELT@METAR SLLP 212200Z 12007KT 060V170 8000 VCTSSH SCT017 FEW020CB BKN200@CAELT@09/06 Q1037 A3063 627.3 HR80 P93// CB/SH S/SW/W/NW TS S/SW RERA AC@CAELT@NOSIG=@CAELT@
ZPX0476 212200@CAELT@GG SLZZYMYT@CAELT@212159 SLTRYGYS@CAELT@SABO SLTR 212200@CAELT@METAR SLTR 212200Z 00000KT 9999 FEW020 FEW023CB BKN200 31/21 Q1009@CAELT@A2981 990.9 HR58 AC CB SW NOSIG=@CAELT@METAR SLGM 212200Z 28010KT 3000 TS VCSH FU SCT017 FEW020CB BKN200@CAELT@28/24 Q1010 A2983 HR82 CB/SH N/NE/SE/SW/NW TS NW=@CAELT@METAR SLRI 212200Z 09005KT 5000 -TSRA FEW010 SCT015 FEW020CB BKN07025/24 Q1011 A2987 HR94 CB N/NE/E TS/E FU CI=METAR SLJO 212200Z NIL=METAR SLRA 212200Z 30003KT 8000 FEW020 BKN200 33/23 Q1008 A2979HR57 FU RWY NML=METAR SLMG 212200Z 00000KT 8000 FEW017 FEW023CB SCT200 34/23 Q1008A2977 HR53 FU CB SE RWY NML=METAR SLBU 212200Z NIL=METAR SLSA 212200Z 00000KT 6000 FEW020 FEW023CB BKN200 27/22 Q1008A2979 HR73 FU CB E=METAR SLSR 212200Z 32006KT 8000 FEW017 FEW023CB BKN200 32/24 Q1008A2977 HR60 FU CB N/SW RWY NML=METAR SLSM 212200Z 00000KT 9999 FEW017 FEW020CB 31/25 Q1008 A2979HR68 CB N/E RWY NML=
ZPX0478 212203@CAELT@GG SLZZYMYT@CAELT@212200 SLLPYFYA@CAELT@SABO SLLP 212200@CAELT@METAR SLLP 212200Z 12007KT 060V170 8000 VCTSSH SCT017 FEW020CB BKN200@CAELT@09/06 Q1037 A3063 627.3 HR80 P93// CB/SH S/SW/W/NW TS S/SW RERA AC@CAELT@NOSIG=@CAELT@METAR SLRY 212200Z 00000KT 9999 FEW020 BKN200 30/23 Q1007 A2975 HR65@CAELT@FU RWY NML=METAR SLRQ 212200Z 00000KT 9999 FEW020 BKN200 30/24 Q1009 A2980 HR70METAR SLSB 212200Z 30005KT 9999 BKN200 30/25 Q1009 A2981 HR69 RWY NML
ZPX0485 212254@CAELT@GG SLZZYMYT@CAELT@212254 SLSAYGYS@CAELT@SABO SLSA 212300@CAELT@METAR SLSA 212300Z 00000KT 6000 FEW020 BKN200 27/23 Q1008 A2979@CAELT@HR79 FU=@CAELT@
ZPX0486 212254@CAELT@GG SLZZYMYT@CAELT@212254 SLSAYGYS@CAELT@SABO SLSA 212300@CAELT@METAR SLSA 212300Z 00000KT 6000 FEW020 BKN200 27/23 Q1008 A2979@CAELT@HR79 FU=@CAELT@
ZPX0487 212254@CAELT@GG SLZZYMYT@CAELT@212255 SLVRYGYZ@CAELT@SABO SLVR 212300@CAELT@METAR SLVR 212300Z 36004KT 9999 FEW020 BKN200 27/23 Q1011 A2987 HR78@CAELT@NOSIG=@CAELT@
ZPX0488 212254@CAELT@GG SLZZYMYT@CAELT@212255 SLSBYSYX@CAELT@SABO SLSB 212300@CAELT@METAR SLSB 212300Z 00000KT 9999 NSC 26/25 Q1009 A2981 HR93 CI RWY NML=@CAELT@
ZPX0489 212259@CAELT@GG SLZZYMYT@CAELT@212258 SLCBYGYZ@CAELT@SABO SLCB 212300@CAELT@METAR SLCB 212300Z 13007KT 9999 FEW033 20/05 Q1024 A3024 750.7 HR39@CAELT@FU AC CI NOSIG=@CAELT@
ZPX0490 212259@CAELT@GG SLLPZRZX@CAELT@212257 SLLPYGYZ@CAELT@SABO SLLP 212300@CAELT@METAR SLLP 212300Z 23005KT 9999 -RA FEW015 FEW017CB SCT070 BKN200@CAELT@07/05 Q1038 A3067 628.3 HR88 CB S/SW NOSIG=@CAELT@
ZPX0497 212355@CAELT@GG SLZZYMYT@CAELT@212356 SLVRYGYZ@CAELT@SABO SLVR 220000@CAELT@METAR SLVR 220000Z VRB02KT 9999 FEW020 BKN200 26/23 Q1011 A2988 HR83@CAELT@NOSIG=@CAELT@
ZPX0498 212356@CAELT@GG SLLPZRZX@CAELT@212355 SLLPYGYZ@CAELT@SABO SLLP 220000@CAELT@METAR SLLP 220000Z 13010KT 9999 FEW010 FEW017CB BKN200 07/04 Q1038@CAELT@A3068 628.5 HR83 CB/LT SE AC NOSIG=@CAELT@
