
ZPX0022 240053@CAELT@GG SLZZYMYT@CAELT@240053 SLVRYGYZ@CAELT@SABO SLVR 240100@CAELT@METAR SLVR 240100Z 28004KT 9999 NSC 28/21 Q1008 A2978 HR67 NOSIG=@CAELT@
ZPX0023 240055@CAELT@GG SLZZYMYT@CAELT@240055 SLCBYGYZ@CAELT@SABO SLCB 240100@CAELT@METAR SLCB 240100Z 18008KT 9999 FEW036 BKN200 23/05 Q1023 A3023 750.4@CAELT@HR32 AC FU NOSIG=@CAELT@
ZPX0024 240056@CAELT@GG SLLPZRZX@CAELT@240056 SLLPYGYZ@CAELT@SABO SLLP 240100@CAELT@METAR SLLP 240100Z 11004KT 9999 FEW015 SCT200 09/01 Q1039 A3069@CAELT@628.9 HR56 AC NOSIG=@CAELT@
ZPX0035 240152@CAELT@GG SLZZYMYT@CAELT@240154 SLVRYGYZ@CAELT@SABO SLVR 240200@CAELT@METAR SLVR 240200Z 29004KT 9999 NSC 27/21 Q1009 A2980 HR69 NOSIG=@CAELT@
ZPX0036 240155@CAELT@GG SLZZYMYT@CAELT@240155 SLLPYGYZ@CAELT@SABO SLLP 240200@CAELT@METAR SLLP 240200Z 15005KT 9999 FEW015 SCT200 10/00 Q1040 A3073@CAELT@629.6 HR51 NOSIG=@CAELT@
ZPX0038 240158@CAELT@GG SLZZYMYT@CAELT@240158 SLCBYGYZ@CAELT@SABO SLCB 240200@CAELT@METAR SLCB 240200Z 16006KT 9999 FEW036 SCT200 22/06 Q1024 A3026 751.2@CAELT@HR36 FU NOSIG=@CAELT@
ZPX0049 240255@CAELT@GG SLZZYMYT@CAELT@240255 SLVRYGYZ@CAELT@SABO SLVR 240300@CAELT@METAR SLVR 240300Z 28004KT 9999 NSC 26/21 Q1009 A2980 HR72 NOSIG=@CAELT@
ZPX0050 240255@CAELT@GG SLLPZRZX@CAELT@240255 SLLPYGYZ@CAELT@SABO SLLP 240300@CAELT@METAR SLLP 240300Z 09004KT 9999 FEW015 SCT200 04/M01 Q1040 A3072@CAELT@629.5 HR67 NOSIG=@CAELT@
ZPX0051 240256@CAELT@GG SLZZYMYT@CAELT@240255 SLCBYGYZ@CAELT@SABO SLCB 240300@CAELT@METAR SLCB 240300Z 12006KT 9999 FEW036 SCT200 20/07 Q1025 A3028 751.7@CAELT@HR40 AC FU NOSIG=@CAELT@
ZPX0061 240353@CAELT@GG SLZZYMYT@CAELT@240354 SLVRYGYZ@CAELT@SABO SLVR 240400@CAELT@METAR SLVR 240400Z 29003KT 9999 NSC 26/21 Q1008 A2979 HR74 NOSIG=@CAELT@
ZPX0062 240354@CAELT@GG SLZZYMYT@CAELT@240354 SLCBYGYZ@CAELT@SABO SLCB 240400@CAELT@METAR SLCB 240400Z 09005KT 9999 FEW036 SCT200 19/07 Q1025 A3028 751.6@CAELT@HR43 AC FU NOSIG=@CAELT@
ZPX0063 240355@CAELT@GG SLLPZRZX@CAELT@240355 SLLPYGYZ@CAELT@SABO SLLP 240400@CAELT@METAR SLLP 240400Z 06008KT 9999 NSC 04/00 Q1040 A3072 629.4 HR75@CAELT@CI NOSIG=@CAELT@
ZPX0071 240454@CAELT@GG SLZZYMYT@CAELT@240454 SLVRYGYZ@CAELT@SABO SLVR 240500@CAELT@METAR SLVR 240500Z VRB02KT 9999 NSC 26/20 Q1008 A2978 HR73 NOSIG=@CAELT@
ZPX0072 240455@CAELT@GG SLLPZRZX@CAELT@240455 SLLPYGYZ@CAELT@SABO SLLP 240500@CAELT@METAR SLLP 240500Z 07007KT 9999 NSC 03/M01 Q1039 A3070 629.0 HR77@CAELT@CI NOSIG=@CAELT@
ZPX0073 240459@CAELT@GG SLZZYMYT@CAELT@240459 SLCBYGYZ@CAELT@SABO SLCB 240500@CAELT@METAR SLCB 240500Z 12005KT 9999 FEW036 SCT200 18/07 Q1024 A3025 751.0@CAELT@HR46 AC FU NOSIG=@CAELT@
ZPX0080 240554@CAELT@GG SLZZYMYT@CAELT@240554 SLVRYGYZ@CAELT@SABO SLVR 240600@CAELT@METAR SLVR 240600Z 03003KT 9999 NSC 23/21 Q1008 A2977 HR84 NOSIG=@CAELT@
ZPX0081 240555@CAELT@GG SLZZYMYT@CAELT@240554 SLCBYGYZ@CAELT@SABO SLCB 240600@CAELT@METAR SLCB 240600Z 16004KT 9999 FEW036 SCT200 17/07 Q1023 A3024 750.5@CAELT@HR52 FU NOSIG=@CAELT@
ZPX0082 240555@CAELT@GG SLLPZRZX@CAELT@240555 SLLPYGYZ@CAELT@SABO SLLP 240600@CAELT@METAR SLLP 240600Z 09006KT 9999 NSC 03/00 Q1039 A3069 628.7 HR85@CAELT@CI NOSIG=@CAELT@
ZPX0089 240653@CAELT@GG SLZZYMYT@CAELT@240654 SLCBYGYZ@CAELT@SABO SLCB 240700@CAELT@METAR SLCB 240700Z 11005KT 9999 FEW036 SCT200 18/07 Q1023 A3022 750.2@CAELT@HR48 FU NOSIG=@CAELT@
ZPX0090 240654@CAELT@GG SLLPZRZX@CAELT@240656 SLLPYGYZ@CAELT@SABO SLLP 240700@CAELT@METAR SLLP 240700Z 05007KT 9999 FEW007 03/01 Q1038 A3066@CAELT@628.2 HR92 CI NOSIG=@CAELT@
ZPX0091 240655@CAELT@GG SLZZYMYT@CAELT@240655 SLVRYGYZ@CAELT@SABO SLVR 240700@CAELT@METAR SLVR 240700Z 36003KT 9999 NSC 24/20 Q1008 A2978 HR78 NOSIG=@CAELT@
ZPX0098 240755@CAELT@GG SLLPZRZX@CAELT@240756 SLLPYGYZ@CAELT@SABO SLLP 240800@CAELT@METAR SLLP 240800Z 08005KT 9999 FEW007 01/M01 Q1037 A3065@CAELT@627.9 HR83 CI NOSIG=@CAELT@
ZPX0099 240755@CAELT@GG SLZZYMYT@CAELT@240755 SLVRYGYZ@CAELT@SABO SLVR 240800@CAELT@METAR SLVR 240800Z 35005KT 9999 NSC 24/20 Q1008 A2978 HR80 NOSIG=@CAELT@
ZPX0100 240755@CAELT@GG SLZZYMYT@CAELT@240755 SLCBYGYZ@CAELT@SABO SLCB 240800@CAELT@METAR SLCB 240800Z 12005KT 9999 FEW036 SCT200 17/07 Q1023 A3023 750.4@CAELT@HR50 FU NOSIG=@CAELT@
ZPX0101 240757@CAELT@GG SLZZYMYT@CAELT@240758 SLVRYGYZ@CAELT@SABO SLVR 240800@CAELT@METAR SLVR 240800Z 35005KT 9999 NSC 24/20 Q1008 A2978 HR80 NOSIG=@CAELT@
ZPX0111 240853@CAELT@GG SLZZYMYT@CAELT@240852 SLPSYGYS@CAELT@SABO SLPS 240900@CAELT@METAR SLPS 240900Z 09006KT 9999 NSC 24/23 Q1009 A2980 HR90=@CAELT@
ZPX0113 240855@CAELT@GG SLZZYMYT@CAELT@240855 SLTRYGYZ@CAELT@SABO SLTR 240900@CAELT@METAR SLTR 240900Z 00000KT 5000 FU NSC 26/23 Q1007 A2976 989.4@CAELT@HR88 CI NOSIG=@CAELT@
ZPX0114 240855@CAELT@GG SLLPZRZX@CAELT@240857 SLLPYGYZ@CAELT@SABO SLLP 240900@CAELT@METAR SLLP 240900Z 06003KT 9999 FEW008 M00/M04 Q1038 A3066@CAELT@628.2 HR73 CI NOSIG=@CAELT@
ZPX0115 240857@CAELT@GG SLZZYMYT@CAELT@240858 SLVRYGYZ@CAELT@SABO SLVR 240900@CAELT@METAR SLVR 240900Z 33005KT 9999 NSC 24/20 Q1008 A2979 HR80 NOSIG=@CAELT@
ZPX0117 240900@CAELT@GG SLZZYMYT@CAELT@240859 SLTRYGYS@CAELT@SABO SLTR 240900@CAELT@METAR SLTR 240900Z 00000KT 5000 FU NSC 26/23 Q1007 A2976 989.4@CAELT@HR88 CI NOSIG=@CAELT@METAR SLRI 240900Z 00000KT 9999 SCT015 BKN200 25/24 Q1009 A2981 HR93=@CAELT@
ZPX0118 240902@CAELT@GG SLZZYMYT@CAELT@240902 SLCBYGYZ@CAELT@SABO SLCB 240900@CAELT@METAR SLCB 240900Z 00000KT 9999 FEW036 SCT200 14/07 Q1024 A3026 751.2@CAELT@HR62 FU NOSIG=@CAELT@
ZPX0136 240950@CAELT@GG SLZZYMYT@CAELT@240950 SLCAYGYS@CAELT@SABO SLCA 241000@CAELT@METAR SLCA 241000Z 00000KT 9999 NSC 19/15 Q1012 A2988 HR82 RWY NML=@CAELT@
ZPX0137 240953@CAELT@GG SLZZYMYT@CAELT@240952 SLETYMYC@CAELT@SABO SLET 241000@CAELT@METAR SLET 241000Z 32010KT 9999 NSC 27/20 Q1009 A2981 NOSIG=@CAELT@
ZPX0138 240953@CAELT@GG SLZZYMYT@CAELT@240952 SLPSYGYS@CAELT@SABO SLPS 241000@CAELT@METAR SLPS 241000Z 09008KT 9999 FEW070 27/24 Q1010 A2980 HR87=@CAELT@
ZPX0140 240954@CAELT@GG SLZZYMYT@CAELT@240954 SLSAZTZX@CAELT@SABO SLSA 241000@CAELT@METAR SLSA 241000Z 36004KT 9999 NSC 26/23 Q1008 A2978 HR88 CI=@CAELT@
ZPX0141 240954@CAELT@GG SLZZYMYT@CAELT@240955 SLCOYSYX@CAELT@SABO SLCO 241000@CAELT@METAR SLCO 241000Z 04004KT 8000 SCT080 BKN200 25/24 Q1009 A2981 982.1@CAELT@HR94 FU=@CAELT@
ZPX0143 240955@CAELT@GG SLZZYMYT@CAELT@240953 SLRBYGYS@CAELT@SABO SLRB 241000@CAELT@METAR SLRB 241000Z 00000KT 9999 NSC 19/17 Q1012 A2988 HR91 RWY NML=@CAELT@
ZPX0144 240955@CAELT@GG SLZZYMYT@CAELT@240955 SLCBYGYZ@CAELT@SABO SLCB 241000@CAELT@METAR SLCB 241000Z 00000KT 8000 FEW036 SCT200 13/07 Q1025 A3028 751.6@CAELT@HR68 FU NOSIG=@CAELT@
ZPX0145 240955@CAELT@GG SLZZYMYT@CAELT@240955 SLTRYGYZ@CAELT@SABO SLTR 241000@CAELT@METAR SLTR 241000Z 00000KT 7000 NSC 25/23 Q1008 A2978 989.9@CAELT@HR89 FU CI NOSIG=@CAELT@
ZPX0146 240955@CAELT@GG SLZZYMYT@CAELT@240955 SLSBYSYX@CAELT@SABO SLSB 241000@CAELT@METAR SLSB 241000Z 00000KT 5000 FU NSC 24/23 Q1008 A2979 HR94 RWY NML=@CAELT@
ZPX0147 240955@CAELT@GG SLZZYMYT@CAELT@240956 SLVRYGYZ@CAELT@SABO SLVR 241000@CAELT@METAR SLVR 241000Z 32008KT 9999 NSC 25/21 Q1009 A2981 HR78 NOSIG=@CAELT@
ZPX0148 240956@CAELT@GG SLZZYMYT@CAELT@240956 SLLPYGYZ@CAELT@SABO SLLP 241000@CAELT@METAR SLLP 241000Z 02003KT 9999 FEW007 00/M07 Q1038 A3067@CAELT@628.4 HR55 P4051 AC/CI NOSIG=@CAELT@
ZPX0150 240957@CAELT@GG SLZZYMYT@CAELT@240956 SLRQYSYX@CAELT@SABO SLRQ 241000@CAELT@METAR SLRQ 241000Z 00000KT 8000 SCT080 SCT200 23/23 Q1008 A2978 984.5@CAELT@HR98 FU=@CAELT@
ZPX0151 240957@CAELT@GG SLZZYMYT@CAELT@240957 SLVRYFYC@CAELT@SABO SLVR 241000@CAELT@METAR SLVR 241000Z 32008KT 9999 NSC 25/21 Q1009 A2981 HR78 NOSIG=@CAELT@METAR SLET 241000Z 32010KT 9999 NSC 27/20 Q1009 A2981 NOSIG=@CAELT@METAR SLCP 241000Z 00000KT 4000 FU NSC 22/18 Q1014 A2994 HR80 RWY NML@CAELT@METAR SLSI 241000Z 00000KT 9999 NSC 20/18 Q1010 A2983 HR86 RWY NML=@CAELT@METAR SLRB 241000Z 00000KT 9999 NSC 19/17 Q1012 A2988 HR91 RWY NML=METAR SLPS 241000Z 09008KT 9999 FEW070 27/24 Q1010 A2980 HR87=METAR SLCA 241000Z 00000KT 9999 NSC 19/15 Q1012 A2988 HR82 RWY NML=
ZPX0152 240958@CAELT@GG SLZZYMYT@CAELT@240958 SLTRYGYS@CAELT@SABO SLTR 241000@CAELT@METAR SLTR 241000Z 00000KT 7000 NSC 25/23 Q1008 A2978 989.9@CAELT@HR89 FU CI NOSIG=@CAELT@METAR SLGM 241000Z 00000KT 6000 NSC 24/23 Q1009 A2980 HR92 FU CI=@CAELT@METAR SLRI 241000Z 00000KT 9999 SCT015 BKN200 25/24 Q1009 A2981 HR93=@CAELT@METAR SLJO 241000Z 00000KT 9999 NSC 24/23 Q1008 A2979 HR94 CIRWY NML=METAR SLRA 241000Z 36006KT 9999 NSC 26/24 Q1008 A2977 HR90 CIMETAR SLMG 241000Z 00000KT 9999 NSC 24/23 Q1008 A2977 HR93 CIMETAR SLBU 241000Z NIL=METAR SLSA 241000Z 36004KT 9999 NSC 26/23 Q1008 A2978 HR88 CI=METAR SLSR 241000Z 00000KT 5000 FU FEW017 FEW023CB BKN200 24/23 Q1006A2972 HR96 CB NW RWY NML=METAR SLSM 241000Z 00000KT 5000 FU NSC 23/22 Q1008 A2978 HR98 CI
ZPX0153 240958@CAELT@GG SLZZYMYT@CAELT@240957 SLTJYGYZ@CAELT@SABO SLTJ 241000@CAELT@METAR SLTJ 241000Z 00000KT 9999 NSC 17/13 Q1016 A3002 812.1 HR76 CI=@CAELT@
ZPX0154 240958@CAELT@GG SLZZYMYT@CAELT@240958 SLCBYGYS@CAELT@SABO SLCB 241000@CAELT@METAR SLCB 241000Z 00000KT 8000 FEW036 SCT200 13/07 Q1025 A3028 751.6@CAELT@HR68 FU NOSIG=@CAELT@METAR SLAL 241000Z 00000KT 9999 NSC 11/07 Q1029 A3040 703.7 HR80 CI=@CAELT@
ZPX0155 240959@CAELT@GG SLZZYMYT@CAELT@240958 SLCBYGYS@CAELT@SABO SLCB 241000@CAELT@METAR SLCB 241000Z 00000KT 8000 FEW036 SCT200 13/07 Q1025 A3028 751.6@CAELT@HR68 FU NOSIG=@CAELT@METAR SLAL 241000Z 00000KT 9999 NSC 11/07 Q1029 A3040 703.7 HR80 CI=@CAELT@METAR SLTJ 241000Z 00000KT 9999 NSC 17/13 Q1016 A3002 812.1 HR76 CI=@CAELT@
ZPX0156 241000@CAELT@GG SLZZYMYT@CAELT@240957 SLUYYGYS@CAELT@SABO SLUY 241000@CAELT@METAR SLUY 241000Z 00000KT 9000 NSC 03/M02 Q1035 A3058 659.4@CAELT@HR70 FU CI=@CAELT@
ZPX0157 241002@CAELT@GG SLZZYMYT@CAELT@241000 SLETYMYC@CAELT@SABO SLET 241000 CCA@CAELT@METAR SLET 241000Z 32010KT 9999 NSC 27/20 Q1009 A2981 HR66 NOSIG=@CAELT@COR HR66@CAELT@
ZPX0158 241002@CAELT@GG SLZZYMYT@CAELT@240958 SLLPYFYA@CAELT@SABO SLRY 241000@CAELT@METAR SLRY 241000Z 00000KT 8000 SCT070 BKN200 21/21 Q1007@CAELT@A2976 HR98 FU RWY NML=@CAELT@
ZPX0159 241002@CAELT@GG SLZZYMYT@CAELT@241002 SLVRYFYC@CAELT@SABO SLVR 241000 CCA@CAELT@METAR SLVR 241000Z 32008KT 9999 NSC 25/21 Q1009 A2981 HR78 NOSIG=@CAELT@METAR COR SLET 241000Z 32010KT 9999 NSC 27/20 Q1009 A2981 HR66 NOSIG=@CAELT@METAR SLCP 241000Z 00000KT 4000 FU NSC 22/18 Q1014 A2994 HR80 RWY NML@CAELT@METAR SLSI 241000Z 00000KT 9999 NSC 20/18 Q1010 A2983 HR86 RWY NML=@CAELT@METAR SLRB 241000Z 00000KT 9999 NSC 19/17 Q1012 A2988 HR91 RWY NML=METAR SLPS 241000Z 09008KT 9999 FEW070 27/24 Q1010 A2980 HR87=METAR SLCA 241000Z 00000KT 9999 NSC 19/15 Q1012 A2988 HR82 RWY NML=
ZPX0161 241003@CAELT@GG SLZZYMYT@CAELT@241003 SLLPYFYA@CAELT@SABO SLLP 241000@CAELT@METAR SLLP 241000Z 02003KT 9999 FEW007 00/M07 Q1038 A3067@CAELT@628.4 HR55 P4051 AC/CI NOSIG=@CAELT@METAR SLCO 241000Z 04004KT 8000 SCT080 BKN200 25/24 Q1009@CAELT@A2981 982.1 HR94 FU=@CAELT@METAR SLRY 241000Z 00000KT 8000 SCT070 BKN200 21/21 Q1007A2976 HR98 FU RWY NML=METAR SLRQ 241000Z 00000KT 8000 SCT080 SCT200 23/23 Q1008A2978 984.5 HR98 FU=METAR SLAP 241000Z 00000KT 9999 FEW020 17/16 Q1017 A3006858.5 HR92 AC=METAR SLSB 241000Z 00000KT 5000 FU NSC 24/23 Q1008 A2979HR94 RWY NML=METAR SLUY 241000Z 00000KT 9000 NSC 03/M02 Q1035 A3058659.4 HR70 FU CI=
ZPX0187 241052@CAELT@GG SLZZYMYT@CAELT@241051 SLPSYGYS@CAELT@SABO SLPS 241100@CAELT@METAR SLPS 241100Z 09010KT 9999 SCT070 30/26 Q1011 A2986 HR80=@CAELT@
ZPX0189 241054@CAELT@GG SLZZYMYT@CAELT@241055 SLSAZTZX@CAELT@SABO SLSA 241100@CAELT@METAR SLSA 241100Z 33005KT 9999 NSC 26/23 Q1009 A2980 HR84 CI=@CAELT@
ZPX0190 241054@CAELT@GG SLZZYMYT@CAELT@241056 SLLPYGYZ@CAELT@SABO SLLP 241100@CAELT@METAR SLLP 241100Z VRB02KT 9999 NSC 07/M09 Q1039 A3069@CAELT@629.0 HR32 HZ S/SW/W CI NOSIG=@CAELT@
ZPX0191 241054@CAELT@GG SLZZYMYT@CAELT@241055 SLCOYSYX@CAELT@SABO SLCO 241100@CAELT@METAR SLCO 241100Z 00000KT 8000 FEW080 BKN200 26/24 Q1009 A2982 982.4@CAELT@HR91 FU=@CAELT@
ZPX0192 241055@CAELT@GG SLZZYMYT@CAELT@241055 SLVRYGYZ@CAELT@SABO SLVR 241100@CAELT@METAR SLVR 241100Z 31007KT 9999 NSC 28/22 Q1009 A2982 HR73 NOSIG=@CAELT@
ZPX0193 241055@CAELT@GG SLZZYMYT@CAELT@241052 SLETYMYC@CAELT@SABO SLET 241100@CAELT@METAR SLET 241100Z 30006KT 9999 NSC 27/21 Q1010 A2983 HR68 NOSIG=@CAELT@
ZPX0194 241055@CAELT@GG SLZZYMYT@CAELT@241055 SLTRYGYZ@CAELT@SABO SLTR 241100@CAELT@METAR SLTR 241100Z 36003KT 7000 NSC 28/24 Q1009 A2982 991.2 HR80@CAELT@FU CI NOSIG=@CAELT@
ZPX0195 241055@CAELT@GG SLZZYMYT@CAELT@241053 SLRBYGYS@CAELT@SABO SLRB 241100@CAELT@METAR SLRB 241100Z 00000KT 9999 NSC 24/19 Q1013 A2991 HR75 RWY NML=@CAELT@
ZPX0196 241055@CAELT@GG SLZZYMYT@CAELT@241055 SLCAYGYS@CAELT@SABO SLCA 241100@CAELT@METAR SLCA 241100Z 00000KT 9999 NSC 22/17 Q1013 A2991 HR74 RWY NML=@CAELT@
ZPX0197 241055@CAELT@GG SLZZYMYT@CAELT@241055 SLRQYSYX@CAELT@SABO SLRQ 241100@CAELT@METAR SLRQ 241100Z 00000KT 8000 FEW080 SCT200 25/23 Q1009 A2980 985.1@CAELT@HR88 FU=@CAELT@
ZPX0198 241055@CAELT@GG SLZZYMYT@CAELT@241055 SLORYGYZ@CAELT@SABO SLOR 241100@CAELT@METAR SLOR 241100Z 03003KT 8000 NSC 07/M01 Q1037 A3064 657.6 HR56 VIS@CAELT@RED FU NE/E/SE/S CI=@CAELT@
ZPX0201 241057@CAELT@GG SLZZYMYT@CAELT@241056 SLTJYGYZ@CAELT@SABO SLTJ 241100@CAELT@METAR SLTJ 241100Z 00000KT 9999 NSC 20/13 Q1017 A3004 812.6 HR64 CI=@CAELT@
ZPX0203 241057@CAELT@GG SLZZYMYT@CAELT@241056 SLSBYSYX@CAELT@SABO SLSB 241100@CAELT@METAR SLSB 241100Z 00000KT 3000 FU NSC 25/23 Q1009 A2982 HR90 CI@CAELT@RWY NML=@CAELT@
ZPX0204 241057@CAELT@GG SLZZYMYT@CAELT@241057 SLVRYFYC@CAELT@SABO SLVR 241100@CAELT@METAR SLVR 241100Z 31007KT 9999 NSC 28/22 Q1009 A2982 HR73 NOSIG=@CAELT@METAR SLET 241100Z 30006KT 9999 NSC 27/21 Q1010 A2983 HR68 NOSIG=@CAELT@METAR SLAS 241100Z 00000KT 1500 FU NSC 26/21 Q1012 A2989 HR73 RWY NML@CAELT@METAR SLJV 241100Z 00000KT 9999 NSC 23/20 Q1011 A2985 HR90 RWY NML=@CAELT@METAR SLCP 241100Z 00000KT 5000 FU NSC 23/20 Q1015 A2997 HR80 RWY NMLMETAR SLSI 241100Z 00000KT 9999 NSC 25/18 Q1012 A2988 HR64 RWY NML=METAR SLTI 241100Z 36012KT 9999 NSC 29/22 Q1015 A2997 HR65 RWY NML=METAR SLJE 241100Z 00000KT 9999 NSC 30/18 Q1013 A2991 HR50 FU RWY NMLMETAR SLRB 241100Z 00000KT 9999 NSC 24/19 Q1013 A2991 HR75 RWY NML=METAR SLPS 241100Z 09010KT 9999 SCT070 30/26 Q1011 A2986 HR80=METAR SLCA 241100Z 00000KT 9999 NSC 22/17 Q1013 A2991 HR74 RWY NML=
ZPX0205 241058@CAELT@GG SLZZYMYT@CAELT@241058 SLCBYGYZ@CAELT@SABO SLCB 241100@CAELT@METAR SLCB 241100Z 13003KT 8000 NSC 18/07 Q1025 A3030 752.1 HR48 FU@CAELT@CI NOSIG=@CAELT@
ZPX0206 241058@CAELT@GG SLZZYMYT@CAELT@241057 SLUYYGYS@CAELT@SABO SLUY 241100@CAELT@METAR SLUY 241100Z 00000KT 9999 NSC 08/M01 Q1036 A3060 659.9@CAELT@HR52 FU CI=@CAELT@
ZPX0208 241101@CAELT@GG SLZZYMYT@CAELT@241059 SLTRYGYS@CAELT@SABO SLTR 241100@CAELT@METAR SLTR 241100Z 36003KT 7000 NSC 28/24 Q1009 A2982 991.2 HR80@CAELT@FU CI NOSIG=@CAELT@METAR SLGM 241100Z 00000KT 6000 NSC 25/24 Q1009 A2980 HR90 FU CI=@CAELT@METAR SLRI 241100Z 00000KT 9999 SCT015 BKN200 25/24 Q1011 A2986 HR90=@CAELT@METAR SLJO 241100Z 00000KT 9999 NSC 26/24 Q1009 A2980 HR91 CIEWY NML=METAR SLRA 241100Z 36006KT 9999 NSC 27/23 Q1008 A2979 HR81 CIRWY NML=METAR SLMG 241100Z 32004KT 9999 NSC 26/23 Q1009 A2980 HR85 CIMETAR SLBU 241100Z NIL=METAR SLSA 241100Z 33005KT 9999 NSC 26/23 Q1009 A2980 HR84 CI=METAR SLSR 241100Z 00000KT 5000 FU NSC 25/23 Q1007 A2975 HR89 CIMETAR SLSM 241100Z NIL=
ZPX0209 241102@CAELT@GG SLZZYMYT@CAELT@241101 SLCBYGYS@CAELT@SABO SLCB 241100@CAELT@METAR SLCB 241100Z 13003KT 8000 NSC 18/07 Q1025 A3030 752.1 HR48 FU@CAELT@CI NOSIG=@CAELT@METAR SLVM 241100Z 00000KT 9999 NSC 24/20 Q1006 A2974 HR81 FU CI=@CAELT@METAR SLTJ 241100Z 00000KT 9999 NSC 20/13 Q1017 A3004 812.6 HR64 CI=@CAELT@METAR SLYA 241100Z 00000KT 9999 NSC 25/20 Q1007 A2975 932.6 HR71=
ZPX0211 241103@CAELT@GG SLZZYMYT@CAELT@241102 SLLPYFYA@CAELT@SABO SLRY 241100@CAELT@METAR SLRY 241100Z 00000KT 8000 NSC 23/22 Q1008@CAELT@A2978 HR96 FU CI RWY NML=@CAELT@
ZPX0217 241105@CAELT@GG SLZZYMYT@CAELT@241102 SLLPYFYA@CAELT@SABO SLLP 241100@CAELT@METAR SLLP 241100Z VRB02KT 9999 NSC 07/M09 Q1039 A3069@CAELT@629.0 HR32 HZ S/SW/W CI NOSIG=@CAELT@METAR SLCO 241100Z 00000KT 8000 FEW080 BKN200 26/24 Q1009 A2982 982.4@CAELT@HR91 FU=@CAELT@METAR SLRY 241100Z 00000KT 8000 NSC 23/22 Q1008A2978 HR96 FU CI RWY NML=METAR SLRQ 241100Z 00000KT 8000 FEW080 SCT200 25/23 Q1009 A2980 985.1HR88 FU=METAR SLAP 241100Z 00000KT 9999 FEW020 20/17 Q1018 A3008 859.1 HR86AC=METAR SLSB 241100Z 00000KT 3000 FU NSC 25/23 Q1009 A2982 HR90 CIRWY NML=METAR SLOR 241100Z 03003KT 8000 NSC 07/M01 Q1037 A3064 657.6 HR56 VISRED FU NE/E/SE/S CI=METAR SLUY 241100Z 00000KT 9999 NSC 08/M01 Q1036 A3060 659.9HR52 FU CI=
ZPX0218 241106@CAELT@GG SLZZYMYT@CAELT@241105 SLTRYGYS@CAELT@SABO SLTR 241100 RRA@CAELT@METAR SLTR 241100Z 36003KT 7000 NSC 28/24 Q1009 A2982 991.2 HR80@CAELT@FU CI NOSIG=@CAELT@METAR SLGM 241100Z 00000KT 6000 NSC 25/24 Q1009 A2980 HR90 FU CI=@CAELT@METAR SLRI 241100Z 00000KT 9999 SCT015 BKN200 25/24 Q1011 A2986 HR90=@CAELT@METAR SLJO 241100Z 00000KT 9999 NSC 26/24 Q1009 A2980 HR91 CIEWY NML=METAR SLRA 241100Z 36006KT 9999 NSC 27/23 Q1008 A2979 HR81 CIRWY NML=METAR SLMG 241100Z 32004KT 9999 NSC 26/23 Q1009 A2980 HR85 CIMETAR SLBU 241100Z NIL=METAR SLSA 241100Z 33005KT 9999 NSC 26/23 Q1009 A2980 HR84 CI=METAR SLSR 241100Z 00000KT 5000 FU NSC 25/23 Q1007 A2975 HR89 CIMETAR RTD SLSM 241100Z 00000KT 8000 NSC 25/25 Q1009 A2980 HR96 FUCI RWY NML=
ZPX0251 241152@CAELT@GG SLZZYMYT@CAELT@241152 SLVRYGYZ@CAELT@SABO SLVR 241200@CAELT@METAR SLVR 241200Z 32010KT 9999 NSC 30/23 Q1010 A2983 HR67 NOSIG=@CAELT@
ZPX0254 241152@CAELT@GG SLZZYMYT@CAELT@241152 SLPSYGYS@CAELT@SABO SLPS 241200@CAELT@METAR SLPS 241200Z 09010KT 9999 NSC 31/25 Q1012 A2989 HR72=@CAELT@
ZPX0255 241154@CAELT@GG SLZZYMYT@CAELT@241154 SLSBYSYX@CAELT@SABO SLSB 241200@CAELT@METAR SLSB 241200Z 00000KT 5000 FU NSC 29/25 Q1010 A2984 HR78 CI@CAELT@RWY NML=@CAELT@
ZPX0258 241154@CAELT@GG SLZZYMYT@CAELT@241155 SLORYGYZ@CAELT@SABO SLOR 241200@CAELT@METAR SLOR 241200Z 35003KT 8000 NSC 10/M02 Q1037 A3064 657.7 HR42 VIS@CAELT@RED FU N/NE/E/S CI=@CAELT@
ZPX0259 241155@CAELT@GG SLZZYMYT@CAELT@241155 SLAGYSYX@CAELT@SABO SLAG 241200@CAELT@METAR SLAG 241200Z 02008KT 9999 NSC 27/16 Q1014 A2996 886.8 HR51 CI@CAELT@
ZPX0260 241155@CAELT@GG SLZZYMYT@CAELT@241154 SLSAZTZX@CAELT@SABO SLSA 241200@CAELT@METAR SLSA 241200Z 34006KT 9999 NSC 28/25 Q1009 A2982 HR80 CI=@CAELT@
ZPX0261 241155@CAELT@GG SLZZYMYT@CAELT@241155 SLRQYSYX@CAELT@SABO SLRQ 241200@CAELT@METAR SLRQ 241200Z 00000KT 8000 NSC 30/25 Q1010 A2983 985.9 HR76 FU@CAELT@
ZPX0262 241155@CAELT@GG SLZZYMYT@CAELT@241155 SLCAYGYS@CAELT@SABO SLCA 241200@CAELT@METAR SLCA 241200Z 00000KT 9999 NSC 24/17 Q1013 A2991 HR63 RWY NML=@CAELT@
ZPX0263 241155@CAELT@GG SLZZYMYT@CAELT@241155 SLLPYGYZ@CAELT@SABO SLLP 241200@CAELT@METAR SLLP 241200Z 09006KT 050V130 9999 FEW005 11/00 Q1040 A3073@CAELT@629.6 HR46 P4053 HZ SW/W CI NOSIG=@CAELT@
ZPX0264 241156@CAELT@GG SLZZYMYT@CAELT@241153 SLRBYGYS@CAELT@SABO SLRB 241200@CAELT@METAR SLRB 241200Z 00000KT 9999 NSC 28/21 Q1013 A2991 HR68 RWY NML=@CAELT@
ZPX0265 241156@CAELT@GG SLZZYMYT@CAELT@241102 SLETYMYC@CAELT@SABO SLET 241200@CAELT@METAR SLET 241200Z 30012KT 9999 NSC 29/21 Q1010 A2984 HR60 FU NOSIG=@CAELT@
ZPX0266 241156@CAELT@GG SLZZYMYT@CAELT@241155 SLCBYGYZ@CAELT@SABO SLCB 241200@CAELT@METAR SLCB 241200Z 00000KT 9999 NSC 22/08 Q1026 A3031 752.5 HR40 FU@CAELT@CI NOSIG=@CAELT@
ZPX0267 241156@CAELT@GG SLZZYMYT@CAELT@241155 SLTJYGYZ@CAELT@SABO SLTJ 241200@CAELT@METAR SLTJ 241200Z 00000KT 9999 NSC 24/13 Q1017 A3005 812.8 HR51 CI@CAELT@
ZPX0268 241156@CAELT@GG SLZZYMYT@CAELT@241156 SLTRYGYZ@CAELT@SABO SLTR 241200@CAELT@METAR SLTR 241200Z 36004KT 7000 NSC 29/24 Q1010 A2983 991.8@CAELT@HR75 FU CI NOSIG=@CAELT@
ZPX0269 241156@CAELT@GG SLZZYMYT@CAELT@241157 SLVRYFYC@CAELT@SABO SLVR 241200@CAELT@METAR SLVR 241200Z 32010KT 9999 NSC 30/23 Q1010 A2983 HR67 NOSIG=@CAELT@METAR SLET 241200Z 30012KT 9999 NSC 29/21 Q1010 A2984 HR60 FU NOSIG=@CAELT@METAR SLAS 241200Z 36010KT 1500 FU NSC 27/21 Q1013 A2991 HR72 RWY NML@CAELT@METAR SLJV 241200Z 00000KT 9999 NSC 28/20 Q1012 A2988 HR61 FU RWY NML@CAELT@METAR SLCP 241200Z 00000KT 7000 NSC 26/21 Q1015 A2997 HR75 FU RWY NMLMETAR SLSI 241200Z 00000KT 9999 NSC 29/21 Q1012 A2988 HR61 RWY NML=METAR SLTI 241200Z 36010KT 9999 NSC 31/22 Q1015 A2997 HR58 RWY NML=METAR SLJE 241200Z 00000KT 9999 NSC 32/19 Q1014 A2994 HR46 RWY NML=METAR SLVG 241200Z 36004KT 9999 FEW023 19/14 Q1025 A3027 HR74 RWY NMLMETAR SLRB 241200Z 00000KT 9999 NSC 28/21 Q1013 A2991 HR68 RWY NML=METAR SLPS 241200Z 09010KT 9999 NSC 31/25 Q1012 A2989 HR72=METAR SLCA 241200Z 00000KT 9999 NSC 24/17 Q1013 A2991 HR63 RWY NML=
ZPX0271 241157@CAELT@GG SLZZYMYT@CAELT@241156 SLUYYGYS@CAELT@SABO SLUY 241200@CAELT@METAR SLUY 241200Z 33003KT 9000 NSC 13/01 Q1036 A3062 660.2@CAELT@HR42 FU CI=@CAELT@
ZPX0273 241158@CAELT@GG SLZZYMYT@CAELT@241157 SLCOYSYX@CAELT@SABO SLCO 241200@CAELT@METAR SLCO 241200Z 00000KT 9999 FEW080 BKN200 28/25 Q1010 A2983 982.9@CAELT@HR81 FU=@CAELT@
ZPX0276 241200@CAELT@GG SLZZYMYT@CAELT@241200 SLCBYGYS@CAELT@SABO SLCB 241200@CAELT@METAR SLCB 241200Z 00000KT 9999 NSC 22/08 Q1026 A3031 752.5 HR40 FU@CAELT@CI NOSIG=@CAELT@METAR SLAL 241200Z 32006KT 9999 NSC 15/09 Q1031 A3045 705.1 HR65 CI=@CAELT@METAR SLPO 241200Z 24004KT 9999 NSC 12/04 Q1040 A3073 639.9 HR57 CI=@CAELT@METAR SLAG 241200Z 02008KT 9999 NSC 27/16 Q1014 A2996 886.8 HR51 CIMETAR SLVM 241200Z 00000KT 9999 NSC 28/22 Q1007 A2974 HR68 FU CI=METAR SLTJ 241200Z 00000KT 9999 NSC 24/13 Q1017 A3005 812.8 HR51 CIMETAR SLYA 241200Z 06010KT 9999 NSC 29/19 Q1008 A2977 933.0 HR54=METAR SLBJ 241200Z NIL=METAR SLHI 241200Z NIL=
ZPX0277 241201@CAELT@GG SLZZYMYT@CAELT@241159 SLTRYGYS@CAELT@SABO SLTR 241200@CAELT@METAR SLTR 241200Z 36004KT 7000 NSC 29/24 Q1010 A2983 991.8 HR75@CAELT@FU CI NOSIG=@CAELT@METAR SLGM 241200Z 34004KT 8000 NSC 27/24 Q1010 A2982 HR84 FU CI=@CAELT@METAR SLRI 241200Z 00000KT 9999 NSC 26/24 Q1011 A2987 HR89 CI=@CAELT@METAR SLJO 241200Z 34004KT 9999 NSC 29/23 Q1009 A2982 HR73 CIRWY NML=METAR SLRA 241200Z 36008KT 9999 NSC 29/23 Q1009 A2981 HR73 CIMETAR SLMG 241200Z 32006KT 9999 NSC 28/24 Q1009 A2982 HR75 CIMETAR SLBU 241200Z 00000KT 9999 NSC 29/24 Q1009 A2982 HR77 CIMETAR SLSA 241200Z 34006KT 9999 NSC 28/25 Q1009 A2982 HR80 CI=METAR SLSR 241200Z 00000KT 5000 FU NSC 27/25 Q1008 A2979 HR86 CIMETAR SLSM 241200Z 00000KT 9999 NSC 28/25 Q1009 A2982 HR86 FU CI
ZPX0282 241203@CAELT@GG SLZZYMYT@CAELT@241200 SLLPYFYA@CAELT@SABO SLLP 241200@CAELT@METAR SLLP 241200Z 09006KT 050V130 9999 FEW005 11/00 Q1040 A3073@CAELT@629.6 HR46 P4053 HZ SW/W CI NOSIG=@CAELT@METAR SLCO 241200Z 00000KT 9999 FEW080 BKN200 28/25 Q1010 A2983 982.9@CAELT@HR81 FU=@CAELT@METAR SLRY 241200Z 00000KT 9999 NSC 28/24 Q1009 Q2981 HR79 FUCI RWY NML=METAR SLRQ 241200Z 00000KT 8000 NSC 30/25 Q1010 A2983 985.9 HR76 FUMETAR SLAP 241200Z 00000KT 9999 FEW025 22/19 Q1019 A3012 860.2 HR83=METAR SLSB 241200Z 00000KT 5000 FU NSC 29/25 Q1010 A2984 HR78 CIRWY NML=METAR SLOR 241200Z 35003KT 8000 NSC 10/M02 Q1037 A3064 657.7 HR42 VISRED FU N/NE/E/S CI=METAR SLUY 241200Z 33003KT 9000 NSC 13/01 Q1036 A3062 660.2HR42 FU CI=
ZPX0310 241252@CAELT@GG SLZZYMYT@CAELT@241252 SLPSYGYS@CAELT@SABO SLPS 241300@CAELT@METAR SLPS 241300Z 09010KT 9999 NSC 33/25 Q1012 A2989 HR64=@CAELT@
ZPX0311 241254@CAELT@GG SLZZYMYT@CAELT@241253 SLRBYGYS@CAELT@SABO SLRB 241200@CAELT@METAR SLRB 241200Z 36008KT 9999 NSC 34/22 Q1014 A2994 HR50 RWY NML=@CAELT@
ZPX0312 241254@CAELT@GG SLZZYMYT@CAELT@241254 SLSAYGYS@CAELT@SABO SLSA 221400@CAELT@METAR SLSA 221400Z 34006KT 9999 NSC 31/25 Q1010 A2983 HR70 CI=@CAELT@
ZPX0314 241255@CAELT@GG SLZZYMYT@CAELT@241255 SLAGYSYX@CAELT@SABO SLAG 241300@CAELT@METAR SLAG 241300Z 02012KT 9999 NSC 29/14 Q1013 A2994 886.4 HR40 CI@CAELT@
ZPX0315 241255@CAELT@GG SLZZYMYT@CAELT@241255 SLTRYGYZ@CAELT@SABO SLTR 241300@CAELT@METAR SLTR 241300Z 30004KT 8000 NSC 32/24 Q1010 A2984 992.0 HR61@CAELT@FU CI NOSIG=@CAELT@
ZPX0316 241255@CAELT@GG SLZZYMYT@CAELT@241255 SLORYGYZ@CAELT@SABO SLOR 241300@CAELT@METAR SLOR 241300Z 33006KT 9999 NSC 14/M03 Q1037 A3064 657.8 HR32 FU@CAELT@
ZPX0317 241255@CAELT@GG SLZZYMYT@CAELT@241255 SLVRYGYZ@CAELT@SABO SLVR 241300@CAELT@METAR SLVR 241300Z 33012KT 9999 NSC 33/23 Q1010 A2985 HR57@CAELT@
ZPX0318 241255@CAELT@GG SLZZYMYT@CAELT@241255 SLCAYGYS@CAELT@SABO SLCA 241300@CAELT@METAR SLCA 241300Z 36006KT 9999 NSC 24/17 Q1013 A2991 HR37 RWY NML=@CAELT@
ZPX0319 241255@CAELT@GG SLZZYMYT@CAELT@241255 SLRQYSYX@CAELT@SABO SLRQ 241300@CAELT@METAR SLRQ 241300Z 00000KT 8000 NSC 33/25 Q1010 A2983 986.0 HR63 FU@CAELT@
ZPX0320 241256@CAELT@GG SLZZYMYT@CAELT@241254 SLETYMYC@CAELT@SABO SLET 241300@CAELT@METAR SLET 241300Z 31013KT 9999 NSC 32/22 Q1010 A2985 HR54 FU NOSIG=@CAELT@
ZPX0321 241256@CAELT@GG SLZZYMYT@CAELT@241255 SLTJYGYZ@CAELT@SABO SLTJ 241300@CAELT@METAR SLTJ 241300Z 00000KT 9999 NSC 25/14 Q1017 A3005 812.8 HR48 FU@CAELT@
ZPX0322 241256@CAELT@GG SLZZYMYT@CAELT@241256 SLVRYGYZ@CAELT@SABO SLVR 241300@CAELT@METAR SLVR 241300Z 33012KT 9999 NSC 33/23 Q1010 A2985 HR57 NOSIG=@CAELT@
ZPX0323 241256@CAELT@GG SLZZYMYT@CAELT@241256 SLCBYGYZ@CAELT@SABO SLCB 241300@CAELT@METAR SLCB 241300Z 00000KT 9999 NSC 24/08 Q1026 A3031 752.5 HR35 FU@CAELT@CI NOSIG=@CAELT@
ZPX0324 241257@CAELT@GG SLZZYMYT@CAELT@241257 SLLPYGYZ@CAELT@SABO SLLP 241300@CAELT@METAR SLLP 241300Z 09007KT 050V130 9999 FEW013 SCT200 13/02 Q1040@CAELT@A3074 629.9 HR48 P93XX FU NOSIG=@CAELT@
ZPX0325 241257@CAELT@GG SLZZYMYT@CAELT@241255 SLCOYSYX@CAELT@SABO SLCO 241300@CAELT@METAR SLCO 241300Z 31006KT 9999 NSC 30/26 Q1011 A2985 983.6 HR78 CI@CAELT@
ZPX0326 241258@CAELT@GG SLZZYMYT@CAELT@241257 SLSAYGYS@CAELT@SABO SLSA 241300 CCA@CAELT@METAR COR SLSA 241300Z 34006KT 9999 NSC 31/25 Q1010 A2983 HR70 CI=@CAELT@
ZPX0327 241258@CAELT@GG SLZZYMYT@CAELT@241257 SLSBYSYX@CAELT@SABO SLSB 241300@CAELT@METAR SLSB 241300Z 00000KT 5000 FU NSC 33/25 Q1010 A2984 HR65 CI@CAELT@RWY NML=@CAELT@
ZPX0328 241258@CAELT@GG SLZZYMYT@CAELT@241258 SLTRYGYS@CAELT@SABO SLTR 241300@CAELT@METAR SLTR 241300Z 30004KT 8000 NSC 32/24 Q1010 A2984 992.0 HR61@CAELT@FU CI NOSIG=@CAELT@METAR SLGM 241300Z 02004KT 9999 FEW015 BKN200 30/23 Q1011 A2985 HR67=@CAELT@METAR SLRI 241300Z 00000KT 9999 SCT015 BKN200 27/24 Q1011 A2988 HR81=@CAELT@METAR SLJO 241300Z 34006KT 8000 NSC 32/24 Q1010 A2984 HR63 FU CIRWY NML=METAR SLRA 241300Z 36008KT 9999 NSC 32/23 Q1009 A2981 HR60 CIMETAR SLMG 241300Z 32006KT 9999 NSC 31/24 Q1010 A2983 HR63 CIMETAR SLBU 241300Z 32004KT 9999 NSC 30/24 Q1010 A2983 HR72 CIMETAR SLSA 241300Z 34006KT 9999 NSC 31/25 Q1010 A2983 HR70 CI=METAR SLSR 241300Z 32006KT 5000 FU NSC 30/24 Q1009 A2981 HR71 CIMETAR SLSM 241300Z 00000KT 9999 NSC 31/26 Q1010 A2984 HR72 FU CI
ZPX0329 241259@CAELT@GG SLZZYMYT@CAELT@241259 SLVRYFYC@CAELT@SABO SLVR 241300@CAELT@METAR SLVR 241300Z 33012KT 9999 NSC 33/23 Q1010 A2985 HR57 NOSIG=@CAELT@METAR SLET 241300Z 31013KT 9999 NSC 32/22 Q1010 A2985 HR54 FU NOSIG=@CAELT@METAR SLAS 241300Z 36010KT 3000 FU NSC 30/23 Q1014 A2994 HR67 RWY NML@CAELT@METAR SLJV 241300Z 36012KT 9999 NSC 31/19 Q1012 A2988 HR52 FU RWY NML@CAELT@METAR SLCP 241300Z 00000KT 7000 NSC 30/20 Q1015 A2997 HR57 FU RWY NMLMETAR SLSI 241300Z 36005KT 9999 NSC 32/21 Q1012 A2988 HR54 RWY NML=METAR SLTI 241300Z 36012KT 9999 NSC 33/22 Q1016 A3000 HR54 RWY NML=METAR SLJE 241300Z 36004KT 9999 NSC 34/20 Q1015 A2997 HR44 RWY NML=METAR SLVG 241300Z 36007KT 9999 SCT023 22/15 Q1025 A3027 HR61 RWY NMLMETAR SLRB 241300Z 36008KT 9999 NSC 34/22 Q1014 A2994 HR50 RWY NML=METAR SLPS 241300Z 09010KT 9999 NSC 33/25 Q1012 A2989 HR64=METAR SLCA 241300Z 36006KT 9999 NSC 24/17 Q1013 A2991 HR37 RWY NML=
ZPX0331 241300@CAELT@GG SLZZYMYT@CAELT@241258 SLCBYGYS@CAELT@SABO SLCB 241300@CAELT@METAR SLCB 241300Z 00000KT 9999 NSC 24/08 Q1026 A3031 752.5 HR35 FU@CAELT@CI NOSIG=@CAELT@METAR SLAL 241300Z 30004KT 9999 NSC 17/09 Q1031 A3046 705.2 HR61 CI=@CAELT@METAR SLPO 241300Z 23003KT 9999 NSC 15/03 Q1041 A3074 640.2 HR47 CI=@CAELT@METAR SLAG 241300Z 02012KT 9999 NSC 29/14 Q1013 A2994 886.4 HR40 CIMETAR SLVM 241300Z 36008KT 9999 NSC 34/21 Q1006 A2973 HR46 FU CI=METAR SLTJ 241300Z 00000KT 9999 NSC 25/14 Q1017 A3005 812.8 HR48 FUMETAR SLYA 241300Z 03010KT 9999 NSC 34/20 Q1008 A2977 933.2 HR45 CI=METAR SLBJ 241300Z NIL=METAR SLHI 241300Z NIL=
ZPX0333 241301@CAELT@GG SLZZYMYT@CAELT@241301 SLUYYGYS@CAELT@SABO SLUY 241300@CAELT@METAR SLUY 241300Z 33004KT 9000 NSC 16/01 Q1037 A3062 660.4@CAELT@HR37 FU CI=@CAELT@
ZPX0334 241302@CAELT@GG SLZZYMYT@CAELT@241300 SLLPYFYA@CAELT@SABO SLLP 241300@CAELT@METAR SLLP 241300Z 09007KT 050V130 9999 FEW013 SCT200 13/02 Q1040@CAELT@A3074 629.9 HR48 P93XX FU NOSIG=@CAELT@METAR SLCO 241300Z 31006KT 9999 NSC 30/26 Q1011 A2985 983.6 HR78 CI@CAELT@METAR SLRY 241300Z 00000KT 9999 NSC 33/24 Q1009 HR58 FU CI RWY NML=@CAELT@METAR SLRQ 241300Z 00000KT 8000 NSC 33/25 Q1010 A2983 986.0 HR63 FUMETAR SLAP 241300Z 00000KT 9999 FEW025 26/21 Q1019 A3010 859.7 HR73=METAR SLSB 241300Z 00000KT 5000 FU NSC 33/25 Q1010 A2984 HR65 CIRWY NML=METAR SLUY 241300Z 33004KT 9000 NSC 16/01 Q1037 A3062 660.4HR37 FU CI=
ZPX0338 241304@CAELT@GG SLZZYMYT@CAELT@241300 SLLPYFYA@CAELT@SABO SLLP 241300@CAELT@METAR SLLP 241300Z 09007KT 050V130 9999 FEW013 SCT200 13/02 Q1040@CAELT@A3074 629.9 HR48 P93XX FU NOSIG=@CAELT@METAR SLCO 241300Z 31006KT 9999 NSC 30/26 Q1011 A2985 983.6 HR78 CI@CAELT@METAR SLRY 241300Z 00000KT 9999 NSC 33/24 Q1009 HR58 FU CI RWY NML=@CAELT@METAR SLRQ 241300Z 00000KT 8000 NSC 33/25 Q1010 A2983 986.0 HR63 FUMETAR SLAP 241300Z 00000KT 9999 FEW025 26/21 Q1019 A3010 859.7 HR73=METAR SLSB 241300Z 00000KT 5000 FU NSC 33/25 Q1010 A2984 HR65 CIRWY NML=METAR SLOR 241300Z 33006KT 9999 NSC 14/M03 Q1037 A3064 657.8 HR32 FUMETAR SLUY 241300Z 33004KT 9000 NSC 16/01 Q1037 A3062 660.4HR37 FU CI=
ZPX0341 241315@CAELT@FF SLLPZRZX@CAELT@241308 SLSAZPZX@CAELT@(FPL-CP1935-VG@CAELT@-C207/L-FOV/C@CAELT@-SLSA1400@CAELT@-N0120F025 DCT VFR@CAELT@-ZZZZ0015 SLSA@CAELT@-DEST/PALOMETA OPR/MOAIN NACIF RMK/HDG300 RETORNA PIC JOSE L.ROSALESA.LIC 10840608 CEL 71147699)
ZPX0364 241352@CAELT@GG SLZZYMYT@CAELT@241352 SLPSYGYS@CAELT@SABO SLPS 241400@CAELT@METAR SLPS 241400Z 09012KT 9999 NSC 35/25 Q1012 A2989 HR58=@CAELT@
ZPX0366 241354@CAELT@GG SLZZYMYT@CAELT@241353 SLRBYGYS@CAELT@SABO SLRB 241400@CAELT@METAR SLRB 241400Z 36012KT 9999 NSC 35/22 Q1014 A2994 HR47 RWY NML=@CAELT@
ZPX0367 241354@CAELT@GG SLZZYMYT@CAELT@241352 SLETYMYC@CAELT@SABO SLET 241400@CAELT@METAR SLET 241400Z 33015KT 9999 NSC 34/21 Q1010 A2985 HR46 NOSIG0@CAELT@
ZPX0368 241354@CAELT@GG SLZZYMYT@CAELT@241354 SLSBYSYX@CAELT@SABO SLSB 241400@CAELT@METAR SLSB 241400Z 00000KT 5000 FU NSC 35/23 Q1010 A2984 HR50 CI@CAELT@RWY NML=@CAELT@
ZPX0370 241354@CAELT@GG SLZZYMYT@CAELT@241355 SLAGYSYX@CAELT@SABO SLAG 241400@CAELT@METAR SLAG 241400Z 36007KT 9999 NSC 31/16 Q1013 A2993 886.1 HR39 CI@CAELT@
ZPX0371 241355@CAELT@GG SLZZYMYT@CAELT@241355 SLRQYSYX@CAELT@SABO SLRQ 241400@CAELT@METAR SLRQ 241400Z 00000KT 8000 NSC 36/25 Q1010 A2983 986.0 HR52 FU@CAELT@
ZPX0373 241355@CAELT@GG SLZZYMYT@CAELT@241355 SLTRYGYZ@CAELT@SABO SLTR 241400@CAELT@METAR SLTR 241400Z 32004KT 8000 NSC 35/24 Q1010 A2984 991.9 HR52@CAELT@FU CI NOSIG=@CAELT@
ZPX0374 241355@CAELT@GG SLZZYMYT@CAELT@241356 SLVRYGYZ@CAELT@SABO SLVR 241400@CAELT@METAR SLVR 241400Z 34013KT 9999 NSC 34/23 Q1010 A2985 HR52 NOSIG=@CAELT@
ZPX0375 241355@CAELT@GG SLZZYMYT@CAELT@241354 SLETYMYC@CAELT@SABO SLET 241400 CC@CAELT@METAR SLET 241400Z 33015KT 9999 NSC 34/21 Q1010 A2985 HR46 NOSIG=@CAELT@
ZPX0376 241355@CAELT@GG SLZZYMYT@CAELT@241355 SLLPYGYZ@CAELT@SABO SLLP 241400@CAELT@METAR SLLP 241400Z 11008KT 9999 FEW017 SCT200 14/02 Q1040 A3073@CAELT@629.8 HR44 P3380 FU NOSIG=@CAELT@
ZPX0377 241356@CAELT@GG SLZZYMYT@CAELT@241356 SLUYYGYS@CAELT@SABO SLUY 241400@CAELT@METAR SLUY 241400Z 32004KT 9000 NSC 18/01 Q1036 A3062 660.3@CAELT@HR32 FU CI=@CAELT@
ZPX0378 241356@CAELT@GG SLZZYMYT@CAELT@241356 SLCAYGYS@CAELT@SABO SLCA 241400@CAELT@METAR SLCA 241400Z 36010KT 9999 NSC 33/15 Q1012 A2988 HR35 RWY NML=@CAELT@
ZPX0380 241357@CAELT@GG SLZZYMYT@CAELT@241356 SLORYGYZ@CAELT@SABO SLOR 241400@CAELT@METAR SLOR 241400Z 00000KT 9999 FEW017 SCT200 18/02 Q1037 A3064 657.7@CAELT@HR35=@CAELT@
ZPX0381 241357@CAELT@GG SLZZYMYT@CAELT@241357 SLCBYGYZ@CAELT@SABO SLCB 241400@CAELT@METAR SLCB 241400Z 25004KT 9999 FEW036 SCT200 26/08 Q1025 A3030 752.1@CAELT@HR32 FU NOSIG=@CAELT@
ZPX0383 241357@CAELT@GG SLZZYMYT@CAELT@241357 SLCOYSYX@CAELT@SABO SLCO 241400@CAELT@METAR SLCO 241400Z 30008KT 9999 NSC 32/26 Q1010 A2985 983.5 HR68 FU@CAELT@
ZPX0384 241358@CAELT@GG SLZZYMYT@CAELT@241357 SLTJYGYZ@CAELT@SABO SLTJ 241400@CAELT@METAR SLTJ 241400Z 00000KT 9999 NSC 28/14 Q1017 A3003 812.4 HR45 FU@CAELT@
ZPX0385 241358@CAELT@GG SLZZYMYT@CAELT@241358 SLVRYFYC@CAELT@SABO SLVR 241400@CAELT@METAR SLVR 241400Z 34013KT 9999 NSC 34/23 Q1010 A2985 HR52 NOSIG=@CAELT@METAR SLET 241400Z 33015KT 9999 NSC 34/21 Q1010 A2985 HR46 NOSIG=@CAELT@METAR SLAS 241400Z 36010KT 7000 NSC 32/24 Q1013 A2991 HR63 FU RWY NML@CAELT@METAR SLJV 241400Z 36010KT 9999 NSC 34/20 Q1012 A2988 HR49 FU RWY NML@CAELT@METAR SLCP 241400Z 33005KT 7000 NSC 32/20 Q1015 A2997 HR52 FU RWY NMLMETAR SLSI 241400Z 36008KT 9999 NSC 34/21 Q1013 A2991 HR48 RWY NML=METAR SLTI 241400Z 36012KT 9999 NSC 35/22 Q1015 A2997 HR48 RWY NML=METAR SLJE 241400Z 36010KT 9999 NSC 37/21 Q1015 A2997 HR41 RWY NML=METAR SLVG 241400Z 35009KT 9999 SCT023 23/14 Q1025 A3027 HR55 RWY NMLMETAR SLRB 241400Z 36012KT 9999 NSC 35/22 Q1014 A2994 HR47 RWY NML=METAR SLPS 241400Z 09012KT 9999 NSC 35/25 Q1012 A2989 HR58=METAR SLCA 241400Z 36010KT 9999 NSC 33/15 Q1012 A2988 HR35 RWY NML=
ZPX0388 241400@CAELT@GG SLZZYMYT@CAELT@241359 SLSAYGYS@CAELT@SABO SLSA 241400@CAELT@METAR SLSA 241400Z 34006KT 9999 NSC 33/26 Q1010 A2983 HR65 CI=@CAELT@
ZPX0389 241400@CAELT@GG SLZZYMYT@CAELT@241359 SLTRYGYS@CAELT@SABO SLTR 241400@CAELT@METAR SLTR 241400Z 32004KT 8000 NSC 35/24 Q1010 A2984 991.9 HR52@CAELT@FU CI NOSIG=@CAELT@METAR SLGM 241400Z 02006KT 9999 SCT080 32/23 Q1011 A2988 HR60=@CAELT@METAR SLRI 241400Z 00000KT 8000 FEW015 BKN200 29/24 Q1012 A2989 HR71@CAELT@METAR SLJO 241400Z 34010KT 8000 NSC 34/24 Q1010 A2984 HR56 FU CIRWY NML=METAR SLRA 241400Z 36008KT 9999 NSC 35/23 Q1009 A2982 HR49 CIMETAR SLMG 241400Z 03004KT 9999 NSC 33/24 Q1010 A2985 HR58 CIMETAR SLBU 241400Z 36006KT 9999 NSC 35/25 Q1010 A2984 HR54 CIMETAR SLSA 241400Z 34006KT 9999 NSC 33/26 Q1010 A2983 HR65 CI=METAR SLSR 241400Z 32008KT 5000 FU NSC 34/24 Q1009 A2981 HR56 CIMETAR SLSM 241400Z 00000KT 9999 NSC 34/26 Q1010 A2984 HR63 CI
ZPX0391 241402@CAELT@GG SLZZYMYT@CAELT@241401 SLCBYGYL@CAELT@SABO SLCB 241400@CAELT@METAR SLCB 241400Z 25004KT 9999 FEW036 SCT200 26/08 Q1025 A3030 752.1@CAELT@HR32 FU NOSIG=@CAELT@METAR SLAL 241400Z 25003KT 9999 FEW020 19/08 Q1031 A3046 705.2 HR49@CAELT@METAR SLPO 241400Z 24005KT 9999 FEW017 17/03 Q1041 A3073 640.0 HR39@CAELT@METAR SLAG 241400Z 36007KT 9999 NSC 31/16 Q1013 A2993 886.1 HR39 CIMETAR SLVM 241400Z 36012G25KT 9999 NSC 37/21 Q1006 A2971 HR40 FU CI=METAR SLTJ 241400Z 00000KT 9999 NSC 28/14 Q1017 A3003 812.4 HR45 FUMETAR SLYA 241400Z 03010KT 9999 NSC 35/20 Q1007 A2976 932.8 HR43 CI=METAR SLBJ 241400Z NIL=METAR SLHI 241400Z NIL=
ZPX0395 241404@CAELT@GG SLZZYMYT@CAELT@241401 SLLPYFYA@CAELT@SABO SLLP 241400@CAELT@METAR SLLP 241400Z 11008KT 9999 FEW017 SCT200 14/02 Q1040 A3073@CAELT@629.8 HR44 P3380 FU NOSIG=@CAELT@METAR SLCO 241400Z 30008KT 9999 NSC 32/26 Q1010 A2985 983.5 HR68 FU@CAELT@METAR SLRY 241400Z 00000KT 9999 NSC 36/23 Q1009 2982 HR48 FU@CAELT@CI RWY NML=METAR SLRQ 241400Z 00000KT 8000 NSC 36/25 Q1010 A2983 986.0 HR52 FUMETAR SLAP 241400Z 00000KT 9999 FEW025 29/23 Q1019 A3009 859.5 HR72=METAR SLSB 241400Z 00000KT 5000 FU NSC 35/23 Q1010 A2984 HR50 CIRWY NML=METAR SLOR 241400Z 00000KT 9999 FEW017 SCT200 18/02 Q1037 A3064 657.7HR35=METAR SLUY 241400Z 32004KT 9000 NSC 18/01 Q1036 A3062 660.3HR32 FU CI=
ZPX0436 241452@CAELT@GG SLZZYMYT@CAELT@241451 SLPSYGYS@CAELT@SABO SLPS 241500@CAELT@METAR SLPS 241500Z 09014KT 9999 FEW020 38/25 Q1011 A2986 HR50=@CAELT@
ZPX0437 241452@CAELT@GG SLZZYMYT@CAELT@241452 SLETYMYC@CAELT@SABO SLET 241500@CAELT@METAR SLET 241500Z 32015KT 9999 NSC 35/21 Q1010 A2984 HR42 NOSIG=@CAELT@
ZPX0439 241453@CAELT@GG SLZZYMYT@CAELT@241453 SLSBYSYX@CAELT@SABO SLSB 241500@CAELT@METAR SLSB 241500Z 31005KT 5000 FU NSC 37/25 Q1009 A2982 HR48 RWY NML=@CAELT@
ZPX0440 241454@CAELT@GG SLZZYMYT@CAELT@241454 SLSAYGYS@CAELT@SABO SLSA 241500@CAELT@METAR SLSA 241500Z 32006KT 9999 NSC 34/25 Q1010 A2983 HR58 CI=@CAELT@
ZPX0441 241454@CAELT@GG SLZZYMYT@CAELT@241454 SLCAYGYS@CAELT@SABO SLCA 241500@CAELT@METAR SLCA 241500Z 36006KT 9999 NSC 34/15 Q1012 A2988 HR32 RWY NML=@CAELT@
ZPX0442 241455@CAELT@GG SLZZYMYT@CAELT@241455 SLRQYSYX@CAELT@SABO SLRQ 241500@CAELT@METAR SLRQ 241500Z 00000KT 8000 NSC 37/24 Q1009 A2981 985.5 HR47 FU@CAELT@
ZPX0443 241455@CAELT@GG SLZZYMYT@CAELT@241453 SLRBYGYS@CAELT@SABO SLRB 241500@CAELT@METAR SLRB 241500Z 35015KT 9999 NSC 36/21 Q1013 A2991 HR43 RWY NML=@CAELT@
ZPX0444 241455@CAELT@GG SLZZYMYT@CAELT@241455 SLAGYSYX@CAELT@SABO SLAG 241500@CAELT@METAR SLAG 241500Z 36012KT 9999 NSC 34/15 Q1012 A2990 885.1 HR33 CI@CAELT@
ZPX0445 241455@CAELT@GG SLZZYMYT@CAELT@241455 SLTRYGYZ@CAELT@SABO SLTR 241500@CAELT@METAR SLTR 241500Z 31004KT 8000 NSC 36/23 Q1010 A2983 991.6 HR47@CAELT@FU CI NOSIG=@CAELT@
ZPX0446 241456@CAELT@GG SLZZYMYT@CAELT@241455 SLORYGYZ@CAELT@SABO SLOR 241500@CAELT@METAR SLOR 241500Z 36004KT 9999 FEW020 SCT200 20/03 Q1037 A3063 657.4@CAELT@HR32=@CAELT@
ZPX0447 241456@CAELT@GG SLZZYMYT@CAELT@241457 SLVRYGYZ@CAELT@SABO SLVR 241500@CAELT@METAR SLVR 241500Z 35012KT 9999 FEW013 35/23 Q1010 A2985 HR50 NOSIG=@CAELT@
ZPX0451 241457@CAELT@GG SLZZYMYT@CAELT@241457 SLCBYGYZ@CAELT@SABO SLCB 241500@CAELT@METAR SLCB 241500Z 21004KT 9999 FEW036 SCT200 28/07 Q1024 A3027 751.3@CAELT@HR27 FU NOSIG=@CAELT@
ZPX0452 241457@CAELT@GG SLZZYMYT@CAELT@241457 SLLPYGYZ@CAELT@SABO SLLP 241500@CAELT@METAR SLLP 241500Z 12009KT 080V150 9999 FEW020 SCT200 17/01 Q1040@CAELT@A3072 629.5 HR35 P4053 FU NOSIG=@CAELT@
ZPX0453 241457@CAELT@GG SLZZYMYT@CAELT@241457 SLVRYFYC@CAELT@SABO SLVR 241500@CAELT@METAR SLVR 241500Z 35012KT 9999 FEW013 35/23 Q1010 A2985 HR50 NOSIG=@CAELT@METAR SLET 241500Z 32015KT 9999 NSC 35/21 Q1010 A2984 HR42 NOSIG=@CAELT@METAR SLAS 241500Z 36012KT 8000 NSC 36/23 Q1013 A2991 HR46 FU RWY NML@CAELT@METAR SLJV 241500Z 36010KT 9999 NSC 35/20 Q1011 A2985 HR43 RWY NML=@CAELT@METAR SLCP 241500Z 33010KT 7000 NSC 33/21 Q1015 A2997 HR51 FU RWY NMLMETAR SLSI 241500Z 36010KT 9999 SCT020 34/20 Q1012 A2988 HR44 RWY NMLMETAR SLTI 241500Z 36010KT 9999 NSC 36/23 Q1015 A2997 HR46 RWY NML=METAR SLJE 241500Z 36012KT 9999 FEW020 37/21 Q1014 A2994 HR39 RWY NMLMETAR SLVG 241500Z 36008KT 9999 SCT023 25/14 Q1024 A3024 HR47 RWY NMLMETAR SLRB 241500Z 35015KT 9999 NSC 36/21 Q1013 A2991 HR43 RWY NML=METAR SLPS 241500Z 09014KT 9999 FEW020 38/25 Q1011 A2986 HR50=METAR SLCA 241500Z 36006KT 9999 NSC 34/15 Q1012 A2988 HR32 RWY NML=
ZPX0454 241458@CAELT@GG SLZZYMYT@CAELT@241456 SLUYYGYS@CAELT@SABO SLUY 241500@CAELT@METAR SLUY 241500Z 28005KT 9000 NSC 19/01 Q1036 A3060 659.9@CAELT@HR29 FU CI=@CAELT@
ZPX0456 241458@CAELT@GG SLZZYMYT@CAELT@241458 SLCOYSYX@CAELT@SABO SLCO 241500@CAELT@METAR SLCO 241500Z 35006KT 9999 FEW023 BKN200 34/24 Q1011 A2986 983.9@CAELT@HR63 FU=@CAELT@
ZPX0457 241459@CAELT@GG SLZZYMYT@CAELT@241459 SLTJYGYZ@CAELT@SABO SLTJ 241500@CAELT@METAR SLTJ 241500Z 21006KT 9999 FEW040 SCT200 30/14 Q1016 A3001 811.7@CAELT@HR36 FU=@CAELT@
ZPX0459 241500@CAELT@GG SLZZYMYT@CAELT@241459 SLTRYGYS@CAELT@SABO SLTR 241500@CAELT@METAR SLTR 241500Z 31004KT 8000 NSC 36/23 Q1010 A2983 991.6 HR47@CAELT@FU CI NOSIG=@CAELT@METAR SLGM 241500Z 02006KT 9999 SCT080 BKN200 33/22 Q1011 A2986 HR54=@CAELT@METAR SLRI 241500Z 03004KT 8000 SCT017 BKN200 31/25 Q1012 A2989 HR67@CAELT@METAR SLJO 241500Z 34010KT 8000 FEW020 SCT200 35/24 Q1010 A2985 HR52FU RWY NML=METAR SLRA 241500Z 36010KT 9999 FEW017 BKN200 36/22 Q1009 A2982 HR45RWY NML=METAR SLMG 241500Z 34004KT 9999 FEW017 BKN200 35/23 Q1010 A2985 HR49METAR SLBU 241500Z 36006KT 9999 FEW017 SCT200 37/24 Q1010 A2983 HR49METAR SLSA 241500Z 32006KT 9999 NSC 34/25 Q1010 A2983 HR58 CI=METAR SLSR 241500Z 32008KT 5000 FU FEW017 BKN200 35/24 Q1009 A2980HR52 RWY NML=METAR SLSM 241500Z 00000KT 9999 NSC 34/25 Q1009 A2982 HR57 FU CI
ZPX0460 241500@CAELT@GG SLZZYMYT@CAELT@241500 SLCBYGYS@CAELT@SABO SLCB 241500@CAELT@METAR SLCB 241500Z 21004KT 9999 FEW036 SCT200 28/07 Q1024 A3027 751.3@CAELT@HR27 FU NOSIG=@CAELT@METAR SLAL 241500Z 35009KT 9999 FEW023 21/08 Q1030 A3044 704.7 HR43@CAELT@METAR SLPO 241500Z 00000KT 9999 FEW020 FEW025CB 19/03 Q1040 A3071 639@CAELT@.5 HR35 CB/W CI=METAR SLAG 241500Z 36012KT 9999 NSC 34/15 Q1012 A2990 885.1 HR33 CIMETAR SLVM 241500Z 36015G28KT 9999 NSC 39/22 Q1005 A2969 HR37 FU CI=METAR SLTJ 241500Z 21006KT 9999 FEW040 SCT200 30/14 Q1016 A3001 811.7HR36 FU=METAR SLYA 241500Z 03012KT 9999 NSC 35/20 Q1006 A2973 932.0 HR41=METAR SLBJ 241500Z NIL=METAR SLHI 241500Z NIL=
ZPX0461 241501@CAELT@GG SLZZYMYT@CAELT@241501 SLLPYFYA@CAELT@SABO SLLP 241500@CAELT@METAR SLLP 241500Z 12009KT 080V150 9999 FEW020 SCT200 17/01 Q1040@CAELT@A3072 629.5 HR35 P4053 FU NOSIG=@CAELT@METAR SLCO 241500Z 35006KT 9999 FEW023 BKN200 34/24 Q1011 A2986 983.9@CAELT@HR63 FU=@CAELT@METAR SLRY 241500Z 00000KT 9999 NSC 37/23 Q1009 A2981HR45 FU CI RWY NML=METAR SLRQ 241500Z 00000KT 8000 NSC 37/24 Q1009 A2981 985.5 HR47 FUMETAR SLAP 241500Z 00000KT 9999 FEW025 31/24 Q1018 A3007 859.0 HR66=METAR SLOR 241500Z 36004KT 9999 FEW020 SCT200 20/03 Q1037 A3063 657.4HR32=METAR SLSB 241500Z 31005KT 5000 FU NSC 37/25 Q1009 A2982 HR48 RWY NMLMETAR SLUY 241500Z 28005KT 9000 NSC 19/01 Q1036 A3060 659.9HR29 FU CI=
ZPX0491 241552@CAELT@GG SLZZYMYT@CAELT@241552 SLPSYGYS@CAELT@SABO SLPS 241600@CAELT@METAR SLPS 241600Z 09013KT 9999 SCT020 38/25 Q1010 A2983 HR48=@CAELT@
ZPX0492 241554@CAELT@GG SLZZYMYT@CAELT@241554 SLSBYSYX@CAELT@SABO SLSB 241600@CAELT@METAR SLSB 241600Z 02006KT 7000 FEW020 37/24 Q1009 A2980 HR47 FU@CAELT@RWY NML=@CAELT@
ZPX0493 241554@CAELT@GG SLZZYMYT@CAELT@241553 SLRBYGYS@CAELT@SABO SLRB 241600@CAELT@METAR SLRB 241600Z 36015KT 9999 FEW020 37/20 Q1012 A2988 HR38 RWY NML=@CAELT@
ZPX0494 241554@CAELT@GG SLZZYMYT@CAELT@241556 SLLPYGYZ@CAELT@SABO SLLP 241600@CAELT@METAR SLLP 241600Z 12011KT 090V160 9999 FEW023 SCT200 18/M03 Q1039@CAELT@A3070 629.1 HR24 P4053 FU NOSIG=@CAELT@
ZPX0495 241555@CAELT@GG SLZZYMYT@CAELT@241554 SLSAYGYS@CAELT@SABO SLSA 241600@CAELT@METAR SLSA 241600Z 30005KT 9999 FEW017 BKN200 35/25 Q1009 A2980 HR54=@CAELT@
ZPX0496 241555@CAELT@GG SLZZYMYT@CAELT@241555 SLVRYGYZ@CAELT@SABO SLVR 241600@CAELT@METAR SLVR 241600Z 35013KT 9999 FEW015 36/23 Q1009 A2982 HR46 NOSIG=@CAELT@
ZPX0498 241555@CAELT@GG SLZZYMYT@CAELT@241555 SLAGYSYX@CAELT@SABO SLAG 241600@CAELT@METAR SLAG 241600Z 36010KT 9999 NSC 34/17 Q1011 A2987 884.2 HR35 CI@CAELT@
ZPX0499 241556@CAELT@GG SLZZYMYT@CAELT@241556 SLTRYGYZ@CAELT@SABO SLTR 241600@CAELT@METAR SLTR 241600Z 32005KT 8000 FEW020 SCT200 37/23 Q1009 A2981@CAELT@990.9 HR47 FU NOSIG=@CAELT@
ZPX0500 241556@CAELT@GG SLZZYMYT@CAELT@241557 SLTRYGYS@CAELT@SABO SLTR 241600@CAELT@METAR SLTR 241600Z 32005KT 8000 FEW020 SCT200 37/23 Q1009 A2981@CAELT@990.9 HR47 FU NOSIG=@CAELT@METAR SLGM 241600Z 02006KT 9999 FEW017 SCT080 BKN200 34/22 1010 A2984@CAELT@HR48=@CAELT@METAR SLRI 241600Z 03006KT 8000 SCT017 BKN200 33/24 Q1011 A2987 HR57METAR SLJO 241600Z 34010KT 9999 FEW020 SCT200 36/23 Q1010 A2984 HR48RWY NML=METAR SLRA 241600Z 36010KT 9999 SCT017 37/23 Q1009 A2980 HR44METAR SLMG 241600Z 00000KT 9999 SCT017 37/24 Q1010 A2983 HR46METAR SLBU 241600Z 36006KT 9999 SCT017 38/24 Q1009 A2980 HR44 CIMETAR SLSA 241600Z 30005KT 9999 FEW017 BKN200 35/25 Q1009 A2980 HR54=METAR SLSR 241600Z 32008KT 7000 FEW017 BKN200 36/23 Q1008 A2977 HR46FU RWY NML=METAR SLSM 241600Z 00000KT 9999 NSC 36/24 Q1009 A2980 HR50 FU CI
ZPX0501 241556@CAELT@GG SLZZYMYT@CAELT@241553 SLETYMYC@CAELT@SABO SLET 241600@CAELT@METAR SLET 241600Z 32013G24KT 9999 FEW023 36/20 Q1009 A2981 HR40 FU@CAELT@NOSIG=@CAELT@
ZPX0502 241557@CAELT@GG SLZZYMYT@CAELT@241556 SLTJYGYZ@CAELT@SABO SLTJ 241600@CAELT@METAR SLTJ 241600Z 25007KT 9999 FEW040 FEW043TCU SCT200 32/13 Q1015@CAELT@A2998 810.9 HR32 FU TCU SW/W=@CAELT@
ZPX0503 241557@CAELT@GG SLZZYMYT@CAELT@241556 SLORYGYZ@CAELT@SABO SLOR 241600@CAELT@METAR SLOR 241600Z 12006KT 9999 FEW020 SCT200 20/03 Q1037 A3063 657.4@CAELT@HR30=@CAELT@
ZPX0504 241557@CAELT@GG SLZZYMYT@CAELT@241557 SLVRYFYC@CAELT@SABO SLVR 241600@CAELT@METAR SLVR 241600Z 35013KT 9999 FEW015 36/23 Q1009 A2982 HR46 NOSIG=@CAELT@METAR SLET 241600Z 32013G24KT 9999 FEW023 36/20 Q1009 A2981 HR40 FU@CAELT@NOSIG=@CAELT@METAR SLAS 241600Z 36015KT 9999 NSC 37/23 Q1012 A2989 HR38 FU RWY NML@CAELT@METAR SLJV 241600Z 36010KT 9999 NSC 35/20 Q1011 A2985 HR40 RWY NML=METAR SLCP 241600Z 36010KT 7000 FEW020 34/22 Q1014 A2994 HR51 FU RWYNML=METAR SLSI 241600Z 33010KT 9999 FEW020 36/21 Q1011 A2985 HR43 RWY NMLMETAR SLRB 241600Z 36015KT 9999 FEW020 37/20 Q1012 A2988 HR38 RWY NMLMETAR SLPS 241600Z 09013KT 9999 SCT020 38/25 Q1010 A2983 HR48=METAR SLCA 241600Z 36010KT 9999 NSC 36/16 Q1010 A2983 HR32 RWY NML=
ZPX0505 241557@CAELT@GG SLZZYMYT@CAELT@241557 SLCBYGYZ@CAELT@SABO SLCB 241600@CAELT@METAR SLCB 241600Z 09004KT 9999 FEW036 SCT200 30/05 Q1023 A3023 750.3@CAELT@HR20 FU NOSIG=@CAELT@
ZPX0507 241558@CAELT@GG SLZZYMYT@CAELT@241557 SLRQYSYX@CAELT@SABO SLRQ 241600@CAELT@METAR SLRQ 241600Z 35004KT 9999 FEW017 38/23 Q1008 A2979 HR43 FU CI=@CAELT@
ZPX0508 241559@CAELT@GG SLZZYMYT@CAELT@241559 SLCOYSYX@CAELT@SABO SLCO 241600@CAELT@METAR SLCO 241600Z 29006KT 9999 SCT025 BKN200 34/25 Q1010 A2984 983.2@CAELT@HR60 FU=@CAELT@
ZPX0511 241600@CAELT@GG SLZZYMYT@CAELT@241559 SLCBYGYS@CAELT@SABO SLCB 241600@CAELT@METAR SLCB 241600Z 09004KT 9999 FEW036 SCT200 30/05 Q1023 A3023 750.3@CAELT@HR20 FU NOSIG=@CAELT@METAR SLAL 241600Z 03004KT 9999 FEW025 FEW040CB 24/05 Q1030 A3041 704@CAELT@.2 HR31 CB/DIST/SW CI=@CAELT@METAR SLPO 241600Z 06008KT 9999 FEW020 FEW025CB SCT200 21/03 Q1039A3068 638.7 HR31 CB S/SW AC=METAR SLAG 241600Z 36010KT 9999 NSC 34/17 Q1011 A2987 884.2 HR35 CIMETAR SLVM 241600Z 36015G27KT 9999 NSC 40/23 Q1004 A2966 HR37 FU CI=METAR SLTJ 241600Z 25007KT 9999 FEW040 FEW043TCU SCT200 32/13 Q1015A2998 810.9 HR32 FU TCU SW/W=METAR SLYA 241600Z 03010G20KT 9999 NSC 36/20 Q1005 A2970 931.0 HR40=METAR SLBJ 241500Z NIL=METAR SLHI 241500Z NIL=
ZPX0516 241602@CAELT@GG SLZZYMYT@CAELT@241600 SLLPYFYA@CAELT@SABO SLLP 241600@CAELT@METAR SLLP 241600Z 12011KT 090V160 9999 FEW023 SCT200 18/M03 Q1039@CAELT@A3070 629.1 HR24 P4053 FU NOSIG=@CAELT@METAR SLCO 241600Z 29006KT 9999 SCT025 BKN200 34/25 Q1010 A2984 983.2@CAELT@HR60 FU=@CAELT@METAR SLRY 241600Z 32003KT 9999 FEW017 SCT200 38/23 Q1008 A2979HR42 FU RWY NML=METAR SLRQ 241600Z 35004KT 9999 FEW017 38/23 Q1008 A2979 HR43 FU CI=METAR SLAP 241600Z 00000KT 9999 FEW025 33/22 Q1017 A3005 858.2 HR54=METAR SLSB 241600Z 02006KT 7000 FEW020 37/24 Q1009 A2980 HR47 FURWY NML=METAR SLOR 241600Z 12006KT 9999 FEW020 SCT200 20/03 Q1037 A3063 657.4HR30=
ZPX0521 241604@CAELT@GG SLZZYMYT@CAELT@241603 SLUYYGYS@CAELT@SABO SLUY 241600 RRA@CAELT@METAR RTD SLUY 241600Z 29006KT 9999 FEW025 BKN200 20/M00 Q1035 A3058@CAELT@659.3 HR28 FU=@CAELT@
ZPX0540 241650@CAELT@GG SLZZYMYT@CAELT@241650 SLPSYGYS@CAELT@SABO SLPS 241700@CAELT@METAR SLPS 241700Z 09014KT 9999 SCT020 39/25 Q1010 A2983 HR46=@CAELT@
ZPX0542 241652@CAELT@GG SLZZYMYT@CAELT@241652 SLCAYGYS@CAELT@SABO SLCA 241700@CAELT@METAR SLCA 241700Z 36008KT 9999 NSC 37/14 Q1009 A2980 HR26 RWY NML=@CAELT@
ZPX0543 241654@CAELT@GG SLZZYMYT@CAELT@241654 SLSBYSYX@CAELT@SABO SLSB 241700@CAELT@METAR SLSB 241700Z 04005KT 8000 FEW020 37/24 Q1008 A2977 HR43 FU@CAELT@RWY NML=@CAELT@
ZPX0544 241654@CAELT@GG SLZZYMYT@CAELT@241654 SLSAYGYS@CAELT@SABO SLSA 241700@CAELT@METAR SLSA 241700Z 27005KT 9999 FEW017 SCT200 36/25 Q1008 A2979 HR50=@CAELT@
ZPX0545 241655@CAELT@GG SLZZYMYT@CAELT@241654 SLTJYGYZ@CAELT@SABO SLTJ 241700@CAELT@METAR SLTJ 241700Z 21006KT 9999 FEW040 FEW043TCU BKN200 31/13 Q1014@CAELT@A2995 810.2 HR33 FU TCU/W=@CAELT@
ZPX0546 241655@CAELT@GG SLZZYMYT@CAELT@241655 SLAGYSYX@CAELT@SABO SLAG 241700@CAELT@METAR SLAG 241700Z 04008KT 9999 NSC 36/16 Q1010 A2985 883.5 HR31 CI@CAELT@
ZPX0547 241655@CAELT@GG SLZZYMYT@CAELT@241655 SLTRYGYZ@CAELT@SABO SLTR 241700@CAELT@METAR SLTR 241700Z 34005KT 8000 FEW020 SCT200 38/23 Q1008 A2978@CAELT@990.1 HR43 FU NOSIG=@CAELT@
ZPX0548 241655@CAELT@GG SLZZYMYT@CAELT@241655 SLRQYSYX@CAELT@SABO SLRQ 241700@CAELT@METAR SLRQ 241700Z 35004KT 9999 SCT017 39/24 Q1008 A2976 983.9 HR43@CAELT@FU CI=@CAELT@
ZPX0549 241655@CAELT@GG SLZZYMYT@CAELT@241653 SLRBYGYS@CAELT@SABO SLRB 241700@CAELT@METAR SLRB 241700Z 36012KT 9999 FEW020 38/20 Q1012 A2988 HR35 RWY NML=@CAELT@
ZPX0550 241655@CAELT@GG SLZZYMYT@CAELT@241656 SLLPYGYZ@CAELT@SABO SLLP 241700@CAELT@METAR SLLP 241700Z 12011KT 070V160 9999 FEW023 SCT200 19/M04 Q1038@CAELT@A3068 628.5 HR21 P93// FU NOSIG=@CAELT@
ZPX0551 241655@CAELT@GG SLZZYMYT@CAELT@241656 SLVRYGYZ@CAELT@SABO SLVR 241700@CAELT@METAR SLVR 241700Z 35013KT 9999 SCT017 36/22 Q1008 A2979 HR45 NOSIG=@CAELT@
ZPX0554 241657@CAELT@GG SLZZYMYT@CAELT@241656 SLUYYGYS@CAELT@SABO SLUY 241700@CAELT@METAR SLUY 241700Z 29008KT 9999 FEW025 FEW027CB BKN200 20/M00@CAELT@Q1035 A3055 658.7 HR25 CB/SH E=@CAELT@
ZPX0555 241657@CAELT@GG SLZZYMYT@CAELT@241649 SLETYMYC@CAELT@SABO SLET 241700@CAELT@METAR SLET 241700Z 32014G24KT 9999 SCT023 36/19 Q1008 A2979 HR36 FU@CAELT@NOSIG=@CAELT@
ZPX0556 241658@CAELT@GG SLZZYMYT@CAELT@241657 SLCBYGYZ@CAELT@SABO SLCB 241700@CAELT@METAR SLCB 241700Z 16003KT 9999 FEW036 SCT200 31/04 Q1022 A3018 749.1@CAELT@HR18 FU NOSIG=@CAELT@
ZPX0557 241658@CAELT@GG SLZZYMYT@CAELT@241658 SLCOYSYX@CAELT@SABO SLCO 241700@CAELT@METAR SLCO 241700Z 32008KT 8000 TS VCSH SCT025 FEW027CB BKN200 36/25@CAELT@Q1009 A2980 981.9 HR54 CB/TS/SH/E/SE AC FU=@CAELT@
ZPX0558 241658@CAELT@GG SLZZYMYT@CAELT@241658 SLORYGYZ@CAELT@SABO SLOR 241700@CAELT@METAR SLOR 241700Z 33007KT 9999 FEW023 FEW025CB 23/02 Q1036 A3060 656@CAELT@.7 HR29 CB/N/S CI=@CAELT@
ZPX0559 241658@CAELT@GG SLZZYMYT@CAELT@241658 SLVRYFYC@CAELT@SABO SLVR 241700@CAELT@METAR SLVR 241700Z 35013KT 9999 SCT017 36/22 Q1008 A2979 HR45 NOSIG=@CAELT@METAR SLET 241700Z 32014G24KT 9999 SCT023 36/19 Q1008 A2979 HR36 FU@CAELT@NOSIG=@CAELT@METAR SLAS 241700Z 36015KT 9999 NSC 38/22 Q1011 A2986 HR40 FU RWY NML@CAELT@METAR SLJV 241700Z 36010KT 9999 NSC 36/19 Q1011 A2985 HR40 RWY NML=METAR SLCP 241700Z 36005KT 7000 FEW020 34/22 Q1014 A2994 HR49 FU RWYNML=METAR SLSI 241700Z 36008KT 9999 SCT020 36/22 Q1010 A2983 HR42 RWY NMLMETAR SLRB 241700Z 36012KT 9999 FEW020 38/20 Q1012 A2988 HR35 RWY NMLMETAR SLPS 241700Z 09014KT 9999 SCT020 39/25 Q1010 A2983 HR46=METAR SLCA 241700Z 36008KT 9999 NSC 37/14 Q1009 A2980 HR26 RWY NML=
ZPX0560 241659@CAELT@GG SLZZYMYT@CAELT@241659 SLTRYGYS@CAELT@SABO SLTR 241700@CAELT@METAR SLTR 241700Z 34005KT 8000 FEW020 SCT200 38/23 Q1008 A2978 990.1@CAELT@HR43 FU NOSIG=@CAELT@METAR SLGM 241700Z 02006KT 9999 SCT017 BKN200 35/23 Q1009 A2982 HR48=@CAELT@METAR SLRI 241700Z 03006KT 8000 SCT017 BKN200 33/24 Q1010 A2984 HR57@CAELT@METAR SLJO 241700Z 36005KT 9999 FEW020 38/23 Q1009 A2981 HR43RWY NML=METAR SLRA 241700Z 09010KT 9999 SCT017 38/22 Q1008 A2978 HR41METAR SLMG 241700Z 00000KT 9999 SCT017 38/23 Q1009 A2982 HR44METAR SLBU 241700Z 36006KT 9999 SCT017 40/24 Q1008 A2977 HR41METAR SLSA 241700Z 27005KT 9999 FEW017 SCT200 36/25 Q1008 A2979 HR50=METAR SLSR 241700Z 32008KT 7000 FEW017 BKN200 37/23 Q1007 A2976 HR46FU RWY NML=METAR SLSM 241700Z 33004KT 9999 FEW020 36/23 Q1008 A2977 HR48 FU CI
ZPX0562 241700@CAELT@GG SLZZYMYT@CAELT@241659 SLCBYGYS@CAELT@SABO SLCB 241700@CAELT@METAR SLCB 241700Z 16003KT 9999 FEW036 SCT200 31/04 Q1022 A3018 749.1@CAELT@HR18 FU NOSIG=@CAELT@METAR SLAL 241700Z 02008KT 9999 FEW025 FEW040CB BKN200 24/05 Q1029@CAELT@A3038 703.5 HR31 CB/SW=@CAELT@METAR SLPO 241700Z NIL=METAR SLAG 241700Z 04008KT 9999 NSC 36/16 Q1010 A2985 883.5 HR31 CIMETAR SLVM 241700Z 36017G30KT 9999 NSC 41/23 Q1002 A2961 HR36 FU CI=METAR SLTJ 241700Z 21006KT 9999 FEW040 FEW043TCU BKN200 31/13 Q1014A2995 810.2 HR33 FU TCU/W=METAR SLYA 241700Z 03012G25KT 9999 NSC 39/21 Q1005 A2968 930.4 HR37METAR SLBJ 241700Z NIL=METAR SLHI 241700Z NIL=
ZPX0564 241701@CAELT@GG SLZZYMYT@CAELT@241700 SLLPYFYA@CAELT@SABO SLLP 241700@CAELT@METAR SLLP 241700Z 12011KT 070V160 9999 FEW023 SCT200 19/M04 Q1038@CAELT@A3068 628.5 HR21 P93// FU NOSIG=@CAELT@METAR SLCO 241700Z 32008KT 8000 TS VCSH SCT025 FEW027CB BKN200 36/25@CAELT@Q1009 A2980 981.9 HR54 CB/TS/SH/E/SE AC FU=@CAELT@METAR SLRY 241700Z 00000KT 9999 FEW020 SCT200 38/23 Q1008 A2978HR41 FU CI RWY NML=METAR SLRQ 241700Z 35004KT 9999 SCT017 39/24 Q1008 A2976 983.9 HR43FU CI=METAR SLAP 241700Z 00000KT 9999 FEW025 33/24 Q1016 A3003 857.6 HR58=METAR SLSB 241700Z 04005KT 8000 FEW020 37/24 Q1008 A2977 HR43 FURWY NML=METAR SLOR 241700Z 33007KT 9999 FEW023 FEW025CB 23/02 Q1036 A3060 656.7 HR29 CB/N/S CI=METAR SLUY 241700Z 29008KT 9999 FEW025 FEW027CB BKN200 20/M00Q1035 A3055 658.7 HR25 CB/SH E=
ZPX0579 241742@CAELT@GG SLZZYMYT@CAELT@241737 SLCOYSYX@CAELT@SPBO SLCO 241737@CAELT@METAR SPECI SLCO 241737Z 09016KT 2000 RA BKN025 FEW030CB@CAELT@BKN200 29/26 Q1009 A2981 982.1 HR83 TS/E CB/NE/E/SE AC=@CAELT@
ZPX0583 241752@CAELT@GG SLZZYMYT@CAELT@241751 SLPSYGYS@CAELT@SABO SLPS 241800@CAELT@METAR SLPS 241800Z 09014KT 9999 SCT020 39/25 Q1009 A2980 HR44=@CAELT@
ZPX0584 241753@CAELT@GG SLZZYMYT@CAELT@241752 SLCAYGYS@CAELT@SABO SLCA 241800@CAELT@METAR SLCA 241800Z 36015KT 9999 SCT070 38/12 Q1008 A2977 HR25 RWY NML@CAELT@
ZPX0585 241753@CAELT@GG SLZZYMYT@CAELT@241752 SLETYMYC@CAELT@SABO SLET 241800@CAELT@METAR SLET 241800Z 33018G28KT 9999 SCT023 37/21 Q1007 A2976 HR40@CAELT@NOSIG=@CAELT@
ZPX0587 241754@CAELT@GG SLZZYMYT@CAELT@241755 SLSBYSYX@CAELT@SABO SLSB 241800@CAELT@METAR SLSB 241800Z 36004KT 9999 FEW020 38/22 Q1007 A2974 HR42 RWY NML=@CAELT@
ZPX0588 241755@CAELT@GG SLZZYMYT@CAELT@241755 SLVRYGYZ@CAELT@SABO SLVR 241800@CAELT@METAR SLVR 241800Z 34013KT 9999 SCT017 37/22 Q1007 A2976 HR43 NOSIG=@CAELT@
ZPX0589 241755@CAELT@GG SLZZYMYT@CAELT@241755 SLSAYGYS@CAELT@SABO SLSA 241800@CAELT@METAR SLSA 241800Z 00000KT 8000 SCT017 36/24 Q1007 A2974 HR50 FU=@CAELT@
ZPX0590 241756@CAELT@GG SLZZYMYT@CAELT@241755 SLAGYSYX@CAELT@SABO SLAG 241800@CAELT@METAR SLAG 241800Z 04008KT 9999 FEW070 BKN200 35/15 Q1009 A2981 882.5@CAELT@HR31 FU=@CAELT@
ZPX0591 241756@CAELT@GG SLZZYMYT@CAELT@241755 SLLPYGYZ@CAELT@SABO SLLP 241800@CAELT@METAR SLLP 241800Z 15012KT 110V180 9999 FEW023 SCT200 20/M04 Q1037@CAELT@A3065 627.8 HR20 P93// NOSIG=@CAELT@
ZPX0592 241756@CAELT@GG SLZZYMYT@CAELT@241755 SLLPYFYA@CAELT@SABO SLRY 241800@CAELT@METAR SLRY 241800Z 36003KT 9999 FEW020 SCT200 39/23 Q1007 A2974@CAELT@HR39 FU RWY NML=@CAELT@
ZPX0593 241756@CAELT@GG SLZZYMYT@CAELT@241755 SLORYGYZ@CAELT@SABO SLOR 241800@CAELT@METAR SLOR 241800Z 16003KT 9999 SCT023 FEW025CB 24/03 Q1033 A3052 655@CAELT@.0 HR25 CB/SH S AC/CI=@CAELT@
ZPX0594 241756@CAELT@GG SLZZYMYT@CAELT@241755 SLTJYGYZ@CAELT@SABO SLTJ 241800@CAELT@METAR SLTJ 241800Z 11008KT 9999 FEW040 BKN200 31/12 Q1014 A2995 810.0@CAELT@HR32 AC FU=@CAELT@
ZPX0595 241756@CAELT@GG SLZZYMYT@CAELT@241756 SLORYGYZ@CAELT@SABO SLOR 241800@CAELT@METAR SLOR 241800Z 16003KT 9999 SCT023 FEW025CB 24/03 Q1033 A3052 655@CAELT@.0 HR25 CB/SH S AC/CI=@CAELT@
ZPX0596 241756@CAELT@GG SLZZYMYT@CAELT@241755 SLRQYSYX@CAELT@SABO SLRQ 241800@CAELT@METAR SLRQ 241800Z 36004KT 9999 SCT017 39/25 Q1006 A2973 982.7 HR43@CAELT@FU CI=@CAELT@
ZPX0597 241757@CAELT@GG SLZZYMYT@CAELT@241757 SLCBYGYZ@CAELT@SABO SLCB 241800@CAELT@METAR SLCB 241800Z 25005KT 9999 FEW036 FEW040CB SCT200 34/01 Q1020@CAELT@A3014 747.9 HR12 CB/SE AC FU NOSIG=@CAELT@
ZPX0599 241757@CAELT@GG SLZZYMYT@CAELT@241756 SLRBYGYS@CAELT@SABO SLRB 241800@CAELT@METAR SLRB 241800Z 36015KT 9999 SCT020 38/20 Q1010 A2983 HR35 RWY NML=@CAELT@
ZPX0600 241758@CAELT@GG SLZZYMYT@CAELT@241758 SLVRYFYC@CAELT@SABO SLVR 241800@CAELT@METAR SLVR 241800Z 34013KT 9999 SCT017 37/22 Q1007 A2976 HR43 NOSIG=@CAELT@METAR SLET 241800Z 33018G28KT 9999 SCT023 37/21 Q1007 A2976 HR40@CAELT@NOSIG=@CAELT@METAR SLAS 241800Z 36015KT 9999 NSC 39/19 Q1010 A2983 HR32 FU RWY NML@CAELT@METAR SLJV 241800Z 36010KT 9999 NSC 37/21 Q1010 A2983 HR40 RWY NML=METAR SLCP 241800Z 34005KT 8000 SCT020 35/20 Q1013 A2991 HR44 FU RWYNML=METAR SLSI 241800Z 36006KT 9999 SCT020 37/21 Q1009 A2980 HR41 RWY NMLMETAR SLTI 241800Z 36012KT 9999 SCT020 39/22 Q1012 A2988 HR38 RWY NMLMETAR SLJE 241800Z 36012KT 9999 SCT020 40/20 Q1011 A2985 HR31 RWY NMLMETAR SLVG 241800Z 02010KT 9999 FEW027 26/13 Q1022 A3018 HR40 RWY NMLMETAR SLRB 241800Z 36015KT 9999 SCT020 38/20 Q1010 A2983 HR35 RWY NMLMETAR SLPS 241800Z 09014KT 9999 SCT020 39/25 Q1009 A2980 HR44=METAR SLCA 241800Z 36015KT 9999 SCT070 38/12 Q1008 A2977 HR25 RWY NML
ZPX0601 241758@CAELT@GG SLZZYMYT@CAELT@241756 SLTRYGYZ@CAELT@SABO SLTR 241800@CAELT@METAR SLTR 241800Z 34005KT 8000 FEW020 SCT200 38/23 Q1006 A2974@CAELT@988.5 HR42 FU NOSIG=@CAELT@
ZPX0603 241759@CAELT@GG SLZZYMYT@CAELT@241757 SLLPYFYA@CAELT@SABO SLCO 241800@CAELT@METAR SLCO 241800Z 31006KT 4000 -TSRA BKN025 FEW030CB BKN200@CAELT@25/25 Q1008 A2979 981.3 HR99 TS/W CB/SW/W/ AC=@CAELT@
ZPX0604 241759@CAELT@GG SLZZYMYT@CAELT@241759 SLTRYGYS@CAELT@SABO SLTR 241800@CAELT@METAR SLTR 241800Z 34005KT 8000 FEW020 SCT200 38/23 Q1006 A2974@CAELT@988.5 HR42 FU NOSIG=@CAELT@METAR SLGM 241800Z 05006KT 9999 SCT017 BKN200 36/22 Q1009 A2979 HR46=@CAELT@METAR SLRI 241800Z 09010KT 8000 FEW017 FEW020CB BKN200 36/22 Q1009@CAELT@A2980 HR45 CB DIST N FU=METAR SLJO 241800Z NIL=METAR SLRA 241800Z 09008KT 8000 FEW023 SCT200 39/21 Q1007 A2975 HR35FU RWY NML=METAR SLMG 241800Z 34004KT 9999 SCT017 37/23 Q1008 A2978 HR44RWY NML=METAR SLBU 241800Z 36008KT 9999 SCT017 39/24 Q1007 A2974 HR41METAR SLSA 241800Z 00000KT 8000 SCT017 36/24 Q1007 A2974 HR50 FU=METAR SLSR 241800Z 32008KT 7000 SCT017 BKN200 37/23 Q1007 A2974 HR44METAR SLSM 241800Z 02004KT 9999 FEW017 37/24 Q1007 A2974 HR49 FU CI
ZPX0605 241800@CAELT@GG SLZZYMYT@CAELT@241800 SLCBYGYS@CAELT@SABO SLCB 241800@CAELT@METAR SLCB 241800Z 25005KT 9999 FEW036 FEW040CB SCT200 34/01 Q1020@CAELT@A3014 747.9 HR12 CB/SE AC FU NOSIG=@CAELT@METAR SLAL 241800Z 04008KT 9999 FEW023 FEW033CB BKN200 24/M00 Q1027@CAELT@A3035 702.8 HR20 CB E/W=@CAELT@METAR SLPO 241800Z NIL=METAR SLAG 241800Z 04008KT 9999 FEW070 BKN200 35/15 Q1009 A2981 882.5HR31 FU=METAR SLVM 241800Z 36015G28KT 9999 NSC 41/23 Q1001 A2958 HR36 FU CI=METAR SLTJ 241800Z 11008KT 9999 FEW040 BKN200 31/12 Q1014 A2995 810.0HR32 AC FU=METAR SLYA 241800Z 03015KT 9999 NSC 39/21 Q1003 A2964 929.0 HR36 CI=METAR SLBJ 241800Z NIL=METAR SLHI 241800Z NIL=
ZPX0606 241802@CAELT@GG SLZZYMYT@CAELT@241800 SLLPYFYA@CAELT@SABO SLLP 241800@CAELT@METAR SLLP 241800Z 15012KT 110V180 9999 FEW023 SCT200 20/M04 Q1037@CAELT@A3065 627.8 HR20 P93// NOSIG=@CAELT@METAR SLCO 241800Z 31006KT 4000 -TSRA BKN025 FEW030CB BKN200@CAELT@25/25 Q1008 A2979 981.3 HR99 TS/W CB/SW/W/ AC=@CAELT@METAR SLRY 241800Z 36003KT 9999 FEW020 SCT200 39/23 Q1007 A2974HR39 FU RWY NML=METAR SLRQ 241800Z 36004KT 9999 SCT017 39/25 Q1006 A2973 982.7 HR43FU CI=METAR SLSB 241800Z 36004KT 9999 FEW020 38/22 Q1007 A2974 HR42 RWY NMLMETAR SLOR 241800Z 16003KT 9999 SCT023 FEW025CB 24/03 Q1033 A3052 655.0 HR25 CB/SH S AC/CI=METAR SLAP 241800Z 00000KT 9999 FEW025 34/23 Q1015 A2999 856.6 HR52=
ZPX0623 241852@CAELT@GG SLZZYMYT@CAELT@241852 SLPSYGYS@CAELT@SABO SLPS 241900@CAELT@METAR SLPS 241900Z 09010KT 9999 SCT020 39/25 Q1009 A2980 HR45=@CAELT@
ZPX0624 241853@CAELT@GG SLZZYMYT@CAELT@241852 SLETYMYC@CAELT@SABO SLET 241900@CAELT@METAR SLET 241900Z 33015G25KT 9999 SCT023 37/21 Q1006 A2973 HR41@CAELT@NOSIG=@CAELT@
ZPX0625 241854@CAELT@GG SLZZYMYT@CAELT@241853 SLRBYGYS@CAELT@SABO SLRB 241900@CAELT@METAR SLRB 241900Z 36015KT 9999 SCT020 38/20 Q1009 A2980 HR35 RWY NML=@CAELT@
ZPX0626 241855@CAELT@GG SLZZYMYT@CAELT@241855 SLSBYSYX@CAELT@SABO SLSB 241900@CAELT@METAR SLSB 241900Z 01004KT 9999 FEW020 38/24 Q1005 A2970 HR44 RWY NML=@CAELT@
ZPX0628 241855@CAELT@GG SLZZYMYT@CAELT@241855 SLVRYGYZ@CAELT@SABO SLVR 241900@CAELT@METAR SLVR 241900Z 36013G23KT 9999 SCT017 37/21 Q1006 A2973 HR39@CAELT@NOSIG=@CAELT@
ZPX0629 241855@CAELT@GG SLZZYMYT@CAELT@241855 SLAGYSYX@CAELT@SABO SLAG 241900@CAELT@METAR SLAG 241900Z 05007KT 9999 SCT070 BKN200 35/15 Q1008 A2979 881.8@CAELT@HR31 FU=@CAELT@
ZPX0630 241855@CAELT@GG SLZZYMYT@CAELT@241855 SLRQYSYX@CAELT@SABO SLRQ 241900@CAELT@METAR SLRQ 241900Z 36004KT 9999 SCT017 39/25 Q1005 A2969 HR43 FU CI=@CAELT@
ZPX0631 241855@CAELT@GG SLZZYMYT@CAELT@241855 SLCOYSYX@CAELT@SABO SLCO 241900@CAELT@METAR SLCO 241900Z 29005KT 9999 SCT025 FEW030CB BKN200 27/25 Q1007@CAELT@A2976 980.3 HR95 CB/W RETS AC=@CAELT@
ZPX0632 241855@CAELT@GG SLZZYMYT@CAELT@241855 SLLPYGYZ@CAELT@SABO SLLP 241900@CAELT@METAR SLLP 241900Z 12012G26KT 070V170 9999 FEW023 SCT200 21/M04 Q1036@CAELT@A3061 627.1 HR18 P93// NOSIG=@CAELT@
ZPX0633 241856@CAELT@GG SLZZYMYT@CAELT@241855 SLTRYGYZ@CAELT@SABO SLTR 241900@CAELT@METAR SLTR 241900Z 34005KT 8000 FEW020 SCT200 38/23 Q1006 A2974 988.5@CAELT@HR42 FU NOSIG=@CAELT@
ZPX0634 241856@CAELT@GG SLZZYMYT@CAELT@241856 SLCAYGYS@CAELT@SABO SLCA 241900@CAELT@METAR SLCA 241900Z 36010KT 9999 BKN070 38/11 Q1007 A2974 HR23 RWY NML@CAELT@
ZPX0635 241857@CAELT@GG SLZZYMYT@CAELT@241857 SLCBYGYZ@CAELT@SABO SLCB 241900@CAELT@METAR SLCB 241900Z 25004KT 9999 FEW036 FEW040CB SCT200 33/01 Q1019@CAELT@A3009 746.7 HR13 CB/NW AC FU NOSIG=@CAELT@
ZPX0636 241858@CAELT@GG SLZZYMYT@CAELT@241857 SLTJYGYZ@CAELT@SABO SLTJ 241900@CAELT@METAR SLTJ 241900Z 13012KT 9999 FEW040 BKN200 31/12 Q1013 A2994 809.7@CAELT@HR31 FU=@CAELT@
ZPX0637 241858@CAELT@GG SLZZYMYT@CAELT@241857 SLVRYFYC@CAELT@SABO SLVR 241900@CAELT@METAR SLVR 241900Z 36013G23KT 9999 SCT017 37/21 Q1006 A2973 HR39@CAELT@NOSIG=@CAELT@METAR SLET 241900Z 33015G25KT 9999 SCT023 37/21 Q1006 A2973 HR41@CAELT@METAR SLAS 241900Z 36012KT 9999 NSC 39/19 Q1008 A2977 HR30 FU RWY NML@CAELT@METAR SLJV 241900Z 36010KT 9999 NSC 36/20 Q1008 A2977 HR38 RWY NML=METAR SLCP 241900Z 00000KT 8000 SCT020 35/20 Q1011 A2985 HR44 FU RWYNML=METAR SLSI 241900Z 36005KT 9999 SCT020 37/22 Q1008 A2977 HR42 RWY NMLMETAR SLTI 241900Z 36010KT 9999 FEW020 38/22 Q1012 A2985 HR40 RWY NMLMETAR SLJE 241900Z 36010KT 9999 SCT020 41/19 Q1010 A2983 HR29 RWY NMLMETAR SLVG 241900Z 36010KT 9999 FEW027 SCT200 27/14 Q1021 A3015 HR41RWY NML=METAR SLRB 241900Z 36015KT 9999 SCT020 38/20 Q1009 A2980 HR35 RWY NMLMETAR SLPS 241900Z 09010KT 9999 SCT020 39/25 Q1009 A2980 HR45=METAR SLCA 241900Z 36010KT 9999 BKN070 38/11 Q1007 A2974 HR23 RWY NML
ZPX0638 241858@CAELT@GG SLZZYMYT@CAELT@241858 SLSAYGYS@CAELT@SABO SLSA 241900@CAELT@METAR SLSA 241900Z 00000KT 8000 SCT017 37/24 Q1006 A2971 HR49 FU=@CAELT@
ZPX0639 241859@CAELT@GG SLZZYMYT@CAELT@241859 SLTRYGYS@CAELT@SABO SLTR 241900@CAELT@METAR SLTR 241900Z 34005KT 8000 FEW020 SCT200 38/23 Q1006 A2974 988.5@CAELT@HR42 FU NOSIG=@CAELT@METAR SLGM 241900Z 05006KT 9999 SCT017 BKN200 35/23 Q1008 A2977 HR49=@CAELT@METAR SLRI 241900Z 08010KT 8000 FEW020 BKN200 36/23 Q1007 A2976 HR45@CAELT@METAR SLJO 241900Z NIL=METAR SLRA 241900Z 06006KT 8000 FEW023 SCT200 39/22 Q1006 A2971 HR38FU RWY NML=METAR SLMG 241900Z 34004KT 9999 SCT017 38/23 Q1007 A2973 HR41 CIRWY NML=METAR SLBU 241900Z 36008KT 9999 SCT017 40/23 Q1006 A2971 HR38METAR SLSA 241900Z 00000KT 8000 SCT017 37/24 Q1006 A2971 HR49 FU=METAR SLSR 241900Z 32008KT 7000 FEW017 BKN200 37/23 Q1005 A2969 HR44METAR SLSM 241900Z 33004KT 9999 FEW017 37/23 Q1006 A2971 HR44
ZPX0641 241901@CAELT@GG SLZZYMYT@CAELT@241900 SLLPYFYA@CAELT@SABO SLLP 241900@CAELT@METAR SLLP 241900Z 12012G26KT 070V170 9999 FEW023 SCT200 21/M04 Q1036@CAELT@A3061 627.1 HR18 P93// NOSIG=@CAELT@METAR SLCO 241900Z 29005KT 9999 SCT025 FEW030CB BKN200 27/25 Q1007@CAELT@A2976 980.3 HR95 CB/W RETS AC=@CAELT@METAR SLRY 241900Z 36004KT 9999 FEW020 SCT200 39/22 Q1006 A2972HR38 FU RWY NML=METAR SLRQ 241900Z 36004KT 9999 SCT017 39/25 Q1005 A2969 HR43 FU CI=METAR SLSB 241900Z 01004KT 9999 FEW020 38/24 Q1005 A2970 HR44 RWY NML
ZPX0645 241903@CAELT@GG SLZZYMYT@CAELT@241901 SLCBYGYM@CAELT@SABO SLCB 241900@CAELT@METAR SLCB 241900Z 25004KT 9999 FEW036 FEW040CB SCT200 33/01 Q1019@CAELT@A3009 746.7 HR13 CB/NW AC FU NOSIG=@CAELT@METAR SLAL 241900Z 35007KT 9999 FEW023 FEW033CB BKN200 25/02 Q1026@CAELT@A3032 702.1 HR23 CB/SW=@CAELT@METAR SLPO 241900Z NIL=METAR SLAG 241900Z 05007KT 9999 SCT070 BKN200 35/15 Q1008 A2979 881.8HR31 FU=METAR SLVM 241900Z NIL=METAR SLTJ 241900Z 13012KT 9999 FEW040 BKN200 31/12 Q1013 A2994 809.7METAR SLYA 241900Z NIL=METAR SLBJ 241900Z NIL=METAR SLHI 241900Z NIL=
ZPX0668 241950@CAELT@GG SLZZYMYT@CAELT@241950 SLRBYGYS@CAELT@SABO SLRB 242000@CAELT@METAR SLRB 242000Z 36015KT 9999 FEW020 38/20 Q1009 A2980 HR35 RWY NML=@CAELT@
ZPX0669 241951@CAELT@GG SLZZYMYT@CAELT@241951 SLPSYGYS@CAELT@SABO SLPS 242000@CAELT@METAR SLPS 242000Z 09010KT 9999 FEW020 39/25 Q1007 A2974 HR45=@CAELT@
ZPX0672 241953@CAELT@GG SLZZYMYT@CAELT@241952 SLCAYGYS@CAELT@SABO SLCA 242000@CAELT@METAR SLCA 242000Z 36006KT 9999 BKN070 37/11 Q1007 A2974 HR22 RWY NML@CAELT@
ZPX0673 241954@CAELT@GG SLZZYMYT@CAELT@241954 SLSAYGYS@CAELT@SABO SLSA 242000@CAELT@METAR SLSA 242000Z 00000KT 8000 SCT017 FEW023CB BKN200 37/24 Q1005@CAELT@A2969 HR47 FU CB N/NE=@CAELT@
ZPX0674 241954@CAELT@GG SLZZYMYT@CAELT@241954 SLSAYGYS@CAELT@SABO SLSA 242000@CAELT@METAR SLSA 242000Z 00000KT 8000 SCT017 FEW023CB BKN200 37/24 Q1005@CAELT@A2969 HR47 FU CB N/NE=@CAELT@
ZPX0675 241955@CAELT@GG SLZZYMYT@CAELT@241955 SLCOYSYX@CAELT@SABO SLCO 242000@CAELT@METAR SLCO 242000Z 35008KT 9999 SCT025 FEW030CB BKN200 27/25 Q1007@CAELT@A2974 979.9 HR85 CB/NW AC=@CAELT@
ZPX0676 241955@CAELT@GG SLZZYMYT@CAELT@241955 SLSBYSYX@CAELT@SABO SLSB 242000@CAELT@METAR SLSB 242000Z 02006KT 9999 NSC 38/23 Q1005 A2969 HR43 RWY NML=@CAELT@
ZPX0677 241955@CAELT@GG SLZZYMYT@CAELT@241955 SLVRYGYZ@CAELT@SABO SLVR 242000@CAELT@METAR SLVR 242000Z 35012G22KT 9999 SCT017 37/22 Q1005 A2970 HR40@CAELT@NOSIG=@CAELT@
ZPX0678 241955@CAELT@GG SLZZYMYT@CAELT@241955 SLRQYSYX@CAELT@SABO SLRQ 242000@CAELT@METAR SLRQ 242000Z 36004KT 9999 FEW017 39/24 Q1004 A2966 HR41 FU CI=@CAELT@
ZPX0679 241956@CAELT@GG SLZZYMYT@CAELT@241952 SLETYMYC@CAELT@SABO SLET 242000@CAELT@METAR SLET 242000Z 33014G25KT 9999 FEW023 36/20 Q1005 A2970 HR40 FU@CAELT@CI NOSIG=@CAELT@
ZPX0681 241956@CAELT@GG SLZZYMYT@CAELT@241955 SLTRYGYZ@CAELT@SABO SLTR 242000@CAELT@METAR SLTR 242000Z 33004KT 8000 FEW020 SCT200 38/23 Q1004 A2967 986.3@CAELT@HR40 FU NOSIG=@CAELT@
ZPX0682 241957@CAELT@GG SLZZYMYT@CAELT@241957 SLVRYFYC@CAELT@SABO SLVR 2420000@CAELT@METAR SLVR 242000Z 35012G22KT 9999 SCT017 37/22 Q1005 A2970 HR40@CAELT@NOSIG=@CAELT@METAR SLET 242000Z 33014G25KT 9999 FEW023 36/20 Q1005 A2970 HR40 FU@CAELT@CI NOSIG=@CAELT@METAR SLAS 242000Z 36012KT 9999 NSC 30/19 Q1007 A2974 HR30 FU RWY NMLMETAR SLJV 242000Z 36010KT 9999 NSC 36/20 Q1008 A2977 HR38 RWY NML=METAR SLCP 242000Z 00000KT 8000 FEW020 35/21 Q1010 A2983 HR44 FU RWYNML=METAR SLSI 242000Z 36005KT 9999 SCT020 36/21 Q1006 A2964 HR43 RWY NMLMETAR SLTI 242000Z 36006KT 9999 NSC 38/22 Q1010 A2983 HR40 RWY NML=METAR SLJE 242000Z 36010KT 9999 SCT020 41/20 Q1009 A2980 HR30 RWY NMLMETAR SLVG 242000Z 35007KT 9999 NSC 26/13 Q1021 A3015 HR43 CI RWY NMLMETAR SLRB 242000Z 36015KT 9999 FEW020 38/20 Q1009 A2980 HR35 RWY NMLMETAR SLPS 242000Z 09010KT 9999 FEW020 39/25 Q1007 A2974 HR45=METAR SLCA 242000Z 36006KT 9999 BKN070 37/11 Q1007 A2974 HR22 RWY NML
ZPX0683 241957@CAELT@GG SLZZYMYT@CAELT@241955 SLLPYGYZ@CAELT@SABO SLLP 242000@CAELT@METAR SLLP 242000Z 06013KT 010V120 9999 FEW023 SCT200 21/M11 Q1035@CAELT@A3058 626.4 HR11 P93// NOSIG=@CAELT@
ZPX0684 241958@CAELT@GG SLZZYMYT@CAELT@241957 SLCBYGYZ@CAELT@SABO SLCB 242000@CAELT@METAR SLCB 242000Z 05008KT 020V080 9999 FEW036 FEW040CB BKN200@CAELT@33/01 Q1018 A3007 746.1 HR13 CB/NW AC FU NOSIG=@CAELT@
ZPX0685 241958@CAELT@GG SLZZYMYT@CAELT@241957 SLTJYGYZ@CAELT@SABO SLTJ 242000@CAELT@METAR SLTJ 242000Z 12008KT 9999 FEW040 BKN200 30/13 Q1013 A2993 809.4@CAELT@HR34 FU=@CAELT@
ZPX0688 242000@CAELT@GG SLZZYMYT@CAELT@242000 SLCBYGYS@CAELT@SABO SLCB 242000@CAELT@METAR SLCB 242000Z 05008KT 020V080 9999 FEW036 FEW040CB BKN200@CAELT@33/01 Q1018 A3007 746.1 HR13 CB/NW AC FU NOSIG=@CAELT@METAR SLAL 242000Z 35012KT 9999 FEW023 FEW033CB BKN200 25/05 Q1026@CAELT@A3030 701.6 HR28 CB SW/W=@CAELT@METAR SLPO 242000Z NIL=METAR SLAG 242000Z NIL=METAR SLVM 242000Z NIL=METAR SLTJ 242000Z 12008KT 9999 FEW040 BKN200 30/13 Q1013 A2993 809.4HR34 FU=METAR SLYA 242000Z NIL=METAR SLBJ 242000Z NIL=METAR SLHI 242000Z NIL=
ZPX0690 242001@CAELT@GG SLZZYMYT@CAELT@242000 SLTRYGYS@CAELT@SABO SLTR 242000@CAELT@METAR SLTR 242000Z 33004KT 8000 FEW020 SCT200 38/23 Q1004 A2967 986.3@CAELT@HR40 FU NOSIG=@CAELT@METAR SLGM 242000Z 05004KT 9999 SCT017 BKN200 36/24 Q1006 A2971 HR50=@CAELT@METAR SLRI 242000Z 08010KT 8000 FEW020 FEW023CB BKN200 36/22 Q1006@CAELT@A2972 HR43 CB DIST SE/W FU=METAR SLJO 242000Z NIL=METAR SLRA 242000Z 09006KT 8000 FEW023 SCT200 39/22 Q1005 A2969 HR37FU RWY NML=METAR SLMG 242000Z 32004KT 9999 SCT017 38/23 Q1006 A2973 HR43 CIRWY NML=METAR SLBU 242000Z 36008KT 9999 SCT017 40/23 Q1005 A2968 HR36METAR SLSA 242000Z 00000KT 8000 SCT017 FEW023CB BKN200 37/24 Q1005A2969 HR47 FU CB N/NE=METAR SLSR 242000Z 32006KT 7000 FEW017 FEW023CB BKN200 38/24 Q1004A2966 HR45 FU CB N RWY NML=METAR SLSM 242000Z 33003KT 9999 FEW017 37/23 Q1004 A2966 HR44
ZPX0693 242003@CAELT@GG SLZZYMYT@CAELT@242000 SLLPYFYA@CAELT@SABO SLLP 242000@CAELT@METAR SLLP 242000Z 06013KT 010V120 9999 FEW023 SCT200 21/M11 Q1035@CAELT@A3058 626.4 HR11 P93// NOSIG=@CAELT@METAR SLCO 242000Z 35008KT 9999 SCT025 FEW030CB BKN200 27/25 Q1007@CAELT@A2974 979.9 HR85 CB/NW AC=@CAELT@METAR SLRY 242000Z 36005KT 9999 FEW020 SCT200 38/23 Q1005A2969 HR42 FU RWY NML=METAR SLRQ 242000Z 36004KT 9999 FEW017 39/24 Q1004 A2966 HR41 FU CI=METAR SLSB 242000Z 02006KT 9999 NSC 38/23 Q1005 A2969 HR43 RWY NML=
ZPX0727 242053@CAELT@GG SLZZYMYT@CAELT@242052 SLPSYGYS@CAELT@SABO SLPS 242100@CAELT@METAR SLPS 242100Z 09012KT 9999 FEW020 39/25 Q1007 A2974 HR46=@CAELT@
ZPX0728 242055@CAELT@GG SLZZYMYT@CAELT@242054 SLCAYGYS@CAELT@SABO SLCA 242100@CAELT@METAR SLCA 242100Z 09006KT 9999 BKN070 36/12 Q1007 A2974 HR25 FU RWY@CAELT@NML=@CAELT@
ZPX0729 242055@CAELT@GG SLZZYMYT@CAELT@242056 SLVRYGYZ@CAELT@SABO SLVR 242100@CAELT@METAR SLVR 242100Z 35010KT 9999 FEW017 SCT200 35/22 Q1005 A2970 HR46@CAELT@NOSIG=@CAELT@
ZPX0730 242055@CAELT@GG SLZZYMYT@CAELT@242055 SLRQYSYX@CAELT@SABO SLRQ 242100@CAELT@METAR SLRQ 242100Z 36004KT 9999 FEW017 SCT200 39/24 Q1004 A2965 HR41@CAELT@
ZPX0731 242056@CAELT@GG SLZZYMYT@CAELT@242043 SLETYMYC@CAELT@SABO SLET 242100@CAELT@METAR SLET 242100Z 32013G23KT 9999 FEW023 SCT200 35/20 Q1005 A2969@CAELT@HR42 FU NOSIG=@CAELT@
ZPX0732 242057@CAELT@GG SLZZYMYT@CAELT@242056 SLSAYGYS@CAELT@SABO SLSA 242100@CAELT@METAR SLSA 242100Z 03015G25KT 8000 VCSH SCT017 FEW023CB BKN200 37/24@CAELT@Q1005 A2969 HR46 FU CB/SH N/NE/E=@CAELT@
ZPX0733 242057@CAELT@GG SLZZYMYT@CAELT@242057 SLCOYSYX@CAELT@SABO SLCO 242100@CAELT@METAR SLCO 242100Z 32005KT 9999 FEW025 SCT080 BKN200 28/25 Q1006@CAELT@A2971 978.7 HR85=@CAELT@
ZPX0735 242057@CAELT@GG SLZZYMYT@CAELT@242057 SLSBYSYX@CAELT@SABO SLSB 242100@CAELT@METAR SLSB 242100Z 03004KT 9999 NSC 37/23 Q1004 A2965 HR44 RWY NML=@CAELT@
ZPX0737 242058@CAELT@GG SLZZYMYT@CAELT@242056 SLTRYGYZ@CAELT@SABO SLTR 242100@CAELT@METAR SLTR 242100Z 33004KT 8000 FEW020 SCT200 38/23 Q1004 A2966@CAELT@985.9 HR43 FU NOSIG=@CAELT@
ZPX0738 242058@CAELT@GG SLZZYMYT@CAELT@242058 SLRBYGYS@CAELT@SABO SLRB 242100@CAELT@METAR SLRB 242100Z 36010KT 9999 NSC 37/20 Q1009 A2980 HR38 RWY NML=@CAELT@
ZPX0739 242058@CAELT@GG SLZZYMYT@CAELT@242055 SLLPYGYZ@CAELT@SABO SLLP 242100@CAELT@METAR SLLP 242100Z 04014KT 010V120 9999 FEW023 FEW025CB SCT200@CAELT@19/M06 Q1035 A3058 626.4 HR18 P3483 CB/SE/NW AC NOSIG=@CAELT@
ZPX0740 242059@CAELT@GG SLZZYMYT@CAELT@242058 SLTJYGYZ@CAELT@SABO SLTJ 242100@CAELT@METAR SLTJ 242100Z 13005KT 9999 FEW040 FEW043CB BKN100 BKN200 29/12@CAELT@Q1014 A2995 810.1 HR35 CB SW/W FU=@CAELT@
ZPX0741 242059@CAELT@GG SLZZYMYT@CAELT@242058 SLTRYGYS@CAELT@SABO SLTR 242100@CAELT@METAR SLTR 242100Z 33004KT 8000 FEW020 SCT200 38/23 Q1004 A2966@CAELT@985.9 HR43 FU NOSIG=@CAELT@METAR SLGM 242100Z 00000KT 9999 SCT017 FEW020CB BKN200 36/24 Q1006@CAELT@A2971 HR52 CB S=@CAELT@METAR SLRI 242100Z 08008KT 8000 FEW020 FEW023CB BKN200 36/22 Q1006A2971 HR45 CB DIST SE FU=METAR SLJO 242100Z NIL=METAR SLRA 242100Z 06006KT 8000 FEW023 SCT200 38/21 Q1005 A2969 HR37FU RWY NML=METAR SLMG 242100Z 00000KT 9999 SCT017 38/22 Q1006 A2972 HR42 CIRWY NML=METAR SLBU 242100Z 36006KT 9999 FEW017 40/24 Q1004 A2966 HR40METAR SLSA 242100Z 03015G25KT 8000 VCSH SCT017 FEW023CB BKN200 37/24Q1005 A2969 HR46 FU CB/SH N/NE/E=METAR SLSR 242100Z 32006KT 7000 FEW017 FEW023CB BKN200 37/23 Q1003A2963 HR44 FU CB NE RWY NML=METAR SLSM 242100Z 35003KT 9999 NSC 36/24 Q1003 A2964 HR50 FU
ZPX0742 242059@CAELT@GG SLZZYMYT@CAELT@242059 SLVRYFYC@CAELT@SABO SLVR 242100@CAELT@METAR SLVR 242100Z 35010KT 9999 FEW017 SCT200 35/22 Q1005 A2970 HR46@CAELT@NOSIG=@CAELT@METAR SLET 242100Z 32013G23KT 9999 FEW023 SCT200 35/20 Q1005 A2969@CAELT@HR42 FU NOSIG=@CAELT@METAR SLAS 242100Z 36010KT 9999 NSC 39/19 Q1007 A2974 HR32 FU RWY NMLMETAR SLJV 242100Z 36010KT 9999 NSC 36/21 Q1006 A2971 HR44 RWY NML=METAR SLCP 242100Z 00000KT 8000 NSC 34/22 Q1010 A2983 HR47 FU RWY NMLMETAR SLSI 242100Z 36005KT 9999 NSC 36/21 Q1006 A2971 HR40 RWY NML=METAR SLTI 242100Z 36006KT 9999 NSC 38/21 Q1009 A2980 HR39 RWY NML=METAR SLJE 242100Z 36010KT 9999 FEW020 40/20 Q1009 A2980 HR31 RWY NMLMETAR SLVG 242100Z 36005KT 9999 NSC 24/13 Q1021 A3015 HR46 CI RWY NMLMETAR SLRB 242100Z 36010KT 9999 NSC 37/20 Q1009 A2980 HR38 RWY NML=METAR SLPS 242100Z 09012KT 9999 FEW020 39/25 Q1007 A2974 HR46=METAR SLCA 242100Z 09006KT 9999 BKN070 36/12 Q1007 A2974 HR22 FU RWYNML=
ZPX0744 242101@CAELT@GG SLZZYMYT@CAELT@242100 SLLPYFYA@CAELT@SABO SLLP 242100@CAELT@METAR SLLP 242100Z 04014KT 010V120 9999 FEW023 FEW025CB SCT200@CAELT@19/M06 Q1035 A3058 626.4 HR18 P3483 CB/SE/NW AC NOSIG=@CAELT@METAR SLCO 242100Z 32005KT 9999 FEW025 SCT080 BKN200 28/25 Q1006@CAELT@A2971 978.7 HR85=@CAELT@METAR SLRY 242100Z 26005KT 9999 FEW020 SCT200 38/23 Q1004 A2967HR41 FU RWY NML=METAR SLRQ 242100Z 36004KT 9999 FEW017 SCT200 39/24 Q1004 A2965 HR41METAR SLSB 242100Z 03004KT 9999 NSC 37/23 Q1004 A2965 HR44 RWY NML=
ZPX0746 242104@CAELT@GG SLZZYMYT@CAELT@242057 SLCBYGYZ@CAELT@SABO SLCB 241400@CAELT@METAR SLCB 241400Z 25004KT 9999 FEW036 SCT200 26/08 Q1025 A3030 752.1@CAELT@HR32 FU NOSIG=@CAELT@
ZPX0747 242104@CAELT@GG SLZZYMYT@CAELT@242057 SLCBYGYZ@CAELT@SABO SLCB 242100@CAELT@METAR SLCB 242100Z 07012KT 9999 FEW036 SCT070 BKN200 30/03 Q1018@CAELT@A3007 746.2 HR18 FU NOSIG=@CAELT@
ZPX0748 242104@CAELT@GG SLZZYMYT@CAELT@242104 SLCBYGYS@CAELT@SABO SLCB 241400@CAELT@METAR SLCB 241400Z 25004KT 9999 FEW036 SCT200 26/08 Q1025 A3030 752.1@CAELT@HR32 FU NOSIG=@CAELT@METAR SLAL 242100Z 04011KT 9999 FEW023 FEW033CB BKN200 23/05 Q1026@CAELT@A3031 701.7 HR30 CB S/SW/W=@CAELT@METAR SLPO 242100Z NIL=METAR SLAG 242100Z NIL=METAR SLVM 242100Z NIL=METAR SLTJ 242100Z 13005KT 9999 FEW040 FEW043CB BKN100 BKN200 29/12Q1014 A2995 810.1 HR35 CB SW/W FU=METAR SLYA 242100Z NIL=METAR SLBJ 242100Z NIL=METAR SLHI 242100Z NIL=
ZPX0749 242108@CAELT@GG SLZZYMYT@CAELT@242107 SLCBYGYS@CAELT@SABO SLCB 242100 CCA@CAELT@METAR COR SLCB 242100Z 07012KT 9999 FEW036 SCT070 BKN200 30/03 Q1018@CAELT@A3007 746.2 HR18 FU NOSIG=@CAELT@METAR SLAL 242100Z 04011KT 9999 FEW023 FEW033CB BKN200 23/05 Q1026@CAELT@A3031 701.7 HR30 CB S/SW/W=@CAELT@METAR SLPO 242100Z NIL=METAR SLAG 242100Z NIL=METAR SLVM 242100Z NIL=METAR SLTJ 242100Z 13005KT 9999 FEW040 FEW043CB BKN100 BKN200 29/12Q1014 A2995 810.1 HR35 CB SW/W FU=METAR SLYA 242100Z NIL=METAR SLBJ 242100Z NIL=METAR SLHI 242100Z NIL=
ZPX0761 242152@CAELT@GG SLZZYMYT@CAELT@242152 SLPSYGYS@CAELT@SABO SLPS 242200@CAELT@METAR SLPS 242200Z 09006KT 9999 NSC 38/25 Q1007 A2974 HR49=@CAELT@
ZPX0762 242152@CAELT@GG SLZZYMYT@CAELT@242153 SLETYMYC@CAELT@SABO SLET 242200@CAELT@METAR SLET 242200Z 31012KT 9999 FEW020 BKN200 34/20 Q1005 A2970 HR44@CAELT@NOSIG=@CAELT@
ZPX0763 242153@CAELT@GG SLZZYMYT@CAELT@242152 SLRBYGYS@CAELT@SABO SLRB 242200@CAELT@METAR SLRB 242200Z 36006KT 9999 NSC 36/21 Q1009 A2980 HR42 RWY NML=@CAELT@
ZPX0764 242154@CAELT@GG SLZZYMYT@CAELT@242154 SLCAYGYS@CAELT@SABO SLCA 242200@CAELT@METAR SLCA 242200Z 09004KT 9999 BKN070 34/13 Q1007 A2974 HR28 FU RWY@CAELT@NML=@CAELT@
ZPX0765 242154@CAELT@GG SLZZYMYT@CAELT@242155 SLRQYSYX@CAELT@SABO SLRQ 242200@CAELT@METAR SLRQ 242200Z 00000KT 9999 NSC 36/25 Q1004 A2965 HR51 FU CI=@CAELT@
ZPX0766 242155@CAELT@GG SLZZYMYT@CAELT@242155 SLVRYGYZ@CAELT@SABO SLVR 242200@CAELT@METAR SLVR 242200Z 32006KT 9999 NSC 34/22 Q1005 A2970 HR49 CI NOSIG=@CAELT@
ZPX0767 242155@CAELT@GG SLZZYMYT@CAELT@242155 SLCBYGYZ@CAELT@SABO SLCB 242200@CAELT@METAR SLCB 242200Z 07007KT 9999 FEW036 SCT070 BKN200 29/04 Q1018@CAELT@A3008 746.4 HR20 FU NOSIG=@CAELT@
ZPX0768 242155@CAELT@GG SLZZYMYT@CAELT@242155 SLTRYGYZ@CAELT@SABO SLTR 242200@CAELT@METAR SLTR 242200Z 00000KT 8000 FEW020 SCT200 36/23 Q1004 A2966 986.1@CAELT@HR46 FU NOSIG=@CAELT@
ZPX0769 242155@CAELT@GG SLZZYMYT@CAELT@242155 SLCOYSYX@CAELT@SABO SLCO 242200@CAELT@METAR SLCO 242200Z 00000KT 9999 FEW025 BKN200 28/25 Q1006 A2971 978.7@CAELT@HR84=@CAELT@
ZPX0770 242155@CAELT@GG SLZZYMYT@CAELT@242155 SLSBYSYX@CAELT@SABO SLSB 242200@CAELT@METAR SLSB 242200Z 03005KT 9999 NSC 36/23 Q1003 A2964 HR48 RWY NML=@CAELT@
ZPX0772 242156@CAELT@GG SLZZYMYT@CAELT@242155 SLLPYGYZ@CAELT@SABO SLLP 242200@CAELT@METAR SLLP 242200Z 05014KT 9999 FEW020 FEW023CB SCT200 15/M04 Q1036@CAELT@A3060 626.7 HR26 P3380 CB/SW/W AC NOSIG=@CAELT@
ZPX0773 242156@CAELT@GG SLZZYMYT@CAELT@242156 SLVRYFYC@CAELT@SABO SLVR 242200@CAELT@METAR SLVR 242200Z 32006KT 9999 NSC 34/22 Q1005 A2970 HR49 CI NOSIG=@CAELT@METAR SLET 242200Z 31012KT 9999 FEW020 BKN200 34/20 Q1005 A2970 HR44@CAELT@NOSIG=@CAELT@METAR SLAS 242200Z 36006KT 9999 NSC 36/20 Q1007 A2974 HR38 FU RWY NML@CAELT@METAR SLJV 242200Z 00000KT 9999 NSC 36/21 Q1006 A2971 HR44 RWY NML=METAR SLCP 242200Z 00000KT 8000 NSC 34/23 Q1010 A2983 HR54 FU RWY NMLMETAR SLSI 242200Z 00000KT 9999 NSC 35/21 Q1006 A2971 HR44 RWY NML=METAR SLTI 242200Z 02005KT 9999 NSC 36/22 Q1009 A2980 HR45 RWY NML=METAR SLJE 242200Z 36008KT 9999 NSC 39/20 Q1009 A2980 HR33 RWY NML=METAR SLRB 242200Z 36006KT 9999 NSC 36/21 Q1009 A2980 HR42 RWY NML=METAR SLPS 242200Z 09006KT 9999 NSC 38/25 Q1007 A2974 HR49=METAR SLCA 242200Z 09004KT 9999 BKN070 34/13 Q1007 A2974 HR28 FU RWYNML=
ZPX0775 242157@CAELT@GG SLZZYMYT@CAELT@242157 SLSAYGYS@CAELT@SABO SLSA 242200@CAELT@METAR SLSA 242200Z 03010KT 8000 SCT017 FEW023CB BKN200 35/23 Q1005@CAELT@A2968 HR49 FU CB E/SE=@CAELT@
ZPX0776 242157@CAELT@GG SLZZYMYT@CAELT@242157 SLTJYGYZ@CAELT@SABO SLTJ 242200@CAELT@METAR SLTJ 242200Z 13007KT 9999 FEW040 FEW043CB BKN100 BKN200 28/12@CAELT@Q1014 A2995 810.2 HR37 CB W FU=@CAELT@
ZPX0777 242159@CAELT@GG SLZZYMYT@CAELT@242158 SLTRYGYS@CAELT@SABO SLTR 242200@CAELT@METAR SLTR 242200Z 00000KT 8000 FEW020 SCT200 36/23 Q1004 A2966 986.1@CAELT@HR46 FU NOSIG=@CAELT@METAR SLGM 242200Z 00000KT 8000 VCSH SCT017 FEW020CB BKN200 35/24@CAELT@Q1006 A2971 HR54 CB/SH S=@CAELT@METAR SLRI 242200Z 09005KT 8000 FEW020 FEW023CB BKN200 35/22 Q1006A2972 HR48 CB DIST SE FU=METAR SLJO 242200Z NIL=METAR SLRA 242200Z 09003KT 8000 FEW023 FEW025CB BKN200 37/22 Q1004A2968 HR42 FU CB DIST E RWY NML=METAR SLMG 242200Z 00000KT 9999 SCT017 36/23 Q1006 A2972 HR48 CIRWY NML=METAR SLBU 242200Z NIL=METAR SLSA 242200Z 03010KT 8000 SCT017 FEW023CB BKN200 35/23 Q1005A2968 HR49 FU CB E/SE=METAR SLSR 242200Z 32006KT 7000 FEW017 FEW023CB BKN200 36/23 Q1002A2962 HR48 FU CB NE RWY NML=METAR SLSM 242200Z 00000KT 9999 NSC 35/25 Q1003 A2965 HR55 FU
ZPX0778 242159@CAELT@GG SLZZYMYT@CAELT@242159 SLCBYGYS@CAELT@SABO SLCB 242200@CAELT@METAR SLCB 242200Z 07007KT 9999 FEW036 SCT070 BKN200 29/04 Q1018@CAELT@A3008 746.4 HR20 FU NOSIG=@CAELT@METAR SLAL 242200Z 04014KT 9999 FEW023 FEW033CB BKN200 21/04 Q1027@CAELT@A3033 702.2 HR33 CB S/W=@CAELT@METAR SLTJ 242200Z 13007KT 9999 FEW040 FEW043CB BKN100 BKN200 28/12Q1014 A2995 810.2 HR37 CB W FU=
ZPX0780 242201@CAELT@GG SLZZYMYT@CAELT@242201 SLLPYFYA@CAELT@SABO SLLP 242200@CAELT@METAR SLLP 242200Z 05014KT 9999 FEW020 FEW023CB SCT200 15/M04 Q1036@CAELT@A3060 626.7 HR26 P3380 CB/SW/W AC NOSIG=@CAELT@METAR SLCO 242200Z 00000KT 9999 FEW025 BKN200 28/25 Q1006 A2971 978.7@CAELT@HR84=@CAELT@METAR SLRY 242200Z 00000KT 9999 NSC 37/24 Q1004 A2967FU CI RWY NML=METAR SLRQ 242200Z 00000KT 9999 NSC 36/25 Q1004 A2965 HR51 FU CI=METAR SLSB 242200Z 03005KT 9999 NSC 36/23 Q1003 A2964 HR48 RWY NML=
ZPX0798 242250@CAELT@GG SLZZYMYT@CAELT@242250 SLCAYGYS@CAELT@SABO SLCA 242300@CAELT@METAR SLCA 242300Z 09004KT 9999 BKN070 33/14 Q1008 A2977 HR32 FU RWY@CAELT@NML=@CAELT@
ZPX0803 242255@CAELT@GG SLZZYMYT@CAELT@242255 SLTJYGYZ@CAELT@SABO SLTJ 242300@CAELT@METAR SLTJ 242300Z 16007KT 9999 FEW040 FEW043CB BKN100 BKN200 27/11@CAELT@Q1015 A3000 811.4 HR38 CB W FU=@CAELT@
ZPX0804 242256@CAELT@GG SLLPZRZX@CAELT@242255 SLLPYGYZ@CAELT@SABO SLLP 242300@CAELT@METAR SLLP 242300Z 06006KT 9999 FEW017 FEW020CB SCT200 13/M07 Q1036@CAELT@A3062 627.2 HR25 CB/SW AC NOSIG=@CAELT@
ZPX0805 242256@CAELT@GG SLZZYMYT@CAELT@242256 SLVRYGYZ@CAELT@SABO SLVR 242300@CAELT@METAR SLVR 242300Z 34004KT 9999 NSC 31/21 Q1006 A2973 HR56 CI NOSIG=@CAELT@
ZPX0806 242256@CAELT@GG SLZZYMYT@CAELT@242256 SLCOYSYX@CAELT@SABO SLCO 242300@CAELT@METAR SLCO 242300Z 03003KT 9999 FEW025 BKN200 27/25 Q1006 A2972 979.1@CAELT@HR89=@CAELT@
ZPX0807 242257@CAELT@GG SLZZYMYT@CAELT@242255 SLTRYGYZ@CAELT@SABO SLTR 242300@CAELT@METAR SLTR 242300Z 00000KT 8000 NSC 34/23 Q1005 A2968 986.8 HR54 CI/@CAELT@FU NOSIG=@CAELT@
ZPX0808 242258@CAELT@GG SLZZYMYT@CAELT@242257 SLRBYGYS@CAELT@SABO SLRB 242300@CAELT@METAR SLRB 242300Z 00000KT 9999 NSC 32/22 Q1009 A2980 HR56 RWY NML=@CAELT@
ZPX0809 242258@CAELT@GG SLZZYMYT@CAELT@242257 SLCBYGYZ@CAELT@SABO SLCB 242300@CAELT@METAR SLCB 242300Z 11006KT 9999 FEW033 FEW036CB BKN200 26/05 Q1020@CAELT@A3012 747.6 HR26 CB DIST/SE/S/SW AC FU NOSIG=@CAELT@
ZPX0810 242258@CAELT@GG SLZZYMYT@CAELT@242258 SLCBYGYS@CAELT@SABO SLCB 242300@CAELT@METAR SLCB 242300Z 11006KT 9999 FEW033 FEW036CB BKN200 26/05 Q1020@CAELT@A3012 747.6 HR26 CB DIST/SE/S/SW AC FU NOSIG=@CAELT@METAR SLAL 242300Z 04010KT 9999 FEW023 FEW033CB BKN200 20/06 Q1028@CAELT@A3036 702.9 HR39 CB S/W=@CAELT@METAR SLTJ 242300Z 16007KT 9999 FEW040 FEW043CB BKN100 BKN200 27/11Q1015 A3000 811.4 HR38 CB W FU=
ZPX0811 242259@CAELT@GG SLZZYMYT@CAELT@242258 SLTRYGYS@CAELT@SABO SLTR 242300@CAELT@METAR SLTR 242300Z 00000KT 8000 NSC 34/23 Q1005 A2968 986.8 HR54@CAELT@CI FU NOSIG=@CAELT@METAR SLGM 242300Z NIL=@CAELT@METAR SLRI 242300Z 10005KT 8000 FEW020 FEW023CB BKN200 33/24 Q1007@CAELT@A2974 HR57 CB DIST SE FU=METAR SLMG 242300Z 03004KT 9999 FEW017 SCT200 32/23 Q1006 A2973 HR59RWY NML=METAR SLSA 242300Z 00000KT 8000 FEW017 FEW023CB BKN200 30/23 Q1005A2968 HR66 FU CB E=
ZPX0813 242301@CAELT@GG SLZZYMYT@CAELT@242300 SLLPYFYA@CAELT@SABO SLLP 242300@CAELT@METAR SLLP 242300Z 06006KT 9999 FEW017 FEW020CB SCT200 13/M07 Q1036@CAELT@A3062 627.2 HR25 CB/SW AC NOSIG=@CAELT@METAR SLCO 242300Z 03003KT 9999 FEW025 BKN200 27/25 Q1006 A2972 979.1@CAELT@HR89=@CAELT@METAR SLSB 242300Z 00000KT 9999 NSC 32/25 Q1005 A2969 HR64 RWY NML=
ZPX0814 242302@CAELT@GG SLZZYMYT@CAELT@242302 SLVRYFYC@CAELT@SABO SLVR 242300@CAELT@METAR SLVR 242300Z 34004KT 9999 NSC 31/21 Q1006 A2973 HR56 CI NOSIG=@CAELT@METAR SLSI 242300Z 00000KT 9999 NSC 33/22 Q1006 A2971 HR52 RWY NML=@CAELT@METAR SLRB 242300Z 00000KT 9999 NSC 32/22 Q1009 A2980 HR56 RWY NML=@CAELT@METAR SLCA 242300Z 09004KT 9999 BKN070 33/14 Q1008 A2977 HR32 FU RWY@CAELT@NML=
ZPX0831 242354@CAELT@GG SLZZYMYT@CAELT@242355 SLVRYGYZ@CAELT@SABO SLVR 250000@CAELT@METAR SLVR 250000Z 34005KT 9999 NSC 30/22 Q1007 A2974 HR60 CI NOSIG=@CAELT@
ZPX0832 242356@CAELT@GG SLZZYMYT@CAELT@242355 SLTJYGYZ@CAELT@SABO SLTJ 250000@CAELT@METAR SLTJ 250000Z 22004KT 9999 FEW040 FEW043CB BKN100 BKN200 27/11@CAELT@Q1016 A3002 812.0 HR38 CB LT SW FU=@CAELT@
ZPX0834 242356@CAELT@GG SLLPZRZX@CAELT@242356 SLLPYGYZ@CAELT@SABO SLLP 250000@CAELT@METAR SLLP 250000Z 06009KT 9999 FEW015 FEW017CB SCT200 11/M10 Q1037@CAELT@A3065 627.8 HR21 CB/LT/DIST SW AC NOSIG=@CAELT@
ZPX0836 242357@CAELT@GG SLZZYMYT@CAELT@242356 SLCBYGYZ@CAELT@SABO SLCB 250000@CAELT@METAR SLCB 250000Z 13005KT 9999 FEW033 BKN200 24/05 Q1021 A3017 748.8@CAELT@HR29 FU AC NOSIG=@CAELT@
