
ZPX0002 260001@CAELT@GG SLZZYMYT@CAELT@260000 SLCBYGYS@CAELT@SABO SLCB 260000@CAELT@METAR SLCB 260000Z 08015G25KT 8000 VCTSSH SCT033 FEW036CB BKN080 20/@CAELT@10 Q1019 A3012 747.4 HR53 CB SH/NE/E/SE TS/NE CI NOSIG=@CAELT@METAR SLAL 260000Z 07009KT 9999 FEW015 FEW030CB SCT200 13/11 Q1026@CAELT@A3032 702.1 HR90 CB/N/NE/SW AC=@CAELT@
ZPX0021 260056@CAELT@GG SLZZYMYT@CAELT@260057 SLVRYGYZ@CAELT@SABO SLVR 260100@CAELT@METAR SLVR 260100Z 10013G23KT 9999 BKN020 FEW027CB BKN070 26/21 Q1006@CAELT@A2972 HR73 CB LT NE E SE TEMPO 5000 -TSRA@CAELT@
ZPX0022 260058@CAELT@GG SLLPZRZX@CAELT@260058 SLLPYGYZ@CAELT@SABO SLLP 260100@CAELT@METAR SLLP 260100Z 13010KT 9999 SCT015 FEW017CB BKN070 10/05 Q1034@CAELT@A3056 625.8 HR70 CB/LT N/NE/S/SW/W/NW TEMPO -TSRA=@CAELT@
ZPX0023 260059@CAELT@GG SLZZYMYT@CAELT@260058 SLCBYGYZ@CAELT@SABO SLCB 260100@CAELT@METAR SLCB 260100Z 09010KT 9999 -RA SCT030 FEW033CB BKN070 OVC200 18/@CAELT@11 Q1021 A3016 748.5 HR59 CB LT/NE/E NOSIG=@CAELT@
ZPX0035 260157@CAELT@GG SLZZYMYT@CAELT@260157 SLVRYGYZ@CAELT@SABO SLVR 260200@CAELT@METAR SLVR 260200Z 22018KT 7000 -TSRA BKN023 FEW027CB OVC070 26/24@CAELT@Q1008 A2977 HR89 CB E NW W NOSIG=@CAELT@
ZPX0036 260158@CAELT@GG SLZZYMYT@CAELT@260157 SLCBYGYZ@CAELT@SABO SLCB 260200@CAELT@METAR SLCB 260200Z 03004KT 9999 SCT033 FEW036CB BKN070 OVC200 19/10@CAELT@Q1022 A3019 749.3 HR56 CB LT/DIST/NE RERA NOSIG=@CAELT@
ZPX0047 260256@CAELT@GG SLZZYMYT@CAELT@260257 SLVRYGYZ@CAELT@SABO SLVR 260300@CAELT@METAR SLVR 260300Z 21010KT 8000 -TSRA BKN023 OVC070CB OVC070 23/23@CAELT@Q1008 A2978 HR98 CB TS N NE E NW NOSIG=@CAELT@
ZPX0049 260258@CAELT@GG SLLPZRZX@CAELT@260258 SLLPYGYZ@CAELT@SABO SLLP 260300@CAELT@METAR SLLP 260300Z 17013KT 6000 -RA SCT015 FEW017CB BKN070 07/05@CAELT@Q1036 A3061 627.0 HR89 CB/N/NE/S/NW RETS NOSIG=@CAELT@
ZPX0051 260259@CAELT@GG SLZZYMYT@CAELT@260259 SLCBYGYZ@CAELT@SABO SLCB 260300@CAELT@METAR SLCB 260300Z 25006KT 9999 SCT033 FEW036CB BKN070 OVC200 18/10@CAELT@Q1023 A3022 750.0 HR60 CB LT/DIST/NE SH/NE NOSIG=@CAELT@
ZPX0052 260300@CAELT@GG SLZZYMYT@CAELT@260300 SLVRYGYZ@CAELT@SABO SLVR 260300CCA@CAELT@METAR COR SLVR 260300Z 21010KT 8000 -TSRA BKN023 FEW030CB OVC070 23/@CAELT@23 Q1008 A2978 HR98 CB TS N NE E NW NOSIG=@CAELT@
ZPX0060 260356@CAELT@GG SLZZYMYT@CAELT@260357 SLVRYGYZ@CAELT@SABO SLVR 260400@CAELT@METAR SLVR 260400Z 21013KT 7000 -RA BKN025 OVC070 24/23 Q1007 A2976@CAELT@HR98 NOSIG=@CAELT@
ZPX0061 260356@CAELT@GG SLLPZRZX@CAELT@260356 SLLPYGYZ@CAELT@SABO SLLP 260400@CAELT@METAR SLLP 260400Z 17010KT 8000 -RA FEW004 SCT012 FEW017CB BKN070 07/@CAELT@06 Q1036 A3061 627.0 HR93 CB/SE/S/NW NOSIG=@CAELT@
ZPX0062 260359@CAELT@GG SLZZYMYT@CAELT@260358 SLCBYGYZ@CAELT@SABO SLCB 260400@CAELT@METAR SLCB 260400Z 22007KT 9999 -RA SCT030 FEW033CB BKN070 OVC200 16/@CAELT@13 Q1023 A3022 750.0 HR80 CB LT/DIST/SW NOSIG=@CAELT@
ZPX0072 260457@CAELT@GG SLZZYMYT@CAELT@260458 SLVRYGYZ@CAELT@SABO SLVR 260500@CAELT@METAR SLVR 260500Z 21008KT 7000 -RA BKN025 OVC070 24/23 Q1007 A2976@CAELT@HR98 NOSIG=@CAELT@
ZPX0073 260500@CAELT@GG SLZZYMYT@CAELT@260459 SLCBYGYZ@CAELT@SABO SLCB 260500@CAELT@METAR SLCB 260500Z 23005KT 9999 SCT030 BKN070 OVC200 15/13 Q1022@CAELT@A3020 749.7 HR87 NOSIG=@CAELT@
ZPX0075 260500@CAELT@GG SLLPZRZX@CAELT@260500 SLLPYGYZ@CAELT@SABO SLLP 260500@CAELT@METAR SLLP 260500Z 12010KT 6000 -RA FEW004 SCT012 FEW017CB OVC070 06/@CAELT@05 Q1035 A3059 626.5 HR93 CB/NE/E NOSIG=@CAELT@
ZPX0082 260556@CAELT@GG SLZZYMYT@CAELT@260557 SLVRYGYZ@CAELT@SABO SLVR 260600@CAELT@METAR SLVR 260600Z 15003KT 8000 -RA BKN027 OVC070 24/23 Q1007 A2976@CAELT@HR98 NOSIG=@CAELT@
ZPX0083 260557@CAELT@GG SLZZYMYT@CAELT@260557 SLCBYGYZ@CAELT@SABO SLCB 260600@CAELT@METAR SLCB 260600Z 29008KT 9999 SCT030 BKN070 OVC200 15/13 Q1022@CAELT@A3018 749.1 HR90 NOSIG=@CAELT@
ZPX0084 260558@CAELT@GG SLLPZRZX@CAELT@260558 SLLPYGYZ@CAELT@SABO SLLP 260600@CAELT@METAR SLLP 260600Z 05005KT 6000 -RA FEW003 SCT012 OVC070 05/04 Q1035@CAELT@A3057 626.1 HR93 NOSIG=@CAELT@
ZPX0092 260656@CAELT@GG SLZZYMYT@CAELT@260655 SLCBYGYZ@CAELT@SABO SLCB 260700@CAELT@METAR SLCB 260700Z 10004KT 9999 SCT030 BKN070 OVC200 15/11 Q1021@CAELT@A3017 748.9 HR75 NOSIG=@CAELT@
ZPX0093 260657@CAELT@GG SLLPZRZX@CAELT@260656 SLLPYGYZ@CAELT@SABO SLLP 260700@CAELT@METAR SLLP 260700Z 09004KT 6000 -RA FEW003 SCT012 OVC070 05/05 Q1034@CAELT@A3055 625.7 HR98 NOSIG=@CAELT@
ZPX0094 260658@CAELT@GG SLZZYMYT@CAELT@260659 SLVRYGYZ@CAELT@SABO SLVR 260700@CAELT@METAR SLVR 260700Z 17005KT 9999 BKN025 FEW027CB OVC070 24/24 Q1007@CAELT@A2975 HR99 CB LT SW W NW TEMPO 8000 TSRA=@CAELT@
ZPX0102 260755@CAELT@GG SLZZYMYT@CAELT@260756 SLVRYGYZ@CAELT@SABO SLVR 260800@CAELT@METAR SLVR 260800Z 19013KT 9999 SCT020 FEW030CB OVC070 24/22 Q1007@CAELT@A2974 HR91 CB/LT W/NW NOSIG=@CAELT@
ZPX0103 260757@CAELT@GG SLLPZRZX@CAELT@260755 SLLPYGYZ@CAELT@SABO SLLP 260800@CAELT@METAR SLLP 260800Z 04004KT 360V070 6000 -RA FEW003 SCT012 OVC070 05/@CAELT@04 Q1034 A3053 625.4 HR93 NOSIG=@CAELT@
ZPX0104 260759@CAELT@GG SLZZYMYT@CAELT@260758 SLCBYGYZ@CAELT@SABO SLCB 260800@CAELT@METAR SLCB 260800Z 30004KT 9999 FEW015 SCT027 OVC070 15/13 Q1021@CAELT@A3017 748.7 HR89 NOSIG=@CAELT@
ZPX0107 260853@CAELT@GG SLZZYMYT@CAELT@260853 SLVRYGYZ@CAELT@SABO SLVR 260900@CAELT@METAR SLVR 260900Z 19012G22KT 9999 SCT020 FEW030CB OVC070 24/22 Q1007@CAELT@A2976 HR90 CB/LT W/NW NOSIG=@CAELT@
ZPX0108 260857@CAELT@GG SLZZYMYT@CAELT@260855 SLCBYGYZ@CAELT@SABO SLCB 260900@CAELT@METAR SLCB 260900Z 33005KT 9999 FEW015 SCT027 BKN070 15/13 Q1021@CAELT@A3017 748.7 HR88 FU CI NOSIG=@CAELT@
ZPX0109 260858@CAELT@GG SLLPZRZX@CAELT@260857 SLLPYGYZ@CAELT@SABO SLLP 260900@CAELT@METAR SLLP 260900Z 08003KT 6000 -RA FEW003 SCT012 OVC070 05/04 Q1034@CAELT@A3053 625.3 HR93 NOSIG=@CAELT@
ZPX0110 260858@CAELT@GG SLZZYMYT@CAELT@260858 SLTRYGYZ@CAELT@SABO SLTR 260900@CAELT@METAR SLTR 260900Z 00000KT 8000 TS VCSH SCT005 FEW020CB BKN200 25/24@CAELT@Q1004 A2965 985.6 HR95 CB/SH N/E/SE/S TS N TEMPO TSRA=@CAELT@
ZPX0111 260859@CAELT@GG SLZZYMYT@CAELT@260857 SLETYMYC@CAELT@SABO SLET 260900Z@CAELT@METAR SLET 260900Z 18015KT 9999 FEW010 SCT017 FEW030CB OVC070 23/22@CAELT@Q1008 A2977 HR92 CB NW/N NOSIG=@CAELT@
ZPX0120 260906@CAELT@GG SLZZYMYT@CAELT@260902 SLTRYGYS@CAELT@SABO SLTR 260900@CAELT@METAR SLTR 260900Z 00000KT 8000 TS VCSH SCT005 FEW020CB BKN200 25/24@CAELT@Q1004 A2965 985.6 HR95 CB/SH N/E/SE/S TS N TEMPO TSRA=@CAELT@METAR SLRI 260900Z 00000KT 2000 RA BKN004 FEW020CB OVC070 23/23@CAELT@Q1010 A2983 HR98 CB N/NE=@CAELT@
ZPX0130 260952@CAELT@GG SLZZYMYT@CAELT@260952 SLCAYGYS@CAELT@SABO SLCA 261000@CAELT@METAR SLCA 261000Z 00000KT 8000 -RA BKN010 OVC070 21/20 Q1016 A3000@CAELT@HR94 RWY WET INOP=@CAELT@
ZPX0132 260954@CAELT@GG SLZZYMYT@CAELT@260953 SLSAYGYS@CAELT@SABO SLSA 261000@CAELT@METAR SLSA 261000Z 00000KT 9999 FEW020 SCT070 BKN200 25/25@CAELT@Q1004 A2965 HR97=@CAELT@
ZPX0133 260954@CAELT@GG SLZZYMYT@CAELT@260954 SLSBYSYX@CAELT@SABO SLSB 261000@CAELT@METAR SLSB 261000Z 00000KT 9999 SCT080 OVC200 25/24 Q1004 A2967 HR96@CAELT@RWY NML=@CAELT@
ZPX0134 260955@CAELT@GG SLLPZRZX@CAELT@260955 SLLPYGYZ@CAELT@SABO SLLP 261000@CAELT@METAR SLLP 261000Z VRB02KT 6000 -RA FEW003 SCT012 OVC070 05/04 Q1034@CAELT@A3054 625.4 HR91 P92// NOSIG=@CAELT@
ZPX0135 260955@CAELT@GG SLZZYMYT@CAELT@260953 SLETYMYC@CAELT@SABO SLET 261000@CAELT@METAR SLET 261000Z 19006KT 9999 FEW015 BKN020 FEW030CB BKN070 24/22@CAELT@Q1008 A2979 HR89 CB W/NW NOSIG=@CAELT@
ZPX0136 260956@CAELT@GG SLZZYMYT@CAELT@260956 SLVRYGYZ@CAELT@SABO SLVR 261000@CAELT@METAR SLVR 261000Z 20008KT 9999 SCT020 FEW030CB OVC070 24/22 Q1008@CAELT@A2978 HR88 CB W/NW NOSIG=@CAELT@
ZPX0137 260956@CAELT@GG SLZZYMYT@CAELT@260954 SLRBYGYS@CAELT@SABO SLRB 261000@CAELT@METAR SLRB 261000Z 00000KT 9999 NSC 22/22 Q1011 A2985 HR100 RWY NML=@CAELT@
ZPX0138 260956@CAELT@GG SLZZYMYT@CAELT@260956 SLTRYGYZ@CAELT@SABO SLTR 261000@CAELT@METAR SLTR 261000Z 17008KT 1000 +TSRA BKN003 SCT020CB BKN200 25/24@CAELT@Q1005 A2968 986.6 HR97 CB ON STN/N/E/SE/S/SW TS N/S/SW TEMPO 0500=@CAELT@
ZPX0139 260957@CAELT@GG SLZZYMYT@CAELT@260958 SLVRYFYC@CAELT@SABO SLVR 261000@CAELT@METAR SLVR 261000Z 20008KT 9999 SCT020 FEW030CB OVC070 24/22 Q1008@CAELT@A2978 HR88 CB W/NW NOSIG=@CAELT@METAR SLET 261000Z 19006KT 9999 FEW015 BKN020 FEW030CB BKN070 24/22@CAELT@Q1008 A2979 HR89 CB W/NW NOSIG=@CAELT@METAR SLCP 261000Z 00000KT 9999 OVC012 23/22 Q1009 A2980 HR92 RWY HUMOPR=METAR SLSI 261000Z 00000KT 9999 SCT070 23/22 Q1006 A2971 HR92 RWY NMLMETAR SLRB 261000Z 00000KT 9999 NSC 22/22 Q1011 A2985 HR100 RWY NML=METAR SLCA 261000Z 00000KT 8000 -RA BKN010 OVC070 21/20 Q1016 A3000HR94 RWY WET INOP=
ZPX0140 260957@CAELT@GG SLZZYMYT@CAELT@260956 SLLPYFYA@CAELT@SABO SLRY 261000@CAELT@METAR SLRY 261000Z 00000KT 9999 BKN015 OVC070 25/25 Q1002 A2959@CAELT@HR98 RETS RWY NML=@CAELT@
ZPX0141 260958@CAELT@GG SLZZYMYT@CAELT@260953 SLCBYGYZ@CAELT@SABO SLCB 261000@CAELT@METAR SLCB 261000Z 30003KT 9999 -RA FEW010 SCT025 OVC070 15/13 Q1022@CAELT@A3019 749.3 HR89 FU NOSIG=@CAELT@
ZPX0143 261002@CAELT@GG SLZZYMYT@CAELT@261002 SLLPYFYA@CAELT@SABO SLLP 261000@CAELT@METAR SLLP 261000Z VRB02KT 6000 -RA FEW003 SCT012 OVC070 05/04@CAELT@Q1034 A3054 625.4 HR91 P92// NOSIG=@CAELT@METAR SLCO 261000Z NIL=@CAELT@METAR SLRY 261000Z 00000KT 9999 BKN015 OVC070 25/25 Q1002 A2959@CAELT@HR98 RETS RWY NML=METAR SLRQ 261000Z 00000KT 9999 BKN023 BKN200 26/25 Q1004 A2964979.8 HR98=METAR SLSB 261000Z 00000KT 9999 SCT080 OVC200 25/24 Q1004 A2967HR96 RWY NML=
ZPX0145 261003@CAELT@GG SLZZYMYT@CAELT@261002 SLTRYGYS@CAELT@SABO SLTR 261000@CAELT@METAR SLTR 261000Z 17008KT 1000 +TSRA BKN003 SCT020CB BKN200 25/24@CAELT@Q1005 A2968 986.6 HR97 CB ON STN/N/E/SE/S/SW TS N/S/SW TEMPO 0500=@CAELT@METAR SLGM 261000Z NIL=@CAELT@METAR SLRI 261000Z 00000KT 5000 -RA BKN004 FEW020CB OVC070 23/23@CAELT@Q1011 A2986 HR98 CB N/NE=METAR SLJO 261000Z 00000KT 8000 VCSH SCT015 FEW023CB OVC070 24/24Q1008 A2979 HR96 CB/SH NE/SE/S/SW RWY NML=METAR SLRA 261000Z 04005KT 7000 -RA SCT020 FEW023CB OVC070 25/24Q1004 A2966 HR96 CB NW RWY OPR C206=METAR SLMG 261000Z 00000KT 9999 SCT020 FEW023CB OVC200 25/25 Q1003A2965 HR97 CB NW RWY NML=METAR SLBU 261000Z NIL=METAR SLSA 261000Z 00000KT 9999 FEW020 SCT070 BKN200 25/25 Q1004A2965 HR97=METAR SLSR 261000Z 12004KT 9999 SCT015 FEW023CB OVC070 24/24 Q1003A2964 HR95 CB W/NW RWY NML=METAR SLSM 261000Z 00000KT 9999 SCT080 OVC200 24/24 Q1004 A2966HR98 RWY NML=
ZPX0161 261051@CAELT@GG SLZZYMYT@CAELT@261050 SLRBYGYS@CAELT@SABO SLRB 261100@CAELT@METAR SLRB 261100Z 00000KT 9999 NSC 23/22 Q1011 A2985 HR95 RWY NML=@CAELT@
ZPX0162 261053@CAELT@GG SLZZYMYT@CAELT@261053 SLETYMYC@CAELT@SABO SLET 261100Z@CAELT@METAR SLET 261100Z 16006KT 9999 FEW015 BKN020 BKN070 24/22 Q1009@CAELT@A2981 HR86 NOSIG=@CAELT@
ZPX0163 261053@CAELT@GG SLZZYMYT@CAELT@261053 SLCAYGYS@CAELT@SABO SLCA 261100@CAELT@METAR SLCA 261100Z 00000KT 8000 -RA BKN010 OVC070 20/19 Q1016 A3000@CAELT@HR94 RWY WET INOP=@CAELT@
ZPX0166 261054@CAELT@GG SLZZYMYT@CAELT@261055 SLLPYFYA@CAELT@SABO SLRY 261100@CAELT@METAR SLRY 261100Z 00000KT 9999 SCT016 BKN070 BKN200 25/25@CAELT@Q1003 A2963 HR97 RWY NML=@CAELT@
ZPX0167 261054@CAELT@GG SLZZYMYT@CAELT@261055 SLVRYGYZ@CAELT@SABO SLVR 261100@CAELT@METAR SLVR 261100Z 18008KT 9999 SCT020 FEW030CB OVC070 25/22 Q1008@CAELT@A2979 HR86 CB W/NW NOSIG=@CAELT@
ZPX0169 261055@CAELT@GG SLZZYMYT@CAELT@261054 SLSAYGYS@CAELT@SABO SLSA 261100@CAELT@METAR SLSA 261100Z 00000KT 9999 FEW020 SCT070 BKN200 25/24@CAELT@Q1004 A2966 HR94=@CAELT@
ZPX0172 261055@CAELT@GG SLZZYMYT@CAELT@261052 SLORYGYZ@CAELT@SABO SLOR 261100@CAELT@METAR SLOR 261100Z 17004KT 9999 FEW008 SCT015 OVC070 08/05 Q1032@CAELT@A3050 654.4 HR78=@CAELT@
ZPX0173 261056@CAELT@GG SLZZYMYT@CAELT@261056 SLTRYGYZ@CAELT@SABO SLTR 261100@CAELT@METAR SLTR 261100Z 13008KT 5000 -TSRA SCT005 SCT020CB BKN070 23/23@CAELT@Q1005 A2970 987.2 HR98 CB S/SW/W/NW/N TS SW/W TEMPO 2000=@CAELT@
ZPX0174 261056@CAELT@GG SLZZYMYT@CAELT@261055 SLSBYSYX@CAELT@SABO SLSB 261100@CAELT@METAR SLSB 261100Z 00000KT 9999 SCT080 OVC200 26/25 Q1005 A2970 HR94@CAELT@RWY NML=@CAELT@
ZPX0175 261057@CAELT@GG SLZZYMYT@CAELT@261055 SLLPYGYZ@CAELT@SABO SLLP 261100@CAELT@METAR SLLP 261100Z 00000KT 4000E -RA VCFG FEW003 SCT012 OVC070 06/04@CAELT@Q1034 A3056 625.9 HR91 P/INV VCFG NE/E/SE NOSIG=@CAELT@
ZPX0176 261057@CAELT@GG SLZZYMYT@CAELT@261056 SLCBYGYZ@CAELT@SABO SLCB 261100@CAELT@METAR SLCB 261100Z 22003KT 9999 FEW010 SCT025 OVC070 15/13 Q1023@CAELT@A3021 749.9 HR89 FU NOSIG=@CAELT@
ZPX0177 261057@CAELT@GG SLZZYMYT@CAELT@261058 SLVRYFYC@CAELT@SABO SLVR 261100@CAELT@METAR SLVR 261100Z 18008KT 9999 SCT020 FEW030CB OVC070 25/22 Q1008@CAELT@A2979 HR86 CB W/NW NOSIG=@CAELT@METAR SLET 261100Z 16006KT 9999 FEW015 BKN020 BKN070 24/22 Q1009@CAELT@A2981 HR86 NOSIG=@CAELT@METAR SLAS 261100Z 18006KT 9999 TS BKN015 FEW030CB OVC200 24/23 Q1009A2980 HR92 CB/TS/SH W/NW/NE RWY NML=METAR SLJV 261100Z 19005KT 0050 FG VV/// 22/22 Q1007 A2974 HR99 RWYWET OPR=METAR SLCP 261100Z 00000KT 9999 BKN008 OVC070 23/23 Q1011 A2985 HR100RERA RWY WET OPR=METAR SLSI 261100Z 00000KT 9999 NSC 24/23 Q1007 A2974 HR90 CI RWY NMLMETAR SLTI 261100Z 00000KT 9999 NSC 26/25 Q1010 A2983 HR96 CI RWY NMLMETAR SLJE 261100Z 18005KT 9999 SCT070 OVC200 27/22 Q1011 A2985 HR75RWY NML=METAR SLVG 261100Z 00000KT 9999 BKN013 OVC070 14/13 Q1023 A3021 HR95RWY WET OPR=METAR SLRB 261100Z 00000KT 9999 NSC 23/22 Q1011 A2985 HR95 RWY NML=METAR SLCA 261100Z 00000KT 8000 -RA BKN010 OVC070 20/19 Q1016 A3000HR94 RWY WET INOP=
ZPX0180 261100@CAELT@GG SLZZYMYT@CAELT@261100 SLTRYGYS@CAELT@SABO SLTR 261100@CAELT@METAR SLTR 261100Z 13008KT 5000 -TSRA SCT005 SCT020CB BKN070 23/23@CAELT@Q1005 A2970 987.2 HR98 CB S/SW/W/NW/N TS SW/W TEMPO 2000=@CAELT@METAR SLGM 261100Z NIL=@CAELT@METAR SLRI 261100Z NIL=@CAELT@METAR SLJO 261100Z 00000KT 8000 VCSH FEW010 SCT015 FEW023CB SCT080BKN200 25/24 Q1009 A2981 HR97 CB/SH SW/W RWY NML=METAR SLRA 261100Z 00000KT 8000 VCSH FEW020 FEW023CB BKN070 OVC20025/24 Q1004 A2968 HR94 RERA CB/SH W/NW RWY OPR C206=METAR SLMG 261100Z 00000KT 9999 FEW020 BKN080 OVC200 25/25 Q1004A2966 HR97 RWY NML=METAR SLBU 261100Z NIL=METAR SLSA 261100Z 00000KT 9999 FEW020 SCT070 BKN200 25/24 Q1004A2966 HR94=METAR SLSR 261100Z 12004KT 9999 SCT015 FEW023CB OVC070 24/23 Q1006A2966 HR95 CB NW RWY NML=METAR SLSM 261100Z 15015G25KT 5000 VCSH BKN008 FEW023CB OVC07023/23 Q1005 A2970 HR98 CB/SH E/SE/S/SW RWY NML=
ZPX0182 261101@CAELT@GG SLZZYMYT@CAELT@261101 SLLPYFYA@CAELT@SABO SLLP 261100@CAELT@METAR SLLP 261100Z 00000KT 4000E -RA VCFG FEW003 SCT012 OVC070@CAELT@06/04 Q1034 A3056 625.9 HR91 P/INV VCFG NE/E/SE NOSIG=@CAELT@METAR SLCO 261100Z NIL=@CAELT@METAR SLRY 261100Z 00000KT 9999 SCT016 BKN070 BKN200 25/25@CAELT@Q1003 A2963 HR97 RWY NML=METAR SLRQ 261100Z 00000KT 5000 VCSH BKN020 FEW023CB BKN200 26/26Q1005 A2970 981.6 HR98 CB SE/S/W/NW SH SE/S/NW=METAR SLSB 261100Z 00000KT 9999 SCT080 OVC200 26/25 Q1005 A2970HR94 RWY NML=METAR SLOR 261100Z 17004KT 9999 FEW008 SCT015 OVC070 08/05Q1032 A3050 654.4 HR78=
ZPX0184 261103@CAELT@GG SLZZYMYT@CAELT@261103 SLTRYGYS@CAELT@SABO SLTR 261100 RRA@CAELT@METAR SLTR 261100Z 13008KT 5000 -TSRA SCT005 SCT020CB BKN070 23/23@CAELT@Q1005 A2970 987.2 HR98 CB S/SW/W/NW/N TS SW/W TEMPO 2000=@CAELT@METAR SLGM 261100Z NIL=@CAELT@METAR RTD SLRI 261100Z 00000KT 5000 VCSH BKN004 FEW020CB OVC070@CAELT@23/23 Q1012 A2989 HR98 RERA CB/SH NE/E=METAR SLJO 261100Z 00000KT 8000 VCSH FEW010 SCT015 FEW023CB SCT080BKN200 25/24 Q1009 A2981 HR97 CB/SH SW/W RWY NML=METAR SLRA 261100Z 00000KT 8000 VCSH FEW020 FEW023CB BKN070 OVC20025/24 Q1004 A2968 HR94 RERA CB/SH W/NW RWY OPR C206=METAR SLMG 261100Z 00000KT 9999 FEW020 BKN080 OVC200 25/25 Q1004A2966 HR97 RWY NML=METAR SLBU 261100Z NIL=METAR SLSA 261100Z 00000KT 9999 FEW020 SCT070 BKN200 25/24 Q1004A2966 HR94=METAR SLSR 261100Z 12004KT 9999 SCT015 FEW023CB OVC070 24/23 Q1006A2966 HR95 CB NW RWY NML=METAR SLSM 261100Z 15015G25KT 5000 VCSH BKN008 FEW023CB OVC07023/23 Q1005 A2970 HR98 CB/SH E/SE/S/SW RWY NML=
ZPX0201 261151@CAELT@GG SLZZYMYT@CAELT@261152 SLVRYGYZ@CAELT@SABO SLVR 261200@CAELT@METAR SLVR 261200Z 17010KT 9999 SCT020 FEW030CB BKN070 BKN200 26/23@CAELT@Q1009 A2980 HR83 CB/NW NOSIG=@CAELT@
ZPX0202 261152@CAELT@GG SLZZYMYT@CAELT@261152 SLCAYGYS@CAELT@SABO SLCA 261200@CAELT@METAR SLCA 261200Z 00000KT 8000 -RA BKN010 OVC070 20/20 Q1017 A3003@CAELT@HR97 RWY WET INOP=@CAELT@
ZPX0203 261153@CAELT@GG SLZZYMYT@CAELT@261154 SLSAYGYS@CAELT@SABO SLSA 261200@CAELT@METAR SLSA 261200Z 00000KT 9999 FEW020 FEW023CB BKN200 26/25@CAELT@Q1005 A2968 HR95 CB N=@CAELT@
ZPX0204 261154@CAELT@GG SLZZYMYT@CAELT@261154 SLETYMYC@CAELT@SABO SLET 261200@CAELT@METAR SLET 261200Z 16007KT 9999 SCT023 BKN070 25/22 Q1009 A2982 HR82@CAELT@NOSIG=@CAELT@
ZPX0205 261155@CAELT@GG SLZZYMYT@CAELT@261155 SLCOYGYZ@CAELT@SABO SLCO 261200@CAELT@METAR SLCO 261200Z 31003KT 9999 FEW020 FEW023CB BKN080 26/24 Q1006@CAELT@A2971 978.8 HR88 CB/SH/SE/S=@CAELT@
ZPX0206 261155@CAELT@GG SLZZYMYT@CAELT@261154 SLRBYGYS@CAELT@SABO SLRB 261200@CAELT@METAR SLRB 261200Z 00000KT 9999 NSC 25/22 Q1011 A2985 HR84 RWY NML=@CAELT@
ZPX0208 261156@CAELT@GG SLZZYMYT@CAELT@261157 SLLPYGYZ@CAELT@SABO SLLP 261200@CAELT@METAR SLLP 261200Z VRB02KT 4000 -RA VCFG FEW003 SCT012 BKN070@CAELT@06/05 Q1035 A3057 626.2 HR93 P96// VCFG NE/E/SE NOSIG=@CAELT@
ZPX0209 261156@CAELT@GG SLZZYMYT@CAELT@261155 SLORYGYZ@CAELT@SABO SLOR 261200@CAELT@METAR SLOR 261200Z 16003KT 9999 SCT015 BKN070 10/05 Q1033 A3050 654.5@CAELT@HR70 CI=@CAELT@
ZPX0210 261157@CAELT@GG SLZZYMYT@CAELT@261156 SLTRYGYZ@CAELT@SABO SLTR 261200@CAELT@METAR SLTR 261200Z 16003KT 5000 TS VCSH BKN005 SCT020CB OVC070 23/23@CAELT@Q1007 A2974 988.7 HR98 RERA CB/SH N/NE/SE/S/SW/W/NW TS N/NE@CAELT@TEMPO TSRA=@CAELT@
ZPX0211 261157@CAELT@GG SLZZYMYT@CAELT@261156 SLSBYSYX@CAELT@SABO SLSB 261200@CAELT@METAR SLSB 261200Z 12004KT 8000 VCSH OVC020 26/26 Q1006 A2972 HR98@CAELT@SH/SW/W/NW/NE RWY NML=@CAELT@
ZPX0212 261158@CAELT@GG SLZZYMYT@CAELT@261158 SLVRYFYC@CAELT@SABO SLVR 261200@CAELT@METAR SLVR 261200Z 17010KT 9999 SCT020 FEW030CB BKN070 BKN200 26/23@CAELT@Q1009 A2980 HR83 CB NW NOSIG=@CAELT@METAR SLET 261200Z 16007KT 9999 SCT023 BKN070 25/22 Q1009 A2982 HR82@CAELT@NOSIG=@CAELT@METAR SLAS 261200Z 18010KT 9999 OVC012 25/24 Q1009 A2980 HR91 RWY NMLMETAR SLJV 261200Z 19005KT 0100 FG VV/// 23/23 Q1008 A2977 HR99 RWYWET OPR=METAR SLCP 261200Z 18006KT 3000 -RA OVC008 23/23 Q1011 A2985 HR100RWY WET OPR=METAR SLSI 261200Z 18006KT 9999 FEW015 BKN200 26/23 Q1008 A2977 HR83RWY NML=METAR SLTI 261200Z 00000KT 9999 NSC 28/24 Q1010 A2983 HR81 CI RWY NMLMETAR SLJE 261200Z 18006KT 9999 FEW070 OVC200 28/22 Q1011 A2985 HR71METAR SLVG 261200Z 18004KT 9999 FEW013 OVC070 15/13 Q1023 A3021 HR90METAR SLRB 261200Z 00000KT 9999 NSC 25/22 Q1011 A2985 HR84 RWY NML=METAR SLCA 261200Z 00000KT 8000 -RA BKN010 OVC070 20/20 Q1017 A3003HR97 RWY WET INOP=
ZPX0213 261158@CAELT@GG SLZZYMYT@CAELT@261158 SLLPYFYA@CAELT@SABO SLRY 261200@CAELT@METAR SLRY 261200Z 00000KT 9999 FEW016 SCT080 BKN200 26/25 Q1003@CAELT@A2964 HR92 RWY NML=@CAELT@
ZPX0216 261158@CAELT@GG SLZZYMYT@CAELT@261157 SLCBYGYZ@CAELT@SABO SLCB 261200@CAELT@METAR SLCB 261200Z 28004KT 9999 FEW010 SCT025 OVC070 16/13 Q1023@CAELT@A3022 750.2 HR83 FU NOSIG=@CAELT@
ZPX0217 261159@CAELT@GG SLZZYMYT@CAELT@261159 SLTJYGYZ@CAELT@SABO SLTJ 261200@CAELT@METAR SLTJ 261200Z 00000KT 9999 SCT008 BKN015 OVC070 16/16 Q1022@CAELT@A3018 816.7 HR96 SH ST BAJOS TODAS DIRECC=@CAELT@
ZPX0220 261201@CAELT@GG SLZZYMYT@CAELT@261200 SLLPYFYA@CAELT@SABO SLLP 261200@CAELT@METAR SLLP 261200Z VRB02KT 4000 -RA VCFG FEW003 SCT012 BKN070@CAELT@06/05 Q1035 A3057 626.2 HR93 P96// VCFG NE/E/SE NOSIG=@CAELT@METAR SLCO 261200Z 31003KT 9999 FEW020 FEW023CB BKN080 26/24@CAELT@Q1006 A2971 978.8 HR88 CB/SH/SE/S=@CAELT@METAR SLRY 261200Z 00000KT 9999 FEW016 SCT080 BKN200 26/25 Q1003A2964 HR92 RWY NML=METAR SLRQ 261200Z 00000KT 9999 SCT020 BKN200 27/26 Q1005 A2969981.4 HR93=METAR SLSB 261200Z 12004KT 8000 VCSH OVC020 26/26 Q1006 A2972HR98 SH/SW/W/NW/NE RWY NML=METAR SLOR 261200Z 16003KT 9999 SCT015 BKN070 10/05 Q1033 A3050654.5 HR70 CI=
ZPX0222 261202@CAELT@GG SLZZYMYT@CAELT@261201 SLCBYGYS@CAELT@SABO SLCB 261200@CAELT@METAR SLCB 261200Z 28004KT 9999 FEW010 SCT025 OVC070 16/13 Q1023@CAELT@A3022 750.2 HR83 FU NOSIG=@CAELT@METAR SLAL 261200Z 10004KT 7000 -RA FEW002 BKN005 OVC070 08/08 Q1030@CAELT@A3042 704.4 HR98 ST BAJOS/N/NE/SE/S/SW=@CAELT@METAR SLTJ 261200Z 00000KT 9999 SCT008 BKN015 OVC070 16/16 Q1022A3018 816.7 HR96 SH ST BAJOS TODAS DIRECC=
ZPX0224 261202@CAELT@GG SLZZYMYT@CAELT@261200 SLTRYGYS@CAELT@SABO SLTR 261200@CAELT@METAR SLTR 261200Z 16003KT 5000 TS VCSH BKN005 SCT020CB OVC070 23/23@CAELT@Q1007 A2974 988.7 HR98 RERA CB/SH N/NE/SE/S/SW/W/NW TS N/NE TEMPO@CAELT@TSRA=@CAELT@METAR SLGM 261200Z NIL=@CAELT@METAR SLRI 261200Z 00000KT 7000 VCSH SCT004 BKN015 FEW020CB OVC07025/24 Q1007 A2975 HR96 CB/SH NE/SE/S=METAR SLJO 261200Z NIL=METAR SLRA 261200Z 03006KT 8000 VCSH FEW008 FEW023CB SCT070 OVC20026/25 Q1005 A2968 HR96 CB/SH NW RWY OPR C206=METAR SLMG 261200Z 34006KT 9999 FEW007 SCT080 BKN200 27/25 Q1005A2969 HR92 RWY NML=METAR SLBU 261200Z NIL=METAR SLSA 261200Z 00000KT 9999 FEW020 FEW023CB BKN200 26/25Q1005 A2968 HR95 CB N=METAR SLSR 261200Z 00000KT 9999 FEW015 FEW023CB BKN070 BKN200 25/24Q1005 A2968 HR92 CB NW RWY NML=METAR SLSM 261200Z NIL=
ZPX0226 261210@CAELT@GG SLZZYMYT@CAELT@261210 SLTRYGYS@CAELT@SABO SLTR 261200 RRA@CAELT@METAR SLTR 261200Z 16003KT 5000 TS VCSH BKN005 SCT020CB OVC070 23/23@CAELT@Q1007 A2974 988.7 HR98 RERA CB/SH N/NE/SE/S/SW/W/NW TS N/NE TEMPO@CAELT@TSRA=@CAELT@METAR SLGM 261200Z NIL=@CAELT@METAR SLRI 261200Z 00000KT 7000 VCSH SCT004 BKN015 FEW020CB OVC07025/24 Q1007 A2975 HR96 CB/SH NE/SE/S=METAR RTD SLJO 261200Z 32004KT 8000 VCSH FEW010 FEW023CB SCT080BKN200 26/24 Q1009 A2982 HR91 CB/SH W/NW RWY NML=METAR SLRA 261200Z 03006KT 8000 VCSH FEW008 FEW023CB SCT070 OVC20026/25 Q1005 A2968 HR96 CB/SH NW RWY OPR C206=METAR SLMG 261200Z 34006KT 9999 FEW007 SCT080 BKN200 27/25 Q1005A2969 HR92 RWY NML=METAR SLBU 261200Z NIL=METAR SLSA 261200Z 00000KT 9999 FEW020 FEW023CB BKN200 26/25Q1005 A2968 HR95 CB N=METAR SLSR 261200Z 00000KT 9999 FEW015 FEW023CB BKN070 BKN200 25/24Q1005 A2968 HR92 CB NW RWY NML=METAR RTD SLSM 261200Z 15010KT 6000 TS VCSH BKN008 FEW023CB OVC070 22/22 Q1007 A2976 HR98 RERA CB/SH E/SE/S/SW TS SE/S RWY WET OPR=
ZPX0242 261252@CAELT@GG SLZZYMYT@CAELT@261252 SLCAYGYS@CAELT@SABO SLCA 261300@CAELT@METAR SLCA 261300Z 00000KT 8000 VCSH BKN010 OVC070 21/20 Q1017 A3003@CAELT@SH S/SW/SE RERA RWY WET INOP=@CAELT@
ZPX0243 261254@CAELT@GG SLZZYMYT@CAELT@261254 SLETYMYC@CAELT@SABO SLET 261300@CAELT@METAR SLET 261300Z 14010KT 9999 FEW023 SCT070 BKN200 26/22 Q1010@CAELT@A2984 HR79 NOSIG=@CAELT@
ZPX0244 261255@CAELT@GG SLZZYMYT@CAELT@261254 SLSAYGYS@CAELT@SABO SLSA 261300@CAELT@METAR SLSA 261300Z 32006KT 6000 VCSH BKN015 FEW020CB OVC200 27/25@CAELT@Q1006 A2971 HR89 CB/SH SE/S/SW/W=@CAELT@
ZPX0245 261255@CAELT@GG SLZZYMYT@CAELT@261254 SLRBYGYS@CAELT@SABO SLRB 261300@CAELT@METAR SLRB 261300Z 00000KT 9999 NSC 27/24 Q1012 A2988 HR85 RWY NML=@CAELT@
ZPX0246 261255@CAELT@GG SLZZYMYT@CAELT@261255 SLVRYGYZ@CAELT@SABO SLVR 261300@CAELT@METAR SLVR 261300Z 17011KT 9999 FEW023 FEW030CB SCT070 BKN200 27/23@CAELT@Q1010 A2982 HR78 CB DIST/NW NOSIG=@CAELT@
ZPX0247 261255@CAELT@GG SLZZYMYT@CAELT@261255 SLORYGYZ@CAELT@SABO SLOR 261300@CAELT@METAR SLOR 261300Z 19003KT 9999 SCT017 BKN070 11/05 Q1033 A3050 654.5@CAELT@HR69 CI=@CAELT@
ZPX0248 261256@CAELT@GG SLZZYMYT@CAELT@261256 SLCBYGYZ@CAELT@SABO SLCB 261300@CAELT@METAR SLCB 261300Z 27003KT 9999 FEW010 SCT023 OVC070 16/13 Q1023@CAELT@A3023 750.5 HR81 FU NOSIG=@CAELT@
ZPX0249 261256@CAELT@GG SLZZYMYT@CAELT@261255 SLLPYFYA@CAELT@SABO SLRY 261300@CAELT@METAR SLRY 261300Z 00000KT 9999 BKN015 OVC070 28/25 Q1003@CAELT@A2965 HR87 RWY NML=@CAELT@
ZPX0250 261256@CAELT@GG SLZZYMYT@CAELT@261257 SLLPYGYZ@CAELT@SABO SLLP 261300@CAELT@METAR SLLP 261300Z VRB02KT 6000 FEW003 SCT012 FEW017CB BKN070@CAELT@08/05 Q1035 A3058 626.3 HR81 P4755 VIS RED ST/NE/E/SE CB/SH N/NE@CAELT@RERA NOSIG=@CAELT@
ZPX0251 261256@CAELT@GG SLZZYMYT@CAELT@261256 SLCOYGYZ@CAELT@SABO SLCO 261300@CAELT@METAR SLCO 261300Z 21003KT 8000 VCSH FEW020 FEW023CB BKN080 26/24@CAELT@Q1007 A2974 979.7 HR88 CB/SH/E/SE/S=@CAELT@
ZPX0252 261258@CAELT@GG SLZZYMYT@CAELT@261258 SLTJYGYZ@CAELT@SABO SLTJ 261300@CAELT@METAR SLTJ 261300Z 00000KT 7000 -RA BKN008 BKN015 OVC070 16/16 Q1022@CAELT@A3019 816.0 HR97 ST BAJOS TODAS DIRECC=@CAELT@
ZPX0253 261258@CAELT@GG SLZZYMYT@CAELT@261257 SLSBYSYX@CAELT@SABO SLSB 261300@CAELT@METAR SLSB 261300Z 12008KT 1000 +TSRA BKN005 FEW023CB OVC070 24/24@CAELT@Q008 A2977 HR100 CBTS/ON STN/ W/NW RWY MOJ INOP=@CAELT@
ZPX0254 261258@CAELT@GG SLZZYMYT@CAELT@261258 SLTRYGYZ@CAELT@SABO SLTR 261300@CAELT@METAR SLTR 261300Z 18006KT 7000 TS VCSH BKN005 FEW020CB OVC070 24/23@CAELT@Q1007 A2975 989.1 HR98 CB/SH N/NE/SW/W/NW TS N/W TEMPO TSRA=@CAELT@
ZPX0255 261300@CAELT@GG SLZZYMYT@CAELT@261259 SLSBYSYX@CAELT@SABO SLSB 261300 CCA@CAELT@METAR SLSB 261300Z 12008KT 1000 +TSRA BKN005 FEW023CB OVC070 24/24@CAELT@Q1008 A2977 HR100 CBTS/ON STN/ W/NW RWY MOJ INOP=@CAELT@
ZPX0256 261300@CAELT@GG SLZZYMYT@CAELT@261301 SLVRYFYC@CAELT@SABO SLVR 261300@CAELT@METAR SLVR 261300Z 17011KT 9999 FEW023 FEW030CB SCT070 BKN200 27/23@CAELT@Q1010 A2982 HR78 CB DIST/NW NOSIG=@CAELT@METAR SLET 261300Z 14010KT 9999 FEW023 SCT070 BKN200 26/22 Q1010@CAELT@A2984 HR79 NOSIG=@CAELT@METAR SLAS 261300Z 18006KT 8000 VCSH OVC012 24/23 Q1010 A2983 HR91 SH/N/E/SE RWY NML=METAR SLJV 261300Z 19008KT 9999 OVC010 23/23 Q1008 A2977 HR97 REFGRWY WET OPR=METAR SLCP 261300Z 18006KT 9999 OVC010 23/23 Q1011 A2985 HR100 RERAMETAR SLSI 261300Z 18005KT 9999 FEW017 BKN200 27/23 Q1008 A2977 HR80RWY NML=METAR SLTI 261300Z 00000KT 9999 FEW015 BKN200 31/25 Q1011 A2985 HR73METAR SLJE 261300Z 18006KT 9999 NSC 30/23 Q1011 A2985 HR66 CI RWY NMLMETAR SLVG 261300Z 17005KT 9999 FEW015 OVC070 16/14 Q1024 A3024 HR85METAR SLRB 261300Z 00000KT 9999 NSC 27/24 Q1012 A2988 HR85 RWY NML=METAR SLCA 261300Z 00000KT 8000 VCSH BKN010 OVC070 21/20 Q1017 A3003SH S/SW/SE RERA RWY WET INOP=
ZPX0257 261300@CAELT@GG SLZZYMYT@CAELT@261259 SLTRYGYS@CAELT@SABO SLTR 261300@CAELT@METAR SLTR 261300Z 18006KT 7000 TS VCSH BKN005 FEW020CB OVC070 24/23@CAELT@Q1007 A2975 989.1 HR98 CB/SH N/NE/SW/W/NW TS N/W TEMPO TSRA=@CAELT@METAR SLGM 261300Z NIL=@CAELT@METAR SLJO 261300Z 32006KT 9999 FEW010 FEW023CB SCT080 BKN200 27/25@CAELT@Q1010 A2983 HR88 CB NW RWY NML=METAR SLRI 261300Z 00000KT 5000 VCSH SCT004 BKN015 FEW020CB OVC07025/24 Q1007 A2977 HR95 CB/SH E/SE/S/SW=METAR SLRA 261300Z 34006KT 9999 FEW012 FEW023CB BKN200 27/25 Q1005A2970 HR91 AC CB N RWY OPR C206=METAR SLMG 261300Z 34006KT 9999 FEW010 SCT080 BKN200 27/25 Q1005A2970 HR89 RWY NML=METAR SLBU 261300Z NIL=METAR SLSA 261300Z 32006KT 6000 VCSH BKN015 FEW020CB OVC200 27/25Q1006 A2971 HR89 CB/SH SE/S/SW/W=METAR SLSR 261300Z 00000KT 9999 SCT015 FEW023CB SCT080 BKN200 27/24Q1005 A2970 HR86 CB NW RWY NML=METAR SLSM 261300Z 15006KT 3000 -TSRA BKN008 FEW023CB OVC070 22/22Q1007 A2976 HR100 CB N/NE/W/NW TS W/NW RWY WET INOP=
ZPX0258 261300@CAELT@GG SLZZYMYT@CAELT@261259 SLLPYFYA@CAELT@SABO SLLP 261300@CAELT@METAR SLLP 261300Z VRB02KT 6000 FEW003 SCT012 FEW017CB BKN070@CAELT@08/05 Q1035 A3058 626.3 HR81 P4755 VIS RED ST/NE/E/SE CB/SH N/NE@CAELT@RERA NOSIG=@CAELT@METAR SLCO 261300Z 21003KT 8000 VCSH FEW020 FEW023CB BKN080 26/24@CAELT@Q1007 A2974 979.7 HR88 CB/SH/E/SE/S=METAR SLRY 261300Z 00000KT 9999 BKN015 OVC070 28/25 Q1003A2965 HR87 RWY NML=METAR SLRQ 261300Z 00000KT 9999 SCT013 FEW020CB BKN200 29/26 Q1005A2970 HR84 CB/N/NE/NW AC=METAR SLSB 261300Z 12008KT 1000 +TSRA BKN005 FEW023CB OVC070 24/24Q1008 A2977 HR100 CBTS/ON STN/ W/NW RWY MOJ INOP=METAR SLOR 261300Z 19003KT 9999 SCT017 BKN070 11/05 Q1033 A3050 654.5HR69 CI=
ZPX0259 261301@CAELT@GG SLZZYMYT@CAELT@261301 SLCBYGYS@CAELT@SABO SLCB 261300@CAELT@METAR SLCB 261300Z 27003KT 9999 FEW010 SCT023 OVC070 16/13 Q1023@CAELT@A3023 750.5 HR81 FU NOSIG=@CAELT@METAR SLAL 261300Z 00000KT 4000S VCFG FEW002 BKN005 OVC070 09/08@CAELT@Q1030 A3042 704.4 HR97 VCFG/S/SW ST BAJOS N/E/SE/W=@CAELT@METAR SLTJ 261300Z 00000KT 7000 -RA BKN008 BKN015 OVC070 16/16 Q1022A3019 816.0 HR97 ST BAJOS TODAS DIRECC=
ZPX0262 261315@CAELT@GG SLZZYMYT@CAELT@261310 SLLPYFYA@CAELT@SABO SLLP 261300 CCA@CAELT@METAR SLLP 261300Z VRB02KT 6000 FEW003 SCT012 FEW017CB BKN070@CAELT@08/05 Q1035 A3058 626.3 HR81 P4755 VIS RED ST/NE/E/SE CB/SH N/NE@CAELT@RERA NOSIG=@CAELT@METAR SLCO 261300Z 21003KT 8000 VCSH FEW020 FEW023CB BKN080 26/24@CAELT@Q1007 A2974 979.7 HR88 CB/SH/E/SE/S=METAR SLRY 261300Z 00000KT 9999 BKN015 OVC070 28/25 Q1003A2965 HR87 RWY NML=METAR SLRQ 261300Z 00000KT 9999 SCT013 FEW020CB BKN200 29/26 Q1005A2970 HR84 CB/N/NE/NW AC=METAR COR SLSB 261300Z 12008KT 1000 +TSRA BKN005 FEW023CB OVC070 24/24 Q1008 A2977 HR100 CBTS/ON STN/ W/NW RWY WET INOP=METAR SLOR 261300Z 19003KT 9999 SCT017 BKN070 11/05 Q1033 A3050654.5 HR69 CI=
ZPX0271 261350@CAELT@GG SLZZYMYT@CAELT@261350 SLRBYGYS@CAELT@SABO SLRB 261400@CAELT@METAR SLRB 261400Z 00000KT 9999 NSC 28/24 Q1012 A2988 HR80 RWY NML=@CAELT@
ZPX0273 261352@CAELT@GG SLZZYMYT@CAELT@261352 SLCAYGYS@CAELT@SABO SLCA 261400@CAELT@METAR SLCA 261400Z 00000KT 8000 -RA BKN013 OVC070 21/20 Q1017 A3003@CAELT@HR95 RWY WET INOP=@CAELT@
ZPX0274 261354@CAELT@GG SLZZYMYT@CAELT@261354 SLSAYGYS@CAELT@SABO SLSA 261400@CAELT@METAR SLSA 261400Z 17005KT 6000 VCSH BKN015 FEW020CB OVC200 26/24@CAELT@Q1006 A2971 HR91 CB/SH SE/S/SW/W=@CAELT@
ZPX0276 261354@CAELT@GG SLZZYMYT@CAELT@261352 SLETYMYC@CAELT@SABO SLET 261400Z@CAELT@METAR SLET 261400Z 16015KT 9999 SCT023 BKN200 28/22 Q1010 A2984 HR72@CAELT@AC NOSIG=@CAELT@
ZPX0277 261355@CAELT@GG SLZZYMYT@CAELT@261355 SLORYGYZ@CAELT@SABO SLOR 261400@CAELT@METAR SLOR 261400Z 19005KT 9999 SCT017 FEW020CB BKN070 13/05 Q1032@CAELT@A3049 654.3 HR58 CB/DIST E CI=@CAELT@
ZPX0278 261355@CAELT@GG SLZZYMYT@CAELT@261355 SLCOYGYZ@CAELT@SABO SLCO 261400@CAELT@METAR SLCO 261400Z 22004KT 6000 -RA FEW005 FEW023CB BKN080 26/25@CAELT@Q1006 A2973 979.6 HR95 CB/SE/S=@CAELT@
ZPX0279 261355@CAELT@GG SLZZYMYT@CAELT@261355 SLVRYGYZ@CAELT@SABO SLVR 261400@CAELT@METAR SLVR 261400Z 17012KT 9999 FEW023 SCT070 BKN200 28/23 Q1010@CAELT@A2984 HR75 NOSIG=@CAELT@
ZPX0280 261356@CAELT@GG SLZZYMYT@CAELT@261356 SLSBYSYX@CAELT@SABO SLSB 261400@CAELT@METAR SLSB 261400Z 12010KT 7000 -TSRA BKN005 FEW023CB OVC070 24/24@CAELT@Q1008 A2977 HR98 CBTS/W/NW RWY MOJ INOP=@CAELT@
ZPX0281 261356@CAELT@GG SLZZYMYT@CAELT@261357 SLLPYGYZ@CAELT@SABO SLLP 261400@CAELT@METAR SLLP 261400Z 10005KT 050V140 9999 FEW004 SCT015 FEW017CB@CAELT@BKN070 09/06 Q1035 A3057 626.0 HR78 P4755 CB/SH DIST/N/NE NOSIG=@CAELT@
ZPX0282 261357@CAELT@GG SLZZYMYT@CAELT@261355 SLTRYGYZ@CAELT@SABO SLTR 261400@CAELT@METAR SLTR 261400Z 15006KT 8000 VCSH BKN005 FEW020CB OVC070 25/24@CAELT@Q1007 A2976 989.2 HR95 RETS CB/SH N/NE/NW NOSIG=@CAELT@
ZPX0283 261357@CAELT@GG SLZZYMYT@CAELT@261357 SLCBYGYZ@CAELT@SABO SLCB 261400@CAELT@METAR SLCB 261400Z 13007KT 6000 -RA FEW010 SCT023 OVC070 16/13 Q1024@CAELT@A3024 750.6 HR82 VIS RED W/NW/N/NE FU NOSIG=@CAELT@
ZPX0284 261358@CAELT@GG SLZZYMYT@CAELT@261358 SLTJYGYZ@CAELT@SABO SLTJ 261400@CAELT@METAR SLTJ 261400Z 00000KT 9999 -RA SCT010 BKN018 OVC070 17/16 Q1022@CAELT@A3019 817.0 HR95 ST BAJOS SE/S/SW/W=@CAELT@
ZPX0285 261358@CAELT@GG SLZZYMYT@CAELT@261358 SLTRYGYS@CAELT@SABO SLTR 261400@CAELT@METAR SLTR 261400Z 15006KT 8000 VCSH BKN005 FEW020CB OVC070 25/24@CAELT@Q1007 A2976 989.2 HR95 RETS CB/SH N/NE/NW NOSIG=@CAELT@METAR SLGM 261400Z NIL=@CAELT@METAR SLRI 261400Z 00000KT 2000 RA BKN004 FEW020CB OVC070 24/24 Q1008@CAELT@A2977 HR98 CB S/SW/W=METAR SLJO 261400Z 32006KT 9999 SCT015 FEW023CB BKN200 29/25 Q1009A2982 HR82 CB SE RWY NML=METAR SLRA 261400Z 32005KT 9999 SCT015 BN200 28/25 Q1005 A2969 HR85AC RWY HUM OPR=METAR SLMG 261400Z 34006KT 9999 SCT012 BKN080 BKN200 27/26 Q1005A2970 HR90 RWY NML=METAR SLBU 261400Z NIL=METAR SLSA 261400Z 17005KT 6000 VCSH BKN015 FEW020CB OVC200 26/24Q1006 A2971 HR91 CB/SH SE/S/SW/W=METAR SLSR 261400Z 12015KT 2000 RA BKN012 FEW023CB OVC070 24/24Q1007 A2974 HR100 CB E/SE/S RWY OPR C210=METAR SLSM 261400Z 15004KT 3000 -RA BKN008 FEW023CB OVC070 22/22Q1007 A2976 HR100 RETS CB N/W/NW RWY WET INOP=
ZPX0286 261359@CAELT@GG SLZZYMYT@CAELT@261359 SLVRYFYC@CAELT@SABO SLVR 261400@CAELT@METAR SLVR 261400Z 17012KT 9999 FEW023 SCT070 BKN200 28/23 Q1010@CAELT@A2984 HR75 NOSIG=@CAELT@METAR SLET 261400Z 16015KT 9999 SCT023 BKN200 28/22 Q1010 A2984 HR72@CAELT@AC NOSIG=@CAELT@METAR SLAS 261400Z 18012KT 8000 TS VCSH BKN013 FEW030CB 24/23 Q1010A2984 HR91 CB/TS/SH N/NE/S RWY NML=METAR SLJV 261400Z 19005KT 9999 OVC010 24/23 Q1008 A2977 HR96 RWY HUMOPR=METAR SLCP 261400Z 18008KT 9999 OVC015 25/24 Q1011 A2985 HR92 RWY WETMETAR SLSI 261400Z 18005KT 9999 FEW017 BKN200 29/24 Q1008 A2977 HR72RWY NML=METAR SLTI 261400Z 00000KT 9999 SCT017 BKN200 31/25 Q1011 A2985 HR70METAR SLJE 261400Z 00000KT 9999 NSC 30/23 Q1011 A2985 HR66 CI RWY NMLMETAR SLVG 261400Z 00000KT 9999 SCT017 OVC070 17/14 Q1024 A3024 HR76RWY WET OPR=METAR SLRB 261400Z 00000KT 9999 NSC 28/24 Q1012 A2988 HR80 RWY NML=METAR SLCA 261400Z 00000KT 8000 -RA BKN013 OVC070 21/20 Q1017 A3003HR95 RWY WET INOP=
ZPX0287 261359@CAELT@GG SLZZYMYT@CAELT@261359 SLCBYGYS@CAELT@SABO SLCB 261400@CAELT@METAR SLCB 261400Z 13007KT 6000 -RA FEW010 SCT023 OVC070 16/13 Q1024@CAELT@A3024 750.6 HR82 VIS RED W/NW/N/NE FU NOSIG=@CAELT@METAR SLAL 261400Z 18008KT 4000S VCFG FEW002 BKN007 OVC070 10/09@CAELT@Q1030 A3041 704.3 HR94 VCFG/S/SW ST BAJOS/E/SE/W=@CAELT@METAR SLTJ 261400Z 00000KT 9999 -RA SCT010 BKN018 OVC070 17/16 Q1022A3019 817.0 HR95 ST BAJOS SE/S/SW/W=
ZPX0289 261400@CAELT@GG SLZZYMYT@CAELT@261359 SLSBYSYX@CAELT@SABO SLSB 261400 CCA@CAELT@METAR SLSB 261400Z 12010KT 7000 -TSRA BKN005 FEW023CB OVC070 24/24@CAELT@Q1008 A2977 HR98 CBTS/W/NW RWY WET INOP=@CAELT@
ZPX0290 261401@CAELT@GG SLZZYMYT@CAELT@261358 SLLPYFYA@CAELT@SABO SLRY 261400@CAELT@METAR SLRY 261400Z 14010KT 5000 TS VCSH BKN015 FEW023CB OVC070@CAELT@26/24 Q1004 A2966 HR85 CB/TS/SH E/NE/SE RWY NML=@CAELT@
ZPX0293 261403@CAELT@GG SLZZYMYT@CAELT@261401 SLLPYFYA@CAELT@SABO SLLP 261400@CAELT@METAR SLLP 261400Z 10005KT 050V140 9999 FEW004 SCT015 FEW017CB@CAELT@BKN070 09/06 Q1035 A3057 626.0 HR78 P4755 CB/SH DIST/N/NE NOSIG=@CAELT@METAR SLCO 261400Z 22004KT 6000 -RA FEW005 FEW023CB BKN080 26/25@CAELT@Q1006 A2973 979.6 HR95 CB/SE/S=@CAELT@METAR SLRY 261400Z 14010KT 5000 TS VCSH BKN015 FEW023CB OVC07026/24 Q1004 A2966 HR85 CB/TS/SH E/NE/SE RWY NML=METAR SLRQ 261400Z 22010KT 5000 VCSH SCT013 FEW020CB BKN200 27/23Q1005 A2970 981.7 HR78 CB/SH N/S/SW/W/NW=METAR SLSB 261400Z 12010KT 7000 -TSRA BKN005 FEW023CB OVC070 24/24Q1008 A2977 HR98 CBTS/W/NW RWY WET INOP=METAR SLOR 261400Z 19005KT 9999 SCT017 FEW020CB BKN070 13/05 Q1032A3049 654.3 HR58 CB/DIST E CI=
ZPX0313 261450@CAELT@GG SLZZYMYT@CAELT@261450 SLRBYGYS@CAELT@SABO SLRB 261500@CAELT@METAR SLRB 261500Z 00000KT 9999 NSC 30/25 Q1011 A2985 HR73 RWY NML=@CAELT@
ZPX0315 261453@CAELT@GG SLZZYMYT@CAELT@261453 SLCAYGYS@CAELT@SABO SLCA 261500@CAELT@METAR SLCA 261500Z 00000KT 9999 BKN013 OVC070 22/20 Q1017 A3003 HR91@CAELT@SH S/SW/SE RERA RWY WET INOP=@CAELT@
ZPX0316 261454@CAELT@GG SLZZYMYT@CAELT@261453 SLETYMYC@CAELT@SABO SLET 261500@CAELT@METAR SLET 261500Z 14015KT 9999 SCT020 BKN200 29/22 Q1010 A2983 HR66@CAELT@AC NOSIG=@CAELT@
ZPX0318 261455@CAELT@GG SLZZYMYT@CAELT@261456 SLVRYGYZ@CAELT@SABO SLVR 261500@CAELT@METAR SLVR 261500Z 17013G23KT 9999 FEW023 SCT070 BKN200 29/23 Q1010@CAELT@A2982 HR70 NOSIG=@CAELT@
ZPX0319 261456@CAELT@GG SLZZYMYT@CAELT@261455 SLCOYGYZ@CAELT@SABO SLCO 261500@CAELT@METAR SLCO 261500Z 30004KT 4000 -RA FEW005 FEW023CB BKN080 25/25@CAELT@Q1007 A2974 979.9 HR98 CB/E=@CAELT@
ZPX0320 261456@CAELT@GG SLZZYMYT@CAELT@261455 SLSAYGYS@CAELT@SABO SLSA 261500@CAELT@METAR SLSA 261500Z 17014KT 2000 TSRA BKN005 BKN015 FEW020CB OVC070 22@CAELT@/22 Q1006 A2972 HR98 CB S/SW/W/NW TS W=@CAELT@
ZPX0321 261456@CAELT@GG SLZZYMYT@CAELT@261455 SLTJYGYZ@CAELT@SABO SLTJ 261500@CAELT@METAR SLTJ 261500Z 00000KT 9999 SCT010 BKN018 OVC070 18/16 Q1021 3017@CAELT@816.4 HR88 SH/SW ST BAJOS TODAS DIRECC=@CAELT@
ZPX0322 261456@CAELT@GG SLZZYMYT@CAELT@261455 SLCBYGYZ@CAELT@SABO SLCB 261500@CAELT@METAR SLCB 261500Z 11006KT 8000 -RA FEW008 SCT023 OVC070 16/12 Q1024@CAELT@A3024 750.6 HR78 NOSIG=@CAELT@
ZPX0323 261456@CAELT@GG SLZZYMYT@CAELT@261456 SLTRYGYZ@CAELT@SABO SLTR 261500@CAELT@METAR SLTR 261500Z 15010KT 2000 RA BKN005 FEW020CB BKN070 24/24 Q1005@CAELT@A2975 989.0 HR98 CB NW TEMPO 5000=@CAELT@
ZPX0326 261457@CAELT@GG SLZZYMYT@CAELT@261457 SLLPYGYZ@CAELT@SABO SLLP 261500@CAELT@METAR SLLP 261500Z 10007KT 060V140 9999 FEW006 SCT015 FEW017CB@CAELT@BKN070 10/06 Q1035 A3057 626.0 HR74 P4755 CB/SH NE/S CI NOSIG=@CAELT@
ZPX0327 261458@CAELT@GG SLZZYMYT@CAELT@261456 SLSBYSYX@CAELT@SABO SLSB 251500@CAELT@METAR SLSB 251500Z 12006KT 5000 -TSRA BKN005 FEW023CB OVC070 24/24@CAELT@Q1008 A2979 HR98 CBTS/W/NW RWY WET INOP=@CAELT@
ZPX0329 261458@CAELT@GG SLZZYMYT@CAELT@261458 SLTRYGYS@CAELT@SABO SLTR 261500@CAELT@METAR SLTR 261500Z 15010KT 2000 RA BKN005 FEW020CB BKN070 24/24 Q1005@CAELT@A2975 989.0 HR98 CB NW TEMPO 5000=@CAELT@METAR SLGM 261500Z NIL=@CAELT@METAR SLRI 261500Z 00000KT 3000 -RA SCT004 BKN015 FEW20CB OVC070@CAELT@24/23 Q1007 A2978 HR98 CB SE/S/SW/W=METAR SLJO 261500Z 32006KT 8000 VCSH SCT017 FEW023CB SCT080 BKN20030/26 Q1010 A2983 HR80 CB/SH E/SE/SW RWY NML=METAR SLRA 261500Z 34005KT 9999 SCT015 FEW020CB SCT070 OVC200 29/26Q1005 A2968 HR81 CB SW/W RWY HUM OPR=METAR SLMG 261500Z 34006KT 9999 SCT015 BKN080 BKN200 28/25 Q1005A2970 HR85 RWY NML=METAR SLBU 261500Z NIL=METAR SLSR 261500Z 12010KT 5000 -TSRA BKN010 FEW020CB OVC070 24/24Q1007 A2974 HR98 CB E/SE/S RWY WET INOP=METAR SLSM 261500Z 00000KT 6000 VCSH BKN008 FEW023CB OVC070 23/23Q1008 A2977 HR98 RERA CB/SH N/NW RWY WET INOP=
ZPX0330 261459@CAELT@GG SLZZYMYT@CAELT@261458 SLSBYSYX@CAELT@SABO SLSB 261500 CCA@CAELT@METAR SLSB 261500Z 12006KT 5000 -TSRA BKN005 FEW023CB OVC070 24/24@CAELT@Q1008 A2979 HR98 CBTS/W/NW RWY WET INOP=@CAELT@
ZPX0331 261459@CAELT@GG SLZZYMYT@CAELT@261459 SLCBYGYS@CAELT@SABO SLCB 261500@CAELT@METAR SLCB 261500Z 11006KT 8000 -RA FEW008 SCT023 OVC070 16/12 Q1024@CAELT@A3024 750.6 HR78 NOSIG=@CAELT@METAR SLAL 261500Z 17010KT 9999 FEW005 BKN010 BKN070 11/08 Q1029@CAELT@A3040 703.9 HR57 ST BAJOS/S/SW=@CAELT@METAR SLTJ 261500Z 00000KT 9999 SCT010 BKN018 OVC070 18/16 Q1021 3017816.4 HR88 SH/SW ST BAJOS TODAS DIRECC=
ZPX0333 261501@CAELT@GG SLZZYMYT@CAELT@261501 SLLPYFYA@CAELT@SABO SLLP 261500@CAELT@METAR SLLP 261500Z 10007KT 060V140 9999 FEW006 SCT015 FEW017CB@CAELT@BKN070 10/06 Q1035 A3057 626.0 HR74 P4755 CB/SH NE/S CI NOSIG=@CAELT@METAR SLCO 261500Z 30004KT 4000 -RA FEW005 FEW023CB BKN080 25/25@CAELT@Q1007 A2974 979.9 HR98 CB/E=@CAELT@METAR SLRY 261500Z 12004KT 2000 -TSRA BKN005 BKN012 FEW023CBOVC070 23/23 Q1005 A2969 HR98 CB TS N NW RWY WET INOP=METAR SLRQ 261500Z 14016KT 9999 BKN013 FEW017CB OVC070 25/24Q1008 A2976 983.9 HR90 CB S/W/NE=METAR SLSB 261500Z 12006KT 5000 -TSRA BKN005 FEW023CB OVC07024/24 Q1008 A2979 HR98 CBTS/W/NW RWY WET INOP=
ZPX0334 261502@CAELT@GG SLZZYMYT@CAELT@261502 SLVRYFYC@CAELT@SABO SLVR 261500@CAELT@METAR SLVR 261500Z 17013G23KT 9999 FEW023 SCT070 BKN200 29/23 Q1010@CAELT@A2982 HR70 NOSIG=@CAELT@METAR SLET 261500Z 14015KT 9999 SCT020 BKN200 29/22 Q1010 A2983 HR66@CAELT@AC NOSIG=@CAELT@METAR SLAS 261500Z 00000KT 9999 SCT015 FEW030CB OVC200 25/23 Q1010A2983 HR95 CB/SH/SW/W RWY NML=METAR SLJV 261500Z 19005KT 9999 OVC012 26/24 Q1008 A2977 HR91 RWY HUMOPR=METAR SLCP 261500Z 18008KT 9999 BKN015 OVC070 27/24 Q1011 A2985 HR86RWY HUM OPR=METAR SLSI 261500Z 18006KT 9999 SCT017 BKN200 31/24 Q1008 A2977 HR65RWY NML=METAR SLTI 261500Z 00000KT 9999 BKN017 32/25 Q1011 A2985 HR67 RWY NMLMETAR SLJE 261500Z 18006KT 9999 NSC 32/24 Q1011 A2985 HR57 CI RWY NMLMETAR SLVG 261500Z 00000KT 7000 -RA BKN017 OVC070 15/14 Q1024 A3024HR90 RWY WET OPR=METAR SLRB 261500Z 00000KT 9999 NSC 30/25 Q1011 A2985 HR73 RWY NML=METAR SLCA 261500Z 00000KT 9999 BKN013 OVC070 22/20 Q1017 A3003 HR91SH S/SW/SE RERA RWY WET INOP=
ZPX0354 261550@CAELT@GG SLZZYMYT@CAELT@261550 SLRBYGYS@CAELT@SABO SLRB 261600@CAELT@METAR SLRB 261600Z 00000KT 9999 NSC 31/24 Q1010 A2983 HR67 RWY NML=@CAELT@
ZPX0355 261553@CAELT@GG SLZZYMYT@CAELT@261553 SLCAYGYS@CAELT@SABO SLCA 261600@CAELT@METAR SLCA 261600Z 00000KT 8000 VCSH BKN013 OVC070 22/21 Q1016 A3000@CAELT@HR91 SH TODAS DIRECC RWY WET INOP=@CAELT@
ZPX0356 261554@CAELT@GG SLZZYMYT@CAELT@261555 SLCOYGYZ@CAELT@SABO SLCO 261600@CAELT@METAR SLCO 261600Z 30003KT 7000 -RA SCT005 BKN080 26/25 Q1007 A2974@CAELT@979.7 HR96=@CAELT@
ZPX0357 261555@CAELT@GG SLZZYMYT@CAELT@261554 SLETYMYC@CAELT@SABO SLET 261600@CAELT@METAR SLET 261600Z 15014G26KT 9999 SCT020 BKN200 30/23 Q1009 A2981@CAELT@HR65 AC NOSIG=@CAELT@
ZPX0358 261555@CAELT@GG SLZZYMYT@CAELT@261554 SLSAYGYS@CAELT@SABO SLSA 261600@CAELT@METAR SLSA 261600Z 16008KT 8000 -TSRA BKN005 BKN015 FEW020CB OVC070@CAELT@23/23 Q1006 A2971 HR98 CB SW/W/NW TS W/NW=@CAELT@
ZPX0359 261555@CAELT@GG SLZZYMYT@CAELT@261555 SLVRYGYZ@CAELT@SABO SLVR 261600@CAELT@METAR SLVR 261600Z 17013G23KT 9999 SCT020 BKN200 29/23 Q1009 A2981@CAELT@HR68 AC NOSIG=@CAELT@
ZPX0361 261556@CAELT@GG SLZZYMYT@CAELT@261557 SLLPYGYZ@CAELT@SABO SLLP 261600@CAELT@METAR SLLP 261600Z 12009KT 9999 FEW010 SCT015 FEW017CB BKN070@CAELT@10/06 Q1034 A3054 625.4 HR74 P0784 CB/SH N/SW/W CI NOSIG=@CAELT@
ZPX0362 261556@CAELT@GG SLZZYMYT@CAELT@261556 SLTRYGYZ@CAELT@SABO SLTR 261600@CAELT@METAR SLTR 261600Z 14011KT 7000 VCSH BKN005 FEW020CB BKN070 27/24@CAELT@Q1006 A2974 988.5 HR86 CB/SH N/NE/E TEMPO RA=@CAELT@
ZPX0363 261557@CAELT@GG SLZZYMYT@CAELT@261557 SLTJYGYZ@CAELT@SABO SLTJ 261600@CAELT@METAR SLTJ 261600Z 13004KT 9999 SCT010 BKN018 BKN070 19/16 Q1021@CAELT@A3015 815.7 HR83 ST BAJOS TODAS DIRECC=@CAELT@
ZPX0364 261557@CAELT@GG SLZZYMYT@CAELT@261558 SLVRYFYC@CAELT@SABO SLVR 261600@CAELT@METAR SLVR 261600Z 17013G23KT 9999 SCT020 BKN200 29/23 Q1009 A2981@CAELT@HR68 AC NOSIG=@CAELT@METAR SLET 261600Z 15014G26KT 9999 SCT020 BKN200 30/23 Q1009 A2981@CAELT@HR65 AC NOSIG=@CAELT@METAR SLAS 261600Z 18010KT 9999 SCT020 OVC200 26/23 Q1009 A2980 HR85RWY NML=METAR SLCP 261600Z 18008KT 9999 SCT017 BKN070 29/24 Q1010 A2983 HR74RWY HUM OPR=METAR SLSI 261600Z 18006KT 9999 SCT017 BKN200 32/23 Q1006 A2974 HR60METAR SLJE 261600Z 18006KT 9999 FEW017 OVC200 32/24 Q1011 A2985 HR57METAR SLRB 261600Z 00000KT 9999 NSC 31/24 Q1010 A2983 HR67 RWY NML=METAR SLCA 261600Z 00000KT 8000 VCSH BKN013 OVC070 22/21 Q1016 A3000HR91 SH TODAS DIRECC RWY WET INOP=
ZPX0365 261557@CAELT@GG SLZZYMYT@CAELT@261557 SLCBYGYZ@CAELT@SABO SLCB 261600@CAELT@METAR SLCB 261600Z 14008KT 8000 -RA FEW008 SCT023 OVC070 18/11 Q1023@CAELT@A3021 749.9 HR65 NOSIG=@CAELT@
ZPX0366 261558@CAELT@GG SLZZYMYT@CAELT@261556 SLSBYSYX@CAELT@SABO SLSB 261600@CAELT@METAR SLSB 261600Z 12004KT 5000 -RA BKN005 FEW023CB OVC070 24/24@CAELT@Q1008 A2979 HR98 CB/NW RWY WET INOP=@CAELT@
ZPX0367 261558@CAELT@GG SLZZYMYT@CAELT@261558 SLTRYGYS@CAELT@SABO SLTR 261600@CAELT@METAR SLTR 261600Z 14011KT 7000 VCSH BKN005 FEW020CB BKN070 27/24@CAELT@Q1006 A2974 988.5 HR86 CB/SH N/NE/E TEMPO RA=@CAELT@METAR SLGM 261600Z NIL=@CAELT@METAR SLRI 261600Z 22006KT 3000 -RA SCT004 BKN015 FEW020CB OVC070 23/@CAELT@23 Q1007 A2974 HR98 CB S/SW/W=METAR SLJO 261600Z 27008KT 7000 TS VCSH SCT015 FEW023CB BKN070 OV20030/26 Q1008 A2977 HR76 CB/SH E/SE/S/SW TS S/SW RWY NML=METAR SLRA 261600Z 24004KT 5000 -TSRA SCT015 FEW020CB BKN070 OVC20027/26 Q1004 A2967 HR92 CB E/SE/S/SW TS E/SE RWY OPR C206=METAR SLMG 261600Z 32004KT 6000 -TSRA SCT012 FEW023CB OVC070 23/23Q1006 A2971 HR98 CB/TS S/SW/W RWY WET OPR C210=METAR SLBU 261600Z NIL=METAR SLSA 261600Z 16008KT 8000 -TSRA BKN005 BKN015 FEW020CB OVC07023/23 Q1006 A2971 HR98 CB SW/W/NW TS W/NW=METAR SLSR 261600Z 12010KT 8000 -RA BKN008 FEW020CB OVC070 24/23Q1007 A2974 HR96 RETS CB/NE/E/SE RWY WET INOP=METAR SLSM 261600Z 15006KT -RA BKN008 FEW023CB OVC070 24/24 Q1007A2975 HR98 CB N/SE/NW RWY WET INOP=
ZPX0369 261558@CAELT@GG SLZZYMYT@CAELT@261558 SLCBYGYS@CAELT@SABO SLCB 261600@CAELT@METAR SLCB 261600Z 14008KT 8000 -RA FEW008 SCT023 OVC070 18/11 Q1023@CAELT@A3021 749.9 HR65 NOSIG=@CAELT@METAR SLAL 261600Z 18006KT 9999 FEW010 BKN013 BKN070 12/09 Q1028@CAELT@A3038 703.4 HR78=@CAELT@METAR SLTJ 261600Z 13004KT 9999 SCT010 BKN018 BKN070 19/16 Q1021A3015 815.7 HR83 ST BAJOS TODAS DIRECC=
ZPX0371 261602@CAELT@GG SLZZYMYT@CAELT@261559 SLLPYFYA@CAELT@SABO SLRY 261600@CAELT@METAR SLRY 261600Z 00000KT 3000 -RA SCT005 BKN012 OVC070@CAELT@23/23 Q1006 A2971 HR98 RETS RWY WET INOP=@CAELT@
ZPX0374 261603@CAELT@GG SLZZYMYT@CAELT@261601 SLLPYFYA@CAELT@SABO SLLP 261600@CAELT@METAR SLLP 261600Z 12009KT 9999 FEW010 SCT015 FEW017CB BKN070@CAELT@10/06 Q1034 A3054 625.4 HR74 P0784 CB/SH N/SW/W CI NOSIG=@CAELT@METAR SLCO 261600Z 30003KT 7000 -RA SCT005 BKN080 26/25 Q1007@CAELT@A2974 979.7 HR96=@CAELT@METAR SLRY 261600Z 00000KT 3000 -RA SCT005 BKN012 OVC07023/23 Q1006 A2971 HR98 RETS RWY WET INOP=METAR SLRQ 261600Z 09004KT 6000 -TSRA BKN017 FEW020CB OVC070 24/24Q1007 A2976 HR98 CB/TS/SE/S/SW/W=METAR SLSB 261600Z 12004KT 5000 -RA BKN005 FEW023CB OVC070 24/24Q1008 A2979 HR98 CB/NW RWY WET INOP=
ZPX0389 261624@CAELT@GG SLZZYMYT@CAELT@261623 SLTRYGYS@CAELT@SABO SLTR 261600 CCA@CAELT@METAR SLTR 261600Z 14011KT 7000 VCSH BKN005 FEW020CB BKN070 27/24@CAELT@Q1006 A2974 988.5 HR86 CB/SH N/NE/E TEMPO RA=@CAELT@METAR SLGM 261600Z NIL=@CAELT@METAR SLRI 261600Z 22006KT 3000 -RA SCT004 BKN015 FEW020CB OVC070@CAELT@23/23 Q1007 A2974 HR98 CB S/SW/W=METAR SLJO 261600Z 27008KT 7000 TS VCSH SCT015 FEW023CB BKN070 OV20030/26 Q1008 A2977 HR76 CB/SH E/SE/S/SW TS S/SW RWY NML=METAR SLRA 261600Z 24004KT 5000 -TSRA SCT015 FEW020CB BKN070 OVC20027/26 Q1004 A2967 HR92 CB E/SE/S/SW TS E/SE RWY OPR C206=METAR SLMG 261600Z 32004KT 6000 -TSRA SCT012 FEW023CB OVC070 23/23Q1006 A2971 HR98 CB/TS S/SW/W RWY WET OPR C210=METAR SLBU 261600Z NIL=METAR SLSA 261600Z 16008KT 8000 -TSRA BKN005 BKN015 FEW020CB OVC07023/23 Q1006 A2971 HR98 CB SW/W/NW TS W/NW=METAR SLSR 261600Z 12010KT 8000 -RA BKN008 FEW020CB OVC070 24/23Q1007 A2974 HR96 RETS CB/NE/E/SE RWY WET INOP=METAR COR SLSM 261600Z 15006KT 4000 -RA BKN008 FEW023CB OVC070 24/24Q1007 A2975 HR98 CB N/SE/NW RWY WET INOP=
ZPX0400 261650@CAELT@GG SLZZYMYT@CAELT@261650 SLCAYGYS@CAELT@SABO SLCA 261700@CAELT@METAR SLCA 261700Z 00000KT 9999 BKN017 OVC070 23/20 Q1015 A2997 HR88@CAELT@RWY WET INOP=@CAELT@
ZPX0401 261651@CAELT@GG SLZZYMYT@CAELT@261650 SLRBYGYS@CAELT@SABO SLRB 261700@CAELT@METAR SLRB 261700Z 00000KT 9999 NSC 32/24 Q1010 A2983 HR62 RWY NML=@CAELT@
ZPX0403 261654@CAELT@GG SLZZYMYT@CAELT@261653 SLSBYSYX@CAELT@SABO SLSB 261700@CAELT@METAR SLSB 261700Z 12004KT 8000 -RA SCT005 OVC070 24/24 Q1008 A2979@CAELT@HR98 RWY WET INOP=@CAELT@
ZPX0404 261654@CAELT@GG SLZZYMYT@CAELT@261655 SLLPYFYA@CAELT@SABO SLRY 261700@CAELT@METAR SLRY 261700Z 16003KT 4000 -RA BKN005 BKN012 OVC070@CAELT@24/24 Q1005 A2970 HR98 RWY WET INOP=@CAELT@
ZPX0407 261654@CAELT@GG SLZZYMYT@CAELT@261654 SLCBYGYZ@CAELT@SABO SLCB 261700@CAELT@METAR SLCB 261700Z 14007KT 9999 FEW008 SCT023 OVC070 18/11 Q1022@CAELT@A3019 749.4 HR60 NOSIG=@CAELT@
ZPX0408 261654@CAELT@GG SLZZYMYT@CAELT@261654 SLETYMYC@CAELT@SABO SLET 261700@CAELT@METAR SLET 261700Z 16012G24KT 9999 FEW020 FEW027TCU BKN200 30/22@CAELT@Q1008 A2979 HR65 TCU SW AC NOSIG=@CAELT@
ZPX0409 261656@CAELT@GG SLZZYMYT@CAELT@261656 SLTRYGYZ@CAELT@SABO SLTR 261700@CAELT@METAR SLTR 261700Z 13010KT 9999 BKN010 FEW020CB BKN070 27/24 Q1006@CAELT@A2971 987.8 HR83 CB NE/E NOSIG=@CAELT@
ZPX0410 261656@CAELT@GG SLZZYMYT@CAELT@261656 SLTJYGYZ@CAELT@SABO SLTJ 261700@CAELT@METAR SLTJ 261700Z 17004KT 9999 SCT020 BKN070 20/16 Q1019 A3012 814.8@CAELT@HR74=@CAELT@
ZPX0411 261656@CAELT@GG SLZZYMYT@CAELT@261655 SLSAYGYS@CAELT@SABO SLSA 261700@CAELT@METAR SLSA 261700Z 16006KT 8000 VCSH SCT006 BKN015 FEW020CB OVC070 24@CAELT@/24 Q1006 A2970 HR98 RETSRA CB/SH NE/E=@CAELT@
ZPX0412 261657@CAELT@GG SLZZYMYT@CAELT@261657 SLVRYGYZ@CAELT@SABO SLVR 261700@CAELT@METAR SLVR 261700Z 17014KT 9999 SCT020 FEW027TCU BKN200 30/23 Q1008@CAELT@A2979 HR65 TCU SW AC NOSIG=@CAELT@
ZPX0413 261657@CAELT@GG SLZZYMYT@CAELT@261657 SLLPYGYZ@CAELT@SABO SLLP 261700@CAELT@METAR SLLP 261700Z 12012KT 9999 FEW010 SCT017 FEW020CB BKN070@CAELT@11/06 Q1033 A3051 624.8 HR71 P4754 CB/SH N/NE/W CI NOSIG=@CAELT@
ZPX0414 261658@CAELT@GG SLZZYMYT@CAELT@261658 SLVRYFYC@CAELT@SABO SLVR 261700@CAELT@METAR SLVR 261700Z 17014KT 9999 SCT020 FEW027TCU BKN200 30/23 Q1008@CAELT@A2979 HR65 TCU SW AC NOSIG=@CAELT@METAR SLET 261700Z 16012G24KT 9999 FEW020 FEW027TCU BKN200 30/22@CAELT@Q1008 A2979 HR65 TCU SW AC NOSIG=@CAELT@METAR SLAS 261700Z 18010KT 9999 NSC 27/23 Q1009 A2980 HR77 RWY NML=METAR SLCP 261700Z 18010KT 9999 SCT017 BKN200 30/23 Q1010 A2983 HR68RWY NML=METAR SLSI 261700Z 18005KT 9999 SCT017 BKN200 33/22 Q1005 A2968 HR55METAR SLRB 261700Z 00000KT 9999 NSC 32/24 Q1010 A2983 HR62 RWY NML=METAR SLCA 261700Z 00000KT 9999 BKN017 OVC070 23/20 Q1015 A2997 HR88RWY WET INOP=
ZPX0417 261700@CAELT@GG SLZZYMYT@CAELT@261700 SLLPYFYA@CAELT@SABO SLLP 261700@CAELT@METAR SLLP 261700Z 12012KT 9999 FEW010 SCT017 FEW020CB BKN070@CAELT@11/06 Q1033 A3051 624.8 HR71 P4754 CB/SH N/NE/W CI NOSIG=@CAELT@METAR SLRY 261700Z 16003KT 4000 -RA BKN005 BKN012 OVC070@CAELT@24/24 Q1005 A2970 HR98 RWY WET INOP=@CAELT@METAR SLRQ 261700Z 12003KT 8000 -RA SCT017 OVC070 25/24 Q1007A2975 HR96 RETS=METAR SLSB 261700Z 12004KT 8000 -RA SCT005 OVC070 24/24 Q1008A2979 HR98 RWY WET INOP=
ZPX0418 261700@CAELT@GG SLZZYMYT@CAELT@261700 SLTRYGYS@CAELT@SABO SLTR 261700@CAELT@METAR SLTR 261700Z 13010KT 9999 BKN010 FEW020CB BKN070 27/24 Q1006@CAELT@A2971 987.8 HR83 CB NE/E NOSIG=@CAELT@METAR SLGM 261700Z NIL=@CAELT@METAR SLRI 261700Z 27006KT 5000 -RA SCT004 BKN015 FEW020CB OVC070@CAELT@24/23 Q1006 A2973 HR98 CB SE/SW/E=METAR SLJO 261700Z 18010KT 5000 TS VCSH BKN010 FEW020CB OVC070 29/26Q1006 A2973 HR86 CB/SH NE/E/SE/S/SW TS S/SW RWY NML=METAR SLRA 261700Z 12010KT 5000 -TSRA SCT005 FEW020CB OVC070 23/23Q1006 A2971 HR100 CB/TS E/SE/S/SW/W/NW RWY WET OPR C206=METAR SLMG 261700Z 16004KT 6000 -TSRA SCT012 FEW023CB OVC070 23/22Q1006 A2971 HR97 CB/TS S/NW RWY WET OPR C210=METAR SLBU 261700Z NIL=METAR SLSA 261700Z 16006KT 8000 VCSH SCT006 BKN015 FEW020CB OVC07024/24 Q1006 A2970 HR98 RETSRA CB/SH NE/E=METAR SLSR 261700Z 12010KT 8000 -RA BKN008 FEW020CB OVC070 24/23Q1007 A2974 HR96 CB N/E/E/SW RWY WET INOP=METAR SLSM 261700Z 15010KT 9999 BKN008 FEW023CB OVC070 25/24 Q1007A2974 HR92 RERA CB N/NW RWY WET INOP=
ZPX0420 261702@CAELT@GG SLZZYMYT@CAELT@261702 SLCBYGYS@CAELT@SABO SLCB 261700@CAELT@METAR SLCB 261700Z 14007KT 9999 FEW008 SCT023 OVC070 18/11 Q1022@CAELT@A3019 749.4 HR60 NOSIG=@CAELT@METAR SLAL 261700Z NIL=@CAELT@METAR SLTJ 261700Z 17004KT 9999 SCT020 BKN070 20/16 Q1019 A3012 814.8@CAELT@HR74=
ZPX0439 261749@CAELT@GG SLZZYMYT@CAELT@261750 SLRBYGYS@CAELT@SABO SLRB 261800@CAELT@METAR SLRB 261800Z 00000KT 9999 NSC 33/24 Q1009 A2980 HR57 RWY NML=@CAELT@
ZPX0440 261751@CAELT@GG SLZZYMYT@CAELT@261751 SLCAYGYS@CAELT@SABO SLCA 261800@CAELT@METAR SLCA 261800Z 00000KT 9999 BKN023 BKN080 25/20 Q1014 A2994 HR76@CAELT@RWY WET INOP=@CAELT@
ZPX0441 261753@CAELT@GG SLZZYMYT@CAELT@261753 SLETYMYC@CAELT@SABO SLET 261800@CAELT@METAR SLET 261800Z 16012G22KT 9999 SCT020 FEW027TCU BKN200 30/22@CAELT@Q1008 A2977 HR65 TCU W NOSIG=@CAELT@
ZPX0443 261754@CAELT@GG SLZZYMYT@CAELT@261754 SLSBYSYX@CAELT@SABO SLSB 261800@CAELT@METAR SLSB 261800Z 17004KT 8000 -RA BKN005 OVC070 25/24 Q1007 A2975@CAELT@HR96 RWY WET INOP=@CAELT@
ZPX0444 261755@CAELT@GG SLZZYMYT@CAELT@261756 SLVRYGYZ@CAELT@SABO SLVR 261800@CAELT@METAR SLVR 261800Z 17012KT 9999 FEW020 FEW030CB BKN200 31/23 Q1008@CAELT@A2977 HR64 CB SW/W NOSIG=@CAELT@
ZPX0446 261756@CAELT@GG SLZZYMYT@CAELT@261756 SLTRYGYZ@CAELT@SABO SLTR 261800@CAELT@METAR SLTR 261800Z 14008KT 8000 VCSH SCT010 FEW020CB OVC070 26/23@CAELT@Q1005 A2970 987.4 HR85 CB N/S SH S TEMPO RA=@CAELT@
ZPX0447 261757@CAELT@GG SLZZYMYT@CAELT@261757 SLLPYGYZ@CAELT@SABO SLLP 261800@CAELT@METAR SLLP 261800Z 09008KT 9999 FEW010 SCT017 FEW020CB BKN070@CAELT@11/06 Q1032 A3049 624.3 HR71 P6784 CB/SH NE/E/SW CI NOSIG=@CAELT@
ZPX0448 261757@CAELT@GG SLZZYMYT@CAELT@261757 SLTJYGYZ@CAELT@SABO SLTJ 261800@CAELT@METAR SLTJ 1261800Z 22004KT 9999 SCT027 SCT070 23/15 Q1018 A3008 813.@CAELT@8 HR61=@CAELT@
ZPX0449 261759@CAELT@GG SLZZYMYT@CAELT@261758 SLLPYFYA@CAELT@SABO SLRY 261800@CAELT@METAR SLRY 261800Z 14005KT 7000 VCSH SCT006 BKN013 OVC070@CAELT@25/23 Q1005 A2969 HR92 SH N/W/NW RERA RWY WET INOP=@CAELT@
ZPX0451 261800@CAELT@GG SLZZYMYT@CAELT@261801 SLVRYFYC@CAELT@SABO SLVR 261800@CAELT@METAR SLVR 261800Z 17012KT 9999 FEW020 FEW030CB BKN200 31/23 Q1008@CAELT@A2977 HR64 CB SW/W NOSIG=@CAELT@METAR SLET 261800Z 16012G22KT 9999 SCT020 FEW027TCU BKN200 30/22@CAELT@Q1008 A2977 HR65 TCU W NOSIG=@CAELT@METAR SLAS 261800Z 18005KT 9999 NSC 30/24 Q1007 A2974 HR70 RWY NML=METAR SLJV 261800Z 19010KT 9999 BKN013 BKN200 29/24 Q1006 A2971 HR72RWY NML=METAR SLCP 261800Z 18010KT 9999 SCT020 BKN200 31/24 Q1009 A2980 HR68METAR SLSI 261800Z 18005KT 9999 SCT017 BKN200 33/22 Q1005 A2968 HR51METAR SLTI 261800Z 00000KT 8000 TS VCSH BKN017 FEW030CB BKN200 28/25Q1009 A2980 HR85 CB/TS/SH/SW/W/NW RWY HUM OPR=METAR SLJE 261800Z 18005KT 9999 SCT017 OVC200 34/23 Q1009 A2980 HR54METAR SLVG 261800Z 00000KT 6000 VCSH BKN017 OVC070 17/14 Q1022 A3018HR86 SH NW/W/S/SE RWY WET OPR=METAR SLRB 261800Z 00000KT 9999 NSC 33/24 Q1009 A2980 HR57 RWY NML=METAR SLCA 261800Z 00000KT 9999 BKN023 BKN080 25/20 Q1014 A2994 HR76RWY WET INOP=
ZPX0452 261801@CAELT@GG SLZZYMYT@CAELT@261801 SLCBYGYZ@CAELT@SABO SLCB 261800@CAELT@METAR SLCB 261800Z 31010KT 9999 SCT020 FEW025TCU OVC070 19/12 Q1021@CAELT@A3016 748.6 HR64 TCU E/SW NOSIG=@CAELT@
ZPX0453 261801@CAELT@GG SLZZYMYT@CAELT@261801 SLLPYFYA@CAELT@SABO SLLP 261800@CAELT@METAR SLLP 261800Z 09008KT 9999 FEW010 SCT017 FEW020CB BKN070@CAELT@11/06 Q1032 A3049 624.3 HR71 P6784 CB/SH NE/E/SW CI NOSIG=@CAELT@METAR SLCO 261800Z NIL=@CAELT@METAR SLRY 261800Z 14005KT 7000 VCSH SCT006 BKN013 OVC070@CAELT@25/23 Q1005 A2969 HR92 SH N/W/NW RERA RWY WET INOP=METAR SLRQ 261800Z 00000KT 9999 FEW008 SCT020 OVC070 26/24 Q1006A2973 982.7 HR92 RERA=METAR SLSB 261800Z 17004KT 8000 -RA BKN005 OVC070 25/24 Q1007A2975 HR96 RWY WET INOP=
ZPX0454 261802@CAELT@GG SLZZYMYT@CAELT@261802 SLCBYGYS@CAELT@SABO SLCB 261800@CAELT@METAR SLCB 261800Z 31010KT 9999 SCT020 FEW025TCU OVC070 19/12 Q1021@CAELT@A3016 748.6 HR64 TCU E/SW NOSIG=@CAELT@METAR SLTJ 1261800Z 22004KT 9999 SCT027 SCT070 23/15 Q1018 A3008@CAELT@813.8 HR61=@CAELT@
ZPX0456 261804@CAELT@GG SLZZYMYT@CAELT@261800 SLTRYGYS@CAELT@SABO SLTR 261800@CAELT@METAR SLTR 261800Z 14008KT 8000 VCSH SCT010 FEW020CB OVC070 26/23@CAELT@Q1005 A2970 987.4 HR85 CB N/S SH S TEMPO RA=@CAELT@METAR SLGM 261800Z NIL=@CAELT@METAR SLRI 261800Z 30006KT 3000 -RA BKN004 FEW020CB OVC070 24/24@CAELT@Q1006 A2972 HR97 CB N/NE=METAR SLJO 261800Z NIL=METAR SLRA 261800Z 12012KT 8000 TS VCSH SCT005 FEW020CB OVC070 23/22Q1006 A2971 HR98 RERA CB/TS/SH SE/S/NW RWY WET OPR C206=METAR SLMG 261800Z 00000KT 8000 -TSRA SCT015 FEW023CB OVC070 23/22Q1005 A2968 HR97 CB/TS NE/E RWY OPR C210=METAR SLBU 261800Z NIL=METAR SLSA 261800Z 14006KT 6000 -RA BKN006 BKN015 FEW020CB OVC07023/23 Q1005 A2968 HR97 CB NE/E/SE=METAR SLSR 261800Z 12010KT 9999 BKN008 FEW020CB OVC070 24/23 Q1006A2972 HR93 RERA CB N/NE/E/SE RWY WET INOP=METAR SLSM 261800Z 15010KT 9999 BKN008 FEW023CB OVC070 26/25 Q1006A2973 HR91 CB NW RWY OPR C206=
ZPX0480 261851@CAELT@GG SLZZYMYT@CAELT@261850 SLCAYGYS@CAELT@SABO SLCA 261900@CAELT@METAR SLCA 261900Z 36003KT 9999 SCT027 BKN080 26/20 Q1013 A2991 HR69@CAELT@RWY WET INOP=@CAELT@
ZPX0481 261853@CAELT@GG SLZZYMYT@CAELT@261853 SLRBYGYS@CAELT@SABO SLRB 261900@CAELT@METAR SLRB 261900Z 00000KT 9999 NSC 34/23 Q1007 A2974 HR53 RWY NML=@CAELT@
ZPX0482 261854@CAELT@GG SLZZYMYT@CAELT@261854 SLETYMYC@CAELT@SABO SLET 261900@CAELT@METAR SLET 261900Z 17012G22KT 9999 FEW020 FEW027TCU BKN200 29/21@CAELT@Q1006 A2973 HR62 TCU SE/S NOSIG=@CAELT@
ZPX0483 261855@CAELT@GG SLZZYMYT@CAELT@261855 SLTJYGYZ@CAELT@SABO SLTJ 261900@CAELT@METAR SLTJ 261900Z 00000KT 9999 SCT030 25/14 Q1017 A3005 813.0 HR53@CAELT@AC CI=@CAELT@
ZPX0484 261855@CAELT@GG SLZZYMYT@CAELT@261855 SLSAYGYS@CAELT@SABO SLSA 261900@CAELT@METAR SLSA 261900Z 00000KT 5000 -RA BKN006 BKN015 FEW020CB OVC070@CAELT@23/23 Q1004 A2967 HR99 CB N/NE=@CAELT@
ZPX0485 261855@CAELT@GG SLZZYMYT@CAELT@261855 SLSBYSYX@CAELT@SABO SLSB 261900@CAELT@METAR SLSB 261900Z 17007KT 9999 BKN012 OVC070 26/25 Q1006 A2972 HR95@CAELT@RERA RWY WET INOP=@CAELT@
ZPX0486 261856@CAELT@GG SLZZYMYT@CAELT@261856 SLVRYGYZ@CAELT@SABO SLVR 261900@CAELT@METAR SLVR 261900Z 20014G25KT 9999 SCT020 FEW030CB BKN200 30/23 Q1006@CAELT@A2973 HR65 CB S AC NOSIG=@CAELT@
ZPX0487 261856@CAELT@GG SLZZYMYT@CAELT@261856 SLCBYGYZ@CAELT@SABO SLCB 261900@CAELT@METAR SLCB 261900Z 34006KT 4000 -RA FEW008 SCT020 OVC070 17/11 Q1021@CAELT@A3015 748.4 HR70 NOSIG=@CAELT@
ZPX0488 261857@CAELT@GG SLZZYMYT@CAELT@261857 SLLPYGYZ@CAELT@SABO SLLP 261900@CAELT@METAR SLLP 261900Z 12011KT 9999 FEW010 SCT017 FEW020CB BKN070@CAELT@11/05 Q1031 A3047 623.9 HR70 P3487 CB/SH N/NE/E/W CI NOSIG=@CAELT@
ZPX0489 261857@CAELT@GG SLZZYMYT@CAELT@261858 SLVRYFYC@CAELT@SABO SLVR 261900@CAELT@METAR SLVR 261900Z 20014G25KT 9999 SCT020 FEW030CB BKN200 30/23 Q1006@CAELT@A2973 HR65 CB S AC NOSIG=@CAELT@METAR SLET 261900Z 17012G22KT 9999 FEW020 FEW027TCU BKN200 29/21@CAELT@Q1006 A2973 HR62 TCU SE/S NOSIG=@CAELT@METAR SLAS 261900Z 18010KT 9999 FEW017 OVC200 31/24 Q1006 A2971 HR66RWY NML=METAR SLJV 261900Z 19010KT 9999 BKN015 BKN200 30/24 Q1004 A2965 HR70METAR SLCP 261900Z 18008KT 9999 SCT020 BKN200 31/24 Q1008 A2977 HR68METAR SLSI 261900Z 00000KT 9999 SCT017 BKN200 34/22 Q1003 A2962 HR49METAR SLTI 261900Z 00000KT 9999 BKN017 OVC200 26/25 Q1008 A2977 HR91RETS RWY HUM OPR=METAR SLJE 261900Z 18006KT 9999 FEW017 OVC200 34/22 Q1008 A2977 HR49METAR SLVG 261900Z 18004KT 9999 SCT020 BKN070 18/14 Q1021 A3015 HR82RWY WET OPR=METAR SLRB 261900Z 00000KT 9999 NSC 34/23 Q1007 A2974 HR53 RWY NML=METAR SLCA 261900Z 36003KT 9999 SCT027 BKN080 26/20 Q1013 A2991 HR69RWY WET INOP=
ZPX0490 261858@CAELT@GG SLZZYMYT@CAELT@261858 SLCBYGYS@CAELT@SABO SLCB 261900@CAELT@METAR SLCB 261900Z 34006KT 4000 -RA FEW008 SCT020 OVC070 17/11 Q1021@CAELT@A3015 748.4 HR70 NOSIG=@CAELT@METAR SLTJ 261900Z 00000KT 9999 SCT030 25/14 Q1017 A3005 813.0 HR53@CAELT@AC CI=@CAELT@
ZPX0491 261859@CAELT@GG SLZZYMYT@CAELT@261858 SLTRYGYZ@CAELT@SABO SLTR 261900@CAELT@METAR SLTR 261900Z 15008KT 9999 SCT008 FEW020CB OVC070 27/24 Q1004@CAELT@A2967 986.2 HR83 CB NE NOSIG=@CAELT@
ZPX0493 261900@CAELT@GG SLZZYMYT@CAELT@261859 SLLPYFYA@CAELT@SABO SLRY 261900@CAELT@METAR SLRY 261900Z 00000KT 9999 SCT010 BKN015 OVC070@CAELT@25/24 Q1004 A2966 HR89 RWY WET INOP=@CAELT@
ZPX0494 261902@CAELT@GG SLZZYMYT@CAELT@261901 SLLPYFYA@CAELT@SABO SLLP 261900@CAELT@METAR SLLP 261900Z 12011KT 9999 FEW010 SCT017 FEW020CB BKN070@CAELT@11/05 Q1031 A3047 623.9 HR70 P3487 CB/SH N/NE/E/W CI NOSIG=@CAELT@METAR SLRY 261900Z 00000KT 9999 SCT010 BKN015 OVC070@CAELT@25/24 Q1004 A2966 HR89 RWY WET INOP=@CAELT@METAR SLRQ 251900Z 00000KT 9999 FEW008 SCT020 OVC070 26/24 Q1006A2971 982.2 HR89=METAR SLSB 261900Z 17007KT 9999 BKN012 OVC070 26/25 Q1006 A2972HR95 RERA RWY WET INOP=
ZPX0495 261902@CAELT@GG SLZZYMYT@CAELT@261900 SLTRYGYS@CAELT@SABO SLTR 261900@CAELT@METAR SLTR 261900Z 15008KT 9999 SCT008 FEW020CB OVC070 27/24 Q1004@CAELT@A2967 986.2 HR83 CB NE NOSIG=@CAELT@METAR SLGM 261900Z NIL=@CAELT@METAR SLRI 261900Z 00000KT 3000 -RA BKN004 FEW020CB OVC070 24/24@CAELT@Q1005 A2969 HR97 CB SW=METAR SLJO 261900Z NIL=METAR SLRA 261900Z 13004KT 8000 -VCSH FEW005 FEW020CB OVC070 22/22Q100 A2969 HR98 RETS CB/SH W/NW RWY WET OPR C206=METAR SLMG 261900Z 00000KT 8000 -RA SCT015 OVC070 23/22 Q1003 A2965HR97 RETS RWY WET OPR C210=METAR SLBU 261900Z NIL=METAR SLSA 261900Z 00000KT 5000 -RA BKN006 BKN015 FEW020CB OVC07023/23 Q1004 A2967 HR99 CB N/NE=METAR SLSR 261900Z 12012KT 6000 -RA BKN008 FEW020CB OVC070 24/23Q1995 A2970 HR93 CB N/NE/E/SE RWY WET INOP=METAR SLSM 261900Z 15012KT 9999 BKN012 OVC070 26/25 Q1005 A2969 HR90RWY OPR C206=
ZPX0508 261950@CAELT@GG SLZZYMYT@CAELT@261950 SLCAYGYS@CAELT@SABO SLCA 262000@CAELT@METAR SLCA 262000Z 00000KT 9999 SCT033 BKN080 28/20 Q1012 A2988 HR63@CAELT@RWY WET INOP=@CAELT@
ZPX0511 261954@CAELT@GG SLZZYMYT@CAELT@261954 SLSBYSYX@CAELT@SABO SLSB 262000@CAELT@METAR SLSB 262000Z 13006KT 9999 BKN012 OVC070 26/25 Q1005 A2970 HR92@CAELT@RWY WET INOP=@CAELT@
ZPX0512 261954@CAELT@GG SLZZYMYT@CAELT@261954 SLETYMYC@CAELT@SABO SLET 262000@CAELT@METAR SLET 262000Z 16012G24KT 9999 FEW020 FEW030CB BKN200 29/22 Q1006@CAELT@A2972 HR64 CB NE/E NOSIG=@CAELT@
ZPX0513 261954@CAELT@GG SLZZYMYT@CAELT@261954 SLSAYGYS@CAELT@SABO SLSA 262000@CAELT@METAR SLSA 262000Z 00000KT 6000 -RA SCT006 BKN015 FEW020CB OVC070@CAELT@23/22 Q1004 A2967 HR98 CB N/NE=@CAELT@
ZPX0514 261955@CAELT@GG SLZZYMYT@CAELT@261955 SLTJYGYZ@CAELT@SABO SLTJ 262000@CAELT@METAR SLTJ 262000Z 15015KT 9999 SCT030 FEW036TCU SCT070 22/14 Q1017@CAELT@A3003 812.5 HR61 TCU NE SH/SE/S=@CAELT@
ZPX0515 261955@CAELT@GG SLZZYMYT@CAELT@261955 SLCBYGYZ@CAELT@SABO SLCB 262000@CAELT@METAR SLCB 262000Z 35005KT 5000 -RA FEW008 SCT020 OVC070 15/13 Q1020@CAELT@A3014 748.0 HR87 VIS RED E/SE/W/NW RESTO 8000 NOSIG=@CAELT@
ZPX0516 261955@CAELT@GG SLZZYMYT@CAELT@261957 SLLPYGYZ@CAELT@SABO SLLP 262000@CAELT@METAR SLLP 262000Z 12011KT 9999 FEW010 SCT017 FEW020CB BKN070@CAELT@10/05 Q1031 A3045 623.5 HR75 P3487 CB/SH N/NE/E/NW CI NOSIG=@CAELT@
ZPX0517 261956@CAELT@GG SLZZYMYT@CAELT@261956 SLTRYGYZ@CAELT@SABO SLTR 262000@CAELT@METAR SLTR 262000Z 15007KT 9999 FEW008 BKN070 OVC200 27/24 Q1004@CAELT@A2965 985.7 HR85 NOSIG=@CAELT@
ZPX0518 261957@CAELT@GG SLZZYMYT@CAELT@261957 SLVRYGYZ@CAELT@SABO SLVR 262000@CAELT@METAR SLVR 262000Z 19011G22KT 8000 VCSH SCT020 FEW030CB BKN200 28/23@CAELT@Q1006 A2971 HR72 CB/SH NE/SE AC NOSIG=@CAELT@
ZPX0521 262000@CAELT@GG SLZZYMYT@CAELT@262000 SLCBYGYS@CAELT@SABO SLCB 262000@CAELT@METAR SLCB 262000Z 35005KT 5000 -RA FEW008 SCT020 OVC070 15/13 Q1020@CAELT@A3014 748.0 HR87 VIS RED E/SE/W/NW RESTO 8000 NOSIG=@CAELT@METAR SLTJ 262000Z 15015KT 9999 SCT030 FEW036TCU SCT070 22/14 Q1017@CAELT@A3003 812.5 HR61 TCU NE SH/SE/S=@CAELT@
ZPX0522 262000@CAELT@GG SLZZYMYT@CAELT@262001 SLVRYFYC@CAELT@SABO SLVR 262000@CAELT@METAR SLVR 262000Z 19011G22KT 8000 VCSH SCT020 FEW030CB BKN200 28/23@CAELT@Q1006 A2971 HR72 CB/SH NE/SE AC NOSIG=@CAELT@METAR SLET 262000Z 16012G24KT 9999 FEW020 FEW030CB BKN200 29/22 Q1006@CAELT@A2972 HR64 CB NE/E NOSIG=@CAELT@METAR SLAS 262000Z 18010KT 9999 FEW017 OVC200 31/24 Q1005 A2968 HR66RWY NML=METAR SLJV 262000Z 19010KT 9999 SCT015 FEW030CB BKN200 31/23 Q1004A2965 HR64 CB N/SE RWY NML=METAR SLCP 262000Z 00000KT 9999 SCT020 FEW027CB BKN200 29/24 Q1007A2974 HR73 CB N RWY NML=METAR SLSI 262000Z 00000KT 9999 SCT017 BKN200 33/23 Q1003 A2962 HR55METAR SLTI 262000Z 00000KT 9999 FEW017 OVC200 27/24 Q1007 A2974 HR87RWY HUM OPR=METAR SLJE 262000Z 18006KT 9999 FEW017 OVC200 34/21 Q1007 A2974 HR48METAR SLVG 262000Z 17005KT 9999 SCT020 BKN070 19/15 Q1021 A3015 HR74RWY WET OPR=METAR SLRB 262000Z NIL=METAR SLCA 262000Z 00000KT 9999 SCT033 BKN080 28/20 Q1012 A2988 HR63RWY WET INOP=
ZPX0523 262000@CAELT@GG SLZZYMYT@CAELT@261959 SLLPYFYA@CAELT@SABO SLRY 262000@CAELT@METAR SLRY 262000Z 16004KT 9999 FEW010 BKN015 OVC070@CAELT@26/23 Q1004 A2965 HR85 RWY WET INOP=@CAELT@
ZPX0525 262001@CAELT@GG SLZZYMYT@CAELT@261958 SLTRYGYS@CAELT@SABO SLTR 262000@CAELT@METAR SLTR 262000Z 15007KT 9999 FEW008 BKN070 OVC200 27/24 Q1004@CAELT@A2965 985.7 HR85 NOSIG=@CAELT@METAR SLGM 262000Z NIL=@CAELT@METAR SLRI 262000Z 00000KT 3000 -RA BKN004 FEW020CB OVC070 23/23@CAELT@Q1004 A2967 HR97 CB W=METAR SLJO 262000Z NIL=METAR SLRA 262000Z 13003KT 8000 VCSH FEW005 FEW020CB OVC070 23/22Q1004 A2967 HR98 CB/SH NW RWY WET OPR C206=METAR SLMG 262000Z 00000KT 9999 FEW010 OVC070 23/23 Q1003 A2962HR98 RERA RWY WET OPR C210=METAR SLBU 262000Z NIL=METAR SLSA 262000Z 00000KT 6000 -RA SCT006 BKN015 FEW020CB OVC07023/22 Q1004 A2967 HR98 CB N/NE=METAR SLSR 262000Z 12012KT 8000 -RA BKN008 FEW020CB OVC070 25/24Q1004 A2966 HR95 CB N/W/NW RWY WET INOP=METAR SLSM 262000Z 15012KT 9999 BKN012 OVC070 26/24 Q1004 A2966HR89 RWY OPR C206=
ZPX0526 262002@CAELT@GG SLZZYMYT@CAELT@262000 SLLPYFYA@CAELT@SABO SLLP 262000@CAELT@METAR SLLP 262000Z 12011KT 9999 FEW010 SCT017 FEW020CB BKN070@CAELT@10/05 Q1031 A3045 623.5 HR75 P3487 CB/SH N/NE/E/NW CI NOSIG=@CAELT@METAR SLRY 262000Z 16004KT 9999 FEW010 BKN015 OVC070@CAELT@26/23 Q1004 A2965 HR85 RWY WET INOP=@CAELT@METAR SLRQ 262000Z 00000KT 9999 FEW010 SCT025 OVC080 27/25 Q1005A2969 981.5 HR88=METAR SLSB 262000Z 13006KT 9999 BKN012 OVC070 26/25 Q1005 A2970HR92 RWY WET INOP=
ZPX0534 262025@CAELT@GG SLZZYMYT@CAELT@262024 SLRBYGYS@CAELT@SABO SLRB 262000 RRA@CAELT@METAR SLRB 262000Z 00000KT 9999 NSC 35/23 Q1006 A2970 HR50 RWY NML=@CAELT@
ZPX0537 262030@CAELT@GG SLZZYMYT@CAELT@262030 SLVRYFYC@CAELT@SABO SLVR 262000 RRA@CAELT@METAR SLVR 262000Z 19011G22KT 8000 VCSH SCT020 FEW030CB BKN200 28/23@CAELT@Q1006 A2971 HR72 CB/SH NE/SE AC NOSIG=@CAELT@METAR SLET 262000Z 16012G24KT 9999 FEW020 FEW030CB BKN200 29/22 Q1006@CAELT@A2972 HR64 CB NE/E NOSIG=@CAELT@METAR SLAS 262000Z 18010KT 9999 FEW017 OVC200 31/24 Q1005 A2968 HR66RWY NML=METAR SLJV 262000Z 19010KT 9999 SCT015 FEW030CB BKN200 31/23 Q1004A2965 HR64 CB N/SE RWY NML=METAR SLCP 262000Z 00000KT 9999 SCT020 FEW027CB BKN200 29/24 Q1007A2974 HR73 CB N RWY NML=METAR SLSI 262000Z 00000KT 9999 SCT017 BKN200 33/23 Q1003 A2962 HR55METAR SLTI 262000Z 00000KT 9999 FEW017 OVC200 27/24 Q1007 A2974 HR87RWY HUM OPR=METAR SLJE 262000Z 18006KT 9999 FEW017 OVC200 34/21 Q1007 A2974 HR48METAR SLVG 262000Z 17005KT 9999 SCT020 BKN070 19/15 Q1021 A3015 HR74RWY WET OPR=METAR RTD SLRB 262000Z 00000KT 9999 NSC 35/23 Q1006 A2970 HR50 RWYNML=METAR SLCA 262000Z 00000KT 9999 SCT033 BKN080 28/20 Q1012 A2988 HR63RWY WET INOP=
ZPX0545 262050@CAELT@GG SLZZYMYT@CAELT@262034 SLTJYGYZ@CAELT@SABO SLTJ 262100@CAELT@METAR SLTJ 262100Z 14008KT 9999 SCT030 BKN070 21/14 Q1017 A3003 812.4@CAELT@HR65=@CAELT@85364 42570 61408 10210 20141 38124 48249 57014 84270@CAELT@333 10252 56000 58011 84830 86357 555 10170 29065=@CAELT@
ZPX0547 262050@CAELT@GG SLZZYMYT@CAELT@262050 SLRBYGYS@CAELT@SABO SLRB 262100@CAELT@METAR SLRB 262100Z 00000KT 9999 NSC 35/23 Q1006 A2970 HR49 RWY NML=@CAELT@
ZPX0548 262052@CAELT@GG SLZZYMYT@CAELT@262050 SLRBYGYS@CAELT@SABO SLRB 262100@CAELT@METAR SLRB 262100Z 00000KT 9999 NSC 35/23 Q1006 A2970 HR49 RWY NML=@CAELT@
ZPX0549 262054@CAELT@GG SLZZYMYT@CAELT@262054 SLETYMYC@CAELT@SABO SLET 262100@CAELT@METAR SLET 262100Z 16012G22KT 9999 FEW020 FEW030CB SCT070 BKN200 29/@CAELT@22 Q1006 A2971 HR65 CB NE/E NOSIG=@CAELT@
ZPX0551 262054@CAELT@GG SLZZYMYT@CAELT@262054 SLCBYGYZ@CAELT@SABO SLCB 262100@CAELT@METAR SLCB 262100Z 29004KT 9000 -RA FEW008 SCT020 OVC070 15/13 Q1020@CAELT@A3013 747.8 HR89 NOSIG=@CAELT@
ZPX0552 262054@CAELT@GG SLZZYMYT@CAELT@262055 SLSAYGYS@CAELT@SABO SLSA 262100@CAELT@METAR SLSA 262100Z 00000KT 7000 -RA FEW006 SCT015 FEW020CB OVC070@CAELT@23/23 Q1003 A2965 HR98 CB N=@CAELT@
ZPX0555 262055@CAELT@GG SLZZYMYT@CAELT@262055 SLCAYGYS@CAELT@SABO SLCA 262100@CAELT@METAR SLCA 262100Z 18006KT 5000 -RA BKN036 FEW040CB BKN070 26/20@CAELT@Q1012 A2988 HR69 CB S RWY WET INOP=@CAELT@
ZPX0557 262056@CAELT@GG SLZZYMYT@CAELT@262056 SLVRYGYZ@CAELT@SABO SLVR 262100@CAELT@METAR SLVR 262100Z 19013G24KT 8000 VCSH FEW017 FEW030CB BKN200 29/22@CAELT@Q1006 A2971 HR67 CB/SH N/NE AC NOSIG=@CAELT@
ZPX0558 262056@CAELT@GG SLZZYMYT@CAELT@262056 SLTRYGYZ@CAELT@SABO SLTR 262100@CAELT@METAR SLTR 262100Z 14003KT 9999 FEW017 BKN070 OVC070 27/24 Q1003@CAELT@A2965 985.5 HR85 NOSIG=@CAELT@
ZPX0559 262056@CAELT@GG SLZZYMYT@CAELT@262057 SLLPYGYZ@CAELT@SABO SLLP 262100@CAELT@METAR SLLP 262100Z 13011KT 8000 -SHRA FEW005 SCT015 FEW017CB@CAELT@BKN070 08/06 Q1031 A3045 623.5 HR87 P3487 CB/N/NE/E/NW NOSIG=@CAELT@
ZPX0561 262057@CAELT@GG SLZZYMYT@CAELT@262056 SLSBYSYX@CAELT@SABO SLSB 262100@CAELT@METAR SLSB 262100Z 15003KT 9999 BKN012 OVC070 26/25 Q1005 A2968 HR92@CAELT@RWY WET INOP=@CAELT@
ZPX0562 262057@CAELT@GG SLZZYMYT@CAELT@262057 SLCBYGYS@CAELT@SABO SLCB 262100@CAELT@METAR SLCB 262100Z 29004KT 9000 -RA FEW008 SCT020 OVC070 15/13 Q1020@CAELT@A3013 747.8 HR89 NOSIG=@CAELT@METAR SLTJ 262100Z 14008KT 9999 SCT030 BKN070 21/14 Q1017 A3003 812.4@CAELT@HR65=@CAELT@
ZPX0565 262058@CAELT@GG SLZZYMYT@CAELT@262057 SLLPYFYA@CAELT@SABO SLRY 262100@CAELT@METAR SLRY 262100Z 00000KT 9999 BKN023 OVC070@CAELT@26/23 Q1003 A2964 HR88 RWY WET OPR C206=@CAELT@
ZPX0567 262059@CAELT@GG SLZZYMYT@CAELT@262059 SLTRYGYS@CAELT@SABO SLTR 262100@CAELT@METAR SLTR 262100Z 14003KT 9999 FEW017 BKN070 OVC070 27/24 Q1003@CAELT@A2965 985.5 HR85 NOSIG=@CAELT@METAR SLGM 262100Z NIL=@CAELT@METAR SLRI 262100Z 34008KT 3000 -RA BKN004 FEW020CB OVC070 23/23@CAELT@Q1004 A2967 HR97 CB NW=METAR SLJO 262100Z NIL=METAR SLRA 262100Z 00000KT 9999 FEW008 OVC070 23/23 Q1004 A2965 HR98RWY WET OPR C206=METAR SLMG 262100Z 00000KT 9999 FEW010 OVC070 24/23 Q1003 A2962 HR97RWY WET OPR C210=METAR SLBU 262100Z NIL=METAR SLSA 262100Z 00000KT 7000 -RA FEW006 SCT015 FEW020CB OVC07023/23 Q1003 A2965 HR98 CB N=METAR SLSR 262100Z 12010KT 8000 -RA BKN008 FEW020CB OVC070 25/24Q1004 A2967 HR96 CB N/W/NW RWY WET INOP=METAR SLSM 262100Z 00000KT 9999 SCT015 OVC070 26/25 Q1004 A2965 HR91RWY OPR C206=
ZPX0568 262059@CAELT@GG SLZZYMYT@CAELT@262100 SLVRYFYC@CAELT@SABO SLVR 262100@CAELT@METAR SLVR 262100Z 19013G24KT 8000 VCSH FEW017 FEW030CB BKN200 29/22@CAELT@Q1006 A2971 HR67 CB/SH N/NE AC NOSIG=@CAELT@METAR SLET 262100Z 16012G22KT 9999 FEW020 FEW030CB SCT070 BKN200 29/@CAELT@22 Q1006 A2971 HR65 CB NE/E NOSIG=@CAELT@METAR SLAS 262100Z 18010KT 9999 FEW030CB OVC200 32/25 Q1005 A2968HR65 CB/SH/N/NE/E RWY NML=METAR SLJV 262100Z 19005KT 9999 SCT015 FEW030CB OVC200 29/24 Q1004A2965 HR72 CB/TS SE/S/W RWY NML=METAR SLCP 262100Z 00000KT 9999 SCT020 FEW027CB BKN200 27/23 Q1007A2974 HR80 CB N/NE/S RWY NML=METAR SLSI 262100Z 00000KT 9999 SCT017 BKN200 33/23 Q1003 A2962 HR55RWY NML=METAR SLTI 262100Z 00000KT 9999 NSC 28/25 Q1007 A2974 HR87 CS RWY NMLMETAR SLJE 262100Z 18005KT 9999 SCT017 OVC200 34/21 Q1007 A2974 HR48METAR SLVG 262100Z 18006KT 9999 SCT020 BKN070 19/15 Q1020 A3012 HR74RWY WET OPR=METAR SLRB 262100Z 00000KT 9999 NSC 35/23 Q1006 A2970 HR49 RWY NML=METAR SLCA 262100Z 18006KT 5000 -RA BKN036 FEW040CB BKN070 26/20Q1012 A2988 HR69 CB S RWY WET INOP=
ZPX0570 262100@CAELT@GG SLZZYMYT@CAELT@262059 SLLPYFYA@CAELT@SABO SLLP 262100@CAELT@METAR SLLP 262100Z 13011KT 8000 -SHRA FEW005 SCT015 FEW017CB@CAELT@BKN070 08/06 Q1031 A3045 623.5 HR87 P3487 CB/N/NE/E/NW NOSIG=@CAELT@METAR SLRY 262100Z 00000KT 9999 BKN023 OVC070@CAELT@26/23 Q1003 A2964 HR88 RWY WET OPR C206=@CAELT@METAR SLRQ 262100Z 00000KT 9999 FEW013 SCT030 OVC080 27/24 Q1005A2968 981.0 HR87=METAR SLSB 262100Z 15003KT 9999 BKN012 OVC070 26/25 Q1005 A2968HR92 RWY WET INOP=
ZPX0583 262150@CAELT@GG SLZZYMYT@CAELT@262150 SLRBYGYS@CAELT@SABO SLRB 262200@CAELT@METAR SLRB 262200Z 00000KT 9999 NSC 34/23 Q1006 A2970 HR53 RWY NML=@CAELT@
ZPX0584 262153@CAELT@GG SLZZYMYT@CAELT@262154 SLSBYSYX@CAELT@SABO SLSB 262200@CAELT@METAR SLSB 262200Z 18003KT 9999 SCT015 OVC200 25/25 Q1005 A2968 HR96@CAELT@RWY WET INOP=@CAELT@
ZPX0586 262154@CAELT@GG SLZZYMYT@CAELT@262154 SLSBYSYX@CAELT@SABO SLSB 262200@CAELT@METAR SLSB 262200Z 18003KT 9999 SCT015 OVC200 25/25 Q1005 A2968 HR96@CAELT@RWY WET INOP=@CAELT@
ZPX0587 262154@CAELT@GG SLZZYMYT@CAELT@262154 SLETYMYC@CAELT@SABO SLET 262200@CAELT@METAR SLET 262200Z 15010G20KT 9999 FEW025 FEW030CB BKN070 BKN200 28/@CAELT@22 Q1006 A2972 HR68 CB NE NOSIG=@CAELT@
ZPX0588 262155@CAELT@GG SLZZYMYT@CAELT@262155 SLCBYGYZ@CAELT@SABO SLCB 262200@CAELT@METAR SLCB 262200Z 21003KT 6000 -RA FEW008 SCT020 BKN070 15/13 Q1020@CAELT@A3014 748.0 HR89 VIS RED W/NWN RESTO 9000 NOSIG=@CAELT@
ZPX0589 262156@CAELT@GG SLZZYMYT@CAELT@262156 SLTRYGYZ@CAELT@SABO SLTR 262200@CAELT@METAR SLTR 262200Z 13003KT 9999 FEW020 OVC200 27/24 Q1003 A2965@CAELT@985.5 HR86 NOSIG=@CAELT@
ZPX0590 262156@CAELT@GG SLZZYMYT@CAELT@262157 SLVRYGYZ@CAELT@SABO SLVR 262200@CAELT@METAR SLVR 262200Z 19012G22KT 9999 FEW017 FEW030CB SCT070 BKN200 28/@CAELT@22 Q1006 A2972 HR68 CB N/NE NOSIG=@CAELT@
ZPX0591 262156@CAELT@GG SLZZYMYT@CAELT@262156 SLCAYGYS@CAELT@SABO SLCA 262200@CAELT@METAR SLCA 262200Z 18004KT 8000 -RA BKN033 FEW040CB 22/21 Q1013 A2991@CAELT@HR91 CB SW RWY WET INOP=@CAELT@
ZPX0592 262156@CAELT@GG SLZZYMYT@CAELT@262157 SLLPYGYZ@CAELT@SABO SLLP 262200@CAELT@METAR SLLP 262200Z 11008KT 6000 VCSH FEW004 SCT013 FEW017CB OVC070 07@CAELT@/06 Q1031 A3046 623.6 HR91 P96// CB/SH SW/W/NW BECMG 4000E VCFG=@CAELT@
ZPX0593 262157@CAELT@GG SLZZYMYT@CAELT@262156 SLSAYGYS@CAELT@SABO SLSA 262200@CAELT@METAR SLSA 262200Z 00000KT 9999 SCT015 FEW020 OVC070 23/23 Q1003@CAELT@A2965 HR98 CB E=@CAELT@
ZPX0594 262157@CAELT@GG SLZZYMYT@CAELT@262157 SLVRYFYC@CAELT@SABO SLVR 262200@CAELT@METAR SLVR 262200Z 19012G22KT 9999 FEW017 FEW030CB SCT070 BKN200 28/@CAELT@22 Q1006 A2972 HR68 CB N/NE NOSIG=@CAELT@METAR SLET 262200Z 15010G20KT 9999 FEW025 FEW030CB BKN070 BKN200 28/@CAELT@22 Q1006 A2972 HR68 CB NE NOSIG=@CAELT@METAR SLAS 262200Z 00000KT 9999 TS SCT017 FEW030CB OVC200 25/22 Q1005A2968 HR82 CB/TS/SH/E/NW/N RWY NML=METAR SLJV 262200Z 00000KT 9999 SCT070 OVC200 25/23 Q1004 A2965 HR90RETS RWY NML=METAR SLCP 262200Z 00000KT 9999 SCT020 BKN200 26/23 Q1007 A2974 HR85RWY NML=METAR SLSI 262200Z 00000KT 9999 SCT017 BKN200 30/23 Q1004 A2965 HR64METAR SLTI 262200Z 00000KT 9999 FEW015 OVC200 28/24 Q1008 A2977 HR80METAR SLJE 262200Z 00000KT 9999 NSC 33/21 Q1007 A2974 HR51 CI RWY NMLMETAR SLRB 262200Z 00000KT 9999 NSC 34/23 Q1006 A2970 HR53 RWY NML=METAR SLCA 262200Z 18004KT 8000 -RA BKN033 FEW040CB 22/21 Q1013 A2991HR91 CB SW RWY WET INOP=
ZPX0595 262158@CAELT@GG SLZZYMYT@CAELT@262158 SLTRYGYS@CAELT@SABO SLTR 262200@CAELT@METAR SLTR 262200Z 13003KT 9999 FEW020 OVC200 27/24 Q1003 A2965@CAELT@985.5 HR86 NOSIG=@CAELT@METAR SLGM 262200Z NIL=@CAELT@METAR SLRI 262200Z 32006KT 3000 -RA BKN004 FEW020CB OVC070 24/24@CAELT@Q1004 A2965 HR98 CB NW=METAR SLJO 26220Z NIL=METAR SLRA 262200Z 00000KT 9999 FEW008 OVC070 23/23 Q1004 A2965 HR98RWY WET OPR C206=METAR SLMG 262200Z 00000KT 9999 SCT010 OVC070 24/23 Q1003 A2962 HR97RWY WET OPR C210=METAR SLBU 262200Z NIL=METAR SLSA 262200Z 00000KT 9999 SCT015 FEW020 OVC070 23/23 Q1003A2965 HR98 CB E=METAR SLSR 262200Z 12008KT 9999 SCT008 FEW020CB OVC070 25/24 Q1004AA2967 HR96 CB N/NW RWY WET INOP=METAR SLSM 262200Z 00000KT 999 FEW015 OVC070 26/25 Q1004 A2965 HR91RWY OPR C206=
ZPX0597 262201@CAELT@GG SLZZYMYT@CAELT@262201 SLLPYFYA@CAELT@SABO SLLP 262200@CAELT@METAR SLLP 262200Z 11008KT 6000 VCSH FEW004 SCT013 FEW017CB OVC070@CAELT@07/06 Q1031 A3046 623.6 HR91 P96// CB/SH SW/W/NW BECMG 4000E VCFG=@CAELT@METAR SLRY 262200Z 00000KT 9999 BKN025 OVC070 25/24 Q1003 A2963@CAELT@HR69 RWY WET OPR C206=@CAELT@METAR SLRQ 262200Z 00000KT 9999 FEW013 SCT030 OVC080 26/23 Q1004A2967 980.9 HR85=METAR SLSB 262200Z 18003KT 9999 SCT015 OVC200 25/25 Q1005 A2968HR96 RWY WET INOP=
ZPX0599 262205@CAELT@GG SLZZYMYT@CAELT@262204 SLSAYGYS@CAELT@SABO SLSA 262200 CCA@CAELT@METAR COR SLSA 262200Z 00000KT 9999 SCT015 FEW020CB OVC070 23/23@CAELT@Q1003 A2965 HR98 RERA CB E=@CAELT@
