
ZPX0010 270054@CAELT@GG SLZZYMYT@CAELT@270055 SLVRYGYZ@CAELT@SABO SLVR 270100@CAELT@METAR SLVR 270100Z 12006KT 9999 FEW025 FEW030CB BKN070 BKN200 22/18@CAELT@Q1012 A2989 HR76 CB DIST NW/NE NOSIG=@CAELT@
ZPX0011 270056@CAELT@GG SLLPZRZX@CAELT@270057 SLLPYGYZ@CAELT@SABO SLLP 270100@CAELT@METAR SLLP 270100Z 07003KT 9999 FEW017 FEW020CB SCT200 09/M01@CAELT@Q1036 A3059 626.6 HR51 CB/LT N/NE/E AC NOSIG=@CAELT@
ZPX0012 270057@CAELT@GG SLZZYMYT@CAELT@270057 SLCBYGYZ@CAELT@SABO SLCB 270100@CAELT@METAR SLCB 270100Z 13014G25KT 080V230 9999 FEW030 FEW033CB BKN070 16/@CAELT@10 Q1025 A3027 751.4 HR69 CB/ON STN/S/SW/W/NW CI NOSIG=@CAELT@
ZPX0020 270156@CAELT@GG SLZZYMYT@CAELT@270157 SLVRYGYZ@CAELT@SABO SLVR 270200@CAELT@METAR SLVR 270200Z 17005KT 9999 FEW025 SCT070 BKN200 22/17 Q1013@CAELT@A2993 HR74 NOSIG=@CAELT@
ZPX0021 270157@CAELT@GG SLLPZRZX@CAELT@270157 SLLPYGYZ@CAELT@SABO SLLP 270200@CAELT@METAR SLLP 270200Z 07004KT 9999 FEW017 FEW020CB SCT200 06/M00@CAELT@Q1036 A3061 626.9 HR66 CB/LT N/NE/E AC NOSIG=@CAELT@
ZPX0022 270157@CAELT@GG SLZZYMYT@CAELT@270156 SLCBYGYZ@CAELT@SABO SLCB 270200@CAELT@METAR SLCB 270200Z 05012G24KT 330V100 8000 -RA FEW030 FEW033CB OVC070@CAELT@13/12 Q1026 A3031 752.4 HR93 CB/E/SE/SW/W NOSIG=@CAELT@
ZPX0029 270255@CAELT@GG SLZZYMYT@CAELT@270257 SLLPYGYZ@CAELT@SABO SLLP 270300@CAELT@METAR SLLP 270300Z 09006KT 9999 FEW017 FEW020CB SCT200 06/02@CAELT@Q1036 A3061 627.1 HR76 CB/LT N/NE/E AC NOSIG=@CAELT@
ZPX0030 270255@CAELT@GG SLZZYMYT@CAELT@270255 SLCBYGYZ@CAELT@SABO SLCB 270300@CAELT@METAR SLCB 270300Z 15008KT 9999 FEW025 BKN070 BKN200 14/11 Q1025@CAELT@A3028 751.7 HR80 NOSIG=@CAELT@
ZPX0031 270257@CAELT@GG SLZZYMYT@CAELT@270258 SLVRYGYZ@CAELT@SABO SLVR 270300@CAELT@METAR SLVR 270300Z 18005KT 9999 FEW025 SCT070 BKN200 21/17 Q1013@CAELT@A2992 HR77 NOSIG=@CAELT@
ZPX0038 270355@CAELT@GG SLLPZRZX@CAELT@270357 SLLPYGYZ@CAELT@SABO SLLP 270400@CAELT@METAR SLLP 270400Z 08006KT 9999 FEW004 FEW017CB SCT200 04/02@CAELT@Q1036 A3061 627.1 HR85 CB/LT N/NE AC NOSIG=@CAELT@
ZPX0039 270356@CAELT@GG SLZZYMYT@CAELT@270355 SLCBYGYZ@CAELT@SABO SLCB 270400@CAELT@METAR SLCB 270400Z 16005KT 9999 FEW025 SCT070 BKN200 14/11 Q1025@CAELT@A3029 752.0 HR84 NOSIG=@CAELT@
ZPX0040 270356@CAELT@GG SLZZYMYT@CAELT@270356 SLVRYGYZ@CAELT@SABO SLVR 270400@CAELT@METAR SLVR 270400Z 18004KT 9999 FEW025 SCT070 BKN200 21/17 Q1012@CAELT@A2990 HR78 NOSIG=@CAELT@
ZPX0048 270456@CAELT@GG SLLPZRZX@CAELT@270457 SLLPYGYZ@CAELT@SABO SLLP 270500@CAELT@METAR SLLP 270500Z VRB02KT 9999 FEW004 FEW017CB SCT200 05/04@CAELT@Q1036 A3060 626.9 HR94 CB/LT N/NE AC NOSIG=@CAELT@
ZPX0049 270457@CAELT@GG SLZZYMYT@CAELT@270458 SLVRYGYZ@CAELT@SABO SLVR 270500@CAELT@METAR SLVR 270500Z 17004KT 9999 FEW025 SCT070 BKN200 21/17 Q1012@CAELT@A2989 HR79 NOSIG=@CAELT@
ZPX0050 270458@CAELT@GG SLZZYMYT@CAELT@270457 SLCBYGYZ@CAELT@SABO SLCB 270500@CAELT@METAR SLCB 270500Z 02003KT 9999 FEW025 SCT036 BKN070 14/11 Q1025@CAELT@A3028 751.6 HR80 CI NOSIG=@CAELT@
ZPX0052 270501@CAELT@GG SLZZYMYT@CAELT@270457 SLCBYGYZ@CAELT@SABO SLCB 270500@CAELT@METAR SLCB 270500Z 02003KT 9999 FEW025 SCT036 BKN070 14/11 Q1025@CAELT@A3028 751.6 HR80 CI NOSIG=@CAELT@
ZPX0060 270551@CAELT@GG SLZZYMYT@CAELT@270552 SLVRYGYZ@CAELT@SABO SLVR 270600@CAELT@METAR SLVR 270600Z 18005KT 9999 BKN070 BKN200 21/17 Q1011 A2986 HR79@CAELT@NOSIG=@CAELT@
ZPX0061 270556@CAELT@GG SLLPZRZX@CAELT@270557 SLLPYGYZ@CAELT@SABO SLLP 270600@CAELT@METAR SLLP 270600Z 07003KT 4000E VCFG FEW003 FEW017CB SCT200@CAELT@03/02 Q1035 A3058 626.3 HR95 VCFG NE/E/SE CB/LT/N AC NOSIG=@CAELT@
ZPX0062 270557@CAELT@GG SLZZYMYT@CAELT@270555 SLCBYGYZ@CAELT@SABO SLCB 270600@CAELT@METAR SLCB 270600Z 00000KT 9999 FEW025 SCT036 BKN070 14/12 Q1024@CAELT@A3025 751.0 HR86 CI NOSIG=@CAELT@
ZPX0069 270654@CAELT@GG SLZZYMYT@CAELT@270655 SLVRYGYZ@CAELT@SABO SLVR 270700@CAELT@METAR SLVR 270700Z 17007KT 9999 BKN070 BKN200 21/17 Q1010 A2984 HR79@CAELT@NOSIG=@CAELT@
ZPX0070 270655@CAELT@GG SLZZYMYT@CAELT@270655 SLCBYGYZ@CAELT@SABO SLCB 270700@CAELT@METAR SLCB 270700Z 00000KT 9999 FEW025 SCT036 BKN070 14/12 Q1023@CAELT@A3022 750.1 HR87 CI NOSIG=@CAELT@
ZPX0072 270701@CAELT@GG SLLPZRZX@CAELT@270702 SLLPYGYZ@CAELT@SABO SLLP 270700@CAELT@METAR SLLP 270700Z 05003KT 4000E VCFG FEW003 FEW017CB SCT200 04/04@CAELT@Q1034 A3056 625.9 HR99 VCFG NE/E/SE CB/LT/N AC NOSIG=@CAELT@
ZPX0078 270754@CAELT@GG SLZZYMYT@CAELT@270755 SLVRYGYZ@CAELT@SABO SLVR 270800@CAELT@METAR SLVR 270800Z 19007KT 9999 BKN070 BKN200 21/17 Q1010 A2983 HR80@CAELT@NOSIG=@CAELT@
ZPX0079 270756@CAELT@GG SLLPZRZX@CAELT@270756 SLLPYGYZ@CAELT@SABO SLLP 270800@CAELT@METAR SLLP 270800Z VRB02KT 4000E VCFG FEW003 SCT012 04/03 Q1034@CAELT@A3055 625.6 HR91 VCFG NE/E/SE AC/CI NOSIG=@CAELT@
ZPX0080 270759@CAELT@GG SLZZYMYT@CAELT@270758 SLCBYGYZ@CAELT@SABO SLCB 270800@CAELT@METAR SLCB 270800Z 00000KT 8000 FEW010 SCT027 13/12 Q1023 A3022 750.1@CAELT@HR95 BR AC NOSIG=@CAELT@
ZPX0092 270855@CAELT@GG SLZZYMYT@CAELT@270856 SLVRYGYZ@CAELT@SABO SLVR 270900@CAELT@METAR SLVR 270900Z 18005KT 9999 BKN070 BKN200 21/17 Q1010 A2984 HR81@CAELT@NOSIG=@CAELT@
ZPX0093 270856@CAELT@GG SLLPZRZX@CAELT@270856 SLLPYGYZ@CAELT@SABO SLLP 270900@CAELT@METAR SLLP 270900Z VRB02KT 4000E VCFG FEW003 SCT200 02/01 Q1034@CAELT@A3055 625.6 HR90 VCFG NE/E/SE AC/CI NOSIG=@CAELT@
ZPX0094 270856@CAELT@GG SLZZYMYT@CAELT@270856 SLCBYGYZ@CAELT@SABO SLCB 270900@CAELT@METAR SLCB 270900Z 00000KT 8000 FEW010 SCT027 13/11 Q1023 A3022 750.1@CAELT@HR87 BR AC NOSIG=@CAELT@
ZPX0095 270859@CAELT@GG SLZZYMYT@CAELT@270858 SLTRYGYZ@CAELT@SABO SLTR 270900@CAELT@METAR SLTR 270900Z 00000KT 5000 FU SCT015 BKN080 22/21 Q1009 A2982@CAELT@991.2 HR93 NOSIG=@CAELT@
ZPX0097 270902@CAELT@GG SLZZYMYT@CAELT@270900 SLTRYGYS@CAELT@SABO SLTR 270900@CAELT@METAR SLTR 270900Z 00000KT 5000 FU SCT015 BKN080 22/21 Q1009 A2982@CAELT@991.2 HR93 NOSIG=@CAELT@METAR SLRI 270900Z 00000KT 5000 FU SCT015 FEW020CB BKN080 25/23@CAELT@Q1007 A2976 HR92 CB SW=@CAELT@
ZPX0110 270953@CAELT@GG SLZZYMYT@CAELT@270952 SLRYYSYX@CAELT@SABO SLRY 271000@CAELT@METAR SLRY 271000Z 00000KT 9999 BKN023 OVC070 22/21 Q1008 A2979 HR98@CAELT@RETS RWY WET OPR C210=@CAELT@
ZPX0111 270954@CAELT@GG SLZZYMYT@CAELT@270954 SLSBYSYX@CAELT@SABO SLSB 271000@CAELT@METAR SLSB 271000Z 00000KT 9999 BKN023 BKN200 22/22 Q1008 A2979 HR99@CAELT@RWY WET OPR C210=@CAELT@
ZPX0112 270954@CAELT@GG SLZZYMYT@CAELT@270953 SLPSYGYS@CAELT@SABO SLPS 271000@CAELT@METAR SLPS 271000Z 18004KT 7000 SCT008 BKN070 BKN200 21/21 Q1010@CAELT@A2983 HR100 BR=@CAELT@
ZPX0113 270954@CAELT@GG SLZZYMYT@CAELT@270953 SLRBYGYS@CAELT@SABO SLRB 271000@CAELT@METAR SLRB 271000Z 00000KT 9999 FEW070 21/19 Q1012 A2988 HR88 FU RWY@CAELT@NML=@CAELT@
ZPX0114 270955@CAELT@GG SLZZYMYT@CAELT@270955 SLVRYGYZ@CAELT@SABO SLVR 271000@CAELT@METAR SLVR 271000Z 16004KT 9999 FEW020 BKN070 BKN200 21/17 Q1010@CAELT@A2984 HR81 NOSIG=@CAELT@
ZPX0115 270955@CAELT@GG SLZZYMYT@CAELT@270955 SLTRYGYZ@CAELT@SABO SLTR 271000@CAELT@METAR SLTR 271000Z 00000KT 5000 FU FEW020 SCT080 BKN200 22/21 Q1009@CAELT@A2982 991.3 HR92 NOSIG=@CAELT@
ZPX0116 270955@CAELT@GG SLZZYMYT@CAELT@270955 SLCAYGYS@CAELT@SABO SLCA 271000@CAELT@METAR SLCA 271000Z 00000KT 9999 NSC 15/11 Q1015 A2997 HR80 RWY NML=@CAELT@
ZPX0117 270956@CAELT@GG SLZZYMYT@CAELT@270955 SLCBYGYZ@CAELT@SABO SLCB 271000@CAELT@METAR SLCB 271000Z 00000KT 5000 FU FEW010 SCT027 11/11 Q1023 A3023@CAELT@750.3 HR95 VIS RED E/SE/S RESTO 8000 AC CI NOSIG=@CAELT@
ZPX0118 270956@CAELT@GG SLZZYMYT@CAELT@270955 SLRQYSYX@CAELT@SABO SLRQ 271000@CAELT@METAR SLRQ 271000Z 00000KT 9999 BKN023 BKN200 22/22 Q1010 A2983 986.2@CAELT@HR97=@CAELT@
ZPX0119 270957@CAELT@GG SLZZYMYT@CAELT@270957 SLLPYGYZ@CAELT@SABO SLLP 271000@CAELT@METAR SLLP 271000Z 10004KT 4000E VCFG FEW002 SCT010 03/02 Q1035@CAELT@A3057 626.1 HR98 PINV/ VCFG N/NE/E/SE AC/CI NOSIG=@CAELT@
ZPX0120 270957@CAELT@GG SLZZYMYT@CAELT@270956 SLSAYGYS@CAELT@SABO SLSA 271000@CAELT@METAR SLSA 271000Z 00000KT 3000 -TSRA SCT006 FEW023CB OVC070 21/21@CAELT@Q1009 A2980 HR100 CB N/W/NW TS NW=@CAELT@
ZPX0121 270957@CAELT@GG SLZZYMYT@CAELT@270956 SLSAYGYS@CAELT@SABO SLSA 271000@CAELT@METAR SLSA 271000Z 00000KT 3000 -TSRA SCT006 FEW023CB OVC070 21/21@CAELT@Q1009 A2980 HR100 CB N/W/NW TS NW=@CAELT@
ZPX0122 270958@CAELT@GG SLZZYMYT@CAELT@270957 SLETYMYC@CAELT@SABO SLET 271000@CAELT@METAR SLET 271000Z 15005KT 9999 SCT070 21/17 Q1010 A2984 HR79 NOSIG=@CAELT@
ZPX0125 271000@CAELT@GG SLZZYMYT@CAELT@270959 SLVRYGYS@CAELT@SABO SLVR 271000@CAELT@METAR SLVR 271000Z 16004KT 9999 FEW020 BKN070 BKN200 21/17 Q1010@CAELT@A2984 HR81 NOSIG=@CAELT@METAR SLET 271000Z 15005KT 9999 SCT070 21/17 Q1010 A2984 HR79 NOSIG=@CAELT@METAR SLCP 271000Z 00000KT 9999 BKN070 OVC200 20/19 Q1013 A2991@CAELT@HR93 FU RWY NML=METAR SLSI 271000Z 18006KT 9999 BKN070 21/20 Q1010 A2983 HR92RWY NML=METAR SLRB 271000Z 00000KT 9999 FEW070 21/19 Q1012 A2988 HR88FU RWY NML=METAR SLPS 271000Z 18004KT 7000 SCT008 BKN070 BKN200 21/21 Q1010A2983 HR100 BR=METAR SLCA 271000Z 00000KT 9999 NSC 15/11 Q1015 A2997 HR80 RWY NML=
ZPX0126 271002@CAELT@GG SLZZYMYT@CAELT@271000 SLUYYGYS@CAELT@SABO SLUY 271000@CAELT@METAR SLUY 271000Z 00000KT 9999 NSC M03/M14 Q1031 A3047 656.7@CAELT@HR42=@CAELT@
ZPX0127 271002@CAELT@GG SLZZYMYT@CAELT@271002 SLLPYFYA@CAELT@SABO SLLP 271000@CAELT@METAR SLLP 271000Z 10004KT 4000E VCFG FEW002 SCT010 03/02 Q1035@CAELT@A3057 626.1 HR98 PINV/ VCFG N/NE/E/SE AC/CI NOSIG=@CAELT@METAR SLCO 271000Z NIL=@CAELT@METAR SLRY 271000Z 00000KT 9999 BKN023 OVC070 22/21 Q1008 A2979@CAELT@HR98 RETS RWY WET OPR C210=METAR SLRQ 271000Z 00000KT 9999 BKN023 BKN200 22/22 Q1010 A2983986.2 HR97=METAR SLAP 271000Z 00000KT 5000 VCSH BKN015 OVC070 19/18 Q1016A3001 HR96=METAR SLSB 271000Z 00000KT 9999 BKN023 BKN200 22/22 Q1008 A2979HR99 RWY WET OPR C210=METAR SLUY 271000Z 00000KT 9999 NSC M03/M14 Q1031 A3047 656.7HR42=
ZPX0129 271004@CAELT@GG SLZZYMYT@CAELT@271000 SLTRYGYS@CAELT@SABO SLTR 271000@CAELT@METAR SLTR 271000Z 00000KT 5000 FU FEW020 SCT080 BKN200 22/21 Q1009@CAELT@A2982 991.3 HR92 NOSIG=@CAELT@METAR SLGM 271000Z 00000KT 5000 VCSH SCT020 FEW023CB BKN200 26/25@CAELT@Q1007 A2974 HR92 CB/SH N/NE=@CAELT@METAR SLRI 271000Z 00000KT 5000 FU SCT015 FEW020CB BKN080 25/23Q1008 A2977 HR92 CB S=METAR SLJO 271000Z 36005KT 3000 -TSRA SCT015 FEW023CB OVC070 23/23Q1009 A2982 HR100 CB/TS N/NE/NW RWY WET OPR C206=METAR SLRA 271000Z 14006KT 8000 -TSRA BKN015 FEW023CB OVC070 24/23Q1009 A2982 HR96 CB/TS/SH NE/E RWY HUM OPR=METAR SLMG 271000Z 00000KT 9999 SCT020 OVC200 24/23 Q1008 A2977 HR95RWY OPR C210=METAR SLBU 271000Z NIL=METAR SLSA 271000Z 00000KT 3000 -TSRA SCT006 FEW023CB OVC070 21/21Q1009 A2980 HR100 CB N/W/NW TS NW=METAR SLSR 271000Z 00000KT 9999 SCT015 FEW023CB OVC070 21/18 Q1009A2980 HR87 CB N RWY WET INOP=METAR SLSM 271000Z 00000KT 9999 SCT010 BKN070 22/22 Q1010 A2983 HR98RWY HUM OPR=
ZPX0130 271004@CAELT@GG SLZZYMYT@CAELT@271000 SLTRYGYS@CAELT@SABO SLTR 271000@CAELT@METAR SLTR 271000Z 00000KT 5000 FU FEW020 SCT080 BKN200 22/21 Q1009@CAELT@A2982 991.3 HR92 NOSIG=@CAELT@METAR SLGM 271000Z 00000KT 5000 VCSH SCT020 FEW023CB BKN200 26/25@CAELT@Q1007 A2974 HR92 CB/SH N/NE=@CAELT@METAR SLRI 271000Z 00000KT 5000 FU SCT015 FEW020CB BKN080 25/23Q1008 A2977 HR92 CB S=METAR SLJO 271000Z 36005KT 3000 -TSRA SCT015 FEW023CB OVC070 23/23Q1009 A2982 HR100 CB/TS N/NE/NW RWY WET OPR C206=METAR SLRA 271000Z 14006KT 8000 -TSRA BKN015 FEW023CB OVC070 24/23Q1009 A2982 HR96 CB/TS/SH NE/E RWY HUM OPR=METAR SLMG 271000Z 00000KT 9999 SCT020 OVC200 24/23 Q1008 A2977 HR95RWY OPR C210=METAR SLBU 271000Z NIL=METAR SLSA 271000Z 00000KT 3000 -TSRA SCT006 FEW023CB OVC070 21/21Q1009 A2980 HR100 CB N/W/NW TS NW=METAR SLSR 271000Z 00000KT 9999 SCT015 FEW023CB OVC070 21/18 Q1009A2980 HR87 CB N RWY WET INOP=METAR SLSM 271000Z 00000KT 9999 SCT010 BKN070 22/22 Q1010 A2983 HR98RWY HUM OPR=
ZPX0134 271022@CAELT@GG SLZZYMYT@CAELT@271021 SLCOYGYZ@CAELT@SABO SLCO 271000 RRA@CAELT@METAR RTD SLCO 271000Z 00000KT 8000 BKN080 26/23 Q1007 A2975 980.1@CAELT@HR88 FU=@CAELT@
ZPX0136 271023@CAELT@GG SLZZYMYT@CAELT@271022 SLLPYFYA@CAELT@SABO SLLP 271000 RRA@CAELT@METAR SLLP 271000Z 10004KT 4000E VCFG FEW002 SCT010 03/02 Q1035@CAELT@A3057 626.1 HR98 PINV/ VCFG N/NE/E/SE AC/CI NOSIG=@CAELT@METAR RTD SLCO 271000Z 00000KT 8000 BKN080 26/23 Q1007 A2975@CAELT@980.1 HR88 FU=@CAELT@METAR SLRY 271000Z 00000KT 9999 BKN023 OVC070 22/21 Q1008 A2979HR98 RETS RWY WET OPR C210=METAR SLRQ 271000Z 00000KT 9999 BKN023 BKN200 22/22 Q1010 A2983986.2 HR97=METAR SLAP 271000Z 00000KT 5000 VCSH BKN015 OVC070 19/18 Q1016A3001 HR96=METAR SLSB 271000Z 00000KT 9999 BKN023 BKN200 22/22 Q1008 A2979HR99 RWY WET OPR C210=METAR SLUY 271000Z 00000KT 9999 NSC M03/M14 Q1031 A3047 656.7HR42=
ZPX0144 271050@CAELT@GG SLZZYMYT@CAELT@271050 SLPSYGYS@CAELT@SABO SLPS 271100@CAELT@METAR SLPS 271100Z 19005KT 9999 BKN008 BKN070 22/22 Q1010 A2983 HR100@CAELT@
ZPX0147 271053@CAELT@GG SLZZYMYT@CAELT@271052 SLRYYSYX@CAELT@SABO SLRY 271100@CAELT@METAR SLRY 271100Z 00000KT 9999 BKN020 BKN200 22/22 Q1009 A2980 HR97@CAELT@RWY WET OPR C210=@CAELT@
ZPX0148 271053@CAELT@GG SLZZYMYT@CAELT@271053 SLCAYGYS@CAELT@SABO SLCA 271100@CAELT@METAR SLCA 271100Z 00000KT 9999 NSC 17/12 Q1015 A2997 HR76 RWY NML=@CAELT@
ZPX0149 271054@CAELT@GG SLZZYMYT@CAELT@271054 SLSBYSYX@CAELT@SABO SLSB 271100@CAELT@METAR SLSB 271100Z 00000KT 9999 SCT023 BKN080 22/22 Q1010 A2983 HR97@CAELT@RWY WET OPR C210=@CAELT@
ZPX0150 271054@CAELT@GG SLZZYMYT@CAELT@271053 SLRBYGYS@CAELT@SABO SLRB 271100@CAELT@METAR SLRB 271100Z 00000KT 9999 FEW070 23/20 Q1012 A2988 HR85 FU RWY@CAELT@NML=@CAELT@
ZPX0151 271054@CAELT@GG SLZZYMYT@CAELT@271055 SLETYMYC@CAELT@SABO SLET 271100@CAELT@METAR SLET 271100Z 15005KT 9999 SCT070 21/17 Q1011 A2986 HR78 NOSIG=@CAELT@
ZPX0152 271054@CAELT@GG SLZZYMYT@CAELT@271054 SLCBYGYZ@CAELT@SABO SLCB 271100@CAELT@METAR SLCB 271100Z 00000KT 6000 FEW020 SCT200 15/11 Q1024 A3024 750.6@CAELT@HR80 VIS RED FU E/SE NOSIG=@CAELT@
ZPX0153 271054@CAELT@GG SLZZYMYT@CAELT@271055 SLVRYGYZ@CAELT@SABO SLVR 271100@CAELT@METAR SLVR 271100Z 18005KT 9999 FEW020 BKN070 BKN200 22/18 Q1011@CAELT@A2986 HR75 NOSIG=@CAELT@
ZPX0154 271055@CAELT@GG SLZZYMYT@CAELT@271055 SLCOYGYZ@CAELT@SABO SLCO 271000@CAELT@METAR SLCO 271000Z 00000KT 8000 BKN080 27/24 Q1008 A2978 981.2 HR84@CAELT@
ZPX0155 271055@CAELT@GG SLZZYMYT@CAELT@271055 SLRQYSYX@CAELT@SABO SLRQ 271100@CAELT@METAR SLRQ 271100Z 00000KT 9999 BKN023 BKN200 22/22 Q1011 A2986 986.9@CAELT@HR96=@CAELT@
ZPX0156 271055@CAELT@GG SLZZYMYT@CAELT@271055 SLLPYFYA@CAELT@SABO SLAP 271100@CAELT@METAR SLAP 271100Z 00000KT 9999 SCT020 OVC070 19/17 Q1017 A3004@CAELT@HR90=@CAELT@
ZPX0157 271055@CAELT@GG SLZZYMYT@CAELT@271055 SLTRYGYZ@CAELT@SABO SLTR 271100@CAELT@METAR SLTR 271100Z 00000KT 5000 FU FEW020 SCT080 BKN200 23/21 Q1010@CAELT@A2983 991.5 HR92 NOSIG=@CAELT@
ZPX0159 271056@CAELT@GG SLZZYMYT@CAELT@271057 SLUYYGYS@CAELT@SABO SLUY 271100@CAELT@METAR SLUY 271100Z 00000KT 9999 NSC 01/M13 Q1032 A3049 657.3@CAELT@HR35 HZ E/SE=@CAELT@
ZPX0160 271056@CAELT@GG SLZZYMYT@CAELT@271055 SLSAYGYS@CAELT@SABO SLSA 271100@CAELT@METAR SLSA 271100Z 00000KT 5000 -RA FU SCT006 SCT020 FEW023CB OVC070@CAELT@22/21 Q1009 A2980 HR99 RETS CB W/NW=@CAELT@
ZPX0161 271056@CAELT@GG SLZZYMYT@CAELT@271055 SLSAYGYS@CAELT@SABO SLSA 271100@CAELT@METAR SLSA 271100Z 00000KT 5000 -RA FU SCT006 SCT020 FEW023CB OVC070@CAELT@22/21 Q1009 A2980 HR99 RETS CB W/NW=@CAELT@
ZPX0162 271056@CAELT@GG SLZZYMYT@CAELT@271056 SLCOYGYZ@CAELT@SABO SLCO 271100 CCA@CAELT@METAR COR SLCO 271100Z 00000KT 8000 BKN080 27/24 Q1008 A2978 981.2@CAELT@HR84 FU=@CAELT@
ZPX0163 271056@CAELT@GG SLZZYMYT@CAELT@271054 SLLPYGYZ@CAELT@SABO SLLP 271100@CAELT@METAR SLLP 271100Z VRB02KT 4000E VCFG FEW002 SCT010 05/05 Q1035@CAELT@A3059 626.6 HR98 P92// VCFG NE/E/SE AC/CI NOSIG=@CAELT@
ZPX0165 271057@CAELT@GG SLZZYMYT@CAELT@271056 SLVRYGYS@CAELT@SABO SLVR 271100@CAELT@METAR SLVR 271100Z 18005KT 9999 FEW020 BKN070 BKN200 22/18 Q1011@CAELT@A2986 HR75 NOSIG=@CAELT@METAR SLET 271100Z 15005KT 9999 SCT070 21/17 Q1011 A2986 HR78 NOSIG=@CAELT@METAR SLAS 271100Z 00000KT SCT015 BKN070 25/20 Q1012 A2988 HR77@CAELT@RWY NML=METAR SLJV 271100Z 00000KT 9999 SCT070 21/19 Q1009 A2980 HR88METAR SLCP 271100Z 00000KT 9999 NSC 21/20 Q1013 A2991 HR94CI RWY NML=METAR SLSI 271100Z 00000KT 9999 BKN070 22/21 Q1010 A2983 HR90METAR SLTI 271100Z 00000KT 9999 OVC013 23/22 Q1014 A2994 HR92RWY HUM OPR=METAR SLJE 271100Z 00000KT SCT015 BKN070 25/20 Q1012 A2988 HR77METAR SLVG 271100Z 00000KT 9999 NSC 13/07 Q1022 A3018 HR64 RWY NML=METAR SLRB 271100Z 00000KT 9999 FEW070 23/20 Q1012 A2988 HR85FU RWY NML=METAR SLPS 271100Z 19005KT 9999 BKN008 BKN070 22/22 Q1010A2983 HR100=METAR SLCA 271100Z 00000KT 9999 NSC 17/12 Q1015 A2997 HR76 RWY NML=
ZPX0166 271057@CAELT@GG SLZZYMYT@CAELT@271057 SLORYGYZ@CAELT@SABO SLOR 271100@CAELT@METAR SLOR 271100Z 00000KT 9999 FEW070 SCT200 08/01 Q1033 A3050 654.5@CAELT@HR60 FU E/SE/S/SW=@CAELT@
ZPX0168 271059@CAELT@GG SLZZYMYT@CAELT@271058 SLLPYFYA@CAELT@SABO SLLP 271100@CAELT@METAR SLLP 271100Z VRB02KT 4000E VCFG FEW002 SCT010 05/05 Q1035@CAELT@A3059 626.6 HR98 P92// VCFG NE/E/SE AC/CI NOSIG=@CAELT@METAR SLCO 271100Z 00000KT 8000 BKN080 27/24 Q1008 A2978 981.2@CAELT@HR84 FU=@CAELT@METAR SLRY 271100Z 00000KT 9999 BKN020 BKN200 22/22 Q1009 A2980HR97 RWY WET OPR C210=METAR SLRQ 271100Z 00000KT 9999 BKN023 BKN200 22/22 Q1011 A2986986.9 HR96=METAR SLAP 271100Z 00000KT 9999 SCT020 OVC070 19/17 Q1017 A3004HR90=METAR SLSB 271100Z 00000KT 9999 SCT023 BKN080 22/22 Q1010 A2983METAR SLOR 271100Z 00000KT 9999 FEW070 SCT200 08/01 Q1033 A3050654.5 HR60 FU E/SE/S/SW=METAR SLUY 271100Z 00000KT 9999 NSC 01/M13 Q1032 A3049 657.3 HR35HZ E/SE=
ZPX0171 271102@CAELT@GG SLZZYMYT@CAELT@271100 SLTRYGYS@CAELT@SABO SLTR 271100@CAELT@METAR SLTR 271100Z 00000KT 5000 FU FEW020 SCT080 BKN200 23/21 Q1010@CAELT@A2983 991.5 HR92 NOSIG=@CAELT@METAR SLGM 271100Z 00000KT 6000 FEW020 FEW023CB BKN200 26/25 Q1008@CAELT@A2977 HR90 CB N/NW FU=@CAELT@METAR SLRI 271100Z 00000KT 8000 VCSH SCT017 FEW020CB OVC200 27/24Q1009 A2980 HR82 CB/SH NE/SE/S=METAR SLJO 271100Z 36004KT 3000 -TSRA SCT015 FEW023CB OVC070 23/23Q1010 A2983 HR100 CB/TS N/NE RWY WET OPR C206=METAR SLRA 271100Z 14004KT 7000 -TSRA BKN015 FEW023CB OVC070 23/23Q1009 A2980 HR96 CB/TS/SH N/NE RWY HUM OPR=METAR SLMG 271100Z 00000KT 8000 TS VCSH FEW008 FEW023CB OVC200 24/23Q1008 A2979 HR96 CB/TS/SH SW RWY OPR C210=METAR SLBU 271100Z NIL=METAR SLSA 271100Z 00000KT 5000 -RA FU SCT006 SCT020 FEW023CB OVC07022/21 Q1009 A2980 HR99 RETS CB W/NW=METAR SLSR 271100Z 12004KT 8000 SCT015 FEW023CB OVC070 21/18 Q1009A2981 HR87 CB N FU RWY WET INOP=METAR SLSM 271100Z 00000KT 9999 SCT017 BKN070 22/22 Q1010 A2985 HR98RWY HUM OPR=
ZPX0174 271103@CAELT@GG SLZZYMYT@CAELT@271101 SLCBYGYS@CAELT@SABO SLCB 271100@CAELT@METAR SLCB 271100Z 00000KT 6000 FEW020 SCT200 15/11 Q1024 A3024 750.6@CAELT@HR80 VIS RED FU E/SE NOSIG=@CAELT@METAR SLAL 271100Z 00000KT 9999 NSC 10/03 Q1027 A3033 702.3 HR61=@CAELT@METAR SLVM 271100Z 00000KT 9999 NSC 20/17 Q1010 A2983 HR81 CI=@CAELT@METAR SLYA 271100Z 00000KT 9999 NSC 21/16 Q1010 A2984 935.4 HR74=
ZPX0177 271109@CAELT@GG SLZZYMYT@CAELT@271108 SLTRYGYS@CAELT@SABO SLTR 271100 CCA@CAELT@METAR SLTR 271100Z 00000KT 5000 FU FEW020 SCT080 BKN200 23/21 Q1010@CAELT@A2983 991.5 HR92 NOSIG=@CAELT@METAR SLGM 271100Z 00000KT 6000 FEW020 FEW023CB BKN200 26/25 Q1008@CAELT@A2977 HR90 CB N/NW FU=@CAELT@METAR SLRI 271100Z 00000KT 8000 VCSH SCT017 FEW020CB OVC200 27/24Q1009 A2980 HR82 CB/SH NE/SE/S=METAR SLJO 271100Z 36004KT 3000 -TSRA SCT015 FEW023CB OVC070 23/23Q1010 A2983 HR100 CB/TS N/NE RWY WET OPR C206=METAR COR SLRA 271100Z 14004KT 7000 -TSRA BKN015 FEW023CB OVC07023/23 Q1009 A2980 HR96 CB/TS N/NE RWY HUM OPR=METAR SLMG 271100Z 00000KT 8000 TS VCSH FEW008 FEW023CB OVC200 24/23Q1008 A2979 HR96 CB/TS/SH SW RWY OPR C210=METAR SLBU 271100Z NIL=METAR SLSA 271100Z 00000KT 5000 -RA FU SCT006 SCT020 FEW023CB OVC07022/21 Q1009 A2980 HR99 RETS CB W/NW=METAR SLSR 271100Z 12004KT 8000 SCT015 FEW023CB OVC070 21/18 Q1009A2981 HR87 CB N FU RWY WET INOP=METAR SLSM 271100Z 00000KT 9999 SCT017 BKN070 22/22 Q1010 A2985 HR98RWY HUM OPR=
ZPX0199 271149@CAELT@GG SLZZYMYT@CAELT@271148 SLCAYGYS@CAELT@SABO SLCA 271200@CAELT@METAR SLCA 271200Z 00000KT 9999 NSC 21/12 Q1015 A2997 HR58 RWY NML=@CAELT@
ZPX0201 271151@CAELT@GG SLZZYMYT@CAELT@271151 SLPSYGYS@CAELT@SABO SLPS 261200@CAELT@METAR SLPS 261200Z 00000KT 9999 SCT015 BKN070 24/23 Q1010 A2983 HR92=@CAELT@
ZPX0203 271153@CAELT@GG SLZZYMYT@CAELT@271152 SLPSYGYS@CAELT@SABO SLPS 271200 CCA@CAELT@METAR COR SLPS 271200Z 00000KT 9999 SCT015 BKN070 24/23 Q1010 A2983@CAELT@HR92=@CAELT@
ZPX0204 271154@CAELT@GG SLZZYMYT@CAELT@271154 SLSBYSYX@CAELT@SABO SLSB 271200@CAELT@METAR SLSB 271200Z 19004KT 9999 BKN080 24/23 Q1010 A2983 HR91 RWY WET@CAELT@OPR C210=@CAELT@
ZPX0205 271154@CAELT@GG SLZZYMYT@CAELT@271152 SLRYYSYX@CAELT@SABO SLRY 271200@CAELT@METAR SLRY 271200Z 00000KT 9999 BKN023 BKN200 23/22 Q1010 A2983 HR93@CAELT@RWY WET OPR C210=@CAELT@
ZPX0207 271154@CAELT@GG SLZZYMYT@CAELT@271155 SLVRYGYZ@CAELT@SABO SLVR 271200@CAELT@METAR SLVR 271200Z 15007KT 9999 BKN070 24/18 Q1011 A2987 HR70 CI@CAELT@NOSIG=@CAELT@
ZPX0209 271155@CAELT@GG SLZZYMYT@CAELT@271155 SLAGYSYX@CAELT@SABO SLAG 271200@CAELT@METAR SLAG 271200Z 00000KT 9999 NSC 21/13 Q1015 A2999 887.8 HR64=@CAELT@
ZPX0211 271155@CAELT@GG SLZZYMYT@CAELT@271155 SLETYMYC@CAELT@SABO SLET 271200@CAELT@METAR SLET 271200Z 14005KT 9999 SCT070 25/17 Q1011 A2988 HR63 NOSIG=@CAELT@
ZPX0212 271155@CAELT@GG SLZZYMYT@CAELT@271155 SLSAYGYS@CAELT@SABO SLSA 271200@CAELT@METAR SLSA 271200Z 00000KT 5000 -RA FU FEW007 SCT020 FEW023CB OVC070@CAELT@22/22 Q1009 A2981 HR98 CB NW=@CAELT@
ZPX0213 271155@CAELT@GG SLZZYMYT@CAELT@271155 SLSAYGYS@CAELT@SABO SLSA 271200@CAELT@METAR SLSA 271200Z 00000KT 5000 -RA FU FEW007 SCT020 FEW023CB OVC070@CAELT@22/22 Q1009 A2981 HR98 CB NW=@CAELT@
ZPX0214 271155@CAELT@GG SLZZYMYT@CAELT@271155 SLRBYGYS@CAELT@SABO SLRB 271200@CAELT@METAR SLRB 271200Z 00000KT 9999 SCT070 24/21 Q1012 A2988 HR83 FU RWY@CAELT@NML=@CAELT@
ZPX0216 271156@CAELT@GG SLZZYMYT@CAELT@271155 SLORYGYZ@CAELT@SABO SLOR 271200@CAELT@METAR SLOR 271200Z 35005KT 9999 FEW017 11/01 Q1033 A3053 655.1 HR51@CAELT@FU S/SW AC/CI=@CAELT@
ZPX0217 271156@CAELT@GG SLZZYMYT@CAELT@271155 SLRQYSYX@CAELT@SABO SLRQ 271200@CAELT@METAR SLRQ 271200Z 00000KT 9999 BKN023 BKN200 23/23 Q1011 A2988 987.6@CAELT@HR98 AC=@CAELT@
ZPX0218 271156@CAELT@GG SLZZYMYT@CAELT@271156 SLTRYGYZ@CAELT@SABO SLTR 271200@CAELT@METAR SLTR 271200Z 00000KT 7000 FEW020 SCT080 BKN200 24/21 Q1010@CAELT@A2985 992.4 HR87 FU NOSIG=@CAELT@
ZPX0219 271156@CAELT@GG SLZZYMYT@CAELT@271155 SLLPYGYZ@CAELT@SABO SLLP 271200@CAELT@METAR SLLP 271200Z 07004KT 6000 FEW004 SCT012 09/05 Q1036 A3061@CAELT@627.0 HR74 P92// VIS RED/ST BJOS NE/E/SE AC/CI NOSIG=@CAELT@
ZPX0222 271157@CAELT@GG SLZZYMYT@CAELT@271157 SLCOYGYZ@CAELT@SABO SLCO 271200@CAELT@METAR SLCO 271200Z 15005KT 8000 BKN080 26/24 Q1010 A2984 983.0 HR89@CAELT@
ZPX0224 271158@CAELT@GG SLZZYMYT@CAELT@271157 SLVRYGYS@CAELT@SABO SLVR 271200@CAELT@METAR SLVR 271200Z 15007KT 9999 BKN070 24/18 Q1011 A2987 HR70 CI@CAELT@NOSIG=@CAELT@METAR SLET 271200Z 14005KT 9999 SCT070 25/17 Q1011 A2988 HR63 NOSIG=@CAELT@METAR SLAS 271200Z 00000KT 9999 NSC 26/20 Q1012 A2989 HR71@CAELT@FU RWY NML=METAR SLJV 271200Z 00000KT 9999 SCT070 23/20 Q1010 A2983 HR83RWY NML=METAR SLCP 271200Z 00000KT 9999 SCT070 23/20 Q1013 A2991 HR84METAR SLSI 271200Z 00000KT 9999 BKN070 24/21 Q1010 A2983 HR82METAR SLTI 271200Z 00000KT 9999 BKN013 OVC070 24/22 Q1014 A2994HR86 RWY HUM OPR=METAR SLJE 271200Z 00000KT 9999 SCT015 BKN070 26/20 Q1013 A2991HR71 RWY NML=METAR SLVG 271200Z 00000KT 9999 NSC 16/08 Q1022 A3018 HR54 RWY NML=METAR SLRB 271200Z 00000KT 9999 SCT070 24/21 Q1012 A2988 HR83METAR SLPS 271200Z 00000KT 9999 SCT015 BKN070 24/23 Q1010 A2983 HR92=METAR SLCA 271200Z 00000KT 9999 NSC 21/12 Q1015 A2997 HR58 RWY NML=
ZPX0225 271158@CAELT@GG SLZZYMYT@CAELT@271157 SLCBYGYZ@CAELT@SABO SLCB 271200@CAELT@METAR SLCB 271200Z 00000KT 8000 FEW025 SCT200 16/12 Q1024 A3025 751.0@CAELT@HR74 FU NOSIG=@CAELT@
ZPX0227 271158@CAELT@GG SLZZYMYT@CAELT@271155 SLUYYGYS@CAELT@SABO SLUY 271200@CAELT@METAR SLUY 271200Z 35003KT 9999 NSC 09/M09 Q1032 A3050 657.4@CAELT@HR27=@CAELT@
ZPX0228 271158@CAELT@GG SLZZYMYT@CAELT@271158 SLTJYGYZ@CAELT@SABO SLTJ 271200@CAELT@METAR SLTJ 271200Z 00000KT 9999 NSC 17/12 Q1018 A3006 813.3 HR72=@CAELT@
ZPX0231 271200@CAELT@GG SLZZYMYT@CAELT@271159 SLTRYGYS@CAELT@SABO SLTR 271200@CAELT@METAR SLTR 271200Z 00000KT 7000 FEW020 SCT080 BKN200 24/21 Q1010@CAELT@A2985 992.4 HR87 FU NOSIG=@CAELT@METAR SLGM 271200Z 00000KT 6000 FEW020 FEW023CB SCT080 BKN200 27/24@CAELT@Q1009 A2980 HR85 CB N/NW FU=@CAELT@METAR SLRI 271200Z 00000KT 7000 VCSH SCT017 FEW020CB OVC200 27/24Q1010 A2983 HR80 CB/SH N/NE/E=METAR SLJO 271200Z 12004KT 7000 -TSRA FEW008 SCT020 FEW025CB OVC07023/22 Q1010 A2985 HR97 CB/TS W RWY WET OPR C206=METAR SLRA 271200Z 14003KT 5000 -TSRA BKN015 FEW023CB OVC070 23/23Q1009 A2982 HR98 CB/TS N RWY HUM OPR=METAR SLMG 271200Z 00000KT 8000 -TSRA SCT020 FEW023CB OVC070 23/23Q1009 A2979 HR79 CB/TS NW RWY OPR C210=METAR SLBU 271200Z 00000KT 8000 BKN080 25/23 Q1009 A2981 HR90 FURWY HUM OPR=METAR SLSA 271200Z 00000KT 5000 -RA FU FEW007 SCT020 FEW023CB OVC07022/22 Q1009 A2981 HR98 CB NW=METAR SLSR 271200Z 12004KT 8000 FEW015 BKN080 23/21 Q1011 A2986 HR88FU RWY WET INOP=METAR SLSM 271200Z 00000KT 9999 SCT023 BKN070 22/21 Q1011 A2987 HR84
ZPX0232 271201@CAELT@GG SLZZYMYT@CAELT@271159 SLLPYFYA@CAELT@SABO SLAP 271200@CAELT@METAR SLAP 271200Z 00000KT 9999 SCT020 OVC070 19/17 Q1017 A3005@CAELT@HR86=@CAELT@
ZPX0234 271201@CAELT@GG SLZZYMYT@CAELT@271201 SLCBYGYS@CAELT@SABO SLCB 271200@CAELT@METAR SLCB 271200Z 00000KT 8000 FEW025 SCT200 16/12 Q1024 A3025 751.0@CAELT@HR74 FU NOSIG=@CAELT@METAR SLAL 271200Z 00000KT 9999 FEW010 12/04 Q1027 A3035 702.7 HR62=@CAELT@METAR SLPO 271200Z NIL=@CAELT@METAR SLAG 271200Z 00000KT 9999 NSC 21/13 Q1015 A2999 887.8 HR64=METAR SLVM 271200Z 36010KT 9999 NSC 25/17 Q1010 A2984 HR64 CI=METAR SLTJ 271200Z 00000KT 9999 NSC 17/12 Q1018 A3006 813.3 HR72=METAR SLYA 271200Z 06015KT 9999 NSC 24/18 Q1010 A2984 935.4 HR71=METAR SLBJ 271200Z NIL=METAR SLHI 271200Z NIL=
ZPX0239 271207@CAELT@GG SLZZYMYT@CAELT@271203 SLLPYFYA@CAELT@SABO SLLP 271200@CAELT@METAR SLLP 271200Z 07004KT 6000 FEW004 SCT012 09/05 Q1036 A3061@CAELT@627.0 HR74 P92// VIS RED/ST BJOS NE/E/SE AC/CI NOSIG=@CAELT@METAR SLCO 271200Z 15005KT 8000 BKN080 26/24 Q1010 A2984 983.0 HR89@CAELT@METAR SLRY 271200Z 00000KT 9999 BKN023 BKN200 23/22 Q1010 A2983 HR93@CAELT@RWY WET OPR C210=METAR SLRQ 271200Z 00000KT 9999 BKN023 BKN200 23/23 Q1011 A2988 987.6HR98 AC=METAR SLAP 271200Z 00000KT 9999 SCT020 OVC070 19/17 Q1017 A3005HR86=METAR SLSB 271200Z 19004KT 9999 BKN080 24/23 Q1010 A2983 HR91 RWY WETOPR C210=METAR SLOR 271200Z 35005KT 9999 FEW017 11/01 Q1033 A3053 655.1 HR51FU S/SW AC/CI=METAR SLUY 271200Z 35003KT 9999 NSC 09/M09 Q1032 A3050 657.4HR27=
ZPX0254 271253@CAELT@GG SLZZYMYT@CAELT@271253 SLPSYGYS@CAELT@SABO SLPS 271300@CAELT@METAR SLPS 271300Z 00000KT 9999 BKN015 25/24 Q1010 A2983 HR90=@CAELT@
ZPX0255 271254@CAELT@GG SLZZYMYT@CAELT@271255 SLTJYGYZ@CAELT@SABO SLTJ 271300@CAELT@METAR SLTJ 271300Z 00000KT 9999 FEW040 19/10 Q1017 A3005 812.8 HR59=@CAELT@
ZPX0256 271254@CAELT@GG SLZZYMYT@CAELT@271253 SLRBYGYS@CAELT@SABO SLRB 271300@CAELT@METAR SLRB 271300Z 18004KT 9999 SCT070 27/22 Q1013 A2991 HR74 RWY NML=@CAELT@
ZPX0257 271254@CAELT@GG SLZZYMYT@CAELT@271254 SLCAYGYS@CAELT@SABO SLCA 271300@CAELT@METAR SLCA 271300Z 00000KT 9999 NSC 25/14 Q1014 A2994 HR51 RWY NML=@CAELT@
ZPX0258 271254@CAELT@GG SLZZYMYT@CAELT@271254 SLSAYGYS@CAELT@SABO SLSA 271300@CAELT@METAR SLSA 271300Z 00000KT 5000 -RA FU FEW007 SCT020 FEW023CB OVC070@CAELT@22/22 Q1010 A2984 HR98 CB NE=@CAELT@
ZPX0259 271255@CAELT@GG SLZZYMYT@CAELT@271254 SLSAYGYS@CAELT@SABO SLSA 271300@CAELT@METAR SLSA 271300Z 00000KT 5000 -RA FU FEW007 SCT020 FEW023CB OVC070@CAELT@22/22 Q1010 A2984 HR98 CB NE=@CAELT@
ZPX0260 271255@CAELT@GG SLZZYMYT@CAELT@271255 SLVRYGYZ@CAELT@SABO SLVR 271300@CAELT@METAR SLVR 271300Z 12005KT 9999 FEW013 SCT070 26/19 Q1012 A2989 HR68@CAELT@NOSIG=@CAELT@
ZPX0261 271255@CAELT@GG SLZZYMYT@CAELT@271255 SLRQYSYX@CAELT@SABO SLRQ 271300@CAELT@METAR SLRQ 271300Z 00000KT 9999 SCT023 BKN200 25/22 Q1012 A2989 988.2@CAELT@HR83 AC=@CAELT@
ZPX0263 271255@CAELT@GG SLZZYMYT@CAELT@271252 SLRYYSYX@CAELT@SABO SLRY 271300@CAELT@METAR SLRY 271300Z 00000KT 9999 BKN025 BKN200 24/23 Q1010 A2984 HR89@CAELT@RWY WET OPR C210@CAELT@
ZPX0264 271255@CAELT@GG SLZZYMYT@CAELT@271255 SLUYYGYS@CAELT@SABO SLUY 271300@CAELT@METAR SLUY 271300Z 31003KT 9999 NSC 12/M09 Q1033 A3050 657.6@CAELT@HR22 CI=@CAELT@
ZPX0265 271255@CAELT@GG SLZZYMYT@CAELT@271255 SLETYMYC@CAELT@SABO SLET 271300@CAELT@METAR SLET 271300Z 10003KT 9999 FEW020 26/18 Q1012 A2989 HR60 AC@CAELT@NOSIG=@CAELT@
ZPX0266 271255@CAELT@GG SLZZYMYT@CAELT@271255 SLAGYSYX@CAELT@SABO SLAG 271300@CAELT@METAR SLAG 271300Z 00000KT 9999 NSC 24/14 Q1014 A2997 887.2 HR54=@CAELT@
ZPX0269 271256@CAELT@GG SLZZYMYT@CAELT@271256 SLTRYGYZ@CAELT@SABO SLTR 271300@CAELT@METAR SLTR 271300Z 13004KT 7000 SCT080 BKN200 26/21 Q1011 A2986@CAELT@992.5 HR77 FU NOSIG=@CAELT@
ZPX0270 271256@CAELT@GG SLZZYMYT@CAELT@271256 SLCOYGYZ@CAELT@SABO SLCO 271300@CAELT@METAR SLCO 271300Z 18005KT 8000 BKN080 27/24 Q1011 A2986 983.9 HR88@CAELT@
ZPX0271 271256@CAELT@GG SLZZYMYT@CAELT@271255 SLLPYGYZ@CAELT@SABO SLLP 271300@CAELT@METAR SLLP 271300Z 15004KT 8000 FEW007 SCT014 12/04 Q1036 A3062@CAELT@627.2 HR61 P92// VIS RED/SC BJOS NE/E/SE HZ/W AC/CI NOSIG=@CAELT@
ZPX0272 271257@CAELT@GG SLZZYMYT@CAELT@271257 SLLPYFYA@CAELT@SABO SLAP 271300@CAELT@METAR SLAP 271300Z 00000KT 9999 SCT020 OVC070 20/18 Q1018 A3008@CAELT@HR89=@CAELT@
ZPX0273 271258@CAELT@GG SLZZYMYT@CAELT@271257 SLCBYGYZ@CAELT@SABO SLCB 271300@CAELT@METAR SLCB 271300Z 00000KT 9999 FEW025 18/11 Q1024 A3025 750.8 HR63@CAELT@FU NOSIG=@CAELT@
ZPX0274 271258@CAELT@GG SLZZYMYT@CAELT@271258 SLORYGYZ@CAELT@SABO SLOR 271300@CAELT@METAR SLOR 271300Z 30004KT 9999 FEW017 13/01 Q1034 A3054 655.4 HR42@CAELT@
ZPX0276 271259@CAELT@GG SLZZYMYT@CAELT@271258 SLTRYGYS@CAELT@SABO SLTR 271300@CAELT@METAR SLTR 271300Z 13004KT 7000 SCT080 BKN200 26/21 Q1011 A2986@CAELT@992.5 HR77 FU NOSIG=@CAELT@METAR SLGM 271300Z 02006KT 6000 SCT020 FEW023CB SCT080 BKN200 29/25@CAELT@Q1010 A2982 HR81 CB N/NW FU=@CAELT@METAR SLRI 271300Z 08006KT 7000 VCSH BKN015 FEW020CB BKN070 28/24Q1010 A2985 HR79 CB/SH NE/SE/SW=METAR SLJO 271300Z 12003KT 7000 -RA SCT008 FEW025CB OVC070 23/22Q1011 A2986 HR96 RETS CB W RWY OPR C206=METAR SLRA 271300Z 00000KT 7000 VCSH SCT15 FEW023CB OVC070 24/23Q1010 A2984 HR97 RETSRA CB/SH SW/W RWY HUM OPR=METAR SLMG 271300Z 00000KT 9999 VCTS SCT020 FEW023CB OVC200 24/23Q1009 A2980 HR96 CB/TS NW RWY OPR C210=METAR SLBU 271300Z 00000KT 8000 BKN080 BKN200 26/23 Q1010 A2983 HR85FU RWY HUM OPR=METAR SLSA 271300Z 00000KT 5000 -RA FU FEW007 SCT020 FEW023CB OVC07022/22 Q1010 A2984 HR98 CB NE=METAR SLSR 271300Z 12006KT 8000 FEW015 FEW023CB BKN080 25/22 Q1012A2988 HR82 FU CB W RWY WET INOP=METAR SLSM 271300Z 00000KT 9999 SCT023 BKN070 24/22 Q1011 A2987 HR87RWY HUM OPR=
ZPX0277 271259@CAELT@GG SLZZYMYT@CAELT@271258 SLSBYSYX@CAELT@SABO SLSB 271300@CAELT@METAR SLSB 271300Z 19006KT 9999 BKN080 26/23 Q1010 A2985 HR86 RWY WET@CAELT@OPR C210=@CAELT@
ZPX0279 271300@CAELT@GG SLZZYMYT@CAELT@271259 SLCBYGYS@CAELT@SABO SLCB 271300@CAELT@METAR SLCB 271300Z 00000KT 9999 FEW025 18/11 Q1024 A3025 750.8 HR63@CAELT@FU NOSIG=@CAELT@METAR SLAL 21300Z 00000KT 9999 FEW013 14/05 Q1027 A3035 702.7 HR54=@CAELT@METAR SLPO 271300Z NIL=@CAELT@METAR SLAG 271300Z 00000KT 9999 NSC 24/14 Q1014 A2997 887.2 HR54=METAR SLVM 271300Z 36010G20KT 9999 NSC 27/17 Q1010 A2983 HR57 CI=METAR SLTJ 271300Z 00000KT 9999 FEW040 19/10 Q1017 A3005 812.8 HR59=METAR SLYA 271300Z 06012KT 9999 NSC 27/18 Q1010 A2985 935.6 HR58=METAR SLBJ 271300Z NIL=METAR SLHI 271300Z NIL=
ZPX0280 271300@CAELT@GG SLZZYMYT@CAELT@271300 SLVRYGYS@CAELT@SABO SLVR 271300@CAELT@METAR SLVR 271300Z 12005KT 9999 FEW013 SCT070 26/19 Q1012 A2989 HR68@CAELT@NOSIG=@CAELT@METAR SLET 271300Z 10003KT 9999 FEW020 26/18 Q1012 A2989 HR60 AC@CAELT@METAR SLAS 271300Z 00000KT 9999 SCT070 29/22 Q1012 A2989 HR65 FU RWY@CAELT@NML=METAR SLJV 271300Z 00000KT 9999 SCT070 26/20 Q1010 A2983 HR69 RWY NMLMETAR SLCP 271300Z 09004KT 9999 SCT070 26/21 Q1013 A2991 HR78 RWY NMLMETAR SLSI 271300Z 00000KT 9999 NSC 26/22 Q1012 A2988 HR75 RWY NML=METAR SLTI 271300Z 00000KT 9999 BKN015 27/22 Q1014 A2994 HR76 RWY NMLMETAR SLJE 271300Z 00000KT 9999 SCT023 BKN070 28/21 Q1013 A2991 HR65RWY NML=METAR SLVG 271300Z 00000KT 9999 NSC 20/08 Q1022 A3018 HR37 RWY NML=METAR SLRB 271300Z 18004KT 9999 SCT070 27/22 Q1013 A2991 HR74 RWY NMLMETAR SLPS 271300Z 00000KT 9999 BKN015 25/24 Q1010 A2983 HR90=METAR SLCA 271300Z 00000KT 9999 NSC 25/14 Q1014 A2994 HR51 RWY NML=
ZPX0285 271305@CAELT@GG SLZZYMYT@CAELT@271301 SLLPYFYA@CAELT@SABO SLLP 271300@CAELT@METAR SLLP 271300Z 15004KT 8000 FEW007 SCT014 12/04 Q1036 A3062@CAELT@627.2 HR61 P92// VIS RED/SC BJOS NE/E/SE HZ/W AC/CI NOSIG=@CAELT@METAR SLCO 271300Z 18005KT 8000 BKN080 27/24 Q1011 A2986 983.9 HR88@CAELT@METAR SLRY 271300Z 00000KT 9999 BKN025 BKN200 24/23 Q1010 A2984 HR89@CAELT@RWY WET OPR C210METAR SLRQ 271300Z 00000KT 9999 SCT023 BKN200 25/22 Q1012 A2989 988.2HR83 AC=METAR SLAP 271300Z 00000KT 9999 SCT020 OVC070 20/18 Q1018 A3008HR89=METAR SLSB 271300Z 19006KT 9999 BKN080 26/23 Q1010 A2985 HR86 RWY WETOPR C210=METAR SLOR 271300Z 30004KT 9999 FEW017 13/01 Q1034 A3054 655.4 HR42METAR SLUY 271300Z 31003KT 9999 NSC 12/M09 Q1033 A3050 657.6HR22 CI=
ZPX0302 271351@CAELT@GG SLZZYMYT@CAELT@271352 SLPSYGYS@CAELT@SABO SLPS 261400@CAELT@METAR SLPS 261400Z 16005KT 9999 SCT015 BKN200 27/24 Q1010 A2983 HR88=@CAELT@
ZPX0305 271354@CAELT@GG SLZZYMYT@CAELT@271355 SLETYMYC@CAELT@SABO SLET 271400@CAELT@METAR SLET 271400Z 06004KT 9999 FEW020 27/18 Q1011 A2987 HR56 AC@CAELT@NOSIG=@CAELT@
ZPX0306 271354@CAELT@GG SLZZYMYT@CAELT@271353 SLRBYGYS@CAELT@SABO SLRB 271400@CAELT@METAR SLRB 271400Z 18006KT 9999 SCT070 28/22 Q1012 A2988 HR72 RWY NML=@CAELT@
ZPX0308 271355@CAELT@GG SLZZYMYT@CAELT@271355 SLRQYSYX@CAELT@SABO SLRQ 271400@CAELT@METAR SLRQ 271400Z 18004KT 9999 SCT030 BKN200 28/21 Q1011 A2987 987.5@CAELT@HR65 AC=@CAELT@
ZPX0309 271355@CAELT@GG SLZZYMYT@CAELT@271353 SLTRYGYZ@CAELT@SABO SLTR 271400@CAELT@METAR SLTR 271400Z 21004KT 7000 FEW017 SCT080 BKN200 28/21 Q1011@CAELT@A2986 992.5 HR66 FU NOSIG=@CAELT@
ZPX0310 271355@CAELT@GG SLZZYMYT@CAELT@271355 SLLPYGYZ@CAELT@SABO SLLP 271400@CAELT@METAR SLLP 271400Z 13004KT 9999 FEW008 SCT015 12/03 Q1037 A3062@CAELT@627.2 HR52 P93// HZ/NW AC/CI NOSIG=@CAELT@
ZPX0311 271355@CAELT@GG SLZZYMYT@CAELT@271356 SLVRYGYZ@CAELT@SABO SLVR 271400@CAELT@METAR SLVR 271400Z VRB02KT 9999 FEW013 27/19 Q1011 A2987 HR62 AC@CAELT@NOSIG=@CAELT@
ZPX0312 271356@CAELT@GG SLZZYMYT@CAELT@271355 SLSBYSYX@CAELT@SABO SLSB 271400@CAELT@METAR SLSB 271400Z 22005KT 9999 SCT080 29/22 Q1010 A2985 HR67 RWY WET@CAELT@OPR C210=@CAELT@
ZPX0313 271356@CAELT@GG SLZZYMYT@CAELT@271356 SLSAYGYS@CAELT@SABO SLSA 271400@CAELT@METAR SLSA 271400Z 19005KT 5000 FU SCT015 OVC070 23/22 Q1010 A2984@CAELT@HR97 RERA=@CAELT@
ZPX0314 271356@CAELT@GG SLZZYMYT@CAELT@271356 SLSAYGYS@CAELT@SABO SLSA 271400@CAELT@METAR SLSA 271400Z 19005KT 5000 FU SCT015 OVC070 23/22 Q1010 A2984@CAELT@HR97 RERA=@CAELT@
ZPX0315 271356@CAELT@GG SLZZYMYT@CAELT@271356 SLCBYGYZ@CAELT@SABO SLCB 271400@CAELT@METAR SLCB 271400Z 21004KT 9999 FEW030 21/10 Q1023 A3022 750.0 HR49@CAELT@FU NOSIG=@CAELT@
ZPX0316 271356@CAELT@GG SLZZYMYT@CAELT@271354 SLPSYGYS@CAELT@SABO SLPS 271400 CCA@CAELT@METAR COR SLPS 271400Z 16005KT 9999 SCT015 BKN200 27/24 Q1010 A2983@CAELT@HR88=@CAELT@
ZPX0317 271357@CAELT@GG SLZZYMYT@CAELT@271356 SLCAYGYS@CAELT@SABO SLCA 271400@CAELT@METAR SLCA 271400Z 00000KT 9999 NSC 28/16 Q1013 A2991 HR49 RWY NML=@CAELT@
ZPX0318 271357@CAELT@GG SLZZYMYT@CAELT@271357 SLUYYGYS@CAELT@SABO SLUY 271400@CAELT@METAR SLUY 271400Z 31003KT 9999 NSC 13/M08 Q1032 A3050 657.5@CAELT@HR22 CI=@CAELT@
ZPX0319 271358@CAELT@GG SLZZYMYT@CAELT@271358 SLTJYGYZ@CAELT@SABO SLTJ 271400@CAELT@METAR SLTJ 271400Z 18004KT 9999 FEW040 21/10 Q1016 A3001 811.9 HR47=@CAELT@
ZPX0320 271358@CAELT@GG SLZZYMYT@CAELT@271357 SLTRYGYS@CAELT@SABO SLTR 271400@CAELT@METAR SLTR 271400Z 21004KT 7000 FEW017 SCT080 BKN200 28/21 Q1011@CAELT@A2986 992.5 HR66 FU NOSIG=@CAELT@METAR SLGM 271400Z 36008KT 6000 VCSH SCT017 FEW020CB SCT070 BKN200@CAELT@30/25 Q1010 A2982 HR77 CB/SH SW/W FU=@CAELT@METAR SLRI 271400Z 07008KT 5000 VCSH BKN015 FEW020CB OVC070 27/25Q1010 A2985 HR85 CB/SH NE/E/SW/W/NW=METAR SLJO 271400Z 12004KT 6000 -RA SCT008 FEW025CB OVC070 23/23Q1011 A2987 HR97 CB NW RWY WET OPR C206=METAR SLRA 271400Z 14003KT 7000 VCSH SCT008 FEW023CB OVC070 24/23Q1010 A2985 HR96 CB/SH N/NE/NW RWY HUM OPRMETAR SLMG 271400Z 00000KT 9999 SCT020 OVC200 24/23 Q1010 A2983 HR93RWY OPR C210=METAR SLBU 271400Z 03006KT 8000 SCT080 BKN200 28/23 Q1010 A2984 HR73FU RWY NML=METAR SLSA 271400Z 19005KT 5000 FU SCT015 OVC070 23/22 Q1010 A2984HR97 RERA=METAR SLSR 271400Z 12006KT 8000 FEW015 FEW023CB BKNK080 27/22 Q1012A2990 HR75 FU CB W RWY WET INOP=METAR SLSM 271400Z 00000KT 9999 FEW023 BKN070 26/22 Q1011 A2988 HR79RWY HUM OPR=
ZPX0321 271358@CAELT@GG SLZZYMYT@CAELT@271358 SLORYGYZ@CAELT@SABO SLOR 271400@CAELT@METAR SLOR 271400Z 30006KT 9999 FEW017 15/01 Q1034 A3055 655.6 HR38@CAELT@
ZPX0322 271358@CAELT@GG SLZZYMYT@CAELT@271358 SLCBYGYZ@CAELT@SABO SLCB 271400@CAELT@METAR SLCB 271400Z 21004KT 9999 FEW030 21/10 Q1023 A3022 750.0 HR49@CAELT@FU NOSIG=@CAELT@
ZPX0325 271359@CAELT@GG SLZZYMYT@CAELT@271359 SLVRYGYS@CAELT@SABO SLVR 271400@CAELT@METAR SLVR 271400Z VRB02KT 9999 FEW013 27/19 Q1011 A2987 HR62 AC@CAELT@NOSIG=@CAELT@METAR SLET 271400Z 06004KT 9999 FEW020 27/18 Q1011 A2987 HR56 AC@CAELT@METAR SLAS 271400Z 00000KT 9999 SCT070 31/20 Q1012 A2989 HR52 FU RWY@CAELT@NML=METAR SLJV 271400Z 09005KT 9999 SCT070 29/21 Q1009 A2980 HR63 RWY NMLMETAR SLCP 271400Z 09004KT 9999 SCT070 27/21 Q1013 A2991 HR72 RWY NMLMETAR SLSI 271400Z 00000KT 9999 NSC 30/23 Q1011 A2985 HR70 RWY NML=METAR SLTI 271400Z 00000KT 9999 BKN015 28/22 Q1014 A2994 HR69 RWY NMLMETAR SLJE 271400Z 00000KT 9999 SCT023 31/21 Q1013 A2991 HR57 RWY NMLMETAR SLVG 271400Z 34005KT 9999 NSC 22/08 Q1022 A3018 HR34 RWY NML=METAR SLRB 271400Z 18006KT 9999 SCT070 28/22 Q1012 A2988 HR72 RWY NMLMETAR SLPS 271400Z 16005KT 9999 SCT015 BKN200 27/24 Q1010 A2983HR88=ETAR SLCA 271400Z 00000KT 9999 NSC 28/16 Q1013 A2991 HR49 RWY NML=
ZPX0328 271401@CAELT@GG SLZZYMYT@CAELT@271400 SLLPYFYA@CAELT@SABO SLAP 271400@CAELT@METAR SLAP 271400Z 00000KT 9999 FEW025 OVC070 20/17 Q1018 A3008 859.1@CAELT@HR83=@CAELT@
ZPX0329 271401@CAELT@GG SLZZYMYT@CAELT@271401 SLCBYGYS@CAELT@SABO SLCB 271400@CAELT@METAR SLCB 271400Z 21004KT 9999 FEW030 21/10 Q1023 A3022 750.0 HR49@CAELT@FU NOSIG=@CAELT@METAR SLAL 271400Z NIL=@CAELT@METAR SLPO 271400Z NIL=@CAELT@METAR SLAG 271400Z 20005KT 9999 NSC 28/13 Q1013 A2994 886.2 HR39=METAR SLVM 271400Z 36007KT 9999 NSC 29/17 Q//// A//// HR50=METAR SLTJ 271400Z 18004KT 9999 FEW040 21/10 Q1016 A3001 811.9 HR47=METAR SLYA 271400Z 06010KT 9999 NSC 28/19 Q1009 A2981 934.3 HR58=METAR SLBJ 271400Z NIL=METAR SLHI 271400Z NIL=
ZPX0332 271405@CAELT@GG SLZZYMYT@CAELT@271401 SLLPYFYA@CAELT@SABO SLLP 271400@CAELT@METAR SLLP 271400Z 13004KT 9999 FEW008 SCT015 12/03 Q1037 A3062@CAELT@627.2 HR52 P93// HZ/NW AC/CI NOSIG=@CAELT@METAR SLRQ 271400Z 18004KT 9999 SCT030 BKN200 28/21 Q1011 A2987 987.5@CAELT@HR65 AC=@CAELT@METAR SLAP 271400Z 00000KT 9999 FEW025 OVC070 20/17 Q1018 A3008 859.1HR83=METAR SLSB 271400Z 22005KT 9999 SCT080 29/22 Q1010 A2985 HR67 RWY WETOPR C210=METAR SLOR 271400Z 30006KT 9999 FEW017 15/01 Q1034 A3055 655.6 HR38METAR SLUY 271400Z 31003KT 9999 NSC 13/M08 Q1032 A3050 657.5HR22 CI=
ZPX0333 271406@CAELT@GG SLZZYMYT@CAELT@271406 SLCOYGYZ@CAELT@SABO SLCO 271400 RRB@CAELT@METAR RTD SLCO 271400Z 18004KT 9999 BKN080 28/25 Q1010 A2985 983.4@CAELT@HR88 FU=@CAELT@
ZPX0334 271408@CAELT@GG SLZZYMYT@CAELT@271404 SLLPYFYA@CAELT@SABO SLLP 271400 RRA@CAELT@METAR SLLP 271400Z 13004KT 9999 FEW008 SCT015 12/03 Q1037 A3062@CAELT@627.2 HR52 P93// HZ/NW AC/CI NOSIG=@CAELT@METAR RTD SLCO 271400Z 18004KT 9999 BKN080 28/25 Q1010 A2985 983.4@CAELT@HR88 FU=@CAELT@METAR SLRQ 271400Z 18004KT 9999 SCT030 BKN200 28/21 Q1011 A2987 987.5HR65 AC=METAR SLAP 271400Z 00000KT 9999 FEW025 OVC070 20/17 Q1018 A3008 859.1HR83=METAR SLSB 271400Z 22005KT 9999 SCT080 29/22 Q1010 A2985 HR67 RWY WETOPR C210=METAR SLOR 271400Z 30006KT 9999 FEW017 15/01 Q1034 A3055 655.6 HR38METAR SLUY 271400Z 31003KT 9999 NSC 13/M08 Q1032 A3050 657.5HR22 CI=
ZPX0336 271409@CAELT@GG SLZZYMYT@CAELT@271352 SLRYYSYX@CAELT@SABO SLRY 271400@CAELT@METAR SLRY 271400Z 00000KT 9999 BKN027 BKN200 27/22 Q1010 A2985 HR72@CAELT@RWY WET OPR C210=@CAELT@
ZPX0337 271411@CAELT@GG SLZZYMYT@CAELT@271408 SLLPYFYA@CAELT@SABO SLLP 271400 RRB@CAELT@METAR SLLP 271400Z 13004KT 9999 FEW008 SCT015 12/03 Q1037 A3062@CAELT@627.2 HR52 P93// HZ/NW AC/CI NOSIG=@CAELT@METAR RTD SLCO 271400Z 18004KT 9999 BKN080 28/25 Q1010 A2985 983.4@CAELT@HR88 FU=@CAELT@METAR RTD SLRY 271400Z 00000KT 9999 BKN027 BKN200 27/22 Q1010 A2985HR72 RWY WET OPR C210=METAR SLRQ 271400Z 18004KT 9999 SCT030 BKN200 28/21 Q1011 A2987 987.5HR65 AC=METAR SLAP 271400Z 00000KT 9999 FEW025 OVC070 20/17 Q1018 A3008 859.1HR83=METAR SLSB 271400Z 22005KT 9999 SCT080 29/22 Q1010 A2985 HR67 RWY WETOPR C210=METAR SLOR 271400Z 30006KT 9999 FEW017 15/01 Q1034 A3055 655.6 HR38METAR SLUY 271400Z 31003KT 9999 NSC 13/M08 Q1032 A3050 657.5HR22 CI=
ZPX0362 271438@CAELT@GG SLZZYMYT@CAELT@271405 SLCBYGYS@CAELT@SABO SLCB 271400 RRA@CAELT@METAR SLCB 271400Z 21004KT 9999 FEW030 21/10 Q1023 A3022 750.0 HR49@CAELT@FU NOSIG=@CAELT@METAR RTD SLAL 271400Z 00000KT 9999 NSC 16/04 Q1027 A3033 702.3 HR44=@CAELT@METAR SLPO 271400Z NIL=@CAELT@METAR SLAG 271400Z 20005KT 9999 NSC 28/13 Q1013 A2994 886.2 HR39=METAR SLVM 271400Z 36007KT 9999 NSC 29/17 Q//// A//// HR50=METAR SLTJ 271400Z 18004KT 9999 FEW040 21/10 Q1016 A3001 811.9 HR47=METAR SLYA 271400Z 06010KT 9999 NSC 28/19 Q1009 A2981 934.3 HR58=METAR SLBJ 271400Z NIL=METAR SLHI 271400Z NIL=
ZPX0371 271452@CAELT@GG SLZZYMYT@CAELT@271452 SLPSYGYS@CAELT@SABO SLPS 271500@CAELT@METAR SLPS 271500Z 16004KT 9999 SCT015 OVC070 28/24 Q1009 A2980 HR80=@CAELT@
ZPX0372 271452@CAELT@GG SLZZYMYT@CAELT@271452 SLRYYSYX@CAELT@SABO SLRY 271500@CAELT@METAR SLRY 271500Z 00000KT 9999 SCT030 BKN070 BKN200 27/22 Q109 A2982@CAELT@HR72 RWY HUM OPR C210=@CAELT@
ZPX0373 271454@CAELT@GG SLZZYMYT@CAELT@271454 SLSBYSYX@CAELT@SABO SLSB 271500@CAELT@METAR SLSB 271500Z 13005KT 9999 SCT080 30/22 Q1010 A2984 HR63 RWY WET@CAELT@OPR C210=@CAELT@
ZPX0374 271454@CAELT@GG SLZZYMYT@CAELT@271455 SLTJYGYZ@CAELT@SABO SLTJ 271500@CAELT@METAR SLTJ 271500Z 22004KT 9999 FEW040 24/10 Q1014 A2996 810.5 HR41=@CAELT@
ZPX0375 271454@CAELT@GG SLZZYMYT@CAELT@271454 SLSAYGYS@CAELT@SABO SLSA 271500@CAELT@METAR SLSA 271500Z 00000KT 5000 FU SCT015 BKN070 24/22 Q1010 A2984@CAELT@HR92=@CAELT@
ZPX0376 271454@CAELT@GG SLZZYMYT@CAELT@271454 SLSAYGYS@CAELT@SABO SLSA 271500@CAELT@METAR SLSA 271500Z 00000KT 5000 FU SCT015 BKN070 24/22 Q1010 A2984@CAELT@HR92=@CAELT@
ZPX0379 271455@CAELT@GG SLZZYMYT@CAELT@271455 SLCAYGYS@CAELT@SABO SLCA 271500@CAELT@METAR SLCA 271500Z 00000KT 9999 NSC 30/12 Q1011 A2985 HR33 RWY NML=@CAELT@
ZPX0380 271455@CAELT@GG SLZZYMYT@CAELT@271453 SLRBYGYS@CAELT@SABO SLRB 271500@CAELT@METAR SLRB 271500Z 18006KT 9999 FEW020 29/22 Q1012 A2988 HR67 RWY NML=@CAELT@
ZPX0382 271456@CAELT@GG SLZZYMYT@CAELT@271456 SLTRYGYZ@CAELT@SABO SLTR 271500@CAELT@METAR SLTR 271500Z 00000KT 7000 FEW017 SCT080 BKN200 29/21 Q1010@CAELT@A2985 992.2 HR60 FU NOSIG=@CAELT@
ZPX0383 271456@CAELT@GG SLZZYMYT@CAELT@271455 SLUYYGYS@CAELT@SABO SLUY 271500@CAELT@METAR SLUY 271500Z 31007KT 9999 NSC 14/M08 Q1032 A3048 657.1@CAELT@HR22 CI=@CAELT@
ZPX0384 271456@CAELT@GG SLZZYMYT@CAELT@271455 SLAGYSYX@CAELT@SABO SLAG 271500@CAELT@METAR SLAG 271500Z 14008KT 9999 NSC 30/13 Q1012 A2990 885.0 HR36=@CAELT@
ZPX0386 271457@CAELT@GG SLZZYMYT@CAELT@271455 SLRQYSYX@CAELT@SABO SLRQ 271500@CAELT@METAR SLRQ 271500Z 18006KT 9999 SCT030 SCT080 BKN200 30/22 Q1011@CAELT@A2986 986.9 HR63=@CAELT@
ZPX0387 271457@CAELT@GG SLZZYMYT@CAELT@271458 SLVRYGYZ@CAELT@SABO SLVR 271500@CAELT@METAR SLVR 271500Z VRB02KT 9999 FEW015 BKN070 28/19 Q1010 A2984 HR58@CAELT@NOSIG=@CAELT@
ZPX0389 271457@CAELT@GG SLZZYMYT@CAELT@271455 SLLPYGYZ@CAELT@SABO SLLP 271500@CAELT@METAR SLLP 271500Z 08007KT 9999 SCT017 FEW020CB 16/M01 Q1036@CAELT@A3060 626.8 HR32 P93// CB/S AC/CI NOSIG=@CAELT@
ZPX0390 271457@CAELT@GG SLZZYMYT@CAELT@271458 SLVRYGYS@CAELT@SABO SLVR 271500@CAELT@METAR SLVR 271500Z VRB02KT 9999 FEW015 BKN070 28/19 Q1010 A2984 HR58@CAELT@NOSIG=@CAELT@METAR SLET 271500Z 08004KT 9999 FEW020 SCT080 29/18 Q1010 A2984 HR51@CAELT@METAR SLAS 271500Z 00000KT 9999 NSC 32/20 Q1011 A2986 HR50 FU RWY NML@CAELT@METAR SLJV 271500Z 34005KT 9999 SCT070 30/21 Q1009 A2980 HR58 RWY NMLMETAR SLCP 271500Z 05004KT 9999 FEW020 28/21 Q1013 A2991 HR66 RWY NMLMETAR SLSI 271500Z 00000KT 9999 FEW017 30/23 Q1010 A2983 HR62 RWY NMLMETAR SLTI 271500Z 00000KT 9999 BKN017 28/22 Q1013 A2991 HR67 RWY NMLMETAR SLJE 271500Z 00000KT 9999 FEW017 33/22 Q1012 A2988 HR53 RWY NMLMETAR SLVG 271500Z 35004KT 9999 NSC 24/09 Q1021 A3015 HR34 RWY NMLMETAR SLRB 271500Z 18006KT 9999 FEW020 29/22 Q1012 A2988 HR67 RWY NMLMETAR SLPS 271500Z 16004KT 9999 SCT015 OVC070 28/24 Q1009 A2980 HR80=METAR SLCA 271500Z 00000KT 9999 NSC 30/12 Q1011 A2985 HR33 RWY NML=
ZPX0392 271458@CAELT@GG SLZZYMYT@CAELT@271455 SLORYGYZ@CAELT@SABO SLOR 271500@CAELT@METAR SLOR 271500Z 12004KT 9999 FEW020 17/01 Q1033 A3052 655.0 HR34@CAELT@
ZPX0394 271459@CAELT@GG SLZZYMYT@CAELT@271458 SLCOYGYZ@CAELT@SABO SLCO 271500@CAELT@METAR SLCO 271500Z 16007KT 7000 VCSH SCT010 FEW017CB BKN080 26/25@CAELT@Q1010 A2985 983.3 HR93 CB/SH S/SW RERA=@CAELT@
ZPX0397 271459@CAELT@GG SLZZYMYT@CAELT@271459 SLCBYGYZ@CAELT@SABO SLCB 271500@CAELT@METAR SLCB 271500Z 16006KT 9999 FEW033 23/10 Q1021 A3017 748.9 HR44@CAELT@FU CI NOSIG=@CAELT@
ZPX0400 271501@CAELT@GG SLZZYMYT@CAELT@271459 SLTRYGYS@CAELT@SABO SLTR 271500@CAELT@METAR SLTR 271500Z 00000KT 7000 FEW017 SCT080 BKN200 29/21 Q1010@CAELT@A2985 992.2 HR60 FU NOSIG=@CAELT@METAR SLGM 271500Z 02013KT 6000 VCSH SCT017 FEW020CB OVC070 29/24@CAELT@Q1009 A2981 HR76 CB/SH N/NE/NW FU=@CAELT@METAR SLRI 271500Z 16006KT 5000 VCSH SCT008 BKN015 FEW020CB OVC07026/25 Q1011 A2986 HR95 CB/SH N/S/SW/W/NW=METAR SLJO 271500Z 00000KT 7000 -RA SCT010 OVC070 23/23 Q1011 A2986HR98 RWY WET OPR C206=METAR SLRA 271500Z 09004KT 7000 VCSH SCT008 FEW023CB OVC070 25/23Q1010 A2985 HR94 CB/SH N/NE/NW RWY HUM OPR=METAR SLMG 271500Z 00000KT 9999 SCT020 OVC200 25/24 Q1010 A2985 HR91RWY OPR C210=METAR SLBU 271500Z 03004KT 8000 SCT080 BKN200 29/23 Q1010 A2983 HR72FU RWY NML=METAR SLSA 271500Z 00000KT 5000 FU SCT015 BKN070 24/22 Q1010 A2984HR92=METAR SLSR 271500Z 12006KT 8000 FEW017 SCT080 BKN200 27/21 Q1011A2986 HR68 FU RWY WET INOP=METAR SLSM 271500Z 00000KT 9999 BKN070 BKN200 28/21 Q1011 A2987 HR68RWY NML=
ZPX0401 271501@CAELT@GG SLZZYMYT@CAELT@271500 SLCBYGYS@CAELT@SABO SLCB 271500@CAELT@METAR SLCB 271500Z 16006KT 9999 FEW033 23/10 Q1021 A3017 748.9 HR44@CAELT@FU CI NOSIG=@CAELT@METAR SLAL 271500Z 00000KT 9999 FEW017 19/07 Q1026 A3030 701.6 HR46=@CAELT@METAR SLPO 271500Z NIL=@CAELT@METAR SLAG 271500Z 14008KT 9999 NSC 30/13 Q1012 A2990 885.0 HR36=METAR SLVM 271500Z 36010KT 9999 NSC 31/18 Q1007 A2975 HR47=METAR SLTJ 271500Z 22004KT 9999 FEW040 24/10 Q1014 A2996 810.5 HR41=METAR SLYA 271500Z 06010KT 9999 NSC 30/19 Q1008 A2977 933.2 HR54=METAR SLBJ 271500Z NIL=METAR SLHI 271500Z NIL=
ZPX0404 271502@CAELT@GG SLZZYMYT@CAELT@271500 SLLPYFYA@CAELT@SABO SLLP 271500@CAELT@METAR SLLP 271500Z 08007KT 9999 SCT017 FEW020CB 16/M01 Q1036@CAELT@A3060 626.8 HR32 P93// CB/S AC/CI NOSIG=@CAELT@METAR SLCO 271500Z 16007KT 7000 VCSH SCT010 FEW017CB BKN080 26/25@CAELT@Q1010 A2985 983.3 HR93 CB/SH S/SW RERA=@CAELT@METAR SLRY 271500Z 00000KT 9999 SCT030 BKN070 BKN200 27/22 Q109 A2982HR72 RWY HUM OPR C210=METAR SLRQ 271500Z 18006KT 9999 SCT030 SCT080 BKN200 30/22 Q1011A2986 986.9 HR63=METAR SLSB 271500Z 13005KT 9999 SCT080 30/22 Q1010 A2984 HR63 RWY WETOPR C210=METAR SLOR 271500Z 12004KT 9999 FEW020 17/01 Q1033 A3052 655.0 HR34METAR SLUY 271500Z 31007KT 9999 NSC 14/M08 Q1032 A3048 657.1HR22 CI=
ZPX0406 271504@CAELT@GG SLZZYMYT@CAELT@271500 SLLPYFYA@CAELT@SABO SLLP 271500@CAELT@METAR SLLP 271500Z 08007KT 9999 SCT017 FEW020CB 16/M01 Q1036@CAELT@A3060 626.8 HR32 P93// CB/S AC/CI NOSIG=@CAELT@METAR SLCO 271500Z 16007KT 7000 VCSH SCT010 FEW017CB BKN080 26/25@CAELT@Q1010 A2985 983.3 HR93 CB/SH S/SW RERA=@CAELT@METAR SLRY 271500Z 00000KT 9999 SCT030 BKN070 BKN200 27/22 Q109 A2982HR72 RWY HUM OPR C210=METAR SLRQ 271500Z 18006KT 9999 SCT030 SCT080 BKN200 30/22 Q1011A2986 986.9 HR63=METAR SLAP 271500Z 00000KT 9999 FEW025 OVC070 22/18 Q1019 A30011 859.9 HR76=METAR SLSB 271500Z 13005KT 9999 SCT080 30/22 Q1010 A2984 HR63 RWY WETOPR C210=METAR SLOR 271500Z 12004KT 9999 FEW020 17/01 Q1033 A3052 655.0 HR34METAR SLUY 271500Z 31007KT 9999 NSC 14/M08 Q1032 A3048 657.1HR22 CI=
ZPX0432 271551@CAELT@GG SLZZYMYT@CAELT@271551 SLPSYGYS@CAELT@SABO SLPS 271600@CAELT@METAR SLPS 271600Z 00000KT 9999 BKN017 OVC070 29/24 Q1008 A2977 HR78=@CAELT@
ZPX0433 271552@CAELT@GG SLZZYMYT@CAELT@271552 SLRYYSYX@CAELT@SABO SLRY 271600@CAELT@METAR SLRY 271600Z 00000KT 9999 BKN070 BKN200 28/22 Q1009 A2980 HR69@CAELT@RWY HUM OPR C210=@CAELT@
ZPX0434 271553@CAELT@GG SLZZYMYT@CAELT@271553 SLRBYGYS@CAELT@SABO SLRB 271600@CAELT@METAR SLRB 271600Z 18006KT 9999 SCT020 31/23 Q1010 A2983 HR62 RWY NML=@CAELT@
ZPX0435 271554@CAELT@GG SLZZYMYT@CAELT@271555 SLORYGYZ@CAELT@SABO SLOR 271600@CAELT@METAR SLOR 271600Z 07003KT 9999 FEW020 19/M00 Q1033 A3050 654.5 HR27=@CAELT@
ZPX0436 271554@CAELT@GG SLZZYMYT@CAELT@271555 SLRQYSYX@CAELT@SABO SLRQ 271600@CAELT@METAR SLRQ 271600Z 20004KT 9999 FEW017 SCT080 BKN200 32/22 Q1010@CAELT@A2983 985.9 HR55=@CAELT@
ZPX0437 271555@CAELT@GG SLZZYMYT@CAELT@271554 SLSBYSYX@CAELT@SABO SLSB 271600@CAELT@METAR SLSB 271600Z 12004KT 9999 SCT080 31/21 Q1010 A2984 HR57 RWY WET@CAELT@OPR C210=@CAELT@
ZPX0438 271555@CAELT@GG SLZZYMYT@CAELT@271555 SLTRYGYZ@CAELT@SABO SLTR 271600@CAELT@METAR SLTR 271600Z 10004KT 7000 FEW017 SCT080 BKN200 31/21 Q1010@CAELT@A2983 991.6 HR56 FU NOSIG=@CAELT@
ZPX0439 271555@CAELT@GG SLZZYMYT@CAELT@271555 SLUYYGYS@CAELT@SABO SLUY 271600@CAELT@METAR SLUY 271600Z 32010KT 9999 NSC 16/M08 Q1031 A3045 656.4@CAELT@HR18 CI=@CAELT@
ZPX0440 271555@CAELT@GG SLZZYMYT@CAELT@271554 SLSAYGYS@CAELT@SABO SLSA 271600@CAELT@METAR SLSA 271600Z 00000KT 6000 SCT020 BKN070 25/23 Q1009 A2982@CAELT@HR86 FU=@CAELT@
ZPX0441 271555@CAELT@GG SLZZYMYT@CAELT@271554 SLSAYGYS@CAELT@SABO SLSA 271600@CAELT@METAR SLSA 271600Z 00000KT 6000 SCT020 BKN070 25/23 Q1009 A2982@CAELT@HR86 FU=@CAELT@
ZPX0442 271555@CAELT@GG SLZZYMYT@CAELT@271556 SLVRYGYZ@CAELT@SABO SLVR 271600@CAELT@METAR SLVR 271600Z 07003KT 9999 FEW015 29/20 Q1009 A2981 HR57 AC@CAELT@NOSIG=@CAELT@
ZPX0443 271555@CAELT@GG SLZZYMYT@CAELT@271552 SLAGYSYX@CAELT@SABO SLAG 271600@CAELT@METAR SLAG 271600Z 15005KT 9999 NSC 31/13 Q1010 A2985 883.7 HR33=@CAELT@
ZPX0444 271555@CAELT@GG SLZZYMYT@CAELT@271555 SLLPYGYZ@CAELT@SABO SLLP 271600@CAELT@METAR SLLP 271600Z 23008KT 9999 SCT020 FEW023CB 17/M02 Q1035@CAELT@A3058 626.3 HR28 P1483 CB/NE AC/CI NOSIG=@CAELT@
ZPX0445 271556@CAELT@GG SLZZYMYT@CAELT@271555 SLCAYGYS@CAELT@SABO SLCA 271600@CAELT@METAR SLCA 271600Z 00000KT 9999 NSC 32/12 Q1010 A2983 HR30 RWY NML=@CAELT@
ZPX0447 271556@CAELT@GG SLZZYMYT@CAELT@271556 SLETYMYC@CAELT@SABO SLET 271600@CAELT@METAR SLET 271600Z 11004KT 9999 FEW020 29/18 Q1008 A2979 HR49 NOSIG=@CAELT@
ZPX0448 271557@CAELT@GG SLZZYMYT@CAELT@271557 SLCBYGYZ@CAELT@SABO SLCB 271600@CAELT@METAR SLCB 271600Z 16003KT 9999 FEW033 25/09 Q1020 A3013 747.7 HR36@CAELT@FU NOSIG=@CAELT@
ZPX0449 271558@CAELT@GG SLZZYMYT@CAELT@271558 SLVRYGYS@CAELT@SABO SLVR 271600@CAELT@METAR SLVR 271600Z 07003KT 9999 FEW015 29/20 Q1009 A2981 HR57 AC@CAELT@NOSIG=@CAELT@METAR SLET 271600Z 11004KT 9999 FEW020 29/18 Q1008 A2979 HR49 NOSIG=@CAELT@METAR SLAS 271600Z 00000KT 9999 NSC 33/20 Q1009 A2980 HR47 FU RWY NML@CAELT@METAR SLCP 271600Z 00000KT 9999 SCT020 30/22 Q1012 A2988 HR64 RWY NMLMETAR SLSI 271600Z 00000KT 9999 SCT017 31/22 Q1008 A2977 HR53 RWY NMLMETAR SLTI 271600Z 00000KT 9999 BKN017 30/22 Q1012 A2988 HR58 RWY NMLMETAR SLRB 271600Z 18006KT 9999 SCT020 31/23 Q1010 A2983 HR62 RWY NMLMETAR SLPS 271600Z 00000KT 9999 BKN017 OVC070 29/24 Q1008 A2977 HR78=METAR SLCA 271600Z 00000KT 9999 NSC 32/12 Q1010 A2983 HR30 RWY NML=
ZPX0450 271558@CAELT@GG SLZZYMYT@CAELT@271558 SLTJYGYZ@CAELT@SABO SLTJ 271600@CAELT@METAR SLTJ 271600Z 22005KT 9999 FEW040 27/10 Q1013 A2991 809.1 HR34=@CAELT@
ZPX0451 271558@CAELT@GG SLZZYMYT@CAELT@271558 SLCOYGYZ@CAELT@SABO SLCO 271600@CAELT@METAR SLCO 271600Z 16010KT 6000 VCSH SCT010 FEW017CB BKN080 26/25@CAELT@Q1010 A2985 983.3 HR95 CB/SH SE/S RERA=@CAELT@
ZPX0452 271559@CAELT@GG SLZZYMYT@CAELT@271558 SLLPYFYA@CAELT@SABO SLAP 271600@CAELT@METAR SLAP 271600Z 00000KT 9999 FEW025 BKN070 24/20 Q1017 A3003 857.8@CAELT@HR75=@CAELT@
ZPX0453 271559@CAELT@GG SLZZYMYT@CAELT@271559 SLCBYGYS@CAELT@SABO SLCB 271600@CAELT@METAR SLCB 271600Z 16003KT 9999 FEW033 25/09 Q1020 A3013 747.7 HR36@CAELT@FU NOSIG=@CAELT@METAR SLAL 271600Z 00000KT 9999 FEW020 20/07 Q1024 A3026 700.6 HR44=@CAELT@METAR SLPO 271600Z NIL=@CAELT@METAR SLAG 271600Z 15005KT 9999 NSC 31/13 Q1010 A2985 883.7 HR33=METAR SLVM 271600Z 00000KT 9999 NSC 32/18 Q1005 A2970 HR43=METAR SLTJ 271600Z 22005KT 9999 FEW040 27/10 Q1013 A2991 809.1 HR34=METAR SLYA 271600Z 06010KT 9999 NSC 31/19 Q1007 A2975 932.5 HR50=METAR SLBJ 271600Z NIL=METAR SLHI 271600Z NIL=
ZPX0455 271600@CAELT@GG SLZZYMYT@CAELT@271600 SLTRYGYS@CAELT@SABO SLTR 271600@CAELT@METAR SLTR 271600Z 10004KT 7000 FEW017 SCT080 BKN200 31/21 Q1010@CAELT@A2983 991.6 HR56 FU NOSIG=@CAELT@METAR SLGM 271600Z 36006KT 6000 TS VCSH SCT017 FEW020CB OVC070 28/24@CAELT@Q1009 A2980 HR80 CB/SH N/S/SW/NW TS S/SW FU=@CAELT@METAR SLRI 271600Z 27012KT 2000 RA SCT004 BKN015 FEW020CB OVC07024/24 Q1011 A2987 HR98 CB S/SW/W/NW=METAR SLJO 271600Z 09003KT 8000 -RA SCT010 OVC070 23/23 Q1010 A2985HR98 RWY WET OPR C206=METAR SLRA 271600Z 09004KT 7000 VCSH SCT008 FEW023CB OVC070 25/24Q1010 A2985 HR96 CB/SH N/NW RWY HUM OPR=METAR SLMG 271600Z NIL=METAR SLBU 271600Z 00000KT 8000 SCT080 BKN200 29/24 Q1009 A2981 HR71FU RWY NML=METAR SLSA 271600Z 00000KT 6000 SCT020 BKN070 25/23 Q1009 A2982 HR86METAR SLSR 271600Z 12006KT 8000 FEW017 SCT080 BKN200 29/22 Q1010A2985 HR63 FU RWY OPR C206=METAR SLSM 271600Z NIL=
ZPX0456 271602@CAELT@GG SLZZYMYT@CAELT@271600 SLLPYFYA@CAELT@SABO SLLP 271600@CAELT@METAR SLLP 271600Z 23008KT 9999 SCT020 FEW023CB 17/M02 Q1035@CAELT@A3058 626.3 HR28 P1483 CB/NE AC/CI NOSIG=@CAELT@METAR SLCO 271600Z 16010KT 6000 VCSH SCT010 FEW017CB BKN080 26/25@CAELT@Q1010 A2985 983.3 HR95 CB/SH SE/S RERA=@CAELT@METAR SLRY 271600Z 00000KT 9999 BKN070 BKN200 28/22 Q1009 A2980 HR69RWY HUM OPR C210=METAR SLRQ 271600Z 20004KT 9999 FEW017 SCT080 BKN200 32/22 Q1010A2983 985.9 HR55=METAR SLAP 271600Z 00000KT 9999 FEW025 BKN070 24/20 Q1017 A3003 857.8HR75=METAR SLSB 271600Z 12004KT 9999 SCT080 31/21 Q1010 A2984 HR57 RWY WETOPR C210=METAR SLOR 271600Z 07003KT 9999 FEW020 19/M00 Q1033 A3050 654.5 HR27=METAR SLUY 271600Z 32010KT 9999 NSC 16/M08 Q1031 A3045 656.4HR18 CI=
ZPX0459 271610@CAELT@GG SLZZYMYT@CAELT@271608 SLTRYGYS@CAELT@SABO SLTR 271600 RRA@CAELT@METAR SLTR 271600Z 10004KT 7000 FEW017 SCT080 BKN200 31/21 Q1010@CAELT@A2983 991.6 HR56 FU NOSIG=@CAELT@METAR SLGM 271600Z 36006KT 6000 TS VCSH SCT017 FEW020CB OVC070 28/24@CAELT@Q1009 A2980 HR80 CB/SH N/S/SW/NW TS S/SW FU=@CAELT@METAR SLRI 271600Z 27012KT 2000 RA SCT004 BKN015 FEW020CB OVC07024/24 Q1011 A2987 HR98 CB S/SW/W/NW=METAR SLJO 271600Z 09003KT 8000 -RA SCT010 OVC070 23/23 Q1010 A2985HR98 RWY WET OPR C206=METAR SLRA 271600Z 09004KT 7000 VCSH SCT008 FEW023CB OVC070 25/24Q1010 A2985 HR96 CB/SH N/NW RWY HUM OPR=METAR RTD SLMG 271600Z 00000KT 9999 FEW015 OVC200 26/24 Q1010 A2985HR88 RWY OPR C210=METAR SLBU 271600Z 00000KT 8000 SCT080 BKN200 29/24 Q1009 A2981 HR71FU RWY NML=METAR SLSA 271600Z 00000KT 6000 SCT020 BKN070 25/23 Q1009 A2982 HR86METAR SLSR 271600Z 12006KT 8000 FEW017 SCT080 BKN200 29/22 Q1010A2985 HR63 FU RWY OPR C206=METAR SLSM 271600Z 00000KT 9999 SCT080 BKN200 29/21 Q1010 A2984 HR62RWY NML=
ZPX0482 271652@CAELT@GG SLZZYMYT@CAELT@271652 SLCAYGYS@CAELT@SABO SLCA 271700@CAELT@METAR SLCA 271700Z 00000KT 9999 NSC 33/12 Q1008 A2977 HR29 RWY NML=@CAELT@
ZPX0483 271652@CAELT@GG SLZZYMYT@CAELT@271652 SLRYYSYX@CAELT@SABO SLRY 271700@CAELT@METAR SLRY 271700Z 14003KT 9999 SCT080 BKN200 30/22 Q1007 A2976 HR63@CAELT@RWY HUM OPR C210=@CAELT@
ZPX0484 271653@CAELT@GG SLZZYMYT@CAELT@271653 SLPSYGYS@CAELT@SABO SLPS 271700@CAELT@METAR SLPS 271700Z 00000KT 9999 SCT017 BKN200 30/25 Q1007 A2974 HR74=@CAELT@
ZPX0485 271653@CAELT@GG SLZZYMYT@CAELT@271654 SLSAYGYS@CAELT@SABO SLSA 271700@CAELT@METAR SLSA 271700Z 00000KT 6000 SCT015 BKN070 26/23 Q1009 A2980@CAELT@HR80 FU=@CAELT@
ZPX0486 271653@CAELT@GG SLZZYMYT@CAELT@271654 SLSAYGYS@CAELT@SABO SLSA 271700@CAELT@METAR SLSA 271700Z 00000KT 6000 SCT015 BKN070 26/23 Q1009 A2980@CAELT@HR80 FU=@CAELT@
ZPX0487 271654@CAELT@GG SLZZYMYT@CAELT@271653 SLRBYGYS@CAELT@SABO SLRB 271700@CAELT@METAR SLRB 271700Z 18004KT 9999 BKN020 31/23 Q1009 A2980 HR62 RWY NML=@CAELT@
ZPX0488 271654@CAELT@GG SLZZYMYT@CAELT@271654 SLSBYSYX@CAELT@SABO SLSB 271700@CAELT@METAR SLSB 271700Z 10007KT 9999 FEW020 SCT080 31/20 Q1009 A2979 HR54@CAELT@RWY WET OPR C210=@CAELT@
ZPX0489 271654@CAELT@GG SLZZYMYT@CAELT@271655 SLORYGYZ@CAELT@SABO SLOR 271700@CAELT@METAR SLOR 271700Z 17010KT 9999 FEW020 21/M02 Q1032 A3048 653.9 HR22=@CAELT@
ZPX0490 271655@CAELT@GG SLZZYMYT@CAELT@271655 SLRQYSYX@CAELT@SABO SLRQ 271700@CAELT@METAR SLRQ 271700Z 00000KT 9999 FEW017 SCT080 BKN200 30/21 Q1008@CAELT@A2979 984.6 HR59=@CAELT@
ZPX0491 271655@CAELT@GG SLZZYMYT@CAELT@271655 SLAGYSYX@CAELT@SABO SLAG 271700@CAELT@METAR SLAG 271700Z 09010KT 9999 NSC 32/13 Q1009 A2981 882.5 HR31 FU=@CAELT@
ZPX0492 271655@CAELT@GG SLZZYMYT@CAELT@271655 SLTRYGYZ@CAELT@SABO SLTR 271700@CAELT@METAR SLTR 271700Z 29004KT 7000 FEW017 SCT080 BKN200 31/21 Q1008@CAELT@A2979 990.2 HR56 FU NOSIG=@CAELT@
ZPX0493 271655@CAELT@GG SLZZYMYT@CAELT@271655 SLLPYGYZ@CAELT@SABO SLLP 271700@CAELT@METAR SLLP 271700Z 24009G22KT 9999 SCT020 FEW023CB 19/M02@CAELT@Q1034 A3054 625.4 HR24 P94// CB/NW AC/CI NOSIG=@CAELT@
ZPX0494 271655@CAELT@GG SLZZYMYT@CAELT@271656 SLVRYGYZ@CAELT@SABO SLVR 271700@CAELT@METAR SLVR 271700Z 02006KT 9999 FEW017 31/19 Q1008 A2977 HR51 AC@CAELT@NOSIG=@CAELT@
ZPX0495 271656@CAELT@GG SLZZYMYT@CAELT@271655 SLETYMYC@CAELT@SABO SLET 271700@CAELT@METAR SLET 271700Z 30005KT 9999 FEW020 30/18 Q1007 A2975 HR50 NOSIG=@CAELT@
ZPX0496 271656@CAELT@GG SLZZYMYT@CAELT@271656 SLUYYGYS@CAELT@SABO SLUY 271700@CAELT@METAR SLUY 271700Z 32010KT 9999 NSC 17/M07 Q1030 A3044 656.0@CAELT@HR20 CI=@CAELT@
ZPX0497 271657@CAELT@GG SLZZYMYT@CAELT@271656 SLCBYGYZ@CAELT@SABO SLCB 271700@CAELT@METAR SLCB 271700Z 26004KT 9999 FEW033 27/10 Q1018 A3007 746.1 HR34@CAELT@NOSIG=@CAELT@
ZPX0499 271658@CAELT@GG SLZZYMYT@CAELT@271658 SLTJYGYZ@CAELT@SABO SLTJ 271700@CAELT@METAR SLTJ 271700Z 16004KT 9999 FEW040 29/07 Q1011 A2985 807.4 HR25=@CAELT@
ZPX0500 271659@CAELT@GG SLZZYMYT@CAELT@271659 SLCOYGYZ@CAELT@SABO SLCO 271700@CAELT@METAR SLCO 271700Z 09008KT 6000 TS VCSH FEW010 FEW017CB BKN080 25/24@CAELT@Q1010 A2984 983.2 HR94 TS/NW CB/SH N/SE/NW=@CAELT@
ZPX0503 271700@CAELT@GG SLZZYMYT@CAELT@271700 SLCBYGYS@CAELT@SABO SLCB 271700@CAELT@METAR SLCB 271700Z 26004KT 9999 FEW033 27/10 Q1018 A3007 746.1 HR34@CAELT@NOSIG=@CAELT@METAR SLAL 271700Z 33006KT 9999 FEW023 21/05 Q1023 A3021 699.5 HR35=@CAELT@METAR SLPO 271700Z NIL=@CAELT@METAR SLAG 271700Z 09010KT 9999 NSC 32/13 Q1009 A2981 882.5 HR31 FU=METAR SLVM 271700Z 00000KT 9999 NSC 34/18 Q1005 A2966 HR40=METAR SLTJ 271700Z 16004KT 9999 FEW040 29/07 Q1011 A2985 807.4 HR25=METAR SLYA 271700Z 06012KT 9999 NSC 33/19 Q1015 A2968 930.3 HR45=METAR SLBJ 271700Z NIL=METAR SLHI 271700Z NIL=
ZPX0504 271701@CAELT@GG SLZZYMYT@CAELT@271700 SLVRYGYS@CAELT@SABO SLVR 271700@CAELT@METAR SLVR 271700Z 02006KT 9999 FEW017 31/19 Q1008 A2977 HR51 AC@CAELT@NOSIG=@CAELT@METAR SLET 271700Z 30005KT 9999 FEW020 30/18 Q1007 A2975 HR50 NOSIG=@CAELT@METAR SLAS 271700Z 00000KT 9999 NSC 34/20 Q1008 A2977 HR44 FU RWY NML@CAELT@METAR SLCP 271700Z 00000KT 9999 BKN020 31/23 Q1010 A2983 HR61 RWY NMLMETAR SLSI 271700Z 00000KT 9999 SCT017 32/23 Q1007 A2974 HR48 RWY NMLMETAR SLTI 271700Z 00000KT 9999 BKN017 32/23 Q1011 A2985 HR59 RWY NMLMETAR SLRB 271700Z 18004KT 9999 BKN020 31/23 Q1009 A2980 HR62 RWY NMLMETAR SLPS 271700Z 00000KT 9999 SCT017 BKN200 30/25 Q1007 A2974 HR74=METAR SLCA 271700Z 00000KT 9999 NSC 33/12 Q1008 A2977 HR29 RWY NML=
ZPX0505 271701@CAELT@GG SLZZYMYT@CAELT@271700 SLLPYFYA@CAELT@SABO SLLP 271700@CAELT@METAR SLLP 271700Z 24009G22KT 9999 SCT020 FEW023CB 19/M02@CAELT@Q1034 A3054 625.4 HR24 P94// CB/NW AC/CI NOSIG=@CAELT@METAR SLCO 271700Z 09008KT 6000 TS VCSH FEW010 FEW017CB BKN080 25/24@CAELT@Q1010 A2984 983.2 HR94 TS/NW CB/SH N/SE/NW=@CAELT@METAR SLRY 271700Z 14003KT 9999 SCT080 BKN200 30/22 Q1007 A2976 HR63RWY HUM OPR C210=METAR SLRQ 271700Z 00000KT 9999 FEW017 SCT080 BKN200 30/21 Q1008A2979 984.6 HR59=METAR SLAP 271700Z 00000KT 9999 FEW025 SCT070 26/20 Q1016 A3001 857.0HR68=METAR SLSB 271700Z 10007KT 9999 FEW020 SCT080 31/20 Q1009 A2979 HR54RWY WET OPR C210=METAR SLOR 271700Z 17010KT 9999 FEW020 21/M02 Q1032 A3048 653.9 HR22=METAR SLUY 271700Z 32010KT 9999 NSC 17/M07 Q1030 A3044 656.0HR20 CI=
ZPX0507 271704@CAELT@GG SLZZYMYT@CAELT@271659 SLTRYGYS@CAELT@SABO SLTR 271700@CAELT@METAR SLTR 271700Z 29004KT 7000 FEW017 SCT080 BKN200 31/21 Q1008@CAELT@A2979 990.2 HR56 FU NOSIG=@CAELT@METAR SLGM 271700Z 26004KT 6000 TS VCSH SCT015 FEW020CB OVC070 27/25@CAELT@Q1009 A2980 HR87 CB/SH N/S/SW/NW TS S/SW FU=@CAELT@METAR SLRI 271700Z 15006KT 0800 +TSRA SCT004 BKN015 FEW020CB OVC07023/23 Q1012 A2989 HR98 CB/TS SE/S/SW=METAR SLJO 271700Z 00000KT 8000 -RA SCT010 OVC070 24/23 Q1010A2983 HR98 RWY OPR C206=METAR SLRA 271700Z 09006KT 7000 VCSH SCT008 FEW023CB OVC070 25/24Q1009 A2982 HR94 CB/SH N/NE/E RWY HUM OPR=METAR SLMG 271700Z 32004KT 8000 FEW015 OVC200 27/24 Q1010 A2982 HR86FU RWY OPR C210=METAR SLBU 271700Z 00000KT 8000 FEW017 SCT080 BKN200 30/24 Q1008A2978 HR73 FU RWY NML=METAR SLSA 271700Z 00000KT 6000 SCT015 BKN070 26/23 Q1009 A2980 HR80METAR SLSR 271700Z 09008KT 8000 SCT017 BKN200 30/22 Q1009 A2980 HR61FU RWY OPR C206=METAR SLSM 271700Z 14003KT 9999 FEW017 BKN200 31/21 Q1009 A2980 HR59AC RWY NML=
ZPX0532 271752@CAELT@GG SLZZYMYT@CAELT@271752 SLPSYGYS@CAELT@SABO SLPS 271800@CAELT@METAR SLPS 271800Z 00000KT 9999 BKN017 BKN200 30/25 Q1006 A2971 HR73=@CAELT@
ZPX0533 271753@CAELT@GG SLZZYMYT@CAELT@271752 SLRBYGYS@CAELT@SABO SLRB 271800@CAELT@METAR SLRB 271800Z 18004KT 9999 BKN020 32/23 Q1008 A2977 HR61 RWY NML=@CAELT@
ZPX0536 271754@CAELT@GG SLZZYMYT@CAELT@271754 SLSAYGYS@CAELT@SABO SLSA 271800@CAELT@METAR SLSA 271800Z 34004KT 7000 FEW015 BKN080 27/23 Q1007 A2974@CAELT@HR78 FU=@CAELT@
ZPX0537 271754@CAELT@GG SLZZYMYT@CAELT@271754 SLSAYGYS@CAELT@SABO SLSA 271800@CAELT@METAR SLSA 271800Z 34004KT 7000 FEW015 BKN080 27/23 Q1007 A2974@CAELT@HR78 FU=@CAELT@
ZPX0539 271755@CAELT@GG SLZZYMYT@CAELT@271755 SLORYGYZ@CAELT@SABO SLOR 271800@CAELT@METAR SLOR 271800Z 28005KT 9999 FEW020 21/M03 Q1031 A3046 653.5 HR21=@CAELT@
ZPX0540 271755@CAELT@GG SLZZYMYT@CAELT@271755 SLSBYSYX@CAELT@SABO SLSB 271800@CAELT@METAR SLSB 271800Z 10003KT 9999 FEW020 SCT080 31/21 Q1007 A2974 HR55@CAELT@RWY NML=@CAELT@
ZPX0541 271755@CAELT@GG SLZZYMYT@CAELT@271754 SLCAYGYS@CAELT@SABO SLCA 271800@CAELT@METAR SLCA 271800Z 36005KT 9999 NSC 35/12 Q1006 A2971 HR26 RWY NML=@CAELT@
ZPX0542 271755@CAELT@GG SLZZYMYT@CAELT@271756 SLTJYGYZ@CAELT@SABO SLTJ 271800@CAELT@METAR SLTJ 271800Z 13009KT 9999 FEW040 31/07 Q1009 A2981 806.2 HR22=@CAELT@
ZPX0543 271755@CAELT@GG SLZZYMYT@CAELT@271756 SLVRYGYZ@CAELT@SABO SLVR 271800@CAELT@METAR SLVR 271800Z 32007KT 9999 FEW017 31/19 Q1006 A2972 HR48 NOSIG=@CAELT@
ZPX0544 271755@CAELT@GG SLZZYMYT@CAELT@271755 SLRQYSYX@CAELT@SABO SLRQ 271800@CAELT@METAR SLRQ 271800Z 00000KT 9999 FEW017 BKN200 32/21 Q1007 A2975 HR53=@CAELT@
ZPX0546 271757@CAELT@GG SLZZYMYT@CAELT@271756 SLTRYGYZ@CAELT@SABO SLTR 271800@CAELT@METAR SLTR 271800Z 29006KT 5000 FU FEW020 SCT080 31/22 Q1006@CAELT@A2973 988.2 HR57 CI TEMPO 3000=@CAELT@
ZPX0547 271757@CAELT@GG SLZZYMYT@CAELT@271755 SLLPYGYZ@CAELT@SABO SLLP 271800@CAELT@METAR SLLP 271800Z 25008G21KT 9999 SCT020 FEW023CB 19/M03@CAELT@Q1032 A3050 624.5 HR23 P0483 CB/N AC/CI NOSIG=@CAELT@
ZPX0549 271757@CAELT@GG SLZZYMYT@CAELT@271755 SLETYMYC@CAELT@SABO SLET 271800@CAELT@METAR SLET 271800Z 30007KT 9999 FEW020 30/18 Q1005 A2970 HR48 NOSIG=@CAELT@
ZPX0556 271800@CAELT@GG SLZZYMYT@CAELT@271800 SLTRYGYS@CAELT@SABO SLTR 271800@CAELT@METAR SLTR 271800Z 29006KT 5000 FU FEW020 SCT080 31/22 Q1006@CAELT@A2973 988.2 HR57 CI TEMPO 3000=@CAELT@METAR SLGM 271800Z 23015G25KT 5000 TS VCSH FU SCT008 BKN015 FEW020CB@CAELT@BKN070 25/23 Q1009 A2982 HR90 CB/SH N/NE/E/S/SW TS NE/SW=@CAELT@METAR SLRI 271800Z 20005KT 1000 RA BKN004 FEW020CB OVC070 22/22 Q1011A2986 HR100 CB N/NE/E/NW=METAR SLJO 271800Z NIL=METAR SLRA 271800Z 09003KT 8000 VCSH FEW008 SCT015 BKN070 25/23Q1008 A2979 HR92 FU SH SW RWY HUM OPR=METAR SLMG 271800Z 32006KT 9999 SCT017 BKN080 OVC200 27/23 Q1009A2979 HR84 RWY WET OPR C210=METAR SLBU 271800Z 36004KT 8000 FEW017 SCT080 BKN200 31/24 Q1007A2975 HR67 FU RWY NML=METAR SLSA 271800Z 34004KT 7000 FEW015 BKN080 27/23 Q1007 A2974HR78 FU=METAR SLSR 271800Z 09008KT 8000 SCT017 BKN200 30/22 Q1007 A2976 HR62FU RWY OPR C210=METAR SLSM 271800Z 00000KT 9999 FEW017 BKN200 31/20 Q1007 A2975 HR53RWY NML=
ZPX0557 271801@CAELT@GG SLZZYMYT@CAELT@271800 SLVRYGYS@CAELT@SABO SLVR 271800@CAELT@METAR SLVR 271800Z 32007KT 9999 FEW017 31/19 Q1006 A2972 HR48 NOSIG=@CAELT@METAR SLET 271800Z 30007KT 9999 FEW020 30/18 Q1005 A2970 HR48 NOSIG=@CAELT@METAR SLAS 271800Z 36008KT 9999 FEW020 SCT070 36/22 Q1007 A2974 HR46@CAELT@FU RWY NML=@CAELT@METAR SLJV 271800Z 34005KT 9999 SCT017 34/20 Q1006 A2971 HR45 RWY NMLMETAR SLCP 271800Z 00000KT 9999 BKN020 32/20 Q1009 A2980 HR51 RWY NMLMETAR SLSI 271800Z 36005KT 9999 SCT017 32/23 Q1005 A2968 HR58 RWY NMLMETAR SLTI 271800Z 00000KT 9999 BKN017 33/22 Q1009 A2980 HR55 RWY NMLMETAR SLJE 271800Z 36006KT 9999 FEW017 35/22 Q1008 A2977 HR47 RWY NMLMETAR SLVG 271800Z 36009KT 9999 SCT027 25/12 Q1018 A3006 HR41 RWY NMLMETAR SLRB 271800Z 18004KT 9999 BKN020 32/23 Q1008 A2977 HR61 RWY NMLMETAR SLPS 271800Z 00000KT 9999 BKN017 BKN200 30/25 Q1006 A2971 HR73=METAR SLCA 271800Z 36005KT 9999 NSC 35/12 Q1006 A2971 HR26 RWY NML=
ZPX0558 271801@CAELT@GG SLZZYMYT@CAELT@271800 SLCBYGYZ@CAELT@SABO SLCB 271800@CAELT@METAR SLCB 271800Z 24006KT 9999 FEW033 29/05 Q1015 A3000 744.3 HR20@CAELT@AC NOSIG=@CAELT@
ZPX0559 271802@CAELT@GG SLZZYMYT@CAELT@271802 SLCBYGYS@CAELT@SABO SLCB 271800@CAELT@METAR SLCB 271800Z 24006KT 9999 FEW033 29/05 Q1015 A3000 744.3 HR20@CAELT@AC NOSIG=@CAELT@METAR SLAL 271800Z 03010KT 9999 FEW023 23/04 Q1021 A3016 698.4 HR30=@CAELT@METAR SLPO 271800Z NIL=@CAELT@METAR SLAG 271800Z NIL=METAR SLVM 271800Z 36005KT 9999 NSC 35/18 Q1002 A2966 HR36=METAR SLTJ 271800Z 13009KT 9999 FEW040 31/07 Q1009 A2981 806.2 HR22=METAR SLYA 271800Z NIL=METAR SLBJ 271800Z NIL=METAR SLHI 271800Z NIL=
ZPX0560 271802@CAELT@GG SLZZYMYT@CAELT@271800 SLLPYFYA@CAELT@SABO SLLP 271800@CAELT@METAR SLLP 271800Z 25008G21KT 9999 SCT020 FEW023CB 19/M03@CAELT@Q1032 A3050 624.5 HR23 P0483 CB/N AC/CI NOSIG=@CAELT@METAR SLCO 271800Z 08005KT 6000 -TSRA SCT007 FEW017CB BKN080 24/23@CAELT@Q1009 A2981 982.2 HR92 TS/SE CB N/SE/SW=@CAELT@METAR SLRY 271800Z 00000KT 9999 FEW017 SCT080 BKN200 31/21 Q1006A2973 HR57 RWY HUM OPR=METAR SLRQ 271800Z 00000KT 9999 FEW017 BKN200 32/21 Q1007 A2975 HR53=METAR SLAP 271800Z 00000KT 9999 FEW025 SCT070 25/19 Q1015 A2999 856.6HR70=METAR SLSB 271800Z 10003KT 9999 FEW020 SCT080 31/21 Q1007 A2974 HR55RWY NML=METAR SLOR 271800Z 28005KT 9999 FEW020 21/M03 Q1031 A3046 653.5 HR21=
ZPX0562 271803@CAELT@GG SLZZYMYT@CAELT@271801 SLAGYSYX@CAELT@SABO SLAG 271800 RRA@CAELT@METAR RTD SLAG 271800Z 09005KT 9999 NSC 32/12 Q1007 A2976 881.0 HR30@CAELT@
ZPX0565 271807@CAELT@GG SLZZYMYT@CAELT@271807 SLCBYGYS@CAELT@SABO SLCB 271800 RRA@CAELT@METAR SLCB 271800Z 24006KT 9999 FEW033 29/05 Q1015 A3000 744.3 HR20@CAELT@AC NOSIG=@CAELT@METAR SLAL 271800Z 03010KT 9999 FEW023 23/04 Q1021 A3016 698.4 HR30=@CAELT@METAR SLPO 271800Z NIL=@CAELT@METAR RTD SLAG 271800Z 09005KT 9999 NSC 32/12 Q1007 A2976 881.0 HR30METAR SLVM 271800Z 36005KT 9999 NSC 35/18 Q1002 A2966 HR36=METAR SLTJ 271800Z 13009KT 9999 FEW040 31/07 Q1009 A2981 806.2 HR22=METAR SLYA 271800Z NIL=METAR SLBJ 271800Z NIL=METAR SLHI 271800Z NIL=
ZPX0570 271813@CAELT@GG SLZZYMYT@CAELT@271808 SLCBYGYS@CAELT@SABO SLCB 271800 RRB@CAELT@METAR SLCB 271800Z 24006KT 9999 FEW033 29/05 Q1015 A3000 744.3 HR20@CAELT@AC NOSIG=@CAELT@METAR SLAL 271800Z 03010KT 9999 FEW023 23/04 Q1021 A3016 698.4 HR30=@CAELT@METAR SLPO 271800Z NIL=@CAELT@METAR SLAG 271800Z 09005KT 9999 NSC 32/12 Q1007 A2976 881.0 HR30METAR SLVM 271800Z 36005KT 9999 NSC 35/18 Q1002 A2966 HR36=METAR SLTJ 271800Z 13009KT 9999 FEW040 31/07 Q1009 A2981 806.2 HR22=METAR RTD SLYA 271800Z 06012KT 9999 NSC 34/19 Q1004 A2965 929.3 HR42=METAR SLBJ 271800Z NIL=METAR SLHI 271800Z NIL=
ZPX0597 271852@CAELT@GG SLZZYMYT@CAELT@271852 SLPSYGYS@CAELT@SABO SLPS 271900@CAELT@METAR SLPS 271900Z 00000KT 9999 BKN017 BKN070 29/25 Q1005 A2968 HR78=@CAELT@
ZPX0598 271852@CAELT@GG SLZZYMYT@CAELT@271852 SLRYYSYX@CAELT@SABO SLRY 271900@CAELT@METAR SLRY 271900Z 00000KT 9999 FEW020 SCT080 BKN200 31/22 Q1006@CAELT@A2971 HR58 RWY HUM OPR=@CAELT@
ZPX0599 271853@CAELT@GG SLZZYMYT@CAELT@271852 SLRBYGYS@CAELT@SABO SLRB 271900@CAELT@METAR SLRB 271900Z 18004KT 9999 BKN020 32/23 Q1007 A2974 HR60 RWY NML=@CAELT@
ZPX0600 271854@CAELT@GG SLZZYMYT@CAELT@271853 SLCAYGYS@CAELT@SABO SLCA 271900@CAELT@METAR SLCA 271900Z 36008KT 9999 NSC 34/12 Q1005 A2968 HR26 RWY NML=@CAELT@
ZPX0601 271854@CAELT@GG SLZZYMYT@CAELT@271855 SLCOYGYZ@CAELT@SABO SLCO 271900@CAELT@METAR SLCO 271900Z 11006KT 7000 -RA SCT007 FEW017CB BKN080 24/23@CAELT@Q1007 A2975 980.0 HR92 CB/SE RETS=@CAELT@
ZPX0602 271854@CAELT@GG SLZZYMYT@CAELT@271855 SLCOYGYZ@CAELT@SABO SLCO 271900@CAELT@METAR SLCO 271900Z 11006KT 7000 -RA SCT007 FEW017CB BKN080 24/23@CAELT@Q1007 A2975 980.0 HR92 CB/SE RETS=@CAELT@
ZPX0603 271854@CAELT@GG SLZZYMYT@CAELT@271854 SLSAYGYS@CAELT@SABO SLSA 271900@CAELT@METAR SLSA 271900Z 33006KT 7000 FEW017 BKN080 29/23 Q1006 A2971@CAELT@HR72 FU=@CAELT@
ZPX0604 271854@CAELT@GG SLZZYMYT@CAELT@271854 SLSAYGYS@CAELT@SABO SLSA 271900@CAELT@METAR SLSA 271900Z 33006KT 7000 FEW017 BKN080 29/23 Q1006 A2971@CAELT@HR72 FU=@CAELT@
ZPX0605 271854@CAELT@GG SLZZYMYT@CAELT@271854 SLETYMYC@CAELT@SABO SLET 271900@CAELT@METAR SLET 271900Z 30015KT 9999 FEW020 31/18 Q1004 A2966 HR46 NOSIG=@CAELT@
ZPX0606 271855@CAELT@GG SLZZYMYT@CAELT@271855 SLRQYSYX@CAELT@SABO SLRQ 271900@CAELT@METAR SLRQ 271900Z 18010KT 9999 FEW020 BKN200 33/21 Q1006 A2972 HR50=@CAELT@
ZPX0607 271855@CAELT@GG SLZZYMYT@CAELT@271856 SLVRYGYZ@CAELT@SABO SLVR 271900@CAELT@METAR SLVR 271900Z 33010KT 9999 FEW017 32/19 Q1004 A2967 HR46 NOSIG=@CAELT@
ZPX0608 271856@CAELT@GG SLZZYMYT@CAELT@271855 SLLPYGYZ@CAELT@SABO SLLP 271900@CAELT@METAR SLLP 271900Z 21009G19KT 9999 SCT020 FEW023CB 19/M04@CAELT@Q1031 A3045 623.5 HR20 P1483 CB/NE AC/CI NOSIG=@CAELT@
ZPX0609 271856@CAELT@GG SLZZYMYT@CAELT@271856 SLCBYGYZ@CAELT@SABO SLCB 271900@CAELT@METAR SLCB 271900Z 13005KT 9999 FEW033 30/04 Q1014 A2995 743.0 HR18@CAELT@AC NOSIG=@CAELT@
ZPX0611 271857@CAELT@GG SLZZYMYT@CAELT@271856 SLTRYGYZ@CAELT@SABO SLTR 271900@CAELT@METAR SLTR 271900Z 33006KT 5000 FU FEW020 SCT100 31/23 Q1005 A2968@CAELT@986.7 HR60 NOSIG=@CAELT@
ZPX0612 271857@CAELT@GG SLZZYMYT@CAELT@271857 SLTJYGYZ@CAELT@SABO SLTJ 271900@CAELT@METAR SLTJ 271900Z 13013KT 9999 FEW040 30/10 Q1008 A2979 805.7 HR28@CAELT@
ZPX0614 271859@CAELT@GG SLZZYMYT@CAELT@271858 SLVRYGYS@CAELT@SABO SLVR 2718900@CAELT@METAR SLVR 271900Z 33010KT 9999 FEW017 32/19 Q1004 A2967 HR46 NOSIG=@CAELT@METAR SLET 271900Z 30015KT 9999 FEW020 31/18 Q1004 A2966 HR46 NOSIG=@CAELT@METAR SLAS 271900Z 34008KT 9999 FEW020 36/23 Q1006 A2971 HR46 FU RWY@CAELT@NML=@CAELT@METAR SLJV 271900Z 34005KT 9999 SCT017 34/21 Q1005 A2968 HR47 RWY NMLMETAR SLCP 271900Z 00000KT 9999 BKN017 32/20 Q1007 A2974 HR51 RWY NMLMETAR SLSI 271900Z 36006KT 9999 SCT017 33/23 Q1004 A2965 HR54 RWY NMLMETAR SLTI 271900Z 00000KT 9999 BKN017 33/22 Q1008 A2977 HR54 RWY NMLMETAR SLJE 271900Z 36005KT 9999 FEW017 36/22 Q1007 A2974 HR46 RWY NMLMETAR SLVG 271900Z 35007KT 9999 SCT027 24/13 Q1017 A3003 HR46 RWY NMLMETAR SLRB 271900Z 18004KT 9999 BKN020 32/23 Q1007 A2974 HR60 RWY NMLMETAR SLPS 271900Z 00000KT 9999 BKN017 BKN070 29/25 Q1005 A2968 HR78=METAR SLCA 271900Z 36008KT 9999 NSC 34/12 Q1005 A2968 HR26 RWY NML=
ZPX0615 271859@CAELT@GG SLZZYMYT@CAELT@271858 SLSBYSYX@CAELT@SABO SLSB 271900@CAELT@METAR SLSB 271900Z 00000KT 9999 FEW020 BKN200 32/21 Q1005 A2969 HR54@CAELT@RWY NML=@CAELT@
ZPX0616 271859@CAELT@GG SLZZYMYT@CAELT@271859 SLAGYSYX@CAELT@SABO SLAG 271900@CAELT@METAR SLAG 271900Z 09010KT 9999 FEW023 32/11 Q1006 A2973 880.1 HR28@CAELT@
ZPX0618 271900@CAELT@GG SLZZYMYT@CAELT@271859 SLTRYGYS@CAELT@SABO SLTR 271900@CAELT@METAR SLTR 271900Z 33006KT 5000 FU FEW020 SCT100 31/23 Q1005 A2968@CAELT@986.7 HR60 NOSIG=@CAELT@METAR SLGM 271900Z 21010KT 5000 -TSRA SCT008 BKN015 FEW020CB OVC070@CAELT@24/23 Q1007 A2976 HR93 CB N/NE/S/SW TS NE=@CAELT@METAR SLRI 271900Z 00000KT 5000 -RA SCT004 BKN015 FEW020CB OVC07022/22 Q1009 A2980 HR97 CB N/NE/W/NW RETS=METAR SLJO 271900Z NIL=METAR SLRA 271900Z 27005KT 8000 FEW015 BKN080 26/24 Q1007 A2974HR89 FU CI RWY HUM OPR=METAR SLMG 271900Z 32006KT 9999 SCT015 BKN080 BKN200 27/23 Q1008A2977 HR82 RWY WET OPR C210=METAR SLBU 271900Z 36004KT 8000 FEW017 SCT080 BKN200 32/23 Q1006A2972 HR61 FU RWY NML=METAR SLSA 271900Z 33006KT 7000 FEW017 BKN080 29/23 Q1006 A2971HR72 FU=METAR SLSR 271900Z 32008KT 8000 VCSH SCT017 FEW023CB BKN200 30/21Q1006 A2973 HR60 FU CB/SH W/NW RWY OPR C210=METAR SLSM 271900Z 00000KT 9999 FEW017 32/20 Q1007 A2970 HR49 CIRWY NML=
ZPX0620 271902@CAELT@GG SLZZYMYT@CAELT@271901 SLCBYGYS@CAELT@SABO SLCB 271900@CAELT@METAR SLCB 271900Z 13005KT 9999 FEW033 30/04 Q1014 A2995 743.0 HR18@CAELT@AC NOSIG=@CAELT@METAR SLAL 271900Z 02008KT 9999 FEW023 22/02 Q1020 A3012 697.5 HR28=@CAELT@METAR SLPO 271900Z NIL=@CAELT@METAR SLAG 271900Z 09010KT 9999 FEW023 32/11 Q1006 A2973 880.1 HR28METAR SLVM 271900Z NIL=METAR SLTJ 271900Z 13013KT 9999 FEW040 30/10 Q1008 A2979 805.7 HR28METAR SLYA 271900Z NIL=METAR SLBJ 271900Z NIL=METAR SLHI 271900Z NIL=
ZPX0622 271903@CAELT@GG SLZZYMYT@CAELT@271900 SLLPYFYA@CAELT@SABO SLLP 271900@CAELT@METAR SLLP 271900Z 21009G19KT 9999 SCT020 FEW023CB 19/M04@CAELT@Q1031 A3045 623.5 HR20 P1483 CB/NE AC/CI NOSIG=@CAELT@METAR SLCO 271900Z 11006KT 7000 -RA SCT007 FEW017CB BKN080 24/23@CAELT@Q1007 A2975 980.0 HR92 CB/SE RETS=@CAELT@METAR SLRY 271900Z 00000KT 9999 FEW020 SCT080 BKN200 31/22 Q1006A2971 HR58 RWY HUM OPR=METAR SLRQ 271900Z 18010KT 9999 FEW020 BKN200 33/21 Q1006 A2972 HR50=METAR SLSB 271900Z 00000KT 9999 FEW020 BKN200 32/21 Q1005 A2969 HR54RWY NML=
ZPX0640 271952@CAELT@GG SLZZYMYT@CAELT@271952 SLPSYGYS@CAELT@SABO SLPS 262000@CAELT@METAR SLPS 262000Z 00000KT 9999 SCT017 OVC070 28/24 Q1005 A2968 HR80=@CAELT@
ZPX0641 271952@CAELT@GG SLZZYMYT@CAELT@271951 SLCAYGYS@CAELT@SABO SLCA 272000@CAELT@METAR SLCA 272000Z 36010KT 9999 NSC 35/11 Q1004 A2965 HR24 RWY NML=@CAELT@
ZPX0642 271952@CAELT@GG SLZZYMYT@CAELT@271951 SLRBYGYS@CAELT@SABO SLRB 272000@CAELT@METAR SLRB 272000Z 18004KT 9999 SCT020 32/23 Q1006 A2970 HR60 RWY NML@CAELT@
ZPX0643 271953@CAELT@GG SLZZYMYT@CAELT@271955 SLTJYGYZ@CAELT@SABO SLTJ 272000@CAELT@METAR SLTJ 272000Z 13014KT 9999 FEW040 28/11 Q1008 A2978 805.3 HR33@CAELT@
ZPX0645 271954@CAELT@GG SLZZYMYT@CAELT@271952 SLPSYGYS@CAELT@SABO SLPS 272000 CCA@CAELT@METAR COR SLPS 272000Z 00000KT 9999 SCT017 OVC070 28/24 Q1005 A2968@CAELT@HR80=@CAELT@
ZPX0646 271954@CAELT@GG SLZZYMYT@CAELT@271952 SLRYYSYX@CAELT@SABO SLRY 272000@CAELT@METAR SLRY 272000Z 34003KT 9999 FEW020 BKN200 30/22 Q1005 A2969 HR59@CAELT@RWY HUM OPR=@CAELT@
ZPX0647 271955@CAELT@GG SLZZYMYT@CAELT@271954 SLCBYGYZ@CAELT@SABO SLCB 272000@CAELT@METAR SLCB 272000Z 16006KT 9999 FEW033 31/03 Q1013 A2992 742.1 HR17@CAELT@AC NOSIG=@CAELT@
ZPX0648 271955@CAELT@GG SLZZYMYT@CAELT@271955 SLSAYGYS@CAELT@SABO SLSA 272000@CAELT@METAR SLSA 272000Z 34010KT 7000 SCT017 BKN080 29/23 Q1005 A2968@CAELT@HR73 FU=@CAELT@
ZPX0649 271955@CAELT@GG SLZZYMYT@CAELT@271955 SLSAYGYS@CAELT@SABO SLSA 272000@CAELT@METAR SLSA 272000Z 34010KT 7000 SCT017 BKN080 29/23 Q1005 A2968@CAELT@HR73 FU=@CAELT@
ZPX0650 271955@CAELT@GG SLZZYMYT@CAELT@271955 SLSBYSYX@CAELT@SABO SLSB 272000@CAELT@METAR SLSB 272000Z 00000KT 9999 FEW020 SCY080 BKN200 31/21 Q1004@CAELT@A2967 HR56 RWY NML=@CAELT@
ZPX0651 271955@CAELT@GG SLZZYMYT@CAELT@271956 SLVRYGYZ@CAELT@SABO SLVR 272000@CAELT@METAR SLVR 272000Z 35012KT 9999 FEW017 31/19 Q1004 A2965 HR47 NOSIG=@CAELT@
ZPX0652 271955@CAELT@GG SLZZYMYT@CAELT@271955 SLETYMYC@CAELT@SABO SLET 272000@CAELT@METAR SLET 272000Z 31014KT 9999 FEW020 30/18 Q1003 A2964 HR46 NOSIG=@CAELT@
ZPX0653 271956@CAELT@GG SLZZYMYT@CAELT@271955 SLLPYGYZ@CAELT@SABO SLLP 272000@CAELT@METAR SLLP 272000Z 21011G22KT 9999 SCT020 FEW023CB 20/M05 Q1030@CAELT@A3043 623.0 HR18 P1483 CB/NE AC/CI NOSIG=@CAELT@
ZPX0654 271956@CAELT@GG SLZZYMYT@CAELT@271956 SLTRYGYZ@CAELT@SABO SLTR 272000@CAELT@METAR SLTR 272000Z 33006KT 7000 FEW020 SCT200 32/22 Q1004 A2966@CAELT@985.9 HR55 FU AC NOSIG=@CAELT@
ZPX0656 271957@CAELT@GG SLZZYMYT@CAELT@271956 SLSBYSYX@CAELT@SABO SLSB 272000 CCA@CAELT@METAR COR SLSB 272000Z 00000KT 9999 FEW020 SCT080 BKN200 31/21 Q1004@CAELT@A2967 HR56 RWY NML=@CAELT@
ZPX0657 271957@CAELT@GG SLZZYMYT@CAELT@271957 SLRQYSYX@CAELT@SABO SLRQ 272000@CAELT@METAR SLRQ 272000Z 18004KT 9999 FEW020 BKN200 32/22 Q1005 A2970 HR55=@CAELT@
ZPX0658 271958@CAELT@GG SLZZYMYT@CAELT@271958 SLTRYGYS@CAELT@SABO SLTR 272000@CAELT@METAR SLTR 272000Z 33006KT 7000 FEW020 SCT200 32/22 Q1004 A2966@CAELT@985.9 HR55 FU AC NOSIG=@CAELT@METAR SLGM 272000Z 21010KT 5000 TS VCSH FU SCT008 BKN015 FEW020CB@CAELT@OVC070 24/23 Q1007 A2974 HR96 RERA CB/SH N/NE/SE/S/SW TS NE/SW=@CAELT@METAR SLRI 272000Z 00000KT 7000 VCSH SCT004 BKN015 FEW020CB OVC07023/22 Q1008 A2977 HR96 RERA CB/SH W/NW=METAR SLJO 272000Z NIL=METAR SLRA 272000Z 35006KT 8000 FEW015 BKN080 27/24 Q1006 A2972 HR86FU CI RWY HUM OPR=METAR SLMG 272000Z 32008KT 9999 FEW015 BKN080 27/23 Q1007 A2976 HR81RWY HUM OPR=METAR SLBU 272000Z 36004KT 8000 FEW017 SCT080 BKN200 30/23 Q1005A2969 HR68 FU RWY NML=METAR SLSA 272000Z 34010KT 7000 SCT017 BKN080 29/23 Q1005 A2968HR73 FU=METAR SLSR 272000Z 32008KT 8000 FEW017 FEW023CB BKN200 29/22 Q1005A2970 HR64 FU CB SW RWY OPR C210=METAR SLSM 272000Z 36005KT 9999 FEW017 32/22 Q1004 A2967 HR56 CIRWY NML=
ZPX0659 271958@CAELT@GG SLZZYMYT@CAELT@271958 SLCOYGYZ@CAELT@SABO SLCO 272000@CAELT@METAR SLCO 272000Z 04004KT 9999 FEW007 BKN080 25/24 Q1007 A2975 980.1@CAELT@HR91 RERA=@CAELT@
ZPX0661 272000@CAELT@GG SLZZYMYT@CAELT@272000 SLLPYFYA@CAELT@SABO SLLP 272000@CAELT@METAR SLLP 272000Z 21011G22KT 9999 SCT020 FEW023CB 20/M05 Q1030@CAELT@A3043 623.0 HR18 P1483 CB/NE AC/CI NOSIG=@CAELT@METAR SLCO 272000Z 04004KT 9999 FEW007 BKN080 25/24 Q1007 A2975 980.1@CAELT@HR91 RERA=@CAELT@METAR SLRY 272000Z 34003KT 9999 FEW020 BKN200 30/22 Q1005 A2969 HR59RWY HUM OPR=METAR SLRQ 272000Z 18004KT 9999 FEW020 BKN200 32/22 Q1005 A2970 HR55=METAR SLSB 272000Z 00000KT 9999 FEW020 SCT080 BKN200 31/21 Q1004A2967 HR56 RWY NML=
ZPX0662 272000@CAELT@GG SLZZYMYT@CAELT@272000 SLCBYGYS@CAELT@SABO SLCB 272000@CAELT@METAR SLCB 272000Z 16006KT 9999 FEW033 31/03 Q1013 A2992 742.1 HR17@CAELT@AC NOSIG=@CAELT@METAR SLAL 272000Z 04009KT 9999 FEW023 22/03 Q1019 A3010 697.1 HR29=@CAELT@METAR SLPO 272000Z NIL=@CAELT@METAR SLAG 272000Z NIL=METAR SLVM 272000Z NIL=METAR SLTJ 272000Z 13014KT 9999 FEW040 28/11 Q1008 A2978 805.3 HR33METAR SLYA 272000Z NIL=METAR SLBJ 272000Z NIL=METAR SLHI 272000Z NIL=
ZPX0663 272001@CAELT@GG SLZZYMYT@CAELT@272001 SLVRYGYS@CAELT@SABO SLVR 272000@CAELT@METAR SLVR 272000Z 35012KT 9999 FEW017 31/19 Q1004 A2965 HR47 NOSIG=@CAELT@METAR SLET 272000Z 31014KT 9999 FEW020 30/18 Q1003 A2964 HR46 NOSIG=@CAELT@METAR SLAS 272000Z 34008KT 9999 FEW020 35/23 Q1005 A2968 HR50 FU RWY@CAELT@NML=@CAELT@METAR SLJV 272000Z 34005KT 9999 FEW017 33/21 Q1004 A2965 HR51 RWY NMLMETAR SLCP 272000Z 33006KT 9999 SCT017 32/21 Q1007 A2974 HR54 RWY NMLMETAR SLSI 272000Z 36005KT 9999 SCT017 34/23 Q1003 A2961 HR53 RWY NMLMETAR SLTI 272000Z 00000KT 9999 FEW017 34/23 Q1007 A2974 HR54 RWY NMLMETAR SLJE 272000Z 36005KT 9999 FEW017 36/23 Q1006 A2971 HR48 RWY NMLMETAR SLVG 272000Z 36006KT 9999 SCCT027 23/13 Q1015 A2997 HR52 RWYMETAR SLRB 272000Z 18004KT 9999 SCT020 32/23 Q1006 A2970 HR60 RWY NMLMETAR SLPS 272000Z 00000KT 9999 SCT017 OVC070 28/24 Q1005 A2968HR80=METAR SLCA 272000Z 36010KT 9999 NSC 35/11 Q1004 A2965 HR24 RWY NML=
ZPX0680 272049@CAELT@GG SLZZYMYT@CAELT@272049 SLCAYGYS@CAELT@SABO SLCA 272100@CAELT@METAR SLCA 272100Z 36005KT 9999 NSC 33/13 Q1005 A2968 HR30 RWY NML=@CAELT@
ZPX0681 272049@CAELT@GG SLZZYMYT@CAELT@272050 SLRBYGYS@CAELT@SABO SLRB 272100@CAELT@METAR SLRB 272100Z 00000KT 9999 SCT020 32/23 Q1005 A2967 HR60 RWY NML=@CAELT@
ZPX0683 272051@CAELT@GG SLZZYMYT@CAELT@272051 SLPSYGYS@CAELT@SABO SLPS 272100@CAELT@METAR SLPS 272100Z 00000KT 9999 FEW017 BKN070 28/24 Q1005 A2968 HR82=@CAELT@
ZPX0684 272053@CAELT@GG SLZZYMYT@CAELT@272052 SLRYYSYX@CAELT@SABO SLRY 272100@CAELT@METAR SLRY 272100Z 36004KT 9999 FEW020 BKN200 30/22 Q1004 A2967 HR61@CAELT@RWY HUM OPR=@CAELT@
ZPX0685 272053@CAELT@GG SLZZYMYT@CAELT@272055 SLTJYGYZ@CAELT@SABO SLTJ 272100@CAELT@METAR SLTJ 2272100Z 13011KT 9999 FEW040 28/09 Q1008 A2979 805.6 HR30=@CAELT@
ZPX0688 272054@CAELT@GG SLZZYMYT@CAELT@272055 SLVRYGYZ@CAELT@SABO SLVR 272100@CAELT@METAR SLVR 272100Z 33012KT 9999 FEW017 30/19 Q1003 A2963 HR50 NOSIG=@CAELT@
ZPX0689 272055@CAELT@GG SLZZYMYT@CAELT@272055 SLSAYGYS@CAELT@SABO SLSA 272100@CAELT@METAR SLSA 272100Z 31010KT 7000 FEW017 BKN080 29/23 Q1004 A2967@CAELT@HR69 FU=@CAELT@
ZPX0690 272055@CAELT@GG SLZZYMYT@CAELT@272055 SLSAYGYS@CAELT@SABO SLSA 272100@CAELT@METAR SLSA 272100Z 31010KT 7000 FEW017 BKN080 29/23 Q1004 A2967@CAELT@HR69 FU=@CAELT@
ZPX0691 272055@CAELT@GG SLZZYMYT@CAELT@272055 SLETYMYC@CAELT@SABO SLET 272100@CAELT@METAR SLET 272100Z 31013KT 9999 NSC 30/17 Q1003 A2962 HR46 NOSIG=@CAELT@
ZPX0692 272056@CAELT@GG SLZZYMYT@CAELT@272055 SLRQYSYX@CAELT@SABO SLRQ 272100@CAELT@METAR SLRQ 272100Z 00000KT 9999 FEW020 BKN200 30/22 Q1005 A2969 HR65=@CAELT@
ZPX0693 272056@CAELT@GG SLZZYMYT@CAELT@272055 SLCBYGYZ@CAELT@SABO SLCB 272100@CAELT@METAR SLCB 272100Z 05004KT 9999 FEW033 30/05 Q1012 A2990 741.6 HR19@CAELT@AC NOSIG=@CAELT@
ZPX0695 272056@CAELT@GG SLZZYMYT@CAELT@272055 SLLPYGYZ@CAELT@SABO SLLP 272100@CAELT@METAR SLLP 272100Z 22012KT 9999 FEW020 FEW023CB SCT200 19/M06@CAELT@Q1029 A3041 622.5 HR17 P1483 CB/NE AC NOSIG=@CAELT@
ZPX0696 272056@CAELT@GG SLZZYMYT@CAELT@272056 SLTRYGYZ@CAELT@SABO SLTR 272100@CAELT@METAR SLTR 272100Z 33006KT 9000 FEW020 SCT200 31/22 Q1004 A2965@CAELT@985.8 HR59 FU AC NOSIG=@CAELT@
ZPX0697 272057@CAELT@GG SLZZYMYT@CAELT@272057 SLVRYGYS@CAELT@SABO SLVR 272100@CAELT@METAR SLVR 272100Z 33012KT 9999 FEW017 30/19 Q1003 A2963 HR50 NOSIG=@CAELT@METAR SLET 272100Z 31013KT 9999 NSC 30/17 Q1003 A2962 HR46 NOSIG=@CAELT@METAR SLAS 272100Z 34006KT 9999 FEW020 34/22 Q1004 A2967 HR49 FU RWY@CAELT@NML=@CAELT@METAR SLJV 272100Z 34005KT 9999 FEW017 32/21 Q1004 A2965 HR55 RWY NMLMETAR SLCP 272100Z 30008KT 999 SCT017 32/21 Q1006 A2971 HR53 RWY NML=METAR SLSI 272100Z 33005KT 9999 SCT017 33/21 Q1003 A2961 HR48 RWY NMLMETAR SLTI 272100Z 00000KT 9999 NSC 33/22 Q1006 A2971 HR53 RWY NML=METAR SLJE 272100Z 00000KT 9999 NSC 34/23 Q1006 A2971 HR51 RWY NML=METAR SLVG 272100Z 36005KT 9999 SCT025 22/13 Q1015 A2997 HR54 RWY NMLMETAR SLRB 272100Z 00000KT 9999 SCT020 32/23 Q1005 A2967 HR60 RWY NMLMETAR SLPS 272100Z 00000KT 9999 FEW017 BKN070 28/24 Q1005 A2968 HR82=METAR SLCA 272100Z 36005KT 9999 NSC 33/13 Q1005 A2968 HR30 RWY NML=
ZPX0698 272057@CAELT@GG SLZZYMYT@CAELT@272057 SLSBYSYX@CAELT@SABO SLSB 272100@CAELT@METAR SLSB 272100Z 00000KT 9999 BKN080 30/22 Q1004 A2966 HR60 RWY NML=@CAELT@
ZPX0699 272058@CAELT@GG SLZZYMYT@CAELT@272058 SLCOYGYZ@CAELT@SABO SLCO 272100@CAELT@METAR SLCO 272100Z 33005KT 9999 FEW010 BKN080 25/23 Q1006 A2973 979.6@CAELT@HR89=@CAELT@
ZPX0701 272059@CAELT@GG SLZZYMYT@CAELT@272059 SLTRYGYS@CAELT@SABO SLTR 272100@CAELT@METAR SLTR 272100Z 33006KT 9000 FEW020 SCT200 31/22 Q1004 A2965@CAELT@985.8 HR59 FU AC NOSIG=@CAELT@METAR SLGM 272100Z 21006KT 7000 VCSH FEW008 BKN015 FEW020CB OVC070@CAELT@24/23 Q1006 A2973 HR96 FU RETS CB/SH N/NE/E/SE/SW=@CAELT@METAR SLRI 272100Z 00000KT 7000 VCSH SCT004 BKN015 FEW020CB OVC07023/23 Q1007 A2974 HR97 CB/SH NW=METAR SLJO 272100Z NIL=METAR SLRA 272100Z 34010KT 9999 FEW017 SCT080 BKN200 28/23 Q1006A2972 HR77 FU RWY HUM OPR=METAR SLMG 272100Z 32008KT 9999 FEW015 BKN080 27/23 Q1007 A2974 HR77RWY HUM OPR=METAR SLBU 272100Z 36004KT 8000 SCT080 BKN200 31/23 Q1004 A2966 HR64FU RWY NML=METAR SLSA 272100Z 31010KT 7000 FEW017 BKN080 29/23 Q1004 A2967HR69 FU=METAR SLSR 272100Z 32006KT 8000 FEW017 BKN200 29/22 Q1004 A2966 HR64FU RWY HUM OPR=METAR SLSM 272100Z 36004KT 9999 FEW017 31/21 Q1004 A2965 HR54CI RWY NML=
ZPX0703 272101@CAELT@GG SLZZYMYT@CAELT@272100 SLCBYGYS@CAELT@SABO SLCB 272100@CAELT@METAR SLCB 272100Z 05004KT 9999 FEW033 30/05 Q1012 A2990 741.6 HR19@CAELT@AC NOSIG=@CAELT@METAR SLTJ 2272100Z 13011KT 9999 FEW040 28/09 Q1008 A2979 805.6 HR30=@CAELT@
ZPX0704 272101@CAELT@GG SLZZYMYT@CAELT@272101 SLLPYFYA@CAELT@SABO SLLP 272100@CAELT@METAR SLLP 272100Z 22012KT 9999 FEW020 FEW023CB SCT200 19/M06@CAELT@Q1029 A3041 622.5 HR17 P1483 CB/NE AC NOSIG=@CAELT@METAR SLCO 272100Z 33005KT 9999 FEW010 BKN080 25/23 Q1006 A2973 979.6@CAELT@HR89=@CAELT@METAR SLRY 272100Z 36004KT 9999 FEW020 BKN200 30/22 Q1004 A2967 HR61RWY HUM OPR=METAR SLRQ 272100Z 00000KT 9999 FEW020 BKN200 30/22 Q1005 A2969 HR65=METAR SLSB 272100Z 00000KT 9999 BKN080 30/22 Q1004 A2966 HR60 RWY NML=
ZPX0724 272151@CAELT@GG SLZZYMYT@CAELT@272151 SLCAYGYS@CAELT@SABO SLCA 272200@CAELT@METAR SLCA 272200Z 36005KT 9999 NSC 31/14 Q1005 A2968 HR36 RWY NML=@CAELT@
ZPX0725 272152@CAELT@GG SLZZYMYT@CAELT@272152 SLPSYGYS@CAELT@SABO SLPS 272200@CAELT@METAR SLPS 272200Z 00000KT 9999 FEW017 SCT200 27/25 Q1005 A2968 HR90=@CAELT@
ZPX0726 272152@CAELT@GG SLZZYMYT@CAELT@272152 SLRBYGYS@CAELT@SABO SLRB 272200@CAELT@METAR SLRB 272200Z 00000KT 9999 NSC 30/23 Q1006 A2970 HR66 RWY NML=@CAELT@
ZPX0727 272152@CAELT@GG SLZZYMYT@CAELT@272152 SLRYYSYX@CAELT@SABO SLRY 272200@CAELT@METAR SLRY 272200Z 00000KT 9999 FEW020 BKN200 28/23 Q1004 A2967 HR72@CAELT@RWY HUM OPR=@CAELT@
ZPX0728 272154@CAELT@GG SLZZYMYT@CAELT@272155 SLSBYSYX@CAELT@SABO SLSB 272200@CAELT@METAR SLSB 272200Z 00000KT 9999 SCT080 30/23 Q1004 A2966 HR66 RWY NML=@CAELT@
ZPX0729 272154@CAELT@GG SLZZYMYT@CAELT@272154 SLCBYGYZ@CAELT@SABO SLCB 272200@CAELT@METAR SLCB 272200Z 24016G33KT 200V290 9999 FEW033 FEW036CB SCT080 27/@CAELT@04 Q1013 A2993 742.5 HR22 CB/VIRGA ON STN BECMG 21012KT=@CAELT@
ZPX0730 272154@CAELT@GG SLZZYMYT@CAELT@272155 SLETYMYC@CAELT@SABO SLET 272200@CAELT@METAR SLET 272200Z 31013KT 9999 NSC 29/17 Q1003 A2963 HR50 NOSIG=@CAELT@
ZPX0731 272155@CAELT@GG SLZZYMYT@CAELT@272155 SLRQYSYX@CAELT@SABO SLRQ 272200@CAELT@METAR SLRQ 272200Z 00000KT 9999 FEW020 BKN200 28/23 Q1004 A2967 HR71=@CAELT@
ZPX0732 272155@CAELT@GG SLZZYMYT@CAELT@272155 SLCOYGYZ@CAELT@SABO SLCO 272200@CAELT@METAR SLCO 272200Z 27004KT 9999 FEW010 BKN080 25/24 Q1006 A2972 979.0@CAELT@HR90=@CAELT@
ZPX0733 272155@CAELT@GG SLZZYMYT@CAELT@272156 SLVRYGYZ@CAELT@SABO SLVR 272200@CAELT@METAR SLVR 272200Z 33009KT 9999 FEW015 28/19 Q1003 A2963 HR58 AC@CAELT@NOSIG=@CAELT@
ZPX0734 272156@CAELT@GG SLZZYMYT@CAELT@272156 SLTRYGYZ@CAELT@SABO SLTR 272200@CAELT@METAR SLTR 272200Z 33006KT 9000 FEW020 SCT200 30/23 Q1004 A2966@CAELT@986.1 HR66 FU NOSIG=@CAELT@
ZPX0735 272156@CAELT@GG SLZZYMYT@CAELT@272156 SLSAYGYS@CAELT@SABO SLSA 272200@CAELT@METAR SLSA 272200Z 32005KT 7000 FEW017 BKN080 28/23 Q1004 A2967@CAELT@HR75 FU=@CAELT@
ZPX0736 272156@CAELT@GG SLZZYMYT@CAELT@272156 SLSAYGYS@CAELT@SABO SLSA 272200@CAELT@METAR SLSA 272200Z 32005KT 7000 FEW017 BKN080 28/23 Q1004 A2967@CAELT@HR75 FU=@CAELT@
ZPX0738 272157@CAELT@GG SLZZYMYT@CAELT@272155 SLLPYGYZ@CAELT@SABO SLLP 272200@CAELT@METAR SLLP 272200Z 20006KT 9999 FEW020 SCT200 17/M04 Q1029@CAELT@A3041 622.5 HR24 P93// WS RWY/10 NOSIG=@CAELT@
ZPX0739 272159@CAELT@GG SLZZYMYT@CAELT@272159 SLLPYFYA@CAELT@SABO SLLP 272200@CAELT@METAR SLLP 272200Z 20006KT 9999 FEW020 SCT200 17/M04 Q1029@CAELT@A3041 622.5 HR24 P93// WS RWY/10 NOSIG=@CAELT@METAR SLCO 272200Z 27004KT 9999 FEW010 BKN080 25/24 Q1006 A2972 979.0@CAELT@HR90=@CAELT@METAR SLRY 272200Z 00000KT 9999 FEW020 BKN200 28/23 Q1004 A2967 HR72RWY HUM OPR=METAR SLRQ 272200Z 00000KT 9999 FEW020 BKN200 28/23 Q1004 A2967 HR71=METAR SLSB 272200Z 00000KT 9999 SCT080 30/23 Q1004 A2966 HR66 RWY NML=
ZPX0740 272159@CAELT@GG SLZZYMYT@CAELT@272159 SLTRYGYS@CAELT@SABO SLTR 272200@CAELT@METAR SLTR 272200Z 33006KT 9000 FEW020 SCT200 30/23 Q1004 A2966@CAELT@986.1 HR66 FU NOSIG=@CAELT@METAR SLGM 272200Z 15012KT 8000 VCSH FEW008 BKN015 FEW020CB OVC070@CAELT@24/23 Q1006 A2973 HR96 FU CB/SH NE/SE/SW=@CAELT@METAR SLRI 272200Z 00000KT 9999 SCT004 BKN015 FEW020CB BKN070 23/23Q1005 A2970 HR98 CB E/SE/S CI=METAR SLJO 272200Z NIL=METAR SLRA 272200Z 35006KT 9999 FEW017 BKN080 BKN200 26/23 Q1006A2972 HR81 RWY HUM OPR=METAR SLMG 272200Z 32006KT 9999 FEW015 BKN080 26/23 Q1007 A2974HR83 RWY HUM OPR=METAR SLBU 272200Z NIL=METAR SLSA 272200Z 32005KT 7000 FEW017 BKN080 28/23 Q1004 A2967HR75 FU=METAR SLSR 272200Z 32006KT 8000 FEW017 BKN200 29/23 Q1003 A2963HR68 FU RWY HUM OPR=METAR SLSM 272200Z 36003KT 9999 FEW017 31/22 Q1004 A2965 HR59 CIRWY NML=
ZPX0741 272159@CAELT@GG SLZZYMYT@CAELT@272200 SLVRYGYS@CAELT@SABO SLVR 272200@CAELT@METAR SLVR 272200Z 33009KT 9999 FEW015 28/19 Q1003 A2963 HR58 AC@CAELT@NOSIG=@CAELT@METAR SLET 272200Z 31013KT 9999 NSC 29/17 Q1003 A2963 HR50 NOSIG=@CAELT@METAR SLAS 272200Z 34004KT 9999 FEW020 32/22 Q1005 A2968 HR55 FU RWY@CAELT@NML=METAR SLJV 272200Z 34005KT 9999 NSC 30/21 Q1004 A2965 HR62 RWY NML=METAR SLCP 272200Z 30008KT 9999 SCT017 31/21 Q1007 A2974 HR57 RWY NMLMETAR SLSI 272200Z 00000KT 9999 NSC 32/22 Q1003 A2961 HR54 RWY NML=METAR SLTI 272200Z 00000KT 9999 NSC 32/23 Q1007 A2974 HR60 RWY NML=METAR SLJE 272200Z 00000KT 9999 NSC 33/22 Q1005 A2968 HR52 RWY NML=METAR SLRB 272200Z 00000KT 9999 NSC 30/23 Q1006 A2970 HR66 RWY NML=METAR SLPS 272200Z 00000KT 9999 FEW017 SCT200 27/25 Q1005 A2968 HR90=METAR SLCA 272200Z 36005KT 9999 NSC 31/14 Q1005 A2968 HR36 RWY NML=
ZPX0751 272252@CAELT@GG SLZZYMYT@CAELT@272251 SLRBYGYS@CAELT@SABO SLRB 272300@CAELT@METAR SLRB 272300Z 00000KT 9999 NSC 28/24 Q1006 A2970 HR78 RWY NML=@CAELT@
ZPX0752 272254@CAELT@GG SLZZYMYT@CAELT@272255 SLSBYSYX@CAELT@SABO SLSB 272300@CAELT@METAR SLSB 272300Z 00000KT 9999 NSC 27/23 Q1004 A2965 HR76 CI RWY NML=@CAELT@
ZPX0753 272254@CAELT@GG SLZZYMYT@CAELT@272254 SLSAYGYS@CAELT@SABO SLSA 272300@CAELT@METAR SLSA 272300Z 00000KT 7000 FEW017 SCT080 25/23 Q1005 A2968@CAELT@HR85 FU=@CAELT@
ZPX0754 272254@CAELT@GG SLZZYMYT@CAELT@272254 SLSAYGYS@CAELT@SABO SLSA 272300@CAELT@METAR SLSA 272300Z 00000KT 7000 FEW017 SCT080 25/23 Q1005 A2968@CAELT@HR85 FU=@CAELT@
ZPX0755 272254@CAELT@GG SLZZYMYT@CAELT@272255 SLVRYGYZ@CAELT@SABO SLVR 272300@CAELT@METAR SLVR 272300Z 31008KT 9999 FEW010 26/20 Q1004 A2966 HR68 NOSIG=@CAELT@
ZPX0757 272255@CAELT@GG SLZZYMYT@CAELT@272255 SLCOYGYZ@CAELT@SABO SLCO 272300@CAELT@METAR SLCO 272300Z 00000KT 9999 FEW010 BKN080 25/24 Q1006 A2972 978.7@CAELT@HR90=@CAELT@
ZPX0758 272255@CAELT@GG SLLPZRZX@CAELT@272255 SLLPYGYZ@CAELT@SABO SLLP 272300@CAELT@METAR SLLP 272300Z 20009KT 9999 FEW017 SCT200 15/M06 Q1031@CAELT@A3047 623.8 HR23 NOSIG=@CAELT@
ZPX0759 272256@CAELT@GG SLZZYMYT@CAELT@272256 SLTRYGYZ@CAELT@SABO SLTR 272300@CAELT@METAR SLTR 272300Z 33006KT 9000 FEW015 SCT200 28/22 Q1005 A2968@CAELT@986.6 HR71 FU NOSIG=@CAELT@
ZPX0760 272257@CAELT@GG SLZZYMYT@CAELT@272255 SLCBYGYZ@CAELT@SABO SLCB 272300@CAELT@METAR SLCB 272300Z 22012KT 9999 FEW033 23/05 Q1014 A2995 742.9 HR32@CAELT@AC CI NOSIG=@CAELT@
ZPX0763 272259@CAELT@GG SLZZYMYT@CAELT@272259 SLTRYGYS@CAELT@SABO SLTR 272300@CAELT@METAR SLTR 272300Z 33006KT 9000 FEW015 SCT200 28/22 Q1005 A2968@CAELT@986.6 HR71 FU NOSIG=@CAELT@METAR SLGM 272300Z 15010KT 8000 VCSH BKN015 FEW020CB OVC070 24/23@CAELT@Q1007 A2976 HR97 FU CB/SH N/NE/SE/NW=@CAELT@METAR SLRI 272300Z 00000KT 9999 SCT004 BKN015 FEW020CB BKN070 23/23Q1005 A2970 HR98 CB E/SE CI=METAR SLMG 272300Z 00000KT 9999 SCT080 25/24 Q1007 A2974 HR90RWY HUM OPR=METAR SLSA 272300Z 00000KT 7000 FEW017 SCT080 25/23 Q1005 A2968HR85 FU=
ZPX0765 272300@CAELT@GG SLZZYMYT@CAELT@272259 SLVRYGYS@CAELT@SABO SLVR 272300@CAELT@METAR SLVR 272300Z 31008KT 9999 FEW010 26/20 Q1004 A2966 HR68 NOSIG=@CAELT@METAR SLSI 272300Z 00000KT 9999 NSC 29/22 Q1003 A2961 HR63 RWY NML=@CAELT@METAR SLRB 272300Z 00000KT 9999 NSC 28/24 Q1006 A2970 HR78 RWY NML=@CAELT@METAR SLCA 272300Z 00000KT 9999 NSC 29/14 Q1006 A2971 HR39 RWY NML=@CAELT@
ZPX0767 272301@CAELT@GG SLZZYMYT@CAELT@272301 SLCBYGYS@CAELT@SABO SLCB 272300@CAELT@METAR SLCB 272300Z 22012KT 9999 FEW033 23/05 Q1014 A2995 742.9 HR32@CAELT@AC CI NOSIG=@CAELT@
ZPX0775 272313@CAELT@GG SLZZYMYT@CAELT@272304 SLLPYFYA@CAELT@SABO SLLP 272300@CAELT@METAR SLLP 272300Z 20009KT 9999 FEW017 SCT200 15/M06 Q1031@CAELT@A3047 623.8 HR23 NOSIG=@CAELT@METAR SLCO 272300Z 00000KT 9999 FEW010 BKN080 25/24 Q1006 A2972 978.7@CAELT@HR90=@CAELT@METAR SLSB 272300Z 00000KT 9999 NSC 27/23 Q1004 A2965 HR76 CI RWY NML=
ZPX0780 272355@CAELT@GG SLZZYMYT@CAELT@272356 SLVRYGYZ@CAELT@SABO SLVR 280000@CAELT@METAR SLVR 280000Z 32009KT 9999 NSC 26/20 Q1005 A2968 HR71 NOSIG=@CAELT@
ZPX0781 272357@CAELT@GG SLZZYMYT@CAELT@272355 SLLPYGYZ@CAELT@SABO SLLP 280000@CAELT@METAR SLLP 280000Z 22008KT 9999 FEW015 FEW017CB SCT200 12/M09@CAELT@Q1033 A3052 624.9 HR21 CB/LT NW NOSIG=@CAELT@
