
ZPX0007 300054@CAELT@GG SLZZYMYT@CAELT@300054 SLCBYGYZ@CAELT@SABO SLCB 300100@CAELT@METAR SLCB 300100Z 15007KT 9999 FEW036 SCT200 22/06 Q1022 A3020 749.6@CAELT@HR36 AC FU NOSIG=@CAELT@
ZPX0008 300056@CAELT@GG SLLPZRZX@CAELT@300055 SLLPYGYZ@CAELT@SABO SLLP 300100@CAELT@METAR SLLP 300100Z 08006KT 9999 FEW015 FEW017CB BKN200 10/M01 Q1037@CAELT@A3065 627.8 HR47 CB/LT NW AC NOSIG=@CAELT@
ZPX0012 300105@CAELT@GG SLZZYMYT@CAELT@300104 SLVRYGYU@CAELT@SABO SLVR 300100@CAELT@METAR SLVR 300100Z 32003KT 9999 NSC 27/22 Q1009 A2981 HR74 CI NOSIG=@CAELT@
ZPX0014 300110@CAELT@GG SLZZYMYT@CAELT@300110 SLVRYGYZ@CAELT@SABO SLVR 300100@CAELT@METAR SLVR 300100Z 32003KT 9999 NSC 27/22 Q1009 A2981 HR74 CI NOSIG=@CAELT@
ZPX0022 300154@CAELT@GG SLZZYMYT@CAELT@300154 SLVRYGYZ@CAELT@SABO SLVR 300200@CAELT@METAR SLVR 300200Z 31004KT 9999 NSC 27/22 Q1010 A2983 HR74 CI NOSIG=@CAELT@
ZPX0023 300154@CAELT@GG SLZZYMYT@CAELT@300154 SLCBYGYZ@CAELT@SABO SLCB 300200@CAELT@METAR SLCB 300200Z 12006KT 9999 FEW036 SCT200 21/07 Q1023 A3023 750.4@CAELT@HR40 AC FU NOSIG=@CAELT@
ZPX0024 300156@CAELT@GG SLLPZRZX@CAELT@300155 SLLPYGYZ@CAELT@SABO SLLP 300200@CAELT@METAR SLLP 300200Z 14005KT 9999 FEW015 BKN200 10/03 Q1038 A3068@CAELT@628.5 HR60 AC NOSIG=@CAELT@
ZPX0033 300256@CAELT@GG SLLPZRZX@CAELT@300255 SLLPYGYZ@CAELT@SABO SLLP 300300@CAELT@METAR SLLP 300300Z 12005KT 9999 FEW015 BKN200 09/03 Q1039 A3069@CAELT@628.7 HR66 AC NOSIG=@CAELT@
ZPX0034 300256@CAELT@GG SLZZYMYT@CAELT@300257 SLVRYGYZ@CAELT@SABO SLVR 300300@CAELT@METAR SLVR 300300Z 36004KT 9999 NSC 26/22 Q1010 A2985 HR79 CI NOSIG=@CAELT@
ZPX0035 300258@CAELT@GG SLZZYMYT@CAELT@300257 SLCBYGYZ@CAELT@SABO SLCB 300300@CAELT@METAR SLCB 300300Z 11005KT 9999 FEW036 SCT080 BKN200 20/07 Q1024@CAELT@A3026 751.1 HR43 FU NOSIG=@CAELT@
ZPX0049 300353@CAELT@GG SLZZYMYT@CAELT@300354 SLVRYGYZ@CAELT@SABO SLVR 300400@CAELT@METAR SLVR 300400Z 34004KT 9999 NSC 25/22 Q1010 A2984 HR81 CI NOSIG=@CAELT@
ZPX0050 300354@CAELT@GG SLZZYMYT@CAELT@300354 SLCBYGYZ@CAELT@SABO SLCB 300400@CAELT@METAR SLCB 300400Z 10004KT 9999 FEW036 SCT080 BKN200 20/08 Q1024@CAELT@A3026 751.1 HR43 FU NOSIG=@CAELT@
ZPX0051 300356@CAELT@GG SLLPZRZX@CAELT@300355 SLLPYGYZ@CAELT@SABO SLLP 300400@CAELT@METAR SLLP 300400Z VRB02KT 9999 FEW012 BKN200 06/04 Q1039 A3069@CAELT@628.7 HR86 AC NOSIG=@CAELT@
ZPX0060 300455@CAELT@GG SLZZYMYT@CAELT@300454 SLCBYGYZ@CAELT@SABO SLCB 300500@CAELT@METAR SLCB 300500Z 25003KT 9999 FEW036 SCT080 BKN200 19/08 Q1023@CAELT@A3023 750.5 HR50 FU NOSIG=@CAELT@
ZPX0061 300456@CAELT@GG SLLPZRZX@CAELT@300455 SLLPYGYZ@CAELT@SABO SLLP 300500@CAELT@METAR SLLP 300500Z VRB02KT 4000E VCFG FEW003 SCT200 05/03 Q1038@CAELT@A3068 628.5 HR90 VCFG NE/E AC NOSIG=@CAELT@
ZPX0063 300502@CAELT@GG SLZZYMYT@CAELT@300502 SLVRYGYU@CAELT@SABO SLVR 300500@CAELT@METAR SLVR 300500Z 33005KT 9999 NSC24/22 Q1009 A2882 HR85 CI NOSIG=@CAELT@
ZPX0069 300554@CAELT@GG SLZZYMYT@CAELT@300554 SLVRYGYZ@CAELT@SABO SLVR 300600@CAELT@METAR SLVR 300600Z 34006KT 9999 FEW017 BKN200 24/22 Q1009 A2982 HR84@CAELT@NOSIG=@CAELT@
ZPX0070 300556@CAELT@GG SLLPZRZX@CAELT@300555 SLLPYGYZ@CAELT@SABO SLLP 300600@CAELT@METAR SLLP 300600Z 09003KT 4000E VCFG FEW003 SCT200 03/03 Q1038@CAELT@A3066 628.2 HR96 VCFG N/NE/E/SE AC NOSIG=@CAELT@
ZPX0071 300557@CAELT@GG SLZZYMYT@CAELT@300557 SLCBYGYZ@CAELT@SABO SLCB 300600@CAELT@METAR SLCB 300600Z 15004KT 9999 FEW036 SCT200 18/08 Q1023 A3022 750.0@CAELT@HR50 AC FU NOSIG=@CAELT@
ZPX0078 300654@CAELT@GG SLZZYMYT@CAELT@300654 SLCBYGYZ@CAELT@SABO SLCB 300700@CAELT@METAR SLCB 300700Z 09004KT 9999 FEW036 SCT200 18/08 Q1022 A3020 749.6@CAELT@HR51 AC FU NOSIG=@CAELT@
ZPX0079 300655@CAELT@GG SLLPZRZX@CAELT@300655 SLLPYGYZ@CAELT@SABO SLLP 300700@CAELT@METAR SLLP 300700Z 11004KT 4000E VCFG FEW003 SCT012 05/04 Q1037@CAELT@A3065 627.8 HR94 VCFG NE/E/SE AC/CI NOSIG=@CAELT@
ZPX0080 300657@CAELT@GG SLZZYMYT@CAELT@300657 SLVRYGYZ@CAELT@SABO SLVR 300700@CAELT@METAR SLVR 300700Z 34008KT 9999 NSC 24/22 Q1008 A2979 HR85 CI NOSIG=@CAELT@
ZPX0087 300755@CAELT@GG SLZZYMYT@CAELT@300754 SLCBYGYZ@CAELT@SABO SLCB 300800@CAELT@METAR SLCB 300800Z 11005KT 9999 FEW036 SCT200 18/07 Q1022 A3020 749.7@CAELT@HR49 AC FU NOSIG=@CAELT@
ZPX0088 300755@CAELT@GG SLLPZRZX@CAELT@300755 SLLPYGYZ@CAELT@SABO SLLP 300800@CAELT@METAR SLLP 300800Z 08004KT 4000E VCFG FEW003 SCT012 05/05 Q1037@CAELT@A3064 627.6 HR95 VCFG N/NE/E/SE AC/CI NOSIG=@CAELT@
ZPX0089 300756@CAELT@GG SLZZYMYT@CAELT@300757 SLVRYGYZ@CAELT@SABO SLVR 300800@CAELT@METAR SLVR 300800Z 35006KT 9999 NSC 24/22 Q1009 A2980 HR86 CI NOSIG=@CAELT@
ZPX0103 300854@CAELT@GG SLZZYMYT@CAELT@300853 SLPSYGYS@CAELT@SABO SLPS 300900@CAELT@METAR SLPS 300900Z 00000KT 8000 FEW020 SCT200 26/23 Q1009 A2980 HR85@CAELT@
ZPX0104 300855@CAELT@GG SLZZYMYT@CAELT@300856 SLVRYGYZ@CAELT@SABO SLVR 300900@CAELT@METAR SLVR 300900Z 36006KT 9999 NSC 24/22 Q1009 A2982 HR88 CI NOSIG=@CAELT@
ZPX0105 300856@CAELT@GG SLZZYMYT@CAELT@300856 SLTRYGYZ@CAELT@SABO SLTR 300900@CAELT@METAR SLTR 300900Z 35003KT 9999 NSC 26/24 Q1009 A2980 990.5 HR91@CAELT@CI NOSIG=@CAELT@
ZPX0106 300856@CAELT@GG SLZZYMYT@CAELT@300856 SLTRYGYZ@CAELT@SABO SLTR 300900@CAELT@METAR SLTR 300900Z 35003KT 9999 NSC 26/24 Q1009 A2980 990.5 HR91@CAELT@CI NOSIG=@CAELT@
ZPX0107 300857@CAELT@GG SLLPZRZX@CAELT@300856 SLLPYGYZ@CAELT@SABO SLLP 300900@CAELT@METAR SLLP 300900Z 11005KT 4000E VCFG FEW003 06/04 Q1037 A3063@CAELT@627.5 HR89 VCFG NE/E/SE AC/CI NOSIG=@CAELT@
ZPX0108 300857@CAELT@GG SLZZYMYT@CAELT@300856 SLCBYGYZ@CAELT@SABO SLCB 300900@CAELT@METAR SLCB 300900Z 13004KT 9999 FEW036 BKN070 BKN200 19/07 Q1023@CAELT@A3022 750.1 HR48 FU NOSIG=@CAELT@
ZPX0109 300900@CAELT@GG SLZZYMYT@CAELT@300859 SLVRYGYU@CAELT@SABO SLVR 300900@CAELT@METAR SLVR 300900Z 36006KT 9999 NSC 24/22 Q1009 A2982 HR88 CI NOSIG=@CAELT@METAR SLPS 300900Z 00000KT 8000 FEW020 SCT200 26/23 Q1009 A2980 HR85@CAELT@
ZPX0110 300901@CAELT@GG SLZZYMYT@CAELT@300900 SLTRYGYS@CAELT@SABO SLTR 300900@CAELT@METAR SLTR 300900Z 35003KT 9999 NSC 26/24 Q1009 A2980 990.5 HR91@CAELT@CI NOSIG=@CAELT@METAR SLRI 300900Z 00000KT 9999 NSC 23/23 Q1011 A2985 HR97=@CAELT@
ZPX0128 300952@CAELT@GG SLZZYMYT@CAELT@300951 SLPSYGYS@CAELT@SABO SLPS 301000@CAELT@METAR SLPS 301000Z 00000KT 8000 NSC 27/23 Q1009 A2980 HR83 BR=@CAELT@
ZPX0129 300953@CAELT@GG SLZZYMYT@CAELT@300951 SLCAYGYS@CAELT@SABO SLCA 301000@CAELT@METAR SLCA 301000Z 00000KT 9999 NSC 22/20 Q1014 A2994 HR89 CS RWY NML@CAELT@
ZPX0131 300954@CAELT@GG SLZZYMYT@CAELT@300953 SLETYMYC@CAELT@SABO SLET 301000@CAELT@METAR SLET 301000Z 32008KT 9999 NSC 26/22 Q1010 A2984 HR78 CI NOSIG=@CAELT@
ZPX0132 300954@CAELT@GG SLZZYMYT@CAELT@300953 SLRBYGYS@CAELT@SABO SLRB 301000@CAELT@METAR SLRB 301000Z 00000KT 9999 FEW020 28/22 Q1013 A2991 HR73 RWY NML=@CAELT@
ZPX0134 300955@CAELT@GG SLZZYMYT@CAELT@300955 SLVRYGYZ@CAELT@SABO SLVR 301000@CAELT@METAR SLVR 301000Z 36005KT 9999 FEW015 BKN200 24/22 Q1010 A2985 HR87@CAELT@NOSIG=@CAELT@
ZPX0135 300955@CAELT@GG SLZZYMYT@CAELT@300954 SLSAYGYS@CAELT@SABO SLSA 301000@CAELT@METAR SLSA 301000Z 00000KT 9999 FEW080 BKN200 25/24 Q1009 A2980 HR96=@CAELT@
ZPX0136 300955@CAELT@GG SLZZYMYT@CAELT@300955 SLCOYSYX@CAELT@SABO SLCO 301000@CAELT@METAR SLCO 101000Z 00000KT 9999 FEW080 SCT200 24/24 Q1011 A2986 983.8@CAELT@HR98=@CAELT@
ZPX0137 300955@CAELT@GG SLZZYMYT@CAELT@300955 SLTRYGYZ@CAELT@SABO SLTR 301000@CAELT@METAR SLTR 301000Z 00000KT 9999 FEW020 BKN200 26/24 Q1010 A2983@CAELT@991.5 HR91 NOSIG=@CAELT@
ZPX0138 300955@CAELT@GG SLZZYMYT@CAELT@300955 SLLPYGYZ@CAELT@SABO SLLP 301000@CAELT@METAR SLLP 301000Z 12004KT 4000E VCFG FEW003 SCT012 06/04 Q1037@CAELT@A3065 627.9 HR88 P92// VCFG NE/E/SE/S AC/CI NOSIG=@CAELT@
ZPX0139 300955@CAELT@GG SLZZYMYT@CAELT@300956 SLRQYSYX@CAELT@SABO SLRQ 301000@CAELT@METAR SLRQ 301000Z 00000KT 9999 FEW020 BKN200 24/24 Q1008 A2979 984.8@CAELT@HR99=@CAELT@
ZPX0140 300955@CAELT@GG SLZZYMYT@CAELT@300955 SLSBYSYX@CAELT@SABO SLSB 301000@CAELT@METAR SLSB 301000Z 00000KT 9999 NSC 24/23 Q1009 A2982 HR95 CI RWY NML=@CAELT@
ZPX0141 300956@CAELT@GG SLZZYMYT@CAELT@300956 SLVRYFYC@CAELT@SABO SLVR 301000@CAELT@METAR SLVR 301000Z 36005KT 9999 FEW015 BKN200 24/22 Q1010 A2985 HR87@CAELT@NOSIG=@CAELT@METAR SLET 301000Z 32008KT 9999 NSC 26/22 Q1010 A2984 HR78 CI NOSIG=@CAELT@METAR SLCP 301000Z 00000KT 9999 NSC 24/23 Q1011 A2985 HR90 RWY NML=@CAELT@METAR SLSI 301000Z 00000KT 9999 NSC 23/22 Q1015 A2997 HR97 CI RWY NMLMETAR SLRB 301000Z 00000KT 9999 FEW020 28/22 Q1013 A2991 HR73 RWY NMLMETAR SLPS 301000Z 00000KT 8000 NSC 27/23 Q1009 A2980 HR83 BR=METAR SLCA 301000Z 00000KT 9999 NSC 22/20 Q1014 A2994 HR89 CS RWY NML
ZPX0142 300956@CAELT@GG SLZZYMYT@CAELT@300956 SLCBYGYZ@CAELT@SABO SLCB 301000@CAELT@METAR SLCB 301000Z 12005KT 9999 FEW036 SCT070 BKN200 19/08 Q1024@CAELT@A3025 750.8 HR49 FU NOSIG=@CAELT@
ZPX0143 300956@CAELT@GG SLZZYMYT@CAELT@300956 SLUYYGYS@CAELT@SABO SLUY 301000@CAELT@METAR SLUY 301000Z 00000KT 9999 NSC 05/M02 Q1033 A3051 657.8@CAELT@HR60 CI=@CAELT@
ZPX0144 300959@CAELT@GG SLZZYMYT@CAELT@300957 SLTJYGYZ@CAELT@SABO SLTJ 301000@CAELT@METAR SLTJ 301000Z 00000KT 9999 BKN025 BKN070 21/16 Q1020 A3012 814.9@CAELT@HR69 CI=@CAELT@
ZPX0146 301001@CAELT@GG SLZZYMYT@CAELT@301000 SLTRYGYS@CAELT@SABO SLTR 301000@CAELT@METAR SLTR 301000Z 00000KT 9999 FEW020 BKN200 26/24 Q1010 A2983@CAELT@991.5 HR91 NOSIG=@CAELT@METAR SLGM 301000Z 02003KT 9999 SCT017 FEW020CB BKN200 26/24 Q1010@CAELT@A2984 HR90 CB E=@CAELT@METAR SLRI 301000Z 00000KT 9999 SCT080 23/23 Q1011 A2987 HR91=METAR SLJO 301000Z 00000KT 9999 BKN080 25/24 Q1009 A2980 HR96RWY NML=METAR SLRA 301000Z 36004KT 9999 SCT017 FEW023CB BKN200 26/24 Q1009A2981 HR87 CB S RWY NML=METAR SLMG 301000Z 00000KT 9999 FEW020 BKN080 25/24 Q1009 A2982 HR91METAR SLBU 301000Z NIL=METAR SLSA 301000Z 00000KT 9999 FEW080 BKN200 25/24 Q1009 A2980 HR96=METAR SLSR 301000Z 00000KT 9999 NSC 25/24 Q1008 A2978 HR92 RWY NML=METAR SLSM 301000Z NIL=
ZPX0147 301002@CAELT@GG SLZZYMYT@CAELT@301001 SLCBYGYS@CAELT@SABO SLCB 301000@CAELT@METAR SLCB 301000Z 12005KT 9999 FEW036 SCT070 BKN200 19/08 Q1024@CAELT@A3025 750.8 HR49 FU NOSIG=@CAELT@METAR SLAL 301000Z 17005KT 9999 FEW015 SCT070 BKN200 12/09 Q1029@CAELT@A3040 703.8 HR82=@CAELT@METAR SLVM 301000Z 00000KT 9999 FEW030 BKN070 24/22 Q1009 A2982 HR87CI=METAR SLTJ 301000Z 00000KT 9999 BKN025 BKN070 21/16 Q1020 A3012 814.9HR69 CI=
ZPX0149 301004@CAELT@GG SLZZYMYT@CAELT@301000 SLLPYFYA@CAELT@SABO SLRY 301000@CAELT@METAR SLRY 301000Z 00000KT 9999 FEW027 23/23 Q1007 A2976 HR98@CAELT@RWY WET OPR=@CAELT@
ZPX0150 301005@CAELT@GG SLZZYMYT@CAELT@301004 SLLPYFYA@CAELT@SABO SLLP 301000@CAELT@METAR SLLP 301000Z 12004KT 4000E VCFG FEW003 SCT012 06/04 Q1037@CAELT@A3065 627.9 HR88 P92// VCFG NE/E/SE/S AC/CI NOSIG=@CAELT@METAR SLCO 301000Z 00000KT 9999 FEW080 SCT200 24/24 Q1011 A2986@CAELT@983.8 HR98=@CAELT@METAR SLRY 301000Z 00000KT 9999 FEW027 23/23 Q1007 A2976 HR98RWY WET OPR=METAR SLRQ 301000Z 00000KT 9999 FEW020 BKN200 24/24 Q1008 A2979984.8 HR99=METAR SLAP 301000Z 00000KT 9999 FEW025 19/18 Q1017 A3003 857.7HR91 CI=METAR SLSB 301000Z 00000KT 9999 NSC 24/23 Q1009 A2982 HR95 CIRWY NML=METAR SLUY 301000Z 00000KT 9999 NSC 05/M02 Q1033 A3051 657.8HR60 CI=
ZPX0151 301007@CAELT@GG SLZZYMYT@CAELT@301007 SLTRYGYS@CAELT@SABO SLTR 301000 RRA@CAELT@METAR SLTR 301000Z 00000KT 9999 FEW020 BKN200 26/24 Q1010 A2983@CAELT@991.5 HR91 NOSIG=@CAELT@METAR SLGM 301000Z 02003KT 9999 SCT017 FEW020CB BKN200 26/24 Q1010@CAELT@A2984 HR90 CB E=@CAELT@METAR SLRI 301000Z 00000KT 9999 SCT080 23/23 Q1011 A2987 HR91=METAR SLJO 301000Z 00000KT 9999 BKN080 25/24 Q1009 A2980 HR96RWY NML=METAR SLRA 301000Z 36004KT 9999 SCT017 FEW023CB BKN200 26/24 Q1009A2981 HR87 CB S RWY NML=METAR SLMG 301000Z 00000KT 9999 FEW020 BKN080 25/24 Q1009 A2982 HR91METAR SLBU 301000Z NIL=METAR SLSA 301000Z 00000KT 9999 FEW080 BKN200 25/24 Q1009 A2980 HR96=METAR SLSR 301000Z 00000KT 9999 NSC 25/24 Q1008 A2978 HR92 RWY NML=METAR RTD SLSM 301000Z 00000KT 8000 NSC 24/24 Q1009 A2981 HR100 FU
ZPX0175 301051@CAELT@GG SLZZYMYT@CAELT@301051 SLPSYGYS@CAELT@SABO SLPS 301100@CAELT@METAR SLPS 301100Z 00000KT 8000 NSC 29/25 Q1009 A2980 HR79 BR=@CAELT@
ZPX0177 301053@CAELT@GG SLZZYMYT@CAELT@301052 SLETYMYC@CAELT@SABO SLET 301100Z@CAELT@METAR SLET 301100Z 33008KT 9999 FEW016 BKN200 26/22 Q1011 A2986 HR80@CAELT@NOSIG=@CAELT@
ZPX0178 301053@CAELT@GG SLZZYMYT@CAELT@301053 SLSAYGYS@CAELT@SABO SLSA 301100@CAELT@METAR SLSA 301100Z 00000KT 9999 FEW080 BKN200 26/24 Q1010 A2983 HR91=@CAELT@
ZPX0179 301054@CAELT@GG SLZZYMYT@CAELT@301054 SLSBYSYX@CAELT@SABO SLSB 301100@CAELT@METAR SLSB 301100Z 00000KT 9999 NSC 25/24 Q1010 A2984 HR92 CI RWY NML=@CAELT@
ZPX0180 301054@CAELT@GG SLZZYMYT@CAELT@301054 SLVRYGYZ@CAELT@SABO SLVR 301100@CAELT@METAR SLVR 301100Z 36010KT 9999 FEW015 BKN200 26/23 Q1011 A2986 HR81@CAELT@NOSIG=@CAELT@
ZPX0181 301054@CAELT@GG SLZZYMYT@CAELT@301053 SLRBYGYS@CAELT@SABO SLRB 301100@CAELT@METAR SLRB 301100Z 00000KT 9999 FEW020 29/22 Q1013 A2991 HR67 RWY NML=@CAELT@
ZPX0183 301055@CAELT@GG SLZZYMYT@CAELT@301055 SLTRYGYZ@CAELT@SABO SLTR 301100@CAELT@METAR SLTR 301100Z 35005KT 9999 FEW020 BKN200 27/24 Q1010 A2985@CAELT@992.2 HR88 NOSIG=@CAELT@
ZPX0185 301055@CAELT@GG SLZZYMYT@CAELT@301055 SLUYYGYS@CAELT@SABO SLUY 301100@CAELT@METAR SLUY 301100Z 25003KT 9999 NSC 08/00 Q1034 A3054 658.4@CAELT@HR55 CI=@CAELT@
ZPX0186 301056@CAELT@GG SLZZYMYT@CAELT@301055 SLRQYSYX@CAELT@SABO SLRQ 301100@CAELT@METAR SLRQ 301100Z 00000KT 9999 NSC 25/25 Q1010 A2983 986.1 HR95 CI=@CAELT@
ZPX0187 301056@CAELT@GG SLZZYMYT@CAELT@301055 SLLPYGYZ@CAELT@SABO SLLP 301100@CAELT@METAR SLLP 301100Z VRB02KT 4000E VCFG FEW004 SCT200 07/03 Q1038@CAELT@A3068 628.5 HR76 P0082 VCFG NE/E/SE/S AC FU NOSIG=@CAELT@
ZPX0190 301057@CAELT@GG SLZZYMYT@CAELT@301056 SLCBYGYZ@CAELT@SABO SLCB 301100@CAELT@METAR SLCB 301100Z 22003KT 9999 FEW036 BKN200 19/09 Q1024 A3027 751.3@CAELT@HR50 AC FU NOSIG=@CAELT@
ZPX0191 301057@CAELT@GG SLZZYMYT@CAELT@301056 SLTJYGYZ@CAELT@SABO SLTJ 301100@CAELT@METAR SLTJ 301100Z 13010KT 9000 -RA BKN025 OVC070 20/17 Q1021 A3016@CAELT@816.0 HR82=@CAELT@
ZPX0192 301057@CAELT@GG SLZZYMYT@CAELT@301057 SLCOYSYX@CAELT@SABO SLCO 301100@CAELT@METAR SLCO 301100Z 00000KT 9999 NSC 25/24 Q1011 A2987 984.0 HR94 CI=@CAELT@
ZPX0195 301057@CAELT@GG SLZZYMYT@CAELT@301057 SLORYGYZ@CAELT@SABO SLOR 301100@CAELT@METAR SLOR 301100Z 00000KT 7000 FEW015 SCT200 08/03 Q1035 A3058 656.3@CAELT@HR70 VIS RED FU E/SE/S/NW=@CAELT@
ZPX0198 301059@CAELT@GG SLZZYMYT@CAELT@301058 SLCBYGYS@CAELT@SABO SLCB 301100@CAELT@METAR SLCB 301100Z 22003KT 9999 FEW036 BKN200 19/09 Q1024 A3027@CAELT@751.3 HR50 AC FU NOSIG=@CAELT@METAR SLAL 301100Z 00000KT 9999 FEW015 SCT070 BKN200 13/10 Q1030@CAELT@A3044 704.7 HR78=@CAELT@METAR SLVM 301100Z 18012G25KT 9999 BKN070 26/22 Q1012 A2989 HR76 FUMETAR SLTJ 301100Z 13010KT 9000 -RA BKN025 OVC070 20/17 Q1021 A3016816.0 HR82=
ZPX0199 301059@CAELT@GG SLZZYMYT@CAELT@301059 SLVRYFYC@CAELT@SABO SLVR 301100@CAELT@METAR SLVR 301100Z 36010KT 9999 FEW015 BKN200 26/23 Q1011 A2986 HR81@CAELT@NOSIG=@CAELT@METAR SLET 301100Z 33008KT 9999 FEW016 BKN200 26/22 Q1011 A2986 HR80@CAELT@METAR SLAS 301100Z 00000KT 9999 FEW020 OVC200 26/24 Q1013 A2991 HR86@CAELT@RWY NML=METAR SLJV 301100Z 00000KT 9999 NSC 24/23 Q1011 A 2985 92 RWY NML=METAR SLCP 301100Z 00000KT 9999 NSC 24/23 Q1015 A2997 HR96 CI RWY NMLMETAR SLSI 301100Z 00000KT 9999 NSC 26/23 Q1012 A2888 HR82 RWY NML=METAR SLTI 301100Z 00000KT 9999 NSC 28/22 Q1015 A2997 HR70 RWY NML=METAR SLJE 301100Z 00000KT 9999 NSC 27/23 Q1014 A2994 HR77 RWY NML=METAR SLVG 301100Z 00000KT 9999 SCT015 BKN200 17/15 Q1024 A3024 HR90METAR SLRB 301100Z 00000KT 9999 FEW020 29/22 Q1013 A2991 HR67 RWY NMLMETAR SLPS 301100Z 00000KT 8000 NSC 29/25 Q1009 A2980 HR79 BR=METAR SLCA 301100Z 00000KT 9999 NSC 24/21 Q1014 A2994 HR84 CS RWY NML
ZPX0202 301101@CAELT@GG SLZZYMYT@CAELT@301101 SLTRYGYS@CAELT@SABO SLTR 301100@CAELT@METAR SLTR 301100Z 35005KT 9999 FEW020 BKN200 27/24 Q1010 A2985@CAELT@992.2 HR88 NOSIG=@CAELT@METAR SLGM 301100Z 02006KT 6000 VCSH BKN015 FEW020CB BKN080 26/24@CAELT@Q1011 A2987 HR90 CB/SH NE/E=@CAELT@METAR SLRI 301100Z 00000KT 9999 SCT080 24/23 Q1012 A2989 HR91=METAR SLJO 301100Z 00000KT 9999 FEW020 BKN080 26/24 Q1009 A2980 HR92RWY NML=METAR SLRA 301100Z 36006KT 8000 VCSH SCT017 FEW023CB BKN200 26/24Q1010 A2983 HR88 CB/SH SE RWY NML=METAR SLMG 301100Z 00000KT 9999 FEW020 BKN080 26/24 Q10101 A2985 HR88METAR SLBU 301100Z NIL=METAR SLSA 301100Z 00000KT 9999 FEW080 BKN200 26/24 Q1010 A2983 HR91=METAR SLSR 301100Z 32006KT 8000 FEW017 BKN200 26/24 Q1009 A2981 HR90FU RWY NML=METAR SLSM 301100Z 00000KT 9999 NSC 25/24 Q1010 A2984 HR98 FU CI
ZPX0205 301102@CAELT@GG SLZZYMYT@CAELT@301101 SLLPYFYA@CAELT@SABO SLRY 301100@CAELT@METAR SLRY 301100Z 00000KT 9999 NSC 24/23 Q1008 A2979 HR97@CAELT@CI RWY WET OPR=@CAELT@
ZPX0209 301105@CAELT@GG SLZZYMYT@CAELT@301101 SLLPYFYA@CAELT@SABO SLLP 301100@CAELT@METAR SLLP 301100Z VRB02KT 4000E VCFG FEW004 SCT200 07/03 Q1038@CAELT@A3068 628.5 HR76 P0082 VCFG NE/E/SE/S AC FU NOSIG=@CAELT@METAR SLCO 301100Z 00000KT 9999 NSC 25/24 Q1011 A2987 984.0 HR94 CI=@CAELT@METAR SLRY 301100Z 00000KT 9999 NSC 24/23 Q1008 A2979 HR97@CAELT@CI RWY WET OPR=METAR SLRQ 301100Z 00000KT 9999 NSC 25/25 Q1010 A2983 986.1 HR95 CI=METAR SLAP 301100Z 00000KT 9999 FEW025 21/18 Q1017 A3005 858.3 HR85AC/CI=METAR SLSB 301100Z 00000KT 9999 NSC 25/24 Q1010 A2984 HR92 CI RWY NMLMETAR SLOR 301100Z 00000KT 7000 FEW015 SCT200 08/03 Q1035 A3058 656.3HR70 VIS RED FU E/SE/S/NW=METAR SLUY 301100Z 25003KT 9999 NSC 08/00 Q1034 A3054 658.4HR55 CI=
ZPX0245 301152@CAELT@GG SLZZYMYT@CAELT@301153 SLVRYGYZ@CAELT@SABO SLVR 301200@CAELT@METAR SLVR 301200Z 35011KT 9999 FEW017 BKN200 29/24 Q1012 A2989 HR73@CAELT@NOSIG=@CAELT@
ZPX0247 301153@CAELT@GG SLZZYMYT@CAELT@301151 SLPSYGYS@CAELT@SABO SLPS 301200@CAELT@METAR SLPS 301200Z 09004KT 9999 NSC 31/26 Q1009 A2980 HR74 CI=@CAELT@
ZPX0249 301154@CAELT@GG SLZZYMYT@CAELT@301154 SLSBYSYX@CAELT@SABO SLSB 301200@CAELT@METAR SLSB 301200Z 35005KT 9999 NSC 28/25 Q1011 A2987 HR87 CI RWY NML=@CAELT@
ZPX0250 301154@CAELT@GG SLZZYMYT@CAELT@301155 SLORYGYZ@CAELT@SABO SLOR 301200@CAELT@METAR SLOR 301200Z 02007KT 9999 FEW017 SCT200 12/03 Q1035 A3059 656.5@CAELT@HR54 AC FU=@CAELT@
ZPX0252 301155@CAELT@GG SLZZYMYT@CAELT@301155 SLRQYSYX@CAELT@SABO SLRQ 301200@CAELT@METAR SLRQ 301200Z 00000KT 9999 NSC 28/26 Q1010 A2985 986.7 HR90 CI=@CAELT@
ZPX0253 301155@CAELT@GG SLZZYMYT@CAELT@301154 SLRBYGYS@CAELT@SABO SLRB 301200@CAELT@METAR SLRB 301200Z 36006KT 9999 NSC 33/23 Q1014 A2994 HR56 CI RWY NML=@CAELT@
ZPX0254 301155@CAELT@GG SLZZYMYT@CAELT@301124 SLETYMYC@CAELT@SABO SLET 301200@CAELT@METAR SLET 301200Z 32012KT 9999 FEW017 BKN200 29/23 Q1011 A2987 HR69@CAELT@NOSIG=@CAELT@
ZPX0256 301156@CAELT@GG SLZZYMYT@CAELT@301156 SLTRYGYZ@CAELT@SABO SLTR 301200@CAELT@METAR SLTR 301200Z 33008KT 9999 FEW020 BKN200 29/25 Q1011 A2986@CAELT@992.8 HR79 NOSIG=@CAELT@
ZPX0258 301156@CAELT@GG SLZZYMYT@CAELT@301155 SLAGYSYX@CAELT@SABO SLAG 301200@CAELT@METAR SLAG 301200Z 00000KT 8000 FEW015 FEW030CB SCT080 BKN200 28/19@CAELT@Q1017 A3004 889.4 HR61 CB W/NW FU=@CAELT@
ZPX0261 301158@CAELT@GG SLZZYMYT@CAELT@301155 SLSAYGYS@CAELT@SABO SLSA 301200@CAELT@METAR SLSA 301200Z 34005KT 9999 FEW080 BKN200 28/25 Q1011 A2986 HR80=@CAELT@
ZPX0262 301158@CAELT@GG SLZZYMYT@CAELT@301155 SLLPYGYZ@CAELT@SABO SLLP 301200@CAELT@METAR SLLP 301200Z 10006KT 6000 FEW006 SCT200 10/04 Q1039 A3069@CAELT@628.9 HR64 P92// VIS RED/ST NE/E/SE HZ/W NOSIG=@CAELT@
ZPX0263 301158@CAELT@GG SLZZYMYT@CAELT@301157 SLCBYGYZ@CAELT@SABO SLCB 301200@CAELT@METAR SLCB 301200Z 17003KT 9999 FEW036 BKN200 22/07 Q1025 A3027 751.4@CAELT@HR37 AC FU NOSIG=@CAELT@
ZPX0264 301158@CAELT@GG SLZZYMYT@CAELT@301157 SLTJYGYZ@CAELT@SABO SLTJ 301200@CAELT@METAR SLTJ 301200Z 15008KT 1500NW TSRA BKN025 FEW030CB OVC070 18/17@CAELT@Q1022 A3020 817.1 HR95 CB/TS/N/NE/E/S VIS RED/N/NE/SW/W/NW RESTO 6000=@CAELT@
ZPX0265 301159@CAELT@GG SLZZYMYT@CAELT@301155 SLUYYGYS@CAELT@SABO SLUY 301200@CAELT@METAR SLUY 301200Z 00000KT 9999 NSC 14/01 Q1034 A3054 658.6@CAELT@HR41 CI=@CAELT@
ZPX0268 301200@CAELT@GG SLZZYMYT@CAELT@301200 SLTRYGYS@CAELT@SABO SLTR 301200@CAELT@METAR SLTR 301200Z 33008KT 9999 FEW020 BKN200 29/25 Q1011 A2986@CAELT@992.8 HR79 NOSIG=@CAELT@METAR SLGM 301200Z 06008KT 1000 +TSRA BKN004 FEW020CB OVC070 24/23@CAELT@Q1013 A2991 HR97 CB NE/E/W/NW TS NE/E=@CAELT@METAR SLRI 301200Z 00000KT 9999 SCT080 25/23 Q1013 A2992 HR88=METAR SLJO 301200Z 34004KT 9999 FEW020 BKN080 27/24 Q1010 A2985 HR88RWY NML=METAR SLRA 301200Z 36006KT 7000 VCSH FEW017 FEW023CB BKN200 26/25Q1011 A2986 HR91 CB/SH E/SE RWY NML=METAR SLMG 301200Z 03004KT 9999 SCT017 BKN200 27/24 Q1011 A2986 HR84METAR SLBU 301200Z 34008KT 9999 FEW017 BKN200 27/24 Q1011 A2987 HR85METAR SLSA 301200Z 34005KT 9999 FEW080 BKN200 28/25 Q1011 A2986 HR80=METAR SLSR 301200Z 32006KT 8000 FEW017 BKN200 27/24 Q1010 A2983 HR86FU RWY NML=METAR SLSM 301200Z 00000KT 9999 NSC 28/26 Q1011 A2986 HR89 FU CI
ZPX0269 301200@CAELT@GG SLZZYMYT@CAELT@301200 SLCBYGYS@CAELT@SABO SLCB 301200@CAELT@METAR SLCB 301200Z 17003KT 9999 FEW036 BKN200 22/07 Q1025 A3027@CAELT@751.4 HR37 AC FU NOSIG=@CAELT@METAR SLAL 301200Z 10008KT 9999 FEW015 SCT200 17/09 Q1031 A3045@CAELT@705.0 HR63=@CAELT@METAR SLPO 301200Z 05005KT 9999 FEW013 12/06 Q1038 A3067 638.6 HR66METAR SLAG 301200Z 00000KT 8000 FEW015 FEW030CB SCT080 BKN200 28/19Q1017 A3004 889.4 HR61 CB W/NW FU=METAR SLVM 301200Z 18015G27KT 6000 SCT025 OVC070 26/22 Q1014 A2996HR76 FU=METAR SLTJ 301200Z 15008KT 1500NW TSRA BKN025 FEW030CB OVC070 18/17Q1022 A3020 817.1 HR95 CB/TS/N/NE/E/S VIS RED/N/NE/SW/W/NW RESTO 6000METAR SLYA 301200Z 21016KT 5000 -RA SCT008 BKN012 OVC070 22/20 Q1016A3002 941.2 HR89=METAR SLBJ 301200Z NIL=METAR SLHI 301200Z NIL=
ZPX0272 301204@CAELT@GG SLZZYMYT@CAELT@301200 SLLPYFYA@CAELT@SABO SLLP 301200@CAELT@METAR SLLP 301200Z 10006KT 6000 FEW006 SCT200 10/04 Q1039 A3069@CAELT@628.9 HR64 P92// VIS RED/ST NE/E/SE HZ/W NOSIG=@CAELT@METAR SLCO 301200Z 27006KT 9999 BKN007 SCT200 26/24 Q1012@CAELT@A2991 985.3 HR80=@CAELT@METAR SLRY 301200Z 00000KT 9999 NSC 26/25 Q1009 A2981HR92 CI RWY HUM OPR=METAR SLRQ 301200Z 00000KT 9999 NSC 28/26 Q1010 A2985 986.7 HR90 CI=METAR SLAP 301200Z 36008KT 9999 FEW025 22/20 Q1018 A3008 859.1 HR86AC=METAR SLSB 301200Z 35005KT 9999 NSC 28/25 Q1011 A2987 HR87 CI RWY NMLMETAR SLOR 301200Z 02007KT 9999 FEW017 SCT200 12/03 Q1035 A3059 656.5HR54 AC FU=METAR SLUY 301200Z 00000KT 9999 NSC 14/01 Q1034 A3054 658.6HR41 CI=
ZPX0273 301204@CAELT@GG SLZZYMYT@CAELT@301204 SLVRYFYC@CAELT@SABO SLVR 301200@CAELT@METAR SLVR 301200Z 35011KT 9999 FEW017 BKN200 29/24 Q1012 A2989 HR73@CAELT@NOSIG=@CAELT@METAR SLET 301200Z 32012KT 9999 FEW017 BKN200 29/23 Q1011 A2987 HR69@CAELT@METAR SLAS 301200Z 00000KT 9999 NSC 28/24 Q1014 A2994 HR80 RWY NML=@CAELT@METAR SLJV 301200Z 00000KT 9999 NSC 26/23 Q1012 A2988 HR81 RWY NML=METAR SLCP 301200Z 00000KT 9999 NSC 25/23 Q1016 A3000 HR87 CI RWY NMLMETAR SLSI 301200Z 36006KT 9999 NSC 29/23 Q1013 A2991 HR68 RWY NMLMETAR SLTI 301200Z 35008KT 9999 NSC 31/21 Q1015 A2997 HR57 RWY NML=METAR SLJE 301200Z 00000KT 9999 NSC 30/23 Q1015 A2997 HR65 RWY NML=METAR SLVG 301200Z 34005KT 9999 SCT015 BKN200 18/16 Q1024 A3024 HR86RWY NML=METAR SLRB 301200Z 36006KT 9999 NSC 33/23 Q1014 A2994 HR56 CI RWY NMLMETAR SLPS 301200Z 09004KT 9999 NSC 31/26 Q1009 A2980 HR74 CI=METAR SLCA 301200Z 00000KT 9999 NSC 26/20 Q1015 A2997 HR71 RWY NML=
ZPX0302 301252@CAELT@GG SLZZYMYT@CAELT@301251 SLPSYGYS@CAELT@SABO SLPS 301300@CAELT@METAR SLPS 301300Z 09008KT 9999 NSC 35/26 Q1009 A2980 HR61 CI=@CAELT@
ZPX0304 301254@CAELT@GG SLZZYMYT@CAELT@301254 SLSAYGYS@CAELT@SABO SLSA 301300@CAELT@METAR SLSA 301300Z 34010KT 9999 SCT080 BKN200 29/25 Q1011 A2987 HR75=@CAELT@
ZPX0305 301255@CAELT@GG SLZZYMYT@CAELT@301255 SLSBYSYX@CAELT@SABO SLSB 301300@CAELT@METAR SLSB 301300Z 31007KT 9999 NSC 30/25 Q1011 A2988 HR76 CI RWY NML=@CAELT@
ZPX0306 301255@CAELT@GG SLZZYMYT@CAELT@301253 SLRBYGYS@CAELT@SABO SLRB 301300@CAELT@METAR SLRB 301300Z 36006KT 9999 NSC 34/22 Q1014 A2994 HR50 CI RWY NML=@CAELT@
ZPX0307 301255@CAELT@GG SLZZYMYT@CAELT@301255 SLCBYGYZ@CAELT@SABO SLCB 301300@CAELT@METAR SLCB 301300Z 12005KT 9999 FEW036 BKN200 24/09 Q1025 A3028 751.7@CAELT@HR38 FU NOSIG=@CAELT@
ZPX0308 301255@CAELT@GG SLZZYMYT@CAELT@301255 SLLPYGYZ@CAELT@SABO SLLP 301300@CAELT@METAR SLLP 301300Z 13006KT 9999 FEW008 SCT200 12/02 Q1039 A3070@CAELT@629.1 HR49 P93// HZ/W NOSIG=@CAELT@
ZPX0309 301255@CAELT@GG SLZZYMYT@CAELT@301255 SLUYYGYS@CAELT@SABO SLUY 301300@CAELT@METAR SLUY 301300Z 35005KT 9999 FEW025 BKN200 17/04 Q1034 A3055@CAELT@658.6 HR42=@CAELT@
ZPX0310 301255@CAELT@GG SLZZYMYT@CAELT@301255 SLORYGYZ@CAELT@SABO SLOR 301300@CAELT@METAR SLOR 301300Z 35008KT 9999 FEW017 SCT200 15/03 Q1035 A3059 656.5@CAELT@HR44 AC=@CAELT@
ZPX0311 301255@CAELT@GG SLZZYMYT@CAELT@301255 SLTRYGYZ@CAELT@SABO SLTR 301300@CAELT@METAR SLTR 301300Z 32008KT 9999 FEW020 BKN200 31/25 Q1012 A2989@CAELT@993.6 HR67 NOSIG=@CAELT@
ZPX0314 301256@CAELT@GG SLZZYMYT@CAELT@301252 SLETYMYC@CAELT@SABO SLET 301300@CAELT@METAR SLET 301300Z 31013G23KT 9999 FEW017 BKN200 31/22 Q1012 A2989@CAELT@HR62 NOSIG=@CAELT@
ZPX0315 301258@CAELT@GG SLZZYMYT@CAELT@301257 SLAGYSYX@CAELT@SABO SLAG 301300@CAELT@METAR SLAG 301300Z 15004KT 9999 FEW015 FEW030CB BKN200 30/19 Q1017@CAELT@A3006 889.9 HR53 CB/NW FU=@CAELT@
ZPX0316 301259@CAELT@GG SLZZYMYT@CAELT@301259 SLVRYFYC@CAELT@SABO SLVR 301300@CAELT@METAR SLVR 301300Z NIL=@CAELT@METAR SLET 301300Z 31013G23KT 9999 FEW017 BKN200 31/22 Q1012 A2989@CAELT@HR62 NOSIG=@CAELT@METAR SLAS 301300Z NIL=@CAELT@METAR SLJV 301300Z 00000KT 9999 NSC 27/23 Q1012 A2988 HR77 RWY NML=METAR SLCP 301300Z 00000KT 9999 FEW020 BKN200 28/24 Q1017 A3003 HR78RWY NML=METAR SLSI 301300Z 33006KT 9999 NSC 31/23 Q1013 A2991 HR62 RWY NML=METAR SLTI 301300Z 36010KT 9999 NSC 34/22 Q1016 A3000 HR49 RWY NML=METAR SLJE 301300Z 00000KT 9999 NSC 31/23 Q1015 A2997 HR63 RWY NML=METAR SLVG 301300Z 35004KT 9999 BKN020 20/16 Q1025 A3027 HR74 RWY NMLMETAR SLRB 301300Z 36006KT 9999 NSC 34/22 Q1014 A2994 HR50 CI RWY NMLMETAR SLPS 301300Z 09008KT 9999 NSC 35/26 Q1009 A2980 HR61 CI=METAR SLCA 301300Z 00000KT 9999 NSC 28/21 Q1016 A3000 HR65 RWY NML=
ZPX0317 301259@CAELT@GG SLZZYMYT@CAELT@301257 SLTJYGYZ@CAELT@SABO SLTJ 301300@CAELT@METAR SLTJ 301300Z 24005KT 3000NW -TSRA BKN025 FEW030CB OVC070 18/17@CAELT@Q1023 A3023 817.9 HR94 CB/TS/N/E/W/NW VIS RED/N/NE/W/NW RESTO 8000=@CAELT@
ZPX0318 301259@CAELT@GG SLZZYMYT@CAELT@301258 SLRQYSYX@CAELT@SABO SLRQ 301300@CAELT@METAR SLRQ 301300Z 00000KT 9999 FEW013 BKN200 30/26 Q1011 A2987 987.5@CAELT@HR78=@CAELT@
ZPX0321 301300@CAELT@GG SLZZYMYT@CAELT@301300 SLTRYGYS@CAELT@SABO SLTR 301300@CAELT@METAR SLTR 301300Z 32008KT 9999 FEW020 BKN200 31/25 Q1012 A2989@CAELT@993.6 HR67 NOSIG=@CAELT@METAR SLGM 291300Z 36006KT 1500 TSRA BKN004 FEW020CB OVC070 24/23@CAELT@Q1013 A2993 HR97 CB NE/E/W/NW TS NW=@CAELT@METAR SLRI 301300Z 00000KT 8000 VCSH SCT015 FEW020CB BKN080 27/24Q1013 A2994 HR82 CB/SH NE/E/SE=METAR SLJO 291300Z 34006KT 9999 FEW017 FEW020CB BKN080 29/24 Q1011A2988 HR77 CB W RWY NML=METAR SLRA 291300Z 03006KT 7000 VCSH FEW017 FEW023CB BKN080 27/24Q1012 A2989 HR86 CB/SH E/SE RWY NML=METAR SLMG 291300Z 03006KT 9999 SCT017 BKN200 28/24 Q1012 A2989HR79 RWY NML=METAR SLBU 291300Z 34008KT 9999 SCT017 BKN200 29/25 Q1012 A2989HR78 RWY NML=METAR SLSA 301300Z 34010KT 9999 SCT080 BKN200 29/25 Q1011 A2987 HR75=METAR SLSR 291300Z 32010KT 8000 FEW017 BKN200 30/25 Q1011 A2986HR77 FU RWY NML=METAR SLSM 291300Z 33003KT 9999 NSC 31/26 Q1011 A2987 HR75 CIRWY NML=
ZPX0322 301301@CAELT@GG SLZZYMYT@CAELT@301300 SLCBYGYS@CAELT@SABO SLCB 301300@CAELT@METAR SLCB 301300Z 12005KT 9999 FEW036 BKN200 24/09 Q1025 A3028@CAELT@751.7 HR38 FU NOSIG=@CAELT@METAR SLAL 301300Z 05004KT 9999 SCT017 18/09 Q1032 A3047 705.5 HR55@CAELT@METAR SLPO 301300Z 05012KT 9999 FEW015 14/06 Q1039 A3070 639.3 HR58@CAELT@METAR SLAG 301300Z 15004KT 9999 FEW015 FEW030CB BKN200 30/19 Q1017A3006 889.9 HR53 CB/NW FU=METAR SLVM 301300Z 18018G30KT 9999 SCT025 OVC070 25/21 Q1015 A2998HR79 FU=METAR SLTJ 301300Z 24005KT 3000NW -TSRA BKN025 FEW030CB OVC070 18/17Q1023 A3023 817.9 HR94 CB/TS/N/E/W/NW VIS RED/N/NE/W/NW RESTO 8000=METAR SLYA 301300Z NIL=METAR SLBJ 301300Z NIL=METAR SLHI 301300Z NIL=
ZPX0326 301304@CAELT@GG SLZZYMYT@CAELT@301301 SLLPYFYA@CAELT@SABO SLLP 301300@CAELT@METAR SLLP 301300Z 13006KT 9999 FEW008 SCT200 12/02 Q1039 A3070@CAELT@629.1 HR49 P93// HZ/W NOSIG=@CAELT@METAR SLCO 301300Z 31010KT 9999 FEW010 BKN080 27/24 Q1013 A2992 985.8@CAELT@HR82 CI=@CAELT@METAR SLRY 301300Z 32003KT 9999 NSC 29/25 Q1010 A2985HR79 CI RWY HUM OPR=METAR SLRQ 301300Z 00000KT 9999 FEW013 BKN200 30/26 Q1011 A2987 987.5HR78=METAR SLAP 301300Z 00000KT 9999 SCT025 25/21 Q1019 A3009 859.5 HR78AC=METAR SLSB 301300Z 31007KT 9999 NSC 30/25 Q1011 A2988 HR76 CI RWY NMLMETAR SLOR 301300Z 35008KT 9999 FEW017 SCT200 15/03 Q1035 A3059 656.5HR44 AC=METAR SLUY 301300Z 35005KT 9999 FEW025 BKN200 17/04 Q1034 A3055658.6 HR42=
ZPX0329 301304@CAELT@GG SLZZYMYT@CAELT@301304 SLCBYGYS@CAELT@SABO SLCB 301300 RRA@CAELT@METAR SLCB 301300Z 12005KT 9999 FEW036 BKN200 24/09 Q1025 A3028@CAELT@751.7 HR38 FU NOSIG=@CAELT@METAR SLAL 301300Z 05004KT 9999 SCT017 18/09 Q1032 A3047 705.5 HR55@CAELT@METAR SLPO 301300Z 05012KT 9999 FEW015 14/06 Q1039 A3070 639.3 HR58@CAELT@METAR SLAG 301300Z 15004KT 9999 FEW015 FEW030CB BKN200 30/19 Q1017A3006 889.9 HR53 CB/NW FU=METAR SLVM 301300Z 18018G30KT 9999 SCT025 OVC070 25/21 Q1015 A2998HR79 FU=METAR SLTJ 301300Z 24005KT 3000NW -TSRA BKN025 FEW030CB OVC070 18/17Q1023 A3023 817.9 HR94 CB/TS/N/E/W/NW VIS RED/N/NE/W/NW RESTO 8000=METAR RTD SLYA 301300Z 21010KT 2500 -RA SCT005 BKN010 OVC070 22/22Q1017 A3005 942.1 HR98=METAR SLBJ 301300Z NIL=METAR SLHI 301300Z NIL=
ZPX0331 301306@CAELT@GG SLZZYMYT@CAELT@301314 SLVRYGYZ@CAELT@SABO SLVR 301300 RRA@CAELT@METAR RTD SLVR 301300Z 33012KT 9999 FEW020 BKN200 31/24 Q1012 A2990@CAELT@HR67 NOSIG=@CAELT@
ZPX0333 301307@CAELT@GG SLZZYMYT@CAELT@301307 SLVRYFYC@CAELT@SABO SLVR 301300 RRA@CAELT@METAR RTD SLVR 301300Z 33012KT 9999 FEW020 BKN200 31/24 Q1012 A2990@CAELT@HR67 NOSIG=@CAELT@METAR SLET 301300Z 31013G23KT 9999 FEW017 BKN200 31/22 Q1012 A2989@CAELT@HR62 NOSIG=@CAELT@METAR RTD SLAS 301300Z 36005KT 9999 NSC 30/24 Q1014 A2994 HR72 RWYNML=METAR SLJV 301300Z 00000KT 9999 NSC 27/23 Q1012 A2988 HR77 RWY NML=METAR SLCP 301300Z 00000KT 9999 FEW020 BKN200 28/24 Q1017 A3003 HR78RWY NML=METAR SLSI 301300Z 33006KT 9999 NSC 31/23 Q1013 A2991 HR62 RWY NML=METAR SLTI 301300Z 36010KT 9999 NSC 34/22 Q1016 A3000 HR49 RWY NML=METAR SLJE 301300Z 00000KT 9999 NSC 31/23 Q1015 A2997 HR63 RWY NML=METAR SLVG 301300Z 35004KT 9999 BKN020 20/16 Q1025 A3027 HR74 RWY NMLMETAR SLRB 301300Z 36006KT 9999 NSC 34/22 Q1014 A2994 HR50 CI RWY NMLMETAR SLPS 301300Z 09008KT 9999 NSC 35/26 Q1009 A2980 HR61 CI=METAR SLCA 301300Z 00000KT 9999 NSC 28/21 Q1016 A3000 HR65 RWY NML=
ZPX0357 301353@CAELT@GG SLZZYMYT@CAELT@301351 SLETYMYC@CAELT@SABO SLET 301400@CAELT@METAR SLET 301400Z 33015G28KT 9999 SCTG017 BKN200 32/22 Q1012 A2990@CAELT@HR56 NOSIG=@CAELT@
ZPX0358 301353@CAELT@GG SLZZYMYT@CAELT@301353 SLCAYGYS@CAELT@SABO SLCA 301400@CAELT@METAR SLCA 301400Z 00000KT 9999 SCT033 30/19 Q1017 A3003 HR52 RWY NML@CAELT@
ZPX0359 301354@CAELT@GG SLZZYMYT@CAELT@301354 SLSBYSYX@CAELT@SABO SLSB 301400@CAELT@METAR SLSB 301400Z 32005KT 9999 FEW017 BKN200 30/25 Q1012 A2989 HR75@CAELT@RWY NML=@CAELT@
ZPX0360 301354@CAELT@GG SLZZYMYT@CAELT@301353 SLPSYGYS@CAELT@SABO SLPS 301400@CAELT@METAR SLPS 301400Z 09008KT 9999 FEW020 BKN200 36/24 Q1008 A2977 HR52=@CAELT@
ZPX0361 301354@CAELT@GG SLZZYMYT@CAELT@301353 SLRBYGYS@CAELT@SABO SLRB 301400@CAELT@METAR SLRB 301400Z 36006KT 9999 NSC 35/21 Q1014 A2994 HR44 CI RWY NML=@CAELT@
ZPX0362 301354@CAELT@GG SLZZYMYT@CAELT@301355 SLRQYSYX@CAELT@SABO SLRQ 301400@CAELT@METAR SLRQ 301400Z 00000KT 9999 FEW013 SCT200 31/26 Q1011 A2987 987.5@CAELT@HR73=@CAELT@
ZPX0363 301355@CAELT@GG SLZZYMYT@CAELT@301354 SLSAYGYS@CAELT@SABO SLSA 301400@CAELT@METAR SLSA 301400Z 32012KT 9999 FEW017 BKN200 31/25 Q1011 A2988 HR70=@CAELT@
ZPX0364 301355@CAELT@GG SLZZYMYT@CAELT@301355 SLLPYGYZ@CAELT@SABO SLLP 301400@CAELT@METAR SLLP 301400Z 15007KT 9999 FEW014 14/04 Q1039 A3070 628.9@CAELT@HR49 P93// CI NOSIG=@CAELT@
ZPX0366 301355@CAELT@GG SLZZYMYT@CAELT@301355 SLTRYGYZ@CAELT@SABO SLTR 301400@CAELT@METAR SLTR 301400Z 33008KT 9999 FEW020 BKN200 33/25 Q1012 A2989@CAELT@993.8 HR63 NOSIG=@CAELT@
ZPX0367 301355@CAELT@GG SLZZYMYT@CAELT@301355 SLTRYGYZ@CAELT@SABO SLTR 301400@CAELT@METAR SLTR 301400Z 33008KT 9999 FEW020 BKN200 33/25 Q1012 A2989@CAELT@993.8 HR63 NOSIG=@CAELT@
ZPX0368 301356@CAELT@GG SLZZYMYT@CAELT@301355 SLCOYSYX@CAELT@SABO SLCO 301400@CAELT@METAR SLCO 301400Z 26010KT 9999 FEW013 BKN080 28/24 Q1013 A2993 986.2@CAELT@HR77=@CAELT@
ZPX0369 301356@CAELT@GG SLZZYMYT@CAELT@301355 SLAGYSYX@CAELT@SABO SLAG 301400@CAELT@METAR SLAG 301400Z 16008KT 9999 SCT015 BKN200 31/18 Q1017 A3005 889.6@CAELT@HR47 AC FU=@CAELT@
ZPX0370 301356@CAELT@GG SLZZYMYT@CAELT@301357 SLVRYGYZ@CAELT@SABO SLVR 301400@CAELT@METAR SLVR 301400Z 34013G23KT 9999 SCT020 BKN200 32/25 Q1013 A2992@CAELT@HR65 NOSIG=@CAELT@
ZPX0371 301356@CAELT@GG SLZZYMYT@CAELT@301356 SLORYGYZ@CAELT@SABO SLOR 301400@CAELT@METAR SLOR 301400Z 35007KT 9999 FEW020 SCT200 17/05 Q1035 A3057 656.1@CAELT@HR42 AC=@CAELT@
ZPX0374 301357@CAELT@GG SLZZYMYT@CAELT@301355 SLTJYGYZ@CAELT@SABO SLTJ 301400@CAELT@METAR SLTJ 301400Z 23004KT 6000 -TSRA FEW010 BKN025 FEW030CB OVC070@CAELT@17/16 Q1023 A3024 818.2 HR95 CB/TS/N/NE/SE=@CAELT@
ZPX0375 301357@CAELT@GG SLZZYMYT@CAELT@301356 SLUYYGYS@CAELT@SABO SLUY 301400@CAELT@METAR SLUY 301400Z 31011KT 9999 FEW027 BKN200 19/04 Q1034 A3055@CAELT@658.6 HR37=@CAELT@
ZPX0376 301357@CAELT@GG SLZZYMYT@CAELT@301357 SLVRYFYC@CAELT@SABO SLVR 301400@CAELT@METAR SLVR 301400Z 34013G23KT 9999 SCT020 BKN200 32/25 Q1013 A2992@CAELT@HR65 NOSIG=@CAELT@METAR SLET 301400Z 33015G28KT 9999 SCT017 BKN200 32/22 Q1012 A2990@CAELT@HR56 NOSIG=@CAELT@METAR SLAS 301400Z 35010KT 9999 NSC 32/25 Q1014 A2994 HR66 RWY NML=METAR SLJV 301400Z 36012KT 9999 FEW020 32/23 Q1013 A2991 HR61 RWY NMLMETAR SLCP 301400Z 00000KT 9999 SCT020 BKN200 30/24 Q1017 A3003 HR72RWY NML=METAR SLSI 301400Z 36008KT 9999 SCT017 32/22 Q1013 A2991 HR56 RWY NMLMETAR SLTI 301400Z 36015KT 9999 NSC 37/21 Q1015 A2997 HR40 RWY NML=METAR SLJE 301400Z 32005KT 9999 NSC 33/24 Q1016 A3000 HR59 RWY NML=METAR SLVG 301400Z 00000KT 9999 SCT023 BKN200 22/16 Q1025 A3027 HR64METAR SLRB 301400Z 36006KT 9999 NSC 35/21 Q1014 A2994 HR44 CI RWY NMLMETAR SLPS 301400Z 09008KT 9999 FEW020 BKN200 36/24 Q1008 A2977 HR52=METAR SLCA 301400Z 00000KT 9999 SCT033 30/19 Q1017 A3003 HR52 RWY NML
ZPX0378 301358@CAELT@GG SLZZYMYT@CAELT@301358 SLCBYGYZ@CAELT@SABO SLCB 301400@CAELT@METAR SLCB 301400Z 22004KT 9999 FEW036 SCT200 26/08 Q1025 A3028 751.8@CAELT@HR31 FU NOSIG=@CAELT@
ZPX0382 301402@CAELT@GG SLZZYMYT@CAELT@301359 SLTRYGYS@CAELT@SABO SLTR 301400@CAELT@METAR SLTR 301400Z 33008KT 9999 FEW020 BKN200 33/25 Q1012 A2989@CAELT@993.8 HR63 NOSIG=@CAELT@METAR SLGM 301400Z 34005KT 4000 -TSRA BKN004 FEW020CB OVC070 24/23@CAELT@Q1014 A2994 HR94 CB/TS W NW=@CAELT@METAR SLRI 301400Z 09006KT 7000 VCSH SCT015 FEW020CB BKN080 27/24Q1014 A2996 HR84 CB/SH NE/E/SE/S=METAR SLJO 301400Z 36008KT 7000 VCSH SCT017 FEW020CB BKN080 29/24Q1012 A2991 HR80 CB/SH N/W RWY NML=METAR SLRA 301400Z 03008KT 7000 VCSH SCT017 FEW023CB BKN080 29/25Q1012 A2990 HR80 CB/SH W RWY NML=METAR SLMG 301400Z 03008KT 9999 SCT017 BKN200 30/24 Q1012 A2990 HR70RWY NML=METAR SLBU 301400Z 34008KT 9999 SCT017 BKN200 31/25 Q1012 A2991 HR72METAR SLSA 301400Z 32012KT 9999 FEW017 BKN200 31/25 Q1011 A2988 HR70=METAR SLSR 301400Z 32010KT 9999 FEW017 BKN200 31/25 Q1011 A2987 HR71METAR SLSM 301400Z 33005KT 9999 FEW017 BKN200 31/25 Q1011 A2988 HR71
ZPX0383 301402@CAELT@GG SLZZYMYT@CAELT@301401 SLLPYFYA@CAELT@SABO SLLP 301400@CAELT@METAR SLLP 301400Z 15007KT 9999 FEW014 14/04 Q1039 A3070 628.9@CAELT@HR49 P93// CI NOSIG=@CAELT@METAR SLCO 301400Z 26010KT 9999 FEW013 BKN080 28/24 Q1013 A2993 986.2@CAELT@HR77=@CAELT@METAR SLRY 301400Z 32004KT 9999 NSC 30/25 Q1010 A2985HR7 CI RWY NML=METAR SLRQ 301400Z 00000KT 9999 FEW013 SCT200 31/26 Q1011 A2987 987.5HR73=METAR SLAP 301400Z 00000KT 9999 SCT025 27/21 Q1019 A3009 859.5 HR69AC=METAR SLSB 301400Z 32005KT 9999 FEW017 BKN200 30/25 Q1012 A2989 HR75RWY NML=METAR SLOR 301400Z 35007KT 9999 FEW020 SCT200 17/05 Q1035 A3057 656.1HR42 AC=METAR SLUY 301400Z 31011KT 9999 FEW027 BKN200 19/04 Q1034 A3055658.6 HR37=
ZPX0385 301402@CAELT@GG SLZZYMYT@CAELT@301401 SLCBYGYS@CAELT@SABO SLCB 301400@CAELT@METAR SLCB 301400Z 22004KT 9999 FEW036 SCT200 26/08 Q1025 A3028 751.8@CAELT@HR31 FU NOSIG=@CAELT@METAR SLAL 301400Z 07010KT 9999 SCT017 19/09 Q1031 A3041 705.4 HR55@CAELT@METAR SLPO 301400Z 06010KT 9999 FEW017 15/06 Q1040 A3071 639.5 HR55@CAELT@METAR SLAG 301400Z 16008KT 9999 SCT015 BKN200 31/18 Q1017 A3005 889.6HR47 AC FU=METAR SLVM 301400Z 18018G30KT 9999 BKN025 OVC070 24/20 Q1016 A3003HR79 FU=METAR SLTJ 301400Z 23004KT 6000 -TSRA FEW010 BKN025 FEW030CB OVC07017/16 Q1023 A3024 818.2 HR95 CB/TS/N/NE/SE=METAR SLYA 301400Z 21010KT 2500 -RA BKN005 OVC070 22/22 Q1018 A3006942.5 HR100=METAR SLBJ 301400Z NIL=METAR SLHI 301400Z NIL=
ZPX0431 301451@CAELT@GG SLZZYMYT@CAELT@301450 SLPSYGYS@CAELT@SABO SLPS 301500@CAELT@METAR SLPS 301500Z 09006KT 9999 FEW020 BKN200 37/23 Q1009 A2980 HR49=@CAELT@
ZPX0433 301454@CAELT@GG SLZZYMYT@CAELT@301452 SLETYMYC@CAELT@SABO SLET 301500@CAELT@METAR SLET 301500Z 33015G28KT 9999 BKN018 BKN200 33/22 Q1012 A2989@CAELT@HR53 NOSIG=@CAELT@
ZPX0435 301454@CAELT@GG SLZZYMYT@CAELT@301455 SLVRYGYZ@CAELT@SABO SLVR 301500@CAELT@METAR SLVR 301500Z 33013G23KT 9999 SCT020 BKN200 32/23 Q1012 A2989@CAELT@HR57 NOSIG=@CAELT@
ZPX0436 301454@CAELT@GG SLZZYMYT@CAELT@301454 SLSBYSYX@CAELT@SABO SLSB 301500@CAELT@METAR SLSB 301500Z 32006KT 9999 SCT020 BKN200 33/25 Q1011 A2988 HR65@CAELT@RWY NML=@CAELT@
ZPX0437 301454@CAELT@GG SLZZYMYT@CAELT@301455 SLRQYSYX@CAELT@SABO SLRQ 301500@CAELT@METAR SLRQ 301500Z 27004KT 9999 SCT015 SCT200 33/26 Q1011 A2986 987.2@CAELT@HR69=@CAELT@
ZPX0438 301455@CAELT@GG SLZZYMYT@CAELT@301453 SLRBYGYS@CAELT@SABO SLRB 301500@CAELT@METAR SLRB 301500Z 36004KT 9999 SCT020 36/21 Q1014 A2994 HR42 RWY NML=@CAELT@
ZPX0440 301455@CAELT@GG SLZZYMYT@CAELT@301455 SLTRYGYZ@CAELT@SABO SLTR 301500@CAELT@METAR SLTR 301500Z 34010KT 9999 SCT020 BKN200 34/25 Q1012 A2989@CAELT@993.8 HR61 NOSIG=@CAELT@
ZPX0441 301456@CAELT@GG SLZZYMYT@CAELT@301455 SLORYGYZ@CAELT@SABO SLOR 301500@CAELT@METAR SLOR 301500Z 36006KT 9999 SCT023 20/04 Q1034 A3056 655.8 HR36@CAELT@AC/CI PO=@CAELT@
ZPX0442 301456@CAELT@GG SLZZYMYT@CAELT@301455 SLSAYGYS@CAELT@SABO SLSA 301500@CAELT@METAR SLSA 301500Z 32008KT 8000 VCSH BKN017 FEW023CB BKN200 31/24@CAELT@Q1011 A2988 HR68 CB/SH N=@CAELT@
ZPX0443 301456@CAELT@GG SLZZYMYT@CAELT@301456 SLCOYSYX@CAELT@SABO SLCO 301500@CAELT@METAR SLCO 301500Z 31008KT 9999 FEW015 BKN080 29/24 Q1013 A2993 986.1@CAELT@HR74=@CAELT@
ZPX0444 301457@CAELT@GG SLZZYMYT@CAELT@301456 SLCBYGYZ@CAELT@SABO SLCB 301500@CAELT@METAR SLCB 301500Z 31006KT 9999 FEW036 SCT200 28/07 Q1024 A3025 750.9@CAELT@HR27 FU NOSIG=@CAELT@
ZPX0445 301457@CAELT@GG SLZZYMYT@CAELT@301456 SLAGYSYX@CAELT@SABO SLAG 301500@CAELT@METAR SLAG 301500Z 16008KT 9999 SCT017 BKN200 33/19 Q1017 A3004 889.5@CAELT@HR44 FU=@CAELT@
ZPX0446 301457@CAELT@GG SLZZYMYT@CAELT@301455 SLUYYGYS@CAELT@SABO SLUY 301500@CAELT@METAR SLUY 301500Z 32008KT 9999 FEW030 FEW033CB BKN200 19/03@CAELT@Q1033 A3053 658.2 HR36 CB/SH NE=@CAELT@
ZPX0449 301458@CAELT@GG SLZZYMYT@CAELT@301456 SLTJYGYZ@CAELT@SABO SLTJ 301500@CAELT@METAR SLTJ 301500Z 13009KT 6000 -RA SCT010 BKN020 OVC070 16/15 Q1024@CAELT@A3026 818.9 HR96 RETS ST BAJOS TODAS DIRECC=@CAELT@
ZPX0450 301459@CAELT@GG SLZZYMYT@CAELT@301459 SLVRYFYC@CAELT@SABO SLVR 301500@CAELT@METAR SLVR 301500Z 33013G23KT 9999 SCT020 BKN200 32/23 Q1012 A2989@CAELT@HR57 NOSIG=@CAELT@METAR SLET 301500Z 33015G28KT 9999 BKN018 BKN200 33/22 Q1012 A2989@CAELT@HR53 NOSIG=@CAELT@METAR SLAS 301500Z 36012KT 9999 SCT020 BKN200 33/24 Q1014 A2994 HR61RWY NML=METAR SLJV 301500Z 00000KT 9999 SCT020 33/25 Q1012 A2988 HR60 RWY NMLMETAR SLCP 301500Z 35008KT 9999 BKN017 30/23 Q1016 A3000 HR68 RWY NMLMETAR SLSI 301500Z 33008KT 9999 SCT017 33/22 Q1013 A2991 HR53 RWY NMLMETAR SLTI 301500Z 36010KT 9999 FEW017 37/22 Q1015 A2997 HR41 RWY NMLMETAR SLJE 301500Z 32006KT 9999 FEW020 35/24 Q1015 A2997 HR53 RWY NMLMETAR SLVG 301500Z 35004KT 9999 SCT025 BKN200 24/17 Q1025 A3027 HR62METAR SLRB 301500Z 36004KT 9999 SCT020 36/21 Q1014 A2994 HR42 RWY NMLMETAR SLPS 301500Z 09006KT 9999 FEW020 BKN200 37/23 Q1009 A2980 HR49=METAR SLCA 301500Z 00000KT 9999 BKN033 32/19 Q1018 A3006 HR49 RWY NML
ZPX0452 301459@CAELT@GG SLZZYMYT@CAELT@301455 SLLPYGYZ@CAELT@SABO SLLP 301500@CAELT@METAR SLLP 301500Z 11008KT 9999 FEW017 16/02 Q1039 A3068 628.6@CAELT@HR37 P93// CI NOSIG=@CAELT@
ZPX0456 301502@CAELT@GG SLZZYMYT@CAELT@301500 SLTRYGYS@CAELT@METAR SLTR 301500Z 34010KT 9999 SCT020 BKN200 34/25 Q1012 A2989@CAELT@993.8 HR61 NOSIG=@CAELT@METAR SLGM 301500Z 36008KT 7000 -RA BKN005 FEW020CB OVC070 25/23@CAELT@Q1014 A2994 HR91 RETS CB S/SW=@CAELT@METAR SLRI 301500Z 14016KT 0800 +TSRA BKN005 FEW020CB OVC070 24/24@CAELT@Q1015 A3000 HR98 CB E/SE TS E=METAR SLJO 301500Z 36012KT 8000 VCSH FEW017 FEW020CB BKN080 30/24Q1012 A2990 HR71 CB/SH SW/W RWY NML=METAR SLRA 301500Z 36010KT 7000 VCSH SCT017 FEW023CB BKN080 30/25Q1013 A2991 HR76 CB/SH NE/W/NW RWY NML=METAR SLMG 301500Z 36006KT 9999 SCT017 BKN200 31/24 Q1012 A2991 HR66RWY NML=METAR SLBU 301500Z 34008KT 9999 SCT017 BKN200 31/25 Q1012 A2989 HR68METAR SLSA 301500Z 32008KT 8000 VCSH BKN017 FEW023CB BKN200 31/24Q1011 A2988 HR68 CB/SH N=METAR SLSR 301500Z 32010KT 9999 SCT017 BKN200 32/25 Q1011 A2985 HR70METAR SLSM 301500Z 33006KT 9999 SCT017 BKN200 33/26 Q1011 A2987 HR67
ZPX0460 301503@CAELT@GG SLZZYMYT@CAELT@301501 SLLPYFYA@CAELT@SABO SLLP 301500@CAELT@METAR SLLP 301500Z 11008KT 9999 FEW017 16/02 Q1039 A3068 628.6@CAELT@HR37 P93// CI NOSIG=@CAELT@METAR SLCO 301500Z 31008KT 9999 FEW015 BKN080 29/24 Q1013 A2993 986.1@CAELT@HR74=@CAELT@METAR SLRY 301500Z 32006KT 9999 FEW016 BKN200 32/25 Q1010 A2985HR65 RWY NML=METAR SLRQ 301500Z 27004KT 9999 SCT015 SCT200 33/26 Q1011 A2986 987.2HR69=METAR SLAP 301500Z 00000KT 9999 SCT025 28/21 Q1017 A3005 858.3 HR64AC=METAR SLSB 301500Z 32006KT 9999 SCT020 BKN200 33/25 Q1011 A2988 HR65RWY NML=METAR SLOR 301500Z 36006KT 9999 SCT023 20/04 Q1034 A3056 655.8 HR36AC/CI PO=METAR SLUY 301500Z 32008KT 9999 FEW030 FEW033CB BKN200 19/03Q1033 A3053 658.2 HR36 CB/SH NE=
ZPX0461 301504@CAELT@GG SLZZYMYT@CAELT@301503 SLCBYGYS@CAELT@SABO SLCB 301500@CAELT@METAR SLCB 301500Z 31006KT 9999 FEW036 SCT200 28/07 Q1024 A3025 750.9@CAELT@HR27 FU NOSIG=@CAELT@METAR SLAL 301500Z 07019KT 9999 SCT020 FEW030CB 19/09 Q1031 A3044@CAELT@704.9 HR54 CB NE/E CI=@CAELT@METAR SLPO 301500Z 05013KT 9999 FEW017 16/05 Q1038 A3066 638.2 HR49METAR SLAG 301500Z 16008KT 9999 SCT017 BKN200 33/19 Q1017 A3004 889.5HR44 FU=METAR SLVM 301500Z 18012G25KT 5000 VCSH SCT025 FEW030CB OVC070 25/20Q1017 A3004 HR84CB N/NW/S/SW SH N/NE/NW=METAR SLTJ 301500Z 13009KT 6000 -RA SCT010 BKN020 OVC070 16/15 Q1024A3026 818.9 HR96 RETS ST BAJOS TODAS DIRECC=METAR SLYA 301500Z 21012KT 2500 -TSRA BKN005 FEW025CB OVC070 21/21Q1019 A3010 HR100 CB TS/N/S=METAR SLBJ 301500Z NIL=METAR SLHI 301500Z NIL=
ZPX0485 301551@CAELT@GG SLZZYMYT@CAELT@301551 SLPSYGYS@CAELT@SABO SLPS 301600@CAELT@METAR SLPS 301600Z 36008KT 9999 SCT020 BKN200 38/23 Q1010 A2983 HR45=@CAELT@
ZPX0488 301554@CAELT@GG SLZZYMYT@CAELT@301554 SLSBYSYX@CAELT@SABO SLSB 301600@CAELT@METAR SLSB 301600Z 30008KT 9999 SCT020 33/25 Q1011 A2986 HR60 RWY NML=@CAELT@
ZPX0489 301555@CAELT@GG SLZZYMYT@CAELT@301553 SLRBYGYS@CAELT@SABO SLRB 301600@CAELT@METAR SLRB 301600Z 36006KT 9999 BKN020 36/21 Q1014 A2994 HR41 RWY NML=@CAELT@
ZPX0490 301555@CAELT@GG SLZZYMYT@CAELT@301555 SLRQYSYX@CAELT@SABO SLRQ 301600@CAELT@METAR SLRQ 301600Z 36008KT 9999 BKN017 34/27 Q1010 A2984 986.5 HR65@CAELT@
ZPX0491 301555@CAELT@GG SLZZYMYT@CAELT@301555 SLLPYGYZ@CAELT@SABO SLLP 301600@CAELT@METAR SLLP 301600Z 13010KT 9999 SCT017 17/01 Q1038 A3066 628.1@CAELT@HR35 P93// CI NOSIG=@CAELT@
ZPX0492 301555@CAELT@GG SLZZYMYT@CAELT@301555 SLTRYGYZ@CAELT@SABO SLTR 301600@CAELT@METAR SLTR 301600Z 32008KT 8000 VCSH SCT020 FEW023CB BKN200 34/25@CAELT@Q1011 A2986 992.6 HR58 CB/SH N/NW NOSIG=@CAELT@
ZPX0493 301555@CAELT@GG SLZZYMYT@CAELT@301554 SLSAYGYS@CAELT@SABO SLSA 301600@CAELT@METAR SLSA 301600Z 34010KT 6000 VCSH BKN017 FEW023CB BKN200 29/24@CAELT@Q1011 A2986 HR77 CB/SH N/S/NW=@CAELT@
ZPX0494 301556@CAELT@GG SLZZYMYT@CAELT@301555 SLORYGYZ@CAELT@SABO SLOR 301600@CAELT@METAR SLOR 301600Z 08013KT 9999 SCT025 22/05 Q1033 A3053 655.1 HR32@CAELT@AC/CI=@CAELT@
ZPX0495 301556@CAELT@GG SLZZYMYT@CAELT@301553 SLETYMYC@CAELT@SABO SLET 301600@CAELT@METAR SLET 301600Z 30016G28KT 9999 SCT020 BKN200 34/22 Q1011 A2987@CAELT@HR50 NOSIG=@CAELT@
ZPX0497 301556@CAELT@GG SLZZYMYT@CAELT@301557 SLVRYGYZ@CAELT@SABO SLVR 301600@CAELT@METAR SLVR 301600Z 33013G24KT 9999 SCT020 FEW027TCU BKN200 34/23@CAELT@Q1011 A2988 HR51 TCU SW NOSIG=@CAELT@
ZPX0498 301557@CAELT@GG SLZZYMYT@CAELT@301556 SLUYYGYS@CAELT@SABO SLUY 301600@CAELT@METAR SLUY 301600Z 32005KT 9999 FEW033 FEW036CB BKN200 20/04 Q1032@CAELT@A3050 657.5 HR34 CB/SH NE=@CAELT@
ZPX0499 301557@CAELT@GG SLZZYMYT@CAELT@301555 SLAGYSYX@CAELT@SABO SLAG 301600@CAELT@METAR SLAG 301600Z 20015KT 6000 VCSH BKN017 FEW030CB BKN200 27/17@CAELT@Q1018 A3007 890.2 HR57 CB/ON STN/SW/W SH SW/W FU=@CAELT@
ZPX0500 301557@CAELT@GG SLZZYMYT@CAELT@301557 SLCOYSYX@CAELT@SABO SLCO 301600@CAELT@METAR SLCO 301600Z 29004KT 9999 FEW015 BKN080 30/24 Q1013 A2992 985.6@CAELT@HR70=@CAELT@
ZPX0501 301557@CAELT@GG SLZZYMYT@CAELT@301555 SLTJYGYZ@CAELT@SABO SLTJ 301600@CAELT@METAR SLTJ 301600Z 13006KT 5000 -RA SCT010 BKN020 OVC070 16/15 Q1024@CAELT@A3026 818.9 HR93 ST BAJOS TODAS DIRECC=@CAELT@
ZPX0502 301557@CAELT@GG SLZZYMYT@CAELT@301555 SLCAYGYS@CAELT@SABO SLCA 301600@CAELT@METAR SLCA 301600 221010KT 9999 BKN033 FEW040CB 30/20 Q1018 A3006@CAELT@HR55 CB NE/E RWY NML=@CAELT@
ZPX0503 301557@CAELT@GG SLZZYMYT@CAELT@301557 SLVRYFYC@CAELT@SABO SLVR 301600@CAELT@METAR SLVR 301600Z 33013G24KT 9999 SCT020 FEW027TCU BKN200 34/23@CAELT@Q1011 A2988 HR51 TCU SW NOSIG=@CAELT@METAR SLET 301600Z 30016G28KT 9999 SCT020 BKN200 34/22 Q1011 A2987@CAELT@HR50 NOSIG=@CAELT@METAR SLAS 301600Z 36012KT 9999 SCT020 BKN200 34/25 Q1014 A2994 HR59RWY NML=METAR SLJV 301600Z 00000KT 9999 SCT020 34/25 Q1012 A2988 HR60 RWY NMLMETAR SLCP 301600Z 30006KT 9999 BKN017 31/23 Q1015 A2997 HR65 RWY NMLMETAR SLSI 301600Z 33008KT 9999 SCT017 32/22 Q1013 A2991 HR56 RWY NMLMETAR SLRB 301600Z 36006KT 9999 BKN020 36/21 Q1014 A2994 HR41 RWY NMLMETAR SLPS 301600Z 36008KT 9999 SCT020 BKN200 38/23 Q1010 A2983 HR45=METAR SLCA 301600 221010KT 9999 BKN033 FEW040CB 30/20 Q1018 A3006HR55 CB NE/E RWY NML=
ZPX0504 301558@CAELT@GG SLZZYMYT@CAELT@301557 SLTRYGYS@CAELT@SABO SLTR 301600@CAELT@METAR SLTR 301600Z 32008KT 8000 VCSH SCT020 FEW023CB BKN200 34/25@CAELT@Q1011 A2986 992.6 HR58 CB/SH N/NW NOSIG=@CAELT@METAR SLGM 301600Z 36008KT 7000 VCSH BKN005 FEW020CB OVC070 25/23@CAELT@Q1013 A2994 HR92 RERA CB/SH E/SE/NW=@CAELT@METAR SLRI 301600Z 03006KT 2000 TSRA BKN005 FEW020CB OVC07024/23 Q1015 A2998 HR98 CB/TS W/NW=METAR SLJO 301600Z 36012KT 9999 FEW017 FEW023CB SCT080 31/23 Q1011A2988 HR63 CB W RWY NML=METAR SLRA 301600Z 36012KT 7000 VCSH SCT017 FEW023CB BKN080 31/24Q1012 A2990 HR67 CB/SH W RWY NML=METAR SLMG 301600Z 36006KT 9999 SCT017 BKN200 31/23 Q1011 A2988 HR64RWY NML=METAR SLBU 301600Z 34008KT 9999 SCT017 BKN200 33/26 Q1011 A2986 HR65METAR SLSA 301600Z 34010KT 6000 VCSH BKN017 FEW023CB BKN200 29/24Q1011 A2986 HR77 CB/SH N/S/NW=METAR SLSR 301600Z 32010KT 9999 SCT017 BKN200 33/25 Q1010 A2984 HR64METAR SLSM 301600Z 33003KT 9999 SCT017 33/24 Q1011 A2986 HR60 CI
ZPX0505 301558@CAELT@GG SLZZYMYT@CAELT@301557 SLCBYGYZ@CAELT@SABO SLCB 301600@CAELT@METAR SLCB 301600Z 30004KT 9999 SCT036 FEW040CB 29/08 Q1023 A3021 749@CAELT@.8 HR27 CB/N/SE FU CI NOSIG=@CAELT@
ZPX0510 301601@CAELT@GG SLZZYMYT@CAELT@301559 SLCBYGYS@CAELT@SABO SLCB 301600@CAELT@METAR SLCB 301600Z 30004KT 9999 SCT036 FEW040CB 29/08 Q1023 A3021@CAELT@749.8 HR27 CB/N/SE FU CI NOSIG=@CAELT@METAR SLAL 301600Z 01011KT 9999 SCT020 FEW033CB 17/11 Q1031 A3044@CAELT@704.9 HR66 CB S/SW/W/NW RESHRA CI=@CAELT@METAR SLPO 301600Z 07010KT 9999 SCT020 FEW025CB 17/05 Q1037 A3062637.4 HR46 CB N/S CI=METAR SLAG 301600Z 20015KT 6000 VCSH BKN017 FEW030CB BKN200 27/17Q1018 A3007 890.2 HR57 CB/ON STN/SW/W SH SW/W FU=METAR SLVM 301600Z 18010KT 5000 RA SCT020 FEW030CB OVC070 23/21Q1017 A3005 HR90 CB ON STN/N/NE/SW/W=METAR SLTJ 301600Z 13006KT 5000 -RA SCT010 BKN020 OVC070 16/15 Q1024A3026 818.9 HR93 ST BAJOS TODAS DIRECC=METAR SLYA 301600Z 21010KT 4000 -RA SCT004 BKN010 OVC070 21/21 Q1018A3009 943.2 HR99 RETS=METAR SLBJ 301600Z NIL=METAR SLHI 301600Z NIL=
ZPX0515 301603@CAELT@GG SLZZYMYT@CAELT@301601 SLLPYFYA@CAELT@SABO SLLP 301600@CAELT@METAR SLLP 301600Z 13010KT 9999 SCT017 17/01 Q1038 A3066 628.1@CAELT@HR35 P93// CI NOSIG=@CAELT@METAR SLCO 301600Z 29004KT 9999 FEW015 BKN080 30/24 Q1013 A2992 985.6@CAELT@HR70=@CAELT@METAR SLRY 301600Z 34006KT 9999 SCT016 BKN200 33/25 Q1010A2983HR60 RWY NML=METAR SLRQ 301600Z 36008KT 9999 BKN017 34/27 Q1010 A2984 986.5 HR65METAR SLAP 301600Z 00000KT 9999 SCT025 31/17 Q1017 A3004 858.0 HR45AC=METAR SLSB 301600Z 30008KT 9999 SCT020 33/25 Q1011 A2986 HR60 RWY NMLMETAR SLOR 301600Z 08013KT 9999 SCT025 22/05 Q1033 A3053 655.1 HR32AC/CI=METAR SLUY 301600Z 32005KT 9999 FEW033 FEW036CB BKN200 20/04 Q1032A3050 657.5 HR34 CB/SH NE=
ZPX0517 301604@CAELT@GG SLZZYMYT@CAELT@301601 SLLPYFYA@CAELT@SABO SLLP 301600@CAELT@METAR SLLP 301600Z 13010KT 9999 SCT017 17/01 Q1038 A3066 628.1@CAELT@HR35 P93// CI NOSIG=@CAELT@METAR SLCO 301600Z 29004KT 9999 FEW015 BKN080 30/24 Q1013 A2992 985.6@CAELT@HR70=@CAELT@METAR SLRY 301600Z 34006KT 9999 SCT016 BKN200 33/25 Q1010 A2983HR60 RWY NML=METAR SLRQ 301600Z 36008KT 9999 BKN017 34/27 Q1010 A2984 986.5 HR65METAR SLAP 301600Z 00000KT 9999 SCT025 31/17 Q1017 A3004 858.0 HR45AC=METAR SLSB 301600Z 30008KT 9999 SCT020 33/25 Q1011 A2986 HR60 RWY NMLMETAR SLOR 301600Z 08013KT 9999 SCT025 22/05 Q1033 A3053 655.1 HR32AC/CI=METAR SLUY 301600Z 32005KT 9999 FEW033 FEW036CB BKN200 20/04 Q1032A3050 657.5 HR34 CB/SH NE=
ZPX0544 301651@CAELT@GG SLZZYMYT@CAELT@301651 SLPSYGYS@CAELT@SABO SLPS 301700@CAELT@METAR SLPS 301700Z 36006KT 9999 SCT020 FEW030CB BKN200 37/23 Q1010@CAELT@A2983 HR49 CB/N/NW/S=@CAELT@
ZPX0546 301654@CAELT@GG SLZZYMYT@CAELT@301654 SLSAYGYS@CAELT@SABO SLSA 301700@CAELT@METAR SLSA 301700Z 35012KT 8000 VCSH BKN017 FEW023CB BKN200 28/24@CAELT@Q1011 A2986 HR79 CB/SH E/W/NW=@CAELT@
ZPX0549 301655@CAELT@GG SLZZYMYT@CAELT@301655 SLORYGYZ@CAELT@SABO SLOR 301700@CAELT@METAR SLOR 301700Z 05010KT 9999 SCT025 23/05 Q1033 A3052 654.9 HR31@CAELT@
ZPX0550 301655@CAELT@GG SLZZYMYT@CAELT@301654 SLRBYGYS@CAELT@SABO SLRB 301700@CAELT@METAR SLRB 301700Z 00000KT 9999 BKN020 FEW025CB 36/21 Q1012 A2988@CAELT@HR41 CB/S/SE/SW RWY NML=@CAELT@
ZPX0551 301655@CAELT@GG SLZZYMYT@CAELT@301655 SLCAYGYS@CAELT@SABO SLCA 301700@CAELT@METAR SLCA 301700Z 21005KT 9999 BKN033 BKN070 28/20 Q1018 A3006 HR61@CAELT@RWY NML=@CAELT@
ZPX0552 301655@CAELT@GG SLZZYMYT@CAELT@301655 SLSBYSYX@CAELT@SABO SLSB 301700@CAELT@METAR SLSB 301700Z 29005KT 9999 SCT020 34/25 Q1009 A2982 HR59 RWY NML=@CAELT@
ZPX0553 301656@CAELT@GG SLZZYMYT@CAELT@301655 SLRQYSYX@CAELT@SABO SLRQ 301700@CAELT@METAR SLRQ 301700Z 36008KT 9999 BKN017 35/25 Q1009 A2981 985.5 HR56@CAELT@
ZPX0554 301656@CAELT@GG SLZZYMYT@CAELT@301655 SLTRYGYZ@CAELT@SABO SLTR 301700@CAELT@METAR SLTR 301700Z 34008KT 6000 TS VCSH SCT020 FEW023CB BKN200 33/25@CAELT@Q1010 A2983 991.7 HR62 CB/SH N/NE/E/SE/S TS NE TEMPO TSRA=@CAELT@
ZPX0555 301656@CAELT@GG SLZZYMYT@CAELT@301655 SLTRYGYZ@CAELT@SABO SLTR 301700@CAELT@METAR SLTR 301700Z 34008KT 6000 TS VCSH SCT020 FEW023CB BKN200 33/25@CAELT@Q1010 A2983 991.7 HR62 CB/SH N/NE/E/SE/S TS NE TEMPO TSRA=@CAELT@
ZPX0556 301656@CAELT@GG SLZZYMYT@CAELT@301655 SLSBYSYX@CAELT@SABO SLSB 301700@CAELT@METAR SLSB 301700Z 29005KT 9999 SCT020 34/25 Q1009 A2982 HR59 RWY NML=@CAELT@
ZPX0557 301657@CAELT@GG SLZZYMYT@CAELT@301655 SLTRYGYZ@CAELT@SABO SLTR 301700@CAELT@METAR SLTR 301700Z 34008KT 6000 TS VCSH SCT020 FEW023CB BKN200 33/25@CAELT@Q1010 A2983 991.7 HR62 CB/SH N/NE/E/SE/S TS NE TEMPO TSRA=@CAELT@
ZPX0558 301657@CAELT@GG SLZZYMYT@CAELT@301655 SLTRYGYZ@CAELT@SABO SLTR 301700@CAELT@METAR SLTR 301700Z 34008KT 6000 TS VCSH SCT020 FEW023CB BKN200 33/25@CAELT@Q1010 A2983 991.7 HR62 CB/SH N/NE/E/SE/S TS NE TEMPO TSRA=@CAELT@
ZPX0559 301658@CAELT@GG SLZZYMYT@CAELT@301655 SLTJYGYZ@CAELT@SABO SLTJ 301700@CAELT@METAR SLTJ 301700Z 13008KT 7000 VCSH FEW010 BKN023 OVC070 18/15 Q1024@CAELT@A3024 818.3 HR83 SH/ST BAJOS/N/S/SW/W/NW=@CAELT@
ZPX0560 301658@CAELT@GG SLZZYMYT@CAELT@301655 SLLPYGYZ@CAELT@SABO SLLP 301700@CAELT@METAR SLLP 301700Z 08009G21KT 9999 FEW020 FEW023CB 19/01 Q1037@CAELT@A3063 627.5 HR30 P93// CB/NW CI NOSIG=@CAELT@
ZPX0561 301658@CAELT@GG SLZZYMYT@CAELT@301657 SLVRYGYZ@CAELT@SABO SLVR 301700@CAELT@METAR SLVR 301700Z 33012G22KT 9999 SCT020 34/22 Q1011 A2985 HR50 CI@CAELT@NOSIG=@CAELT@
ZPX0562 301658@CAELT@GG SLZZYMYT@CAELT@301655 SLUYYGYS@CAELT@SABO SLUY 301700@CAELT@METAR SLUY 301700Z 28005KT 9999 FEW036 FEW040CB BKN200 20/05 Q1031@CAELT@A3046 656.6 HR35 CB/SH N/NE/SE AC=@CAELT@
ZPX0563 301658@CAELT@GG SLZZYMYT@CAELT@301656 SLTJYGYZ@CAELT@SABO SLTJ 301700@CAELT@METAR SLTJ 301700Z 13008KT 7000 VCSH FEW010 BKN023 OVC070 18/15 Q1024@CAELT@A3024 818.3 HR83 SH/ST BAJOS/N/S/SW/W/NW=@CAELT@
ZPX0564 301658@CAELT@GG SLZZYMYT@CAELT@301655 SLAGYSYX@CAELT@SABO SLAG 301700@CAELT@METAR SLAG 301700Z 20017KT 4000 -TSRA FEW002 SCT010 FEW030CB BKN200@CAELT@20/19 Q1020 A3013 892.1 HR96 CB/ON STN/N/NE/E TS/NE ST BAJOS S/SW/W/@CAELT@NW AS=@CAELT@
ZPX0565 301658@CAELT@GG SLZZYMYT@CAELT@301657 SLTJYGYZ@CAELT@SABO SLTJ 301700@CAELT@METAR SLTJ 301700Z 13008KT 7000 VCSH FEW010 BKN023 OVC070 18/15 Q1024@CAELT@A3024 818.3 HR83 SH/ST BAJOS/N/S/SW/W/NW=@CAELT@
ZPX0566 301659@CAELT@GG SLZZYMYT@CAELT@301655 SLLPYGYZ@CAELT@SABO SLLP 301700@CAELT@METAR SLLP 301700Z 08009G21KT 9999 FEW020 FEW023CB 19/01 Q1037@CAELT@A3063 627.5 HR30 P93// CB/NW CI NOSIG=@CAELT@
ZPX0567 301659@CAELT@GG SLZZYMYT@CAELT@301657 SLCBYGYZ@CAELT@SABO SLCB 301700@CAELT@METAR SLCB 301700Z 08006KT 9999 SCT036 FEW040CB 29/06 Q1021 A3016 748@CAELT@.5 HR23 CB/E/SE/NW FU CI NOSIG=@CAELT@
ZPX0568 301659@CAELT@GG SLZZYMYT@CAELT@301656 SLLPYGYZ@CAELT@SABO SLLP 301700@CAELT@METAR SLLP 301700Z 08009G21KT 9999 FEW020 FEW023CB 19/01 Q1037@CAELT@A3063 627.5 HR30 P93// CB/NW CI NOSIG=@CAELT@
ZPX0569 301659@CAELT@GG SLZZYMYT@CAELT@301658 SLTRYGYS@CAELT@SABO SLTR 301700@CAELT@METAR SLTR 301700Z 34008KT 6000 TS VCSH SCT020 FEW023CB BKN200 33/25@CAELT@Q1010 A2983 991.7 HR62 CB/SH N/NE/E/SE/S TS NE TEMPO TSRA=@CAELT@METAR SLGM 301700Z 36008KT 7000 VCSH BKN008 FEW020CB OVC070 25/24@CAELT@Q1013 A2991 HR90 CB/SH E/SE=@CAELT@METAR SLRI 301700Z 10006KT 5000 -TSRA BKN005 FEW020CB OVC070 23/23Q1014 A2995 HR98 CB/TS N/W=METAR SLJO 301700Z 36012KT 9999 FEW017 33/23 Q1010 A2985 HR57 ACRWY NML=METAR SLRA 301700Z 36012KT 9999 FEW020 BKN200 32/23 Q1011 A2986 HR57METAR SLMG 301700Z 36006KT 7000 SCT017 BKN200 32/23 Q1011 A2986 HR59FU RWY NML=METAR SLBU 301700Z 32006KT 9999 SCT017 BKN200 34/25 Q1010 A2983 HR62METAR SLSA 301700Z 35012KT 8000 VCSH BKN017 FEW023CB BKN200 28/24Q1011 A2986 HR79 CB/SH E/W/NW=METAR SLSR 301700Z 32012KT 8000 VCSH SCT017 FEW023CB BKN200 33/25Q1009 A2981 HR61 CB/SH E/SE RWY NML=METAR SLSM 301700Z 31003KT 9999 SCT017 34/26 Q1009 A2982 HR63 CI
ZPX0570 301659@CAELT@GG SLZZYMYT@CAELT@301654 SLETYMYC@CAELT@SABO SLET 301700@CAELT@METAR SLET 301700Z 32015G26KT 9999 SCT020 BKN200 35/22 Q1010 A2984@CAELT@HR49 NOSIG=@CAELT@
ZPX0571 301659@CAELT@GG SLZZYMYT@CAELT@301700 SLAGYSYX@CAELT@SABO SLAG 301700@CAELT@METAR SLAG 301700Z 20017KT 4000 -TSRA FEW002 SCT010 FEW030CB BKN200@CAELT@20/19 Q1020 A3013 892.1 HR96 CB/ON STN/N/NE/E TS/NE ST BAJOS S/SW/W/@CAELT@NW AS=@CAELT@
ZPX0573 301700@CAELT@GG SLZZYMYT@CAELT@301700 SLVRYFYC@CAELT@SABO SLVR 301700@CAELT@METAR SLVR 301700Z 33012G22KT 9999 SCT020 34/22 Q1011 A2985 HR50 CI@CAELT@NOSIG=@CAELT@METAR SLET 301700Z 32015G26KT 9999 SCT020 BKN200 35/22 Q1010 A29.84@CAELT@HR49 NOSIG=@CAELT@METAR SLAS 301700Z 36015KT 9999 SCT020 BKN200 34/24 Q1013 A2991 HR58RWY NML=METAR SLJV 301700Z 36010KT 9999 SCT020 31/24 Q1011 A2985 HR60 RWY NMLMETAR SLCP 301700Z 32006KT 9999 BKN017 31/23 Q1016 A3000 HR63 RWY NMLMETAR SLSI 301700Z 36010KT 9999 BKN017 34/22 Q1011 A2988 HR47 RWY NMLMETAR SLRB 301700Z 00000KT 9999 BKN020 FEW025CB 36/21 Q1012 A2988HR41 CB/S/SE/SW RWY NML=METAR SLPS 301700Z 36006KT 9999 SCT020 FEW030CB BKN200 37/23 Q1010A2983 HR49 CB/N/NW/S=METAR SLCA 301700Z 21005KT 9999 BKN033 BKN070 28/20 Q1018 A3006 HR61
ZPX0576 301703@CAELT@GG SLZZYMYT@CAELT@301701 SLCBYGYS@CAELT@SABO SLCB 301700@CAELT@METAR SLCB 301700Z 08006KT 9999 SCT036 FEW040CB 29/06 Q1021 A3016 748@CAELT@.5 HR23 CB/E/SE/NW FU CI NOSIG=@CAELT@METAR SLAL 301700Z 03007KT 9999 SCT020 FEW030CB SCT200 19/08 Q1030@CAELT@A3043 704.6 HR47 CB S/SW/W=@CAELT@METAR SLPO 301700Z NIL=METAR SLAG 301700Z 20017KT 4000 -TSRA FEW002 SCT010 FEW030CB BKN20020/19 Q1020 A3013 892.1 HR96 CB/ON STN/N/NE/E TS/NE ST BAJOS S/SW/W/NW AS=METAR SLVM 301700Z 00000KT 7000 VCSH SCT023 FEW030CB OVC070 22/21Q1016A3001 HR94 CB SW/W SH SW/W=METAR SLTJ 301700Z 13008KT 7000 VCSH FEW010 BKN023 OVC070 18/15 Q1024A3024 818.3 HR83 SH/ST BAJOS/N/S/SW/W/NW=METAR SLYA 301700Z 21010KT 9999 8000 VCSH FEW008 BKN015 OVC070 22/21Q1017 A3007 942.8 HR97SH/N/NE/S/SW/NW RERA=METAR SLBJ 301700Z NIL=METAR SLHI 301700Z NIL=
ZPX0578 301707@CAELT@GG SLZZYMYT@CAELT@301702 SLLPYFYA@CAELT@SABO SLLP 301700@CAELT@METAR SLLP 301700Z 08009G21KT 9999 FEW020 FEW023CB 19/01 Q1037@CAELT@A3063 627.5 HR30 P93// CB/NW CI NOSIG=@CAELT@METAR SLCO 301700Z 31008KT 9999 SCT017 BKN080 31/24 Q1012 A2989@CAELT@984.8 HR65=@CAELT@METAR SLRY 301700Z 36003KT 9999 SCT017 SCT200 34/24 Q1010 A2981HR58 RWY NML=METAR SLRQ 301700Z 36008KT 9999 BKN017 35/25 Q1009 A2981 985.5 HR56METAR SLAP 301700Z 36015KT 9999 SCT025 FEW027CB 24/22 Q1017 A3004 857.9 HR87 CB/SH N/NE/E/SE AC/CI=METAR SLSB 301700Z 29005KT 9999 SCT020 34/25 Q1009 A2982 HR59 RWY NMLMETAR SLOR 301700Z 05010KT 9999 SCT025 23/05 Q1033 A3052 654.9 HR31METAR SLUY 301700Z 28005KT 9999 FEW036 FEW040CB BKN200 20/05 Q1031A3046 656.6 HR35 CB/SH N/NE/SE AC=
ZPX0613 301751@CAELT@GG SLZZYMYT@CAELT@301750 SLPSYGYS@CAELT@SABO SLPS 301800@CAELT@METAR SLPS 301800Z 36006KT 9999 SCT020 FEW030CB BKN200 38/23 Q1008@CAELT@A2977 HR46 CB/NE/SW=@CAELT@
ZPX0614 301754@CAELT@GG SLZZYMYT@CAELT@301755 SLORYGYZ@CAELT@SABO SLOR 301800@CAELT@METAR SLOR 301800Z 05008KT 9999 SCT025 FEW027CB 24/05 Q1032 A3050 654@CAELT@.4 HR28 CB/N AC/CI=@CAELT@
ZPX0615 301755@CAELT@GG SLZZYMYT@CAELT@301753 SLRBYGYS@CAELT@SABO SLRB 301800@CAELT@METAR SLRB 301800Z 36006KT 9999 BKN020 FEW025CB 36/21 Q1011 A2985@CAELT@HR42 CB/S/SE/SW RWY NML=@CAELT@
ZPX0616 301755@CAELT@GG SLZZYMYT@CAELT@301755 SLSAYGYS@CAELT@SABO SLSA 301800@CAELT@METAR SLSA 301800Z 33010KT 6000 VCSH SCT017 FEW023CB BKN200 26/23@CAELT@Q1009 A2982 HR85 RESHRA CB/SH S/W/NW=@CAELT@
ZPX0617 301755@CAELT@GG SLZZYMYT@CAELT@301754 SLETYMYC@CAELT@SABO SLET 301800@CAELT@METAR SLET 301800Z 31015G26KT 9999 SCT020 BKN200 36/22 Q1009 A2981@CAELT@HR43 NOSIG=@CAELT@
ZPX0618 301755@CAELT@GG SLZZYMYT@CAELT@301755 SLSBYSYX@CAELT@SABO SLSB 301800@CAELT@METAR SLSB 301800Z 36003KT 9999 BKN020 34/25 Q1007 A2975 HR59 RWY NML=@CAELT@
ZPX0619 301755@CAELT@GG SLZZYMYT@CAELT@301756 SLVRYGYZ@CAELT@SABO SLVR 301800@CAELT@METAR SLVR 301800Z 34010G20KT 9999 SCT020 35/24 Q1009 A2982 HR51 CI@CAELT@NOSIG=@CAELT@
ZPX0620 301756@CAELT@GG SLZZYMYT@CAELT@301755 SLLPYGYZ@CAELT@SABO SLLP 301800@CAELT@METAR SLLP 301800Z 06011G22KT 9999 SCT020 FEW023CB 16/00 Q1036@CAELT@A3060 626.7 HR33 P93// CB/SH NW AC/CI NOSIG=@CAELT@
ZPX0621 301756@CAELT@GG SLZZYMYT@CAELT@301756 SLTJYGYZ@CAELT@SABO SLTJ 301800@CAELT@METAR SLTJ 301800Z 13006KT 7000 VCSH FEW010 BKN023 BKN070 20/15 Q1022@CAELT@A3019 817.0 HR74 SH/ST BAJOS N/SW/W/NW=@CAELT@
ZPX0623 301757@CAELT@GG SLZZYMYT@CAELT@301757 SLCAYGYS@CAELT@SABO SLCA 301800@CAELT@METAR SLCA 301800Z 00000KT 9999 SCT033 BKN200 29/19 Q1016 A3000 HR54@CAELT@RWY NML=@CAELT@
ZPX0625 301757@CAELT@GG SLZZYMYT@CAELT@301757 SLRQYSYX@CAELT@SABO SLRQ 301800@CAELT@METAR SLRQ 301800Z 36006KT 9999 BKN020 FEW023TCU 36/26 Q1008 A2977@CAELT@HR55 TCU/W=@CAELT@
ZPX0627 301758@CAELT@GG SLZZYMYT@CAELT@301756 SLAGYSYX@CAELT@SABO SLAG 301800@CAELT@METAR SLAG 301800Z 18008KT 6000 -TSRA SCT003 SCT010 FEW030CB BKN080@CAELT@19/18 Q1019 A3011 891.5 HR93 CB/N/NE TS/NE ST BAJOS TODAS DIRECC CI=@CAELT@
ZPX0628 301758@CAELT@GG SLZZYMYT@CAELT@301758 SLVRYFYC@CAELT@SABO SLVR 301800@CAELT@METAR SLVR 301800Z 34010G20KT 9999 SCT020 35/24 Q1009 A2982 HR51 CI@CAELT@NOSIG=@CAELT@METAR SLET 301800Z 31015G26KT 9999 SCT020 BKN200 36/22 Q1009 A2981@CAELT@HR43 NOSIG=@CAELT@METAR SLAS 301800Z 36015KT 9999 SCT020 FEW030CB BKN200 33/24 Q1012A2989 HR58 CB/SH/S/SW RWY NML=METAR SLJV 301800Z 36010KT 9999 SCT020 29/24 Q1011 A2985 HR77 RWY NMLMETAR SLCP 301800Z 00000KT 9999 BKN017 31/24 Q1014 A2994 HR64 RWY NMLMETAR SLSI 301800Z 36006KT 9999 SCT017 35/21 Q1010 A2983 HR45 RWY NMLMETAR SLTI 301800Z 36017KT 9999 BKN020 FEW030CB 38/22 Q1012 A2988HR40 CB/SH/N RWY NML=METAR SLJE 301800Z 00000KT 9999 TS SCT020 FEW030CB BKN200 37/24 Q1012A2988 HR48 CB/TS/N/E RWY NML=METAR SLVG 301800Z 18004KT 9999 SCT027 FEW030CB BKN200 19/15 Q1024A3024 HR78 CB/SW/S/W RETS RWY NML=METAR SLRB 301800Z 36006KT 9999 BKN020 FEW025CB 36/21 Q1011 A2985HR42 CB/S/SE/SW RWY NML=METAR SLPS 301800Z 36006KT 9999 SCT020 FEW030CB BKN200 38/23 Q1008A2977 HR46 CB/NE/SW=METAR SLCA 301800Z 00000KT 9999 SCT033 BKN200 29/19 Q1016 A3000 HR54RWY NML=
ZPX0629 301758@CAELT@GG SLZZYMYT@CAELT@301758 SLCOYSYX@CAELT@SABO SLCO 301800@CAELT@METAR SLCO 301800Z 34008KT 9999 BKN020 BKN080 32/24 Q1010 A2982 982.6@CAELT@HR62=@CAELT@
ZPX0630 301759@CAELT@GG SLZZYMYT@CAELT@301757 SLTRYGYZ@CAELT@SABO SLTR 301800@CAELT@METAR SLTR 301800Z 34006KT 8000 -TSRA SCT020 FEW023CB BKN200 29/26@CAELT@Q1009 A2982 991.3 HR88 CB N/NE/E/S/SW TS S/SW NOSIG=@CAELT@
ZPX0633 301800@CAELT@GG SLZZYMYT@CAELT@301759 SLTRYGYS@CAELT@SABO SLTR 301800@CAELT@METAR SLTR 301800Z 34006KT 8000 -TSRA SCT020 FEW023CB BKN200 29/26@CAELT@Q1009 A2982 991.3 HR88 CB N/NE/E/S/SW TS S/SW NOSIG=@CAELT@METAR SLGM 301800Z 36011KT 8000 VCSH BKN008 FEW020CB OVC070 26/24@CAELT@Q1012 A2988 HR89 CB/SH NE/E/SE=@CAELT@METAR SLRI 301800Z 04005KT 8000 -RA FEW005 SCT010 FEW020CB BKN07024/23 Q1013 A2993 HR97 CB N/NW=METAR SLJO 301800Z NIL=METAR SLRA 301800Z 34010KT 9999 SCT020 BKN200 33/23 Q1010 A2984HR56 RWY NML=METAR SLMG 301800Z 32008KT 8000 SCT017 BKN200 32/23 Q1010 A2983HR58 FU RWY NML=METAR SLBU 301800Z 32006KT 9999 SCT017 BKN200 34/25 Q1009 A2980HR61 RWY NML=METAR SLSA 301800Z 33010KT 6000 VCSH SCT017 FEW023CB BKN200 26/23Q1009 A2982 HR85 RESHRA CB/SH S/W/NW=METAR SLSR 301800Z 32012KT 8000 VCSH SCT017 FEW023CB BKN200 33/25Q1007 A2974 HR61 CB/SH E/SE RWY NML=METAR SLSM 301800Z 31006KT 9999 SCT017 FEW023CB 34/24 Q1008 A2977HR59 CI CB NE/E RWY NML=
ZPX0634 301801@CAELT@GG SLZZYMYT@CAELT@301757 SLCBYGYZ@CAELT@SABO SLCB 301800@CAELT@METAR SLCB 301800Z 09015KT 9999 SCT036 FEW040CB BKN070 25/08 Q1021@CAELT@A3015 748.4 HR35 CB/SE/SW/W/NW FU CI BECMG 24012KT=@CAELT@
ZPX0635 301801@CAELT@GG SLZZYMYT@CAELT@301801 SLLPYFYA@CAELT@SABO SLLP 301800@CAELT@METAR SLLP 301800Z 06011G22KT 9999 SCT020 FEW023CB 16/00 Q1036@CAELT@A3060 626.7 HR33 P93// CB/SH NW AC/CI NOSIG=@CAELT@METAR SLCO 301800Z 34008KT 9999 BKN020 BKN080 32/24 Q1010 A2982 982.6@CAELT@HR62=@CAELT@METAR SLRY 301800Z 32005KT 9999 SCT017 SCT200 34/24 Q1008 A2978HR58 RWY NML=METAR SLRQ 301800Z 36006KT 9999 BKN020 FEW023TCU 36/26 Q1008 A2977HR55 TCU/W=METAR SLAP 301800Z 36015KT 9999 SCT025 FEW027CB 23/21 Q1016 A3001 857.2 HR86 CB/SH E/SE/S/NW AC/CI=METAR SLSB 301800Z 36003KT 9999 BKN020 34/25 Q1007 A2975 HR59 RWY NMLMETAR SLOR 301800Z 05008KT 9999 SCT025 FEW027CB 24/05 Q1032 A3050 654.4 HR28 CB/N AC/CI=
ZPX0637 301802@CAELT@GG SLZZYMYT@CAELT@301801 SLCBYGYS@CAELT@SABO SLCB 301800@CAELT@METAR SLCB 301800Z 09015KT 9999 SCT036 FEW040CB BKN070 25/08 Q1021@CAELT@A3015 748.4 HR35 CB/SE/SW/W/NW FU CI BECMG 24012KT=@CAELT@METAR SLAL 301800Z 07010KT 9999 FEW020 FEW033CB BKN200 19/07 Q1029@CAELT@A3040 703.8 HR47 CB/N/E/S/SW AC=@CAELT@METAR SLPO 301800Z NIL=METAR SLAG 301800Z 18008KT 6000 -TSRA SCT003 SCT010 FEW030CB BKN08019/18 Q1019 A3011 891.5 HR93 CB/N/NE TS/NE ST BAJOS TODAS DIRECC CI=METAR SLVM 301800Z NIL=METAR SLTJ 301800Z 13006KT 7000 VCSH FEW010 BKN023 BKN070 20/15 Q1022A3019 817.0 HR74 SH/ST BAJOS N/SW/W/NW=METAR SLYA 301800Z 21008KT 9999 BKN018 OVC070 23/23 Q1017 A3005 942.0HR97=METAR SLBJ 301800Z NIL=METAR SLHI 301800Z NIL=
ZPX0661 301852@CAELT@GG SLZZYMYT@CAELT@301852 SLPSYGYS@CAELT@SABO SLPS 301900@CAELT@METAR SLPS 301900Z 32004KT 9999 SCT020 FEW030CB BKN200 37/24 Q1008@CAELT@A2977 HR48 CB/N/NE/NW=@CAELT@
ZPX0662 301853@CAELT@GG SLZZYMYT@CAELT@301852 SLETYMYC@CAELT@SABO SLET 301900@CAELT@METAR SLET 301900Z 32015G26KT 9999 SCT020 FEW027CB BKN200 36/21 Q1008@CAELT@A2978 HR44 CB S/SW/E NOSIG=@CAELT@
ZPX0663 301854@CAELT@GG SLZZYMYT@CAELT@301853 SLRBYGYS@CAELT@SABO SLRB 301900@CAELT@METAR SLRB 301900Z 36004KT 9999 BKN020 FEW025CB 36/21 Q1011 A2985@CAELT@HR42 CB/S/SE/SW RWY NML=@CAELT@
ZPX0664 301855@CAELT@GG SLZZYMYT@CAELT@301855 SLCOYSYX@CAELT@SABO SLCO 301900@CAELT@METAR SLCO 301900Z 30009KT 9999 BKN020 33/24 Q1008 A2979 981.3 HR60@CAELT@
ZPX0665 301855@CAELT@GG SLZZYMYT@CAELT@301855 SLSAYGYS@CAELT@SABO SLSA 301900@CAELT@METAR SLSA 301900Z 34010KT 7000 VCSH SCT017 FEW023CB BKN200 27/24@CAELT@Q1009 A2980 HR85 CB/SH S/SW/W=@CAELT@
ZPX0666 301855@CAELT@GG SLZZYMYT@CAELT@301856 SLVRYGYZ@CAELT@SABO SLVR 301900@CAELT@METAR SLVR 301900Z 33010G20KT 9999 SCT020 FEW030CB BKN200 34/24 Q1008@CAELT@A2979 HR53 CB DIST. S/SW NOSIG=@CAELT@
ZPX0667 301855@CAELT@GG SLZZYMYT@CAELT@301855 SLSBYSYX@CAELT@SABO SLSB 301900@CAELT@METAR SLSB 301900Z 31003KT 8000 VCSH BKN020 FEW025CB 34/25 Q1006@CAELT@A2973 HR59 CB SH NE NW RWY NML=@CAELT@
ZPX0668 301856@CAELT@GG SLZZYMYT@CAELT@301855 SLAGYSYX@CAELT@SABO SLAG 301900@CAELT@METAR SLAG 301900Z 18005KT 8000 VCSH FEW005 SCT012 FEW030CB OVC080 21@CAELT@/18 Q1019 A3010 891.1 HR84 CB N/NE/SW SH/NE ST BAJOS S/SW/W/NW RETSRA=@CAELT@
ZPX0669 301856@CAELT@GG SLZZYMYT@CAELT@301855 SLTJYGYZ@CAELT@SABO SLTJ 301900@CAELT@METAR SLTJ 301900Z 00000KT 9999 FEW013 BKN023 BKN070 20/15 Q1021@CAELT@A3017 816.3 HR71 SH SW/W/NW=@CAELT@
ZPX0670 301856@CAELT@GG SLZZYMYT@CAELT@301855 SLLPYGYZ@CAELT@SABO SLLP 301900@CAELT@METAR SLLP 301900Z 09009KT 9999 SCT020 FEW023CB 19/M02 Q1034@CAELT@A3056 625.8 HR24 P93// CB/SH NW AC/CI NOSIG=@CAELT@
ZPX0671 301856@CAELT@GG SLZZYMYT@CAELT@301856 SLCAYGYS@CAELT@SABO SLCA 301900@CAELT@METAR SLCA 301900Z 21005KT 9999 FEW033 OVC200 29/18 Q1015 A2997 HR55@CAELT@RWY NML=@CAELT@
ZPX0672 301857@CAELT@GG SLZZYMYT@CAELT@301856 SLRQYSYX@CAELT@SABO SLRQ 301900@CAELT@METAR SLRQ 301900Z 36004KT 9999 BKN020 FEW023CB 36/26 Q1006 A2973@CAELT@HR54 CB/N/NE/SW/W=@CAELT@
ZPX0673 301857@CAELT@GG SLZZYMYT@CAELT@301857 SLCBYGYZ@CAELT@SABO SLCB 301900@CAELT@METAR SLCB 301900Z 08010KT 9999 FEW036 FEW040CB SCT070 BKN200@CAELT@27/07 Q1020 A3014 748.0 HR27 CB/E/SEW/NW SH/W/NW NOSIG=@CAELT@
ZPX0674 301857@CAELT@GG SLZZYMYT@CAELT@301858 SLVRYFYC@CAELT@SABO SLVR 30@CAELT@METAR SLVR 301900Z 33010G20KT 9999 SCT020 FEW030CB BKN200 34/24 Q1008@CAELT@A2979 HR53 CB DIST. S/SW NOSIG=@CAELT@METAR SLET 301900Z 32015G26KT 9999 SCT020 FEW027CB BKN200 36/21 Q1008@CAELT@A2978 HR44 CB S/SW/E NOSIG=@CAELT@METAR SLAS 301900Z 36006KT 9999 SCT020 FEW030CB BKN200 31/24 Q1010A2983 HR70 CB/SH/SE/SW/NW RWY NML=METAR SLJV 301900Z 36010KT 9999 SCT020 30/23 Q1009 A2980 HR68 RWY NMLMETAR SLCP 301900Z 35006KT 9999 SCT017 BKN200 33/23 Q1012 A2988 HR55RWY NML=METAR SLSI 301900Z 36005KT 9999 SCT017 FEW025CB 36/22 Q1008 A2977HR43 CB/NE/E RWY NML=METAR SLTI 301900ZMETAR SLJE 301900Z 00000KT 9999 SCT020 FEW030CB BKN200 37/24 Q1011A2985 H49 CB/E RETS RWY NML=METAR SLVG 301900Z 18004KT 9999 SCT027 FEW030CB BKN070 19/15 Q1024A3024 HR78 CB/E RWY NML=METAR SLRB 301900Z 36004KT 9999 BKN020 FEW025CB 36/21 Q1011 A2985HR42 CB/S/SE/SW RWY NML=METAR SLPS 301900Z 32004KT 9999 SCT020 FEW030CB BKN200 37/24 Q1008A2977 HR48 CB/N/NE/NW=METAR SLCA 301900Z 21005KT 9999 FEW033 OVC200 29/18 Q1015 A2997 HR55
ZPX0677 301859@CAELT@GG SLZZYMYT@CAELT@301857 SLTRYGYZ@CAELT@SABO SLTR 301900@CAELT@METAR SLTR 301900Z 33008KT 8000 TS VCSH SCT020 FEW020CB BKN200 30/26@CAELT@Q1009 A2981 990.9 HR82 RERA CB/SH N/NE/S/SW TS S/SW NOSIG=@CAELT@
ZPX0680 301900@CAELT@GG SLZZYMYT@CAELT@301859 SLLPYFYA@CAELT@SABO SLLP 301900@CAELT@METAR SLLP 301900Z 09009KT 9999 SCT020 FEW023CB 19/M02 Q1034@CAELT@A3056 625.8 HR24 P93// CB/SH NW AC/CI NOSIG=@CAELT@METAR SLCO 301900Z 30009KT 9999 BKN020 33/24 Q1008 A2979 981.3 HR60@CAELT@METAR SLRY 301900Z 32005KT 9999 SCT020 35/25 Q1006 A2973@CAELT@HR56 C RWY NML=METAR SLRQ 301900Z 36004KT 9999 BKN020 FEW023CB 36/26 Q1006 A2973HR54 CB/N/NE/SW/W=METAR SLSB 301900Z 31003KT 8000 VCSH BKN020 FEW025CB 34/25 Q1006A2973 HR59 CB SH NE NW RWY NML=
ZPX0681 301901@CAELT@GG SLZZYMYT@CAELT@301900 SLCBYGYS@CAELT@SABO SLCB 301900@CAELT@METAR SLCB 301900Z 08010KT 9999 FEW036 FEW040CB SCT070 BKN200@CAELT@27/07 Q1020 A3014 748.0 HR27 CB/E/SE/W/NW SH/W/NW NOSIG=@CAELT@METAR SLAL 301900Z 05011KT 9999 FEW020 FEW033CB BKN200 20/07 Q1027@CAELT@A3034 702.6 HR46 CB/E/SE/S AC=@CAELT@METAR SLPO 301900Z NIL=METAR SLAG 301900Z 18005KT 8000 VCSH FEW005 SCT012 FEW030CB OVC08021/18 Q1019 A3010 891.1 HR84 CB N/NE/SW SH/NE ST BAJOS S/SW/W/NWRETSRA=METAR SLVM 301900Z NIL=METAR SLTJ 301900Z 00000KT 9999 FEW013 BKN023 BKN070 20/15 Q1021A3017 816.3 HR71 SH SW/W/NW=METAR SLYA 301900Z NIL=METAR SLBJ 301900Z NIL=METAR SLHI 301900Z NIL=
ZPX0683 301901@CAELT@GG SLZZYMYT@CAELT@301900 SLTRYGYS@CAELT@SABO SLTR 301900@CAELT@METAR SLTR 301900Z 33008KT 8000 TS VCSH SCT020 FEW020CB BKN200 30/26@CAELT@Q1009 A2981 990.9 HR82 RERA CB/SH N/NE/S/SW TS S/SW NOSIG=@CAELT@METAR SLGM 301900Z 32006KT 9999 BKN012 FEW020CB BKN080 27/24 Q1010@CAELT@A2982 HR86 CB SE=@CAELT@METAR SLRI 301900Z 02008KT 9999 FEW005 SCT010 FEW020CB BKN070 26/23Q1011 A2986 HR85 CB/NW=METAR SLJO 301000Z NIL=METAR SLRA 301900Z 33008KT 9999 FEW020 BKN200 33/23 Q1009 A2981HR55 RWY NML=METAR SLMG 301900Z 32008KT 7000 SCT017 BKN200 32/23 Q1009 A2980HR59 FU RWY NML=METAR SLBU 301900Z 32004KT 9999 SCT017 BKN200 33/24 Q1008 A2977HR57 RWY NML=METAR SLSA 301900Z 34010KT 7000 VCSH SCT017 FEW023CB BKN200 27/24Q1009 A2980 HR85 CB/SH S/SW/W=METAR SLSR 301900Z 32012KT 8000 VCSH SCT017 FEW023CB BKN200 33/24Q1006 A2971 HR58 CB/SH N/E/SE RWY NML=METAR SLSM 301900Z 35006KT 9999 SCT017 FEW023CB 35/25 Q1007 A2974HR55 CI CB NE/E/SE RWY NML=
ZPX0689 301906@CAELT@GG SLZZYMYT@CAELT@301905 SLLPYFYA@CAELT@SABO SLLP 301900 CCA@CAELT@METAR SLLP 301900Z 09009KT 9999 SCT020 FEW023CB 19/M02 Q1034@CAELT@A3056 625.8 HR24 P93// CB/SH NW AC/CI NOSIG=@CAELT@METAR SLCO 301900Z 30009KT 9999 BKN020 33/24 Q1008 A2979 981.3 HR60@CAELT@METAR COR SLRY 301900Z 32005KT 9999 SCT020 35/25 Q1006 A2973@CAELT@HR56 CI RWY NML=METAR SLRQ 301900Z 36004KT 9999 BKN020 FEW023CB 36/26 Q1006 A2973HR54 CB/N/NE/SW/W=METAR SLSB 301900Z 31003KT 8000 VCSH BKN020 FEW025CB 34/25 Q1006A2973 HR59 CB SH NE NW RWY NML=
ZPX0718 301951@CAELT@GG SLZZYMYT@CAELT@301951 SLPSYGYS@CAELT@SABO SLPS 302000@CAELT@METAR SLPS 302000Z 09004KT 9999 SCT020 FEW030CB BKN200 36/24 Q1007@CAELT@A2974 HR50 CB/N=@CAELT@
ZPX0719 301954@CAELT@GG SLZZYMYT@CAELT@301953 SLRBYGYS@CAELT@SABO SLRB 302000@CAELT@METAR SLRB 302000Z 36006KT 9999 BKN020 FEW025CB 33/22 Q1011 A2985@CAELT@HR48 CB/SW/NW RWY NML=@CAELT@
ZPX0720 301954@CAELT@GG SLZZYMYT@CAELT@301954 SLSAYGYS@CAELT@SABO SLSA 302000@CAELT@METAR SLSA 302000Z 34008KT 7000 VCSH SCT017 FEW023CB BKN200 27/24@CAELT@Q1008 A2978 HR84 CB/SH S/SW/W=@CAELT@
ZPX0721 301954@CAELT@GG SLZZYMYT@CAELT@301954 SLSAYGYS@CAELT@SABO SLSA 302000@CAELT@METAR SLSA 302000Z 34008KT 7000 VCSH SCT017 FEW023CB BKN200 27/24@CAELT@Q1008 A2978 HR84 CB/SH S/SW/W=@CAELT@
ZPX0722 301954@CAELT@GG SLZZYMYT@CAELT@301954 SLCAYGYS@CAELT@SABO SLCA 302000@CAELT@METAR SLCA 302000Z 00000KT 9999 FEW033 OVC200 29/18 Q1015 A2997 HR55@CAELT@RWY NML=@CAELT@
ZPX0723 301955@CAELT@GG SLZZYMYT@CAELT@301955 SLCOYSYX@CAELT@SABO SLCO 302000@CAELT@METAR SLCO 302000Z 36010KT 9999 BKN020 33/24 Q1007 A2976 980.6 HR59=@CAELT@
ZPX0724 301955@CAELT@GG SLZZYMYT@CAELT@301955 SLSBYSYX@CAELT@SABO SLSB 302000@CAELT@METAR SLSB 302000Z 36003KT 8000 VCSH BKN020 FEW025CB 30/26 Q1006@CAELT@A2971 HR77 RESH CB SH N E NW RWY NML=@CAELT@
ZPX0725 301956@CAELT@GG SLZZYMYT@CAELT@301955 SLTJYGYZ@CAELT@SABO SLTJ 302000@CAELT@METAR SLTJ 302000Z 23005KT 9999 SCT023 SCT070 BKN200 20/15 Q1020@CAELT@A3013 815.2 HR71=@CAELT@
ZPX0726 301957@CAELT@GG SLZZYMYT@CAELT@301957 SLCBYGYZ@CAELT@SABO SLCB 302000@CAELT@METAR SLCB 302000Z 09010KT 060V120 9999 FEW036 FEW040CB SCT070 BKN200@CAELT@26/06 Q1019 A3011 747.2 HR27 CB/NE/SE/W NOSIG=@CAELT@
ZPX0727 301957@CAELT@GG SLZZYMYT@CAELT@301949 SLETYMYC@CAELT@SABO SLET 302000@CAELT@METAR SLET 302000Z 30012KT 9999 SCT020 FEW030CB BKN200 33/21 Q1008@CAELT@A2977 HR49 CB S/SW/NE NOSIG=@CAELT@
ZPX0728 301957@CAELT@GG SLZZYMYT@CAELT@301955 SLLPYGYZ@CAELT@SABO SLLP 302000@CAELT@METAR SLLP 302000Z 04013G25KT 9999 SCT020 FEW023CB 17/M01 Q1033@CAELT@A3053 625.2 HR29 P93// CB/SH SW AC/CI NOSIG=@CAELT@
ZPX0729 301958@CAELT@GG SLZZYMYT@CAELT@301958 SLVRYGYZ@CAELT@SABO SLVR 302000@CAELT@METAR SLVR 302000Z 33010KT 9999 SCT020 FEW023TCU FEW030CB BKN200 33/@CAELT@23 Q1008 A2978 HR56 CB DIST. S/SW TCU/E NOSIG=@CAELT@
ZPX0730 301958@CAELT@GG SLZZYMYT@CAELT@301957 SLRQYSYX@CAELT@SABO SLRQ 302000@CAELT@METAR SLRQ 302000Z 35004KT 9999 BKN020 FEW023CB BKN200 35/26 Q1005@CAELT@A2970 HR58 CB/NE/E/SE=@CAELT@
ZPX0731 301959@CAELT@GG SLZZYMYT@CAELT@301958 SLTRYGYZ@CAELT@SABO SLTR 302000@CAELT@METAR SLTR 302000Z 32006KT 8000 VCSH SCT010 FEW023CB BKN200 29/25@CAELT@Q1007 A2974 988.7 HR79 RETS CB N/NE/SW/W SH SW NOSIG=@CAELT@
ZPX0733 302000@CAELT@GG SLZZYMYT@CAELT@302000 SLVRYFYC@CAELT@SABO SLVR 302000@CAELT@METAR SLVR 302000Z 33010KT 9999 SCT020 FEW023TCU FEW030CB BKN200 33/@CAELT@23 Q1008 A2978 HR56 CB DIST. S/SW TCU/E NOSIG=@CAELT@METAR SLET 302000Z 30012KT 9999 SCT020 FEW030CB BKN200 33/21 Q1008@CAELT@A2977 HR49 CB S/SW/NE NOSIG=@CAELT@METAR SLAS 302000Z 36006KT 9999 FEW020 FEW030CB BKN200 32/24 Q1009A2980 HR63 CB/SH/W/NE RWY NML=METAR SLJV 302000Z 36010KT 9999 SCT020 29/24 Q1008 A2977 HR74 RWY NMLMETAR SLCP 302000Z 33004KT 9999 SCT017 BKN200 32/23 Q1012 A2988 HR57RWY NML=METAR SLSI 302000Z 00000KT 9999 SCT017 FEW025CB BKN200 35/21 Q1007A2974 HR 45 CB/NE/E RWY NML=METAR SLTI 302000Z 00000KT 9999 BKN020 BKN200 34/20 Q1010 A2983 HR44METAR SLJE 302000Z 32005KT 9999 FEW020 FEW030CB BKN200 35/23 Q1010A2983 HR51 CB/NE/SW RWY NML=METAR SLVG 302000Z 00000KT 9999 SCT025 FEW030CB OVC070 19/15 Q1023A3021 HR74 CB/S RWY NML=METAR SLRB 302000Z 36006KT 9999 BKN020 FEW025CB 33/22 Q1011 A2985HR48 CB/SW/NW RWY NML=METAR SLPS 302000Z 09004KT 9999 SCT020 FEW030CB BKN200 36/24 Q1007A2974 HR50 CB/N=METAR SLCA 302000Z 00000KT 9999 FEW033 OVC200 29/18 Q1015 A2997 HR55
ZPX0734 302000@CAELT@GG SLZZYMYT@CAELT@302000 SLCBYGYS@CAELT@SABO SLCB 302000@CAELT@METAR SLCB 302000Z 09010KT 060V120 9999 FEW036 FEW040CB SCT070@CAELT@BKN200 26/06 Q1019 A3011 747.2 HR27 CB/NE/SE/W NOSIG=@CAELT@METAR SLAL 302000Z 10017KT 9999 SCT020 FEW033CB BKN200 18/07 Q1028@CAELT@A3036 702.9 HR51 CB/ON STN/SW AC=@CAELT@METAR SLPO 302000Z NIL=METAR SLAG 302000Z NIL=METAR SLVM 302000Z NIL=METAR SLTJ 302000Z 23005KT 9999 SCT023 SCT070 BKN200 20/15 Q1020A3013 815.2 HR71=METAR SLYA 302000Z NIL=METAR SLBJ 302000Z NIL=METAR SLHI 302000Z NIL=
ZPX0735 302001@CAELT@GG SLZZYMYT@CAELT@302000 SLTRYGYS@CAELT@SABO SLTR 302000@CAELT@METAR SLTR 302000Z 32006KT 8000 VCSH SCT010 FEW023CB BKN200 29/25@CAELT@Q1007 A2974 988.7 HR79 RETS CB N/NE/SW/W SH SW NOSIG=@CAELT@METAR SLGM 302000Z 36010KT 9999 BKN015 BKN080 28/24 Q1008 A2977 HR78=@CAELT@METAR SLRI 302000Z 02005KT 9999 SCT008 FEW020CB BKN070 27/23 Q1009@CAELT@A2981 HR77 CB N/NW CI=METAR SLJO 302000Z NIL=METAR SLRA 302000Z 34010KT 9999 FEW020 FEW023CB BKN200 33/22 Q1008A2977 HR55 CB/NE/E RWY NML=METAR SLMG 302000Z 32008KT 9999 FEW017 BKN200 31/23 Q1008 A2977 HR60RWY NML=METAR SLBU 302000Z 32008KT 9999 SCT017 BKN200 33/24 Q1007 A2974 HR58METAR SLSA 302000Z 34008KT 7000 VCSH SCT017 FEW023CB BKN200 27/24Q1008 A2978 HR84 CB/SH S/SW/W=METAR SLSR 302000Z 32010KT 7000 VCSH SCT017 FEW023CB SCT080 BKN20033/24 Q1005 A2970 HR60 CB/SH N/NE/E RWY NML=METAR SLSM 302000Z 36010G20KT 9999 BKN015 FEW023CB BKN200 28/24Q1007 A2976 HR79 CB NE/SE RWY NML=
ZPX0739 302006@CAELT@GG SLZZYMYT@CAELT@302002 SLLPYFYA@CAELT@SABO SLLP 302000@CAELT@METAR SLLP 302000Z 04013G25KT 9999 SCT020 FEW023CB 17/M01 Q1033@CAELT@A3053 625.2 HR29 P93// CB/SH SW AC/CI NOSIG=@CAELT@METAR SLCO 302000Z 36010KT 9999 BKN020 33/24 Q1007 A2976 980.6 HR59=@CAELT@METAR SLRY 302000Z 34005KT 9999 SCT020 FEW025CB SCT200 34/24 Q1005@CAELT@A2970 HR56 RWY NML=METAR SLRQ 302000Z 35004KT 9999 BKN020 FEW023CB BKN200 35/26 Q1005A2970 HR58 CB/NE/E/SE=METAR SLSB 302000Z 36003KT 8000 VCSH BKN020 FEW025CB 30/26 Q1006A2971 HR77 RESH CB SH N E NW RWY NML=
ZPX0770 302051@CAELT@GG SLZZYMYT@CAELT@302050 SLPSYGYS@CAELT@SABO SLPS 302100@CAELT@METAR SLPS 302100Z 00000KT 9999 SCT020 BKN200 33/24 Q1007 A2974 HR58=@CAELT@
ZPX0773 302054@CAELT@GG SLZZYMYT@CAELT@302055 SLSBYSYX@CAELT@SABO SLSB 302100@CAELT@METAR SLSB 302100Z 35008KT 8000 VCSH SCT020 FEW025CB 30/25 Q1006@CAELT@A2971 HR74 CB SH N SE S NW RWY NML=@CAELT@
ZPX0774 302054@CAELT@GG SLZZYMYT@CAELT@302054 SLSAYGYS@CAELT@SABO SLSA 302100@CAELT@METAR SLSA 302100Z 33007KT 7000 VCSH SCT017 FEW023CB BKN200 27/24@CAELT@Q1006 A2973 HR85 CB/SH E/SW/W=@CAELT@
ZPX0775 302055@CAELT@GG SLZZYMYT@CAELT@302053 SLRBYGYS@CAELT@SABO SLRB 302100@CAELT@METAR SLRB 302100Z 36004KT 9999 BKN020 FEW025CB 31/23 Q1010 A2983@CAELT@HR60 CB/NW/W RWY NML=@CAELT@
ZPX0776 302055@CAELT@GG SLZZYMYT@CAELT@302055 SLCOYSYX@CAELT@SABO SLCO 302100@CAELT@METAR SLCO 302100Z 36010KT 9999 FEW020 FEW023CB BKN200 33/24 Q1007@CAELT@A2976 980.4 HR60 CB/SH NE/E AC=@CAELT@
ZPX0777 302055@CAELT@GG SLZZYMYT@CAELT@302056 SLVRYGYZ@CAELT@SABO SLVR 302100@CAELT@METAR SLVR 302100Z 31005KT 9999 FEW020 FEW023TCU FEW030CB BKN200 32/@CAELT@23 Q1007 A2976 HR60 CB/E TCU/N NOSIG=@CAELT@
ZPX0779 302056@CAELT@GG SLZZYMYT@CAELT@302055 SLLPYGYZ@CAELT@SABO SLLP 302100@CAELT@METAR SLLP 302100Z 04015G25KT 9999 SCT020 FEW023CB BKN200 16/01@CAELT@Q1033 A3053 625.1 HR35 P93// CB/SH SW AC NOSIG=@CAELT@
ZPX0780 302056@CAELT@GG SLZZYMYT@CAELT@302056 SLTJYGYZ@CAELT@SABO SLTJ 302100@CAELT@METAR SLTJ 302100Z 21004KT 9999 SCT023 BKN070 BKN200 20/15 Q1020@CAELT@A3013 815.1 HR69=@CAELT@
ZPX0781 302056@CAELT@GG SLZZYMYT@CAELT@302056 SLRQYSYX@CAELT@SABO SLRQ 302100@CAELT@METAR SLRQ 302100Z 35004KT 9999 BKN020 FEW023CB BKN200 34/26 Q1005@CAELT@A2970 HR62 CB/E/SE/S=@CAELT@
ZPX0783 302057@CAELT@GG SLZZYMYT@CAELT@302056 SLCBYGYZ@CAELT@SABO SLCB 302100@CAELT@METAR SLCB 302100Z 33008KT 270V050 9999 FEW036 FEW040CB SCT070 OVC200@CAELT@26/05 Q1019 A3012 747.4 HR26 CB/SE/S/SW NOSIG=@CAELT@
ZPX0784 302057@CAELT@GG SLZZYMYT@CAELT@302037 SLETYMYC@CAELT@SABO SLET 302100@CAELT@METAR SLET 302100Z 29008KT 9999 FEW020 FEW030CB BKN200 32/821 Q1007@CAELT@A2976 HR53 CB NW/N/NE/S NOSIG=@CAELT@
ZPX0785 302058@CAELT@GG SLZZYMYT@CAELT@302056 SLTRYGYZ@CAELT@SABO SLTR 302100@CAELT@METAR SLTR 302100Z 34006KT 8000 VCSH FEW020 FEW023CB BKN200 29/25@CAELT@Q1006 A2972 987.9 HR80 CB N/NE/S/SW SH SW NOSIG=@CAELT@
ZPX0787 302058@CAELT@GG SLZZYMYT@CAELT@302058 SLCBYGYS@CAELT@SABO SLCB 302100@CAELT@METAR SLCB 302100Z 33008KT 270V050 9999 FEW036 FEW040CB SCT070 OVC200@CAELT@26/05 Q1019 A3012 747.4 HR26 CB/SE/S/SW NOSIG=@CAELT@METAR SLAL 302100Z 06018KT 9999 SCT017 FEW033CB BKN200 16/06 Q1028@CAELT@A3037 703.4 HR53 CB/W/NW AC=@CAELT@METAR SLPO 302100Z NIL=METAR SLAG 302100Z NIL=METAR SLVM 302100Z NIL=METAR SLTJ 302100Z 21004KT 9999 SCT023 BKN070 BKN200 20/15 Q1020A3013 815.1 HR69=METAR SLYA 302100Z NIL=METAR SLBJ 302100Z NIL=METAR SLHI 302100Z NIL=
ZPX0789 302059@CAELT@GG SLZZYMYT@CAELT@302059 SLVRYFYC@CAELT@SABO SLVR 302100@CAELT@METAR SLVR 302100Z 31005KT 9999 FEW020 FEW023TCU FEW030CB BKN200 32/@CAELT@23 Q1007 A2976 HR60 CB/E TCU/N NOSIG=@CAELT@METAR SLET 302100Z 29008KT 9999 FEW020 FEW030CB BKN200 32/21 Q1007@CAELT@A2976 HR53 CB NW/N/NE/S NOSIG=@CAELT@METAR SLAS 302100Z 36006KT 9999 FEW020 FEW030CB OVC200 31/24 Q1009A2980 HR65 CB/E/SW RWY NML=METAR SLJV 302100Z 36005KT 9999 SCT020 29/25 Q1008 A2977 HR78 RWY NMLMETAR SLCP 302100Z 36012KT 2000 RA BKN015 29/21 Q1011 A2985 HR64 RWYWET OPR=METAR SLSI 302100Z 00000KT 9999 SCT017 BKN200 34/22 Q1007 A2974 HR48RWY NML=METAR SLTI 302100Z 00000KT 9999 BKN020 OVC200 34/20 Q1011 A2985 HR45METAR SLJE 302100Z 00000KT 9999 FEW020 FEW030CB BKN200 33/22 Q1011A2985 HR55 CB/SW RWY NML=METAR SLVG 302100Z 18007KT 9999 FEW010 SCT020 OVC070 18/15 Q1024A3024 HR82 RWY NML=METAR SLRB 302100Z 36004KT 9999 BKN020 FEW025CB 31/23 Q1010 A2983HR60 CB/NW/W RWY NML=METAR SLPS 302100Z 00000KT 9999 SCT020 BKN200 33/24 Q1007 A2974 HR58=METAR SLCA 302100Z 00000KT 9999 SCT033 OVC200 27/19 Q1016 A3000 HR61
ZPX0790 302059@CAELT@GG SLZZYMYT@CAELT@302058 SLCAYGYS@CAELT@SABO SLCA 302100@CAELT@METAR SLCA 302100Z 00000KT 9999 SCT033 OVC200 27/19 Q1016 A3000 HR61@CAELT@RWY NML=@CAELT@
ZPX0792 302102@CAELT@GG SLZZYMYT@CAELT@302100 SLTRYGYS@CAELT@SABO SLTR 302100@CAELT@METAR SLTR 302100Z 34006KT 8000 VCSH FEW020 FEW023CB BKN200 29/25@CAELT@Q1006 A2972 987.9 HR80 CB N/NE/S/SW SH SW NOSIG=@CAELT@METAR SLGM 302100Z 21005KT 9999 SCT015 SCT080 BKN200 29/24 Q1008@CAELT@A2977 HR76=@CAELT@METAR SLRI 302100Z 32008KT 9999 SCT010 FEW020CB BKN070 28/23 Q1008A2978 HR75 CB/NW CI=METAR SLJO 302100Z NIL=METAR SLRA 302100Z 35006KT 9999 FEW020 BKN200 33/23 Q1006 A2973 HR57RWY NML=METAR SLMG 302100Z 32006KT 8000 TS VCSH FEW017 FWE023CB BKN200 32/23Q1007 A2974 HR61 CB/SH/TS NE/E RWY NML=METAR SLBU 302100Z 03014KT 6000 VCSH SCT017 FEW023CB BKN200 32/24Q1006 A2972 HR62 CB/SH NE/E RWY NML=METAR SLSA 302100Z 33007KT 7000 VCSH SCT017 FEW023CB BKN200 27/24Q1006 A2973 HR85 CB/SH E/SW/W=METAR SLSR 302100Z 36015G25KT 5000 -TSRA SCT015 FEW023CB BKN070BKN200 28/25 Q1006 A2972 HR85 CB N/NE/E/SE TS N RWY HUM OPR=METAR SLSM 302100Z 36004KT 9999 FEW020 SCT070 BKN200 27/23 Q1006A2971 HR82 RWY NML=
ZPX0794 302104@CAELT@GG SLZZYMYT@CAELT@302101 SLLPYFYA@CAELT@SABO SLLP 302100@CAELT@METAR SLLP 302100Z 04015G25KT 9999 SCT020 FEW023CB BKN200 16/01@CAELT@Q1033 A3053 625.1 HR35 P93// CB/SH SW AC NOSIG=@CAELT@METAR SLCO 302100Z 36010KT 9999 FEW020 FEW023CB BKN200 33/24 Q1007@CAELT@A2976 980.4 HR60 CB/SH NE/E AC=@CAELT@METAR SLRY 302100Z 00000KT 9999 FEW020 FEW027CB SCT200 32/25 Q1005A2970 HR63 CB/E RWY NML=METAR SLRQ 302100Z 35004KT 9999 BKN020 FEW023CB BKN200 34/26 Q1005A2970 HR62 CB/E/SE/S=METAR SLSB 302100Z 35008KT 8000 VCSH SCT020 FEW025CB 30/25 Q1006A2971 HR74 CB SH N SE S NW RWY NML=
ZPX0823 302151@CAELT@GG SLZZYMYT@CAELT@302150 SLCAYGYS@CAELT@SABO SLCA 302200@CAELT@METAR SLCA 302200Z 21005KT 9999 BKN033 BKN070 OVC200 25/18 Q1016@CAELT@A3000 HR64 RWY NML=@CAELT@
ZPX0824 302152@CAELT@GG SLZZYMYT@CAELT@302151 SLETYMYC@CAELT@SABO SLET 302200@CAELT@METAR SLET 302200Z 34008KT 9999 FEW020 FEW030CB BKN200 31/21 Q1008@CAELT@A2977 HR54 NOSIG=@CAELT@
ZPX0825 302154@CAELT@GG SLZZYMYT@CAELT@302152 SLETYMYC@CAELT@SABO SLET 302200@CAELT@METAR SLET 302200Z 34008KT 9999 FEW020 FEW030CB BKN200 31/21 Q1008@CAELT@A2977 HR54 CB NW/N/NE/S NOSIG=@CAELT@
ZPX0826 302154@CAELT@GG SLZZYMYT@CAELT@302153 SLPSYGYS@CAELT@SABO SLPS 302200@CAELT@METAR SLPS 302200Z 00000KT 9999 FEW020 BKN200 31/26 Q1008 A2977 HR73=@CAELT@
ZPX0827 302154@CAELT@GG SLZZYMYT@CAELT@302155 SLSBYSYX@CAELT@SABO SLSB 302200@CAELT@METAR SLSB 302200Z 32004KT 6000 VCSH SCT010 SCT020 FEW023CB BKN200 26@CAELT@/25 Q1006 A2971 HR92 RERA CB SH SE S RWY WET OPR C210=@CAELT@
ZPX0828 302154@CAELT@GG SLZZYMYT@CAELT@302153 SLRBYGYS@CAELT@SABO SLRB 302200@CAELT@METAR SLRB 302200Z 00000KT 9999 BKN020 28/22 Q1011 A2985 HR70 RWY NML=@CAELT@
ZPX0829 302155@CAELT@GG SLZZYMYT@CAELT@302155 SLVRYGYZ@CAELT@SABO SLVR 302200@CAELT@METAR SLVR 302200Z 36003KT 9999 FEW017 FEW030CB OVC200 31/22 Q1008@CAELT@A2979 HR59 CB N/NE/E NOSIG=@CAELT@
ZPX0830 302155@CAELT@GG SLZZYMYT@CAELT@302155 SLCOYSYX@CAELT@SABO SLCO 302200@CAELT@METAR SLCO 302200Z 03010KT 6000 VCSH FEW020 FEW023CB BKN200 32/25@CAELT@Q1007 A2975 980.0 HR63 CB/SH N/NE/E AC=@CAELT@
ZPX0831 302155@CAELT@GG SLZZYMYT@CAELT@302155 SLCBYGYZ@CAELT@SABO SLCB 302200@CAELT@METAR SLCB 302200Z 11012KT 9999 FEW036 FEW040CB SCT070 OVC200@CAELT@24/06 Q1020 A3013 747.8 HR31 CB/S/SW NOSIG=@CAELT@
ZPX0832 302155@CAELT@GG SLZZYMYT@CAELT@302155 SLTRYGYZ@CAELT@SABO SLTR 302200@CAELT@METAR SLTR 302200Z 34004KT 9999 FEW020 FEW023CB BKN200 28/25 Q1006@CAELT@A2974 988.5 HR83 CB N/NE/SW NOSIG=@CAELT@
ZPX0833 302156@CAELT@GG SLZZYMYT@CAELT@302156 SLVRYFYC@CAELT@SABO SLVR 302200@CAELT@METAR SLVR 302200Z 36003KT 9999 FEW017 FEW030CB OVC200 31/22 Q1008@CAELT@A2979 HR59 CB N/NE/E NOSIG=@CAELT@METAR SLET 302200Z 34008KT 9999 FEW020 FEW030CB BKN200 31/21 Q1008@CAELT@A2977 HR54 NOSIG=@CAELT@METAR SLAS 302200Z 00000KT 9999 FEW030CB BKN070 OVC200 30/24 Q1009A2980 HR70 CB/NE/E RWY NML=METAR SLJV 302200Z 00000KT 9999 BKN020 29/22 Q1011 A2985 HR79 RWY NMLMETAR SLCP 302200Z 27008KT 9999 BKN015 24/22 Q1012 A2988 HR90 RERARWY WET OPR=METAR SLSI 302200Z 00000KT 9999 SCT017 BKN200 33/21 Q1008 A2977 HR50RWY NML=METAR SLTI 302200Z 00000KT 9999 SCT020 OVC200 32/23 Q1011 A2985 HR57METAR SLJE 302200Z 00000KT 9999 FEW020 FEW030CB SCT070 BKN200 31/22Q1011 A2985 HR61 CB/SE/SW/NW RWY NML=METAR SLRB 302200Z 00000KT 9999 BKN020 28/22 Q1011 A2985 HR70 RWY NMLMETAR SLPS 302200Z 00000KT 9999 FEW020 BKN200 31/26 Q1008 A2977 HR73=METAR SLCA 302200Z 21005KT 9999 BKN033 BKN070 OVC200 25/18 Q1016A3000 HR64 RWY NML=
ZPX0834 302156@CAELT@GG SLZZYMYT@CAELT@302155 SLLPYGYZ@CAELT@SABO SLLP 302200@CAELT@METAR SLLP 302200Z 06013KT 9999 SCT020 FEW023CB BKN200 14/00@CAELT@Q1033 A3051 624.7 HR38 P94// CB/SH SW/W AC NOSIG=@CAELT@
ZPX0835 302156@CAELT@GG SLZZYMYT@CAELT@302156 SLSAYGYS@CAELT@SABO SLSA 302200@CAELT@METAR SLSA 302200Z 34005KT 9999 SCT017 FEW023CB BKN200 27/24 Q1006@CAELT@A2973 HR83 CB E=@CAELT@
ZPX0836 302157@CAELT@GG SLZZYMYT@CAELT@302155 SLRQYSYX@CAELT@SABO SLRQ 302200@CAELT@METAR SLRQ 302200Z 00000KT 9999 SCT020 FEW023CB BKN200 32/26 Q1005@CAELT@A2969 HR69 CB/E/SE=@CAELT@
ZPX0838 302158@CAELT@GG SLZZYMYT@CAELT@302158 SLTJYGYZ@CAELT@SABO SLTJ 302200@CAELT@METAR SLTJ 302200Z 00000KT 9999 FEW023 SCT070 BKN200 19/14 Q1020@CAELT@A3012 814.9 HR72=@CAELT@
ZPX0842 302201@CAELT@GG SLZZYMYT@CAELT@302200 SLCBYGYS@CAELT@SABO SLCB 302200@CAELT@METAR SLCB 302200Z 11012KT 9999 FEW036 FEW040CB SCT070 OVC200@CAELT@24/06 Q1020 A3013 747.8 HR31 CB/S/SW NOSIG=@CAELT@METAR SLAL 302200Z 05009KT 9999 FEW017 FEW033CB BKN200 15/07 Q1028@CAELT@A3038 703.3 HR59 CB/NW AC=@CAELT@METAR SLTJ 302200Z 00000KT 9999 FEW023 SCT070 BKN200 19/14 Q1020A3012 814.9 HR72=
ZPX0843 302201@CAELT@GG SLZZYMYT@CAELT@302159 SLLPYFYA@CAELT@SABO SLRY 302200@CAELT@METAR SLRY 302200Z 00000KT 9999 FEW020 FEW025CB BKN200 32/25@CAELT@Q1005 A2968 HR65 CB/NE RWY NML=@CAELT@
ZPX0845 302201@CAELT@GG SLZZYMYT@CAELT@302200 SLTRYGYS@CAELT@SABO SLTR 302200@CAELT@METAR SLTR 302200Z 34004KT 9999 FEW020 FEW023CB BKN200 28/25 Q1006@CAELT@A2974 988.5 HR83 CB N/NE/SW NOSIG=@CAELT@METAR SLGM 302200Z 00000KT 9999 SCT015 FEW020CB SCT080 BKN200 29/24@CAELT@Q1007 A2975 HR74 CB NE=@CAELT@METAR SLRI 302200Z 32006KT 9999 SCT012 FEW020CB BKN200 27/23 Q1009A2980 HR79 CB W=METAR SLJO 302200Z NIL=METAR SLRA 302200Z 36005KT 9999 FEW020 FEW023CB BKN200 31/23 Q1006A2973 HR61 CB NE RWY NML=METAR SLMG 302200Z 09008KT 5000 TS VCSH SCT015 FEW023CB BKN07026/22 Q1008 A2977 HR78 CB/TS/SH NE/E RWY NML=METAR SLBU 302200Z NIL=METAR SLSA 302200Z 34005KT 9999 SCT017 FEW023CB BKN200 27/24 Q1006A2973 HR83 CB E=METAR SLSR 302200Z 34006KT 7000 TS VCSH FEW015 FEW023CB BKN070OVC200 27/25 Q1003 A2964 HR90 RESHRA CB/SH SE/S TS SW RWY HUM OPR=METAR SLSM 302200Z 00000KT 9999 SCT070 BKN200 26/23 Q1005 A2969HR84 RWY NML=
ZPX0847 302202@CAELT@GG SLZZYMYT@CAELT@302200 SLLPYFYA@CAELT@SABO SLLP 302200@CAELT@METAR SLLP 302200Z 06013KT 9999 SCT020 FEW023CB BKN200 14/00@CAELT@Q1033 A3051 624.7 HR38 P94// CB/SH SW/W AC NOSIG=@CAELT@METAR SLCO 302200Z 03010KT 6000 VCSH FEW020 FEW023CB BKN200 32/25@CAELT@Q1007 A2975 980.0 HR63 CB/SH N/NE/E AC=@CAELT@METAR SLRY 302200Z 00000KT 9999 FEW020 FEW025CB BKN200 32/25Q1005 A2968 HR65 CB/NE RWY NML=METAR SLRQ 302200Z 00000KT 9999 SCT020 FEW023CB BKN200 32/26 Q1005A2969 HR69 CB/E/SE=METAR SLSB 302200Z 32004KT 6000 VCSH SCT010 SCT020 FEW023CB BKN20026/25 Q1006 A2971 HR92 RERA CB SH SE S RWY WET OPR C210=
ZPX0870 302254@CAELT@GG SLZZYMYT@CAELT@302253 SLRBYGYS@CAELT@SABO SLRB 302300@CAELT@METAR SLRB 302300Z 00000KT 9999 BKN020 27/23 Q1012 A2988 HR78 RWY NML=@CAELT@
ZPX0871 302254@CAELT@GG SLZZYMYT@CAELT@302255 SLSBYSYX@CAELT@SABO SLSB 302300@CAELT@METAR SLSB 302300Z 00000KT 8000 VCSH SCT015 SCT070 BKN200 26/25 Q1006@CAELT@A2973 HR94 SH SE S RWY WET OPR C210=@CAELT@
ZPX0873 302255@CAELT@GG SLZZYMYT@CAELT@302254 SLCAYGYS@CAELT@SABO SLCA 302300@CAELT@METAR SLCA 302300Z 00000KT 9999 SCT033 OVC070 24/19 Q1015 A2997 HR74@CAELT@RWY NML=@CAELT@
ZPX0874 302255@CAELT@GG SLZZYMYT@CAELT@302254 SLSAYGYS@CAELT@SABO SLSA 302300@CAELT@METAR SLSA 302300Z 00000KT 9999 FEW017 FEW023CB BKN200 26/24 Q1007@CAELT@A2974 HR86 CB E=@CAELT@
ZPX0875 302255@CAELT@GG SLZZYMYT@CAELT@302254 SLSAYGYS@CAELT@SABO SLSA 302300@CAELT@METAR SLSA 302300Z 00000KT 9999 FEW017 FEW023CB BKN200 26/24 Q1007@CAELT@A2974 HR86 CB E=@CAELT@
ZPX0876 302255@CAELT@GG SLZZYMYT@CAELT@302255 SLCOYSYX@CAELT@SABO SLCO 302300@CAELT@METAR SLCO 302300Z 35009KT 6000 VCSH FEW020 FEW023CB SCT080 BKN200 31@CAELT@/25 Q1006 A2971 978.9 HR70 CB/SH N/NE/E=@CAELT@
ZPX0877 302255@CAELT@GG SLLPZRZX@CAELT@302255 SLLPYGYZ@CAELT@SABO SLLP 302300@CAELT@METAR SLLP 302300Z 05014KT 9999 SCT017 FEW020CB BKN200 12/02@CAELT@Q1034 A3055 625.6 HR51 CB/LT S/SW AC NOSIG=@CAELT@
ZPX0879 302256@CAELT@GG SLZZYMYT@CAELT@302255 SLTJYGYZ@CAELT@SABO SLTJ 302300@CAELT@METAR SLTJ 302300Z 00000KT 9999 FEW027 SCT070 BKN200 19/15 Q1019@CAELT@A3011 814.7 HR81=@CAELT@
ZPX0880 302256@CAELT@GG SLZZYMYT@CAELT@302255 SLTRYGYZ@CAELT@SABO SLTR 302300@CAELT@METAR SLTR 302300Z 00000KT 9999 FEW020 FEW023CB BKN200 27/25 Q1007@CAELT@A2975 989.0 HR88 CB N/NE/SW NOSIG=@CAELT@
ZPX0881 302257@CAELT@GG SLZZYMYT@CAELT@302257 SLVRYGYZ@CAELT@SABO SLVR 302300@CAELT@METAR SLVR 302300Z VRB02KT 9999 FEW017 FEW030CB SCT070 BKN200 29/23@CAELT@Q1009 A2980 HR67 CB/SE NOSIG=@CAELT@
ZPX0883 302258@CAELT@GG SLZZYMYT@CAELT@302258 SLVRYFYC@CAELT@SABO SLVR 302300@CAELT@METAR SLVR 302300Z VRB02KT 9999 FEW017 FEW030CB SCT070 BKN200 29/23@CAELT@Q1009 A2980 HR67 CB/SE NOSIG=@CAELT@METAR SLSI 302300Z 00000KT 9999 SCT017 BKN200 31/22 Q1008 A2977 HR58@CAELT@RWY NML=@CAELT@METAR SLRB 302300Z 00000KT 9999 BKN020 27/23 Q1012 A2988 HR78 RWY NMLMETAR SLCA 302300Z 00000KT 9999 SCT033 OVC070 24/19 Q1015 A2997 HR74
ZPX0884 302258@CAELT@GG SLZZYMYT@CAELT@302257 SLCBYGYZ@CAELT@SABO SLCB 302300@CAELT@METAR SLCB 302300Z 10012KT 070V170 9999 FEW033 FEW036CB SCT070 OVC200@CAELT@22/07 Q1021 A3017 748.7 HR38 CB DIST/S/SW NOSIG=@CAELT@
ZPX0885 302259@CAELT@GG SLZZYMYT@CAELT@302258 SLTRYGYS@CAELT@SABO SLTR 302300@CAELT@METAR SLTR 302300Z 00000KT 9999 FEW020 FEW023CB BKN200 27/25 Q1007@CAELT@A2975 989.0 HR88 CB N/NE/SW NOSIG=@CAELT@METAR SLGM 302300Z NIL=@CAELT@METAR SLRI 302300Z 32005KT 9999 SCT010 FEW020CB BKN070 BKN200 26/23@CAELT@Q1008 A2979 HR86 CB/NW=METAR SLMG 302300Z32004KT 8000 VCSH FEW020 FEW23CB BKN070 24/23 Q1008A2978 HR95 RETS CB/SH SW RWY HUM OPR=METAR SLSA 302300Z 00000KT 9999 FEW017 FEW023CB BKN200 26/24 Q1007A2974 HR86 CB E=
ZPX0886 302259@CAELT@GG SLZZYMYT@CAELT@302259 SLCBYGYS@CAELT@SABO SLCB 302300@CAELT@METAR SLCB 302300Z 10012KT 070V170 9999 FEW033 FEW036CB SCT070 OVC200@CAELT@22/07 Q1021 A3017 748.7 HR38 CB DIST/S/SW NOSIG=@CAELT@METAR SLAL 302300Z 01007KT 9999 FEW017 FEW033CB BKN200 13/07 Q1029@CAELT@A3039 703.7 HR67 CB/SW AC=@CAELT@METAR SLTJ 302300Z 00000KT 9999 FEW027 SCT070 BKN200 19/15 Q1019A3011 814.7 HR81=
ZPX0890 302305@CAELT@GG SLZZYMYT@CAELT@302301 SLLPYFYA@CAELT@SABO SLLP 302300@CAELT@METAR SLLP 302300Z 05014KT 9999 SCT017 FEW020CB BKN200 12/02@CAELT@Q1034 A3055 625.6 HR51 CB/LT S/SW AC NOSIG=@CAELT@METAR SLCO 302300Z 35009KT 6000 VCSH FEW020 FEW023CB SCT080 BKN200 31@CAELT@/25 Q1006 A2971 978.9 HR70 CB/SH N/NE/E=@CAELT@METAR SLSB 302300Z 00000KT 8000 VCSH SCT015 SCT070 BKN200 26/25 Q1006A2973 HR94 SH SE S RWY WET OPR C210=
ZPX0904 302357@CAELT@GG SLZZYMYT@CAELT@302357 SLVRYGYZ@CAELT@SABO SLVR 010000@CAELT@METAR SLVR 010000Z 17009KT 9999 SCT020 BKN070 BKN200 29/22 Q1011@CAELT@A2987 HR65 NOSIG=@CAELT@
ZPX0905 302357@CAELT@GG SLZZYMYT@CAELT@302356 SLCBYGYZ@CAELT@SABO SLCB 010000@CAELT@METAR SLCB 010000Z 11015KT 9999 FEW033 FEW036CB SCT070 OVC200 21/07@CAELT@Q1023 A3021 749.9 HR39 CB LT/N/NE NOSIG=@CAELT@
