
ZPX0022 170055@CAELT@GG SLZZYMYT@CAELT@170055 SLVRYGYZ@CAELT@SABO SLVR 170100@CAELT@METAR SLVR 170100Z VRB02KT 9999 NSC 25/21 Q1008 A2978 HR77 CI NOSIG=@CAELT@
ZPX0023 170055@CAELT@GG SLZZYMYT@CAELT@170055 SLCBYGYZ@CAELT@SABO SLCB 170100@CAELT@METAR SLCB 170100Z 09006KT 9999 FEW033 SCT200 20/04 Q1020 A3013@CAELT@747.7 HR35 FU NOSIG=@CAELT@
ZPX0024 170058@CAELT@GG SLLPZRZX@CAELT@170055 SLLPYGYZ@CAELT@SABO SLLP 170100@CAELT@METAR SLLP 170100Z 06007KT 9999 FEW013 BKN200 08/01 Q1035 A3058@CAELT@626.4 HR62 AC NOSIG=@CAELT@
ZPX0035 170154@CAELT@GG SLZZYMYT@CAELT@170155 SLVRYGYZ@CAELT@SABO SLVR 170200@CAELT@METAR SLVR 170200Z 00000KT 9999 NSC 24/21 Q1010 A2982 HR79 CI NOSIG=@CAELT@
ZPX0037 170156@CAELT@GG SLLPZRZX@CAELT@170155 SLLPYGYZ@CAELT@SABO SLLP 170200@CAELT@METAR SLLP 170200Z 10007KT 9999 FEW013 BKN200 08/02 Q1036 A3061 627.1@CAELT@HR65 AC NOSIG=@CAELT@
ZPX0038 170156@CAELT@GG SLZZYMYT@CAELT@170156 SLCBYGYZ@CAELT@SABO SLCB 170200@CAELT@METAR SLCB 170200Z 31003KT 9999 FEW033 19/05 Q1021 A3017 748.9 HR38@CAELT@FU CI NOSIG=@CAELT@
ZPX0045 170254@CAELT@GG SLZZYMYT@CAELT@170255 SLVRYGYZ@CAELT@SABO SLVR 170300@CAELT@METAR SLVR 170300Z 18008KT 9999 SCT070 25/21 Q1010 A2985 HR76 CI@CAELT@NOSIG=@CAELT@
ZPX0046 170255@CAELT@GG SLZZYMYT@CAELT@170255 SLCBYGYZ@CAELT@SABO SLCB 170300@CAELT@METAR SLCB 170300Z 21003KT 9999 NSC 17/06 Q1022 A3019 749.2 HR47 FU@CAELT@CI NOSIG=@CAELT@
ZPX0047 170257@CAELT@GG SLLPZRZX@CAELT@170257 SLLPYGYZ@CAELT@SABO SLLP 170300@CAELT@METAR SLLP 170300Z 09005KT 060V120 9999 FEW013 BKN200 06/02 Q1037@CAELT@A3064 627.7 HR72 AC NOSIG=@CAELT@
ZPX0057 170354@CAELT@GG SLZZYMYT@CAELT@170355 SLVRYGYZ@CAELT@SABO SLVR 170400@CAELT@METAR SLVR 170400Z 17015KT 9999 BKN017 26/21 Q1010 A2984 HR73 AC@CAELT@NOSIG=@CAELT@
ZPX0058 170355@CAELT@GG SLLPZRZX@CAELT@170355 SLLPYGYZ@CAELT@SABO SLLP 170400@CAELT@METAR SLLP 170400Z 08007KT 9999 FEW010 SCT200 05/02 Q1037 A3064@CAELT@627.7 HR82 AC NOSIG=@CAELT@
ZPX0059 170357@CAELT@GG SLZZYMYT@CAELT@170357 SLCBYGYZ@CAELT@SABO SLCB 170400@CAELT@METAR SLCB 170400Z 09004KT 9999 NSC 17/03 Q1021 A3016 748.5 HR39 FU@CAELT@CI NOSIG=@CAELT@
ZPX0068 170455@CAELT@GG SLZZYMYT@CAELT@170455 SLVRYGYZ@CAELT@SABO SLVR 170500@CAELT@METAR SLVR 170500Z 18016KT 9999 SCT017 SCT070 25/21 Q1010 A2983 HR75@CAELT@NOSIG=@CAELT@
ZPX0069 170455@CAELT@GG SLLPZRZX@CAELT@170455 SLLPYGYZ@CAELT@SABO SLLP 170500@CAELT@METAR SLLP 170500Z 07007KT 9999 FEW004 SCT200 04/02 Q1037 A3062@CAELT@627.3 HR87 AC NOSIG=@CAELT@
ZPX0070 170457@CAELT@GG SLZZYMYT@CAELT@170457 SLCBYGYZ@CAELT@SABO SLCB 170500@CAELT@METAR SLCB 170500Z 18003KT 9999 FEW036CB SCT200 16/04 Q1021 A3015 748@CAELT@.3 HR44 CB/LT DIST/NE/E NOSIG=@CAELT@
ZPX0077 170554@CAELT@GG SLZZYMYT@CAELT@170555 SLVRYGYZ@CAELT@SABO SLVR 170600@CAELT@METAR SLVR 170600Z 17010G21KT 9999 SCT017 BKN070 25/21 Q1010 A2982@CAELT@HR77 NOSIG=@CAELT@
ZPX0078 170556@CAELT@GG SLLPZRZX@CAELT@170557 SLLPYGYZ@CAELT@SABO SLLP 170600@CAELT@METAR SLLP 170600Z 09004KT 9999 FEW004 SCT200 02/01 Q1036 A3060 626.7@CAELT@HR90 NOSIG=@CAELT@
ZPX0079 170556@CAELT@GG SLZZYMYT@CAELT@170556 SLCBYGYZ@CAELT@SABO SLCB 170600@CAELT@METAR SLCB 170600Z 31003KT 9999 FEW036CB SCT200 16/06 Q1020 A3014 748@CAELT@.1 HR50 CB/LT DIST/NE/E NOSIG=@CAELT@
ZPX0088 170655@CAELT@GG SLZZYMYT@CAELT@170656 SLVRYGYZ@CAELT@SABO SLVR 170700@CAELT@METAR SLVR 170700Z 17010G22KT 9999 SCT017 FEW030CB BKN070 24/20 Q1009@CAELT@A2982 HR78 CB/LT N/NW TEMPO RA=@CAELT@
ZPX0089 170656@CAELT@GG SLLPZRZX@CAELT@170655 SLLPYGYZ@CAELT@SABO SLLP 170700@CAELT@METAR SLLP 170700Z 08004KT 9999 FEW004 SCT200 02/00 Q1035 A3057 626.2@CAELT@HR90 NOSIG=@CAELT@
ZPX0090 170657@CAELT@GG SLZZYMYT@CAELT@170656 SLCBYGYZ@CAELT@SABO SLCB 170700@CAELT@METAR SLCB 170700Z 03003KT 9999 FEW036CB SCT200 16/06 Q1020 A3014 747@CAELT@.9 HR51 CB/LT DIST/NE/E NOSIG=@CAELT@
ZPX0097 170755@CAELT@GG SLZZYMYT@CAELT@170756 SLVRYGYZ@CAELT@SABO SLVR 170800@CAELT@METAR SLVR 170800Z 18011KT 9999 SCT020 FEW030CB BKN070 24/20 Q1010@CAELT@A2984 HR79 CB/LT NW NOSIG=@CAELT@
ZPX0098 170755@CAELT@GG SLZZYMYT@CAELT@170755 SLCBYGYZ@CAELT@SABO SLCB 170800@CAELT@METAR SLCB 170800Z 25003KT 9999 FEW036CB 14/07 Q1020 A3014 747.9 HR64@CAELT@CB/LT DIST/NE CI NOSIG=@CAELT@
ZPX0099 170755@CAELT@GG SLLPZRZX@CAELT@170755 SLLPYGYZ@CAELT@SABO SLLP 170800@CAELT@METAR SLLP 170800Z 03003KT 9999 FEW005 SCT200 02/M05 Q1034 A3056 625.@CAELT@9 HR62 NOSIG=@CAELT@
ZPX0112 170854@CAELT@GG SLZZYMYT@CAELT@170855 SLVRYGYZ@CAELT@SABO SLVR 170900@CAELT@METAR SLVR 170900Z 20009KT 9000 -TSRA SCT020 FEW030CB BKN070 24/21@CAELT@Q1010 A2984 HR80 CB/TS/LT NE/NW NOSIG=@CAELT@
ZPX0113 170855@CAELT@GG SLZZYMYT@CAELT@170854 SLPSYGYS@CAELT@SABO SLPS 170900@CAELT@METAR SLPS 170900Z 00000KT 9999 FEW020 SCT030 BKN200 25/24 Q1009@CAELT@A2980 HR93=@CAELT@
ZPX0114 170856@CAELT@GG SLLPZRZX@CAELT@170855 SLLPYGYZ@CAELT@SABO SLLP 170900@CAELT@METAR SLLP 170900Z VRB02KT 9999 FEW005 SCT200 03/M08 Q1035 A3057 626.@CAELT@0 HR47 NOSIG=@CAELT@
ZPX0115 170856@CAELT@GG SLZZYMYT@CAELT@170856 SLCBYGYZ@CAELT@SABO SLCB 170900@CAELT@METAR SLCB 170900Z 00000KT 9999 FEW036CB 13/07 Q1020 A3014 748.1 HR66@CAELT@CB/LT DIST/NE CI NOSIG=@CAELT@
ZPX0116 170857@CAELT@GG SLZZYMYT@CAELT@170857 SLTRYGYZ@CAELT@SABO SLTR 170900@CAELT@METAR SLTR 170900Z 00000KT 9999 NSC 25/24 Q1007 A2976 989.3 HR94@CAELT@CI NOSIG=@CAELT@
ZPX0117 170859@CAELT@GG SLZZYMYT@CAELT@170859 SLTRYGYS@CAELT@SABO SLTR 170900@CAELT@METAR SLTR 170900Z 00000KT 9999 NSC 25/24 Q1007 A2976 989.3 HR94@CAELT@CI NOSIG=@CAELT@METAR SLRI 170900Z 00000KT 8000 FEW020 SCT080 24/24 Q1009 A2980 HR98@CAELT@
ZPX0133 170951@CAELT@GG SLZZYMYT@CAELT@170950 SLCAYGYS@CAELT@SABO SLCA 171000@CAELT@METAR SLCA 171000Z 00000KT 2000 -DZ BKN005 OVC070 20/19 Q1015 A2997@CAELT@HR95 RWY HUM OPR=@CAELT@
ZPX0134 170954@CAELT@GG SLZZYMYT@CAELT@170953 SLRBYGYS@CAELT@SABO SLRB 171000@CAELT@METAR SLRB 171000Z 00000KT 9999 OVC015 25/23 Q1012 A2988 HR88 RWY NML=@CAELT@
ZPX0136 170954@CAELT@GG SLZZYMYT@CAELT@170955 SLSBYSYX@CAELT@SABO SLSB 171000@CAELT@METAR SLSB 171000Z 00000KT 9999 NSC 24/23 Q1007 A2974 HR94 AC RWY NML=@CAELT@
ZPX0137 170955@CAELT@GG SLZZYMYT@CAELT@170954 SLSAYGYS@CAELT@SABO SLSA 171000@CAELT@METAR SLSA 171000Z 00000KT 9999 BKN080 24/24 Q1007 A2975 HR98=@CAELT@
ZPX0138 170955@CAELT@GG SLZZYMYT@CAELT@170954 SLSAYGYS@CAELT@SABO SLSA 171000@CAELT@METAR SLSA 171000Z 00000KT 9999 BKN080 24/24 Q1007 A2975 HR98=@CAELT@
ZPX0139 170955@CAELT@GG SLZZYMYT@CAELT@170955 SLRQYSYX@CAELT@SABO SLRQ 171000@CAELT@METAR SLRQ 171000Z 00000KT 9999 FEW015 BKN070 24/24 Q1007 A2975 HR99=@CAELT@
ZPX0140 170955@CAELT@GG SLZZYMYT@CAELT@170952 SLETYMYC@CAELT@SABO SLET 171000@CAELT@METAR SLET 171000Z 19008KT 9000 -TSRA FEW010 BKN017 FEW030CB OVC070@CAELT@24/20 Q1010 A2983 CB/TS N/NW TEMPO 5000=@CAELT@
ZPX0141 170956@CAELT@GG SLZZYMYT@CAELT@170955 SLUYYGYS@CAELT@SABO SLUY 171000@CAELT@METAR SLUY 171000Z VRB02KT 9999 NSC M05/M17 Q1031 A3046@CAELT@656.6 HR40 CI FU=@CAELT@
ZPX0142 170956@CAELT@GG SLZZYMYT@CAELT@170956 SLTRYGYZ@CAELT@SABO SLTR 171000@CAELT@METAR SLTR 171000Z 00000KT 9999 NSC 25/24 Q1008 A2977 989.5 HR95@CAELT@AC/CI NOSIG=@CAELT@
ZPX0143 170956@CAELT@GG SLZZYMYT@CAELT@170955 SLLPYGYZ@CAELT@SABO SLLP 171000@CAELT@METAR SLLP 171000Z 35003KT 9999 FEW005 SCT200 04/M11 Q1035 A3058 626.@CAELT@4 HR33 P90// NOSIG=@CAELT@
ZPX0144 170956@CAELT@GG SLZZYMYT@CAELT@170956 SLCBYGYZ@CAELT@SABO SLCB 171000@CAELT@METAR SLCB 171000Z 00000KT 9999 FEW036 SCT200 11/07 Q1021 A3016 748.6@CAELT@HR74 AC FU NOSIG=@CAELT@
ZPX0145 170956@CAELT@GG SLZZYMYT@CAELT@170956 SLCOYGYZ@CAELT@SABO SLCO 171000@CAELT@METAR SLCO 171000Z 31003KT 9999 BKN080 23/22 Q1009 A2981 982.1 HR91@CAELT@
ZPX0146 170957@CAELT@GG SLZZYMYT@CAELT@170956 SLPSYGYS@CAELT@SABO SLPS 171000@CAELT@METAR SLPS 171000Z 00000KT 9999 SCT017 FEW030CB OVC200 26/25 Q1010@CAELT@A2980 HR91 CB/N=@CAELT@
ZPX0148 170959@CAELT@GG SLZZYMYT@CAELT@170959 SLCBYGYS@CAELT@SABO SLCB 171000@CAELT@METAR SLCB 171000Z 00000KT 9999 FEW036 SCT200 11/07 Q1021 A3016 748.6@CAELT@HR74 AC FU NOSIG=@CAELT@METAR SLAL 171000Z 34005KT 9999 SCT013 BKN200 11/10 Q1026 A3032 701.6@CAELT@HR90=@CAELT@
ZPX0150 171000@CAELT@GG SLZZYMYT@CAELT@171000 SLLPYFYA@CAELT@SABO SLRY 171000@CAELT@METAR SLRY 1710000Z 00000KT 9999 FEW080 22/22 Q1007 A2974 HR98 RWY@CAELT@NML=@CAELT@
ZPX0151 171000@CAELT@GG SLZZYMYT@CAELT@171000 SLVRYGYU@CAELT@SABO SLVR 171000@CAELT@METAR SLVR 170800Z 01004KT 7000 TSVCSH SCT020 FEW030CB BKN070 22/21@CAELT@Q1010 A2985 HR89 CB/TS/LT NE/E/NW NOSIG=@CAELT@
ZPX0152 171000@CAELT@GG SLZZYMYT@CAELT@171000 SLVRYGYU@CAELT@SABO SLVR 171000@CAELT@METAR SLVR 170800Z 01004KT 7000 TSVCSH SCT020 FEW030CB BKN070 22/21@CAELT@Q1010 A2985 HR89 CB/TS/LT NE/E/NW NOSIG=@CAELT@
ZPX0153 171001@CAELT@GG SLZZYMYT@CAELT@171000 SLLPYFYA@CAELT@SABO SLLP 171000@CAELT@METAR SLLP 171000Z 35003KT 9999 FEW005 SCT200 04/M11 Q1035 A3058@CAELT@626.4 HR33 P90// NOSIG=@CAELT@METAR SLCO 171000Z 31003KT 9999 BKN080 23/22 Q1009 A2981 982.1 HR91@CAELT@METAR SLRY 171000Z 00000KT 9999 FEW080 22/22 Q1007 A2973 HR98@CAELT@RWY NML=METAR SLRQ 171000Z 00000KT 9999 FEW015 BKN070 24/24 Q1007 A2975HR99=METAR SLAP 171000Z 00000KT 7000 FEW070 16/16 Q1015 A3000 856.7HR99 BR CI=METAR SLSB 171000Z 00000KT 9999 NSC 24/23 Q1007 A2974 HR94 ACMETAR SLUY 171000Z VRB02KT 9999 NSC M05/M17 Q1031 A3046656.6 HR40 CI FU=
ZPX0154 171001@CAELT@GG SLZZYMYT@CAELT@171000 SLTRYGYS@CAELT@SABO SLTR 171000@CAELT@METAR SLTR 171000Z 00000KT 9999 NSC 25/24 Q1008 A2977 989.5 HR95@CAELT@AC/CI NOSIG=@CAELT@METAR SLGM 171000Z 02004KT 9999 SCT012 BKN080 25/23 Q1009 A2980 HR94=@CAELT@METAR SLRI 171000Z 06005KT 8000 FEW020 BKN200 24/24 Q1010 A2983 HR98@CAELT@METAR SLJO 171000Z NIL=METAR SLRA 171000Z 06003KT 9999 NSC 25/24 Q1008 A2977 HR92 AC/CIRWY NML=METAR SLMG 171000Z 00000KT 9999 SCT080 24/23 Q1009 A2980 HR94METAR SLBU 171000Z NIL=METAR SLSA 171000Z 00000KT 9999 BKN080 24/24 Q1007 A2975 HR98=METAR SLSR 171000Z 32008KT 9999 NSC 24/23 Q1005 A2970 HR92 CIMETAR SLSM 171000Z 00000KT 9999 SCT015 BKN200 24/24 Q1007 A2975HR98 RWY WET INOP=
ZPX0155 171001@CAELT@GG SLZZYMYT@CAELT@171001 SLVRYGYU@CAELT@SABO SLVR 171000 CCA@CAELT@METAR COR SLVR 171000Z 01004KT 7000 TSVCSH SCT020 FEW030CB BKN070 22/@CAELT@21 Q1010 A2985 HR89 CB/TS/LT NE/E/NW NOSIG=@CAELT@
ZPX0158 171013@CAELT@GG SLZZYMYT@CAELT@171013 SLVRYFYC@CAELT@SABO SLVR 171000@CAELT@METAR SLVR 171000Z 01004KT 7000 TSVCSH SCT020 FEW030CB BKN070@CAELT@22/21 Q1010 A2985 HR89 CB/TS/LT NE/E/NW NOSIG=@CAELT@METAR SLET 171000Z 19008KT 9000 -TSRA FEW010 BKN017 FEW030CB OVC070@CAELT@24/20 Q1010 A2983 CB/TS N/NW TEMPO 5000=@CAELT@METAR SLCP 171000Z 00000KT 9999 OVC070 24/21 Q1013 A2991 HR84 RWY NMLMETAR SLSI 171000Z NIL=METAR SLRB 171000Z 00000KT 9999 OVC015 25/23 Q1012 A2988 HR88 RWY NMLMETAR SLPS 171000Z 00000KT 9999 SCT017 FEW030CB OVC200 26/25 Q1010A2980 HR91 CB/N=METAR SLCA 171000Z 00000KT 2000 -DZ BKN005 OVC070 20/19 Q1015 A2997HR95 RWY HUM OPR=
ZPX0160 171016@CAELT@GG SLZZYMYT@CAELT@171016 SLVRYFYC RRA@CAELT@SABO SLSI 171000 RTD@CAELT@METAR SLSI 171000Z 00000KT 9999 SCT017 23/22 Q1011 A2985 HR91 RWY NML@CAELT@
ZPX0174 171052@CAELT@GG SLZZYMYT@CAELT@171051 SLPSYGYS@CAELT@SABO SLPS 171100@CAELT@METAR SLPS 171100Z 00000KT 9999 FEW017 SCT070 OVC200 27/26 Q1009@CAELT@A2980 HR90=@CAELT@
ZPX0175 171052@CAELT@GG SLZZYMYT@CAELT@171051 SLCAYGYS@CAELT@SABO SLCA 171100@CAELT@METAR SLCA 171100Z 00000KT 2000 -DZ BKN005 OVC070 20/19 Q1016 A3000@CAELT@HR95 RWY HUM OPR=@CAELT@
ZPX0176 171052@CAELT@GG SLZZYMYT@CAELT@171051 SLCOYGYZ@CAELT@SABO SLCO 171100@CAELT@METAR SLCO 171100Z 32004KT 9999 BKN080 25/23 Q1009 A2982 982.5 HR88@CAELT@
ZPX0178 171053@CAELT@GG SLZZYMYT@CAELT@171053 SLVRYGYZ@CAELT@SABO SLVR 171100@CAELT@METAR SLVR 171100Z 13005KT 8000 VCSH SCT017 FEW030CB BKN070 22/21@CAELT@Q1011 A2986 HR91 RETS CB/SH E/S NOSIG=@CAELT@
ZPX0180 171053@CAELT@GG SLZZYMYT@CAELT@171050 SLETYMYC@CAELT@SABO SLET 171100@CAELT@METAR SLET 171100Z 18007KT 7000 VCSH FEW008 BKN017 FEW030CB OVC070 23@CAELT@/20 Q1011 A2987 HR86 C N/NE/NW SH S/SW/SE RETS TEMPO 5000 RA=@CAELT@
ZPX0181 171054@CAELT@GG SLZZYMYT@CAELT@171053 SLRBYGYS@CAELT@SABO SLRB 171100@CAELT@METAR SLRB 171100Z 00000KT 9999 OVC013 25/23 Q1012 A2988 HR88 RWY NML=@CAELT@
ZPX0183 171054@CAELT@GG SLZZYMYT@CAELT@171055 SLSBYSYX@CAELT@SABO SLSB 171100@CAELT@METAR SLSB 171100Z 35003KT 9999 NSC 25/23 Q1007 A2975 HR91 CI RWY NML=@CAELT@
ZPX0184 171054@CAELT@GG SLZZYMYT@CAELT@171054 SLSAYGYS@CAELT@SABO SLSA 171100@CAELT@METAR SLSA 171100Z 33005KT 9999 SCT080 BKN200 25/24 Q1008 A2977 HR94=@CAELT@
ZPX0185 171054@CAELT@GG SLZZYMYT@CAELT@171055 SLLPYFYA@CAELT@SABO SLRY 171100@CAELT@METAR SLRY 171100Z 00000KT 9999 FEW080 24/23 Q1007 A2978 HR94@CAELT@RWY NML=@CAELT@
ZPX0187 171055@CAELT@GG SLZZYMYT@CAELT@171055 SLLPYGYZ@CAELT@SABO SLLP 171100@CAELT@METAR SLLP 171100Z VRB02KT 9999 FEW008 BKN200 06/M06 Q1036 A3061 626.@CAELT@9 HR41 P90// HZ W AC NOSIG=@CAELT@
ZPX0188 171055@CAELT@GG SLZZYMYT@CAELT@171053 SLUYYGYS@CAELT@SABO SLUY 171100@CAELT@METAR SLUY 171100Z VRB02KT 9999 NSC 04/M11 Q1031 A3047@CAELT@656.8 HR34 CI=@CAELT@
ZPX0189 171055@CAELT@GG SLZZYMYT@CAELT@171055 SLORYGYZ@CAELT@SABO SLOR 171100@CAELT@METAR SLOR 171100Z 03004KT 8000 NSC 03/M04 Q1033 A3052 655.0 HR61 VIS@CAELT@RED FU N/NE/E/SE/S CI=@CAELT@
ZPX0191 171056@CAELT@GG SLZZYMYT@CAELT@171056 SLCBYGYZ@CAELT@SABO SLCB 171100@CAELT@METAR SLCB 171100Z 11003KT 9999 FEW036 BKN200 14/07 Q1022 A3020 749.6@CAELT@HR63 FU NOSIG=@CAELT@
ZPX0192 171056@CAELT@GG SLZZYMYT@CAELT@171056 SLTRYGYZ@CAELT@SABO SLTR 171100@CAELT@METAR SLTR 171100Z 36004KT 9999 NSC 25/24 Q1008 A2978 990.0 HR94@CAELT@AC/CI NOSIG=@CAELT@
ZPX0193 171056@CAELT@GG SLZZYMYT@CAELT@171055 SLRQYSYX@CAELT@SABO SLRQ 171100@CAELT@METAR SLRQ 171100Z 00000KT 9999 FEW013 BKN070 25/24 Q1007 A2976 HR95=@CAELT@
ZPX0194 171057@CAELT@GG SLZZYMYT@CAELT@171057 SLLPYFYA@CAELT@SABO SLLP 171100@CAELT@METAR SLLP 171100Z VRB02KT 9999 FEW008 BKN200 06/M06 Q1036 A3061@CAELT@626.9 HR41 P90// HZ W AC NOSIG=@CAELT@METAR SLCO 171100Z 32004KT 9999 BKN080 25/23 Q1009 A2982 982.5 HR88@CAELT@METAR SLRY 171100Z 00000KT 9999 FEW080 24/23 Q1007 A2978 HR94@CAELT@RWY NML=METAR SLRQ 171100Z 00000KT 9999 FEW013 BKN070 25/24 Q1007 A2976HR95=METAR SLAP 171100Z 00000KT 9999 FEW070 17/16 Q1016 A3002 857.4 HR96CI=METAR SLSB 171100Z 35003KT 9999 NSC 25/23 Q1007 A2975 HR91 CIMETAR SLOR 171100Z 03004KT 8000 NSC 03/M04 Q1033 A3052 655.0 HR61VIS RED FU N/NE/E/SE/S CI=METAR SLUY 171100Z VRB02KT 9999 NSC 04/M11 Q1031 A3047 656.8 HR34
ZPX0197 171058@CAELT@GG SLZZYMYT@CAELT@171058 SLTRYGYS@CAELT@SABO SLTR 171100@CAELT@METAR SLTR 171100Z 36004KT 9999 NSC 25/24 Q1008 A2978 990.0 HR94@CAELT@AC/CI NOSIG=@CAELT@METAR SLGM 171100Z 00000KT 9999 FEW012 BKN080 BKN200 25/24 Q1009@CAELT@A2982 HR92=@CAELT@METAR SLRI 171100Z 09007KT 5000 FU FEW020 BKN080 25/23 Q1010 A2985HR91 CI=METAR SLJO 171100Z NIL=METAR SLRA 171100Z 04003KT 9999 NSC 26/24 Q1008 A2979 HR90 AC/CIRWY NML=METAR SLMG 171100Z 00000KT 9999 BKN080 24/23 Q1009 A2981 HR94METAR SLBU 171100Z NIL=METAR SLSA 171100Z 33005KT 9999 SCT080 BKN200 25/24 Q1008 A2977 HR94=METAR SLSR 171100Z 32008KT 8000 NSC 25/23 Q1007 A2974 HR89 FU CIMETAR SLSM 171100Z 00000KT 9999 FEW015 BKN200 24/23 Q1008 A2977HR95 RWY WET INOP=
ZPX0199 171100@CAELT@GG SLZZYMYT@CAELT@171059 SLTJYGYZ@CAELT@SABO SLTJ 171100 RRA@CAELT@METAR RTD SLTJ 171100Z 21003KT 9999 SCT010 BKN070 16/14 Q1019 A3010@CAELT@814.4 HR86 SH N/S/SW=@CAELT@
ZPX0200 171101@CAELT@GG SLZZYMYT@CAELT@171100 SLVRYFYC@CAELT@SABO SLVR 171100@CAELT@METAR SLVR 171100Z 13005KT 8000 VCSH SCT017 FEW030CB BKN070 22/21@CAELT@Q1011 A2986 HR91 RETS CB/SH E/S NOSIG=@CAELT@METAR SLET 171100Z 18007KT 7000 VCSH FEW008 BKN017 FEW030CB OVC070@CAELT@23/20 Q1011 A2987 HR86 C N/NE/NW SH S/SW/SE RETS TEMPO 5000 RA=@CAELT@METAR SLAS 171100Z 00000KT 9999 OVC017 25/23 Q1012 A2989 HR86 RWY WETOPR=METAR SLJV 171100Z 00000KT 9999 OVC012 22/21 Q1011 A2985 HR92 RWY NMLMETAR SLCP 171100Z 00000KT 9999 OVC070 24/22 Q1013 A2991 HR81 RWY NMLMETAR SLSI 171100Z 33006KT 9999 BKN017 26/23 Q1011 A2985 HR84 RWY NMLMETAR SLTI 171100Z 00000KT 9999 BKN015 OVC070 26/23 Q1014 A2994 HR83RWY NML=METAR SLJE 171100Z 17005KT 9999 OVC017 27/21 Q1012 A2988 HR72 RWY NMLMETAR SLVG 171100Z 00000KT 4000 -RA OVC015 15/15 Q1022 A3018 HR99 RWYWET OPR=METAR SLRB 171100Z 00000KT 9999 OVC013 25/23 Q1012 A2988 HR88 RWY NMLMETAR SLPS 171100Z 00000KT 9999 FEW017 SCT070 OVC200 27/26 Q1009A2980 HR90=METAR SLCA 171100Z 00000KT 2000 -DZ BKN005 OVC070 20/19 Q1016 A3000HR95 RWY HUM OPR=
ZPX0201 171102@CAELT@GG SLZZYMYT@CAELT@171101 SLCBYGYS@CAELT@SABO SLCB 171100@CAELT@METAR SLCB 171100Z 11003KT 9999 FEW036 BKN200 14/07 Q1022 A3020@CAELT@749.6 HR63 FU NOSIG=@CAELT@METAR SLAL 171100Z 01006KT 9999 SCT015 BKN200 12/09 Q1023 A3033@CAELT@702.4 HR88=@CAELT@METAR SLTJ 171100Z 21003KT 9999 SCT010 BKN070 16/14 Q1019 A3010814.4 HR86 SH N/S/SW=METAR SLYA 171100Z 00000KT 9999 FEW015 BKN023 OVC070 20/20 Q1012A2991 937.6 HR99 RERA=
ZPX0227 171153@CAELT@GG SLZZYMYT@CAELT@171152 SLPSYGYS@CAELT@SABO SLPS 171200@CAELT@METAR SLPS 171200Z 00000KT 9999 BKN017 OVC200 28/25 Q1010 A2983 HR88=@CAELT@
ZPX0228 171154@CAELT@GG SLZZYMYT@CAELT@171153 SLRBYGYS@CAELT@SABO SLRB 171200@CAELT@METAR SLRB 171200Z 00000KT 9999 OVC015 25/23 Q1012 A2988 HR88 RWY NML=@CAELT@
ZPX0229 171154@CAELT@GG SLZZYMYT@CAELT@171154 SLVRYGYZ@CAELT@SABO SLVR 171200@CAELT@METAR SLVR 171200Z 16003KT 8000 VCSH FEW010 SCT020 FEW030CB BKN070 23@CAELT@/21 Q1012 A2990 HR90 CB/SH E CI NOSIG=@CAELT@
ZPX0230 171154@CAELT@GG SLZZYMYT@CAELT@171155 SLORYGYZ@CAELT@SABO SLOR 171200@CAELT@METAR SLOR 171200Z 36003KT 8000 NSC 08/M02 Q1033 A3053 655.1 HR52 VIS@CAELT@RED FU NE/E/SE/S CI=@CAELT@
ZPX0232 171155@CAELT@GG SLZZYMYT@CAELT@171155 SLSBYSYX@CAELT@SABO SLSB 171200@CAELT@METAR SLSB 171200Z 33006KT 9999 SCT015 27/24 Q1008 A2977 HR83 RWY NML=@CAELT@
ZPX0233 171155@CAELT@GG SLZZYMYT@CAELT@171123 SLETYMYC@CAELT@SABO SLET 171200Z@CAELT@METAR SLET 171200Z 17003KT 8000 VCSH BKN017 FEW030CB OVC070 23/20@CAELT@Q1012 A2989 HR88 CB SH W NW N TEMPO 8000 SHRA=@CAELT@
ZPX0235 171156@CAELT@GG SLZZYMYT@CAELT@171155 SLSAYGYS@CAELT@SABO SLSA 171200@CAELT@METAR SLSA 171200Z 33006KT 9999 FEW080 BKN200 27/24 Q1008 A2978 HR82=@CAELT@
ZPX0236 171156@CAELT@GG SLZZYMYT@CAELT@171154 SLUYYGYS@CAELT@SABO SLUY 171200@CAELT@METAR SLUY 171200Z 01003KT 9999 NSC 09/M18 Q1032 A3048@CAELT@657.0 HR13 CI=@CAELT@
ZPX0237 171156@CAELT@GG SLZZYMYT@CAELT@171155 SLRQYSYX@CAELT@SABO SLRQ 171200@CAELT@METAR SLRQ 171200Z 00000KT 9999 FEW012 BKN014 26/24 Q1008 A2979 HR90=@CAELT@
ZPX0238 171156@CAELT@GG SLZZYMYT@CAELT@171155 SLTJYGYZ@CAELT@SABO SLTJ 171200@CAELT@METAR SLTJ 171200Z 00000KT 9999 SCT013 SCT070 18/14 Q1019 A3009 814.1@CAELT@HR79=@CAELT@
ZPX0239 171156@CAELT@GG SLZZYMYT@CAELT@171156 SLTRYGYZ@CAELT@SABO SLTR 171200@CAELT@METAR SLTR 171200Z 30006KT 9999 NSC 28/24 Q1009 A2981 991.0 HR78@CAELT@CI NOSIG=@CAELT@
ZPX0240 171156@CAELT@GG SLZZYMYT@CAELT@171156 SLCOYGYZ@CAELT@SABO SLCO 171200@CAELT@METAR SLCO 171200Z 35006KT 9999 SCT008 BKN200 24/22 Q1010 A2985 983.5@CAELT@HR89 AC=@CAELT@
ZPX0241 171156@CAELT@GG SLZZYMYT@CAELT@171156 SLCAYGYS@CAELT@SABO SLCA 171200@CAELT@METAR SLCA 171200Z 00000KT 2000 -DZ BKN005 OVC070 20/19 Q1016 A3000@CAELT@HR94 RWY HUM OPR=@CAELT@
ZPX0242 171157@CAELT@GG SLZZYMYT@CAELT@171156 SLCBYGYZ@CAELT@SABO SLCB 171200@CAELT@METAR SLCB 171200Z 25003KT 9999 FEW036 BKN200 19/08 Q1023 A3022 750.2@CAELT@HR48 FU NOSIG=@CAELT@
ZPX0243 171157@CAELT@GG SLZZYMYT@CAELT@171156 SLLPYGYZ@CAELT@SABO SLLP 171200@CAELT@METAR SLLP 171200Z 22003KT 9999 NSC 11/M08 Q1036 A3061 627.4 HR26 FU@CAELT@CI NOSIG=@CAELT@
ZPX0247 171158@CAELT@GG SLZZYMYT@CAELT@171156 SLAGYSYX@CAELT@SABO SLAG 171200@CAELT@METAR SLAG 171200Z 00000KT 5000 FEW002 SCT010 OVC070 20/18 Q1017@CAELT@A3005 889.6 HR88 VIS RED ST BAJOS SE/S/SW/NW=@CAELT@
ZPX0251 171200@CAELT@GG SLZZYMYT@CAELT@171159 SLCBYGYS@CAELT@SABO SLCB 171200@CAELT@METAR SLCB 171200Z 25003KT 9999 FEW036 BKN200 19/08 Q1023 A3022@CAELT@750.2 HR48 FU NOSIG=@CAELT@METAR SLAL 171200Z 35010KT 9999 SCT015 SCT200 13/11 Q1027 A3025@CAELT@702.8 HR88=@CAELT@METAR SLPO 171200Z 07003KT 9999 NSC 09/06 Q1034 A3053 635.4 HR80 CI=METAR SLAG 171200Z 00000KT 5000 FEW002 SCT010 OVC070 20/18 Q1017A3005 889.6 HR88 VIS RED ST BAJOS SE/S/SW/NW=METAR SLVM 171200Z NIL=METAR SLTJ 171200Z 00000KT 9999 SCT013 SCT070 18/14 Q1019 A3009814.1 HR79=METAR SLYA 171200Z 00000KT 9999 BKN020 OVC070 21/20 Q1013 A2992937.9 HR94=METAR SLBJ 171200Z NIL=METAR SLHI 171200Z NIL=
ZPX0253 171201@CAELT@GG SLZZYMYT@CAELT@171200 SLTRYGYS@CAELT@SABO SLTR 171200@CAELT@METAR SLTR 171200Z 30006KT 9999 NSC 28/24 Q1009 A2981 991.0 HR78@CAELT@CI NOSIG=@CAELT@METAR SLGM 171200Z 03010KT 9999 FEW012 SCT080 BKN200 26/24 Q1010@CAELT@A2984 HR86=@CAELT@METAR SLRI 171200Z 06007KT 5000 FU FEW015 SCT080 BKN200 26/23 Q1011A2988 HR85=METAR SLJO 171200Z NIL=METAR SLRA 171200Z 08004KT 8000 TS VCSH FEW020 FEW023CB BKN20032/24 Q1005 A2969 HR64 CB/SH E/SE/S TS E RWY HUM OPR=METAR SLMG 171200Z 32004KT 9999 SCT080 26/24 Q1009 A2982 HR90 CIRWY NML=METAR SLBU 171200Z 360006KT 9999 SCT080 BKN200 28/25 Q1009 A2980HR84 RWY NML=METAR SLSA 171200Z 33006KT 9999 FEW080 BKN200 27/24 Q1008 A2978HR82=METAR SLSR 171200Z 32015KT 8000 FEW017 BKN200 26/23 Q1007 A2976HR84 FU RWY NML=METAR SLSM 171200Z 00000KT 9999 NSC 26/24 Q1009 A2980 HR91 CIRWY WET INOP=
ZPX0255 171202@CAELT@GG SLZZYMYT@CAELT@171200 SLLPYFYA@CAELT@SABO SLRY 171200@CAELT@METAR SLRY 171200Z 34008KT 9999 BKN012 26/23 Q1008 A2977 HR86 RWY NML@CAELT@
ZPX0257 171204@CAELT@GG SLZZYMYT@CAELT@171201 SLLPYFYA@CAELT@SABO SLLP 171200@CAELT@METAR SLLP 171200Z 22003KT 9999 NSC 11/M08 Q1036 A3061 627.4 HR26 FU@CAELT@CI NOSIG=@CAELT@METAR SLCO 171200Z 35006KT 9999 SCT008 BKN200 24/22 Q1010 A2985 983.5@CAELT@HR89 AC=@CAELT@METAR SLRY 171200Z 34008KT 9999 BKN012 26/23 Q1008 A2977 HR86 RWY NMLMETAR SLRQ 171200Z 00000KT 9999 FEW012 BKN014 26/24 Q1008 A2979 HR90=METAR SLAP 171200Z 00000KT 9999 FEW020 SCT070 20/18 Q1017 A3004 858.0HR88 CI=METAR SLSB 171200Z 33006KT 9999 SCT015 27/24 Q1008 A2977 HR83 RWY NMLMETAR SLOR 171200Z 36003KT 8000 NSC 08/M02 Q1033 A3053 655.1 HR52 VISRED FU NE/E/SE/S CI=METAR SLUY 171200Z 01003KT 9999 NSC 09/M18 Q1032 A3048657.0 HR13 CI=
ZPX0262 171215@CAELT@GG SLZZYMYT@CAELT@171213 SLTRYGYS@CAELT@SABO SLTR 171200 CCA@CAELT@METAR SLTR 171200Z 30006KT 9999 NSC 28/24 Q1009 A2981 991.0 HR78@CAELT@CI NOSIG=@CAELT@METAR SLGM 171200Z 03010KT 9999 FEW012 SCT080 BKN200 26/24 Q1010@CAELT@A2984 HR86=@CAELT@METAR SLRI 171200Z 06007KT 5000 FU FEW015 SCT080 BKN200 26/23 Q1011A2988 HR85=METAR SLJO 171200Z NIL=METAR COR SLRA 171200Z 36006KT 9999 NSC 28/24 Q1009 A2980 HR80AC/CI RWY NML=METAR SLMG 171200Z 32004KT 9999 SCT080 26/24 Q1009 A2982 HR90 CIRWY NML=METAR SLBU 171200Z 360006KT 9999 SCT080 BKN200 28/25 Q1009 A2980HR84 RWY NML=METAR SLSA 171200Z 33006KT 9999 FEW080 BKN200 27/24 Q1008 A2978HR82=METAR SLSR 171200Z 32015KT 8000 FEW017 BKN200 26/23 Q1007 A2976HR84 FU RWY NML=METAR SLSM 171200Z 00000KT 9999 NSC 26/24 Q1009 A2980 HR91 CIRWY WET INOP=
ZPX0263 171218@CAELT@GG SLZZYMYT@CAELT@171217 SLTRYGYS@CAELT@SABO SLTR 171200 CCB@CAELT@METAR SLTR 171200Z 30006KT 9999 NSC 28/24 Q1009 A2981 991.0 HR78@CAELT@CI NOSIG=@CAELT@METAR SLGM 171200Z 03010KT 9999 FEW012 SCT080 BKN200 26/24 Q1010@CAELT@A2984 HR86=@CAELT@METAR SLRI 171200Z 06007KT 5000 FU FEW015 SCT080 BKN200 26/23 Q1011A2988 HR85=METAR SLJO 171200Z NIL=METAR SLRA 171200Z 36006KT 9999 NSC 28/24 Q1009 A2980 HR80 AC/CIRWY NML=METAR SLMG 171200Z 32004KT 9999 SCT080 26/24 Q1009 A2982 HR90 CIMETAR COR SLBU 171200Z 36006KT 9999 SCT080 BKN200 28/25 Q1009 A2980HR84 RWY NML=METAR SLSA 171200Z 33006KT 9999 FEW080 BKN200 27/24 Q1008 A2978HR82=METAR SLSR 171200Z 32015KT 8000 FEW017 BKN200 26/23 Q1007 A2976HR84 FU RWY NML=METAR SLSM 171200Z 00000KT 9999 NSC 26/24 Q1009 A2980 HR91 CIRWY WET INOP=
ZPX0283 171252@CAELT@GG SLZZYMYT@CAELT@171250 SLETYMYC@CAELT@SABO SLET 171300Z@CAELT@METAR SLET 171300Z 18003KT 7000 -RA BKN020 OVC070 23/21 Q1012 A2990@CAELT@HR88 NOSIG=@CAELT@
ZPX0285 171254@CAELT@GG SLZZYMYT@CAELT@171254 SLPSYGYS@CAELT@SABO SLPS 171300@CAELT@METAR SLPS 171300Z 36010KT 7000 -RA BKN015 FEW030CB OVC200 26/25@CAELT@Q1011 A2986 HR92 CB/N/NW/W/NE=@CAELT@
ZPX0286 171254@CAELT@GG SLZZYMYT@CAELT@171253 SLRBYGYS@CAELT@SABO SLRB 171300@CAELT@METAR SLRB 171300Z 00000KT 9999 BKN015 OVC200 26/23 Q1012 A2988 HR86@CAELT@RWY NML=@CAELT@
ZPX0287 171254@CAELT@GG SLZZYMYT@CAELT@171255 SLRQYSYX@CAELT@SABO SLRQ 171300@CAELT@METAR SLRQ 171300Z 00000KT 9999 BKN014 28/25 Q1009 A2980 HR82=@CAELT@
ZPX0288 171255@CAELT@GG SLZZYMYT@CAELT@171255 SLSBYSYX@CAELT@SABO SLSB 171300@CAELT@METAR SLSB 171300Z 32007KT 9999 SCT017 28/24 Q1008 A2979 HR79 RWY NML=@CAELT@
ZPX0289 171255@CAELT@GG SLZZYMYT@CAELT@171255 SLCAYGYS@CAELT@SABO SLCA 171300@CAELT@METAR SLCA 171300Z 00000KT 3000 -DZ BKN005 OVC070 20/19 Q1016 A3000@CAELT@HR93 RWY HUM OPR=@CAELT@
ZPX0290 171255@CAELT@GG SLZZYMYT@CAELT@171254 SLSAYGYS@CAELT@SABO SLSA 171300@CAELT@METAR SLSA 171300Z 32007KT 9999 FEW080 BKN200 30/24 Q1009 A2980 HR69=@CAELT@
ZPX0291 171255@CAELT@GG SLZZYMYT@CAELT@171254 SLSAYGYS@CAELT@SABO SLSA 171300@CAELT@METAR SLSA 171300Z 32007KT 9999 FEW080 BKN200 30/24 Q1009 A2980 HR69=@CAELT@
ZPX0293 171256@CAELT@GG SLZZYMYT@CAELT@171255 SLLPYGYZ@CAELT@SABO SLLP 171300@CAELT@METAR SLLP 171300Z 25005KT 9999 NSC 13/M06 Q1037 A3063 627.6 HR27@CAELT@FU CI NOSIG=@CAELT@
ZPX0294 171256@CAELT@GG SLZZYMYT@CAELT@171256 SLORYGYZ@CAELT@SABO SLOR 171300@CAELT@METAR SLOR 171300Z 35003KT 9999 NSC 12/01 Q1034 A3054 655.4 HR46 FU@CAELT@
ZPX0296 171257@CAELT@GG SLZZYMYT@CAELT@171256 SLTRYGYZ@CAELT@SABO SLTR 171300@CAELT@METAR SLTR 171300Z 30006KT 9999 NSC 30/24 Q1010 A2983 991.8 HR70@CAELT@AC/CI NOSIG=@CAELT@
ZPX0297 171257@CAELT@GG SLZZYMYT@CAELT@171256 SLTJYGYZ@CAELT@SABO SLTJ 171300@CAELT@METAR SLTJ 171300Z 08005KT 9999 SCT020 20/14 Q1018 A3008 813.9 HR69@CAELT@SH/SW AC=@CAELT@
ZPX0298 171257@CAELT@GG SLZZYMYT@CAELT@171255 SLAGYSYX@CAELT@SABO SLAG 171300@CAELT@METAR SLAG 171300Z 00000KT 8000 FEW005 SCT010 OVC070 21/18 Q1017@CAELT@A3005 889.6 HR83 VIS RED ST BAJOS TODAS DIRECC=@CAELT@
ZPX0299 171257@CAELT@GG SLZZYMYT@CAELT@171257 SLCBYGYZ@CAELT@SABO SLCB 171300@CAELT@METAR SLCB 171300Z 16003KT 9999 FEW036 BKN200 23/07 Q1023 A3022 750.2@CAELT@HR36 FU NOSIG=@CAELT@
ZPX0300 171257@CAELT@GG SLZZYMYT@CAELT@171257 SLCOYGYZ@CAELT@SABO SLCO 171300@CAELT@METAR SLCO 171300Z 34009KT 9999 SCT012 BKN200 27/23 Q1011 A2987 984.2@CAELT@HR80 AC=@CAELT@
ZPX0301 171258@CAELT@GG SLZZYMYT@CAELT@171247 SLUYYGYS@CAELT@SABO SLUY 171300@CAELT@METAR SLUY 171300Z 01003KT 9999 NSC 11/M18 Q1032 A3048@CAELT@657.0 HR12 CI=@CAELT@
ZPX0304 171300@CAELT@GG SLZZYMYT@CAELT@171259 SLLPYFYA@CAELT@SABO SLRY 171200@CAELT@METAR SLRY 171300Z 34006KT 9999 BKN012 28/24 Q1008 A2979 HR76 RWY NML=@CAELT@
ZPX0305 171300@CAELT@GG SLZZYMYT@CAELT@171300 SLCBYGYS@CAELT@SABO SLCB 171300@CAELT@METAR SLCB 171300Z 16003KT 9999 FEW036 BKN200 23/07 Q1023 A3022 750.2@CAELT@HR36 FU NOSIG=@CAELT@METAR SLAL 171300Z NIL=@CAELT@METAR SLPO 171300Z 00000KT 9999 NSC 11/05 Q1034 A3054 635.6 HR67 CI=@CAELT@METAR SLAG 171300Z 00000KT 8000 FEW005 SCT010 OVC070 21/18 Q1017A3005 889.6 HR83 VIS RED ST BAJOS TODAS DIRECC=METAR SLVM 171300Z NIL=METAR SLTJ 171300Z 08005KT 9999 SCT020 20/14 Q1018 A3008 813.9 HR69SH/SW AC=METAR SLYA 171300Z 00000KT 5000 VCSH FEW010 BKN020 OVC070 21/21 Q1013A2993 938.2 HR98 SH TODAS DIRECC RERA=METAR SLBJ 171300Z NIL=METAR SLHI 171300Z NIL=
ZPX0306 171300@CAELT@GG SLZZYMYT@CAELT@171259 SLTRYGYS@CAELT@SABO SLTR 171300@CAELT@METAR SLTR 171300Z 30006KT 9999 NSC 30/24 Q1010 A2983 991.8 HR70@CAELT@AC/CI NOSIG=@CAELT@METAR SLGM 171300Z 00000KT 9999 SCT015 BKN200 29/24 Q1011 A2986 HR77=@CAELT@METAR SLRI 171300Z 02007KT 8000 SCT015 BKN200 28/24 Q1012 A2989 HR80@CAELT@FU AC=METAR SLJO 171300Z NIL=METAR SLRA 171300Z 35007KT 9999 FEW020 SCT100 BKN200 30/24 Q1009A2981 HR70 RWY NML=METAR SLMG 171300Z 32006KT 9999 BKN080 28/24 Q1010 A2984 HR79 CIRWY NML=METAR SLBU 171300Z 36008KT 9999 FEW017 SCT080 30/25 Q1009 A2981 HR71CI RWY NML=METAR SLSA 171300Z 32007KT 9999 FEW080 BKN200 30/24 Q1009 A2980 HR69=METAR SLSR 171300Z 32015G25KT 8000 FEW017 BKN200 28/23 Q1008 A2978HR77 FU RWY NML=METAR SLSM 171300Z 36006KT 9999 NSC 28/25 Q1009 A2982 HR82 CI RWYWET OPR C206=
ZPX0308 171302@CAELT@GG SLZZYMYT@CAELT@171300 SLLPYFYA@CAELT@SABO SLLP 171300@CAELT@METAR SLLP 171300Z 25005KT 9999 NSC 13/M06 Q1037 A3063 627.6 HR27@CAELT@FU CI NOSIG=@CAELT@METAR SLCO 171300Z 34009KT 9999 SCT012 BKN200 27/23 Q1011 A2987 984.2@CAELT@HR80 AC=@CAELT@METAR SLRY 171300Z 34006KT 9999 BKN012 28/24 Q1008 A2979 HR76 RWY NMLMETAR SLRQ 171300Z 00000KT 9999 BKN014 28/25 Q1009 A2980 HR82=METAR SLAP 171300Z 00000KT 9999 FEW020 SCT070 23/20 Q1017 A3004 858.1HR81 CI=METAR SLSB 171300Z 32007KT 9999 SCT017 28/24 Q1008 A2979 HR79 RWY NMLMETAR SLOR 171300Z 35003KT 9999 NSC 12/01 Q1034 A3054 655.4 HR46 FUMETAR SLUY 171300Z 01003KT 9999 NSC 11/M18 Q1032 A3048657.0 HR12 CI=
ZPX0310 171303@CAELT@GG SLZZYMYT@CAELT@171303 SLVRYFYC@CAELT@SABO SLVR 171300@CAELT@METAR SLVR 171300Z 14004KT 9999 SCT017 OVC070 24/21 Q1011 A2988 HR88@CAELT@NOSIG=@CAELT@METAR SLET 171300Z 18003KT 7000 -RA BKN020 OVC070 23/21 Q1012 A2990@CAELT@HR88 NOSIG=@CAELT@METAR SLAS 171300Z 00000KT 9999 BKN017 FEW030CB 25/24 Q1014 A2994HR90 CB SH/SW/W/NW RESH RWY WET OPR=METAR SLJV 171300Z NIL=METAR SLCP 171300Z 18004KT 9999 BKN015 OVC070 25/21 Q1014 A2994 HR88RWY NML=METAR SLSI 171300Z 27008KT 9999 SCT017 BKN070 29/22 Q1011 A2985 HR67METAR SLTI 171300Z 00000KT 9999 BKN015 FEW030CB OVC070 25/24 Q1014A2994 HR93 CB/NW RERA RWY HUM OPR=METAR SLJE 171300Z 17005KT 9999 BKN017 OVC200 30/22 Q1013 A2991 HR63METAR SLVG 171300Z 36004KT 9999 BKN015 OVC070 17/15 Q1024 A3034 HR90RWY WET OPR=METAR SLRB 171300Z 00000KT 9999 BKN015 OVC200 26/23 Q1012 A2988 HR86METAR SLPS 171300Z 36010KT 7000 -RA BKN015 FEW030CB OVC200 26/25Q1011 A2986 HR92 CB/N/NW/W/NE=METAR SLCA 171300Z 00000KT 3000 -DZ BKN005 OVC070 20/19 Q1016 A3000HR93 RWY HUM OPR=
ZPX0312 171307@CAELT@GG SLZZYMYT@CAELT@171306 SLCBYGYS@CAELT@SABO SLCB 171300 RRA@CAELT@METAR SLCB 171300Z 16003KT 9999 FEW036 BKN200 23/07 Q1023 A3022 750.2@CAELT@HR36 FU NOSIG=@CAELT@METAR RTD SLAL 171300Z 35014KT 9999 SCT017 SCT200 15/10 Q1027 A3035@CAELT@702.8 HR70=@CAELT@METAR SLPO 171300Z 00000KT 9999 NSC 11/05 Q1034 A3054 635.6 HR67 CI=METAR SLAG 171300Z 00000KT 8000 FEW005 SCT010 OVC070 21/18 Q1017A3005 889.6 HR83 VIS RED ST BAJOS TODAS DIRECC=METAR SLVM 171300Z NIL=METAR SLTJ 171300Z 08005KT 9999 SCT020 20/14 Q1018 A3008 813.9 HR69SH/SW AC=METAR SLYA 171300Z 00000KT 5000 VCSH FEW010 BKN020 OVC070 21/21 Q1013A2993 938.2 HR98 SH TODAS DIRECC RERA=METAR SLBJ 171300Z NIL=METAR SLHI 171300Z NIL=
ZPX0313 171310@CAELT@GG SLZZYMYT@CAELT@171310 SLVRYFYC@CAELT@SABO SLVR 171300 RRA@CAELT@METAR SLVR 171300Z 14004KT 9999 SCT017 OVC070 24/21 Q1011 A2988 HR88@CAELT@NOSIG=@CAELT@METAR SLET 171300Z 18003KT 7000 -RA BKN020 OVC070 23/21 Q1012 A2990@CAELT@HR88 NOSIG=@CAELT@METAR SLAS 171300Z 00000KT 9999 BKN017 FEW030CB 25/24 Q1014 A2994HR90 CB SH/SW/W/NW RESH RWY WET OPR=METAR RTD SLJV 171300Z 00000KT 9999 OVC013 23/22 Q1011 A2985 HR93 RWYNML=METAR SLCP 171300Z 18004KT 9999 BKN015 OVC070 25/21 Q1014 A2994 HR88RWY NML=METAR SLSI 171300Z 27008KT 9999 SCT017 BKN070 29/22 Q1011 A2985 HR67METAR SLTI 171300Z 00000KT 9999 BKN015 FEW030CB OVC070 25/24 Q1014A2994 HR93 CB/NW RERA RWY HUM OPR=METAR SLJE 171300Z 17005KT 9999 BKN017 OVC200 30/22 Q1013 A2991 HR63METAR SLVG 171300Z 36004KT 9999 BKN015 OVC070 17/15 Q1024 A3034 HR90RWY WET OPR=METAR SLRB 171300Z 00000KT 9999 BKN015 OVC200 26/23 Q1012 A2988 HR86METAR SLPS 171300Z 36010KT 7000 -RA BKN015 FEW030CB OVC200 26/25Q1011 A2986 HR92 CB/N/NW/W/NE=METAR SLCA 171300Z 00000KT 3000 -DZ BKN005 OVC070 20/19 Q1016 A3000HR93 RWY HUM OPR=
ZPX0336 171352@CAELT@GG SLZZYMYT@CAELT@171352 SLPSYGYS@CAELT@SABO SLPS 171400@CAELT@METAR SLPS 171400Z 36010KT 4000 -RA BKN010 FEW030CB OVC200 23/23@CAELT@Q1012 A2989 HR100 CB/N/NE/W=@CAELT@
ZPX0339 171353@CAELT@GG SLZZYMYT@CAELT@171350 SLETYMYC@CAELT@SABO SLET 171400@CAELT@METAR SLET 171400Z 18006KT 9999 BKN020 OVC070 24/21 Q1012 A2989 HR83@CAELT@NOSIG=@CAELT@
ZPX0340 171354@CAELT@GG SLZZYMYT@CAELT@171353 SLRBYGYS@CAELT@SABO SLRB 171400@CAELT@METAR SLRB 171400Z 00000KT 9999 BKN015 OVC200 27/24 Q1013 A2991 HR83@CAELT@RWY NML=@CAELT@
ZPX0341 171354@CAELT@GG SLZZYMYT@CAELT@171354 SLSAYGYS@CAELT@SABO SLSA 171400@CAELT@METAR SLSA 171400Z 33008KT 9999 FEW017 BKN200 31/24 Q1009 A2981 HR68=@CAELT@
ZPX0342 171354@CAELT@GG SLZZYMYT@CAELT@171354 SLSAYGYS@CAELT@SABO SLSA 171400@CAELT@METAR SLSA 171400Z 33008KT 9999 FEW017 BKN200 31/24 Q1009 A2981 HR68=@CAELT@
ZPX0343 171355@CAELT@GG SLZZYMYT@CAELT@171355 SLSBYSYX@CAELT@SABO SLSB 171400@CAELT@METAR SLSB 171400Z 36004KT 9999 FEW017 31/25 Q1009 A2980 HR73 RWY NML=@CAELT@
ZPX0345 171355@CAELT@GG SLZZYMYT@CAELT@171355 SLUYYGYS@CAELT@SABO SLUY 171400@CAELT@METAR SLUY 171400Z 01003KT 9999 NSC 13/M16 Q1031 A3046@CAELT@656.6 HR12 CI=@CAELT@
ZPX0346 171355@CAELT@GG SLZZYMYT@CAELT@171355 SLCOYGYZ@CAELT@SABO SLCO 171400@CAELT@METAR SLCO 171400Z 34009KT 9999 FEW015 BKN200 29/24 Q1011 A2987 984.1@CAELT@HR74 AC=@CAELT@
ZPX0347 171356@CAELT@GG SLZZYMYT@CAELT@171357 SLLPYFYA@CAELT@SABO SLRY 171400@CAELT@METAR SLRY 171400Z 00000KT 9999 SCT015 31/24 Q1009 A2979 HR65@CAELT@RWY NML@CAELT@
ZPX0349 171356@CAELT@GG SLZZYMYT@CAELT@171355 SLLPYGYZ@CAELT@SABO SLLP 171400@CAELT@METAR SLLP 171400Z 24007KT 9999 FEW015 BKN200 15/M16 Q1037 A3063@CAELT@627.5 HR10 P90// FU NOSIG=@CAELT@
ZPX0350 171356@CAELT@GG SLZZYMYT@CAELT@171355 SLRQYSYX@CAELT@SABO SLRQ 171400@CAELT@METAR SLRQ 171400Z 36004KT 9999 SCT015 SCT200 29/25 Q1009 A2981 HR79=@CAELT@
ZPX0352 171356@CAELT@GG SLZZYMYT@CAELT@171356 SLTRYGYZ@CAELT@SABO SLTR 171400@CAELT@METAR SLTR 171400Z 30006KT 9999 FEW020 BKN200 31/24 Q1010 A2985@CAELT@992.2 HR67 AC NOSIG=@CAELT@
ZPX0353 171357@CAELT@GG SLZZYMYT@CAELT@171357 SLCAYGYS@CAELT@SABO SLCA 171400@CAELT@METAR SLCA 171400Z 00000KT 8000 VCSH BKN010 OVC070 21/19 Q1016 A3000@CAELT@HR89 SH TODAS DIRECC RWY HUM OPR=@CAELT@
ZPX0354 171357@CAELT@GG SLZZYMYT@CAELT@171357 SLORYGYZ@CAELT@SABO SLOR 171400@CAELT@METAR SLOR 171400Z 33005KT 9999 FEW017 SCT200 16/01 Q1033 A3053 655.1@CAELT@HR36=@CAELT@
ZPX0355 171358@CAELT@GG SLZZYMYT@CAELT@171357 SLAGYSYX@CAELT@SABO SLAG 171400@CAELT@METAR SLAG 171400Z 00000KT 8000 FEW005 SCT010 OVC070 22/18 Q1017@CAELT@A3003 889.1 HR76 VIS RED ST BAJOS TODAS DIRECC=@CAELT@
ZPX0357 171358@CAELT@GG SLZZYMYT@CAELT@171358 SLTRYGYS@CAELT@SABO SLTR 171400@CAELT@METAR SLTR 171400Z 30006KT 9999 FEW020 BKN200 31/24 Q1010 A2985@CAELT@992.2 HR67 AC NOSIG=@CAELT@METAR SLGM 171400Z 36006KT 9999 BKN017 BKN200 30/24 Q1011 A2986 HR71=@CAELT@METAR SLRI 171400Z 06007KT 8000 SCT015 BKN200 29/24 Q1012 A2989 HR75@CAELT@AC FU=METAR SLJO 171400Z NIL=METAR SLRA 171400Z 35008KT 9999 FEW020 BKN200 31/24 Q1010 A2983 HR67AC RWY NML=METAR SLMG 171400Z 32006KT 9999 FEW017 BKN080 30/25 Q1010 A2985 HR72CI RWY NML=METAR SLBU 171400Z 36008KT 9999 FEW017 SCT080 32/25 Q1009 A2982 HR68RWY NML=METAR SLSA 171400Z 33008KT 9999 FEW017 BKN200 31/24 Q1009 A2981 HR68=METAR SLSR 171400Z 32015KG25KT 8000 FEW017 BKN200 29/25 Q1009 A2980HR77 FU RWY NML=METAR SLSM 171400Z 00000KT 9999 FEW015 BKN200 29/25 Q1010 A2984 HR77RWY OPR C206=
ZPX0358 171358@CAELT@GG SLZZYMYT@CAELT@171358 SLCBYGYZ@CAELT@SABO SLCB 171400@CAELT@METAR SLCB 171400Z 16005KT 9999 FEW036 BKN200 25/06 Q1022 A3020 749.6@CAELT@HR31 FU NOSIG=@CAELT@
ZPX0359 171358@CAELT@GG SLZZYMYT@CAELT@171357 SLTJYGYZ@CAELT@SABO SLTJ 171400@CAELT@METAR SLTJ 171400Z 00000KT 9999 SCT025 22/14 Q1017 A3005 812.8 HR62@CAELT@
ZPX0361 171359@CAELT@GG SLZZYMYT@CAELT@171359 SLVRYFYC@CAELT@SABO SLVR 171400@CAELT@METAR SLVR 171400Z VRB02KT 9999 FEW007 BKN017 OVC070 24/21 Q1012@CAELT@A2990 HR84 NOSIG= METAR SLET 171400Z 18006KT 9999 BKN020 OVC070 24/@CAELT@21 Q1012 A2989 HR83 NOSIG=@CAELT@METAR SLAS 171400Z 00000KT 9999 BKN017 FEW030CB OVC070 26/23 Q1014@CAELT@A2994 CB/SH/SW/NW RWY WET OPR=METAR SLJV 171400Z 00000KT 9999 OVC020 24/22 Q1011 A2985 HR90 RWY NMLMETAR SLCP 171400Z 27006KT 9999 BKN015 26/23 Q1015 A2997 HR81 RWY NMLMETAR SLSI 171400Z 27008KT 9999 SCT017 BKN070 29/22 Q1012 A2988 HR65RWY NML=METAR SLTI 171400Z 00000KT 9999 BKN017 OVC070 26/24 Q1015 A2997 HR87RWY HUM OPR=METAR SLJE 171400Z 00000KT 9999 BKN017 OVC200 31/22 Q1013 A2991 HR61METAR SLVG 171400Z 35004KT 9999 BKN015 OVC070 17/15 Q1024 A3024 HR90RWY WET OPR=METAR SLRB 171400Z 00000KT 9999 BKN015 OVC200 27/24 Q1013 A2991 HR83METAR SLPS 171400Z 36010KT 4000 -RA BKN010 FEW030CB OVC200 23/23Q1012 A2989 HR100 CB/N/NE/W=METAR SLCA 171400Z 00000KT 8000 VCSH BKN010 OVC070 21/19 Q1016 A3000HR89 SH TODAS DIRECC RWY HUM OPR=
ZPX0362 171359@CAELT@GG SLZZYMYT@CAELT@171359 SLLPYFYA@CAELT@SABO SLLP 171400@CAELT@METAR SLLP 171400Z 24007KT 9999 FEW015 BKN200 15/M16 Q1037 A3063@CAELT@627.5 HR10 P90// FU NOSIG=@CAELT@METAR SLCO 171400Z 34009KT 9999 FEW015 BKN200 29/24 Q1011 A2987 984.1@CAELT@HR74 AC=@CAELT@METAR SLRY 171400Z 00000KT 9999 SCT015 31/24 Q1009 A2979 HR65RWY NMLMETAR SLRQ 171400Z 36004KT 9999 SCT015 SCT200 29/25 Q1009 A2981 HR79=METAR SLAP 171400Z 00000KT 9999 FEW020 25/20 Q1017 A3004 857.9 HR74AC=METAR SLSB 171400Z 36004KT 9999 FEW017 31/25 Q1009 A2980 HR73 RWY NMLMETAR SLOR 171400Z 33005KT 9999 FEW017 SCT200 16/01 Q1033 A3053 655.1HR36=METAR SLUY 171400Z 01003KT 9999 NSC 13/M16 Q1031 A3046656.6 HR12 CI=
ZPX0364 171400@CAELT@GG SLZZYMYT@CAELT@171359 SLCBYGYS@CAELT@SABO SLCB 171400@CAELT@METAR SLCB 171400Z 16005KT 9999 FEW036 BKN200 25/06 Q1022 A3020@CAELT@749.6 HR31 FU NOSIG=@CAELT@METAR SLAL 171400Z 01015KT 9999 SCT020 17/07 Q1027 A3034 702.7 HR53@CAELT@METAR SLPO 171400Z 06006KT 9999 FEW017 14/05 Q1034 A3053 635.3 HR55@CAELT@METAR SLAG 171400Z 00000KT 8000 FEW005 SCT010 OVC070 22/18 Q1017A3003 889.1 HR76 VIS RED ST BAJOS TODAS DIRECC=METAR SLVM 171400Z NIL=METAR SLTJ 171400Z 00000KT 9999 SCT025 22/14 Q1017 A3005 812.8 HR62METAR SLYA 171400Z 00000KT 5000 -RA FEW008 BKN015 OVC070 22/21 Q1013A2993 938.2 HR97=METAR SLBJ 171400Z NIL=METAR SLHI 171400Z NIL=
ZPX0392 171452@CAELT@GG SLZZYMYT@CAELT@171451 SLPSYGYS@CAELT@SABO SLPS 171500@CAELT@METAR SLPS 171500Z 36004KT 5000 -TSRA BKN010 FEW030CB OVC070 22/22@CAELT@Q1012 A2989 HR100 CB/TS/ON STN/N/W=@CAELT@
ZPX0395 171453@CAELT@GG SLZZYMYT@CAELT@171449 SLETYMYC@CAELT@SABO SLET 171500@CAELT@METAR SLET 171500Z 21005KT 9999 FEW015 SCT020 OVC080 26/21 Q1011@CAELT@A2988 HR75 NOSIG=@CAELT@
ZPX0396 171453@CAELT@GG SLZZYMYT@CAELT@171453 SLRBYGYS@CAELT@SABO SLRB 171500@CAELT@METAR SLRB 171500Z 00000KT 9999 BKN015 OVC200 29/22 Q1012 A2988 HR70@CAELT@RWY NML=@CAELT@
ZPX0399 171454@CAELT@GG SLZZYMYT@CAELT@171455 SLORYGYZ@CAELT@SABO SLOR 171500@CAELT@METAR SLOR 171500Z 03003KT 9999 FEW020 18/00 Q1033 A3051 654.7 HR31@CAELT@
ZPX0400 171455@CAELT@GG SLZZYMYT@CAELT@171455 SLCOYGYZ@CAELT@SABO SLCO 171500@CAELT@METAR SLCO 171500Z 31011KT 9999 FEW015 BKN200 31/24 Q1011 A2986 983.7@CAELT@HR70 AC=@CAELT@
ZPX0401 171455@CAELT@GG SLZZYMYT@CAELT@171455 SLCAYGYS@CAELT@SABO SLCA 171500@CAELT@METAR SLCA 171500Z 00000KT 9999 BKN013 OVC070 22/19 Q1015 A2997 HR83@CAELT@SH SW/W RWY HUM OPR=@CAELT@
ZPX0402 171455@CAELT@GG SLZZYMYT@CAELT@171454 SLSAYGYS@CAELT@SABO SLSA 171500@CAELT@METAR SLSA 171500Z 32010KT 9999 SCT017 BKN200 31/24 Q1009 A2981 HR66=@CAELT@
ZPX0403 171455@CAELT@GG SLZZYMYT@CAELT@171454 SLSAYGYS@CAELT@SABO SLSA 171500@CAELT@METAR SLSA 171500Z 32010KT 9999 SCT017 BKN200 31/24 Q1009 A2981 HR66=@CAELT@
ZPX0404 171455@CAELT@GG SLZZYMYT@CAELT@171455 SLRQYSYX@CAELT@SABO SLRQ 171500@CAELT@METAR SLRQ 171500Z 00000KT 9999 SCT015 BKN200 31/26 Q1009 A2980 HR72=@CAELT@
ZPX0406 171455@CAELT@GG SLZZYMYT@CAELT@171452 SLUYYGYS@CAELT@SABO SLUY 171500@CAELT@METAR SLUY 171500Z 32016KT 9999 NSC 15/M15 Q1031 A3044@CAELT@656.2 HR12 CI=@CAELT@
ZPX0407 171455@CAELT@GG SLZZYMYT@CAELT@171455 SLSBYSYX@CAELT@SABO SLSB 171500@CAELT@METAR SLSB 171500Z 01004KT 9999 SCT017 33/26 Q1009 A2980 HR67 RWY NML=@CAELT@
ZPX0410 171456@CAELT@GG SLZZYMYT@CAELT@171455 SLLPYGYZ@CAELT@SABO SLLP 171500@CAELT@METAR SLLP 171500Z 30008KT 230V360 9999 FEW017 BKN200 16/M17 Q1036@CAELT@A3062 627.2 HR09 P3083 FU NOSIG=@CAELT@
ZPX0411 171457@CAELT@GG SLZZYMYT@CAELT@171455 SLAGYSYX@CAELT@SABO SLAG 171500@CAELT@METAR SLAG 171500Z 00000KT 8000 FEW005 SCT012 OVC070 23/18 Q1016@CAELT@A3000 888.2 HR74 VIS RED ST BAJOS SE/S/SW=@CAELT@
ZPX0412 171457@CAELT@GG SLZZYMYT@CAELT@171456 SLTJYGYZ@CAELT@SABO SLTJ 171500@CAELT@METAR SLTJ 171500Z VRB02KT 9999 SCT027 23/12 Q1015 A3000 811.5 HR50@CAELT@
ZPX0413 171457@CAELT@GG SLZZYMYT@CAELT@171456 SLTRYGYZ@CAELT@SABO SLTR 171500@CAELT@METAR SLTR 171500Z 33006KT 9999 FEW020 BKN200 32/24 Q1010 A2983@CAELT@991.8 HR61 NOSIG=@CAELT@
ZPX0417 171458@CAELT@GG SLZZYMYT@CAELT@171458 SLTRYGYS@CAELT@SABO SLTR 171500@CAELT@METAR SLTR 171500Z 33006KT 9999 FEW020 BKN200 32/24 Q1010 A2983@CAELT@991.8 HR61 NOSIG=@CAELT@METAR SLGM 171500Z 34010KT 8000 VCSH BKN017 FEW020CB BKN200 31/24@CAELT@Q1010 A2985 HR65 CB NE/SE SH SE=@CAELT@METAR SLRI 171500Z 01008KT 9999 SCT017 BKN200 30/25 Q1011 A2980 HR74AC FU=METAR SLJO 171500Z NIL=METAR SLRA 171500Z 34007KT 9999 FEW020 BKN200 33/24 Q1009 A2982 HR59AC RWY NML=METAR SLMG 171500Z 34008KT 9999 SCT017 BKN080 31/25 Q1010 A2985 HR69RWY NML=METAR SLBU 171500Z 36012KT 9999 SCT017 32/25 Q1009 A2980 HR65METAR SLSA 171500Z 32010KT 9999 SCT017 BKN200 31/24 Q1009 A2981 HR66=METAR SLSR 171500Z 32015KT 8000 SCT017 BKN200 30/25 Q1007 A2978 HR73FU RWY NML=METAR SLSM 171500Z 36008KT 9999 FEW015 BKN200 31/25 Q1010 A2984 HR71RWY OPR C206=
ZPX0420 171500@CAELT@GG SLZZYMYT@CAELT@171458 SLLPYFYA@CAELT@SABO SLRY 171500@CAELT@METAR SLRY 171500Z 00000KT 9999 FEW015 SCT080 BKN200 33/24 Q1009@CAELT@A2979 HR61 RWY NML@CAELT@
ZPX0421 171501@CAELT@GG SLZZYMYT@CAELT@171501 SLVRYFYC@CAELT@SABO SLVR 171500@CAELT@METAR SLVR 171500Z 29006KT 9999 BKN017 FEW030CB OVC070 24/22 Q1012@CAELT@A2989 HR86 CB ON STN NOSIG=@CAELT@METAR SLET 171500Z 21005KT 9999 FEW015 SCT020 OVC080 26/21 Q1011@CAELT@A2988 HR75 NOSIG=@CAELT@METAR SLAS 171500Z 00000KT 9999 SCT017 OVC200 26/22 Q1013 A2991 HR81RWY WET OPR=METAR SLJV 171500Z 00000KT 9999 SCT020 OVC200 26/23 Q1011 A2985 HR81RWY NML=METAR SLCP 171500Z 27006KT 9999 BKN015 OVC200 29/23 Q1014 A2994 HR73METAR SLSI 171500Z 31010KT 9999 SCT017 30/23 Q1011 A2985 HR64 RWY NMLMETAR SLTI 171500Z 00000KT 9999 BKN017 OVC070 28/24 Q1014 A2994 HR77RWY HUM OPR=METAR SLJE 171500Z 00000KT 2500 TSRA BKN017 FEW030CB OVC070 22/21Q1015 A2997 HR96 CB/TS ON STN/N/E/SW/W RWY WET OPR=METAR SLVG 171500Z 35007KT 9999 SCT012 BKN070 19/14 Q1023 A3021 HR70METAR SLRB 171500Z 00000KT 9999 BKN015 OVC200 29/22 Q1012 A2988 HR70METAR SLPS 171500Z 36004KT 5000 -TSRA BKN010 FEW030CB OVC070 22/22Q1012 A2989 HR100 CB/TS/ON STN/N/W=METAR SLCA 171500Z 00000KT 9999 BKN013 OVC070 22/19 Q1015 A2997 HR83SH SW/W RWY HUM OPR=
ZPX0422 171502@CAELT@GG SLZZYMYT@CAELT@171500 SLLPYFYA@CAELT@SABO SLLP 171500@CAELT@METAR SLLP 171500Z 30008KT 230V360 9999 FEW017 BKN200 16/M17 Q1036@CAELT@A3062 627.2 HR09 P3083 FU NOSIG=@CAELT@METAR SLCO 171500Z 31011KT 9999 FEW015 BKN200 31/24 Q1011 A2986 983.7@CAELT@HR70 AC=@CAELT@METAR SLRY 171500Z 00000KT 9999 FEW015 SCT080 BKN200 33/24 Q1009A2979 HR61 RWY NMLMETAR SLRQ 171500Z 00000KT 9999 SCT015 BKN200 31/26 Q1009 A2980 HR72=METAR SLAP 171500Z 00000KT 9999 FEW025 27/21 Q1016 A3002 857.5 HR68AC=METAR SLSB 171500Z 01004KT 9999 SCT017 33/26 Q1009 A2980 HR67 RWY NMLMETAR SLOR 171500Z 03003KT 9999 FEW020 18/00 Q1033 A3051 654.7 HR31METAR SLUY 171500Z 32016KT 9999 NSC 15/M15 Q1031 A3044656.2 HR12 CI=
ZPX0424 171503@CAELT@GG SLZZYMYT@CAELT@171501 SLCBYGYS@CAELT@SABO SLCB 171500@CAELT@METAR SLCB 171500Z 23006KT 9999 FEW036 BKN200 26/07 Q1021 A3017@CAELT@748.9 HR28 FU NOSIG=@CAELT@METAR SLAL 171400Z 35012KT 9999 SCT023 18/07 Q1026 A3032 701.9 HR50@CAELT@METAR SLPO 171500Z 03007KT 9999 FEW017 15/01 Q1033 A3050 634.6 HR40@CAELT@METAR SLAG 171500Z 00000KT 8000 FEW005 SCT012 OVC070 23/18 Q1016A3000 888.2 HR74 VIS RED ST BAJOS SE/S/SW=METAR SLVM 171500Z NIL=METAR SLTJ 171500Z VRB02KT 9999 SCT027 23/12 Q1015 A3000 811.5 HR50METAR SLYA 171500Z 00000KT 3000 -RA SCT005 BKN010 OVC070 22/21 Q1012A2990 937.2 HR98=METAR SLBJ 171500Z NIL=METAR SLHI 171500Z NIL=
ZPX0446 171551@CAELT@GG SLZZYMYT@CAELT@171549 SLETYMYC@CAELT@SABO SLET 171600Z@CAELT@METAR SLET 171600Z 12003KT 9999 SCT020 OVC080 28/21 Q1010 A2983 HR66@CAELT@NOSIG=@CAELT@
ZPX0448 171553@CAELT@GG SLZZYMYT@CAELT@171552 SLPSYGYS@CAELT@SABO SLPS 171600@CAELT@METAR SLPS 171600Z 00000KT 7000 -TSRA SCT012 FEW030CB OVC070 23/23@CAELT@Q1010 A2983 HR100 CB/W/SW=@CAELT@
ZPX0449 171554@CAELT@GG SLZZYMYT@CAELT@171553 SLRBYGYS@CAELT@SABO SLRB 171600@CAELT@METAR SLRB 171600Z 00000KT 9999 BKN015 OVC200 29/22 Q1012 A2988 HR70@CAELT@RWY NML=@CAELT@
ZPX0450 171554@CAELT@GG SLZZYMYT@CAELT@171555 SLSBYSYX@CAELT@SABO SLSB 171600@CAELT@METAR SLSB 171600Z 30004KT 9999 BKN017 34/26 Q1008 A2979 HR63 RWY NML=@CAELT@
ZPX0451 171554@CAELT@GG SLZZYMYT@CAELT@171555 SLRQYSYX@CAELT@SABO SLRQ 171600@CAELT@METAR SLRQ 171600Z 36006KT 9999 SCT017 BKN200 33/26 Q1008 A2979 HR66=@CAELT@
ZPX0452 171554@CAELT@GG SLZZYMYT@CAELT@171555 SLORYGYZ@CAELT@SABO SLOR 171600@CAELT@METAR SLOR 171600Z 30003KT 9999 FEW020 18/00 Q1033 A3051 654.7 HR31@CAELT@
ZPX0453 171555@CAELT@GG SLZZYMYT@CAELT@171555 SLCOYGYZ@CAELT@SABO SLCO 171600@CAELT@METAR SLCO 171600Z 36008KT 9999 FEW020 BKN200 32/24 Q1010 A2984 983.1@CAELT@HR64 AC=@CAELT@
ZPX0454 171555@CAELT@GG SLZZYMYT@CAELT@171554 SLSAYGYS@CAELT@SABO SLSA 171600@CAELT@METAR SLSA 171600Z 31010KT 9999 SCT017 BKN200 32/24 Q1009 A2980 HR63=@CAELT@
ZPX0455 171555@CAELT@GG SLZZYMYT@CAELT@171554 SLSAYGYS@CAELT@SABO SLSA 171600@CAELT@METAR SLSA 171600Z 31010KT 9999 SCT017 BKN200 32/24 Q1009 A2980 HR63=@CAELT@
ZPX0457 171555@CAELT@GG SLZZYMYT@CAELT@171555 SLCAYGYS@CAELT@SABO SLCA 171600@CAELT@METAR SLCA 171600Z 00000KT 9999 BKN020 OVC070 22/19 Q1014 A2994 HR81@CAELT@RWY HUM OPR=@CAELT@
ZPX0458 171555@CAELT@GG SLZZYMYT@CAELT@171554 SLUYYGYS@CAELT@SABO SLUY 171600@CAELT@METAR SLUY 171600Z 32019KT 9999 NSC 16/M15 Q1030 A3043@CAELT@655.9 HR10 SA N/NE/SE/S CI=@CAELT@
ZPX0459 171555@CAELT@GG SLZZYMYT@CAELT@171555 SLAGYSYX@CAELT@SABO SLAG 171600@CAELT@METAR SLAG 171600Z 08003KT 9999 FEW010 BKN015 25/18 Q1014 A2996 887.0@CAELT@HR64 AC CI=@CAELT@
ZPX0460 171555@CAELT@GG SLZZYMYT@CAELT@171555 SLTJYGYZ@CAELT@SABO SLTJ 171600@CAELT@METAR SLTJ 171600Z 19010KT 9999 SCT027 24/13 Q1014 A2996 810.4 HR50@CAELT@
ZPX0461 171556@CAELT@GG SLZZYMYT@CAELT@171557 SLLPYFYA@CAELT@SABO SLRY 171600@CAELT@METAR SLRY 171600Z 34006KT 9999 SCT015 SCT080 BKN200 34/24 Q1008@CAELT@A2979 HR56 RWY NML@CAELT@
ZPX0463 171557@CAELT@GG SLZZYMYT@CAELT@171557 SLORYGYZ@CAELT@SABO SLOR 171600 CCA@CAELT@METAR COR SLOR 171600Z 30003KT 9999 FEW020 20/01 Q1033 A3051 654.7@CAELT@HR31 CI=@CAELT@
ZPX0464 171558@CAELT@GG SLZZYMYT@CAELT@171556 SLTRYGYZ@CAELT@SABO SLTR 171600@CAELT@METAR SLTR 171600Z 30010KT 9999 FEW020 FEW023CB BKN200 33/23@CAELT@Q1009 A2980 990.7 HR57 CB S NOSIG=@CAELT@
ZPX0465 171558@CAELT@GG SLZZYMYT@CAELT@171558 SLVRYFYC@CAELT@SABO SLVR 171600@CAELT@METAR SLVR 171600Z VRB02KT 9999 FEW012 SCT017 FEW030CB OVC070 26/22@CAELT@Q1010 A2984 HR78 CB ON STN NOSIG=@CAELT@METAR SLET 171600Z 12003KT 9999 SCT020 OVC080 28/21 Q1010 A2983 HR66@CAELT@NOSIG=@CAELT@METAR SLAS 171600Z 00000KT 9999 NSC 28/23 Q1012 A2989 HR75 RWY HUMOPR=METAR SLCP 171600Z 27006KT 9999 BKN015 OVC200 30/23 Q1012 A2988 HR68RWY NML=METAR SLSI 171600Z 27012KT 9999 SCT017 BKN200 32/23 Q1009 A2980 HR59METAR SLRB 171600Z 00000KT 9999 BKN015 OVC200 29/22 Q1012 A2988 HR70METAR SLPS 171600Z 00000KT 7000 -TSRA SCT012 FEW030CB OVC070 23/23Q1010 A2983 HR100 CB/W/SW=METAR SLCA 171600Z 00000KT 9999 BKN020 OVC070 22/19 Q1014 A2994 HR81RWY HUM OPR=
ZPX0466 171558@CAELT@GG SLZZYMYT@CAELT@171556 SLLPYGYZ@CAELT@SABO SLLP 171600@CAELT@METAR SLLP 171600Z 28009KT 240V030 9999 FEW020 SCT200 18/M18 Q1036@CAELT@A3060 626.8 HR08 P93// FU NOSIG=@CAELT@
ZPX0467 171559@CAELT@GG SLZZYMYT@CAELT@171558 SLTRYGYS@CAELT@SABO SLTR 171600@CAELT@METAR SLTR 171600Z 30010KT 9999 FEW020 FEW023CB BKN200 33/23@CAELT@Q1009 A2980 990.7 HR57 CB S NOSIG=@CAELT@METAR SLGM 171600Z 34008KT 8000 VCSH BKN017 FEW020CB BKN200 32/24@CAELT@Q1010 A2983 HR61 CB/SH NE/E=@CAELT@METAR SLRI 171600Z 02008KT 9999 SCT017 BKN200 32/23 Q1011 A2987 HR62AC FU=METAR SLJO 171600Z NIL=METAR SLRA 171600Z 34010KT 9999 FEW020 BKN200 34/23 Q1009 A2980 HR53AC RWY NML=METAR SLMG 171600Z 32006KT 9999 BKN017 33/25 Q1010 A2983 HR65 AC/CIRWY NML=METAR SLBU 171600Z 36012KT 9999 BKN017 34/25 Q1008 A2977 HR78METAR SLSA 171600Z 31010KT 9999 SCT017 BKN200 32/24 Q1009 A2980 HR63=METAR SLSR 171600Z 32015KT 8000 FEW017 BKN200 32/25 Q1007 A2976 HR65FU RWY NML=METAR SLSM 171600Z 36008KT 9999 SCT015 FEW020CB BKN200 32/25 Q1009A2980 HR63 CB S RWY OPR C206=
ZPX0468 171559@CAELT@GG SLZZYMYT@CAELT@171558 SLCBYGYZ@CAELT@SABO SLCB 171600@CAELT@METAR SLCB 171600Z 15008KT 9999 SCT036 BKN200 28/07 Q1020 A3014 747.9@CAELT@HR25 FU NOSIG=@CAELT@
ZPX0470 171559@CAELT@GG SLZZYMYT@CAELT@171559 SLLPYFYA@CAELT@SABO SLLP 171600@CAELT@METAR SLLP 171600Z 28009KT 240V030 9999 FEW020 SCT200 18/M18 Q1036@CAELT@A3060 626.8 HR08 P93// FU NOSIG=@CAELT@METAR SLCO 171600Z 36008KT 9999 FEW020 BKN200 32/24 Q1010 A2984 983.1@CAELT@HR64 AC=@CAELT@METAR SLRY 171600Z 34006KT 9999 SCT015 SCT080 BKN200 34/24 Q1008A2979 HR56 RWY NML=METAR SLRQ 171600Z 36006KT 9999 SCT017 BKN200 33/26 Q1008 A2979 HR66=METAR SLAP 171600Z 00000KT 9999 FEW025 29/20 Q1016 A3002 857.3 HR57AC=METAR SLSB 171600Z 30004KT 9999 BKN017 34/26 Q1008 A2979 HR63 RWY NMLMETAR COR SLOR 171600Z 30003KT 9999 FEW020 20/01 Q1033 A3051 654.7HR31 CI=METAR SLUY 171600Z 32019KT 9999 NSC 16/M15 Q1030 A3043655.9 HR10 SA N/NE/SE/S CI=
ZPX0473 171601@CAELT@GG SLZZYMYT@CAELT@171601 SLCBYGYS@CAELT@SABO SLCB 171600@CAELT@METAR SLCB 171600Z 15008KT 9999 SCT036 BKN200 28/07 Q1020 A3014 747.9@CAELT@HR25 FU NOSIG=@CAELT@METAR SLAL 171600Z 35014KT 9999 SCT023 20/06 Q1025 A3028 701.0 HR43@CAELT@METAR SLPO 171600Z 36005KT 9999 FEW020 16/M01 Q1032 A3048 634.3 HR32@CAELT@METAR SLAG 171600Z 08003KT 9999 FEW010 BKN015 25/18 Q1014 A2996 887.0HR64 AC CI=METAR SLVM 171600Z NIL=METAR SLTJ 171600Z 19010KT 9999 SCT027 24/13 Q1014 A2996 810.4 HR50METAR SLYA 171600Z 00000KT 2500 -RADZ BKN005 OVC070 21/21 Q1011 A2988936.5 HR99=METAR SLBJ 171600Z NIL=METAR SLHI 171600Z NIL=
ZPX0497 171651@CAELT@GG SLZZYMYT@CAELT@171650 SLCAYGYS@CAELT@SABO SLCA 171700@CAELT@METAR SLCA 171700Z 00000KT 9999 BKN015 OVC070 23/19 Q1013 A2991 HR78@CAELT@SH SE/E RWY HUM OPR=@CAELT@
ZPX0498 171651@CAELT@GG SLZZYMYT@CAELT@171649 SLETYMYC@CAELT@SABO SLET 171700Z@CAELT@METAR SLET 171700Z VRB02KT 9999 FEW020 BKN080 30/21 Q1008 A2977 HR60@CAELT@NOSIG=@CAELT@
ZPX0499 171652@CAELT@GG SLZZYMYT@CAELT@171652 SLPSYGYS@CAELT@SABO SLPS 171700@CAELT@METAR SLPS 171700Z 00000KT 9999 SCT015 FEW030CB BKN200 25/24 Q1009@CAELT@A2980 HR97 CB/SW RETSRA=@CAELT@
ZPX0501 171654@CAELT@GG SLZZYMYT@CAELT@171655 SLSBYSYX@CAELT@SABO SLSB 171700@CAELT@METAR SLSB 171700Z 36004KT 8000 VCSH BKN020 FEW025CB BKN200 33/25@CAELT@Q1007 A2975 HR62 CB SH SW S RWY NML=@CAELT@
ZPX0502 171654@CAELT@GG SLZZYMYT@CAELT@171653 SLRBYGYS@CAELT@SABO SLRB 171700@CAELT@METAR SLRB 171700Z 33012KT 9999 OVC015 26/23 Q1012 A2988 HR86 RWY NML=@CAELT@
ZPX0503 171654@CAELT@GG SLZZYMYT@CAELT@171654 SLSAYGYS@CAELT@SABO SLSA 171700@CAELT@METAR SLSA 171700Z 32010KT 9999 SCT017 BKN200 33/23 Q1008 A2977 HR58=@CAELT@
ZPX0504 171655@CAELT@GG SLZZYMYT@CAELT@171655 SLCOYGYZ@CAELT@SABO SLCO 171700@CAELT@METAR SLCO 171700Z 34009KT 9999 SCT020 BKN200 33/25 Q1010 A2983 982.7@CAELT@HR63=@CAELT@
ZPX0505 171655@CAELT@GG SLZZYMYT@CAELT@171644 SLUYYGYS@CAELT@SABO SLUY 171700@CAELT@METAR SLUY 171700Z 31022KT 9999 NSC 17/M14 Q1030 A3042@CAELT@655.7 HR11 SA N/NE/SE/S/SW CI=@CAELT@
ZPX0507 171655@CAELT@GG SLZZYMYT@CAELT@171655 SLTJYGYZ@CAELT@SABO SLTJ 171700@CAELT@METAR SLTJ 171700Z 14010G20KT 9999 SCT030 24/13 Q1013 A2992 809.3@CAELT@HR48 AC=@CAELT@
ZPX0508 171655@CAELT@GG SLZZYMYT@CAELT@171655 SLORYGYZ@CAELT@SABO SLOR 171700@CAELT@METAR SLOR 171700Z 00000KT 9999 FEW023 21/M00 Q1031 A3047 653.7 HR25@CAELT@
ZPX0509 171655@CAELT@GG SLZZYMYT@CAELT@171655 SLRQYSYX@CAELT@SABO SLRQ 171700@CAELT@METAR SLRQ 171700Z 36010KT 9999 TS SCT017 FEW020CB BKN200 35/26 Q1007@CAELT@A2974 HR61 CB/S/SW/W/NW TS/S=@CAELT@
ZPX0510 171655@CAELT@GG SLZZYMYT@CAELT@171655 SLORYGYZ@CAELT@SABO SLOR 171700@CAELT@METAR SLOR 171700Z 00000KT 9999 FEW023 21/M00 Q1031 A3047 653.7 HR25@CAELT@
ZPX0511 171657@CAELT@GG SLZZYMYT@CAELT@171657 SLCBYGYZ@CAELT@SABO SLCB 171700@CAELT@METAR SLCB 171700Z 07012KT 9999 FEW036 BKN200 29/07 Q1018 A3008 746.3@CAELT@HR25 FU NOSIG=@CAELT@
ZPX0512 171657@CAELT@GG SLZZYMYT@CAELT@171657 SLTRYGYZ@CAELT@SABO SLTR 171700@CAELT@METAR SLTR 171700Z 32008KT 9999 FEW020 FEW023CB BKN200 33/23 Q1008@CAELT@A2977 989.5 HR57 CB S NOSIG=@CAELT@
ZPX0513 171657@CAELT@GG SLZZYMYT@CAELT@171657 SLAGYSYX@CAELT@SABO SLAG 171700@CAELT@METAR SLAG 171700Z 09004KT 9999 FEW010 BKN015 24/18 Q1012 A2990 885.0@CAELT@HR67 AC CI=@CAELT@
ZPX0514 171657@CAELT@GG SLZZYMYT@CAELT@171656 SLLPYGYZ@CAELT@SABO SLLP 171700@CAELT@METAR SLLP 171700Z 28008G18KT 200V340 9999 FEW023 SCT200 19/M15@CAELT@Q1035 A3056 626.0 HR08 P2483 NOSIG=@CAELT@
ZPX0515 171657@CAELT@GG SLZZYMYT@CAELT@171657 SLVRYFYC@CAELT@SABO SLVR 171700@CAELT@METAR SLVR 171700Z 32004KT 9999 FEW012 SCT017 BKN070 28/22 Q1008@CAELT@A2978 HR66 NOSIG= METAR SLET 171700Z VRB02KT 9999 FEW020 BKN080 30/@CAELT@21 Q1008 A2977 HR60 NOSIG=@CAELT@METAR SLAS 171700Z 00000KT 9999 NSC 29/23 Q1010 A2983 HR72 RWY HUM@CAELT@OPR=METAR SLCP 171700Z 33005KT 9999 SCT015 OVC200 30/22 Q1012 A2988 HR65RWY NML=METAR SLSI 171700Z 31010KT 9999 SCT017 BKN200 34/21 Q1009 A2980 HR47METAR SLRB 171700Z 33012KT 9999 OVC015 26/23 Q1012 A2988 HR86 RWY NMLMETAR SLPS 171700Z 00000KT 9999 SCT015 FEW030CB BKN200 25/24 Q1009A2980 HR97 CB/SW RETSRA=METAR SLCA 171700Z 00000KT 9999 BKN015 OVC070 23/19 Q1013 A2991 HR78SH SE/E RWY HUM OPR=
ZPX0516 171659@CAELT@GG SLZZYMYT@CAELT@171659 SLTRYGYS@CAELT@SABO SLTR 171700@CAELT@METAR SLTR 171700Z 32008KT 9999 FEW020 FEW023CB BKN200 33/23 Q1008@CAELT@A2977 989.5 HR57 CB S NOSIG=@CAELT@METAR SLGM 171700Z 02012KT 2000 TSRA BKN017 FEW020CB BKN200 29/24@CAELT@Q1009 A2981 HR76 CB N/NE/E TS N=@CAELT@METAR SLRI 171700Z 01008KT 9999 SCT017 BKN200 32/23 Q1010 A2984 HR61=METAR SLJO 171700Z NIL=METAR SLRA 171700Z 35012KT 9999 FEW020 BKN200 34/23 Q1008 A2979HR53 RWY NML=METAR SLMG 171700Z 32006KT 9999 BKN017 33/25 Q1009 A2980 HR62 CIRWY NML=METAR SLBU 171700Z 36012KT 9999 BKN017 35/25 Q1007 A2974 HR57METAR SLSA 171700Z 32010KT 9999 SCT017 BKN200 33/23 Q1008 A2977 HR58=METAR SLSR 171700Z 32010KT 8000 FEW017 BKN200 33/25 Q1006 A2972HR62 FU RWY NML=METAR SLSM 171700Z 36004KT 8000 VCSH SCT017 FEW020CB BKN200 31/26Q1008 A2977 HR74 CB/SH S/SW RWY OPR C210=
ZPX0518 171700@CAELT@GG SLZZYMYT@CAELT@171659 SLLPYFYA@CAELT@SABO SLRY 171700@CAELT@METAR SLRY 171700Z 34006KT 9999 BKN015 BKN200 35/24 Q1008 A2977 HR54@CAELT@RWY NML@CAELT@
ZPX0520 171702@CAELT@GG SLZZYMYT@CAELT@171700 SLLPYFYA@CAELT@SABO SLLP 171700@CAELT@METAR SLLP 171700Z 28008G18KT 200V340 9999 FEW023 SCT200 19/M15@CAELT@Q1035 A3056 626.0 HR08 P2483 NOSIG=@CAELT@METAR SLCO 171700Z 34009KT 9999 SCT020 BKN200 33/25 Q1010 A2983 982.7@CAELT@HR63=@CAELT@METAR SLRY 171700Z 34006KT 9999 BKN015 BKN200 35/24 Q1008 A2977 HR54RWY NMLMETAR SLRQ 171700Z 36010KT 9999 TS SCT017 FEW020CB BKN200 35/26 Q1007A2974 HR61 CB/S/SW/W/NW TS/S=METAR SLAP 171700Z 00000KT 9999 SCT025 29/21 Q1016 A3001 857.2 HR62AC=METAR SLSB 171700Z 36004KT 8000 VCSH BKN020 FEW025CB BKN200 33/25Q1007 A2975 HR62 CB SH SW S RWY NML=METAR SLOR 171700Z 00000KT 9999 FEW023 21/M00 Q1031 A3047 653.7 HR25METAR SLUY 171700Z 31022KT 9999 NSC 17/M14 Q1030 A3042655.7 HR11 SA N/NE/SE/S/SW CI=
ZPX0521 171702@CAELT@GG SLZZYMYT@CAELT@171700 SLCBYGYS@CAELT@SABO SLCB 171700@CAELT@METAR SLCB 171700Z 07012KT 9999 FEW036 BKN200 29/07 Q1018 A3008 746.3@CAELT@HR25 FU NOSIG=@CAELT@METAR SLAL 171700Z 02016KT 9999 FEW023 20/06 Q1023 A3022 699.7 HR42@CAELT@METAR SLPO 171700Z NIL=@CAELT@METAR SLAG 171700Z 09004KT 9999 FEW010 BKN015 24/18 Q1012 A2990 885.0HR67 AC CI=METAR SLVM 171700Z NIL=METAR SLTJ 171700Z 14010G20KT 9999 SCT030 24/13 Q1013 A2992 809.3HR48 AC=METAR SLYA 171700Z 00000KT 2500 -RADZ BKN005 OVC070 21/21 Q1010 A2984935.5 HR98=METAR SLBJ 171700Z NIL=METAR SLHI 171700Z NIL=
ZPX0538 171735@CAELT@GG SLZZYMYT@CAELT@171732 SLETYMYC@CAELT@SABO SLET 171737@CAELT@METAR SLET 171737Z 30010KT 9999 FEW020 BKN080 30/21 Q1007 A2974 HR59@CAELT@NOSIG=@CAELT@
ZPX0548 171753@CAELT@GG SLZZYMYT@CAELT@171752 SLPSYGYS@CAELT@SABO SLPS 171800@CAELT@METAR SLPS 171800Z 00000KT 9999 FEW017 BKN070 29/25 Q1008 A2977 HR86=@CAELT@
ZPX0551 171754@CAELT@GG SLZZYMYT@CAELT@171755 SLORYGYZ@CAELT@SABO SLOR 171800@CAELT@METAR SLOR 171800Z 30006KT 9999 FEW023 23/M01 Q1031 A3046 653.4 HR21@CAELT@
ZPX0552 171754@CAELT@GG SLZZYMYT@CAELT@171755 SLRQYSYX@CAELT@SABO SLRQ 171800@CAELT@METAR SLRQ 171800Z 27012KT 5000 -TSRA BKN017 FEW020CB BKN200 32/26@CAELT@Q1006 A2973 982.8 HR70 TS W/NW CB SW/W/NW=@CAELT@
ZPX0553 171754@CAELT@GG SLZZYMYT@CAELT@171753 SLRBYGYS@CAELT@SABO SLRB 171800@CAELT@METAR SLRB 171800Z 33008KT 9999 BKN015 OVC200 25/21 Q1010 A2983 HR80@CAELT@RWY NML=@CAELT@
ZPX0554 171755@CAELT@GG SLZZYMYT@CAELT@171754 SLSAYGYS@CAELT@SABO SLSA 171800@CAELT@METAR SLSA 171800Z 31012KT 9999 BKN017 BKN200 34/24 Q1007 A2974 HR56=@CAELT@
ZPX0555 171755@CAELT@GG SLZZYMYT@CAELT@171752 SLETYMYC@CAELT@SABO SLET 171800@CAELT@METAR SLET 171800Z 31010KT 9999 FEW020 BKN200 30/20 Q1006 A2973 HR52@CAELT@NOSIG=@CAELT@
ZPX0556 171756@CAELT@GG SLZZYMYT@CAELT@171756 SLCOYGYZ@CAELT@SABO SLCO 171800@CAELT@METAR SLCO 171800Z 36010KT 9999 FEW023 BKN200 34/24 Q1009 A2979 981.6@CAELT@HR58=@CAELT@
ZPX0558 171756@CAELT@GG SLZZYMYT@CAELT@171755 SLSBYSYX@CAELT@SABO SLSB 171800@CAELT@METAR SLSB 171800Z 00000KT 8000 VCSH BKN020 FEW023CB 33/25 Q1006@CAELT@A2971 HR63 CB/SH S SW RWY NML=@CAELT@
ZPX0559 171756@CAELT@GG SLZZYMYT@CAELT@171756 SLCAYGYS@CAELT@SABO SLCA 171800@CAELT@METAR SLCA 171800Z 00000KT 9999 BKN023 BKN070 24/20 Q1011 A2985 HR80@CAELT@SH SW RWY HUM OPR=@CAELT@
ZPX0560 171757@CAELT@GG SLZZYMYT@CAELT@171756 SLCBYGYZ@CAELT@SABO SLCB 171800@CAELT@METAR SLCB 171800Z 10012KT 9999 FEW036 BKN200 28/06 Q1016 A3002 744.9@CAELT@HR22 FU NOSIG=@CAELT@
ZPX0562 171757@CAELT@GG SLZZYMYT@CAELT@171756 SLAGYSYX@CAELT@SABO SLAG 171800@CAELT@METAR SLAG 171800Z 08006KT 9999 BKN015 26/18 Q1010 A2985 883.5 HR64@CAELT@AC CI=@CAELT@
ZPX0563 171757@CAELT@GG SLZZYMYT@CAELT@171755 SLLPYGYZ@CAELT@SABO SLLP 171800@CAELT@METAR SLLP 171800Z 29009G20KT 9999 FEW025 SCT200 20/M14 Q1033 A3053@CAELT@625.2 HR09 P2483 NOSIG=@CAELT@
ZPX0567 171758@CAELT@GG SLZZYMYT@CAELT@171756 SLTRYGYZ@CAELT@SABO SLTR 171800@CAELT@METAR SLTR 171800Z 32008KT 9999 FEW020 FEW023CB BKN200 34/23@CAELT@Q1006 A2972 988.0 HR54 CB SW NOSIG=@CAELT@
ZPX0568 171759@CAELT@GG SLZZYMYT@CAELT@171759 SLVRYFYC@CAELT@SABO SLVR 171800@CAELT@METAR SLVR 171800Z 07007KT 9999 FEW013 BKN020 BKN200 29/22 Q1007@CAELT@A2975 HR65 AC NOSIG=@CAELT@METAR SLET 171737Z 30010KT 9999 FEW020 BKN080 30/21 Q1007 A2974 HR59@CAELT@NOSIG=@CAELT@METAR SLAS 171800Z 00000KT 9999 NSC 29/24 Q1009 A2980 HR71 RWY HUMOPR=METAR SLJV 171800Z 00000KT 9999 BKN020 29/23 Q1008 A2977 HR70 RWY NMLMETAR SLCP 171800Z 33006KT 9999 SCT017 BKN200 30/22 Q1011 A2985 HR63RWY NML=METAR SLSI 171800Z 33008KT 9999 SCT017 BKN200 33/22 Q1008 A2977 HR52METAR SLTI 171800Z 00000KT 9999 SCT017 OVC200 31/24 Q1011 A2985 HR68METAR SLJE 171800Z 00000KT 9999 BKN010 OVC070 25/23 Q1012 A2988 HR88RWY HUM OPR=METAR SLVG 171800Z 36010KT 9999 FEW025 BKN200 23/13 Q1019 A3009 HR52METAR SLRB 171800Z 33008KT 9999 BKN015 OVC200 25/21 Q1010 A2983 HR80METAR SLPS 171800Z 00000KT 9999 FEW017 BKN070 29/25 Q1008 A2977 HR86=METAR SLCA 171800Z 00000KT 9999 BKN023 BKN070 24/20 Q1011 A2985 HR80SH SW RWY HUM OPR=
ZPX0569 171759@CAELT@GG SLZZYMYT@CAELT@171757 SLTJYGYZ@CAELT@SABO SLTJ 171800@CAELT@METAR SLTJ 171800Z 18010G20KT 9999 SCT030 25/12 Q1011 A2986 807.7@CAELT@HR45 AC=@CAELT@
ZPX0571 171800@CAELT@GG SLZZYMYT@CAELT@171800 SLCBYGYS@CAELT@SABO SLCB 171800@CAELT@METAR SLCB 171800Z 10012KT 9999 FEW036 BKN200 28/06 Q1016 A3002@CAELT@744.9 HR22 FU NOSIG=@CAELT@METAR SLAL 171800Z 01018KT 9999 FEW023 21/06 Q1021 A3017 698.5 HR39@CAELT@METAR SLPO 171800Z NIL=@CAELT@METAR SLAG 171800Z 08006KT 9999 BKN015 26/18 Q1010 A2985 883.5 HR64AC CI=METAR SLVM 171800Z NIL=METAR SLTJ 171800Z 18010G20KT 9999 SCT030 25/12 Q1011 A2986 807.7HR45 AC=METAR SLYA 171800Z 06004KT 5000 VCSH BKN005 OVC070 22/21 Q1009 A2980934.0 HR98 SH N/NE/W/NW RERA=METAR SLBJ 171800Z NIL=METAR SLHI 171800Z NIL=
ZPX0572 171800@CAELT@GG SLZZYMYT@CAELT@171758 SLTRYGYS@CAELT@SABO SLTR 171800@CAELT@METAR SLTR 171800Z 32008KT 9999 FEW020 FEW023CB BKN200 34/23 Q1006@CAELT@A2972 988.0 HR54 CB SW NOSIG=@CAELT@METAR SLGM 171800Z 09008KT 5000 -TSRA SCT007 BKN015 FEW020CB BKN070@CAELT@25/24 Q1009 A2979 HR96 CB N/NE/E/SE TS NE/SE=@CAELT@METAR SLRI 171800Z 03006KT 9999 SCT017 FEW020CB BKN200 33/24 Q1009A2980 HR57 CB N/NE=METAR SLJO 171800Z NIL=METAR SLRA 171800Z 35012KT 9999 SCT017 FEW023CB BKN200 35/23 Q1007A2974 HR50 CB SE/W RWY NML=METAR SLMG 171800Z 32012KT 9999 BKN017 BKN200 34/23 Q1008 A2977 HR57RWY NML=METAR SLBU 171800Z 36010KT 9999 SCT017 BKN200 35/24 Q1006 A2972 HR52METAR SLSA 171800Z 31012KT 9999 BKN017 BKN200 34/24 Q1007 A2974 HR56=METAR SLSR 171800Z 32010KT 8000 SCT017 BKN200 33/25 Q1005 A2970 HR62FU RWY NML=METAR SLSM 171800Z 36006KT 8000 VCSH SCT017 FEW020CB BKN200 33/25Q1006 A2971 HR62 CB S/SW RWY OPR C210=
ZPX0574 171808@CAELT@GG SLZZYMYT@CAELT@171802 SLLPYFYA@CAELT@SABO SLLP 171800@CAELT@METAR SLLP 171800Z 29009G20KT 9999 FEW025 SCT200 20/M14 Q1033 A3053@CAELT@625.2 HR09 P2483 NOSIG=@CAELT@METAR SLCO 171800Z 36010KT 9999 FEW023 BKN200 34/24 Q1009 A2979 981.6@CAELT@HR58=@CAELT@METAR SLRY 171800Z 34008KT 9999 BKN015 FEW023 CB BKN200 34/23 Q1006A2973 HR51 CB/NW/E RWY NMLMETAR SLRQ 171800Z 27012KT 5000 -TSRA BKN017 FEW020CB BKN200 32/26Q1006 A2973 982.8 HR70 TS W/NW CB SW/W/NW=METAR SLAP 171800Z 36015KT 9999 SCT025 29/20 Q1014 A2997 855.8 HR56AC=METAR SLSB 171800Z 00000KT 8000 VCSH BKN020 FEW023CB 33/25 Q1006A2971 HR63 CB/SH S SW RWY NML=METAR SLOR 171800Z 30006KT 9999 FEW023 23/M01 Q1031 A3046 653.4 HR21
ZPX0590 171852@CAELT@GG SLZZYMYT@CAELT@171852 SLPSYGYS@CAELT@SABO SLPS 171900@CAELT@METAR SLPS 171900Z 36008KT 9999 FEW017 SCT070 BKN200 30/26 Q1007@CAELT@A2974 HR80=@CAELT@
ZPX0591 171853@CAELT@GG SLZZYMYT@CAELT@171847 SLETYMYC@CAELT@SABO SLET 171900@CAELT@METAR SLET 171900Z 33010KT 9999 SCT017 BKN200 29/20 Q1006 A2972 HR59@CAELT@NOSIG=@CAELT@
ZPX0593 171854@CAELT@GG SLZZYMYT@CAELT@171855 SLAGYSYX@CAELT@SABO SLAG 171900@CAELT@METAR SLAG 171900Z VRB02KT 9999 SCT017 26/19 Q1008 A2979 881.8 HR64@CAELT@AC CI=@CAELT@
ZPX0594 171854@CAELT@GG SLZZYMYT@CAELT@171854 SLRBYGYS@CAELT@SABO SLRB 171900@CAELT@METAR SLRB 171900Z 33008KT 9999 SCT015 OVC200 26/23 Q1010 A2983 HR86@CAELT@RWY NML=@CAELT@
ZPX0595 171854@CAELT@GG SLZZYMYT@CAELT@171855 SLCOYGYZ@CAELT@SABO SLCO 171900@CAELT@METAR SLCO 171900Z 30008KT 9999 FEW023 BKN200 33/23 Q1007 A2974 979.9@CAELT@HR55=@CAELT@
ZPX0596 171855@CAELT@GG SLZZYMYT@CAELT@171855 SLTRYGYZ@CAELT@SABO SLTR 171900@CAELT@METAR SLTR 171900Z 30008KT 9999 FEW020 BKN200 35/24 Q1004 A2967@CAELT@986.4 HR53 NOSIG=@CAELT@
ZPX0597 171856@CAELT@GG SLZZYMYT@CAELT@171854 SLSAYGYS@CAELT@SABO SLSA 171900@CAELT@METAR SLSA 171900Z 32010KT 9999 BKN017 BKN200 34/23 Q1006 A2971 HR54=@CAELT@
ZPX0598 171856@CAELT@GG SLZZYMYT@CAELT@171856 SLTJYGYZ@CAELT@SABO SLTJ 171900@CAELT@METAR SLTJ 171900Z 05007KT 9999 SCT030 26/12 Q1010 A2983 806.6 HR42@CAELT@AC=@CAELT@
ZPX0599 171856@CAELT@GG SLZZYMYT@CAELT@171856 SLCAYGYS@CAELT@SABO SLCA 171900@CAELT@METAR SLCA 171900Z 00000KT 9999 BKN027 24/20 Q1009 A2980 HR78 AC RWY@CAELT@NML=@CAELT@
ZPX0600 171856@CAELT@GG SLZZYMYT@CAELT@171855 SLLPYGYZ@CAELT@SABO SLLP 171900@CAELT@METAR SLLP 171900Z 27014G26KT 210V350 9999 FEW025 SCT200 21/M17@CAELT@Q1032 A3050 624.4 HR07 P2483 NOSIG=@CAELT@
ZPX0601 171857@CAELT@GG SLZZYMYT@CAELT@171856 SLLPYFYA@CAELT@SABO SLRY 171900@CAELT@METAR SLRY 171900Z 34008KT 9999 SCT017 FEW023CB BKN200 31/24 Q1005@CAELT@A2970 HR66 CB/S/SE RWY NML@CAELT@
ZPX0602 171857@CAELT@GG SLZZYMYT@CAELT@171857 SLRQYSYX@CAELT@SABO SLRQ 171900@CAELT@METAR SLRQ 171900Z 27004KT 9999 SCT017 FEW020CB BKN200 27/25 Q1005@CAELT@A2969 981.5 HR90 CB SE/S/W RETSRA=@CAELT@
ZPX0603 171857@CAELT@GG SLZZYMYT@CAELT@171857 SLTRYGYS@CAELT@SABO SLTR 171900@CAELT@METAR SLTR 171900Z 30008KT 9999 FEW020 BKN200 35/24 Q1004 A2967@CAELT@986.4 HR53 NOSIG=@CAELT@METAR SLGM 171900Z 02006KT 8000 VCSH FEW007 SCT015 FEW020CB BKN070@CAELT@27/24 Q1007 A2974 HR85 RETSRA CB/SH N/NE/E=@CAELT@METAR SLRI 171900Z 36006KT 9999 SCT017 FEW020CB BKN200 33/23 Q1007A2975 HR58 CB N/SW=METAR SLJO 171900Z NIL=METAR SLRA 171900Z 35010KT 9999 SCT017 FEW023CB BKN200 34/23 Q1006A2973 HR53 CB SE RWY NML=METAR SLMG 171900Z 32012KT 9999 SCT017 BKN200 33/23 Q1006 A2973 HR58RWY NML=METAR SLBU 171900Z 36010KT 9999 SCT017 BKN200 35/23 Q1005 A2969 HR51METAR SLSA 171900Z 32010KT 9999 BKN017 BKN200 34/23 Q1006 A2971 HR54=METAR SLSR 171900Z 32010KT 8000 SCT017 BKN200 34/24 Q1003 A2964 HR54FU RWY NML=METAR SLSM 171900Z 34006KT 9999 SCT017 FEW020CB BKN200 33/25 Q1005A2968 HR60 CB SW/NW RWY HUM OPR=
ZPX0604 171858@CAELT@GG SLZZYMYT@CAELT@171857 SLCBYGYZ@CAELT@SABO SLCB 171900@CAELT@METAR SLCB 171900Z 10012KT 9999 FEW036 BKN200 27/07 Q1015 A2998 743.7@CAELT@HR28 FU AC VIRGA ON STN/S NOSIG=@CAELT@
ZPX0605 171858@CAELT@GG SLZZYMYT@CAELT@171856 SLSBYSYX@CAELT@SABO SLSB 171900@CAELT@METAR SLSB 171900Z 00000KT 3000 -TSRA SCT015 BKN020 FEW023CB 26/25@CAELT@Q1005 A2970 HR93 TS/CB ON STN/NW RWY WET OPR C210=@CAELT@
ZPX0606 171858@CAELT@GG SLZZYMYT@CAELT@171858 SLVRYFYC@CAELT@SABO SLVR 171900@CAELT@METAR SLVR 171900Z 03009KT 9999 FEW013 SCT020 BKN200 28/21 Q1006@CAELT@A2973 HR66 AC NOSIG=@CAELT@METAR SLET 171900Z 33010KT 9999 SCT017 BKN200 29/20 Q1006 A2972 HR59@CAELT@NOSIG=@CAELT@METAR SLAS 171900Z 00000KT 9999 BKN017 OVC200 31/25 Q1008 A2977 HR71RWY HUM OPR=METAR SLJV 171900Z 00000KT 9999 SCT020 BKN200 27/23 Q1008 A2974 HR79RWY NML=METAR SLCP 171900Z 30005KT 9999 SCT017 BKN200 31/22 Q1010 A2983 HR60METAR SLSI 171900Z 03010KT 9999 SCT017 FEW030CB OVC200 25/22 Q1008A2977 HR78 CB/N/NE/SW RWY NML=METAR SLTI 171900Z 26010KT 9999 SCT020 OVC200 32/23 Q1010 A2983 HR60METAR SLJE 171900Z 00000KT 9999 SCT013 BKN070 OVC200 27/22 Q1011A2985 HR77 RWY NML=METAR SLVG 171900Z 02010KT 9999 NSC 24/13 Q1017 A3003 HR46 I RWY HUMOPR=METAR SLRB 171900Z 33008KT 9999 SCT015 OVC200 26/23 Q1010 A2983 HR86METAR SLPS 171900Z 36008KT 9999 FEW017 SCT070 BKN200 30/26 Q1007A2974 HR80=METAR SLCA 171900Z 00000KT 9999 BKN027 24/20 Q1009 A2980 HR78 AC RWYNML=
ZPX0608 171859@CAELT@GG SLZZYMYT@CAELT@171858 SLLPYFYA@CAELT@SABO SLLP 171900@CAELT@METAR SLLP 171900Z 27014G26KT 210V350 9999 FEW025 SCT200 21/M17@CAELT@Q1032 A3050 624.4 HR07 P2483 NOSIG=@CAELT@METAR SLCO 171900Z 30008KT 9999 FEW023 BKN200 33/23 Q1007 A2974 979.9@CAELT@HR55=@CAELT@METAR SLRY 171900Z 34008KT 9999 SCT017 FEW023CB BKN200 31/24 Q1005A2970 HR66 CB/S/SE RWY NMLMETAR SLRQ 171900Z 27004KT 9999 SCT017 FEW020CB BKN200 27/25 Q1005A2969 981.5 HR90 CB SE/S/W RETSRA=METAR SLSB 171900Z 00000KT 3000 -TSRA SCT015 BKN020 FEW023CB 26/25Q1005 A2970 HR93 TS/CB ON STN/NW RWY WET OPR C210=
ZPX0611 171901@CAELT@GG SLZZYMYT@CAELT@171900 SLCBYGYS@CAELT@SABO SLCB 171900@CAELT@METAR SLCB 171900Z 10012KT 9999 FEW036 BKN200 27/07 Q1015 A2998@CAELT@743.7 HR28 FU AC VIRGA ON STN/S NOSIG=@CAELT@METAR SLAL 171900Z 01015G25KT 9999 FEW023 21/06 Q1020 A3014 697.8@CAELT@HR38 CI=@CAELT@METAR SLPO 171900Z NIL=METAR SLAG 171900Z VRB02KT 9999 SCT017 26/19 Q1008 A2979 881.8 HR64AC CI=METAR SLVM 171900Z NIL=METAR SLTJ 171900Z 05007KT 9999 SCT030 26/12 Q1010 A2983 806.6 HR42AC=METAR SLYA 171900Z 06005KT 5000 VCSH BKN005 OVC070 21/21 Q1007 A2975932.6 HR99 SH N/NE/E/W/NW=METAR SLBJ 171900Z NIL=METAR SLHI 171900Z NIL=
ZPX0639 171951@CAELT@GG SLZZYMYT@CAELT@171947 SLETYMYC@CAELT@SABO SLET 172000Z@CAELT@METAR SLET 172000Z 34010KT 9999 BKN017 OVC070 28/21 Q1005 A2970 HR65@CAELT@NOSIG=@CAELT@
ZPX0640 171953@CAELT@GG SLZZYMYT@CAELT@171953 SLPSYGYS@CAELT@SABO SLPS 172000@CAELT@METAR SLPS 172000Z 36006KT 9999 FEW017 SCT070 BKN200 30/26 Q1006@CAELT@A2971 HR81=@CAELT@
ZPX0641 171953@CAELT@GG SLZZYMYT@CAELT@171953 SLCAYGYS@CAELT@SABO SLCA 172000@CAELT@METAR SLCA 172000Z 00000KT 9999 BKN027 25/20 Q1008 A2977 HR73 RWY NML=@CAELT@
ZPX0642 171953@CAELT@GG SLZZYMYT@CAELT@171953 SLRBYGYS@CAELT@SABO SLRB 172000@CAELT@METAR SLRB 172000Z 35006KT 9999 SCT015 OVC200 28/23 Q1008 A2977 HR75@CAELT@RWY NML=@CAELT@
ZPX0643 171954@CAELT@GG SLZZYMYT@CAELT@171954 SLSBYSYX@CAELT@SABO SLSB 172000@CAELT@METAR SLSB 172000Z 00000KT 6000 VCSH SCT017 FEW020CB BKN200 26/25@CAELT@Q1005 A2968 HR93 RETSRA CB/SH N NE NW RWY WET OPR C210=@CAELT@
ZPX0644 171954@CAELT@GG SLZZYMYT@CAELT@171954 SLSAYGYS@CAELT@SABO SLSA 172000@CAELT@METAR SLSA 172000Z 30010KT 9999 SCT017 BKN200 34/23 Q1005 A2968 HR52=@CAELT@
ZPX0646 171955@CAELT@GG SLZZYMYT@CAELT@171955 SLTRYGYZ@CAELT@SABO SLTR 172000@CAELT@METAR SLTR 172000Z 30008KT 9999 FEW020 BKN200 35/24 Q1003 A2964@CAELT@985.3 HR52 NOSIG=@CAELT@
ZPX0647 171955@CAELT@GG SLZZYMYT@CAELT@171955 SLRQYSYX@CAELT@SABO SLRQ 172000@CAELT@METAR SLRQ 172000Z 00000KT 9999 SCT017 FEW020CB BKN200 27/26 Q1004@CAELT@A2966 980.5 HR94 CB SE=@CAELT@
ZPX0649 171956@CAELT@GG SLZZYMYT@CAELT@171956 SLTJYGYZ@CAELT@SABO SLTJ 172000@CAELT@METAR SLTJ 172000Z 14008KT 9999 SCT030 24/12 Q1009 A2981 806.2 HR46@CAELT@AC=@CAELT@
ZPX0651 171956@CAELT@GG SLZZYMYT@CAELT@171955 SLLPYGYZ@CAELT@SABO SLLP 172000@CAELT@METAR SLLP 172000Z 25007G17KT 9999 FEW025 SCT200 21/M16 Q1031 A3046@CAELT@623.7 HR07 P7483 NOSIG=@CAELT@
ZPX0652 171958@CAELT@GG SLZZYMYT@CAELT@171958 SLCBYGYZ@CAELT@SABO SLCB 172000@CAELT@METAR SLCB 172000Z 06015KT 9999 FEW036 BKN200 29/07 Q1014 A2995 743.0@CAELT@HR25 FU NOSIG=@CAELT@
ZPX0653 171958@CAELT@GG SLZZYMYT@CAELT@171958 SLVRYFYC@CAELT@SABO SLVR 172000@CAELT@METAR SLVR 172000Z 04010KT 9999 FEW013 SCT020 BKN200 28/21 Q1006@CAELT@A2971 HR66 AC NOSIG=@CAELT@METAR SLET 172000Z 34010KT 9999 BKN017 OVC070 28/21 Q1005 A29.70 HR65@CAELT@NOSIG=@CAELT@METAR SLAS 172000Z 00000KT 9999 BKN017 OVC200 29/24 Q1007 A2974 HR73RWY NML=METAR SLJV 172000Z 00000KT 9999 SCT020 BKN200 26/22 Q1006 A2971 HR79METAR SLCP 172000Z 00000KT 8000 VCSH BKN017 BKN200 31/23 Q1010 A2983HR69 SH/N/NE RWY NML=METAR SLSI 172000Z 33006KT 9999 SCT017 FEW030CB OVC200 24/21 Q1007A2974 HR82 CB/NE/SW RWY NML=METAR SLTI 172000Z 26006KT 9999 FEW020 OVC200 31/23 Q1009 A2980 HR62METAR SLJE 172000Z 00000KT 9999 BKN070 BKN200 27/22 Q1010 A2983 HR74METAR SLVG 172000Z 36009KT 9999 NSC 24/11 Q1016 A3000 HR40 CI RWY HUMOPR=METAR SLRB 172000Z 35006KT 9999 SCT015 OVC200 28/23 Q1008 A2977 HR75METAR SLPS 172000Z 36006KT 9999 FEW017 SCT070 BKN200 30/26 Q1006A2971 HR81=METAR SLCA 172000Z 00000KT 9999 BKN027 25/20 Q1008 A2977 HR73 RWY NML
ZPX0654 171959@CAELT@GG SLZZYMYT@CAELT@171959 SLCOYGYZ@CAELT@SABO SLCO 172000@CAELT@METAR SLCO 172000Z 34010KT 9999 FEW025 BKN200 34/23 Q1006 A2971 978.9@CAELT@HR51=@CAELT@
ZPX0656 172002@CAELT@GG SLZZYMYT@CAELT@172000 SLTRYGYS@CAELT@SABO SLTR 172000@CAELT@METAR SLTR 172000Z 30008KT 9999 FEW020 BKN200 35/24 Q1003 A2964@CAELT@985.3 HR52 NOSIG=@CAELT@METAR SLGM 172000Z 00000KT 9999 SCT017 FEW020CB BKN200 29/24 Q1005@CAELT@A2969 HR71 CB NE/E=@CAELT@METAR SLRI 172000Z 36004KT 9999 SCT017 FEW020CB BKN200 32/24 Q1006A2971 HR61 CB N/NE=METAR SLJO 172000Z NIL=METAR SLRA 172000Z 35008KT 7000 VCSH SCT017 FEW023CB BKN200 33/24Q1005 A2970 HR59 CB/SH SE/SW/W RWY NML=METAR SLMG 172000Z 32014KT 9999 FEW017 BKN200 33/22 Q1006 A2971 HR51RWY NML=METAR SLBU 172000Z 36008KT 9999 FEW017 BKN200 35/24 Q1004 A2967 HR57METAR SLSA 172000Z 30010KT 9999 SCT017 BKN200 34/23 Q1005 A2968 HR52=METAR SLSR 172000Z 32015KT 8000 FEW017 BKN200 35/23 Q1003 A2962 HR51FU RWY NML=METAR SLSM 172000Z 34006KT 6000 VCSH SCT017 FEW020CB BKN200 32/25Q1003 A2964 HR65 CB/SH SW/W RWY HUM OPR=
ZPX0658 172003@CAELT@GG SLZZYMYT@CAELT@172000 SLCBYGYS@CAELT@SABO SLCB 172000@CAELT@METAR SLCB 172000Z 06015KT 9999 FEW036 BKN200 29/07 Q1014 A2995 743.0@CAELT@HR25 FU NOSIG=@CAELT@METAR SLAL 172000Z 33013KT 9999 FEW023 21/05 Q1020 A3012 697.4 HR36@CAELT@METAR SLPO 172000Z NIL=@CAELT@METAR SLAG 172000Z NIL=METAR SLVM 172000Z NIL=METAR SLTJ 172000Z 14008KT 9999 SCT030 24/12 Q1009 A2981 806.2 HR46AC=METAR SLYA 172000Z 06006KT 6000 VCSH SCT005 BKN010 OVC070 22/21 Q1007A2975 932.4 HR97 SH N/NE/E/W/NW=METAR SLBJ 172000Z NIL=METAR SLHI 172000Z NIL=
ZPX0659 172006@CAELT@GG SLZZYMYT@CAELT@172002 SLLPYFYA@CAELT@SABO SLRY 172000@CAELT@METAR SLRY 172000Z 00000KT 9999 FEW017 BKN200 29/24 Q1004 A2967 HR76@CAELT@RWY NML@CAELT@
ZPX0660 172007@CAELT@GG SLZZYMYT@CAELT@172004 SLLPYFYA@CAELT@SABO SLLP 172000@CAELT@METAR SLLP 172000Z 25007G17KT 9999 FEW025 SCT200 21/M16 Q1031 A3046@CAELT@623.7 HR07 P7483 NOSIG=@CAELT@METAR SLCO 172000Z 34010KT 9999 FEW025 BKN200 34/23 Q1006 A2971 978.9@CAELT@HR51=@CAELT@METAR SLRY 172000Z 00000KT 9999 FEW017 BKN200 29/24 Q1004 A2967 HR76RWY NMLMETAR SLRQ 172000Z 00000KT 9999 SCT017 FEW020CB BKN200 27/26 Q1004A2966 980.5 HR94 CB SE=METAR SLSB 172000Z 00000KT 6000 VCSH SCT017 FEW020CB BKN200 26/25Q1005 A2968 HR93 RETSRA CB/SH N NE NW RWY WET OPR C210=
ZPX0675 172050@CAELT@GG SLZZYMYT@CAELT@172050 SLCAYGYS@CAELT@SABO SLCA 172100@CAELT@METAR SLCA 172100Z 18004KT 9999 BKN027 25/19 Q1007 A2974 HR72 RWY NML@CAELT@
ZPX0676 172051@CAELT@GG SLZZYMYT@CAELT@172051 SLPSYGYS@CAELT@SABO SLPS 172100@CAELT@METAR SLPS 172100Z 36004KT 9999 FEW017 OVC200 29/26 Q1006 A2971 HR87=@CAELT@
ZPX0678 172053@CAELT@GG SLZZYMYT@CAELT@172049 SLETYMYC@CAELT@SABO SLET 172100Z@CAELT@METAR SLET 172100Z 32010KT 9999 BKN016 0VC070 27/20 Q1005 A2968 NOSIG=@CAELT@
ZPX0679 172054@CAELT@GG SLZZYMYT@CAELT@172054 SLSAYGYS@CAELT@SABO SLSA 172100@CAELT@METAR SLSA 172100Z 32008KT 9999 FEW017 BKN200 33/23 Q1004 A2965 HR53=@CAELT@
ZPX0681 172054@CAELT@GG SLZZYMYT@CAELT@172054 SLTJYGYZ@CAELT@SABO SLTJ 172100@CAELT@METAR SLTJ 172100Z 13012KT 9999 BKN030 22/13 Q1010 A2984 807.0 HR57=@CAELT@
ZPX0682 172054@CAELT@GG SLZZYMYT@CAELT@172053 SLRBYGYS@CAELT@SABO SLRB 172100@CAELT@METAR SLRB 172100Z 36006KT 9999 SCT017 BKN200 28/23 Q1006 A2971 HR75@CAELT@RWY NML=@CAELT@
ZPX0684 172055@CAELT@GG SLZZYMYT@CAELT@172055 SLTRYGYZ@CAELT@SABO SLTR 172100@CAELT@METAR SLTR 172100Z 31008KT 9999 FEW020 BKN200 34/24 Q1003 A2962@CAELT@984.8 HR54 NOSIG=@CAELT@
ZPX0685 172055@CAELT@GG SLZZYMYT@CAELT@172055 SLRQYSYX@CAELT@SABO SLRQ 172100@CAELT@METAR SLRQ 172100Z 00000KT 9999 SCT030 BKN200 28/27 Q1003 A2962 979.0@CAELT@HR89=@CAELT@
ZPX0686 172056@CAELT@GG SLZZYMYT@CAELT@172055 SLLPYFYA@CAELT@SABO SLRY 172100@CAELT@METAR SLRY 172100Z 00000KT 9999 FEW020 BKN200 29/24 Q1002 A2961 HR76@CAELT@RWY NML=@CAELT@
ZPX0689 172056@CAELT@GG SLZZYMYT@CAELT@172055 SLLPYGYZ@CAELT@SABO SLLP 172100@CAELT@METAR SLLP 172100Z 31008G20KT 250V030 9999 FEW025 SCT200 20/M16@CAELT@Q1030 A3043 623.0 HR07 P1483 NOSIG=@CAELT@
ZPX0691 172057@CAELT@GG SLZZYMYT@CAELT@172056 SLSBYSYX@CAELT@SABO SLSB 172100@CAELT@METAR SLSB 172100Z 00000KT 9999 FEW017 SCT070 OVC200 27/25 Q1003@CAELT@A2962 HR91 RWY WET OPR C210=@CAELT@
ZPX0692 172058@CAELT@GG SLZZYMYT@CAELT@172058 SLTRYGYS@CAELT@SABO SLTR 172100@CAELT@METAR SLTR 172100Z 31008KT 9999 FEW020 BKN200 34/24 Q1003 A2962 984.8@CAELT@HR54 NOSIG=@CAELT@METAR SLGM 172100Z 02010KT 9999 SCT017 FEW020CB BKN200 31/24 Q1005@CAELT@A2968 HR66 CB NE/E/S=@CAELT@METAR SLRI 172100Z 00000KT 9999 SCT017 FEW020CB BKN200 32/24 Q1006A2971 HR61 CB N/NE=METAR SLJO 172100Z NIL=METAR SLRA 172100Z 35008KT 7000 VCSH SCT017 FEW023CB BKN200 31/25Q1004 A2966 HR71 CB/SH E/SE RWY NML=METAR SLMG 172100Z 32012KT 9999 FEW017 BKN200 32/22 Q1005 A2970 HR56RWY NML=METAR SLBU 172100Z 36008KT 9999 FEW017 BKN200 32/24 Q1003 A2964 HR61METAR SLSA 172100Z 32008KT 9999 FEW017 BKN200 33/23 Q1004 A2965 HR53=METAR SLSR 172100Z 32015KT 8000 VCSH FEW017 FEW023CB BKN200 34/23Q1001 A2958 HR54 FU CB/SH SE/S/SW RWY NML=METAR SLSM 172100Z 30004KT 9999 SCT017 FEW020CB BKN200 31/26 Q1002A2961 HR72 CB W RWY HUM OPR=
ZPX0693 172059@CAELT@GG SLZZYMYT@CAELT@172059 SLLPYFYA@CAELT@SABO SLLP 172100@CAELT@METAR SLLP 172100Z 31008G20KT 250V030 9999 FEW025 SCT200 20/M16@CAELT@Q1030 A3043 623.0 HR07 P1483 NOSIG=@CAELT@METAR SLRY 172100Z 00000KT 9999 FEW020 BKN200 29/24 Q1002 A2961 HR76@CAELT@RWY NML=@CAELT@METAR SLRQ 172100Z 00000KT 9999 SCT030 BKN200 28/27 Q1003 A2962 979.0HR89=METAR SLSB 172100Z 00000KT 9999 FEW017 SCT070 OVC200 27/25 Q1003A2962 HR91 RWY WET OPR C210=
ZPX0695 172059@CAELT@GG SLZZYMYT@CAELT@172058 SLCBYGYZ@CAELT@SABO SLCB 172100@CAELT@METAR SLCB 172100Z 35008KT 9999 FEW036 BKN200 29/08 Q1013 A2993 HR25@CAELT@FU NOSIG=@CAELT@
ZPX0696 172059@CAELT@GG SLZZYMYT@CAELT@172059 SLVRYFYC@CAELT@SABO SLVR 172100@CAELT@METAR SLVR 172100Z 03008KT 9999 FEW013 SCT020 BKN200 27/22 Q1005@CAELT@A2968 HR73 AC NOSIG=@CAELT@METAR SLET 172100Z 32010KT 9999 BKN016 0VC070 27/20 Q1005 A2968 NOSIG@CAELT@METAR SLAS 172100Z 00000KT 9999 FEW020 BKN200 31/24 Q1006 A2971 HR67@CAELT@RWY NML=METAR SLJV 172100Z 00000KT 9999 FEW020 BKN200 25/22 Q1006 A2971 HR83METAR SLCP 172100Z 18004KT 9999 BKN017 25/24 Q1009 A2980 HR85 RERARWY WET OPR=METAR SLSI 172100Z 00000KT 9999 SCT017 OVC200 24/21 Q1005 A2968 HR85METAR SLTI 172100Z 27006KT 9999 NSC 30/22 Q1009 A2980 HR64 CI RWY NMLMETAR SLJE 172100Z 00000KT 9999 SCT070 BKN200 29/22 Q1009 A2980 HR70METAR SLVG 172100Z 36007KT 9999 NSC 24/12 Q1015 A2997 HR46 CI RWY NMLMETAR SLRB 172100Z 36006KT 9999 SCT017 BKN200 28/23 Q1006 A2971 HR75METAR SLPS 172100Z 36004KT 9999 FEW017 OVC200 29/26 Q1006 A2971 HR87=METAR SLCA 172100Z 18004KT 9999 BKN027 25/19 Q1007 A2974 HR72 RWY NML
ZPX0699 172102@CAELT@GG SLZZYMYT@CAELT@172101 SLCBYGYS@CAELT@SABO SLCB 172100@CAELT@METAR SLCB 172100Z 35008KT 9999 FEW036 BKN200 29/08 Q1013 A2993 HR25@CAELT@FU NOSIG=@CAELT@METAR SLAL 172100Z 01014KT 9999 FEW023 21/06 Q1019 A3011 697.2 HR39@CAELT@METAR SLPO 172100Z NIL=@CAELT@METAR SLAG 172100Z NIL=METAR SLVM 172100Z NIL=METAR SLTJ 172100Z 13012KT 9999 BKN030 22/13 Q1010 A2984 807.0 HR57=METAR SLYA 172100Z 00000KT 6000 VCSH SCT005 BKN010 OVC070 21/21 Q1007A2975 932.4 HR98 SH TODAS DIRECC=METAR SLBJ 172100Z NIL=METAR SLHI 172100Z NIL=
ZPX0700 172102@CAELT@GG SLZZYMYT@CAELT@172102 SLCOYGYZ@CAELT@SABO SLCO 172100 RRA@CAELT@METAR RTD SLCO 172100Z 31006KT 9999 FEW025 BKN200 33/23 Q1005 A2970@CAELT@978.4 HR54=@CAELT@
ZPX0702 172107@CAELT@GG SLZZYMYT@CAELT@172107 SLLPYFYA@CAELT@SABO SLLP 172100 RRA@CAELT@METAR SLLP 172100Z 31008G20KT 250V030 9999 FEW025 SCT200 20/M16@CAELT@Q1030 A3043 623.0 HR07 P1483 NOSIG=@CAELT@METAR RTD SLCO 172100Z 31006KT 9999 FEW025 BKN200 33/23 Q1005 A2970@CAELT@978.4 HR54=@CAELT@METAR SLRY 172100Z 00000KT 9999 FEW020 BKN200 29/24 Q1002 A2961 HR76RWY NML=METAR SLRQ 172100Z 00000KT 9999 SCT030 BKN200 28/27 Q1003 A2962 979.0HR89=METAR SLSB 172100Z 00000KT 9999 FEW017 SCT070 OVC200 27/25 Q1003A2962 HR91 RWY WET OPR C210=
ZPX0718 172152@CAELT@GG SLZZYMYT@CAELT@172151 SLCOYGYZ@CAELT@SABO SLCO 172100@CAELT@METAR SLCO 172100Z 32004KT 9999 SCT025 BKN200 33/23 Q1005 A2970 978.5@CAELT@HR56=@CAELT@
ZPX0719 172153@CAELT@GG SLZZYMYT@CAELT@172151 SLETYMYC@CAELT@SABO SLET 172200@CAELT@METAR SLET 172200Z 35008KT 9999 SCT015 BKN200 26/20 Q1004 A2967 HR71@CAELT@NOSIG=@CAELT@
ZPX0720 172153@CAELT@GG SLZZYMYT@CAELT@172153 SLRBYGYS@CAELT@SABO SLRB 172200@CAELT@METAR SLRB 172200Z 36004KT 9999 SCT017 BKN200 27/23 Q1007 A2974 HR78@CAELT@RWY NML=@CAELT@
ZPX0721 172154@CAELT@GG SLZZYMYT@CAELT@172154 SLCAYGYS@CAELT@SABO SLCA 172200@CAELT@METAR SLCA 172200Z 00000KT 9999 OVC030 24/19 Q1009 A2980 HR74 RWY NML@CAELT@
ZPX0722 172154@CAELT@GG SLZZYMYT@CAELT@172153 SLPSYGYS@CAELT@SABO SLPS 172200@CAELT@METAR SLPS 172200Z 36003KT 9999 FEW017 OVC200 27/26 Q1007 A2974 HR91=@CAELT@
ZPX0723 172154@CAELT@GG SLZZYMYT@CAELT@172154 SLSAYGYS@CAELT@SABO SLSA 172200@CAELT@METAR SLSA 172200Z 32006KT 9999 FEW017 BKN200 32/23 Q1004 A2965 HR59=@CAELT@
ZPX0724 172154@CAELT@GG SLZZYMYT@CAELT@172155 SLCBYGYZ@CAELT@SABO SLCB 172200@CAELT@METAR SLCB 172200Z 02012KT 9999 FEW036 BKN200 26/08 Q1014 A2995 743.0@CAELT@HR32 FU NOSIG=@CAELT@
ZPX0725 172154@CAELT@GG SLZZYMYT@CAELT@172154 SLSBYSYX@CAELT@SABO SLSB 172200@CAELT@METAR SLSB 172200Z 00000KT 9999 FEW017 SCT070 OVC200 27/25 Q1003@CAELT@A2962 HR93 RWY WET OPR C210=@CAELT@
ZPX0726 172155@CAELT@GG SLZZYMYT@CAELT@172155 SLTRYGYZ@CAELT@SABO SLTR 172200@CAELT@METAR SLTR 172200Z 34006KT 9999 FEW020 BKN200 33/23 Q1002 A2962@CAELT@984.5 HR54 AC NOSIG=@CAELT@
ZPX0728 172156@CAELT@GG SLZZYMYT@CAELT@172155 SLRQYSYX@CAELT@SABO SLRQ 172200@CAELT@METAR SLRQ 172200Z 00000KT 9999 FEW030 BKN200 29/26 Q1002 A2959 978.2@CAELT@HR85=@CAELT@
ZPX0729 172156@CAELT@GG SLZZYMYT@CAELT@172156 SLVRYFYC@CAELT@SABO SLVR 172200@CAELT@METAR SLVR 172200Z 03007KT 9999 FEW015 SCT070 BKN200 26/21 Q1005@CAELT@A2968 HR74 NOSIG=@CAELT@METAR SLET 172200Z 35008KT 9999 SCT015 BKN200 26/20 Q1004 A2967 HR71@CAELT@NOSIG=@CAELT@METAR SLAS 172200Z 00000KT 9999 FEW020 BKN200 30/24 Q1006 A2971 HR73RWY NML=METAR SLJV 172200Z 00000KT 9999 NSC 25/24 Q1005 A2968 HR91 RWY NML=METAR SLCP 172200Z 00000KT 9999 SCT017 BKN200 26/24 Q1008 A2977 HR80RWY WET OPR=METAR SLSI 172200Z 33006KT 9999 NSC 24/21 Q1004 A2965 HR82 RWY NML=METAR SLTI 172200Z 00000KT 9999 NSC 29/24 Q1008 A2977 HR73 CI RWY NMLMETAR SLJE 172200Z 00000KT 9999 SCT070 BKN200 28/23 Q1008 A2977 HR62METAR SLRB 172200Z 36004KT 9999 SCT017 BKN200 27/23 Q1007 A2974 HR78METAR SLPS 172200Z 36003KT 9999 FEW017 OVC200 27/26 Q1007 A2974 HR91=METAR SLCA 172200Z 00000KT 9999 OVC030 24/19 Q1009 A2980 HR74 RWY NML
ZPX0730 172156@CAELT@GG SLZZYMYT@CAELT@172155 SLLPYGYZ@CAELT@SABO SLLP 172200@CAELT@METAR SLLP 172200Z 26011KT 9999 FEW023 SCT200 19/M16 Q1031 A3045@CAELT@623.4 HR08 P3083 NOSIG=@CAELT@
ZPX0731 172157@CAELT@GG SLZZYMYT@CAELT@172157 SLLPYFYA@CAELT@SABO SLRY 172200@CAELT@METAR SLRY 172200Z 00000KT 9999 FEW020 BKN200 29/25 Q1002 A2961 HR79@CAELT@RWY NML=@CAELT@
ZPX0732 172157@CAELT@GG SLZZYMYT@CAELT@172156 SLTJYGYZ@CAELT@SABO SLTJ 172200@CAELT@METAR SLTJ 172200Z 15008KT 9999 BKN030 20/14 Q1012 A2990 808.7 HR67@CAELT@
ZPX0734 172158@CAELT@GG SLZZYMYT@CAELT@172158 SLCBYGYS@CAELT@SABO SLCB 172200@CAELT@METAR SLCB 172200Z 02012KT 9999 FEW036 BKN200 26/08 Q1014 A2995 743.0@CAELT@HR32 FU NOSIG=@CAELT@METAR SLAL 172200Z 01014KT 9999 FEW020 20/06 Q1019 A3011 697.3 HR41@CAELT@METAR SLTJ 172200Z 15008KT 9999 BKN030 20/14 Q1012 A2990 808.7 HR67@CAELT@
ZPX0736 172200@CAELT@GG SLZZYMYT@CAELT@172159 SLLPYFYA@CAELT@SABO SLLP 172200@CAELT@METAR SLLP 172200Z 26011KT 9999 FEW023 SCT200 19/M16 Q1031 A3045@CAELT@623.4 HR08 P3083 NOSIG=@CAELT@METAR SLCO 172100Z 32004KT 9999 SCT025 BKN200 33/23 Q1005 A2970 978.5@CAELT@HR56=@CAELT@METAR SLRY 172200Z 00000KT 9999 FEW020 BKN200 29/25 Q1002 A2961 HR79RWY NML=METAR SLRQ 172200Z 00000KT 9999 FEW030 BKN200 29/26 Q1002 A2959 978.2HR85=METAR SLSB 172200Z 00000KT 9999 FEW017 SCT070 OVC200 27/25 Q1003A2962 HR93 RWY WET OPR C210=
ZPX0737 172201@CAELT@GG SLZZYMYT@CAELT@172159 SLTRYGYS@CAELT@SABO SLTR 172200@CAELT@METAR SLTR 172200Z 34006KT 9999 FEW020 BKN200 33/23 Q1002 A2962 984.5@CAELT@HR54 AC NOSIG=@CAELT@METAR SLGM 172200Z 36006KT 8000 VCSH SCT017 FEW020CB BKN200 30/24@CAELT@Q1005 A2969 HR69 CB/SH NE/SW/W=@CAELT@METAR SLRI 172200Z 36008KT 8000 TS VCSH SCT015 FEW020CB BKN200 29/26Q1006 A2972 HR83 CB/SH S/SW/W TS W=METAR SLJO 172200Z NIL=METAR SLRA 172200Z 36008KT 7000 VCSH FEW017 FEW023CB BKN200 31/24Q1004 A2966 HR67 CB/SH E RWY NML=METAR SLMG 172200Z 34006KT 9999 FEW017 FEW023CB BKN200 31/24 Q1006A2971 HR65 CB W RWY NML=METAR SLBU 172200Z NIL=METAR SLSA 172200Z 32006KT 9999 FEW017 BKN200 32/23 Q1004 A2965 HR59=METAR SLSR 172200Z 32015KT 8000 FEW017 FEW023CB BKN200 33/23 Q1001A2956 HR57 FU CB SE RWY NML=METAR SLSM 172200Z 00000KT 9999 SCT017 FEW020CB BKN200 29/25 Q1002A2960 HR79 CB W RWY HUM OPR=
ZPX0753 172253@CAELT@GG SLZZYMYT@CAELT@172253 SLRBYGYS@CAELT@SABO SLRB 172300@CAELT@METAR SLRB 172300Z 36006KT 9999 SCT017 BKN200 26/23 Q1007 A2974 HR86@CAELT@RWY NML=@CAELT@
ZPX0754 172253@CAELT@GG SLZZYMYT@CAELT@172253 SLSBYSYX@CAELT@SABO SLSB 172300@CAELT@METAR SLSB 172300Z 00000KT 9999 FEW017 BKN200 26/25 Q1003 A2963 HR95@CAELT@RWY WET OPR C210=@CAELT@
ZPX0755 172253@CAELT@GG SLZZYMYT@CAELT@172252 SLSAYGYS@CAELT@SABO SLSA 172300@CAELT@METAR SLSA 172300Z 32004KT 9999 FEW017 BKN200 30/23 Q1004 A2965 HR67=@CAELT@
ZPX0756 172254@CAELT@GG SLZZYMYT@CAELT@172254 SLTJYGYZ@CAELT@SABO SLTJ 172300@CAELT@METAR SLTJ 172300Z 14008KT 9999 OVC030 19/15 Q1013 A2994 809.8 HR75=@CAELT@
ZPX0757 172254@CAELT@GG SLZZYMYT@CAELT@172255 SLCOYGYZ@CAELT@SABO SLCO 172300@CAELT@METAR SLCO 172300Z 32003KT 9999 FEW025 BKN200 31/25 Q1005 A2970 978.6@CAELT@HR68=@CAELT@
ZPX0758 172255@CAELT@GG SLZZYMYT@CAELT@172254 SLCAYGYS@CAELT@SABO SLCA 172300@CAELT@METAR SLCA 172300Z 18004KT 9999 BKN030 BKN070 24/19 Q1009 A2980 HR75@CAELT@RWY NML=@CAELT@
ZPX0759 172255@CAELT@GG SLZZYMYT@CAELT@172255 SLCBYGYZ@CAELT@SABO SLCB 172300@CAELT@METAR SLCB 172300Z 17008KT 9999 FEW036 BKN200 23/06 Q1015 A2999 744.0@CAELT@HR33 FU NOSIG=@CAELT@
ZPX0760 172255@CAELT@GG SLZZYMYT@CAELT@172255 SLTRYGYZ@CAELT@SABO SLTR 172300@CAELT@METAR SLTR 172300Z 32003KT 9999 FEW020 BKN200 32/23 Q1003 A2963@CAELT@985.0 HR61 NOSIG=@CAELT@
ZPX0761 172256@CAELT@GG SLLPZRZX@CAELT@172255 SLLPYGYZ@CAELT@SABO SLLP 172300@CAELT@METAR SLLP 172300Z 26011KT 9999 FEW023 SCT200 14/M00 Q1031 A3045@CAELT@623.4 HR37 P3083 FU NOSIG=@CAELT@
ZPX0762 172257@CAELT@GG SLZZYMYT@CAELT@172256 SLTRYGYS@CAELT@SABO SLTR 172300@CAELT@METAR SLTR 172300Z 32003KT 9999 FEW020 BKN200 32/23 Q1003 A2963 985.0@CAELT@HR61 NOSIG=@CAELT@METAR SLRI 172300Z 19008KT 5000 -RA SCT015 FEW020CB BKN070 24/23@CAELT@Q1007 A2974 HR94 RETS CB SE=@CAELT@METAR SLMG 172300Z 32004KT 8000 TS VCSH FEW017 FEW023CB BKN200 29/24Q1006 A2971 HR63 CB/TS/SH W RWY NML=METAR SLSA 172300Z 32004KT 9999 FEW017 BKN200 30/23 Q1004 A2965 HR67=
ZPX0764 172259@CAELT@GG SLZZYMYT@CAELT@172259 SLVRYFYC@CAELT@SABO SLVR 172300@CAELT@METAR SLVR 172300Z 36005KT 9999 FEW015 BKN200 25/21 Q1005 A2968 HR81@CAELT@AC NOSIG=@CAELT@METAR SLSI 172300Z 000000KT 9999 NSC 24/21 Q1004 A2968 HR82 RWY NML=@CAELT@METAR SLRB 172300Z 36006KT 9999 SCT017 BKN200 26/23 Q1007 A2974 HR86@CAELT@RWY NML=METAR SLCA 172300Z 18004KT 9999 BKN030 BKN070 24/19 Q1009 A2980 HR75
ZPX0765 172259@CAELT@GG SLZZYMYT@CAELT@172259 SLCBYGYS@CAELT@SABO SLCB 172300@CAELT@METAR SLCB 172300Z 17008KT 9999 FEW036 BKN200 23/06 Q1015 A2999 744.0@CAELT@HR33 FU NOSIG=@CAELT@METAR SLAL 172300Z 04012KT 9999 FEW017 18/07 Q1020 A3014 697.8 HR50@CAELT@METAR SLTJ 172300Z 14008KT 9999 OVC030 19/15 Q1013 A2994 809.8 HR75=@CAELT@
ZPX0769 172309@CAELT@GG SLZZYMYT@CAELT@172302 SLLPYFYA@CAELT@SABO SLLP 172300@CAELT@METAR SLLP 172300Z 26011KT 9999 FEW023 SCT200 14/M00 Q1031 A3045@CAELT@623.4 HR37 P3083 FU NOSIG=@CAELT@METAR SLCO 172300Z 32003KT 9999 FEW025 BKN200 31/25 Q1005 A2970 978.6@CAELT@HR68=@CAELT@METAR SLSB 172300Z 00000KT 9999 FEW017 BKN200 26/25 Q1003 A2963 HR95RWY WET OPR C210=
