
ZPX0012 260055@CAELT@GG SLZZYMYT@CAELT@260053 SLCBYGYZ@CAELT@SABO SLCB 260100@CAELT@METAR SLCB 260100Z 33007KT 9999 FEW033 SCT080 BKN200 22/03 Q1023@CAELT@A3023 750.5 HR28 FU NOSIG=@CAELT@
ZPX0013 260056@CAELT@GG SLLPZRZX@CAELT@260056 SLLPYGYZ@CAELT@SABO SLLP 260100@CAELT@METAR SLLP 260100Z VRB02KT 9999 FEW015 FEW017CB SCT070 BKN200@CAELT@10/M01 Q1038 A3067 628.3 HR45 CB/LT/DIST/SE/SW NOSIG=@CAELT@
ZPX0015 260101@CAELT@GG SLZZYMYT@CAELT@260102 SLVRYGYZ@CAELT@SABO SLVR 260100@CAELT@METAR SLVR 260100Z 31005KT 6000 FEW017 BKN070 BKN200 29/24 Q1007@CAELT@A2976 HR77 FU NOSIG=@CAELT@
ZPX0025 260155@CAELT@GG SLZZYMYT@CAELT@260155 SLVRYGYZ@CAELT@SABO SLVR 260200@CAELT@METAR SLVR 260200Z 31005KT 6000 FEW017 SCT070 BKN200 28/24 Q1008@CAELT@A2977 HR77 FU NOSIG=@CAELT@
ZPX0026 260156@CAELT@GG SLLPZRZX@CAELT@260156 SLLPYGYZ@CAELT@SABO SLLP 260200@CAELT@METAR SLLP 260200Z 13004KT 9999 FEW015 BKN200 10/M02 Q1039 A3069@CAELT@628.7 HR44 NOSIG=@CAELT@
ZPX0027 260157@CAELT@GG SLZZYMYT@CAELT@260156 SLCBYGYZ@CAELT@SABO SLCB 260200@CAELT@METAR SLCB 260200Z 35003KT 9999 FEW033 SCT080 BKN200 22/03 Q1024@CAELT@A3025 750.9 HR29 FU NOSIG=@CAELT@
ZPX0039 260255@CAELT@GG SLZZYMYT@CAELT@260256 SLVRYGYZ@CAELT@SABO SLVR 260300@CAELT@METAR SLVR 260300Z 36007KT 5000 FU FEW017 BKN200 28/24 Q1008 A2979@CAELT@HR77 AC NOSIG=@CAELT@
ZPX0040 260256@CAELT@GG SLZZYMYT@CAELT@260255 SLCBYGYZ@CAELT@SABO SLCB 260300@CAELT@METAR SLCB 260300Z 16003KT 9999 FEW033 SCT080 BKN200 20/04 Q1023@CAELT@A3021 749.9 HR34 FU NOSIG=@CAELT@
ZPX0041 260257@CAELT@GG SLZZYMYT@CAELT@260257 SLLPYGYZ@CAELT@SABO SLLP 260300@CAELT@METAR SLLP 260300Z VRB02KT 9999 FEW015 BKN200 08/01 Q1039 A3070@CAELT@629.0 HR62 AC NOSIG=@CAELT@
ZPX0051 260354@CAELT@GG SLZZYMYT@CAELT@260355 SLVRYGYZ@CAELT@SABO SLVR 260400@CAELT@METAR SLVR 260400Z 34006KT 5000 FU FEW017 BKN200 28/25 Q1007 A2976@CAELT@HR81 AC NOSIG=@CAELT@
ZPX0052 260357@CAELT@GG SLZZYMYT@CAELT@260355 SLCBYGYZ@CAELT@SABO SLCB 260400@CAELT@METAR SLCB 260400Z 13004KT 9999 FEW033 SCT080 BKN200 20/03 Q1022@CAELT@A3020 749.6 HR32 FU NOSIG=@CAELT@
ZPX0053 260357@CAELT@GG SLLPZRZX@CAELT@260356 SLLPYGYZ@CAELT@SABO SLLP 260400@CAELT@METAR SLLP 260400Z 09005KT 070V150 9999 FEW006 BKN200 08/05 Q1039@CAELT@A3069 628.8 HR81 AC BECMG 4000E VCFG=@CAELT@
ZPX0065 260453@CAELT@GG SLZZYMYT@CAELT@260454 SLVRYGYZ@CAELT@SABO SLVR 260500@CAELT@METAR SLVR 260500Z 34006KT 5000 FU NSC 27/23 Q1007 A2976 HR78 CI@CAELT@NOSIG=@CAELT@
ZPX0066 260455@CAELT@GG SLZZYMYT@CAELT@260455 SLCBYGYZ@CAELT@SABO SLCB 260500@CAELT@METAR SLCB 260500Z 12004KT 9999 FEW033 SCT080 BKN200 20/03 Q1022@CAELT@A3020 749.5 HR32 FU NOSIG=@CAELT@
ZPX0067 260457@CAELT@GG SLLPZRZX@CAELT@260456 SLLPYGYZ@CAELT@SABO SLLP 260500@CAELT@METAR SLLP 260500Z 10008KT 4000E VCFG FEW004 SCT010 BKN200 08/06@CAELT@Q1038 A3066 628.0 HR87 VCFG NE/E/SE AC NOSIG=@CAELT@
ZPX0075 260555@CAELT@GG SLZZYMYT@CAELT@260555 SLVRYGYZ@CAELT@SABO SLVR 260600@CAELT@METAR SLVR 260600Z 35007KT 5000 FU FEW017 BKN200 27/23 Q1007 A2976@CAELT@HR78 NOSIG=@CAELT@
ZPX0076 260557@CAELT@GG SLLPZRZX@CAELT@260556 SLLPYGYZ@CAELT@SABO SLLP 260600@CAELT@METAR SLLP 260600Z 03004KT 9999 FEW004 SCT200 07/05 Q1036 A3062@CAELT@627.1 HR87 AC NOSIG=@CAELT@
ZPX0079 260604@CAELT@GG SLZZYMYT@CAELT@260559 SLCBYGYZ@CAELT@SABO SLCB 260600@CAELT@METAR SLCB 260600Z 25006KT 9999 FEW033 SCT080 BKN200 16/05 Q1022@CAELT@A3018 749.1 HR45 FU NOSIG=@CAELT@
ZPX0085 260656@CAELT@GG SLZZYMYT@CAELT@260656 SLVRYGYZ@CAELT@SABO SLVR 260700@CAELT@METAR SLVR 260700Z 34006KT 7000 NSC 26/23 Q1007 A2974 HR80 FU CI@CAELT@NOSIG=@CAELT@
ZPX0086 260656@CAELT@GG SLLPZRZX@CAELT@260655 SLLPYGYZ@CAELT@SABO SLLP 260700@CAELT@METAR SLLP 260700Z VRB02KT 9999 FEW004 SCT200 06/03 Q1036 A3060@CAELT@626.7 HR79 NOSIG=@CAELT@
ZPX0087 260656@CAELT@GG SLZZYMYT@CAELT@260655 SLCBYGYZ@CAELT@SABO SLCB 260700@CAELT@METAR SLCB 260700Z 12005KT 9999 FEW033 BKN200 17/04 Q1022 A3020 749.6@CAELT@HR40 FU AC NOSIG=@CAELT@
ZPX0095 260754@CAELT@GG SLZZYMYT@CAELT@260754 SLVRYGYZ@CAELT@SABO SLVR 260800@CAELT@METAR SLVR 260800Z 35005KT 7000 NSC 26/23 Q1007 A2975 HR82 FU CI@CAELT@NOSIG=@CAELT@
ZPX0096 260756@CAELT@GG SLLPZRZX@CAELT@260755 SLLPYGYZ@CAELT@SABO SLLP 260800@CAELT@METAR SLLP 260800Z VRB02KT 4000E VCFG FEW003 SCT200 05/03 Q1036@CAELT@A3060 626.8 HR90 VCFG NE/E/SE NOSIG=@CAELT@
ZPX0097 260757@CAELT@GG SLZZYMYT@CAELT@260756 SLCBYGYZ@CAELT@SABO SLCB 260800@CAELT@METAR SLCB 260800Z 00000KT 9999 FEW033 BKN200 17/05 Q1023 A3022 750.0@CAELT@HR44 FU AC NOSIG=@CAELT@
ZPX0107 260855@CAELT@GG SLZZYMYT@CAELT@260855 SLTRYGYZ@CAELT@SABO SLTR 260900@CAELT@METAR SLTR 260900Z 03005KT 5000 FU NSC 27/24 Q1007 A2974 988.8@CAELT@HR85 CI NOSIG=@CAELT@
ZPX0108 260856@CAELT@GG SLZZYMYT@CAELT@260857 SLVRYGYZ@CAELT@SABO SLVR 260900@CAELT@METAR SLVR 260900Z 34009KT 6000 FEW017 BKN200 26/23 Q1008 A2977 HR83@CAELT@FU NOSIG=@CAELT@
ZPX0109 260857@CAELT@GG SLLPZRZX@CAELT@260856 SLLPYGYZ@CAELT@SABO SLLP 260900@CAELT@METAR SLLP 260900Z 09005KT 3000E VCFG FEW002 SCT008 06/06 Q1036@CAELT@A3061 627.0 HR98 VCFG N/NE/E/SE/S CI NOSIG=@CAELT@
ZPX0110 260857@CAELT@GG SLZZYMYT@CAELT@260857 SLCBYGYZ@CAELT@SABO SLCB 260900@CAELT@METAR SLCB 260900Z 27004KT 9999 FEW033 FEW036CB BKN200 15/05 Q1023@CAELT@A3021 749.9 HR50 CB/LT DIST N/NE FU AC NOSIG=@CAELT@
ZPX0111 260859@CAELT@GG SLZZYMYT@CAELT@260858 SLPSZTZX@CAELT@SABO SLPS 260900@CAELT@METAR SLPS 260900Z 00000KT 9999 NSC 26/25 Q1008 A2977 HR92=@CAELT@
ZPX0113 260903@CAELT@GG SLZZYMYT@CAELT@260900 SLTRYGYS@CAELT@SABO SLTR 260900@CAELT@METAR SLTR 260900Z 03005KT 5000 FU NSC 27/24 Q1007 A2974 988.8@CAELT@HR85 CI NOSIG=@CAELT@METAR SLRI 260900Z 36006KT 9999 FEW008 BKN200 25/24 Q1009 A2980 HR95=@CAELT@
ZPX0135 260954@CAELT@GG SLZZYMYT@CAELT@260952 SLETYMYC@CAELT@SABO SLET 261000@CAELT@METAR SLET 261000Z 34012KT 6000 NSC 27/23 Q1008 A2977 HR81 FU CI@CAELT@NOSIG=@CAELT@
ZPX0136 260954@CAELT@GG SLZZYMYT@CAELT@260954 SLCAYGYS@CAELT@SABO SLCA 261000@CAELT@METAR SLCA 261000Z 00000KT 8000 NSC 23/18 Q1010 A2983 HR72 FU RWY NML@CAELT@
ZPX0137 260954@CAELT@GG SLZZYMYT@CAELT@260954 SLSBYSYX@CAELT@SABO SLSB 261000@CAELT@METAR SLSB 261000Z 00000KT 8000 FEW017 OVC200 26/25 Q1008 A2976 HR93@CAELT@FU RWY NML=@CAELT@
ZPX0138 260954@CAELT@GG SLZZYMYT@CAELT@260953 SLSAYGYS@CAELT@SABO SLSA 261000@CAELT@METAR SLSA 261000Z 36004KT 9999 FEW080 BKN200 25/24 Q1007 A2976 HR94=@CAELT@
ZPX0139 260955@CAELT@GG SLZZYMYT@CAELT@260954 SLPSZTZX@CAELT@SABO SLPS 261000@CAELT@METAR SLPS 261000Z 00000KT 9999 NSC 27/26 Q1009 A2980 HR92 FU CI=@CAELT@
ZPX0140 260955@CAELT@GG SLZZYMYT@CAELT@260955 SLRQYSYX@CAELT@SABO SLRQ 261000@CAELT@METAR SLRQ 261000Z 00000KT 6000 SCT025 BKN200 27/26 Q1008 A2977 984.0@CAELT@HR95 FU=@CAELT@
ZPX0141 260955@CAELT@GG SLZZYMYT@CAELT@260955 SLTRYGYZ@CAELT@SABO SLTR 261000@CAELT@METAR SLTR 261000Z 01005KT 5000 FU FEW080 BKN200 26/24 Q1008 A2978@CAELT@990.1 HR89 NOSIG=@CAELT@
ZPX0142 260955@CAELT@GG SLZZYMYT@CAELT@260953 SLRBYGYS@CAELT@SABO SLRB 261000@CAELT@METAR SLRB 261000Z 00000KT 9999 FEW020 28/22 Q1012 A2988 HR73 RWY NML=@CAELT@
ZPX0145 260956@CAELT@GG SLZZYMYT@CAELT@260955 SLLPYGYZ@CAELT@SABO SLLP 261000@CAELT@METAR SLLP 261000Z 12004KT 3000 BR FEW002 SCT010 07/06 Q1037 A3062@CAELT@627.3 HR90 P92// CI NOSIG=@CAELT@
ZPX0146 260956@CAELT@GG SLZZYMYT@CAELT@260955 SLTJYGYZ@CAELT@SABO SLTJ 261000@CAELT@METAR SLTJ 261000Z 00000KT 9999 NSC 17/15 Q1017 A3005 813.0 HR85 CI@CAELT@
ZPX0147 260956@CAELT@GG SLZZYMYT@CAELT@260957 SLVRYGYZ@CAELT@SABO SLVR 261000@CAELT@METAR SLVR 261000Z 34011KT 6000 NSC 26/23 Q1008 A2978 HR84 FU CI@CAELT@NOSIG=@CAELT@
ZPX0148 260956@CAELT@GG SLZZYMYT@CAELT@260956 SLSAYGYS@CAELT@SABO SLSA 261000 CCA@CAELT@METAR COR SLSA 261000Z 36004KT 9999 FEW080 BKN200 25/24 Q1007 A2976@CAELT@HR94 FU=@CAELT@
ZPX0149 260957@CAELT@GG SLZZYMYT@CAELT@260957 SLCOYSYX@CAELT@SABO SLCO 261000@CAELT@METAR SLCO 261000Z 33003KT 9999 BKN008 OVC080 26/24 Q1008 A2978 981.2@CAELT@HR88=@CAELT@
ZPX0151 260959@CAELT@GG SLZZYMYT@CAELT@260958 SLUYYGYS@CAELT@SABO SLUY 261000@CAELT@METAR SLUY 261000Z 00000KT 9999 NSC 04/M04 Q1033 A3053 658.1@CAELT@HR63 FU CI=@CAELT@
ZPX0152 260959@CAELT@GG SLZZYMYT@CAELT@260959 SLVRYFYC@CAELT@SABO SLVR 261000@CAELT@METAR SLVR 261000Z 34011KT 6000 NSC 26/23 Q1008 A2978 HR84 FU CI@CAELT@NOSIG=@CAELT@METAR SLET 261000Z 34012KT 6000 NSC 27/23 Q1008 A29.77 HR81@CAELT@FU CI NOSIG=@CAELT@METAR SLCP 261000Z 00000KT 9999 SCT070 24/23 Q1013 A2991 HR92 RWY NMLMETAR SLSI 261000Z 00000KT 9999 SCT070 24/23 Q1011 A2985 HR90 RWY NMLMETAR SLRB 261000Z 00000KT 9999 FEW020 28/22 Q1012 A2988 HR73 RWY NMLMETAR SLPS 261000Z 00000KT 9999 NSC 27/26 Q1009 A2980 HR92 FU CI=METAR SLCA 261000Z 00000KT 8000 NSC 23/18 Q1010 A2983 HR72FU RWY NML=
ZPX0153 260959@CAELT@GG SLZZYMYT@CAELT@260958 SLCBYGYZ@CAELT@SABO SLCB 261000@CAELT@METAR SLCB 261000Z 00000KT 9999 FEW033 FEW036CB BKN200 15/06 Q1023@CAELT@A3023 750.4 HR54 CB DIST N/NE FU AC NOSIG=@CAELT@
ZPX0155 261001@CAELT@GG SLZZYMYT@CAELT@261000 SLCBYGYS@CAELT@SABO SLCB 261000@CAELT@METAR SLCB 261000Z 00000KT 9999 FEW033 FEW036CB BKN200 15/06 Q1023@CAELT@A3023 750.4 HR54 CB DIST N/NE FU AC NOSIG=@CAELT@METAR SLAL 261000Z 00000KT 9999 FEW070 SCT200 11/05 Q1028 A3037 703.1@CAELT@HR66=@CAELT@METAR SLVM 261000Z 00000KT 8000 FEW070 26/22 Q1006 A2972 HR78 FU CI=METAR SLTJ 261000Z 00000KT 9999 NSC 17/15 Q1017 A3005 813.0 HR85 CI
ZPX0156 261001@CAELT@GG SLZZYMYT@CAELT@260956 SLLPYFYA@CAELT@SABO SLRY 261000@CAELT@METAR SLRY 261000Z 00000KT BKN017 BKN200 26/25 Q1007 A2976 HR92@CAELT@FU RWY NML=@CAELT@
ZPX0158 261001@CAELT@GG SLZZYMYT@CAELT@261000 SLTRYGYS@CAELT@SABO SLTR 261000@CAELT@METAR SLTR 261000Z 01005KT 5000 FU FEW080 BKN200 26/24 Q1008 A2978@CAELT@990.1 HR89 NOSIG=@CAELT@METAR SLGM 261000Z 34004KT 9999 FEW008 SCT080 25/24 Q1008 A2977 HR92=@CAELT@METAR SLRI 261000Z 00000KT 9999 SCT080 BKN200 25/24 Q1009 A2982 HR95=@CAELT@METAR SLJO 261000Z 00000KT 9999 NSC 25/24 Q1009 A2981 HR94 RWY NML=METAR SLRA 261000Z 00000KT 9999 FEW080 BKN200 25/24 Q1008 A2977 HR96RWY HUM OPR=METAR SLMG 261000Z 00000KT 9999 NSC 25/24 Q1008 A2979 HR91 CIRWY NML=METAR SLBU 261000Z NIL=METAR SLSA 261000Z 36004KT 9999 FEW080 BKN200 25/24 Q1007 A2976HR94 FU=METAR SLSR 261000Z 32008KT 8000 VCSH SCT017 FEW023CB BKN200 26/24Q1007 A2975 HR89 CB/SH SE/S/NW RWY NML=METAR SLSM 261000Z 36003KT 9999 FEW080 SCT200 25/24 Q1008 A2977 HR94
ZPX0160 261002@CAELT@GG SLZZYMYT@CAELT@261000 SLLPYFYA@CAELT@SABO SLLP 261000@CAELT@METAR SLLP 261000Z 12004KT 3000 BR FEW002 SCT010 07/06 Q1037 A3062@CAELT@627.3 HR90 P92// CI NOSIG=@CAELT@METAR SLCO 261000Z 33003KT 9999 BKN008 OVC080 26/24 Q1008 A2978@CAELT@981.2 HR88=@CAELT@METAR SLRY 261000Z 00000KT BKN017 BKN200 26/25 Q1007 A2976 HR92FU RWY NML=METAR SLRQ 261000Z 00000KT 6000 SCT025 BKN200 27/26 Q1008 A2977984.0 HR95 FU=METAR SLAP 261000Z 36005KT 9999 BKN025 21/18 Q1015 A3000 856.7HR86 AC=METAR SLSB 261000Z 00000KT 8000 FEW017 OVC200 26/25 Q1008 A2976HR93 FU RWY NML=METAR SLUY 261000Z 00000KT 9999 NSC 04/M04 Q1033 A3053 658.1HR63 FU CI=
ZPX0188 261051@CAELT@GG SLZZYMYT@CAELT@261052 SLETYMYC@CAELT@SABO SLET 261100@CAELT@METAR SLET 261100Z 32013KT 4000 FU FEW015 BKN200 27/23 Q1009 A2981@CAELT@HR78 NOSIG=@CAELT@
ZPX0189 261053@CAELT@GG SLZZYMYT@CAELT@261052 SLPSZTZX@CAELT@SABO SLPS 261100@CAELT@METAR SLPS 261100Z 06008KT 9999 NSC 29/25 Q1010 A2983 HR79 FU CI=@CAELT@
ZPX0190 261054@CAELT@GG SLZZYMYT@CAELT@261054 SLSBYSYX@CAELT@SABO SLSB 261100@CAELT@METAR SLSB 261100Z 00000KT 8000 SCT017 SCT080 BKN200 26/25 Q1009@CAELT@A2981 HR93 FU RWY NML=@CAELT@
ZPX0191 261055@CAELT@GG SLZZYMYT@CAELT@261054 SLCAYGYS@CAELT@SABO SLCA 261100@CAELT@METAR SLCA 261100Z 00000KT 8000 NSC 25/18 Q1010 A2983 HR68 FU RWY NML@CAELT@
ZPX0194 261056@CAELT@GG SLZZYMYT@CAELT@261056 SLCOYSYX@CAELT@SABO SLCO 251100@CAELT@METAR SLCO 251100Z 00000KT 9999 BKN010 OVC080 26/24 Q1009 A2980 981.7@CAELT@HR90=@CAELT@
ZPX0195 261056@CAELT@GG SLZZYMYT@CAELT@261055 SLRQYSYX@CAELT@SABO SLRQ 261100@CAELT@METAR SLRQ 261100Z 00000KT 6000 SCT025 OVC200 27/26 Q1009 A2980 985.2@CAELT@HR93 FU=@CAELT@
ZPX0196 261056@CAELT@GG SLZZYMYT@CAELT@261053 SLRBYGYS@CAELT@SABO SLRB 261100@CAELT@METAR SLRB 261100Z 00000KT 9999 FEW020 30/23 Q1012 A2988 HR66 RWY NML=@CAELT@
ZPX0197 261056@CAELT@GG SLZZYMYT@CAELT@261055 SLLPYGYZ@CAELT@SABO SLLP 261100@CAELT@METAR SLLP 261100Z 12006KT 6000 FEW003 SCT012 08/05 Q1037 A3064 627.7@CAELT@HR84 P92// VIS/RED/ST NE/E/SE HZ SW/W CI NOSIG=@CAELT@
ZPX0198 261056@CAELT@GG SLZZYMYT@CAELT@261056 SLTRYGYZ@CAELT@SABO SLTR 261100@CAELT@METAR SLTR 261100Z 36005KT 7000 FEW080 BKN200 27/24 Q1010 A2983 991.5@CAELT@HR87 FU NOSIG=@CAELT@
ZPX0200 261057@CAELT@GG SLZZYMYT@CAELT@261056 SLUYYGYS@CAELT@SABO SLUY 261100@CAELT@METAR SLUY 261100Z 00000KT 9999 NSC 08/M01 Q1034 A3054 658.4@CAELT@HR51 FU CI=@CAELT@
ZPX0201 261057@CAELT@GG SLZZYMYT@CAELT@261057 SLORYGYZ@CAELT@SABO SLOR 261100@CAELT@METAR SLOR 261100Z 34004KT 9999 NSC 08/M02 Q1035 A3057 656.0 HR51 FU@CAELT@
ZPX0202 261057@CAELT@GG SLZZYMYT@CAELT@261058 SLVRYGYZ@CAELT@SABO SLVR 261100@CAELT@METAR SLVR 261100Z 34014KT 6000 FEW017 BKN200 27/23 Q1009 A2981 HR78@CAELT@FU NOSIG=@CAELT@
ZPX0203 261058@CAELT@GG SLZZYMYT@CAELT@261058 SLCBYGYZ@CAELT@SABO SLCB 261100@CAELT@METAR SLCB 261100Z 00000KT 8000 FEW033 FEW036CB BKN200 15/07 Q1024@CAELT@A3027 751.3 HR58 CB/DIST N/NE AC FU NOSIG=@CAELT@
ZPX0204 261058@CAELT@GG SLZZYMYT@CAELT@261057 SLTJYGYZ@CAELT@SABO SLTJ 261100@CAELT@METAR SLTJ 261100Z 00000KT 9999 NSC 21/14 Q1018 A3009 814.0 HR66 CI@CAELT@
ZPX0205 261058@CAELT@GG SLZZYMYT@CAELT@261058 SLTRYGYS@CAELT@SABO SLTR 261100@CAELT@METAR SLTR 261100Z 36005KT 7000 FEW080 BKN200 27/24 Q1010 A2983 991.5@CAELT@HR87 FU NOSIG=@CAELT@METAR SLGM 261100Z 02006KT 9999 SCT010 SCT080 26/25 Q1009 A2979 HR90=@CAELT@METAR SLRI 261100Z 36008KT 9999 BKN007 BKN200 25/24 Q1010 A2983 HR95=@CAELT@METAR SLJO 261100Z 36003KT 9999 NSC 26/23 Q1009 A2982 HR89 CIRWY NML=METAR SLRA 261100Z 36004KT 9999 FEW080 BKN200 26/24 Q1008 A2979 HR90RWY HUM OPR=METAR SLMG 261100Z 00000KT 9999 NSC 27/24 Q1009 A2980 HR85 CIMETAR SLBU 261100Z NIL=METAR SLSA 261100Z 36006KT 9999 FEW080 BKN200 26/24 Q1008 A2977 HR88METAR SLSR 261100Z 32008KT 8000 VCSH SCT017 FEW023CB BKN200 27/24Q1007 A2976 HR88 CB/SH SE/S RWY NML=METAR SLSM 261100Z 36004KT 9999 FEW020 SCT080 BKN200 26/25 Q1008A2979 HR92 RWY NML=
ZPX0208 261100@CAELT@GG SLZZYMYT@CAELT@261059 SLCBYGYS@CAELT@SABO SLCB 261100@CAELT@METAR SLCB 261100Z 00000KT 8000 FEW033 FEW036CB BKN200 15/07 Q1024@CAELT@A3027 751.3 HR58 CB/DIST N/NE AC FU NOSIG=@CAELT@METAR SLAL 261100Z 00000KT 9999 FEW070 SCT200 13/04 Q1029 A3040 703.9@CAELT@HR55=@CAELT@METAR SLVM 261100Z 00000KT 8000 NSC 28/23 Q1007 A2975 HR76 FU CI=METAR SLTJ 261100Z 00000KT 9999 NSC 21/14 Q1018 A3009 814.0 HR66 CI
ZPX0209 261100@CAELT@GG SLZZYMYT@CAELT@261100 SLVRYFYC@CAELT@SABO SLVR 261100@CAELT@METAR SLVR 261100Z 34014KT 6000 FEW017 BKN200 27/23 Q1009 A2981 HR78@CAELT@FU NOSIG=@CAELT@METAR SLET 261100Z 32013KT 4000 FU FEW015 BKN200 27/23 Q1009 A2981@CAELT@HR78 NOSIG=@CAELT@METAR SLAS 261100Z 36010KT 4000 FU BKN070 OVC200 27/24 Q1012A2988 HR79 RWY NML=METAR SLJV 261100Z 36012KT 9999 BKN020 25/23 Q1010 A2983 HR88 RWY NMLMETAR SLCP 261100Z 33005KT 9999 SCT070 25/23 Q1014 A2994 HR90 RWY NMLMETAR SLSI 261100Z 00000KT 9999 SCT070 26/23 Q1011 A2985 HR83 RWY NMLMETAR SLTI 261100Z 00000KT 9999 SCT017 OVC200 28/24 Q1014 A2994HR76 RWY NML=METAR SLJE 261100Z 00000KT 9999 NSC 29/23 Q1012 A2988 HR69 RWY NML=METAR SLVG 261100Z 00000KT 3000 FU BKN015 18/16 Q1022 A3018 HR91RWY NML=METAR SLRB 261100Z 00000KT 9999 FEW020 30/23 Q1012 A2988 HR66 RWY NMLMETAR SLPS 261100Z 06008KT 9999 NSC 29/25 Q1010 A2983 HR79 FU CI=METAR SLCA 261100Z 00000KT 8000 NSC 25/18 Q1010 A2983 HR68FU RWY NML=
ZPX0218 261105@CAELT@GG SLZZYMYT@CAELT@261105 SLLPYFYA@CAELT@SABO SLLP 261100@CAELT@METAR SLLP 261100Z 12006KT 6000 FEW003 SCT012 08/05 Q1037 A3064@CAELT@627.7 HR84 P92// VIS/RED/ST NE/E/SE HZ SW/W CI NOSIG=@CAELT@METAR SLCO 251100Z 00000KT 9999 BKN010 OVC080 26/24 Q1009 A2980@CAELT@981.7 HR90=@CAELT@METAR SLRY 261100Z 00000KT 9999 BKN020 BKN200 27/25 Q1008 A2978HR88 FU RWY NML=METAR SLRQ 261100Z 00000KT 6000 SCT025 OVC200 27/26 Q1009 A2980985.2 HR93 FU=METAR SLAP 261100Z 36008KT 9999 SCT025 21/18 Q1016 A3001 857.0HR81 AC=METAR SLSB 261100Z 00000KT 8000 SCT017 SCT080 BKN200 26/25 Q1009A2981 HR93 FU RWY NML=METAR SLOR 261100Z 34004KT 9999 NSC 08/M02 Q1035 A3057 656.0 HR51 FUMETAR SLUY 261100Z 00000KT 9999 NSC 08/M01 Q1034 A3054 658.4HR51 FU CI=
ZPX0244 261153@CAELT@GG SLZZYMYT@CAELT@261153 SLRBYGYS@CAELT@SABO SLRB 261200@CAELT@METAR SLRB 261200Z 36006KT 9999 FEW020 32/24 Q1012 A2988 HR65 RWY NML=@CAELT@
ZPX0245 261154@CAELT@GG SLZZYMYT@CAELT@261154 SLSBYSYX@CAELT@SABO SLSB 261200@CAELT@METAR SLSB 261200Z 33004KT 8000 SCT017 OVC200 28/25 Q1010 A2984 HR87@CAELT@FU RWY NML=@CAELT@
ZPX0247 261155@CAELT@GG SLZZYMYT@CAELT@261155 SLLPYFYA@CAELT@SABO SLRY 261200@CAELT@METAR SLRY 261200Z 00000KT 8000 SCT023 BKN200 27/25 Q1009 A2981 HR85@CAELT@FU RWY NML=@CAELT@
ZPX0248 261155@CAELT@GG SLZZYMYT@CAELT@261155 SLORYGYZ@CAELT@SABO SLOR 261200@CAELT@METAR SLOR 261200Z 32004KT 9999 NSC 13/01 Q1035 A3057 656.1 HR46 FU@CAELT@
ZPX0251 261155@CAELT@GG SLZZYMYT@CAELT@261155 SLAGYSYX@CAELT@SABO SLAG 261200@CAELT@METAR SLAG 261200Z 15003KT 5000 FU NSC 26/18 Q1013 A2992 885.7 HR63@CAELT@
ZPX0252 261155@CAELT@GG SLZZYMYT@CAELT@261155 SLORYGYZ@CAELT@SABO SLOR 261200@CAELT@METAR SLOR 261200Z 32004KT 9999 NSC 13/01 Q1035 A3057 656.1 HR46 FU@CAELT@
ZPX0253 261155@CAELT@GG SLZZYMYT@CAELT@261156 SLVRYGYZ@CAELT@SABO SLVR 261200@CAELT@METAR SLVR 261200Z 32015KT 8000 SCT015 BKN200 26/22 Q1011 A2987 HR76@CAELT@FU NOSIG=@CAELT@
ZPX0254 261156@CAELT@GG SLZZYMYT@CAELT@261155 SLCAYGYS@CAELT@SABO SLCA 261200@CAELT@METAR SLCA 261200Z 00000KT 8000 NSC 27/19 Q1012 A2988 HR62 FU RWY NML@CAELT@
ZPX0255 261156@CAELT@GG SLZZYMYT@CAELT@261156 SLTRYGYZ@CAELT@SABO SLTR 261200@CAELT@METAR SLTR 261200Z 35008KT 7000 FEW020CB SCT080 OVC200 29/24@CAELT@Q1010 A2985 992.3 HR78 FU CB SW NOSIG=@CAELT@
ZPX0258 261156@CAELT@GG SLZZYMYT@CAELT@261153 SLPSZTZX@CAELT@SABO SLPS 261200@CAELT@METAR SLPS 261200Z 06008KT 9999 NSC 30/25 Q1010 A2983 HR73 FU CI=@CAELT@
ZPX0259 261156@CAELT@GG SLZZYMYT@CAELT@261155 SLLPYGYZ@CAELT@SABO SLLP 261200@CAELT@METAR SLLP 261200Z 09008KT 060V150 6000 FEW004 SCT013 09/05 Q1038@CAELT@A3067 628.3 HR74 P92// VIS/RED/SC NE/E/SE HZ SW/W CI NOSIG=@CAELT@
ZPX0260 261157@CAELT@GG SLZZYMYT@CAELT@261155 SLUYYGYS@CAELT@SABO SLUY 261200@CAELT@METAR SLUY 261200Z 22003KT 9999 NSC 13/00 Q1034 A3056 658.8@CAELT@HR43 FU CI=@CAELT@
ZPX0261 261157@CAELT@GG SLZZYMYT@CAELT@261152 SLETYMYC@CAELT@SABO SLET 261200@CAELT@METAR SLET 261200Z 31015G28KT 8000 FEW015 FEW025TCU BKN200 27/22@CAELT@Q1011 A2986 HR73 FU TCU N NOSIG=@CAELT@
ZPX0262 261158@CAELT@GG SLZZYMYT@CAELT@261155 SLRQYSYX@CAELT@SABO SLRQ 261200@CAELT@METAR SLRQ 261200Z 27008KT 6000 VCSH SCT012 FEW020CB OVC200 28/25@CAELT@Q1010 A2984 986.4 HR86 CB/SH SW/W/NW FU=@CAELT@
ZPX0263 261158@CAELT@GG SLZZYMYT@CAELT@261157 SLTJYGYZ@CAELT@SABO SLTJ 261200@CAELT@METAR SLTJ 261200Z 00000KT 9999 FEW030 23/16 Q1018 A3009 814.0 HR64@CAELT@
ZPX0264 261159@CAELT@GG SLZZYMYT@CAELT@261158 SLCBYGYZ@CAELT@SABO SLCB 261200@CAELT@METAR SLCB 261200Z 00000KT 9999 FEW033 SCT080 BKN200 17/07 Q1025@CAELT@A3028 751.8 HR51 FU NOSIG=@CAELT@
ZPX0265 261159@CAELT@GG SLZZYMYT@CAELT@261159 SLVRYFYC@CAELT@SABO SLVR 261200@CAELT@METAR SLVR 261200Z 32015KT 8000 SCT015 BKN200 26/22 Q1011@CAELT@A2987 HR76 FU NOSIG=@CAELT@METAR SLET 261200Z 31015G28KT 8000 FEW015 FEW025TCU BKN200 27/22@CAELT@Q1011 A2986 HR73 FU TCU N NOSIG=@CAELT@METAR SLAS 261200Z 36010KT 5000 FU BKN070 OVC200 29/24 Q1913A2991 HR75 RWY NML=METAR SLJV 261200Z 36012KT 9999 BKN020 26/23 Q1011 A2985 HR80 RWY NMLMETAR SLCP 261200Z 33005KT 9999 SCT070 27/22 Q1015 A2997 HR79 RWY NMLMETAR SLSI 261200Z 33006KT 9999 SCT070 28/22 Q1011 A2985 HR72 RWY NMLMETAR SLTI 261200Z 00000KT 9999 FEW020 BKN200 31/23 Q1014 A2994HR65 RWY NML=METAR SLJE 261200Z 00000KT 9999 NSC 32/23 Q1013 A2991 HR62 RWY NML=METAR SLVG 261200Z 35004KT 5000 FU BKN017 20/16 Q1023 A3021 HR78 RWYNML=METAR SLRB 261200Z 36006KT 9999 FEW020 32/24 Q1012 A2988 HR65 RWY NMLMETAR SLPS 261200Z 06008KT 9999 NSC 30/25 Q1010 A2983 HR73 FU CI=METAR SLCA 261200Z 00000KT 8000 NSC 27/19 Q1012 A2988 HR62FU RWY NML=
ZPX0266 261159@CAELT@GG SLZZYMYT@CAELT@261158 SLLPYFYA@CAELT@SABO SLCO 261200@CAELT@METAR SLCO 261200Z 36006KT 9999 SCT006 BKN012 OVC080 27/25 Q1009@CAELT@A2982 982.5 HR89=@CAELT@
ZPX0267 261159@CAELT@GG SLZZYMYT@CAELT@261159 SLLPYFYA@CAELT@SABO SLLP 261200@CAELT@METAR SLLP 261200Z 09008KT 060V150 6000 FEW004 SCT013 09/05 Q1038@CAELT@A3067 628.3 HR74 P92// VIS/RED/SC NE/E/SE HZ SW/W CI NOSIG=@CAELT@METAR SLCO 261200Z 36006KT 9999 SCT006 BKN012 OVC080 27/25 Q1009@CAELT@A2982 982.5 HR89=@CAELT@METAR SLRY 261200Z 00000KT 8000 SCT023 BKN200 27/25 Q1009 A2981 HR85FU RWY NML=METAR SLRQ 261200Z 27008KT 6000 VCSH SCT012 FEW020CB OVC200 28/25Q1010 A2984 986.4 HR86 CB/SH SW/W/NW FU=METAR SLAP 261200Z 36010KT 9999 SCT025 23/18 Q1017 A3004 857.9 HR76AC=METAR SLSB 261200Z 33004KT 8000 SCT017 OVC200 28/25 Q1010 A2984 HR87METAR SLOR 261200Z 32004KT 9999 NSC 13/01 Q1035 A3057 656.1 HR46 FUMETAR SLUY 261200Z 22003KT 9999 NSC 13/00 Q1034 A3056 658.8HR43 FU CI=
ZPX0268 261201@CAELT@GG SLZZYMYT@CAELT@261159 SLTRYGYS@CAELT@SABO SLTR 261200@CAELT@METAR SLTR 261200Z 35008KT 7000 FEW020CB SCT080 OVC200 29/24 Q1010@CAELT@A2985 992.3 HR78 FU CB SW NOSIG=@CAELT@METAR SLGM 261200Z 02010KT 9999 SCT015 SCT080 27/25 Q1010 A2984 HR90=@CAELT@METAR SLRI 261200Z 36008KT 9999 BKN008 BKN200 26/24 Q1011 A2986 HR88=@CAELT@METAR SLJO 261200Z 36004KT 9999 FEW017 SCT200 28/24 Q1011 A2986 HR82RWY NML=METAR SLRA 261200Z 36006KT 9999 FEW080 BKN200 28/25 Q1009 A2982 HR85RWY HUM OPR=METAR SLMG 261200Z 32004KT 9999 NSC 28/24 Q1010 A2983 HR77 CIMETAR SLBU 261200Z 36006KT 9999 BKN080 28/24 Q1017 A2995 HR83METAR SLSA 261200Z 34006KT 9999 NSC 28/25 Q1009 A2982 HR83 FU CI=METAR SLSR 261200Z 32010KT 8000 VCSH SCT017 FEW023CB BKN200 28/24Q1009 A2980 HR80 FU CB/SH S/SW RWY NML=METAR SLSM 261200Z 00000KT 9999 FEW020 SCT080 BKN200 27/25 Q1010A2984 HR92 RWY NML=
ZPX0271 261201@CAELT@GG SLZZYMYT@CAELT@261201 SLCBYGYS@CAELT@SABO SLCB 261200@CAELT@METAR SLCB 261200Z 00000KT 9999 FEW033 SCT080 BKN200 17/07 Q1025@CAELT@A3028 751.8 HR51 FU NOSIG=@CAELT@METAR SLAL 261200Z 00000KT 9999 FEW012 SCT200 16/07 Q1030 A3043 704.5@CAELT@HR55=@CAELT@METAR SLPO 261200Z 00000KT 9999 NSC 12/03 Q1038 A3065 638.0 HR55 CI=METAR SLAG 261200Z 15003KT 5000 FU NSC 26/18 Q1013 A2992 885.7 HR63METAR SLVM 171200Z 00000KT 5000 SCT003 24/22 Q1010 A2984 HR88 CI VISRED ST BAJOS N/NE/E/NW RESTO 9999=METAR SLTJ 261200Z 00000KT 9999 FEW030 23/16 Q1018 A3009 814.0 HR64METAR SLYA 261200Z 21010KT 9999 FEW025 29/22 Q1010 A2983 935.0 HR66METAR SLBJ 261200Z NIL=METAR SLHI 261200Z NIL=
ZPX0311 261254@CAELT@GG SLZZYMYT@CAELT@261254 SLCAYGYS@CAELT@SABO SLCA 261300@CAELT@METAR SLCA 261300Z 00000KT 8000 NSC 29/19 Q1012 A2988 HR55 FU RWY NML@CAELT@
ZPX0312 261254@CAELT@GG SLZZYMYT@CAELT@261254 SLCBYGYZ@CAELT@SABO SLCB 261300@CAELT@METAR SLCB 261300Z 16004KT 9999 FEW033 SCT080 BKN200 21/06 Q1025@CAELT@A3027 751.5 HR38 FU NOSIG=@CAELT@
ZPX0313 261254@CAELT@GG SLZZYMYT@CAELT@261253 SLRBYGYS@CAELT@SABO SLRB 261300@CAELT@METAR SLRB 261300Z 36012KT 9999 FEW020 33/24 Q1012 A2988 HR58 RWY NML=@CAELT@
ZPX0314 261255@CAELT@GG SLZZYMYT@CAELT@261254 SLORYGYZ@CAELT@SABO SLOR 261300@CAELT@METAR SLOR 261300Z 33004KT 9999 FEW020 SCT200 16/04 Q1036 A3059 656.6@CAELT@HR44=@CAELT@
ZPX0315 261255@CAELT@GG SLZZYMYT@CAELT@261255 SLTRYGYZ@CAELT@SABO SLTR 261300@CAELT@METAR SLTR 261300Z 01008KT 7000 FEW015 FEW023CB OVC200 30/25 Q1011@CAELT@A2986 992.6 HR72 FU CB SW NOSIG=@CAELT@
ZPX0316 261255@CAELT@GG SLZZYMYT@CAELT@261255 SLLPYGYZ@CAELT@SABO SLLP 261300@CAELT@METAR SLLP 261300Z 12009KT 6000 FEW005 SCT014 11/05 Q1038 A3068@CAELT@628.5 HR65 P92// VIS RED/SC NE/E/SE HZ SW/W AC/CI NOSIG=@CAELT@
ZPX0318 261256@CAELT@GG SLZZYMYT@CAELT@261256 SLAGYSYX@CAELT@SABO SLAG 261300@CAELT@METAR SLAG 261300Z 18003KT 5000 FU NSC 30/19 Q1013 A2993 885.9 HR53@CAELT@
ZPX0319 261256@CAELT@GG SLZZYMYT@CAELT@261255 SLPSZTZX@CAELT@SABO SLPS 261300@CAELT@METAR SLPS 261300Z 06010KT 9999 NSC 33/27 Q1010 A2983 HR68 FU CI=@CAELT@
ZPX0320 261256@CAELT@GG SLZZYMYT@CAELT@261255 SLSBYSYX@CAELT@SABO SLSB 261300@CAELT@METAR SLSB 261300Z 36005KT 8000 SCT017 OVC200 28/25 Q1012 A2986 HR83@CAELT@FU RWY NML=@CAELT@
ZPX0321 261256@CAELT@GG SLZZYMYT@CAELT@261249 SLETYMYC@CAELT@SABO SLET 261300@CAELT@METAR SLET 161300Z 31015G27KT 8000 SCT017 BKN200 28/22 Q1011 A2986@CAELT@HR70 FU NOSIG=@CAELT@
ZPX0322 261256@CAELT@GG SLZZYMYT@CAELT@261255 SLRQYSYX@CAELT@SABO SLRQ 261300@CAELT@METAR SLRQ 261300Z 27004KT 7000 SCT012 OVC200 28/27 Q1010 A2984 986.4@CAELT@HR92 FU AC=@CAELT@
ZPX0325 261257@CAELT@GG SLZZYMYT@CAELT@261256 SLLPYFYA@CAELT@SABO SLCO 261300@CAELT@METAR SLCO 261300Z 34005KT 9999 BKN006 OVC080 27/25 Q1010 A2985 983.3@CAELT@HR86=@CAELT@
ZPX0327 261257@CAELT@GG SLZZYMYT@CAELT@261258 SLVRYGYZ@CAELT@SABO SLVR 261300@CAELT@METAR SLVR 261300Z 33013KT 8000 SCT017 OVC200 28/23 Q1011 A2988 HR74@CAELT@FU NOSIG=@CAELT@
ZPX0329 261257@CAELT@GG SLZZYMYT@CAELT@261254 SLSAYGYS@CAELT@SABO SLSA 261300@CAELT@METAR SLSA 261300Z 34010KT 9999 FEW017 BKN200 30/24 Q1010 A2984@CAELT@HR73 FU=@CAELT@
ZPX0331 261258@CAELT@GG SLZZYMYT@CAELT@261257 SLTJYGYZ@CAELT@SABO SLTJ 261300@CAELT@METAR SLTJ 261300Z 013004KT 9999 FEW033 25/16 Q1018 A3008 813.9 HR57@CAELT@
ZPX0332 261258@CAELT@GG SLZZYMYT@CAELT@261258 SLVRYFYC@CAELT@SABO SLVR 261300@CAELT@METAR SLVR 261300Z 33013KT 8000 SCT017 OVC200 28/23 Q1011 A2988 HR74@CAELT@FU NOSIG=@CAELT@METAR SLET 161300Z 31015G27KT 8000 SCT017 BKN200 28/22 Q1011 A2986@CAELT@HR70 FU NOSIG=@CAELT@METAR SLAS 261300Z 36012KT 5000 FU SCT070 OVC200 31/24 Q1013 A2991HR68 RWY NML=METAR SLJV 261300Z 36010KT 9999 FEW020 30/23 Q1011 A2985 HR68 RWY NMLMETAR SLCP 261300Z 33005KT 9999 SCT070 28/23 Q1015 A2997 HR73 RWY NMLMETAR SLSI 261300Z 36010KT 9999 SCT070 30/22 Q1012 A2988 HR62 RWY NMLMETAR SLTI 261300Z 36008KT 9999 FEW020 SCT200 33/24 Q1015 A2997 HR59RWY NML=METAR SLJE 261300Z 32006KT 9999 FEW017 34/23 Q1013 A2991 HR55 RWY NMLMETAR SLVG 261300Z 36007KT 8000 BKN020 21/16 Q1024 A3024 HR71 FU RWYNML=METAR SLRB 261300Z 36012KT 9999 FEW020 33/24 Q1012 A2988 HR58 RWY NMLMETAR SLPS 261300Z 06010KT 9999 NSC 33/27 Q1010 A2983 HR68 FU CI=METAR SLCA 261300Z 00000KT 8000 NSC 29/19 Q1012 A2988 HR55 FU RWY NML
ZPX0333 261258@CAELT@GG SLZZYMYT@CAELT@261258 SLLPYFYA@CAELT@SABO SLRY 261300@CAELT@METAR SLRY 261300Z 32003KT 8000 SCT016 SCT070 BKN200 30/25 Q1009@CAELT@A2982 HR73 FU RWY NML=@CAELT@
ZPX0337 261259@CAELT@GG SLZZYMYT@CAELT@261259 SLTJYGYZ@CAELT@SABO SLTJ 261300 CCA@CAELT@METAR COR SLTJ 261300Z 13004KT 9999 FEW033 25/16 Q1018 A3008 813.9@CAELT@HR57 FU=@CAELT@
ZPX0339 261259@CAELT@GG SLZZYMYT@CAELT@261259 SLCBYGYS@CAELT@SABO SLCB 261300@CAELT@METAR SLCB 261300Z 16004KT 9999 FEW033 SCT080 BKN200 21/06 Q1025@CAELT@A3027 751.5 HR38 FU NOSIG=@CAELT@METAR SLAL 261300Z 02006KT 9999 FEW015 SCT200 17/06 Q1031 A3044 704.8@CAELT@HR49=@CAELT@METAR SLPO 261300Z 05004KT 9999 NSC 14/03 Q1038 A3065 638.1 HR46 CI=METAR SLAG 261300Z 18003KT 5000 FU NSC 30/19 Q1013 A2993 885.9 HR53METAR SLVM 261300Z 18012KT 8000 NSC 33/24 Q1008 A2978 HR59 FU=METAR SLTJ 261300Z 013004KT 9999 FEW033 25/16 Q1018 A3008 813.9 HR57METAR SLYA 261300Z 21010KT 9999 NSC 32/22 Q1010 A2983 935.2 HR56 FU=METAR SLBJ 261300Z NIL=METAR SLHI 261300Z NIL=
ZPX0342 261300@CAELT@GG SLZZYMYT@CAELT@261259 SLTRYGYS@CAELT@SABO SLTR 261300@CAELT@METAR SLTR 261300Z 01008KT 7000 FEW015 FEW023CB OVC200 30/25 Q1011@CAELT@A2986 992.6 HR72 FU CB SW NOSIG=@CAELT@METAR SLGM 261300Z 02008KT 9999 SCT017 SCT080 29/24 Q1011 A2987 HR76=@CAELT@METAR SLRI 261300Z 36010KT 9999 SCT013 BKN200 28/24 Q1011 A2988 HR73=@CAELT@METAR SLJO 261300Z 36008KT 9999 FEW017 SCT200 30/25 Q1011 A2988 HR74RWY NML=METAR SLRA 261300Z 36010KT 9999 FEW015 BKN200 30/24 Q1011 A2986 HR73RWY HUM OPR=METAR SLMG 261300Z 34004KT 9999 FEW015 SCT080 BKN200 30/24 Q1010A2985 HR70 RWY NML=METAR SLBU 261300Z 36006KT 9999 FEW017 BKN080 30/25 Q1011 A2986 HR72METAR SLSA 261300Z 34010KT 9999 FEW017 BKN200 30/24 Q1010 A2984 HR73METAR SLSR 261300Z 32015KT 8000 VCSH FEW017 FEW023CB SCT080 BKN20029/25 Q1009 A2982 HR78 FU CB/SH S/SW RWY NML=METAR SLSM 261300Z 00000KT 9999 FEW020 SCT080 BKN200 27/25 Q1011A2986 HR92 RWY NML=
ZPX0344 261300@CAELT@GG SLZZYMYT@CAELT@261300 SLCBYGYS@CAELT@SABO SLCB 261300 CCA@CAELT@METAR SLCB 261300Z 16004KT 9999 FEW033 SCT080 BKN200 21/06 Q1025@CAELT@A3027 751.5 HR38 FU NOSIG=@CAELT@METAR SLAL 261300Z 02006KT 9999 FEW015 SCT200 17/06 Q1031 A3044 704.8@CAELT@HR49=@CAELT@METAR SLPO 261300Z 05004KT 9999 NSC 14/03 Q1038 A3065 638.1 HR46 CI=METAR SLAG 261300Z 18003KT 5000 FU NSC 30/19 Q1013 A2993 885.9 HR53METAR SLVM 261300Z 18012KT 8000 NSC 33/24 Q1008 A2978 HR59 FU=METAR COR SLTJ 261300Z 13004KT 9999 FEW033 25/16 Q1018 A3008 813.9HR57 FU=METAR SLYA 261300Z 21010KT 9999 NSC 32/22 Q1010 A2983 935.2 HR56 FU=METAR SLBJ 261300Z NIL=METAR SLHI 261300Z NIL=
ZPX0347 261302@CAELT@GG SLZZYMYT@CAELT@261301 SLLPYFYA@CAELT@SABO SLLP 261300@CAELT@METAR SLLP 261300Z 12009KT 6000 FEW005 SCT014 11/05 Q1038 A3068@CAELT@628.5 HR65 P92// VIS RED/SC NE/E/SE HZ SW/W AC/CI NOSIG=@CAELT@METAR SLCO 261300Z 34005KT 9999 BKN006 OVC080 27/25 Q1010 A2985@CAELT@983.3 HR86=@CAELT@METAR SLRY 261300Z 32003KT 8000 SCT016 SCT070 BKN200 30/25 Q1009A2982 HR73 FU RWY NML=METAR SLRQ 261300Z 27004KT 7000 SCT012 OVC200 28/27 Q1010 A2984986.4 HR92 FU AC=METAR SLAP 261300Z 36015KT 9999 SCT025 BKN070 24/18 Q1017 A3005858.3 HR68 AC=METAR SLSB 261300Z 36005KT 8000 SCT017 OVC200 28/25 Q1012 A2986HR83 FU RWY NML=METAR SLOR 261300Z 33004KT 9999 FEW020 SCT200 16/04 Q1036 A3059656.6 HR44=METAR SLUY 261300Z 26003KT 9999 NSC 16/00 Q1034 A3056 658.9HR35 FU CI=
ZPX0377 261352@CAELT@GG SLZZYMYT@CAELT@261351 SLCAYGYS@CAELT@SABO SLCA 261400@CAELT@METAR SLCA 261400Z 00000KT 8000 NSC 32/18 Q1012 A2988 HR44 FU RWY NML@CAELT@
ZPX0381 261353@CAELT@GG SLZZYMYT@CAELT@261352 SLPSZTZX@CAELT@SABO SLPS 261400@CAELT@METAR SLPS 261400Z 06012KT 9999 NSC 36/28 Q1010 A2983 HR64 FU CI=@CAELT@
ZPX0382 261353@CAELT@GG SLZZYMYT@CAELT@261352 SLETYMYC@CAELT@SABO SLET 261400@CAELT@METAR SLET 261400Z 33015G28KT 8000 SCT017 BKN200 29/23 Q1010 A2985@CAELT@HR70 FU NOSIG=@CAELT@
ZPX0383 261354@CAELT@GG SLZZYMYT@CAELT@261355 SLLPYFYA@CAELT@SABO SLRY 261400@CAELT@METAR SLRY 261400Z 32003KT 8000 SCT016 SCT070 BKN200 30/24 Q1010@CAELT@A2985 HR71 FU RWY NML=@CAELT@
ZPX0384 261355@CAELT@GG SLZZYMYT@CAELT@261355 SLAGYSYX@CAELT@SABO SLAG 261400@CAELT@METAR SLAG 261400Z 19004KT 5000 FU NSC 32/19 Q1013 A2994 886.2 HR47@CAELT@
ZPX0385 261355@CAELT@GG SLZZYMYT@CAELT@261355 SLVRYGYZ@CAELT@SABO SLVR 261400@CAELT@METAR SLVR 261400Z 33012G22KT 8000 FEW010 SCT017 BKN200 29/23 Q1011@CAELT@A2986 HR70 FU NOSIG=@CAELT@
ZPX0386 261355@CAELT@GG SLZZYMYT@CAELT@261353 SLRBYGYS@CAELT@SABO SLRB 261400@CAELT@METAR SLRB 261400Z 36015KT 9999 FEW020 34/23 Q1012 A2988 HR53 RWY NML=@CAELT@
ZPX0387 261356@CAELT@GG SLZZYMYT@CAELT@261355 SLLPYGYZ@CAELT@SABO SLLP 261400@CAELT@METAR SLLP 261400Z 12009KT 8000 FEW007 FEW017CB SCT200 14/04 Q1038@CAELT@A3067 628.4 HR51 P92// VIS RED/SC NE/E/SE CB/NW HZ SW/W AC NOSIG=@CAELT@
ZPX0388 261356@CAELT@GG SLZZYMYT@CAELT@261356 SLTJYGYZ@CAELT@SABO SLTJ 261400@CAELT@METAR SLTJ 261400Z 14006KT 9999 FEW033 27/16 Q1018 A3007 813.6 HR51@CAELT@
ZPX0389 261356@CAELT@GG SLZZYMYT@CAELT@261356 SLLPYFYA@CAELT@SABO SLCO 261400@CAELT@METAR SLCO 261400Z 32004KT 9999 BKN007 BKN080 OVC200 29/25 Q1011@CAELT@A2987 984.0 HR78=@CAELT@
ZPX0390 261356@CAELT@GG SLZZYMYT@CAELT@261355 SLRQYSYX@CAELT@SABO SLRQ 261400@CAELT@METAR SLRQ 261400Z 00000KT 8000 SCT013 SCT070 BKN200 29/26 Q1011@CAELT@A2987 987.4 HR84 FU=@CAELT@
ZPX0391 261356@CAELT@GG SLZZYMYT@CAELT@261355 SLUYYGYS@CAELT@SABO SLUY 261400@CAELT@METAR SLUY 261400Z 30004KT 9999 FEW027 BKN200 17/02 Q1034 A3055@CAELT@658.7 HR35 FU CI=@CAELT@
ZPX0392 261356@CAELT@GG SLZZYMYT@CAELT@261356 SLTRYGYZ@CAELT@SABO SLTR 261400@CAELT@METAR SLTR 261400Z 36008KT 7000 VCSH FEW015 FEW023CB OVC200 31/24@CAELT@Q1011 A2987 993.0 HR67 FU CB/SH SW/W NOSIG=@CAELT@
ZPX0393 261357@CAELT@GG SLZZYMYT@CAELT@261355 SLSBYSYX@CAELT@SABO SLSB 261400@CAELT@METAR SLSB 261400Z 00000KT 8000 VCSH SCT017 FEW023CB OVC200 28/25@CAELT@Q1012 A2991 HR83 CB/S SH/SE S SW FU RWY NML=@CAELT@
ZPX0395 261358@CAELT@GG SLZZYMYT@CAELT@261355 SLSAYGYS@CAELT@SABO SLSA 261400@CAELT@METAR SLSA 261400Z 35010KT 9999 FEW017 BKN200 31/24 Q1011 A2986@CAELT@HR68 FU=@CAELT@
ZPX0396 261358@CAELT@GG SLZZYMYT@CAELT@261358 SLCBYGYZ@CAELT@SABO SLCB 261400@CAELT@METAR SLCB 261400Z 20004KT 9999 FEW033 SCT080 BKN200 23/07 Q1025@CAELT@A3027 751.5 HR36 FU NOSIG=@CAELT@
ZPX0397 261358@CAELT@GG SLZZYMYT@CAELT@261358 SLTRYGYS@CAELT@SABO SLTR 261400@CAELT@METAR SLTR 261400Z 36008KT 7000 VCSH FEW015 FEW023CB OVC200 31/24@CAELT@Q1011 A2987 993.0 HR67 FU CB/SH SW/W NOSIG=@CAELT@METAR SLGM 261400Z 03008KT 9999 BKN017 BKN080 29/24 Q1011 A2986 HR72=@CAELT@METAR SLRI 261400Z 03008KT 9999 SCT015 BKN200 29/23 Q1012 A2989 HR70=@CAELT@METAR SLJO 261400Z 36008KT 9999 FEW017 BKN200 32/24 Q1011 A2987 HR61RWY NML=METAR SLRA 261400Z 36012KT 9999 FEW017 BKN200 32/24 Q1011 A2986 HR63METAR SLMG 261400Z 34006KT 9999 FEW017 SCT080 32/23 Q1010 A2985 HR60METAR SLBU 261400Z 36006KT 9999 FEW017 BKN080 32/24 Q1011 A2987 HR63METAR SLSA 261400Z 35010KT 9999 FEW017 BKN200 31/24 Q1011 A2986 HR68METAR SLSR 261400Z 32012KT 8000 VCSH SCT017 FEW023CB BKN080 31/24Q1010 A2984 HR67 FU CB/SH SE/S/SW RWY NML=METAR SLSM 261400Z 00000KT 9999 BKN017 OVC070 27/26 Q1012 A2989 HR93
ZPX0398 261359@CAELT@GG SLZZYMYT@CAELT@261358 SLVRYFYC@CAELT@SABO SLVR 261400@CAELT@METAR SLVR 261400Z 33012G22KT 8000 FEW010 SCT017 BKN200 29/23 Q1011@CAELT@A2986 HR70 FU NOSIG=@CAELT@METAR SLET 261400Z 33015G28KT 8000 SCT017 BKN200 29/23 Q1010 A2985@CAELT@HR70 FU NOSIG=@CAELT@METAR SLAS 261400Z 36010KT 6000 FEW020 OVC200 33/24 Q1013 2991 HR59RWY NML=METAR SLJV 261400Z 36010KT 9999 NSC 32/23 Q1011 A2985 HR60 FU RWY NMLMETAR SLCP 261400Z 33005KT 9999 FEW070 29/22 Q1015 A2997 HR67 RWY NMLMETAR SLSI 261400Z 36012KT 9999 FEW017 32/22 Q1012 A2988 HR53 RWY NMLMETAR SLTI 261400Z 35014KT 9999 SCT020 33/23 Q1015 A2997 HR58 RWY NMLMETAR SLJE 261400Z 36008KT 9999 SCT017 36/23 Q1013 A2991 HR49 RWY NMLMETAR SLVG 261400Z 01007KT 9999 FEW023 BKN200 23/16 Q1023 A3021 HR62FU RWY NML=METAR SLRB 261400Z 36015KT 9999 FEW020 34/23 Q1012 A2988 HR53 RWY NMLMETAR SLPS 261400Z 06012KT 9999 NSC 36/28 Q1010 A2983 HR64 FU CI=METAR SLCA 261400Z 00000KT 8000 NSC 32/18 Q1012 A2988 HR44 FU RWY NML
ZPX0401 261400@CAELT@GG SLZZYMYT@CAELT@261359 SLCBYGYS@CAELT@SABO SLCB 261400@CAELT@METAR SLCB 261400Z 20004KT 9999 FEW033 SCT080 BKN200 23/07 Q1025@CAELT@A3027 751.5 HR36 FU NOSIG=@CAELT@METAR SLAL 261400Z 03005KT 9999 FEW017 SCT200 18/07 Q1030 A3043 704.5@CAELT@HR46=@CAELT@METAR SLPO 261400Z 06005KT 9999 FEW017 16/03 Q1037 A3064 637.9 HR42METAR SLAG 261400Z 19004KT 5000 FU NSC 32/19 Q1013 A2994 886.2 HR47METAR SLVM 261400Z 18010G22KT 8000 NSC 34/24 Q1008 A2978 HR57 FU=METAR SLTJ 261400Z 14006KT 9999 FEW033 27/16 Q1018 A3007 813.6 HR51METAR SLYA 261400Z 21010KT 9999 NSC 33/21 Q1010 A2984 935.4 HR51 FU=METAR SLBJ 261400Z NIL=METAR SLHI 261400Z NIL=
ZPX0403 261402@CAELT@GG SLZZYMYT@CAELT@261401 SLORYGYZ@CAELT@SABO SLOR 261400@CAELT@METAR SLOR 261400Z 35003KT 9999 FEW023 SCT200 18/04 Q1034 A3056 655.8@CAELT@HR39=@CAELT@
ZPX0405 261402@CAELT@GG SLZZYMYT@CAELT@261402 SLLPYFYA@CAELT@SABO SLLP 261400@CAELT@METAR SLLP 261400Z 12009KT 8000 FEW007 FEW017CB SCT200 14/04 Q1038@CAELT@A3067 628.4 HR51 P92// VIS RED/SC NE/E/SE CB/NW HZ SW/W AC NOSIG=@CAELT@METAR SLCO 261400Z 32004KT 9999 BKN007 BKN080 OVC200 29/25 Q1011@CAELT@A2987 984.0 HR78=@CAELT@METAR SLRY 261400Z 32003KT 8000 SCT016 SCT070 BKN200 30/24 Q1010A2985 HR71 FU RWY NML=METAR SLRQ 261400Z 00000KT 8000 SCT013 SCT070 BKN200 29/26 Q1011A2987 987.4 HR84 FU=METAR SLAP 261400Z 36015KT 9999 FEW025 SCT070 27/16 Q1017 A3005858.3 HR54 AC=METAR SLSB 261400Z 00000KT 8000 VCSH SCT017 FEW023CB OVC200 28/25Q1012 A2991 HR83 CB/S SH/SE S SW FU RWY NML=METAR SLOR 261400Z 35003KT 9999 FEW023 SCT200 18/04 Q1034 A3056655.8 HR39=METAR SLUY 261400Z 30004KT 9999 FEW027 BKN200 17/02 Q1034 A3055658.7 HR35 FU CI=
ZPX0430 261450@CAELT@GG SLZZYMYT@CAELT@261449 SLPSZTZX@CAELT@SABO SLPS 261500@CAELT@METAR SLPS 261500Z 03015KT 9999 SCT020 37/28 Q1010 A2983 HR63 FU=@CAELT@
ZPX0433 261454@CAELT@GG SLZZYMYT@CAELT@261455 SLORYGYZ@CAELT@SABO SLOR 261500@CAELT@METAR SLOR 261500Z 34005KT 9999 SCT023 20/03 Q1034 A3055 655.5 HR3 CI=@CAELT@
ZPX0434 261454@CAELT@GG SLZZYMYT@CAELT@261453 SLRBYGYS@CAELT@SABO SLRB 261200@CAELT@METAR SLRB 261200Z 35012KT 9999 FEW020 35/22 Q1012 A2988 HR48 RWY NML=@CAELT@
ZPX0435 261455@CAELT@GG SLZZYMYT@CAELT@261454 SLSAYGYS@CAELT@SABO SLSA 261500@CAELT@METAR SLSA 261500Z 34012KT 9999 SCT017 BKN200 32/24 Q1011 A2986@CAELT@HR65 FU=@CAELT@
ZPX0436 261455@CAELT@GG SLZZYMYT@CAELT@261452 SLETYMYC@CAELT@SABO SLET 261500Z@CAELT@METAR SLET 261500Z 32015G28KT 8000 SCT017 BKN200 30/23 Q1010 A2984@CAELT@HR64 FU NOSIG=@CAELT@
ZPX0437 261455@CAELT@GG SLZZYMYT@CAELT@261455 SLAGYSYX@CAELT@SABO SLAG 261500@CAELT@METAR SLAG 261500Z 18005KT 5000 FU FEW020 FEW030CB SCT200 33/19 Q1012@CAELT@A2990 885.1 HR43 CB/W=@CAELT@
ZPX0438 261455@CAELT@GG SLZZYMYT@CAELT@261456 SLVRYGYZ@CAELT@SABO SLVR 261500@CAELT@METAR SLVR 261500Z 33014G24KT 9999 FEW010 SCT017 BKN200 30/24 Q1011@CAELT@A2985 HR67 FU NOSIG=@CAELT@
ZPX0439 261455@CAELT@GG SLZZYMYT@CAELT@261455 SLCAYGYS@CAELT@SABO SLCA 261500@CAELT@METAR SLCA 261500Z 00000KT 8000 FEW033 34/18 Q1011 A2985 HR39 FU RWY@CAELT@NML=@CAELT@
ZPX0440 261455@CAELT@GG SLZZYMYT@CAELT@261455 SLORYGYZ@CAELT@SABO SLOR 261500 CCA@CAELT@METAR COR SLOR 261500Z 34005KT 9999 SCT023 20/03 Q1034 A3055 655.5@CAELT@HR31 CI=@CAELT@
ZPX0443 261456@CAELT@GG SLZZYMYT@CAELT@261456 SLTRYGYZ@CAELT@SABO SLTR 261500@CAELT@METAR SLTR 261500Z 30008KT 7000 FEW015 FEW023CB OVC200 30/24@CAELT@Q1011 A2987 993.0 HR70 FU CB/SH SW/W NOSIG=@CAELT@
ZPX0444 261456@CAELT@GG SLZZYMYT@CAELT@261456 SLTJYGYZ@CAELT@SABO SLTJ 261500@CAELT@METAR SLTJ 261500 15010KT 9999 SCT033 28/15 Q1017 A3005 813.0 HR46 FU=@CAELT@
ZPX0447 261457@CAELT@GG SLZZYMYT@CAELT@261455 SLSBYSYX@CAELT@SABO SLSB 261500@CAELT@METAR SLSB 261500Z 12020G35KT 0500 +TSRA SCT008 BKN015 FEW020CB@CAELT@OVC070 21/20 Q1014 A2996 HR96 TS/CB ONS STN/S SW RWY WET OPR C210=@CAELT@
ZPX0448 261457@CAELT@GG SLZZYMYT@CAELT@261456 SLLPYFYA@CAELT@SABO SLRY 261500@CAELT@METAR SLRY 261500Z 36003KT 9999 BKN017 BKN200 31/24 Q1010 A2985 HR68@CAELT@FU RWY NML=@CAELT@
ZPX0449 261457@CAELT@GG SLZZYMYT@CAELT@261455 SLLPYGYZ@CAELT@SABO SLLP 261500@CAELT@METAR SLLP 261500Z 14008KT 090V220 9999 FEW015 FEW017CB SCT200 16/03@CAELT@Q1037 A3064 627.7 HR42 P93// CB/NW HZ/SW/W AC NOSIG=@CAELT@
ZPX0451 261458@CAELT@GG SLZZYMYT@CAELT@261457 SLRQYSYX@CAELT@SABO SLRQ 261500@CAELT@METAR SLRQ 261500Z 35004KT 8000 BKN013 SCT070 BKN200 31/26 Q1011@CAELT@A2987 987.5 HR74 FU=@CAELT@
ZPX0452 261458@CAELT@GG SLZZYMYT@CAELT@261458 SLVRYFYC@CAELT@SABO SLVR 261500@CAELT@METAR SLVR 261500Z 33014G24KT 9999 FEW010 SCT017 BKN200 30/24 Q1011@CAELT@A2985 HR67 FU NOSIG=@CAELT@METAR SLET 261500Z 32015G28KT 8000 SCT017 BKN200 30/23 Q1010 A29.84@CAELT@HR64 FU NOSIG=@CAELT@METAR SLAS 261500Z 36012KT 8000 BKN020 OVC200 33/24 Q1013 A2991 HR57FU RWY NML=METAR SLJV 261500Z 36012KT 9999 NSC 34/23 Q1010 A2983 HR 54 RWY NML=METAR SLCP 261500Z 36008KT 9999 FEW017 BKN200 30/23 Q1014 A2994 HR65RWY NML=METAR SLSI 261500Z 36015KT 9999 FEW017 33/22 Q1011 A2985 HR50 RWY NMLMETAR SLTI 261500Z 34015KT 9999 SCT020 34/24 Q1015 A2997 HR54 RWY NMLMETAR SLJE 261500Z 36008KT 9999 BKN020 36/23 Q1012 A2988 HR45 RWY NMLMETAR SLVG 261500Z 35006KT 9999 FEW023 BKN200 25/16 Q1022 A3018 HR54METAR SLRB 261200Z 35012KT 9999 FEW020 35/22 Q1012 A2988 HR48 RWY NMLMETAR SLPS 261500Z 03015KT 9999 SCT020 37/28 Q1010 A2983 HR63 FU=METAR SLCA 261500Z 00000KT 8000 FEW033 34/18 Q1011 A2985 HR39 FU RWYNML=
ZPX0454 261459@CAELT@GG SLZZYMYT@CAELT@261458 SLLPYFYA@CAELT@SABO SLCO 261500@CAELT@METAR SLCO 261500Z 35006KT 9999 BKN011 BKN080 29/25 Q1011 A2987@CAELT@984.0 HR78 CI=@CAELT@
ZPX0455 261459@CAELT@GG SLZZYMYT@CAELT@261456 SLUYYGYS@CAELT@SABO SLUY 261500@CAELT@METAR SLUY 261500Z 31006KT 9999 FEW030 BKN200 19/02 Q1033 A3052@CAELT@657.9 HR32 SH NE=@CAELT@
ZPX0457 261500@CAELT@GG SLZZYMYT@CAELT@261500 SLLPYFYA@CAELT@SABO SLLP 261500@CAELT@METAR SLLP 261500Z 14008KT 090V220 9999 FEW015 FEW017CB SCT200 16/03@CAELT@Q1037 A3064 627.7 HR42 P93// CB/NW HZ/SW/W AC NOSIG=@CAELT@METAR SLCO 261500Z 35006KT 9999 BKN011 BKN080 29/25 Q1011 A2987@CAELT@984.0 HR78 CI=@CAELT@METAR SLRY 261500Z 36003KT 9999 BKN017 BKN200 31/24 Q1010 A2985 HR68FU RWY NML=METAR SLRQ 261500Z 35004KT 8000 BKN013 SCT070 BKN200 31/26 Q1011A2987 987.5 HR74 FU=METAR SLAP 261500Z 36015KT 9999 FEW025 29/16 Q1018 A3009 859.3 HR46AC=METAR SLSB 261500Z 12020G35KT 0500 +TSRA SCT008 BKN015 FEW020CBOVC070 21/20 Q1014 A2996 HR96 TS/CB ONS STN/S SW RWY WET OPR C210=METAR SLOR 261500Z 34005KT 9999 SCT023 20/03 Q1034 A3055 655.5HR31 CI=METAR SLUY 261500Z 31006KT 9999 FEW030 BKN200 19/02 Q1033 A3052657.9 HR32 SH NE=
ZPX0459 261500@CAELT@GG SLZZYMYT@CAELT@261459 SLCBYGYZ@CAELT@SABO SLCB 261500@CAELT@METAR SLCB 261500Z 22004KT 9999 FEW033 SCT080 BKN200 23/07 Q1025@CAELT@A3028 751.6 HR34 FU NOSIG=@CAELT@
ZPX0461 261500@CAELT@GG SLZZYMYT@CAELT@261458 SLTRYGYS@CAELT@SABO SLTR 261500@CAELT@METAR SLTR 261500Z 30008KT 7000 FEW015 FEW023CB OVC200 30/24 Q1011@CAELT@A2987 993.0 HR70 FU CB/SH SW/W NOSIG=@CAELT@METAR SLGM 261500Z 02010KT 9999 BKN017 BKN080 31/24 Q1011 A2986 HR65=@CAELT@METAR SLRI 261500Z 03006KT 9999 SCT017 BKN200 32/23 Q1012 A2989 HR61=@CAELT@METAR SLJO 261500Z 36010KT 9999 FEW017 BKN200 33/24 Q1011 A2986 HR58RWY NML=METAR SLRA 261500Z 36012KT 9999 FEW017 BKN200 33/24 Q1011 A2986 HR60METAR SLMG 261500Z 34004KT 9999 FEW017 BKN200 33/24 Q1010 A2985 HR57METAR SLBU 261500Z 36006KT 9999 SCT017 BKN200 35/24 Q1011 A2986 HR53METAR SLSA 261500Z 34012KT 9999 SCT017 BKN200 32/24 Q1011 A2986 HR65METAR SLSR 261500Z 32012KT 8000 VCSH SCT017 FEW023CB BKN080 31/23Q1010 A2984 HR63 CB/SH SE/S FU RWY NML=METAR SLSM 261500Z 00000KT 9999 BKN017 OVC070 26/25 Q1012 A2988 HR93
ZPX0463 261503@CAELT@GG SLZZYMYT@CAELT@261502 SLCBYGYS@CAELT@SABO SLCB 261500@CAELT@METAR SLCB 261500Z 22004KT 9999 FEW033 SCT080 BKN200 23/07 Q1025@CAELT@A3028 751.6 HR34 FU NOSIG=@CAELT@METAR SLAL 261500Z 34004KT 9999 SCT020 SCT200 19/07 Q1029 A3040 703.9@CAELT@HR46=@CAELT@METAR SLPO 261500Z 06008KT 9999 FEW020 17/03 Q1036 A3059 636.7 HR39METAR SLAG 261500Z 18005KT 5000 FU FEW020 FEW030CB SCT200 33/19 Q1012A2990 885.1 HR43 CB/W=METAR SLVM 261500Z 18012G25KT 8000 NSC 36/25 Q1008 A2978 HR55 FU CI=METAR SLTJ 261500 15010KT 9999 SCT033 28/15 Q1017 A3005 813.0 HR46 FUMETAR SLYA 261500Z 21012KT 9999 FEW023 BKN070 34/22 Q1010 A2983 935.2HR49 FU=METAR SLBJ 261500Z NIL=METAR SLHI 261500Z NIL=
ZPX0467 261511@CAELT@GG SLZZYMYT@CAELT@261510 SLTRYGYZ@CAELT@SABO SLTR 261500 CCA@CAELT@METAR COR SLTR 261500Z 30008KT 7000 VCSH FEW015 FEW023CB OVC200 30/24@CAELT@Q1011 A2987 993.0 HR70 FU CB/SH SW/W NOSIG=@CAELT@
ZPX0487 261552@CAELT@GG SLZZYMYT@CAELT@261551 SLPSZTZX@CAELT@SABO SLPS 261600@CAELT@METAR SLPS 261600Z 36015KT 9999 BKN020 37/28 Q1009 A2980 HR60=@CAELT@
ZPX0490 261554@CAELT@GG SLZZYMYT@CAELT@261554 SLSAYGYS@CAELT@SABO SLSA 261600@CAELT@METAR SLSA 261600Z 34010KT 9999 SCT017 BKN200 32/24 Q1010 A2984@CAELT@HR61 FU=@CAELT@
ZPX0491 261554@CAELT@GG SLZZYMYT@CAELT@261553 SLRBYGYS@CAELT@SABO SLRB 261600@CAELT@METAR SLRB 261600Z 36010KT 9999 FEW020 36/22 Q1012 A2988 HR46 RWY NML=@CAELT@
ZPX0492 261555@CAELT@GG SLZZYMYT@CAELT@261555 SLCAYGYS@CAELT@SABO SLCA 261600@CAELT@METAR SLCA 261600Z 00000KT 8000 SCT033 BKN200 36/18 Q1010 A2983 HR35@CAELT@FU RWY NML=@CAELT@
ZPX0493 261555@CAELT@GG SLZZYMYT@CAELT@261555 SLTJYGYZ@CAELT@SABO SLTJ 261600@CAELT@METAR SLTJ 261600Z 15012KT 9999 SCT033 SCT070 28/15 Q1017 A3004 812.6@CAELT@HR44 FU=@CAELT@
ZPX0494 261555@CAELT@GG SLZZYMYT@CAELT@261555 SLORYGYZ@CAELT@SABO SLOR 261600@CAELT@METAR SLOR 261600Z 05009KT 9999 VCTS SCT023 FEW025CB 20/04 Q1034@CAELT@A3054 655.4 HR34 CB/NE/E TS/E AC/CI=@CAELT@
ZPX0496 261555@CAELT@GG SLZZYMYT@CAELT@261555 SLTRYGYZ@CAELT@SABO SLTR 261600@CAELT@METAR SLTR 261600Z 31008KT 7000 FEW017 FEW023CB OVC200 31/24@CAELT@Q1010 A2985 992.3 HR69 FU CB W NOOSIG=@CAELT@
ZPX0499 261556@CAELT@GG SLZZYMYT@CAELT@261555 SLSBYSYX@CAELT@SABO SLSB 261600@CAELT@METAR SLSB 261600Z 00000KT 7000 TS VCSH SCT020 FEW023CB BKN070 OVC200@CAELT@21/20 Q1012 A2989 HR96 RETSRA TS/CB/SH SW W NW NE RWY WET OPR C210=@CAELT@
ZPX0500 261556@CAELT@GG SLZZYMYT@CAELT@261555 SLRQYSYX@CAELT@SABO SLRQ 261600@CAELT@METAR SLRQ 261600Z 02004KT 8000 VCSH BKN013 FEW017CB BKN070 OVC200 31@CAELT@/26 Q1011 A2986 987.0 HR73 CB/SH E/SE FU=@CAELT@
ZPX0501 261557@CAELT@GG SLZZYMYT@CAELT@261557 SLLPYFYA@CAELT@SABO SLCO 261600@CAELT@METAR SLCO 261600Z 3504KT 9999 BKN015 BKN080 30/25 Q1010 A2983 982.8@CAELT@HR74 CI=@CAELT@
ZPX0502 261557@CAELT@GG SLZZYMYT@CAELT@261556 SLAGYSYX@CAELT@SABO SLAG 261600@CAELT@METAR SLAG 261600Z 16005KT 6000 FEW023 FEW030CB BKN200 32/19 Q1012@CAELT@A2989 884.7 HR45 CB/W FU=@CAELT@
ZPX0503 261557@CAELT@GG SLZZYMYT@CAELT@261555 SLLPYGYZ@CAELT@SABO SLLP 261600@CAELT@METAR SLLP 261600Z 10010KT 050V140 9999 SCT015 FEW017CB SCT200@CAELT@17/03 Q1037 A3063 627.4 HR40 P4754 CB/SH N/NE AC NOSIG=@CAELT@
ZPX0504 261557@CAELT@GG SLZZYMYT@CAELT@261558 SLVRYGYZ@CAELT@SABO SLVR 261600@CAELT@METAR SLVR 261600Z 32019G30KT 9999 SCT017 BKN200 32/23 Q1010 A2985@CAELT@HR62 FU NOSIG=@CAELT@
ZPX0505 261558@CAELT@GG SLZZYMYT@CAELT@261557 SLCBYGYZ@CAELT@SABO SLCB 261600@CAELT@METAR SLCB 261600Z 10006KT 9999 FEW033 SCT080 BKN200 24/06 Q1024@CAELT@A3025 751.0 HR31 FU NOSIG=@CAELT@
ZPX0506 261558@CAELT@GG SLZZYMYT@CAELT@261557 SLUYYGYS@CAELT@SABO SLUY 261600@CAELT@METAR SLUY 261600Z 30004KT 9999 FEW033 FEW036CB BKN200 21/03 Q1032@CAELT@A3050 657.5 HR31 CB/SH NE=@CAELT@
ZPX0507 261558@CAELT@GG SLZZYMYT@CAELT@261558 SLLPYFYA@CAELT@SABO SLCO 261600 CCA@CAELT@METAR COR SLCO 261600Z 35004KT 9999 BKN015 BKN080 30/25 Q1010 A2983@CAELT@982.8 HR74 CI=@CAELT@
ZPX0508 261559@CAELT@GG SLZZYMYT@CAELT@261559 SLTRYGYS@CAELT@SABO SLTR 261600@CAELT@METAR SLTR 261600Z 31008KT 7000 FEW017 FEW023CB OVC200 31/24 Q1010@CAELT@A2985 992.3 HR69 FU CB W NOSIG=@CAELT@METAR SLGM 261600Z 02010KT 9999 BKN017 BKN080 33/24 Q1011 A2985 HR61=@CAELT@METAR SLRI 261600Z 03012KT 9999 BKN017 FEW020CB BKN200 32/23 Q1011@CAELT@A2988 HR59 CB N/NE=METAR SLJO 261600Z 36010KT 9999 SCT017 BKN200 35/24 Q1011 A2986 HR53RWY NML=METAR SLRA 261600Z 36010KT 9999 SCT017 BKN200 34/23 Q1010 A2983 HR56METAR SLMG 261600Z 06006KT 9999 SCT017 BKN200 33/22 Q1010 A2985 HR53METAR SLBU 261600Z 36008KT 9999 SCT017 BKN200 36/23 Q1010 A2983 HR47METAR SLSA 261600Z 34010KT 9999 SCT017 BKN200 32/24 Q1010 A2984HR61 FU=METAR SLSR 261600Z 18008KT 7000 VCSH SCT017 FEW023CB BKN070 OVC20031/24 Q1010 A2983 HR68 FU CB/SH SE/S/SW RWY NML=METAR SLSM 261600Z 00000KT 9999 SCT020 BKN070 BKN200 27/25 Q1011A2986 HR91 FU RWY NML=
ZPX0509 261559@CAELT@GG SLZZYMYT@CAELT@261559 SLTRYGYZ@CAELT@SABO SLTR 261600 CCA@CAELT@METAR COR SLTR 261600Z 31008KT 7000 FEW017 FEW023CB OVC200 31/24@CAELT@Q1010 A2985 992.3 HR69 FU CB W NOSIG=@CAELT@
ZPX0511 261600@CAELT@GG SLZZYMYT@CAELT@261559 SLETYMYC@CAELT@SABO SLET 261600@CAELT@METAR SLET 261600Z 32020G34KT 9999 SCT020 BKN200 31/22 Q1010 A2983@CAELT@HR59 FU NOSIG=@CAELT@
ZPX0512 261600@CAELT@GG SLZZYMYT@CAELT@261600 SLCBYGYS@CAELT@SABO SLCB 261600@CAELT@METAR SLCB 261600Z 10006KT 9999 FEW033 SCT080 BKN200 24/06 Q1024@CAELT@A3025 751.0 HR31 FU NOSIG=@CAELT@METAR SLAL 261600Z 00000KT 9999 SCT023 21/08 Q1029 A3038 703.5 HR43@CAELT@METAR SLPO 261600Z 07012KT 9999 FEW020 18/03 Q1035 A3058 636.4 HR37@CAELT@METAR SLAG 261600Z 16005KT 6000 FEW023 FEW030CB BKN200 32/19 Q1012A2989 884.7 HR45 CB/W FU=METAR SLVM 261600Z 18015G25KT 9999 BKN070 36/25 Q1007 A2976 HR54 FUMETAR SLTJ 261600Z 15012KT 9999 SCT033 SCT070 28/15 Q1017 A3004 812.6HR44 FU=METAR SLYA 261600Z 21012KT 9999 FEW023 OVC070 32/23 Q1010 A2983 935.2HR57=METAR SLBJ 261600Z NIL=METAR SLHI 261600Z NIL=
ZPX0513 261601@CAELT@GG SLZZYMYT@CAELT@261557 SLLPYFYA@CAELT@SABO SLRY 261600@CAELT@METAR SLRY 261600Z 14008KT 7000 VCSH BKN015 FEW023CB OVC070 30/25@CAELT@Q1010 A2985 HR74 CB/SH S/SE/SW RWY NML=@CAELT@
ZPX0514 261601@CAELT@GG SLZZYMYT@CAELT@261601 SLVRYFYC@CAELT@SABO SLVR 261600@CAELT@METAR SLVR 261600Z 32019G30KT 9999 SCT017 BKN200 32/23 Q1010 A2985@CAELT@HR62 FU NOSIG=@CAELT@METAR SLET 261600Z 32020G34KT 9999 SCT020 BKN200 31/22 Q1010 A2983@CAELT@HR59 FU NOSIG=@CAELT@METAR SLAS 261600Z 36012KT 9999 BKN020 OVC200 34/24 Q1013 A2991 HR55RWY NML=METAR SLCP 261600Z 36010KT 9999 SCT017 BKN200 31/23 Q1014 A2994 HR62METAR SLSI 261600Z 36012KT 9999 SCT017 35/21 Q1011 A2985 HR45 RWY NMLMETAR SLJE 261600Z 36006KT 9999 BKN020 36/22 Q1012 A2988 HR45 RWY NMLMETAR SLRB 261600Z 36010KT 9999 FEW020 36/22 Q1012 A2988 HR46 RWY NMLMETAR SLPS 261600Z 36015KT 9999 BKN020 37/28 Q1009 A2980 HR60=METAR SLCA 261600Z 00000KT 8000 SCT033 BKN200 36/18 Q1010 A2983 HR35FU RWY NML=
ZPX0515 261602@CAELT@GG SLZZYMYT@CAELT@261602 SLLPYFYA@CAELT@SABO SLLP 261600@CAELT@METAR SLLP 261600Z 10010KT 050V140 9999 SCT015 FEW017CB SCT200@CAELT@17/03 Q1037 A3063 627.4 HR40 P4754 CB/SH N/NE AC NOSIG=@CAELT@METAR SLCO 261600Z 35004KT 9999 BKN015 BKN080 30/25 Q1010 A2983@CAELT@982.8 HR74 CI=@CAELT@METAR SLRY 261600Z 14008KT 7000 VCSH BKN015 FEW023CB OVC070 30/25Q1010 A2985 HR74 CB/SH S/SE/SW RWY NML=METAR SLRQ 261600Z 02004KT 8000 VCSH BKN013 FEW017CB BKN070 OVC20031/26 Q1011 A2986 987.0 HR73 CB/SH E/SE FU=METAR SLAP 261600Z 00000KT 9999 FEW025 29/16 Q1017 A3003 857.7 HR46AC=METAR SLSB 261600Z 00000KT 7000 TS VCSH SCT020 FEW023CB BKN070 OVC20021/20 Q1012 A2989 HR96 RETSRA TS/CB/SH SW W NW NE RWY WET OPR C210=METAR SLOR 261600Z 05009KT 9999 VCTS SCT023 FEW025CB 20/04 Q1034A3054 655.4 HR34 CB/NE/E TS/E AC/CI=METAR SLUY 261600Z 30004KT 9999 FEW033 FEW036CB BKN200 21/03 Q1032A3050 657.5 HR31 CB/SH NE=
ZPX0539 261645@CAELT@GG SLZZYMYT@CAELT@261644 SLPSZTZX@CAELT@SABO SLPS 261700@CAELT@METAR SLPS 261700Z 36012KT 9999 BKN020 38/28 Q1008 A2977 HR58=@CAELT@
ZPX0542 261654@CAELT@GG SLZZYMYT@CAELT@261653 SLRBYGYS@CAELT@SABO SLRB 261700@CAELT@METAR SLRB 261700Z 36015KT 9999 FEW020 36/22 Q1010 A2983 HR45 RWY NML=@CAELT@
ZPX0543 261654@CAELT@GG SLZZYMYT@CAELT@261654 SLSBYSYX@CAELT@SABO SLSB 261700@CAELT@METAR SLSB 261700Z 24005KT 7000 TS VCSH SCT020 FEW023CB BKN070 OVC200@CAELT@21/21 Q1010 A2985 HR97 TS/CB/SW SH/S SW W NW RWY WET OPR C210=@CAELT@
ZPX0544 261654@CAELT@GG SLZZYMYT@CAELT@261654 SLSAYGYS@CAELT@SABO SLSA 261700@CAELT@METAR SLSA 261700Z 32008KT 9999 BKN017 BKN200 33/24 Q1009 A2981@CAELT@HR56 FU=@CAELT@
ZPX0545 261655@CAELT@GG SLZZYMYT@CAELT@261655 SLVRYGYZ@CAELT@SABO SLVR 261700@CAELT@METAR SLVR 261700Z 33017G27KT 9999 SCT017 BKN200 31/23 Q1010 A2983@CAELT@HR62 FU NOSIG=@CAELT@
ZPX0546 261655@CAELT@GG SLZZYMYT@CAELT@261652 SLCAYGYS@CAELT@SABO SLCA 261700@CAELT@METAR SLCA 261700Z 00000KT 8000 SCT033 FEW040CB BKN200 36/18 Q1009@CAELT@A2980 HR34 CB N FU RWY NML=@CAELT@
ZPX0547 261655@CAELT@GG SLZZYMYT@CAELT@261655 SLRQYSYX@CAELT@SABO SLRQ 261700@CAELT@METAR SLRQ 261700Z 15006KT 2000 TSRA BKN012 FEW017CB OVC070 22/22@CAELT@Q1011 A2988 987.6 HR100 TS/CB N/NE/NW=@CAELT@
ZPX0548 261655@CAELT@GG SLZZYMYT@CAELT@261655 SLLPYGYZ@CAELT@SABO SLLP 261700@CAELT@METAR SLLP 261700Z 05019G30KT 9999 SCT015 FEW017CB BKN200 15/02@CAELT@Q1036 A3061 626.9 HR40 P4754 CB/SH N/NE AC NOSIG=@CAELT@
ZPX0549 261656@CAELT@GG SLZZYMYT@CAELT@261655 SLTRYGYZ@CAELT@SABO SLTR 261700@CAELT@METAR SLTR 261700Z 30008KT 8000 FEW017 FEW023CB OVC200 31/24 Q1009@CAELT@A2982 991.3 HR66 FU CB W NOSIG=@CAELT@
ZPX0550 261656@CAELT@GG SLZZYMYT@CAELT@261656 SLCBYGYZ@CAELT@SABO SLCB 261700@CAELT@METAR SLCB 261700Z 13005KT 9999 FEW033 SCT080 BKN200 25/05 Q1022@CAELT@A3020 749.6 HR29 FU NOSIG=@CAELT@
ZPX0551 261656@CAELT@GG SLZZYMYT@CAELT@261655 SLUYYGYS@CAELT@SABO SLUY 261700@CAELT@METAR SLUY 261700Z 32007KT 9999 FEW036 FEW040CB 21/02 Q1031 A3047@CAELT@656.8 HR27 CB/SH NE/E=@CAELT@
ZPX0552 261657@CAELT@GG SLZZYMYT@CAELT@261656 SLORYGYZ@CAELT@SABO SLOR 261700@CAELT@METAR SLOR 261700Z 07012KT 9999 SCT023 FEW025CB SCT200 21/03 Q1034@CAELT@A3053 655.2 HR32 CB/SH N/SE RETS AC=@CAELT@
ZPX0553 261657@CAELT@GG SLZZYMYT@CAELT@261657 SLTJYGYZ@CAELT@SABO SLTJ 261700@CAELT@METAR SLTJ 261700Z 12012KT 9999 SCT033 SCT070 28/15 Q1016 A3003 812.3@CAELT@HR47=@CAELT@
ZPX0555 261657@CAELT@GG SLZZYMYT@CAELT@261653 SLETYMYC@CAELT@SABO SLET 261700@CAELT@METAR SLET 261700Z 31020G33KT 9999 BKN020 BKN200 31/22 Q1009 A2981@CAELT@HR58 FU NOSIG=@CAELT@
ZPX0558 261658@CAELT@GG SLZZYMYT@CAELT@261656 SLAGYSYX@CAELT@SABO SLAG 261700@CAELT@METAR SLAG 261700Z 09004KT 6000 FEW023 FEW033CB SCT080 OVC200 31/19@CAELT@Q1011 A2986 884.0 HR49 CB SW/W FU=@CAELT@
ZPX0559 261659@CAELT@GG SLZZYMYT@CAELT@261658 SLLPYFYA@CAELT@SABO SLRY 261700@CAELT@METAR SLRY 261700Z 14010KT 3000 -TSRA BKN015 FEW020CB OVC070 22/21@CAELT@Q1010 A2983 HR96 CB/TS W/SW/NW RWY WET OPR C210=@CAELT@
ZPX0560 261659@CAELT@GG SLZZYMYT@CAELT@261659 SLLPYFYA@CAELT@SABO SLCO 261700@CAELT@METAR SLCO 261700Z 01004KT 9999 BKN017 BKN080 31/25 Q1009 A2981@CAELT@982.1 HR73 CI=@CAELT@
ZPX0561 261700@CAELT@GG SLZZYMYT@CAELT@261659 SLVRYFYC@CAELT@SABO SLVR 261700@CAELT@METAR SLVR 261700Z 33017G27KT 9999 SCT017 BKN200 31/23 Q1010 A2983@CAELT@HR62 FU NOSIG=@CAELT@METAR SLET 261700Z 31020G33KT 9999 BKN020 BKN200 31/22 Q1009 A2981@CAELT@HR58 FU NOSIG=@CAELT@METAR SLAS 261700Z 35012KT 9999 BKN020 OVC200 35/23 Q1012 A2988 HR52RWY NML=METAR SLCP 261700Z 36008KT 9999 SCT017 BKN200 32/23 Q1013 A2991 HR58METAR SLSI 261700Z 33010KT 9999 SCT017 34/22 Q1010 A2983 HR48 RWY NMLMETAR SLJE 261700Z 36010KT 4000 TSRA BKN020 FEW030CB OVC070 26/25Q1012 A2988 HR92 CB/TS/N/SE/SW/NW RWY WET OPR=METAR SLRB 261700Z 36015KT 9999 FEW020 36/22 Q1010 A2983 HR45 RWY NMLMETAR SLPS 261700Z 36012KT 9999 BKN020 38/28 Q1008 A2977 HR58=METAR SLCA 261700Z 00000KT 8000 SCT033 FEW040CB BKN200 36/18 Q1009A2980 HR34 CB N FU RWY NML=
ZPX0563 261700@CAELT@GG SLZZYMYT@CAELT@261659 SLTRYGYS@CAELT@SABO SLTR 261700@CAELT@METAR SLTR 261700Z 30008KT 8000 FEW017 FEW023CB OVC200 31/24 Q1009@CAELT@A2982 991.3 HR66 FU CB W NOSIG=@CAELT@METAR SLGM 261700Z 02010KT 9999 BKN017 FEW020CB BKN080 33/24 Q1010@CAELT@A2982 HR60 CB E/SE=@CAELT@METAR SLRI 261700Z 09008KT 9999 BKN017 FEW020CB BKN200 32/23 Q1010A2984 HR58 CB N/NW=METAR SLJO 261700Z 36012KT 9999 SCT017 BKN200 35/24 Q1010 A2983 HR51RWY NML=METAR SLRA 261700Z 36008KT 9999 SCT017 FEW023CB BKN200 34/23 Q1009A2982 HR53 CB SE RWY NML=METAR SLMG 261700Z 34006KT 9999 SCT017 BKN200 35/23 Q1010 A2987 HR49METAR SLBU 261700Z 36008KT 9999 SCT017 BKN200 37/24 Q1009 A2980 HR47METAR SLSA 261700Z 32008KT 9999 BKN017 BKN200 33/24 Q1009 A2981 HR56METAR SLSR 261700Z 18008KT 6000 VCSH SCT015 FEW023CB OVC070 26/21Q1009 A2982 HR76 CB/SH SE/S/SW/NW RWY NML=METAR SLSM 261700Z 00000KT 9999 FEW020 BKN070 BKN200 27/24 Q1009A2982 HR84 FU RWY NML=
ZPX0564 261700@CAELT@GG SLZZYMYT@CAELT@261659 SLLPYFYA@CAELT@SABO SLAP 261700@CAELT@METAR SLAP 261700Z 36018KT 9999 SCT025 FEW027CB 28/17 Q1016 A3001@CAELT@HR51 CB/SH N/SE/S AC=@CAELT@
ZPX0566 261701@CAELT@GG SLZZYMYT@CAELT@261701 SLCBYGYS@CAELT@SABO SLCB 261700@CAELT@METAR SLCB 261700Z 13005KT 9999 FEW033 SCT080 BKN200 25/05 Q1022@CAELT@A3020 749.6 HR29 FU NOSIG=@CAELT@METAR SLAL 261700Z 33009KT 9999 FEW023 FEW033CB SCT200 22/08 Q1027@CAELT@A3034 702.5 HR42 CB/E=@CAELT@METAR SLPO 261700Z NIL=METAR SLAG 261700Z 09004KT 6000 FEW023 FEW033CB SCT080 OVC200 31/19Q1011 A2986 884.0 HR49 CB SW/W FU=METAR SLVM 261700Z 18015G27KT 9999 FEW025 BKN070 36/25 Q1007 A2974HR53 FU CI=METAR SLTJ 261700Z 12012KT 9999 SCT033 SCT070 28/15 Q1016 A3003 812.3HR47=METAR SLYA 261700Z 21016KT 9999 SCT023 OVC070 31/23 Q1010 A2984 935.3HR62 FU=METAR SLBJ 261700Z NIL=METAR SLHI 261700Z NIL=
ZPX0567 261701@CAELT@GG SLZZYMYT@CAELT@261701 SLLPYFYA@CAELT@SABO SLLP 261700@CAELT@METAR SLLP 261700Z 05019G30KT 9999 SCT015 FEW017CB BKN200 15/02@CAELT@Q1036 A3061 626.9 HR40 P4754 CB/SH N/NE AC NOSIG=@CAELT@METAR SLCO 261700Z 01004KT 9999 BKN017 BKN080 31/25 Q1009 A2981@CAELT@982.1 HR73 CI=@CAELT@METAR SLRY 261700Z 14010KT 3000 -TSRA BKN015 FEW020CB OVC070 22/21Q1010 A2983 HR96 CB/TS W/SW/NW RWY WET OPR C210=METAR SLRQ 261700Z 15006KT 2000 TSRA BKN012 FEW017CB OVC070 22/22Q1011 A2988 987.6 HR100 TS/CB N/NE/NW=METAR SLAP 261700Z 36018KT 9999 SCT025 FEW027CB 28/17 Q1016 A3001HR51 CB/SH N/SE/S AC=METAR SLSB 261700Z 24005KT 7000 TS VCSH SCT020 FEW023CB BKN070 OVC20021/21 Q1010 A2985 HR97 TS/CB/SW SH/S SW W NW RWY WET OPR C210=METAR SLOR 261700Z 07012KT 9999 SCT023 FEW025CB SCT200 21/03 Q1034A3053 655.2 HR32 CB/SH N/SE RETS AC=METAR SLUY 261700Z 32007KT 9999 FEW036 FEW040CB 21/02 Q1031 A3047656.8 HR27 CB/SH NE/E=
ZPX0595 261751@CAELT@GG SLZZYMYT@CAELT@261750 SLRBYGYS@CAELT@SABO SLRB 261800@CAELT@METAR SLRB 261800Z 36015KT 9999 SCT020 36/22 Q1009 A2980 HR46 RWY NML=@CAELT@
ZPX0596 261752@CAELT@GG SLZZYMYT@CAELT@261751 SLPSZTZX@CAELT@SABO SLPS 261800@CAELT@METAR SLPS 261800Z 36008KT 9999 BKN020 BKN200 38/28 Q1006 A2971 HR58=@CAELT@
ZPX0597 261755@CAELT@GG SLZZYMYT@CAELT@261755 SLVRYGYZ@CAELT@SABO SLVR 261800@CAELT@METAR SLVR 261800Z 33016G26KT 9999 SCT017 BKN200 32/23 Q1008 A2979@CAELT@HR60 FU NOSIG=@CAELT@
ZPX0598 261755@CAELT@GG SLZZYMYT@CAELT@261755 SLORYGYZ@CAELT@SABO SLOR 261800@CAELT@METAR SLOR 261800Z 19011KT 9999 SCT023 FEW025CB BKN200 15/01 Q1033@CAELT@A3052 655.0 HR38 CB/SH N/S/SE/NW AC=@CAELT@
ZPX0599 261755@CAELT@GG SLZZYMYT@CAELT@261755 SLCOYSYX@CAELT@SABO SLCO 261800@CAELT@METAR SLCO 261800Z 03006KT 9999 BKN017 BKN080 31/26 Q1008 A2977 980.9@CAELT@HR72 CI=@CAELT@
ZPX0600 261756@CAELT@GG SLZZYMYT@CAELT@261755 SLSAYGYS@CAELT@SABO SLSA 261800@CAELT@METAR SLSA 261800Z 00000KT 9999 SCT017 FEW023CB BKN200 33/23 Q1008@CAELT@A2977 HR56 FU CB E=@CAELT@
ZPX0602 261756@CAELT@GG SLZZYMYT@CAELT@261756 SLLPYFYA@CAELT@SABO SLAP 261800@CAELT@METAR SLAP 261800Z 36015KT 9999 SCT025 FEW025CB 27/18 Q1016 A3001@CAELT@HR58 CB/SH E/SE/S AC CI=@CAELT@
ZPX0603 261757@CAELT@GG SLZZYMYT@CAELT@261752 SLETYMYC@CAELT@SABO SLET 261800@CAELT@METAR SLET 261800Z 33022G32KT 9999 SCT020 BKN200 32/22 1008 A2978@CAELT@HR57 FU NOSIG=@CAELT@
ZPX0604 261757@CAELT@GG SLZZYMYT@CAELT@261756 SLTRYGYZ@CAELT@SABO SLTR 261800@CAELT@METAR SLTR 261800Z 30008KT 8000 FEW017 FEW023CB OVC200 32/25@CAELT@Q1008 A2978 990.1 HR67 FU CB W NOSIG=@CAELT@
ZPX0605 261757@CAELT@GG SLZZYMYT@CAELT@261755 SLRQYSYX@CAELT@SABO SLRQ 261800@CAELT@METAR SLRQ 261800Z 19006KT 9999 TS BKN017 FEW023CB OVC070 23/23 Q1009@CAELT@A2980 HR99 CB/TS/NW/W RERA=@CAELT@
ZPX0607 261757@CAELT@GG SLZZYMYT@CAELT@261755 SLTJYGYZ@CAELT@SABO SLTJ 261800@CAELT@METAR SLTJ 261800Z 13010KT 9000 SCT0033 FEW040CB BKN200 26/16 Q1016@CAELT@A3002 812.1 HR53 CB/NE/SW AC FU=@CAELT@
ZPX0608 261758@CAELT@GG SLZZYMYT@CAELT@261755 SLLPYGYZ@CAELT@SABO SLLP 261800@CAELT@METAR SLLP 261800Z 05019G29KT 9999 VCTS SCT015 FEW017CB SCT070@CAELT@BKN200 12/02 Q1036 A3061 627.1 HR49 P94// CB/SH S/SW/NW TS/SW@CAELT@NOSIG=@CAELT@
ZPX0609 261759@CAELT@GG SLZZYMYT@CAELT@261758 SLCBYGYZ@CAELT@SABO SLCB 261800@CAELT@METAR SLCB 261800Z 18006KT 9999 FEW033 SCT080 OVC200 27/06 Q1021@CAELT@A3015 748.4 HR26 FU NOSIG=@CAELT@
ZPX0610 261759@CAELT@GG SLZZYMYT@CAELT@261758 SLLPYFYA@CAELT@SABO SLRY 261800@CAELT@METAR SLRY 261800Z 00000KT 8000 TS VCSH BKN017 FEW025CB OVC070 22/21@CAELT@Q1008 A2979 HR97 CB/TS/SH NW RWY WET OPR C210=@CAELT@
ZPX0612 261759@CAELT@GG SLZZYMYT@CAELT@261758 SLSBYSYX@CAELT@SABO SLSB 261800@CAELT@METAR SLSB 261800Z 31004KT 8000 -TS VCSH SCT015 FEW025CB OVC070 22/21@CAELT@Q1008 A2977 HR95 TS CB SH S SW W RWY WET OPR C210=@CAELT@
ZPX0613 261759@CAELT@GG SLZZYMYT@CAELT@261759 SLCAYGYS@CAELT@SABO SLCA 261800@CAELT@METAR SLCA 261800Z 00000KT 2000 TSGRRA BKN033 FEW040CB OVC070 30/20@CAELT@Q1012 A2988 HR55 CB/TS ON STN/SE RWY WET IN@CAELT@
ZPX0614 261800@CAELT@GG SLZZYMYT@CAELT@261758 SLAGYSYX@CAELT@SABO SLAG 261800@CAELT@METAR SLAG 261800Z 08003KT 6000 VCTS FEW025 FEW033CB SCT080 OVC200 31@CAELT@/19 Q1011 A2986 883.9 HR51 CB SW/W TS/SW FU=@CAELT@
ZPX0615 261800@CAELT@GG SLZZYMYT@CAELT@261759 SLVRYFYC@CAELT@SABO SLVR 261800@CAELT@METAR SLVR 261800Z 33016G26KT 9999 SCT017 BKN200 32/23 Q1008 A2979@CAELT@HR60 FU NOSIG=@CAELT@METAR SLET 261800Z 33022G32KT 9999 SCT020 BKN200 32/22 1008 A2978@CAELT@HR57 FU NOSIG=@CAELT@METAR SLAS 261800Z 36010KT 9999 BKN020 OVC200 36/23 Q1010 A2983 HR48RWY NML=METAR SLJV 261800Z 36008KT 9999 BKN020 28/23 Q1008 A2977 HR73 RWY NMLMETAR SLCP 261800Z 36005KT 9999 SCT017 BKN200 33/23 Q1011 A2985 HR55METAR SLSI 261800Z 33010KT 9999 SCT017 BKN200 34/22 Q1008 A2977 HR47METAR SLTI 261800Z 00000KT 9999 BKN020 FEW030CB BKN070 27/22 Q1014A2994 HR76 CB/SH/S/SW RWY NML=METAR SLJE 261800Z 36005KT 9999 TS SCT020 FEW030CB OVC070 25/24 Q1011A2985 HR92 CB/TS/N/SE/SW RERA RWY WET OPR=METAR SLVG 261800Z 36005KT 9999 TS SCT027 FEW030CB BKN200 23/14 Q1021A3015 HR52 CB/S/SW TS/S RWY NML=METAR SLRB 261800Z 36015KT 9999 SCT020 36/22 Q1009 A2980 HR46 RWY NMLMETAR SLPS 261800Z 36008KT 9999 BKN020 BKN200 38/28 Q1006 A2971 HR58=METAR SLCA 261800Z 00000KT 2000 TSGRRA BKN033 FEW040CB OVC070 30/20Q1012 A2988 HR55 CB/TS ON STN/SE RWY WET INOP=
ZPX0618 261802@CAELT@GG SLZZYMYT@CAELT@261800 SLTRYGYS@CAELT@SABO SLTR 261800@CAELT@METAR SLTR 261800Z 30008KT 8000 FEW017 FEW023CB OVC200 32/25 Q1008@CAELT@A2978 990.1 HR67 FU CB W NOSIG=@CAELT@METAR SLGM 261800Z 02010KT 9999 SCT017 FEW020CB SCT080 33/22 Q1008@CAELT@A2977 HR53 CB E/SE=@CAELT@METAR SLRI 261800Z 10010KT 9999 BKN017 34/22 Q1009 A2980 HR52 CI=METAR SLJO 261800Z NIL=METAR SLRA 261800Z 03007KT 9999 SCT020 FEW023CB BKN200 35/23 Q1008A2977 HR49 CB NW RWY NML=METAR SLMG 261800Z 03004KT 9999 SCT017 BKN200 35/23 Q1009 A2980 HR51RWY NML=METAR SLBU 261800Z 36008KT 9999 SCT017 BKN200 36/23 Q1008 A2977 HR46METAR SLSA 261800Z 00000KT 9999 SCT017 FEW023CB BKN200 33/23 Q1008A2977 HR56 FU CB E=METAR SLSR 261800Z 18008KT 6000 TS VCSH SCT015 FEW023CB OVC070 26/20Q1008 A2979 HR72 CB/SH N/S/SW/NWW TS N RWY NML=METAR SLSM 261800Z NIL=
ZPX0619 261802@CAELT@GG SLZZYMYT@CAELT@261801 SLLPYFYA@CAELT@SABO SLLP 261800@CAELT@METAR SLLP 261800Z 05019G29KT 9999 VCTS SCT015 FEW017CB SCT070@CAELT@BKN200 12/02 Q1036 A3061 627.1 HR49 P94// CB/SH S/SW/NW TS/SW@CAELT@NOSIG=@CAELT@METAR SLCO 261800Z 03006KT 9999 BKN017 BKN080 31/26 Q1008 A2977@CAELT@980.9 HR72 CI=METAR SLRY 261800Z 00000KT 8000 TS VCSH BKN017 FEW025CB OVC070 22/21Q1008 A2979 HR97 CB/TS/SH NW RWY WET OPR C210=METAR SLRQ 261800Z 19006KT 9999 TS BKN017 FEW023CB OVC070 23/23Q1009 A2980 HR99 CB/TS/NW/W RERA=METAR SLAP 261800Z 36015KT 9999 SCT025 FEW025CB 27/18 Q1016 A3001HR58 CB/SH E/SE/S AC CI=METAR SLSB 261800Z 31004KT 8000 -TS VCSH SCT015 FEW025CB OVC070 22/21Q1008 A2977 HR95 TS CB SH S SW W RWY WET OPR C210=METAR SLOR 261800Z 19011KT 9999 SCT023 FEW025CB BKN200 15/01 Q1033A3052 655.0 HR38 CB/SH N/S/SE/NW AC=
ZPX0620 261802@CAELT@GG SLZZYMYT@CAELT@261802 SLCBYGYS@CAELT@SABO SLCB 261800@CAELT@METAR SLCB 261800Z 18006KT 9999 FEW033 SCT080 OVC200 27/06 Q1021@CAELT@A3015 748.4 HR26 FU NOSIG=@CAELT@METAR SLAL 261800Z 05015G28KT 9999 SCT023 FEW033CB BKN200 21/08 Q1025@CAELT@A3029 701.4 HR43 CB/ON STN/E/SE/S TS/ON STN AC=@CAELT@METAR SLPO 261800Z NIL=METAR SLAG 261800Z 08003KT 6000 VCTS FEW025 FEW033CB SCT080 OVC20031/19 Q1011 A2986 883.9 HR51 CB SW/W TS/SW FU=METAR SLVM 261800Z NIL=METAR SLTJ 261800Z 13010KT 9000 SCT0033 FEW040CB BKN200 26/16 Q1016A3002 812.1 HR53 CB/NE/SW AC FU=METAR SLYA 261800Z 21015KT 9999 SCT023 OVC070 30/23 Q1009 A2982 934.6HR63 FU=METAR SLBJ 261800Z NIL=METAR SLHI 261800Z NIL=
ZPX0627 261819@CAELT@GG SLZZYMYT@CAELT@261819 SLCBYGYS@CAELT@SABO SLCB 261800 CCA@CAELT@METAR SLCB 261800Z 18006KT 9999 FEW033 SCT080 OVC200 27/06 Q1021@CAELT@A3015 748.4 HR26 FU NOSIG=@CAELT@METAR COR SLAL 261800Z 05015G28KT 9999 TS SCT023 FEW033CB BKN200 21/@CAELT@08 Q1025 A3029 701.4 HR43 CB/ON STN/E/SE/S TS/ON STN AC=@CAELT@METAR SLPO 261800Z NIL=METAR SLAG 261800Z 08003KT 6000 VCTS FEW025 FEW033CB SCT080 OVC20031/19 Q1011 A2986 883.9 HR51 CB SW/W TS/SW FU=METAR SLVM 261800Z NIL=METAR SLTJ 261800Z 13010KT 9000 SCT0033 FEW040CB BKN200 26/16 Q1016A3002 812.1 HR53 CB/NE/SW AC FU=METAR SLYA 261800Z 21015KT 9999 SCT023 OVC070 30/23 Q1009 A2982 934.6HR63 FU=METAR SLBJ 261800Z NIL=METAR SLHI 261800Z NIL=
ZPX0645 261850@CAELT@GG SLZZYMYT@CAELT@261850 SLRBYGYS@CAELT@SABO SLRB 261900@CAELT@METAR SLRB 261900Z 36015KT 9999 FEW020 FEW025CB 37/22 Q1008 A2977@CAELT@HR44 CB/SE RWY NML=@CAELT@
ZPX0647 261855@CAELT@GG SLZZYMYT@CAELT@261855 SLSAYGYS@CAELT@SABO SLSA 261900@CAELT@METAR SLSA 261900Z 00000KT 7000 VCSH SCT017 FEW023CB BKN200 33/24@CAELT@Q1007 A2974 HR60 FU CB/SH NE/E/W=@CAELT@
ZPX0648 261855@CAELT@GG SLZZYMYT@CAELT@261855 SLSBYSYX@CAELT@SABO SLSB 261900@CAELT@METAR SLSB 261900Z 00000KT 8000 SCT05 OVC070 23/22 Q1007 2975 HR94 FU@CAELT@RWY WET OPR C210=@CAELT@
ZPX0650 261855@CAELT@GG SLZZYMYT@CAELT@261855 SLVRYGYZ@CAELT@SABO SLVR 261900@CAELT@METAR SLVR 261900Z 32020G30KT 9999 SCT017 BKN200 32/23 Q1007 A2976@CAELT@HR59 FU NOSIG=@CAELT@
ZPX0651 261855@CAELT@GG SLZZYMYT@CAELT@261855 SLRQYSYX@CAELT@SABO SLRQ 261900@CAELT@METAR SLRQ 261900Z 19004KT 9999 SCT023 FEW025CB OVC070 24/21 Q1007@CAELT@A2974 HR84 CB/NW RETS=@CAELT@
ZPX0652 261856@CAELT@GG SLZZYMYT@CAELT@261855 SLLPYFYA@CAELT@SABO SLRY 261900@CAELT@METAR SLRY 261900Z 00000KT 9999 FEW020 BKN070 BKN200 23/22 Q1007@CAELT@A2976 HR92 RETS RWY WET OPR C210=@CAELT@
ZPX0653 261856@CAELT@GG SLZZYMYT@CAELT@261854 SLPSZTZX@CAELT@SABO SLPS 261900@CAELT@METAR SLPS 261900Z 03006KT 9999 BKN020 BKN200 39/29 Q1005 A2968 HR57=@CAELT@
ZPX0654 261856@CAELT@GG SLZZYMYT@CAELT@261855 SLCOYSYX@CAELT@SABO SLCO 261900@CAELT@METAR SLCO 261900Z 05006KT 9999 BKN020 BKN080 31/26 Q1007 A2974 979.7@CAELT@HR71 CI=@CAELT@
ZPX0655 261856@CAELT@GG SLZZYMYT@CAELT@261856 SLCAYGYS@CAELT@SABO SLCA 261900@CAELT@METAR SLCA 261900Z 00000KT 8000 TS BKN033 FEW040CB OVC070 22/20 Q1009@CAELT@A2980 HR90 CB/TS S/NW REGRRA FU RWY WET INOP=@CAELT@
ZPX0656 261856@CAELT@GG SLZZYMYT@CAELT@261855 SLTRYGYZ@CAELT@SABO SLTR 261900@CAELT@METAR SLTR 261900Z 29006KT 8000 FEW017 FEW023CB OVC200 33/25 Q1007@CAELT@A2975 989.0 HR63 FU CB SW NOSIG=@CAELT@
ZPX0657 261857@CAELT@GG SLZZYMYT@CAELT@261856 SLTJYGYZ@CAELT@SABO SLTJ 281900@CAELT@METAR SLTJ 281900Z 13012KT 9000 SCT030 FEW040CB BKN200 24/16 Q1016@CAELT@A3002 812.0 HR60 CB/W FU=@CAELT@
ZPX0658 261857@CAELT@GG SLZZYMYT@CAELT@261857 SLCBYGYZ@CAELT@SABO SLCB 261900@CAELT@METAR SLCB 261900Z 16008KT 9999 FEW033 SCT080 OVC200 28/07 Q1019@CAELT@A3011 747.2 HR25 FU NOSIG=@CAELT@
ZPX0659 261857@CAELT@GG SLZZYMYT@CAELT@261855 SLLPYGYZ@CAELT@SABO SLLP 261900@CAELT@METAR SLLP 261900Z 25012KT 8000 -TSRA SCT015 FEW017CB SCT070 BKN200@CAELT@10/03 Q1038 A3066 628.3 HR62 P94// CB/ON STN/SW/W/NW NOSIG=@CAELT@
ZPX0660 261857@CAELT@GG SLZZYMYT@CAELT@261855 SLAGYSYX@CAELT@SABO SLAG 261900@CAELT@METAR SLAG 261900Z 12005KT VCTS FEW025 FEW033CB BKN080 OVC200 29/19@CAELT@Q1010 A2984 883.4 HR54 CB ON STN/SE/S/SW TS ON STN/S SH SE/S/SW FU=@CAELT@
