
ZPX0022 280054@CAELT@GG SLZZYMYT@CAELT@280055 SLVRYGYZ@CAELT@SABO SLVR 280100@CAELT@METAR SLVR 280100Z 06003KT 9999 SCT017 FEW030CB BKN070 27/22 Q1008@CAELT@A2977 HR74 CB/LT N/NE NOSIG=@CAELT@
ZPX0023 280057@CAELT@GG SLLPZRZX@CAELT@280057 SLLPYGYZ@CAELT@SABO SLLP 280100@CAELT@METAR SLLP 280100Z 07014KT 040V110 8000 -SHRA SCT013 FEW017CB@CAELT@BKN070 09/04 Q1034 A3055 625.7 HR71 CB/LT NE/E/SE CI NOSIG=@CAELT@
ZPX0024 280057@CAELT@GG SLZZYMYT@CAELT@280057 SLCBYGYZ@CAELT@SABO SLCB 280100@CAELT@METAR SLCB 280100Z 00000KT 9999 FEW015 SCT025 OVC070 15/14 Q1023@CAELT@A3023 750.5 HR92 NOSIG=@CAELT@
ZPX0038 280155@CAELT@GG SLZZYMYT@CAELT@280156 SLVRYGYZ@CAELT@SABO SLVR 280200@CAELT@METAR SLVR 280200Z 02004KT 9999 BKN017 FEW030CB BKN070 27/23 Q1009@CAELT@A2981 HR78 CB/LT N/NE NOSIG=@CAELT@
ZPX0039 280155@CAELT@GG SLLPZRZX@CAELT@280157 SLLPYGYZ@CAELT@SABO SLLP 280200@CAELT@METAR SLLP 280200Z 05008KT 020V080 9999 SCT013 FEW017CB BKN070@CAELT@08/02 Q1035 A3057 626.0 HR66 CB/LT NE/SW CI NOSIG=@CAELT@
ZPX0040 280155@CAELT@GG SLZZYMYT@CAELT@280155 SLCBYGYZ@CAELT@SABO SLCB 280200@CAELT@METAR SLCB 280200Z 00000KT 8000 -RA FEW010 SCT025 OVC070 15/14 Q1025@CAELT@A3028 751.7 HR94 NOSIG=@CAELT@
ZPX0065 280255@CAELT@GG SLZZYMYT@CAELT@280255 SLVRYGYZ@CAELT@SABO SLVR 280300@CAELT@METAR SLVR 280300Z 30006KT 9999 BKN017 FEW030CB OVC070 25/24 Q1010@CAELT@A2985 HR89 CB/LT N/NE TEMPO 5000 RA=@CAELT@
ZPX0066 280256@CAELT@GG SLLPZRZX@CAELT@280257 SLLPYGYZ@CAELT@SABO SLLP 280300@CAELT@METAR SLLP 280300Z 08008KT 9999 FEW004 FEW017CB BKN070 08/04@CAELT@Q1035 A3058 626.4 HR79 CB/LT NE/E/SW CI NOSIG=@CAELT@
ZPX0067 280259@CAELT@GG SLZZYMYT@CAELT@280258 SLCBYGYZ@CAELT@SABO SLCB 280300@CAELT@METAR SLCB 280300Z 27005KT 8000 -RA FEW008 SCT025 OVC070 14/14 Q1025@CAELT@A3030 752.1 HR97 NOSIG=@CAELT@
ZPX0075 280354@CAELT@GG SLZZYMYT@CAELT@280355 SLVRYGYZ@CAELT@SABO SLVR 280400@CAELT@METAR SLVR 280400Z VRB02KT 9999 BKN017 FEW030CB BKN070 25/23 Q1010@CAELT@A2985 HR89 CB/LT NW/N NOSIG=@CAELT@
ZPX0076 280355@CAELT@GG SLZZYMYT@CAELT@280355 SLCBYGYZ@CAELT@SABO SLCB 280400@CAELT@METAR SLCB 280400Z 25005KT 9000 FEW008 SCT023 OVC070 14/14 Q1025@CAELT@A3029 752.0 HR98 SH/NW/N/NE SC BAJOS TODAS DIRECC NOSIG=@CAELT@
ZPX0077 280356@CAELT@GG SLZZYMYT@CAELT@280357 SLLPYGYZ@CAELT@SABO SLLP 280400@CAELT@METAR SLLP 280400Z 11011KT 4000E -RA VCFG FEW003 SCT010 FEW017CB@CAELT@BKN070 07/06 Q1035 A3059 626.5 HR93 VCFG NE/E/SE CB/LT NE/E NOSIG=@CAELT@
ZPX0085 280453@CAELT@GG SLZZYMYT@CAELT@280454 SLVRYGYZ@CAELT@SABO SLVR 280500@CAELT@METAR SLVR 280500Z 30006KT 9999 BKN017 OVC070 24/23 Q1010 A2985 HR91@CAELT@TEMPO 5000 RA=@CAELT@
ZPX0088 280456@CAELT@GG SLLPZRZX@CAELT@280457 SLLPYGYZ@CAELT@SABO SLLP 280500@CAELT@METAR SLLP 280500Z 09008KT 4000E VCFG FEW003 SCT012 FEW017CB BKN070@CAELT@07/05 Q1035 A3057 626.1 HR91 VCFG NE/E/SE CB/LT/NE NOSIG=@CAELT@
ZPX0089 280457@CAELT@GG SLZZYMYT@CAELT@280457 SLCBYGYZ@CAELT@SABO SLCB 280500@CAELT@METAR SLCB 280500Z 30005KT 9000 -RA FEW008 SCT023 OVC070 13/13 Q1025@CAELT@A3028 751.7 HR98 NOSIG=@CAELT@
ZPX0099 280553@CAELT@GG SLZZYMYT@CAELT@280554 SLVRYGYZ@CAELT@SABO SLVR 280600@CAELT@METAR SLVR 280600Z 31004KT 9999 BKN017 OVC070 24/22 Q1010 A2983 HR92@CAELT@TEMPO 5000 RA=@CAELT@
ZPX0100 280557@CAELT@GG SLLPZRZX@CAELT@280557 SLLPYGYZ@CAELT@SABO SLLP 280600@CAELT@METAR SLLP 280600Z 08007KT 4000E -RA VCFG FEW004 FEW017CB BKN070@CAELT@06/05 Q1034 A3055 625.7 HR91 VCFG NE/E/SE CB/LT/NE NOSIG=@CAELT@
ZPX0101 280559@CAELT@GG SLZZYMYT@CAELT@280558 SLCBYGYZ@CAELT@SABO SLCB 280600@CAELT@METAR SLCB 280600Z 30005KT 8000 -RA FEW008 SCT023 OVC070 13/13 Q1024@CAELT@A3026 751.2 HR98 ST/NW/N/NE/E NOSIG=@CAELT@
ZPX0108 280653@CAELT@GG SLZZYMYT@CAELT@280654 SLVRYGYZ@CAELT@SABO SLVR 280700@CAELT@METAR SLVR 280700Z 30004KT 9999 BKN017 BKN070 23/22 Q1009 A2982 HR95@CAELT@NOSIG=@CAELT@
ZPX0109 280655@CAELT@GG SLZZYMYT@CAELT@280655 SLCBYGYZ@CAELT@SABO SLCB 280700@CAELT@METAR SLCB 280700Z 29004KT 8000 -RA FEW008 SCT023 OVC070 13/12 Q1024@CAELT@A3025 750.8 HR98 ST BAJOS TODAS DIRECC NOSIG=@CAELT@
ZPX0110 280657@CAELT@GG SLLPZRZX@CAELT@280656 SLLPYGYZ@CAELT@SABO SLLP 280700@CAELT@METAR SLLP 280700Z 07005KT 4000E -RA VCFG FEW003 SCT010 FEW017CB@CAELT@BKN070 06/05 Q1034 A3054 625.5 HR93 VCFG NE/E/SE CB/LT/N/NE NOSIG=@CAELT@
ZPX0120 280752@CAELT@GG SLZZYMYT@CAELT@280753 SLVRYGYZ@CAELT@SABO SLVR 280800@CAELT@METAR SLVR 280800Z 29005KT 9999 FEW013 BKN070 BKN200 23/22 Q1010@CAELT@A2982 HR92 NOSIG=@CAELT@
ZPX0121 280756@CAELT@GG SLLPZRZX@CAELT@280755 SLLPYGYZ@CAELT@SABO SLLP 280800@CAELT@METAR SLLP 280800Z 11006KT 080V140 4000E -RA VCFG FEW003 SCT010@CAELT@FEW017CB BKN070 06/05 Q1034 A3054 625.4 HR92 VCFG NE/E/SE CB/LT/N@CAELT@NOSIG=@CAELT@
ZPX0122 280757@CAELT@GG SLZZYMYT@CAELT@280757 SLCBYGYZ@CAELT@SABO SLCB 280800@CAELT@METAR SLCB 280800Z 00000KT 8000 -RA FEW008 SCT023 OVC070 13/12 Q1025@CAELT@A3027 751.5 HR98 ST BAJOS TODAS DIRECC NOSIG=@CAELT@
ZPX0132 280852@CAELT@GG SLZZYMYT@CAELT@280853 SLVRYGYZ@CAELT@SABO SLVR 280900@CAELT@METAR SLVR 280900Z 29005KT 9999 FEW013 BKN070 BKN200 23/22 Q1010@CAELT@A2982 HR92 NOSIG=@CAELT@
ZPX0133 280855@CAELT@GG SLZZYMYT@CAELT@280855 SLTRYGYZ@CAELT@SABO SLTR 280900@CAELT@METAR SLTR 280900Z 09005KT 5000 -RA BKN005 FEW020CB OVC070 24/23@CAELT@Q1008 A2977 989.8 HR98 CB NE/E/SE TEMPO 3000=@CAELT@
ZPX0134 280856@CAELT@GG SLZZYMYT@CAELT@280855 SLCBYGYZ@CAELT@SABO SLCB 280900@CAELT@METAR SLCB 280900Z 00000KT 7000 -RA FEW008 SCT020 OVC070 13/13 Q1025@CAELT@A3029 751.9 HR99 ST BAJOS TODAS DIRECC NOSIG=@CAELT@
ZPX0135 280858@CAELT@GG SLLPZRZX@CAELT@280857 SLLPYGYZ@CAELT@SABO SLLP 280900@CAELT@METAR SLLP 280900Z 14005KT 4000E -RA VCFG FEW003 SCT010 BKN070 05/04@CAELT@Q1034 A3054 625.4 HR95 VCFG NE/E/SE NOSIG=@CAELT@
ZPX0139 280906@CAELT@GG SLZZYMYT@CAELT@280903 SLTRYGYS@CAELT@SABO SLTR 280900@CAELT@METAR SLTR 280900Z 09005KT 5000 -RA BKN005 FEW020CB OVC070 24/23@CAELT@Q1008 A2977 989.8 HR98 CB NE/E/SE TEMPO 3000=@CAELT@METAR SLRI 280900Z 36006KT 9999 FEW005 SCT080 23/23 Q1007 A2974 HR98=@CAELT@
ZPX0142 280920@CAELT@GG SLZZYMYT@CAELT@280918 SLETYMYC@CAELT@SABO SLET 280900 RRA@CAELT@METAR RTD SLET 280900Z 30006KT 9999 FEW023 BKN070 24/22 Q1009 A2982@CAELT@HR90 CI NOSIG=@CAELT@
ZPX0153 280951@CAELT@GG SLZZYMYT@CAELT@280952 SLVRYGYZ@CAELT@SABO SLVR 281000@CAELT@METAR SLVR 281000Z 30003KT 9999 SCT020 BKN070 BKN200 23/22 Q1009@CAELT@A2982 HR92 NOSIG=@CAELT@
ZPX0154 280953@CAELT@GG SLZZYMYT@CAELT@280952 SLPSYGYS@CAELT@SABO SLPS 281000@CAELT@METAR SLPS 281000Z 00000KT 9999 SCT070 BKN200 24/24 Q1011 A2986 HR97=@CAELT@
ZPX0155 280954@CAELT@GG SLZZYMYT@CAELT@280954 SLETYMYC@CAELT@SABO SLET 281000@CAELT@METAR SLET 281000Z 30006KT 9999 SCT025 BKN070 24/22 Q1010 A2983 HR88@CAELT@CI NOSIG=@CAELT@
ZPX0158 280955@CAELT@GG SLZZYMYT@CAELT@280955 SLTRYGYZ@CAELT@SABO SLTR 281000@CAELT@METAR SLTR 281000Z 07006KT 2000 RA BKN005 FEW020CB OVC070 24/23@CAELT@Q1009 A2980 990.6 HR98 CB NE/E/SE NOSIG=@CAELT@
ZPX0159 280955@CAELT@GG SLZZYMYT@CAELT@280955 SLUYYGYS@CAELT@SABO SLUY 281000@CAELT@METAR SLUY 281000Z 00000KT 9999 -RA BKN025 SCT070 BKN200@CAELT@11/08 Q1032 A3050 657.5 HR83=@CAELT@
ZPX0160 280955@CAELT@GG SLZZYMYT@CAELT@280955 SLSBYSYX@CAELT@SABO SLSB 281000@CAELT@METAR SLSB 281000Z 15003KT 8000 -DZ FEW005 BKN012 OVC070 22/22 Q1009@CAELT@A2977 HR98 RETS RWY WET INOP=@CAELT@
ZPX0161 280955@CAELT@GG SLZZYMYT@CAELT@280955 SLSAYGYS@CAELT@SABO SLSA 281000@CAELT@METAR SLSA 281000Z 36005KT 8000 -RA BKN005 OVC070 23/23@CAELT@Q1007 A2974 HR98=@CAELT@
ZPX0162 280957@CAELT@GG SLZZYMYT@CAELT@280956 SLLPYGYZ@CAELT@SABO SLLP 281000@CAELT@METAR SLLP 281000Z 11005KT 4000E -RA VCFG FEW003 SCT010 BKN070 05/04@CAELT@Q1034 A3055 625.7 HR94 P/INV VCFG N/NE/E/SE NOSIG=@CAELT@
ZPX0163 280957@CAELT@GG SLZZYMYT@CAELT@280955 SLLPYFYA@CAELT@SABO SLRY 281000@CAELT@METAR SLRY 281000Z 00000KT 2000 -RA BKN005 BKN010 OVC070 22/22 Q1005@CAELT@A2969 HR100 RWY WET INOP=@CAELT@
ZPX0164 280957@CAELT@GG SLZZYMYT@CAELT@280957 SLCAYGYS@CAELT@SABO SLCA 281000@CAELT@METAR SLCA 281000Z 00000KT 9999 SCT010 20/19 Q1016 A3000 HR97 RERA@CAELT@RWY WET INOP=@CAELT@
ZPX0165 280958@CAELT@GG SLZZYMYT@CAELT@280957 SLCOYGYZ@CAELT@SABO SLCO 281000@CAELT@METAR SLCO 281000Z 33006KT 6000 -RADZ BKN003 OVC070 23/22 Q1009 A2980@CAELT@981.9 HR99=@CAELT@
ZPX0166 280958@CAELT@GG SLZZYMYT@CAELT@280957 SLRBYGYS@CAELT@SABO SLRB 281000@CAELT@METAR SLRB 281000Z 00000KT 9999 FEW070 SCT200 24/23 Q1013 A2991 HR90@CAELT@RWY NML=@CAELT@
ZPX0167 280959@CAELT@GG SLZZYMYT@CAELT@280959 SLCBYGYZ@CAELT@SABO SLCB 281000@CAELT@METAR SLCB 281000Z 27004KT 4000 -RA BR FEW008 SCT020 OVC070 13/13@CAELT@Q1026 A3031 752.6 HR100 ST BAJOS TODAS DIRECC NOSIG=@CAELT@
ZPX0169 281000@CAELT@GG SLZZYMYT@CAELT@281000 SLVRYFYC@CAELT@SABO SLVR 281000@CAELT@METAR SLVR 281000Z 30003KT 9999 SCT020 BKN070 BKN200 23/22 Q1009@CAELT@A2982 HR92 NOSIG=@CAELT@METAR SLET 281000Z 30006KT 9999 SCT025 BKN070 24/22 Q1010 A2983 HR88@CAELT@CI NOSIG=@CAELT@METAR SLSI 281000Z 00000KT 9999 OVC008 23/23 Q1011 A2985 HR98 RWY HUMOPR=METAR SLCP 281000Z 00000KT 9999 OVC006 22/21 Q1014 A2994 HR95 RWY WET
ZPX0170 281001@CAELT@GG SLZZYMYT@CAELT@281001 SLCBYGYS@CAELT@SABO SLCB 281000@CAELT@METAR SLCB 281000Z 27004KT 4000 -RA BR FEW008 SCT020 OVC070 13/13@CAELT@Q1026 A3031 752.6 HR100 ST BAJOS TODAS DIRECC NOSIG=@CAELT@METAR SLAL 281000Z 00000KT 6000 VCFG SCT010 OVC070 10/09 Q1030 A3044@CAELT@704.7 HR93 VCFG SW/N=@CAELT@METAR SLVM 281000Z 00000KT 9999 FEW030 23/21 Q1011 A2987 HR89 FU CI=
ZPX0171 281001@CAELT@GG SLZZYMYT@CAELT@281000 SLLPYFYA@CAELT@SABO SLLP 281000@CAELT@METAR SLLP 281000Z 11005KT 4000E -RA VCFG FEW003 SCT010 BKN070 05/04@CAELT@Q1034 A3055 625.7 HR94 P/INV VCFG N/NE/E/SE NOSIG=@CAELT@METAR SLCO 281000Z 33006KT 6000 -RADZ BKN003 OVC070 23/22 Q1009 A2980@CAELT@981.9 HR99=@CAELT@METAR SLRY 281000Z 00000KT 2000 -RA BKN005 BKN010 OVC070 22/22 Q1005A2969 HR100 RWY WET INOP=METAR SLRQ 281000Z 18012KT 3000 -RA OVC012 22/22 Q1008 A2977 984.0HR99=METAR SLAP 281000Z 00000KT 5000 -RA BKN017 OVC070 16/16 Q1016 A3001857.1 HR96=METAR SLSB 281000Z 15003KT 8000 -DZ FEW005 BKN012 OVC070 22/22 Q1009A2977 HR98 RETS RWY WET INOP=METAR SLUY 281000Z 00000KT 9999 -RA BKN025 SCT070 BKN200 11/08 Q1032A3050 657.5 HR83=
ZPX0173 281002@CAELT@GG SLZZYMYT@CAELT@281000 SLTRYGYS@CAELT@SABO SLTR 281000@CAELT@METAR SLTR 281000Z 07006KT 2000 RA BKN005 FEW020CB OVC070 24/23@CAELT@Q1009 A2980 990.6 HR98 CB NE/E/SE NOSIG=@CAELT@METAR SLGM 281000Z 06008KT 9999 BKN005 FEW020CB OVC070 23/23 Q1009@CAELT@A2981 HR98 CB SW=@CAELT@METAR SLRI 281000Z 36010KT 9999 FEW005 BKN080 23/23 Q1007 A2976 HR98=METAR SLJO 281000Z 09006KT 9999 BKN008 OVC070 23/22 Q1007 A2974 HR97RWY WET INOP=METAR SLRA 281000Z 09004KT 9999 BKN008 OVC070 23/23 Q1008 A2977 HR98RWY OPR C206=METAR SLMG 281000Z 00000KT 9999 FEW020 BKN080 OVC200 23/22 Q1009A2978 HR97 RWY OPR C210=METAR SLBU 281000Z NIL=METAR SLSA 281000Z 36005KT 8000 -RA BKN005 OVC070 23/23Q1007 A2974 HR98=METAR SLSR 281000Z 12010KT 3000 -RA BKN008 FEW020CB OVC070 22/22Q1007 A2974 HR100 CB E/SE RWY WET INOP=METAR SLSM 281000Z 00000KT 3000 -RA BKN008 FEW023CB OVC070 23/23Q1008 A2979 HR100 CB N/SE/NW RWY WET INOP=
ZPX0174 281002@CAELT@GG SLZZYMYT@CAELT@281001 SLVRYFYC@CAELT@SABO SLVR 281000@CAELT@METAR SLVR 281000Z 30003KT 9999 SCT020 BKN070 BKN200 23/22 Q1009@CAELT@A2982 HR92 NOSIG=@CAELT@METAR SLET 281000Z 30006KT 9999 SCT025 BKN070 24/22 Q1010 A2983 HR88@CAELT@CI NOSIG=@CAELT@METAR SLCP 281000Z 00000KT 9999 OVC006 22/21 Q1014 A2994 HR95 RWY WETOPR=METAR SLSI 281000Z 00000KT 9999 OVC008 23/23 Q1011 A2985 HR98 RWY HUMMETAR SLRB 281000Z 00000KT 9999 FEW070 SCT200 24/23 Q1013 A2991 HR90RWY NML=METAR SLPS 281000Z 00000KT 9999 SCT070 BKN200 24/24 Q1011 A2986 HR97=METAR SLCA 281000Z 00000KT 9999 SCT010 20/19 Q1016 A3000 HR97 RERARWY WET INOP=
ZPX0176 281004@CAELT@GG SLZZYMYT@CAELT@281003 SLVRYFYC@CAELT@SABO SLVR 281000@CAELT@METAR SLVR 281000Z 30003KT 9999 SCT020 BKN070 BKN200 23/22 Q1009@CAELT@A2982 HR92 NOSIG=@CAELT@METAR SLET 281000Z 30006KT 9999 SCT025 BKN070 24/22 Q1010 A2983 HR88@CAELT@CI NOSIG=@CAELT@METAR SLCP 281000Z 00000KT 9999 OVC006 22/21 Q1014 A2994 HR95 RWY WETOPR=METAR SLSI 281000Z 00000KT 9999 OVC008 23/23 Q1011 A2985 HR98 RWY HUMMETAR SLRB 281000Z 00000KT 9999 FEW070 SCT200 24/23 Q1013 A2991 HR90RWY NML=METAR SLPS 281000Z 00000KT 9999 SCT070 BKN200 24/24 Q1011 A2986 HR97=METAR SLCA 281000Z 00000KT 9999 SCT010 20/19 Q1016 A3000 HR97 RERARWY WET INOP=
ZPX0177 281012@CAELT@GG SLZZYMYT@CAELT@281000 SLTRYGYS@CAELT@SABO SLTR 281000@CAELT@METAR SLTR 281000Z 07006KT 2000 RA BKN005 FEW020CB OVC070 24/23@CAELT@Q1009 A2980 990.6 HR98 CB NE/E/SE NOSIG=@CAELT@METAR SLGM 281000Z 06008KT 9999 BKN005 FEW020CB OVC070 23/23 Q1009@CAELT@A2981 HR98 CB SW=@CAELT@METAR SLRI 281000Z 36010KT 9999 FEW005 BKN080 23/23 Q1007 A2976 HR98=METAR SLJO 281000Z 09006KT 9999 BKN008 OVC070 23/22 Q1007 A2974 HR97RWY WET INOP=METAR SLRA 281000Z 09004KT 9999 BKN008 OVC070 23/23 Q1008 A2977 HR98RWY OPR C206=METAR SLMG 281000Z 00000KT 9999 FEW020 BKN080 OVC200 23/22 Q1009A2978 HR97 RWY OPR C210=METAR SLBU 281000Z NIL=METAR SLSA 281000Z 36005KT 8000 -RA BKN005 OVC070 23/23Q1007 A2974 HR98=METAR SLSR 281000Z 12010KT 3000 -RA BKN008 FEW020CB OVC070 22/22Q1007 A2974 HR100 CB E/SE RWY WET INOP=METAR SLSM 281000Z 00000KT 3000 -RA BKN008 FEW023CB OVC070 23/23Q1008 A2979 HR100 CB N/SE/NW RWY WET INOP=
ZPX0193 281051@CAELT@GG SLZZYMYT@CAELT@281052 SLVRYGYZ@CAELT@SABO SLVR 281000@CAELT@METAR SLVR 281000Z 30003KT 9999 SCT020 BKN070 BKN200 23/22 Q1009@CAELT@A2982 HR92 NOSIG=@CAELT@
ZPX0194 281053@CAELT@GG SLZZYMYT@CAELT@281052 SLPSYGYS@CAELT@SABO SLPS 281100@CAELT@METAR SLPS 281100Z 00000KT 9999 FEW070 BKN200 25/24 Q1011 A2986 HR92=@CAELT@
ZPX0196 281054@CAELT@GG SLZZYMYT@CAELT@281053 SLRBYGYS@CAELT@SABO SLRB 281100@CAELT@METAR SLRB 281100Z 00000KT 9999 FEW010 SCT200 26/23 Q1013 A2991 HR87@CAELT@RWY NML=@CAELT@
ZPX0197 281054@CAELT@GG SLZZYMYT@CAELT@281054 SLETYMYC@CAELT@SABO SLET 281100@CAELT@METAR SLET 281100Z 31006KT 9999 SCT025 BKN070 25/22 Q1011 A2986 HR84@CAELT@CI NOSIG=@CAELT@
ZPX0199 281055@CAELT@GG SLZZYMYT@CAELT@281054 SLUYYGYS@CAELT@SABO SLUY 281100@CAELT@METAR SLUY 281100Z 00000KT 9999 SCT023 SCT070 BKN200 10/05 Q1033@CAELT@A3052 658.1 HR68 SH N/NE=@CAELT@
ZPX0200 281055@CAELT@GG SLZZYMYT@CAELT@281055 SLTRYGYZ@CAELT@SABO SLTR 281100@CAELT@METAR SLTR 281100Z 06006KT 2000 RA BKN005 FEW020CB OVC070 24/23@CAELT@Q1010 A2983 991.5 HR98 CB E/SE/S NOSIG=@CAELT@
ZPX0202 281056@CAELT@GG SLZZYMYT@CAELT@281055 SLCOYGYZ@CAELT@SABO SLCO 281100@CAELT@METAR SLCO 281100Z 33006KT 4000 -RADZ BKN003 OVC070 22/22 Q1009 A2982@CAELT@982.5 HR99=@CAELT@
ZPX0204 281056@CAELT@GG SLZZYMYT@CAELT@281054 SLCAYGYS@CAELT@SABO SLCA 281100@CAELT@METAR SLCA 281100Z 00000KT 9999 NSC 21/20 Q1016 A3000 HR95 RWY WET@CAELT@INOP=@CAELT@
ZPX0205 281056@CAELT@GG SLZZYMYT@CAELT@281055 SLSAYGYS@CAELT@SABO SLSA 281100@CAELT@METAR SLSA 281100Z 36006KT 8000 VCSH BKN005 OVC070 24/23@CAELT@Q1008 A2977 HR97 RERA SH N/NE/E=@CAELT@
ZPX0207 281057@CAELT@GG SLZZYMYT@CAELT@281057 SLTJYGYZ@CAELT@SABO SLTJ 281100@CAELT@METAR SLTJ 281100Z 00000KT 9999 FEW027 SCT070 17/14 Q1021 3017 816.2@CAELT@HR81=@CAELT@
ZPX0208 281057@CAELT@GG SLZZYMYT@CAELT@281056 SLAGYSYX@CAELT@SABO SLAG 281100@CAELT@METAR SLAG 281100Z 00000KT 8000 FEW002 SCT012 22/19 Q1018 A3007 890.3@CAELT@HR84 VIS RED ST BAJOS SE/S/SW CI=@CAELT@
ZPX0209 281057@CAELT@GG SLZZYMYT@CAELT@281056 SLORYGYZ@CAELT@SABO SLOR 281100@CAELT@METAR SLOR 281100Z 12009KT 9999 SCT015 FEW020CB OVC070 08/04 Q1033@CAELT@A3052 654.9 HR76 CB/NW=@CAELT@
ZPX0210 281057@CAELT@GG SLZZYMYT@CAELT@281056 SLLPYGYZ@CAELT@SABO SLLP 281100@CAELT@METAR SLLP 281100Z 10006KT 070V140 4000 -RA FEW003 SCT010 OVC070@CAELT@05/05 Q1035 A3058 626.4 HR96 P96// NOSIG=@CAELT@
ZPX0211 281058@CAELT@GG SLZZYMYT@CAELT@281058 SLLPYFYA@CAELT@SABO SLRY 281100@CAELT@METAR SLRY 281100Z 00000KT 9999 BKN005 BKN010 OVC070 22/22 Q1006@CAELT@A2971 HR100 RYW WET INOP=@CAELT@
ZPX0212 281058@CAELT@GG SLZZYMYT@CAELT@281057 SLSBYSYX@CAELT@SABO SLSB 281100@CAELT@METAR SLSB 281100Z 14004KT 5000 -DZ BKN010 OVC070 23/23 Q1009 A2979@CAELT@HR98 RWY WET INOP=@CAELT@
ZPX0213 281059@CAELT@GG SLZZYMYT@CAELT@281059 SLCBYGYZ@CAELT@SABO SLCB 281100@CAELT@METAR SLCB 281100Z 32004KT 3000 BKN008 BKN020 OVC070 12/12 Q1027@CAELT@A3034 753.2 HR100 ST BAJOS TODAS DIRECC BECMG FM 1120 SCT010=@CAELT@
ZPX0218 281132@CAELT@GG SLZZYMYT@CAELT@281100 SLCBYGYS@CAELT@SABO SLCB 281100@CAELT@METAR SLCB 281100Z 32004KT 3000 BKN008 BKN020 OVC070 12/12 Q1027@CAELT@A3034 753.2 HR100 ST BAJOS TODAS DIRECC BECMG FM 1120 SCT010=@CAELT@METAR SLAL 281100Z 24004KT 6000 VCFG SCT010 OVC070 11/09 Q1031 A3045@CAELT@705.0 HR88 VCFG S/SW/NW/N=@CAELT@METAR SLPO 281100Z 06005KT 9999 FEW003 SCT010 BKN070 06/04 Q1039A3068 638.7 HR90 ST BAJOS N/NE/E=METAR SLAG 281100Z 00000KT 8000 FEW002 SCT012 22/19 Q1018 A3007 890.3HR84 VIS RED ST BAJOS SE/S/SW CI=METAR SLVM 281100Z 00000KT 9999 FEW030 25/22 Q1011 A2987 HR84 FU CI=METAR SLTJ 281100Z 00000KT 9999 FEW027 SCT070 17/14 Q1021 3017 816.2HR81=METAR SLYA 281100Z 00000KT 9999 NSC 26/24 Q1012 A2990 937.4 HR87=METAR SLBJ 281100Z NIL=METAR SLHI 281100Z NIL=
ZPX0219 281132@CAELT@GG SLZZYMYT@CAELT@281100 SLCBYGYZ@CAELT@SABO SLCB 281100 CCA@CAELT@METAR COR SLCB 281100Z 32004KT 3000 -RA BKN008 BKN020 OVC070 12/12@CAELT@Q1027 A3034 753.2 HR100 ST BAJOS TODAS DIRECC BECMG FM 1120 SCT010=@CAELT@
ZPX0221 281132@CAELT@GG SLZZYMYT@CAELT@281103 SLVRYFYC@CAELT@SABO SLVR 281100@CAELT@METAR SLVR 281100Z 35003KT 9999 FEW017 BKN023 BKN070 24/23 Q1011@CAELT@A2986 HR90 NOSIG=@CAELT@METAR SLET 281100Z 31006KT 9999 SCT025 BKN070 25/22 Q1011 A2986 HR84@CAELT@CI NOSIG=@CAELT@METAR SLAS 281100Z 00000KT 8000 OVC008 23/23 Q1013 A2991 HR95 BR RERARWY WET OPR=METAR SLJV 281100Z 36010KT 9999 BKN006 22/22 Q1010 A2983 HR98 RERAMETAR SLCP 281100Z 00000KT 9999 OVC008 22/21 Q1015 A2997 HR95 RWY WETOPR=METAR SLSI 281100Z 00000KT 9999 BKN010 OVC070 23/23 Q1012 A2988 HR98METAR SLTI 281100Z 00000KT 9999 BKN070 25/23 Q1016 A3000 HR90 RWY NMLMETAR SLJE 281100Z 36006KT 9999 BKN010 BKN070 25/24 Q1014 A2994 HR90RWY NML=METAR SLVG 281100Z 00000KT 9999 BKN070 OVC200 16/15 Q1024 A3024 HR90METAR SLRB 281100Z 00000KT 9999 FEW010 SCT200 26/23 Q1013 A2991 HR87METAR SLPS 281100Z 00000KT 9999 FEW070 BKN200 25/24 Q1011 A2986 HR92=METAR SLCA 281100Z 00000KT 9999 NSC 21/20 Q1016 A3000 HR95 RWY WETINOP=
ZPX0222 281132@CAELT@GG SLZZYMYT@CAELT@281100 SLTRYGYS@CAELT@SABO SLTR 281100@CAELT@METAR SLTR 281100Z 06006KT 2000 RA BKN005 FEW020CB OVC070 24/23@CAELT@Q1010 A2983 991.5 HR98 CB E/SE/S NOSIG=@CAELT@METAR SLGM 281100Z 08006KT 9999 BKN005 FEW020CB OVC070 24/23 Q1010@CAELT@A2982 HR96 CB SW=@CAELT@METAR SLRI 281100Z 36006KT 9999 BKN004 BKN080 24/23 Q1008 A2979 HR96=METAR SLJO 281100Z 36006KT 9999 BKN008 FEW023CB OVC070 23/22 Q1008A2977 HR94 CB SW RWY WET INOP=METAR SLRA 281100Z 09004KT 9999 BKN008 OVC070 23/23 Q1008 A2979 HR97RWY OPR C206=METAR SLMG 281100Z 00000KT 9999 BKN080 OVC200 23/23 Q1009 A2981 HR96RWY OPR C210=METAR SLBU 281100Z NIL=METAR SLSA 281100Z 36006KT 8000 VCSH BKN005 OVC070 24/23 Q1008 A2977HR97 RERA SH N/NE/E=METAR SLSR 281100Z 12006KT 3000 -RA BKN008 FEW023CB OVC070 22/22Q1008 A2977 HR100 CB N/NE/NW RWY WET INOP=METAR SLSM 281100Z 00000KT 3000 -RA BKN008 FEW023CB OVC070 23/23Q1009 A2980 HR100 CB N/NW RWY WET INOP=
ZPX0233 281136@CAELT@GG SLZZYMYT@CAELT@281136 SLCBYGYS@CAELT@SABO SLCB 281100 CCA@CAELT@METAR COR SLCB 281100Z 32004KT 3000 -RA BKN008 BKN020 OVC070 12/12@CAELT@Q1027@CAELT@A3034 753.2 HR100 ST BAJOS TODAS DIRECC BECMG FM 1120 SCT010=@CAELT@METAR SLAL 281100Z 24004KT 6000 VCFG SCT010 OVC070 11/09 Q1031 A3045@CAELT@705.0 HR88 VCFG S/SW/NW/N=METAR SLPO 281100Z 06005KT 9999 FEW003 SCT010 BKN070 06/04 Q1039A3068 638.7 HR90 ST BAJOS N/NE/E=METAR SLAG 281100Z 00000KT 8000 FEW002 SCT012 22/19 Q1018 A3007 890.3HR84 VIS RED ST BAJOS SE/S/SW CI=METAR SLVM 281100Z 00000KT 9999 FEW030 25/22 Q1011 A2987 HR84 FU CI=METAR SLTJ 281100Z 00000KT 9999 FEW027 SCT070 17/14 Q1021 3017 816.2HR81=METAR SLYA 281100Z 00000KT 9999 NSC 26/24 Q1012 A2990 937.4 HR87=METAR SLBJ 281100Z NIL=METAR SLHI 281100Z NIL=
ZPX0236 281142@CAELT@GG SLZZYMYT@CAELT@281141 SLLPYFYA@CAELT@SABO SLLP 281100@CAELT@METAR SLLP 281100Z 10006KT 070V140 4000 -RA FEW003 SCT010 OVC070@CAELT@05/05 Q1035 A3058 626.4 HR96 P96// NOSIG=@CAELT@METAR SLCO 281100Z 33006KT 4000 -RADZ BKN003 OVC070 22/22 Q1009@CAELT@A2982 982.5 HR99=@CAELT@METAR SLRY 281100Z 00000KT 9999 BKN005 BKN010 OVC070 22/22 Q1006A2971 HR100 RYW WET INOP=METAR SLRQ 281100Z 18014KT 3000 -RA BKN008 OVC070 22/22 Q1009 A2979984.7 HR99=METAR SLSB 281100Z 14004KT 5000 -DZ BKN010 OVC070 23/23 Q1009 A2979HR98 RWY WET INOP=METAR SLAP 281100Z 00000KT 4000 -RA BKN010 OVC070 16/15 Q1017 A3004857.9 HR97=METAR SLOR 281100Z 12009KT 9999 SCT015 FEW020CB OVC070 08/04 Q1033A3052 654.9 HR76 CB/NW=METAR SLUY 281100Z 00000KT 9999 SCT023 SCT070 BKN200 10/05 Q1033A3052 658.1 HR68 SH N/NE=
ZPX0242 281152@CAELT@GG SLZZYMYT@CAELT@281151 SLCAYGYS@CAELT@SABO SLCA 281200@CAELT@METAR SLCA 281200Z 00000KT 9999 NSC 22/20 Q1017 A3003 HR83 RWY WET@CAELT@INOP=@CAELT@
ZPX0245 281152@CAELT@GG SLZZYMYT@CAELT@281152 SLRBYGYS@CAELT@SABO SLRB 281200@CAELT@METAR SLRB 281200Z 00000KT 9999 SCT012 27/24 Q1014 A2994 HR85 RWY NML=@CAELT@
ZPX0246 281152@CAELT@GG SLZZYMYT@CAELT@281151 SLPSYGYS@CAELT@SABO SLPS 281200@CAELT@METAR SLPS 281200Z 03012KT 9999 SCT015 BKN200 27/24 Q1012 A2989 HR85=@CAELT@
ZPX0247 281153@CAELT@GG SLZZYMYT@CAELT@281154 SLVRYGYZ@CAELT@SABO SLVR 281200@CAELT@METAR SLVR 281200Z 02006KT 9999 FEW017 BKN023 BKN070 24/22 Q1012@CAELT@A2989 HR88 NOSIG=@CAELT@
ZPX0249 281154@CAELT@GG SLZZYMYT@CAELT@281154 SLETYMYC@CAELT@SABO SLET 281200@CAELT@METAR SLET 281200Z 31006KT 9999 SCT025 BKN070 25/22 Q1012 A2989 HR84@CAELT@CI NOSIG=@CAELT@
ZPX0251 281155@CAELT@GG SLZZYMYT@CAELT@281155 SLSBYSYX@CAELT@SABO SLSB 281200@CAELT@METAR SLSB 281200Z 14006KT 5000 -DZ BKN010 OVC070 23/23 Q1010 A2983@CAELT@HR98 RWY WET INOP=@CAELT@
ZPX0252 281155@CAELT@GG SLZZYMYT@CAELT@281155 SLTJYGYZ@CAELT@SABO SLTJ 281200@CAELT@METAR SLTJ 281200Z 00000KT 9999 FEW027 20/16 Q1021 A3018 816.5 HR74@CAELT@
ZPX0253 281155@CAELT@GG SLZZYMYT@CAELT@281155 SLAGYSYX@CAELT@SABO SLAG 281200@CAELT@METAR SLAG 281200Z 00000KT 9999 FEW012 SCT070 23/19 Q1018 A3009 890.8@CAELT@HR80 CI=@CAELT@
ZPX0254 281155@CAELT@GG SLZZYMYT@CAELT@281155 SLORYGYZ@CAELT@SABO SLOR 281200@CAELT@METAR SLOR 281200Z 08008KT 9999 SCT015 OVC070 10/04 Q1034 A3055 655.7@CAELT@HR68=@CAELT@
ZPX0255 281156@CAELT@GG SLZZYMYT@CAELT@281156 SLTRYGYZ@CAELT@SABO SLTR 281200@CAELT@METAR SLTR 281200Z 06006KT 1000 +RA BKN004 FEW020CB OVC070 23/23@CAELT@Q1010 A2985 992.3 HR98 CB SE/S NOSIG=@CAELT@
ZPX0256 281156@CAELT@GG SLZZYMYT@CAELT@281155 SLUYYGYS@CAELT@SABO SLUY 281200@CAELT@METAR SLUY 281200Z 05009KT 9999 SCT025 SCT070 BKN200 12/03@CAELT@Q1034 A3055 658.7 HR56 SH N/W=@CAELT@
ZPX0258 281157@CAELT@GG SLZZYMYT@CAELT@281156 SLCOYGYZ@CAELT@SABO SLCO 281200@CAELT@METAR SLCO 281200Z 32005KT 5000 -DZ BKN003 OVC070 23/23 Q1011 A2986@CAELT@983.7 HR99 RERA=@CAELT@
ZPX0260 281157@CAELT@GG SLLPZRZX@CAELT@281155 SLLPYGYZ@CAELT@SABO SLLP 281200@CAELT@METAR SLLP 281200Z 11009KT 4000 -RA FEW003 SCT010 OVC070 05/04 Q1036@CAELT@A3061 627.0 HR93 P96// NOSIG=@CAELT@
ZPX0261 281157@CAELT@GG SLZZYMYT@CAELT@281156 SLSAYGYS@CAELT@SABO SLSA 281200@CAELT@METAR SLSA 281200Z 36006KT 8000 VCSH BKN005 OVC070 24/22@CAELT@Q1008 A2977 HR93 SH N/NE=@CAELT@
ZPX0263 281159@CAELT@GG SLZZYMYT@CAELT@281200 SLVRYFYC@CAELT@SABO SLVR 281200@CAELT@METAR SLVR 281200Z 02006KT 9999 FEW017 BKN023 BKN070 24/22 Q1012@CAELT@A2989 HR88 NOSIG=@CAELT@METAR SLET 281200Z 31006KT 9999 SCT025 BKN070 25/22 Q1012 A2989 HR84@CAELT@CI NOSIG=@CAELT@METAR SLAS 281200Z 36004KT 8000 OVC008 24/23 Q1014 A2994 HR95 BR RWYWET OPR=METAR SLJV 281200Z 36010KT 9999 OVC010 22/21 Q1011 A2985 HR97 RWY WETOPR=METAR SLCP 281200Z 36004KT 9999 OVC006 22/21 Q1015 A2997 HR95 RWY WETMETAR SLSI 281200Z 33005KT 9999 BKN010 OVC070 23/23 Q1013 A2991 HR96RWY WET OPR=METAR SLTI 281200Z 00000KT 9999 BKN070 27/23 Q1016 A3000 HR80 RWY NMLMETAR SLJE 281200Z 36005KT 9999 BKN012 BKN070 27/24 Q1015 A2997 HR84RWY NML=METAR SLJE 281200Z 00000KT 9999 OVC070 17/15 Q1025 A3027 HR90 RWY NMLMETAR SLRB 281200Z 00000KT 9999 SCT012 27/24 Q1014 A2994 HR85 RWY NMLMETAR SLPS 281200Z 03012KT 9999 SCT015 BKN200 27/24 Q1012 A2989 HR85=METAR SLCA 281200Z 00000KT 9999 NSC 22/20 Q1017 A3003 HR83 RWY WETINOP=
ZPX0266 281200@CAELT@GG SLZZYMYT@CAELT@281200 SLLPYFYA@CAELT@SABO SLLP 281200@CAELT@METAR SLLP 281200Z 11009KT 4000 -RA FEW003 SCT010 OVC070 05/04 Q1036@CAELT@A3061 627.0 HR93 P96// NOSIG=@CAELT@METAR SLCO 281200Z 32005KT 5000 -DZ BKN003 OVC070 23/23 Q1011 A2986@CAELT@983.7 HR99 RERA=@CAELT@METAR SLRY 281200Z 00000KT 2000 -RA BKN005 BKN00 OVC070 22/22 Q1007A2975 HR100 RWY WET INOP=METAR SLRQ 281200Z 18014KT 3000 -RA BKN006 OVC070 22/22 Q1009 A2981985.1 HR100=METAR SLSB 281200Z 14006KT 5000 -DZ BKN010 OVC070 23/23 Q1010 A2983HR98 RWY WET INOP=METAR SLAP 281200Z 00000KT 4000 -RA BKN010 OVC070 17/17 Q1018 A3007858.8 HR97=METAR SLOR 281200Z 08008KT 9999 SCT015 OVC070 10/04 Q1034 A3055655.7 HR68=METAR SLUY 281200Z 05009KT 9999 SCT025 SCT070 BKN200 12/03Q1034 A3055 658.7 HR56 SH N/W=
ZPX0267 281200@CAELT@GG SLZZYMYT@CAELT@281200 SLCBYGYZ@CAELT@SABO SLCB 281200@CAELT@METAR SLCB 281200Z 29003KT 4000 -RA SCT010 BKN020 OVC070 12/12 Q1027@CAELT@A3035 753.6 HR100 ST BAJOS TODAS DIRECC FU NOSIG=@CAELT@
ZPX0269 281202@CAELT@GG SLZZYMYT@CAELT@281200 SLTRYGYS@CAELT@SABO SLTR 281200@CAELT@METAR SLTR 281200Z 06006KT 1000 +RA BKN004 FEW020CB OVC070 23/23@CAELT@Q1010 A2985 992.3 HR98 CB SE/S NOSIG=@CAELT@METAR SLGM 281200Z 03008KT 9999 BKN006 FEW020CB OVC070 25/24 Q1011@CAELT@A2986 HR94 CB SW=@CAELT@METAR SLRI 281200Z 36006KT 9999 BKN004 BKN080 23/23 Q1012 A2989 HR98=METAR SLJO 281200Z 36010KT 9999 BKN008 FEW023CB BKN070 24/22 Q1008A2979 HR91 CB SW RWY WET INOP=METAR SLRA 281200Z 36004KT 9999 BKN008 OVC070 24/23 Q1009 A2982 HR94RWY OPR C206=METAR SLMG 281200Z 34006KT 9999 FEW007 BKN080 24/23 Q1010 A2982 HR93RWY OPR C210=METAR SLBU 281200Z 36004KT 9999 FEW008 BKN080 24/23 Q1010 A2984 HR95METAR SLSA 281200Z 36006KT 8000 VCSH BKN005 OVC070 24/22 Q1008 A2977HR93 SH N/NE=METAR SLSR 281200Z 12006KT 3000 -RA BKN008 FEW023CB OVC070 22/22Q1008 A2978 HR100 CB N/NE/NW RWY WET INOP=METAR SLSM 281200Z 00000KT 2000 RA BKN008 FEW023CB OVC070 23/23Q1009 A2982 HR100 CB N/NW RWY WET INOP=
ZPX0270 281202@CAELT@GG SLZZYMYT@CAELT@281200 SLTRYGYS@CAELT@SABO SLTR 281200@CAELT@METAR SLTR 281200Z 06006KT 1000 +RA BKN004 FEW020CB OVC070 23/23@CAELT@Q1010 A2985 992.3 HR98 CB SE/S NOSIG=@CAELT@METAR SLGM 281200Z 03008KT 9999 BKN006 FEW020CB OVC070 25/24 Q1011@CAELT@A2986 HR94 CB SW=@CAELT@METAR SLRI 281200Z 36006KT 9999 BKN004 BKN080 23/23 Q1012 A2989 HR98=METAR SLJO 281200Z 36010KT 9999 BKN008 FEW023CB BKN070 24/22 Q1008A2979 HR91 CB SW RWY WET INOP=METAR SLRA 281200Z 36004KT 9999 BKN008 OVC070 24/23 Q1009 A2982 HR94RWY OPR C206=METAR SLMG 281200Z 34006KT 9999 FEW007 BKN080 24/23 Q1010 A2982 HR93RWY OPR C210=METAR SLBU 281200Z 36004KT 9999 FEW008 BKN080 24/23 Q1010 A2984 HR95METAR SLSA 281200Z 36006KT 8000 VCSH BKN005 OVC070 24/22 Q1008 A2977HR93 SH N/NE=METAR SLSR 281200Z 12006KT 3000 -RA BKN008 FEW023CB OVC070 22/22Q1008 A2978 HR100 CB N/NE/NW RWY WET INOP=METAR SLSM 281200Z 00000KT 2000 RA BKN008 FEW023CB OVC070 23/23Q1009 A2982 HR100 CB N/NW RWY WET INOP=
ZPX0272 281204@CAELT@GG SLZZYMYT@CAELT@281204 SLCBYGYS@CAELT@SABO SLCB 281200@CAELT@METAR SLCB 281200Z 29003KT 4000 -RA SCT010 BKN020 OVC070 12/12 Q1027@CAELT@A3035 753.6 HR100 ST BAJOS TODAS DIRECC FU NOSIG=@CAELT@METAR SLAL 281200Z 00000KT 6000 VCFG SCT010 OVC070 11/09 Q1031 A3047@CAELT@705.4 HR86 VCFG N/NE/E/SE/S=@CAELT@METAR SLPO 281200Z 06003KT 9999 FEW010 SCT070 BKN200 07/05 Q1039A3068 638.9 HR85=METAR SLAG 281200Z 00000KT 9999 FEW012 SCT070 23/19 Q1018 A3009 890.8HR80 CI=METAR SLVM 281200Z 00000KT 9999 NSC 28/22 Q//// A//// HR70 FU CI=METAR SLTJ 281200Z 00000KT 9999 FEW027 20/16 Q1021 A3018 816.5 HR74METAR SLYA 281200Z 06006KT 9999 NSC 29/25 Q1012 A2991 937.5 HR79=METAR SLBJ 281200Z NIL=METAR SLHI 281200Z NIL=
ZPX0273 281205@CAELT@GG SLZZYMYT@CAELT@281207 SLVRYFYC@CAELT@SABO SLVR 281200 CCA@CAELT@METAR SLVR 281200Z 02006KT 9999 FEW017 BKN023 BKN070 24/22 Q1012@CAELT@A2989 HR88 NOSIG=@CAELT@METAR SLET 281200Z 31006KT 9999 SCT025 BKN070 25/22 Q1012 A2989 HR84@CAELT@CI NOSIG=@CAELT@METAR SLAS 281200Z 36004KT 8000 OVC008 24/23 Q1014 A2994 HR95 BR RWYWET OPR=METAR SLJV 281200Z 36010KT 9999 OVC010 22/21 Q1011 A2985 HR97 RWY WETOPR=METAR SLCP 281200Z 36004KT 9999 OVC006 22/21 Q1015 A2997 HR95 RWY WETMETAR SLSI 281200Z 33005KT 9999 BKN010 OVC070 23/23 Q1013 A2991 HR96RWY WET OPR=METAR SLTI 281200Z 00000KT 9999 BKN070 27/23 Q1016 A3000 HR80 RWY NMLMETAR SLJE 281200Z 36005KT 9999 BKN012 BKN070 27/24 Q1015 A2997 HR84RWY NML=METAR COR SLVG 281200Z 00000KT 9999 OVC070 17/15 Q1025 A3027 HR90 RWYNML=METAR SLRB 281200Z 00000KT 9999 SCT012 27/24 Q1014 A2994 HR85 RWY NMLMETAR SLPS 281200Z 03012KT 9999 SCT015 BKN200 27/24 Q1012 A2989 HR85=METAR SLCA 281200Z 00000KT 9999 NSC 22/20 Q1017 A3003 HR83 RWY WETINOP=
ZPX0274 281207@CAELT@GG SLZZYMYT@CAELT@281200 SLTRYGYS@CAELT@SABO SLTR 281200@CAELT@METAR SLTR 281200Z 06006KT 1000 +RA BKN004 FEW020CB OVC070 23/23@CAELT@Q1010 A2985 992.3 HR98 CB SE/S NOSIG=@CAELT@METAR SLGM 281200Z 03008KT 9999 BKN006 FEW020CB OVC070 25/24 Q1011@CAELT@A2986 HR94 CB SW=@CAELT@METAR SLRI 281200Z 36006KT 9999 BKN004 BKN080 23/23 Q1012 A2989 HR98=METAR SLJO 281200Z 36010KT 9999 BKN008 FEW023CB BKN070 24/22 Q1008A2979 HR91 CB SW RWY WET INOP=METAR SLRA 281200Z 36004KT 9999 BKN008 OVC070 24/23 Q1009 A2982 HR94RWY OPR C206=METAR SLMG 281200Z 34006KT 9999 FEW007 BKN080 24/23 Q1010 A2982 HR93RWY OPR C210=METAR SLBU 281200Z 36004KT 9999 FEW008 BKN080 24/23 Q1010 A2984 HR95METAR SLSA 281200Z 36006KT 8000 VCSH BKN005 OVC070 24/22 Q1008 A2977HR93 SH N/NE=METAR SLSR 281200Z 12006KT 3000 -RA BKN008 FEW023CB OVC070 22/22Q1008 A2978 HR100 CB N/NE/NW RWY WET INOP=METAR SLSM 281200Z 00000KT 2000 RA BKN008 FEW023CB OVC070 23/23Q1009 A2982 HR100 CB N/NW RWY WET INOP=
ZPX0293 281251@CAELT@GG SLZZYMYT@CAELT@281251 SLPSYGYS@CAELT@SABO SLPS 281300@CAELT@METAR SLPS 281300Z 36014KT 9999 SCT015 BKN070 28/25 Q1012 A2989 HR82=@CAELT@
ZPX0296 281253@CAELT@GG SLZZYMYT@CAELT@281252 SLCAYGYS@CAELT@SABO SLCA 281300@CAELT@METAR SLCA 281300Z 00000KT 9999 NSC 26/21 Q1017 A3003 HR78 RWY HUM@CAELT@OPR C210=@CAELT@
ZPX0300 281254@CAELT@GG SLZZYMYT@CAELT@281254 SLETYMYC@CAELT@SABO SLET 281300@CAELT@METAR SLET 281300Z 32008KT 9999 FEW008 BKN020 BKN070 24/22 Q1013@CAELT@A2992 HR89 SH S/W CI NOSIG=@CAELT@
ZPX0301 281255@CAELT@GG SLZZYMYT@CAELT@281254 SLUYYGYS@CAELT@SABO SLUY 281300@CAELT@METAR SLUY 281300Z 23005KT 9999 FEW015 BKN040 BKN070 13/04@CAELT@Q1034 A3055 658.7 HR54 SH NW=@CAELT@
ZPX0302 281255@CAELT@GG SLZZYMYT@CAELT@281254 SLSBYSYX@CAELT@SABO SLSB 281300@CAELT@METAR SLSB 281300Z 14006KT 2000 -RA BKN008 OVC070 23/23 Q1010 A2984@CAELT@HR98 RWY WET INOP=@CAELT@
ZPX0303 281255@CAELT@GG SLZZYMYT@CAELT@281255 SLCOYGYZ@CAELT@SABO SLCO 281300@CAELT@METAR SLCO 281300Z 29005KT 6000 -DZ BKN003 OVC070 24/24 Q1011 A2988@CAELT@984.4 HR98=@CAELT@
ZPX0304 281255@CAELT@GG SLZZYMYT@CAELT@281254 SLSAYGYS@CAELT@SABO SLSA 281300@CAELT@METAR SLSA 281300Z 36008KT 6000 VCSH SCT006 BKN015 OVC070 25/23@CAELT@Q1009 A2980 HR91 SH W/NW=@CAELT@
ZPX0305 281256@CAELT@GG SLLPZRZX@CAELT@281255 SLLPYGYZ@CAELT@SABO SLLP 281300@CAELT@METAR SLLP 281300Z 12011KT 100V160 4000 -RA FEW003 SCT010 OVC070 05/@CAELT@04 Q1037 A3063 627.5 HR93 P96// NOSIG=@CAELT@
ZPX0306 281256@CAELT@GG SLZZYMYT@CAELT@281255 SLAGYSYX@CAELT@SABO SLAG 281300@CAELT@METAR SLAG 281300Z 00000KT 9999 FEW015 BKN200 26/20 Q1018 A3008 890.7@CAELT@HR70 AC=@CAELT@
ZPX0307 281256@CAELT@GG SLZZYMYT@CAELT@281255 SLORYGYZ@CAELT@SABO SLOR 281300@CAELT@METAR SLOR 281300Z 10013KT 9999 SCT015 BKN070 10/05 Q1035 A3056 655.9@CAELT@HR68=@CAELT@
ZPX0308 281256@CAELT@GG SLZZYMYT@CAELT@281256 SLVRYGYZ@CAELT@SABO SLVR 281300@CAELT@METAR SLVR 281300Z 35008KT 9999 FEW017 BKN023 BKN070 26/23 Q1013@CAELT@A2992 HR84 CI NOSIG=@CAELT@
ZPX0309 281257@CAELT@GG SLZZYMYT@CAELT@281257 SLCBYGYZ@CAELT@SABO SLCB 281300@CAELT@METAR SLCB 281300Z 29003KT 7000 -RA SCT010 BKN020 OVC070 13/12 Q1028@CAELT@A3036 753.9 HR96 ST BAJOS TODAS DIRECC FU NOSIG=@CAELT@
ZPX0310 281258@CAELT@GG SLZZYMYT@CAELT@281256 SLRBYGYS@CAELT@SABO SLRB 281300@CAELT@METAR SLRB 281300Z 36010KT 9999 SCT015 29/24 Q1015 A2997 HR72 RWY NML=@CAELT@
ZPX0311 281258@CAELT@GG SLZZYMYT@CAELT@281257 SLTJYGYZ@CAELT@SABO SLTJ 281300@CAELT@METAR SLTJ 281300Z 00000KT 9999 FEW027 23/15 Q1021 A3017 816.3 HR58@CAELT@
ZPX0312 281259@CAELT@GG SLZZYMYT@CAELT@281256 SLTRYGYZ@CAELT@SABO SLTR 281300@CAELT@METAR SLTR 281300Z 06007KT 4000 -RA BKN004 OVC070 24/23 Q1011@CAELT@A2987 993.1 HR97 TEMPO 2000=@CAELT@
ZPX0313 281259@CAELT@GG SLZZYMYT@CAELT@281257 SLTRYGYS@CAELT@SABO SLTR 281300@CAELT@METAR SLTR 281300Z 06007KT 4000 -RA BKN004 OVC070 24/23 Q1011 A2987@CAELT@993.1 HR97 TEMPO 2000=@CAELT@
ZPX0314 281259@CAELT@GG SLZZYMYT@CAELT@281259 SLLPYFYA@CAELT@SABO SLLP 281300@CAELT@METAR SLLP 281300Z 12011KT 100V160 4000 -RA FEW003 SCT010 OVC070@CAELT@05/04 Q1037 A3063 627.5 HR93 P96// NOSIG=@CAELT@METAR SLCO 281300Z 29005KT 6000 -DZ BKN003 OVC070 24/24 Q1011@CAELT@A2988 984.4 HR98=@CAELT@METAR SLRY 281300Z 00000KT 2000 -RA BKN005 OVC010 22/22 Q1008A2977 HR100 RWY WET INOP=METAR SLRQ 281300Z 18012KT 3000 -RA SCT005 BKN008 OVC070 22/22Q1010 A2983 HR100=METAR SLAP 281300Z 00000KT 4000 -RA BKN010 OVC070 16/16 Q1018A3007 858.8 HR97=METAR SLSB 281300Z 14006KT 2000 -RA BKN008 OVC070 23/23 Q1010A2984 HR98 RWY WET INOP=METAR SLOR 281300Z 10013KT 9999 SCT015 BKN070 10/05 Q1035 A3056655.9 HR68=METAR SLUY 281300Z 23005KT 9999 FEW015 BKN040 BKN070 13/04Q1034 A3055 658.7 HR54 SH NW=
ZPX0315 281259@CAELT@GG SLZZYMYT@CAELT@281300 SLVRYFYC@CAELT@SABO SLVR 281300@CAELT@METAR SLVR 281300Z 35008KT 9999 FEW017 BKN023 BKN070 26/23 Q1013@CAELT@A2992 HR84 CI NOSIG=@CAELT@METAR SLET 281300Z 32008KT 9999 FEW008 BKN020 BKN070 24/22 Q1013@CAELT@A2992 HR89 SH S/W CI NOSIG=@CAELT@METAR SLAS 281300Z 36006KT 9999 OVC010 25/23 Q1015 A2997 HR90 RWY NMLMETAR SLJV 281300Z 36010KT 9999 SCT013 23/21 Q1013 A2991 HR93 RWY WETOPR=METAR SLCP 281300Z 00000KT 9999 OVC006 23/22 Q1016 A3000 HR92 RWY WETMETAR SLSI 281300Z 36006KT 9999 BKN010 OVC070 24/23 Q1013 A2991 HR96RWY HUM OPR=METAR SLTI 281300Z 36006KT 9999 FEW015 SCT070 29/24 Q1017 A3003 HR73RWY NML=METAR SLJE 281300Z 36005KT 9999 OVC013 28/23 Q1015 A2997 HR79 RWY NMLMETAR SLVG 281300Z 17005KT 9999 BKN070 19/15 Q1025 A3027 HR74 RWY NMLMETAR SLRB 281300Z 36010KT 9999 SCT015 29/24 Q1015 A2997 HR72 RWY NMLMETAR SLPS 281300Z 36014KT 9999 SCT015 BKN070 28/25 Q1012 A2989 HR82=METAR SLCA 281300Z 00000KT 9999 NSC 26/21 Q1017 A3003 HR78 RWY HUMOPR C210=
ZPX0320 281303@CAELT@GG SLZZYMYT@CAELT@281300 SLTRYGYS@CAELT@SABO SLTR 281300@CAELT@METAR SLTR 281300Z 06007KT 4000 -RA BKN004 OVC070 24/23 Q1011 A2987@CAELT@993.1 HR97 TEMPO 2000=@CAELT@METAR SLGM 281300Z 36012KT 9999 BKN008 FEW020CB BKN070 26/24 Q1011@CAELT@A2988 HR87 CB SW=@CAELT@METAR SLRI 281300Z 36006KT 9999 SCT005 BKN080 25/23 Q1012 A2990 HR85=METAR SLJO 281300Z 36010KT 9999 SCT008 BKN070 25/23 Q1009 A2981 HR87RWY OPR C206=METAR SLRA 281300Z 36008KT 9999 BKN008 BKN080 25/23 Q1010 A2984 HR87METAR SLMG 281300Z 34004KT 9999 FEW012 BKN080 26/23 Q1011 A2985 HR85RWY OPR C210=METAR SLBU 281300Z 36006KT 9999 BKN012 BKN080 25/24 Q1010 A2985 HR92METAR SLSA 281300Z 36008KT 6000 VCSH SCT006 BKN015 OVC070 25/23Q1009 A2980 HR91 SH W/NW=METAR SLSR 281300Z 12006KT 3000 -RA BKN008 FEW023CB OVC070 22/22Q1009 A2980 HR100 CB N/NE RWY WET INOP=METAR SLSM 281300Z 09004KT 6000 VCSH BKN008 FEW023CB OVC070 24/24Q1010 A2984 HR98 RERA CB/SH N/W/NW RWY WET INOP=
ZPX0321 281303@CAELT@GG SLZZYMYT@CAELT@281303 SLCBYGYS@CAELT@SABO SLCB 281300@CAELT@METAR SLCB 281300Z 29003KT 7000 -RA SCT010 BKN020 OVC070 13/12 Q1028@CAELT@A3036 753.9 HR96 ST BAJOS TODAS DIRECC FU NOSIG=@CAELT@METAR SLAL 281300Z 25004KT 9999 FEW005 SCT012 OVC070 12/09 Q1032@CAELT@A3048 705.8 HR84 ST BAJOS S/SW=@CAELT@METAR SLPO 281300Z 06006KT 9999 FEW013 BKN200 09/05 Q1039 A3069 639.1HR79 AC=METAR SLAG 281300Z 00000KT 9999 FEW015 BKN200 26/20 Q1018 A3008 890.7HR70 AC=METAR SLVM 281300Z 00000KT 9999 NSC 31/23 Q1011 A2988 HR62 FU CI=METAR SLTJ 281300Z 00000KT 9999 FEW027 23/15 Q1021 A3017 816.3 HR58METAR SLYA 281300Z 06008KT 9999 NSC 30/24 Q1012 A2991 937.5 HR70=METAR SLVM 281300Z NIL=METAR SLHI 281300Z NIL=
ZPX0342 281351@CAELT@GG SLZZYMYT@CAELT@281350 SLPSYGYS@CAELT@SABO SLPS 281400@CAELT@METAR SLPS 281400Z 36014KT 9999 BKN017 30/25 Q1012 A2989 HR76=@CAELT@
ZPX0343 281351@CAELT@GG SLZZYMYT@CAELT@281351 SLCAYGYS@CAELT@SABO SLCA 281400@CAELT@METAR SLCA 281400Z 00000KT 9999 NSC 28/22 Q1017 A3003 HR71 RWY HUM@CAELT@OPR C210=@CAELT@
ZPX0344 281354@CAELT@GG SLZZYMYT@CAELT@281353 SLRBYGYS@CAELT@SABO SLRB 281400@CAELT@METAR SLRB 281400Z 36012KT 9999 SCT015 30/24 Q1015 A2997 HR67 RWY NML=@CAELT@
ZPX0345 281354@CAELT@GG SLZZYMYT@CAELT@281354 SLETYMYC@CAELT@SABO SLET 281400@CAELT@METAR SLET 281400Z 31008KT 9999 SCT010 BKN070 BKN200 26/23 Q1013@CAELT@A2992 HR82 NOSIG=@CAELT@
ZPX0346 281355@CAELT@GG SLZZYMYT@CAELT@281355 SLSBYSYX@CAELT@SABO SLSB 281500@CAELT@METAR SLSB 281500Z 15006KT 3000 -RA BKN008 OVC070 23/23 Q1010 A2984@CAELT@HR98 RWY WET INOP=@CAELT@
ZPX0347 281355@CAELT@GG SLZZYMYT@CAELT@281355 SLVRYGYZ@CAELT@SABO SLVR 281400@CAELT@METAR SLVR 281400Z 36010KT 9999 FEW010 BKN023 BKN070 27/23 Q1013@CAELT@A2993 HR79 NOSIG=@CAELT@
ZPX0348 281356@CAELT@GG SLZZYMYT@CAELT@281354 SLUYYGYS@CAELT@SABO SLUY 281400@CAELT@METAR SLUY 281400Z 16006KT 9999 FEW015 BKN070 14/04 Q1034@CAELT@A3055 658.7 HR50 CI=@CAELT@
ZPX0349 281356@CAELT@GG SLZZYMYT@CAELT@281357 SLVRYFYC@CAELT@SABO SLVR 281400@CAELT@METAR SLVR 281400Z 36010KT 9999 FEW010 BKN023 BKN070 27/23 Q1013@CAELT@A2993 HR79 NOSIG=@CAELT@METAR SLET 281400Z 31008KT 9999 SCT010 BKN070 BKN200 26/23 Q1013@CAELT@A2992 HR82 NOSIG=@CAELT@METAR SLAS 281400Z 36012KT 9999 OVC012 25/23 Q1015 A2997 HR88 RWY WETOPR=METAR SLJV 281400Z 36005KT 9999 OVC013 24/23 Q1013 A2991 HR90 RWY HUMMETAR SLCP 281400Z 00000KT 9999 OVC010 24/23 Q1016 A3000 HR90 RWY WETMETAR SLSI 281400Z 36006KT 9999 BKN010 OVC070 25/23 Q1013 A2991 HR86RWY HUM OPR=METAR SLTI 281400Z 36006KT 9999 BKN017 30/23 Q1017 A3003 HR70 RWY NMLMETAR SLJE 281400Z 32005KT 9999 BKN013 BKN200 29/24 Q1015 A2997 HR76RWY NML=METAR SLVG 281400Z 18005KT 9999 FEW020 BKN070 19/14 Q1026 A3030 HR65METAR SLRB 281400Z 36012KT 9999 SCT015 30/24 Q1015 A2997 HR67 RWY NMLMETAR SLPS 281400Z 36014KT 9999 BKN017 30/25 Q1012 A2989 HR76=METAR SLCA 281400Z 00000KT 9999 NSC 28/22 Q1017 A3003 HR71 RWY HUMOPR C210=
ZPX0350 281357@CAELT@GG SLZZYMYT@CAELT@281356 SLAGYSYX@CAELT@SABO SLAG 281400@CAELT@METAR SLAG 281400Z 00000KT 9999 FEW017 BKN200 28/19 Q1018 A3008 890.6@CAELT@HR57 AC=@CAELT@
ZPX0351 281357@CAELT@GG SLZZYMYT@CAELT@281356 SLTRYGYZ@CAELT@SABO SLTR 281400@CAELT@METAR SLTR 281400Z 05008KT 6000 -RA BKN004 OVC070 24/24 Q1012@CAELT@A2989 993.6 HR97 NOSIG=@CAELT@
ZPX0352 281357@CAELT@GG SLZZYMYT@CAELT@281355 SLSAYGYS@CAELT@SABO SLSA 281400@CAELT@METAR SLSA 281400Z 34012KT 8000 VCSH BKN015 BKN080 26/23@CAELT@Q1009 A2981 HR83 SH S/SW=@CAELT@
ZPX0353 281357@CAELT@GG SLZZYMYT@CAELT@281357 SLLPYGYZ@CAELT@SABO SLLP 281400@CAELT@METAR SLLP 281400Z 12010KT 4000E -RA VCFG FEW003 SCT013 BKN070 06/05@CAELT@Q1037 A3064 627.6 HR94 P96// VCFG N/NE/E/SE NOSIG=@CAELT@
ZPX0354 281357@CAELT@GG SLZZYMYT@CAELT@281356 SLCOYGYZ@CAELT@SABO SLCO 281400@CAELT@METAR SLCO 281400Z 31006KT 8000 -DZ BKN004 BKN200 24/23 Q1012 A2990@CAELT@985.0 HR94=@CAELT@
ZPX0355 281357@CAELT@GG SLZZYMYT@CAELT@281357 SLORYGYZ@CAELT@SABO SLOR 281400@CAELT@METAR SLOR 281400Z 12008KT 9999 SCT017 BKN070 12/06 Q1035 A3057 656.1@CAELT@HR65 CI=@CAELT@
ZPX0356 281358@CAELT@GG SLZZYMYT@CAELT@281357 SLTJYGYZ@CAELT@SABO SLTJ 281400@CAELT@METAR SLTJ 281400Z 18006KT 9999 FEW027 SCT200 24/15 Q1021 A3016 816.0@CAELT@HR58=@CAELT@
ZPX0357 281358@CAELT@GG SLZZYMYT@CAELT@281358 SLCBYGYZ@CAELT@SABO SLCB 281400@CAELT@METAR SLCB 281400Z 27003KT 7000 -RA SCT008 BKN020 OVC070 14/13 Q1028@CAELT@A3036 753.9 HR92 ST BAJOS TODAS DIRECC FU NOSIG=@CAELT@
ZPX0358 281358@CAELT@GG SLZZYMYT@CAELT@281358 SLTRYGYS@CAELT@SABO SLTR 281400@CAELT@METAR SLTR 281400Z 05008KT 6000 -RA BKN004 OVC070 24/24 Q1012@CAELT@A2989 993.6 HR97 NOSIG=@CAELT@METAR SLGM 281400Z 02010KT 9999 BKN015 FEW020CB BKN080 27/24 Q1012@CAELT@A2989 HR80 CB SW=@CAELT@METAR SLRI 281400Z 36006KT 9999 SCT005 BKN080 26/23 Q1012 A2991 HR79=METAR SLJO 281400Z 36010KT 9999 SCT012 BKN070 26/23 Q1009 A2982 HR84RWY OPR C206=METAR SLRA 281400Z 36008KT 9999 SCT015 BKN080 26/23 Q1010 A2985 HR84METAR SLMG 281400Z 34008KT 9999 SCT015 BKN080 27/24 Q1011 A2986 HR82RWY OPR C210=METAR SLBU 281400Z 36005KT 9999 SCT015 BKN080 27/24 Q1011 A2986 HR83METAR SLSA 281400Z 34012KT 8000 VCSH BKN015 BKN080 26/23 Q1009 A2981HR83 SH S/SW=METAR SLSR 281400Z 12006KT 6000 -RA BKN004 FEW023CB OVC070 22/22Q1009 A2981 HR98 CB NE/E RWY WET INOP=METAR SLSM 281400Z 09008KT 6000 VCSH BKN008 FEW023CB OVC070 24/24Q1011 A2986 HR98 CB/SH N/NE/W/NW RWY WET INOP=
ZPX0362 281402@CAELT@GG SLZZYMYT@CAELT@281402 SLCBYGYS@CAELT@SABO SLCB 281400@CAELT@METAR SLCB 281400Z 27003KT 7000 -RA SCT008 BKN020 OVC070 14/13 Q1028@CAELT@A3036 753.9 HR92 ST BAJOS TODAS DIRECC FU NOSIG=@CAELT@METAR SLAL 281400Z 00000KT 9999 SCT015 OVC070 12/09 Q1032 A3048 705.7@CAELT@HR81=@CAELT@METAR SLPO 281400Z 06007KT 9999 FEW013 BKN200 10/05 Q1039 A3070 639.2HR74=METAR SLAG 281400Z 00000KT 9999 FEW017 BKN200 28/19 Q1018 A3008 890.6HR57 AC=METAR SLVM 281400Z 00000KT 9999 NSC 34/22 Q1011 A2987 HR52 FU CI=METAR SLTJ 281400Z 18006KT 9999 FEW027 SCT200 24/15 Q1021 A3016 816.0HR58=METAR SLYA 281400Z 06010KT 9999 FEW023 32/25 Q1012 A2990 937.3 HR66=METAR SLBJ 281400Z NIL=METAR SLHI 281400Z NIL=
ZPX0364 281403@CAELT@GG SLZZYMYT@CAELT@281403 SLLPYFYA@CAELT@SABO SLLP 281400@CAELT@METAR SLLP 281400Z 12010KT 4000E -RA VCFG FEW003 SCT013 BKN070 06/05@CAELT@Q1037 A3064 627.6 HR94 P96// VCFG N/NE/E/SE NOSIG=@CAELT@METAR SLCO 281400Z 31006KT 8000 -DZ BKN004 BKN200 24/23 Q1012 A2990@CAELT@985.0 HR94=@CAELT@METAR SLRY 281400Z 16005KT 9999 BKN005 BKN012 OVC070 23/23 Q1008A2978 HR98 RWY WET INOP=METAR SLRQ 281400Z 16008KT 3000 -RA SCT005 BKN008 OVC070 23/23 Q1010A2985 986.7 HR100=METAR SLAP 281400Z 00000KT 4000 -RA BKN010 OVC070 17/16 Q1018 A3008859.2 HR95=METAR SLSB 281500Z 15006KT 3000 -RA BKN008 OVC070 23/23 Q1010 A2984HR98 RWY WET INOP=METAR SLOR 281400Z 12008KT 9999 SCT017 BKN070 12/06 Q1035 A3057656.1 HR65 CI=METAR SLUY 281400Z 16006KT 9999 FEW015 BKN070 14/04 Q1034A3055 658.7 HR50 CI=
ZPX0389 281449@CAELT@GG SLZZYMYT@CAELT@281450 SLRBYGYS@CAELT@SABO SLRB 281500@CAELT@METAR SLRB 281500Z 36010KT 9999 SCT015 32/24 Q1015 A2997 HR65 RWY NML=@CAELT@
ZPX0395 281452@CAELT@GG SLZZYMYT@CAELT@281451 SLPSYGYS@CAELT@SABO SLPS 281500@CAELT@METAR SLPS 281500Z 36013KT 9999 BKN017 31/24 Q1012 A2989 HR67=@CAELT@
ZPX0396 281454@CAELT@GG SLZZYMYT@CAELT@281454 SLETYMYC@CAELT@SABO SLET 281500@CAELT@METAR SLET 281500Z 32008KT 9999 FEW010 BKN015 BKN200 28/23 Q1013@CAELT@A2991 HR76 AC NOSIG=@CAELT@
ZPX0397 281454@CAELT@GG SLZZYMYT@CAELT@281455 SLSBYSYX@CAELT@SABO SLSB 281500@CAELT@METAR SLSB 281500Z 16008KT 3000 -RA BKN008 OVC070 24/24 Q1010 A2984@CAELT@HR100 RWY WET INOP=@CAELT@
ZPX0398 281455@CAELT@GG SLZZYMYT@CAELT@281455 SLTRYGYZ@CAELT@SABO SLTR 281500@CAELT@METAR SLTR 281500Z 03008KT 9999 SCT008 SCT015 BKN070 26/25 Q1012@CAELT@A2989 993.6 HR91 NOSIG=@CAELT@
ZPX0400 281455@CAELT@GG SLZZYMYT@CAELT@281451 SLUYYGYS@CAELT@SABO SLUY 281500@CAELT@METAR SLUY 281500Z 11006KT 9999 SCT023 SCT070 BKN200 16/04@CAELT@Q1034 A3054 658.4 HR45=@CAELT@
ZPX0401 281455@CAELT@GG SLZZYMYT@CAELT@281454 SLSAYGYS@CAELT@SABO SLSA 281500@CAELT@METAR SLSA 281500Z 34008KT 6000 VCSH BKN015 BKN080 26/23@CAELT@Q1009 A2982 HR88 RESHRA SH SE/S/NW=@CAELT@
ZPX0402 281455@CAELT@GG SLZZYMYT@CAELT@281455 SLCOYGYZ@CAELT@SABO SLCO 281500@CAELT@METAR SLCO 281500Z 30006KT 9999 BKN004 BKN080 25/24 Q1012 A2990 985.1@CAELT@HR90 CI REDZ=@CAELT@
ZPX0403 281456@CAELT@GG SLZZYMYT@CAELT@281455 SLORYGYZ@CAELT@SABO SLOR 281500@CAELT@METAR SLOR 281500Z 08010KT 9999 SCT017 BKN070 14/06 Q1034 A3055 655.6@CAELT@HR58 CI=@CAELT@
ZPX0405 281457@CAELT@GG SLZZYMYT@CAELT@281456 SLLPYGYZ@CAELT@SABO SLLP 281500@CAELT@METAR SLLP 281500Z 12011KT 4000E -RA VCFG FEW003 SCT013 BKN070 07/06@CAELT@Q1037 A3063 627.5 HR92 P96// VCFG N/NE/E/SE NOSIG=@CAELT@
ZPX0406 281457@CAELT@GG SLZZYMYT@CAELT@281457 SLTJYGYZ@CAELT@SABO SLTJ 281500@CAELT@METAR SLTJ 281500Z 00000KT 9999 FEW027 SCT200 25/15 Q1020 A3014 815.5@CAELT@HR54=@CAELT@
ZPX0407 281457@CAELT@GG SLZZYMYT@CAELT@281455 SLAGYSYX@CAELT@SABO SLAG 281500@CAELT@METAR SLAG 281500Z 18003KT 9999 FEW020 FEW030TCU BKN200 29/18 Q1018@CAELT@A3007 890.3 HR53 TCU NE/W AC=@CAELT@
ZPX0409 281457@CAELT@GG SLZZYMYT@CAELT@281457 SLVRYGYZ@CAELT@SABO SLVR 281500@CAELT@METAR SLVR 281500Z 35010KT 9999 SCT015 BKN020 BKN080 28/23 Q1013@CAELT@A2992 HR74 NOSIG=@CAELT@
ZPX0411 281458@CAELT@GG SLZZYMYT@CAELT@281456 SLCAYGYS@CAELT@SABO SLCA 281500@CAELT@METAR SLCA 281500Z 00000KT 9999 SCT033 30/19 Q1016 A3000 HR53 RWY HUM@CAELT@OPR C210=@CAELT@
ZPX0412 281459@CAELT@GG SLZZYMYT@CAELT@281500 SLVRYFYC@CAELT@SABO SLVR 281500@CAELT@METAR SLVR 281500Z 35010KT 9999 SCT015 BKN020 BKN080 28/23 Q1013@CAELT@A2992 HR74 NOSIG=@CAELT@METAR SLET 281500Z 32008KT 9999 FEW010 BKN015 BKN200 28/23 Q1013@CAELT@A2991 HR76 AC NOSIG=@CAELT@METAR SLAS 281500Z 36010KT 9999 OVC013 26/23 Q1015 A2997 HR81 RWY WETOPR=METAR SLJV 281500Z 36005KT 9999 BKN013 BKN070 25/23Q1013 A2991 HR88RWY HUM OPR=METAR SLCP 281500Z 36004KT 9999 BKN015 BKN200 25/22 Q1016 A3000 HR84METAR SLSI 281500Z 33006KT 9999 BKN012 OVC070 26/23 Q1013 A2991 HR82RWY HUM OPR =METAR SLTI 281500Z 35005T 9999 BKN017 31/24 Q1016 A3000 HR65 RWY NML=METAR SLJE 281500Z 35006KT 9999 BKN015 31/24 Q1015 A2997 HR64 RWYNML=METAR SLVG 281500Z 00000KT 9999 SCT023 BKN070 21/15 Q1025 A3027 HR64RWY NML=METAR SLRB 281500Z 36010KT 9999 SCT015 32/24 Q1015 A2997 HR65 RWY NMLMETAR SLPS 281500Z 36013KT 9999 BKN017 31/24 Q1012 A2989 HR67=METAR SLCA 281500Z 00000KT 9999 SCT033 30/19 Q1016 A3000 HR53 RWY HUMOPR C210=
ZPX0415 281500@CAELT@GG SLZZYMYT@CAELT@281459 SLTRYGYS@CAELT@SABO SLTR 281500@CAELT@METAR SLTR 281500Z 03008KT 9999 SCT008 SCT015 BKN070 26/25 Q1012@CAELT@A2989 993.6 HR91 NOSIG=@CAELT@METAR SLGM 281500Z 02016KT 9999 BKN015 BKN080 29/24 Q1012 A2988 HR71=@CAELT@METAR SLRI 281500Z 36006KT 9999 SCT008 BKN080 28/23 Q1012 A2990 HR74=@CAELT@METAR SLJO 281500Z 36010KT 9999 SCT015 BKN070 27/23 Q1009 A2982 HR78RWY OPR C206=METAR SLRA 281500Z 36008KT 9999 SCT015 BKN080 27/24 Q1010 A2985 HR82RWY HUM OPR=METAR SLMG 281500Z 34008KT 9999 SCT015 BKN080 27/23 Q1011 A2987 HR79METAR SLBU 281500Z 36005KT 9999 SCT015 BKN080 27/24 Q1011 A2987 HR81RWY OPR C210=METAR SLSA 281500Z 34008KT 6000 VCSH BKN015 BKN080 26/23 Q1009 A2982HR88 RESHRA SH SE/S/NW=METAR SLSR 281500Z 12006KT 6000 -RA BKN004 FEW023CB OVC070 23/22Q1009 A2981 HR97 CB E/NW RWY WET INOP=METAR SLSM 281500Z 09006KT 5000 VCSH BKN008 FEW023CB OVC070 25/24Q1011 A2987 HR95 RERA CB/SH NE/E/SE/W RWY WET INOP=
ZPX0416 281500@CAELT@GG SLZZYMYT@CAELT@281500 SLLPYFYA@CAELT@SABO SLLP 281500@CAELT@METAR SLLP 281500Z 12011KT 4000E -RA VCFG FEW003 SCT013 BKN070@CAELT@07/06 Q1037 A3063 627.5 HR92 P96// VCFG N/NE/E/SE NOSIG=@CAELT@METAR SLCO 281500Z 30006KT 9999 BKN004 BKN080 25/24 Q1012 A2990@CAELT@985.1 HR90 CI REDZ=@CAELT@METAR SLRY 281500Z 18005KT 5000 SCT006 BKN015 OVC070 23/23 Q1008A2978 HR98 RWY WET INOP=METAR SLRQ 281500Z 18008KT 5000 -RA SCT006 BKN010 OVC070 23/23Q1010 A2985 HR98=METAR SLAP 281500Z 00000KT 4000 -RA BKN010 OVC070 17/16 Q1018A3007 859.2 HR96=METAR SLSB 281500Z 16008KT 3000 -RA BKN008 OVC070 24/24 Q1010A2984 HR100 RWY WET INOP=METAR SLOR 281500Z 08010KT 9999 SCT017 BKN070 14/06 Q1034 A3055655.6 HR58 CI=METAR SLUY 281500Z 11006KT 9999 SCT023 SCT070 BKN200 16/04Q1034 A3054 658.4 HR45=
ZPX0417 281500@CAELT@GG SLZZYMYT@CAELT@281459 SLCBYGYZ@CAELT@SABO SLCB 281500@CAELT@METAR SLCB 281500Z 28003KT 9000 -RA SCT010 BKN020 OVC070 15/13 Q1027@CAELT@A3035 753.5 HR85 SC BAJOS W/NW/N/NE/E FU NOSIG=@CAELT@
ZPX0422 281505@CAELT@GG SLZZYMYT@CAELT@281505 SLCBYGYS@CAELT@SABO SLCB 281500@CAELT@METAR SLCB 281500Z 28003KT 9000 -RA SCT010 BKN020 OVC070 15/13 Q1027@CAELT@A3035 753.5 HR85 SC BAJOS W/NW/N/NE/E FU NOSIG=@CAELT@METAR SLAL 281500Z 00000KT 9999 SCT017 OVC070 14/09 Q1032 A3047 705.6@CAELT@HR72=@CAELT@METAR SLPO 281500Z 06010KT 9999 SCT015 BKN200 11/06 Q1039 A3069 639.0METAR SLAG 281500Z 18003KT 9999 FEW020 FEW030TCU BKN200 29/18 Q1018A3007 890.3 HR53 TCU NE/W AC=METAR SLVM 281500Z 18007KT 9999 NSC 35/24 Q1010 A2985 HR53 FU CI=METAR SLTJ 281500Z 00000KT 9999 FEW027 SCT200 25/15 Q1020 A3014 815.5HR54=METAR SLYA 281500Z 06010KT 9999 FEW023 33/25 Q1011 A2987 936.2 HR62=METAR SLBJ 281500Z NIL=METAR SLHI 281500Z NIL=
ZPX0449 281551@CAELT@GG SLZZYMYT@CAELT@281550 SLPSYGYS@CAELT@SABO SLPS 281600@CAELT@METAR SLPS 281600Z 36010KT 9999 BKN017 32/24 Q1011 A2986 HR62=@CAELT@
ZPX0450 281552@CAELT@GG SLZZYMYT@CAELT@281551 SLRBYGYS@CAELT@SABO SLRB 281600@CAELT@METAR SLRB 281600Z 36015KT 9999 BKN020 33/24 Q1014 A2994 HR59 RWY NML=@CAELT@
ZPX0451 281553@CAELT@GG SLZZYMYT@CAELT@281552 SLCAYGYS@CAELT@SABO SLCA 281600@CAELT@METAR SLCA 281600Z 00000KT 9999 SCT033 32/18 Q1015 A2997 HR44 RWY HUM@CAELT@OPR=@CAELT@
ZPX0452 281554@CAELT@GG SLZZYMYT@CAELT@281554 SLCBYGYZ@CAELT@SABO SLCB 281600@CAELT@METAR SLCB 281600Z 27003KT 9999 BKN020 OVC070 16/13 Q1026 A3033 752.9@CAELT@HR81 FU NOSIG=@CAELT@
ZPX0454 281554@CAELT@GG SLZZYMYT@CAELT@281554 SLETYMYC@CAELT@SABO SLET 281600@CAELT@METAR SLET 281600Z 32008KT 9999 FEW012 BKN015 BKN200 29/23 Q1012@CAELT@A2989 HR70 AC NOSIG=@CAELT@
ZPX0456 281555@CAELT@GG SLZZYMYT@CAELT@281554 SLSAYGYS@CAELT@SABO SLSA 281600@CAELT@METAR SLSA 281600Z 36012KT 8000 VCSH BKN015 BKN080 26/24@CAELT@Q1010 A2983 HR86 SH SE/SW/NW=@CAELT@
ZPX0457 281555@CAELT@GG SLZZYMYT@CAELT@281555 SLTRYGYZ@CAELT@SABO SLTR 281600@CAELT@METAR SLTR 281600Z 01008KT 9999 SCT015 BKN070 28/24 Q1011 A2987@CAELT@993.0 HR83 NOSIG=@CAELT@
ZPX0458 281555@CAELT@GG SLZZYMYT@CAELT@281553 SLUYYGYS@CAELT@SABO SLUY 281600@CAELT@METAR SLUY 281600Z 23005KT 9999 SCT025 SCT070 BKN200 17/03@CAELT@Q1033 A3052 657.8 HR39=@CAELT@
ZPX0459 281556@CAELT@GG SLZZYMYT@CAELT@281555 SLSBYSYX@CAELT@SABO SLSB 281600@CAELT@METAR SLSB 281600Z 15008KT 5000 -DZ BKN008 OVC070 24/24 Q1010 A2983@CAELT@HR98 RWY WET INOP=@CAELT@
ZPX0460 281556@CAELT@GG SLZZYMYT@CAELT@281556 SLCOYGYZ@CAELT@SABO SLCO 281600@CAELT@METAR SLCO 281600Z 27006KT 9999 BKN008 BKN200 26/24 Q1012 A2989 984.6@CAELT@HR88 AC=@CAELT@
ZPX0461 281557@CAELT@GG SLZZYMYT@CAELT@281557 SLVRYGYZ@CAELT@SABO SLVR 281600@CAELT@METAR SLVR 281600Z 33010KT 9999 SCT015 BKN020 BKN200 29/23 Q1012@CAELT@A2991 HR72 AC NOSIG=@CAELT@
ZPX0462 281557@CAELT@GG SLZZYMYT@CAELT@281556 SLLPYGYZ@CAELT@SABO SLLP 281600@CAELT@METAR SLLP 281600Z 11013KT 080V140 6000 FEW004 SCT015 BKN070 09/07@CAELT@Q1036 A3061 627.0 HR86 P96// VIS/RED/ST/BAJOS NE/E/SE NOSIG=@CAELT@
ZPX0463 281558@CAELT@GG SLZZYMYT@CAELT@281558 SLTJYGYZ@CAELT@SABO SLTJ 281630@CAELT@METAR SLTJ 281600Z 18005KT 9999 FEW027 SCT200 26/14 Q1019 A3011 814.7@CAELT@HR48=@CAELT@
ZPX0465 281559@CAELT@GG SLZZYMYT@CAELT@281559 SLAGYSYX@CAELT@SABO SLAG 281600@CAELT@METAR SLAG 281600Z 00000KT 9999 FEW023 FEW030TCU BKN200 29/18 Q1017@CAELT@A3004 889.4 HR53 TCU/E AC=@CAELT@
ZPX0467 281600@CAELT@GG SLZZYMYT@CAELT@281601 SLVRYFYC@CAELT@SABO SLVR 281600@CAELT@METAR SLVR 281600Z 33010KT 9999 SCT015 BKN020 BKN200 29/23 Q1012@CAELT@A2991 HR72 AC NOSIG=@CAELT@METAR SLET 281600Z 32008KT 9999 FEW012 BKN015 BKN200 29/23 Q1012@CAELT@A2989 HR70 AC NOSIG=@CAELT@METAR SLAS 281600Z 36012KT 9999 OVC013 27/23 Q1014 A2994 HR78 RWY WETOPR=METAR SLCP 281600Z 36004KT 9999 BKN015 BKN200 27/22 Q1016 A3000 HR76RWY HUM OPR=METAR SLSI 281600Z 36005KT 9999 BKN012 OVC070 28/23 Q1013 A2991 HR75RWY NML=METAR SLTI 281600Z 35006KT 4000 VCSH BKN017 30/24 Q1015 A2997 HR72 SH/NW/N RWY NML=METAR SLRB 281600Z 36015KT 9999 BKN020 33/24 Q1014 A2994 HR59 RWY NMLMETAR SLPS 281600Z 36010KT 9999 BKN017 32/24 Q1011 A2986 HR62=METAR SLCA 281600Z 00000KT 9999 SCT033 32/18 Q1015 A2997 HR44 RWY HUM
ZPX0468 281600@CAELT@GG SLZZYMYT@CAELT@281600 SLTRYGYS@CAELT@SABO SLTR 281600@CAELT@METAR SLTR 281600Z 01008KT 9999 SCT015 BKN070 28/24 Q1011 A2987@CAELT@993.0 HR83 NOSIG=@CAELT@METAR SLGM 281600Z 03015G25KT 9999 BKN017 BKN080 30/24 Q1011 A2987@CAELT@HR70=@CAELT@METAR SLRI 281600Z 36006KT 9999 BKN017 BKN080 30/23 Q1012 A2989 HR66=METAR SLJO 281600Z 36010KT 9999 BKN015 FEW023CB BKN080 28/25 Q1010A2983 HR80 CB SE RWY OPR C206=METAR SLRA 281600Z 36008KT 9999 SCT017 BKN080 29/23 Q1010 A2985 HR73RWY HUM OPR=METAR SLMG 281600Z 34008KT 9999 BKN015 28/24 Q1011 A2986 HR78METAR SLBU 281600Z 36006KT 9999 SCT015 BKN080 28/24 Q1010 A2985 HR77RWY OPR C210=METAR SLSA 281600Z 36012KT 8000 VCSH BKN015 BKN080 26/24 Q1010 A2983HR86 SH SE/SW/NW=METAR SLSR 281600Z 12006KT 2000 DZ BKN004 FEW023CB OVC070 24/23Q1009 A2980 HR93 CB N/NE/E/NW RWY WET INOP=METAR SLSM 281600Z 36014KT 5000 VCSH BKN008 FEW023CB OVC070 27/25Q1010 A2985 HR90 CB/SH N/NE/W/NW RWY WET INOP=
ZPX0469 281601@CAELT@GG SLZZYMYT@CAELT@281601 SLLPYFYA@CAELT@SABO SLLP 281600@CAELT@METAR SLLP 281600Z 11013KT 080V140 6000 FEW004 SCT015 BKN070 09/07@CAELT@Q1036 A3061 627.0 HR86 P96// VIS/RED/ST/BAJOS NE/E/SE NOSIG=@CAELT@METAR SLCO 281600Z 27006KT 9999 BKN008 BKN200 26/24 Q1012 A2989@CAELT@984.6 HR88 AC=@CAELT@METAR SLRY 281600Z 18003KT 5000 -RA SCT006 BKN012 OVC070 23/22Q1008 A2977 HR97 RWY WET INOP=METAR SLRQ 281600Z 18008KT 5000 -RA SCT006 BKN010 OVC070 24/23Q1010 A2983 986.0 HR98=METAR SLAP 281600Z 00000KT 4000 -RA BKN015 OVC070 17/16 Q1018A3007 859.0 HR96=METAR SLSB 281600Z 15008KT 5000 -DZ BKN008 OVC070 24/24 Q1010A2983 HR98 RWY WET INOP=METAR SLUY 281600Z 23005KT 9999 SCT025 SCT070 BKN200 17/03Q1033 A3052 657.8 HR39=
ZPX0470 281602@CAELT@GG SLZZYMYT@CAELT@281602 SLCBYGYS@CAELT@SABO SLCB 281600@CAELT@METAR SLCB 281600Z 27003KT 9999 BKN020 OVC070 16/13 Q1026 A3033 752.9@CAELT@HR81 FU NOSIG=@CAELT@METAR SLAL 281600Z 00000KT 9999 BKN017 OVC070 14/10 Q1031 A3047 705.4@CAELT@HR77=@CAELT@METAR SLPO 281600Z 06012KT 9999 SCT015 BKN200 12/06 Q1038 A3066 638.3HR69=METAR SLAG 281600Z 00000KT 9999 FEW023 FEW030TCU BKN200 29/18 Q1017A3004 889.4 HR53 TCU/E AC=METAR SLVM 281600Z 36005KT 9999 FEW030 36/23 Q1009 A2982 HR46 FU CI=METAR SLTJ 281600Z 18005KT 9999 FEW027 SCT200 26/14 Q1019 A3011 814.7HR48=METAR SLYA 281600Z 06010KT 9999 FEW023 34/25 Q1011 A2986 935.9 HR59=METAR SLBJ 281600Z NIL=METAR SLHI 281600Z NIL=
ZPX0506 281650@CAELT@GG SLZZYMYT@CAELT@281650 SLRBYGYS@CAELT@SABO SLRB 281700@CAELT@METAR SLRB 281700Z 36015KT 9999 BKN020 FEW025CB 34/23 Q1013 A2991@CAELT@HR54 CB/NE RWY NML=@CAELT@
ZPX0507 281653@CAELT@GG SLZZYMYT@CAELT@281652 SLPSYGYS@CAELT@SABO SLPS 281700@CAELT@METAR SLPS 281700Z 36010KT 9999 SCT017 SCT200 34/25 Q1010 A2983 HR60=@CAELT@
ZPX0508 281653@CAELT@GG SLZZYMYT@CAELT@281654 SLSAYGYS@CAELT@SABO SLSA 281700@CAELT@METAR SLSA 281700Z 35010KT 8000 VCSH BKN017 BKN080 27/24@CAELT@Q1009 A2981 HR83 SH S/SW/NW=@CAELT@
ZPX0509 281653@CAELT@GG SLZZYMYT@CAELT@281653 SLCAYGYS@CAELT@SABO SLCA 281700@CAELT@METAR SLCA 281700Z 00000KT 9999 BKN033 32/18 Q1014 A2994 HR44 RWY HUM@CAELT@OPR=@CAELT@
ZPX0510 281654@CAELT@GG SLZZYMYT@CAELT@281654 SLETYMYC@CAELT@SABO SLET 281700@CAELT@METAR SLET 281700Z 31010KT 9999 BKN017 BKN200 29/23 Q1011 A2988 HR69@CAELT@AC NOSIG=@CAELT@
ZPX0511 281655@CAELT@GG SLZZYMYT@CAELT@281655 SLSBYSYX@CAELT@SABO SLSB 281700@CAELT@METAR SLSB 281700Z 15008KT 5000 -DZ BKN008 OVC070 25/25 Q1009 A2980@CAELT@HR98 RWY WET INOP=@CAELT@
ZPX0512 281655@CAELT@GG SLZZYMYT@CAELT@281655 SLLPYFYA@CAELT@SABO SLRY 281700@CAELT@METAR SLRY 281700Z 24003KT 5000 -DZ BKN006 BKN012 OVC070 23/23@CAELT@Q1007 A2976 HR97 RWY WET INOP=@CAELT@
ZPX0513 281655@CAELT@GG SLZZYMYT@CAELT@281655 SLTRYGYZ@CAELT@SABO SLTR 281700@CAELT@METAR SLTR 281700Z 05006KT 6000 VCSH SCT015 FEW020CB BKN070 28/25@CAELT@Q1010 A2985 992.2 HR87 RESHRA CB/SH NE/E/SE TEMPO SHRA=@CAELT@
ZPX0514 281656@CAELT@GG SLZZYMYT@CAELT@281656 SLTRYGYS@CAELT@SABO SLTR 281700@CAELT@METAR SLTR 281700Z 05006KT 6000 VCSH SCT015 FEW020CB BKN070 28/25@CAELT@Q1010 A2985 992.2 HR87 RESHRA CB/SH NE/E/SE TEMPO SHRA=@CAELT@METAR SLGM 281700Z 34015KT 9999 BKN017 FEW020CB BKN080 31/24 Q1010@CAELT@A2984 HR67 CB NE/E/SE=@CAELT@METAR SLRI 281700Z 36010KT 9999 BKN017 BKN080 31/23 Q1011 A2987 HR63=METAR SLJO 281700Z 35010KT 8000 VCSH SCT017 FEW023CB BKN080 29/24Q1009 A2981 HR75 CB/SH SE/S RWY HUM OPR=METAR SLRA 281700Z 36008KT 9999 SCT017 BKN080 29/24 Q1010 A2984 HR74RWY HUM OPR=METAR SLMG 281700Z 32006KT 9999 SCT015 BKN080 29/24 Q1010 A2985 HR74METAR SLBU 281700Z 36006KT 9999 SCT015 BKN080 29/24 Q1009 A2982 HR73RWY OPR C210=METAR SLSA 281700Z 35010KT 8000 VCSH BKN017 BKN080 27/24 Q1009 A2981HR83 SH S/SW/NW=METAR SLSR 281700Z 12006KT 2000 DZ BKN004 FEW023CB OVC070 24/23Q1008 A2978 HR95 CB N/NE/E RWY WET INOP=METAR SLSM 281700Z 02006KT 3000 -RA BKN008 FEW023CB OVC070 23/23Q1011 A2986 HR100 CB E/SE/W/NW RWY WET INOP=
ZPX0517 281656@CAELT@GG SLZZYMYT@CAELT@281657 SLVRYGYZ@CAELT@SABO SLVR 281700@CAELT@METAR SLVR 281700Z 34009KT 9999 SCT015 BKN020 BKN200 29/23 Q1012@CAELT@A2989 HR71 NOSIG=@CAELT@
ZPX0518 281656@CAELT@GG SLZZYMYT@CAELT@281647 SLUYYGYS@CAELT@SABO SLUY 281700@CAELT@METAR SLUY 281700Z 31006KT 9999 SCT020 FEW023CB SCT070 BKN200@CAELT@15/04 Q1033 A3051 657.7 HR48 CB/SH N/S/SW=@CAELT@
ZPX0520 281657@CAELT@GG SLZZYMYT@CAELT@281656 SLTRYGYS@CAELT@SABO SLTR 281700@CAELT@METAR SLTR 281700Z 05006KT 6000 VCSH SCT015 FEW020CB BKN070 28/25@CAELT@Q1010 A2985 992.2 HR87 RESHRA CB/SH NE/E/SE TEMPO SHRA=@CAELT@METAR SLGM 281700Z 34015KT 9999 BKN017 FEW020CB BKN080 31/24 Q1010@CAELT@A2984 HR67 CB NE/E/SE=@CAELT@METAR SLRI 281700Z 36010KT 9999 BKN017 BKN080 31/23 Q1011 A2987 HR63=METAR SLJO 281700Z 35010KT 8000 VCSH SCT017 FEW023CB BKN080 29/24Q1009 A2981 HR75 CB/SH SE/S RWY HUM OPR=METAR SLRA 281700Z 36008KT 9999 SCT017 BKN080 29/24 Q1010 A2984 HR74RWY HUM OPR=METAR SLMG 281700Z 32006KT 9999 SCT015 BKN080 29/24 Q1010 A2985 HR74METAR SLBU 281700Z 36006KT 9999 SCT015 BKN080 29/24 Q1009 A2982 HR73RWY OPR C210=METAR SLSA 281700Z 35010KT 8000 VCSH BKN017 BKN080 27/24 Q1009 A2981HR83 SH S/SW/NW=METAR SLSR 281700Z 12006KT 2000 DZ BKN004 FEW023CB OVC070 24/23Q1008 A2978 HR95 CB N/NE/E RWY WET INOP=METAR SLSM 281700Z 02006KT 3000 -RA BKN008 FEW023CB OVC070 23/23Q1011 A2986 HR100 CB E/SE/W/NW RWY WET INOP=
ZPX0521 281657@CAELT@GG SLZZYMYT@CAELT@281655 SLLPYGYZ@CAELT@SABO SLLP 281700@CAELT@METAR SLLP 281700Z 11010KT 6000 FEW004 SCT015 FEW017CB BKN070 09/07@CAELT@Q1036 A3060 626.8 HR86 P3785 VIS/RED ST/BAJOS N/NE/E CB/SH SE/NW@CAELT@NOSIG=@CAELT@
ZPX0522 281658@CAELT@GG SLZZYMYT@CAELT@281657 SLAGYSYX@CAELT@SABO SLAG 281700@CAELT@METAR SLAG 281700Z 00000KT 9999 SCT025 FEW033CB BKN200 31/19 Q1016@CAELT@A3001 888.6 HR50 CB/E AC=@CAELT@
ZPX0523 281658@CAELT@GG SLZZYMYT@CAELT@281659 SLVRYFYC@CAELT@SABO SLVR 281700@CAELT@METAR SLVR 281700Z 34009KT 9999 SCT015 BKN020 BKN200 29/23 Q1012@CAELT@A2989 HR71 NOSIG=@CAELT@METAR SLET 281700Z 31010KT 9999 BKN017 BKN200 29/23 Q1011 A2988 HR69@CAELT@AC NOSIG=@CAELT@METAR SLAS 281700Z 36010KT 9999 BKN015 FEW030CB 28/24 Q1013 A2992HR73 CB/SH/N/NE RWY HUM OPR=METAR SLCP 281700Z 34004KT 9999 BKN017 FEW027CB BKN200 27/22 Q1015A2997 HR76 CB/N RWY NML=METAR SLSI 281700Z 33005KT 9999 BKN013 OVC070 28/23 Q1012 A2988 HR72RWY NML=METAR SLTI 281700Z 00000KT 8000 VCSH BKN017 FEW030CB 29/25 Q1015A2997 HR81 CB/SH/S RESH RWY HUM OPR=METAR SLRB 281700Z NIL=METAR SLPS 281700Z 36010KT 9999 SCT017 SCT200 34/25 Q1010 A2983 HR60=METAR SLCA 281700Z 00000KT 9999 BKN033 32/18 Q1014 A2994 HR44 RWY HUMOPR=
ZPX0524 281658@CAELT@GG SLZZYMYT@CAELT@281658 SLTJYGYZ@CAELT@SABO SLTJ 281700@CAELT@METAR SLTJ 281700Z 13008KT 9999 FEW027 BKN200 28/14 Q1018 A3008 813.9@CAELT@HR43=@CAELT@
ZPX0525 281659@CAELT@GG SLZZYMYT@CAELT@281659 SLCBYGYZ@CAELT@SABO SLCB 281700@CAELT@METAR SLCB 281700Z 33005KT 8000 VCSH BKN020 OVC070 16/13 Q1026 A3030@CAELT@752.3 HR80 SH W/NW/N FU NOSIG=@CAELT@
ZPX0527 281700@CAELT@GG SLZZYMYT@CAELT@281659 SLCOYGYZ@CAELT@SABO SLCO 281700@CAELT@METAR SLCO 281700Z 27006KT 9999 FEW010 BKN015 29/24 Q1011 A2986 983.7@CAELT@HR76 AC/CI=@CAELT@
ZPX0528 281700@CAELT@GG SLZZYMYT@CAELT@281700 SLCBYGYS@CAELT@SABO SLCB 281700@CAELT@METAR SLCB 281700Z 33005KT 8000 VCSH BKN020 OVC070 16/13 Q1026 A3030@CAELT@752.3 HR80 SH W/NW/N FU NOSIG=@CAELT@METAR SLAL 281700Z 34003KT 9999 BKN017 OVC070 14/10 Q1031 A3045 704.9@CAELT@HR77=@CAELT@METAR SLPO 281700Z 06010KT 9999 SCT017 BKN200 14/06 Q1037 A3062 637.5HR62=METAR SLAG 281700Z 00000KT 9999 SCT025 FEW033CB BKN200 31/19 Q1016A3001 888.6 HR50 CB/E AC=METAR SLVM 281700Z 18005KT 9999 SCT030 36/22 Q1008 A2978 HR46 FU CI=METAR SLTJ 281700Z 13008KT 9999 FEW027 BKN200 28/14 Q1018 A3008 813.9HR43=METAR SLYA 281700Z 06010KT 9999 FEW023 35/25 Q1010 A2984 935.3 HR56=METAR SLBJ 281700Z NIL=METAR SLHI 281700Z NIL=
ZPX0529 281701@CAELT@GG SLZZYMYT@CAELT@281701 SLLPYFYA@CAELT@SABO SLLP 281700@CAELT@METAR SLLP 281700Z 11010KT 6000 FEW004 SCT015 FEW017CB BKN070 09/07@CAELT@Q1036 A3060 626.8 HR86 P3785 VIS/RED ST/BAJOS N/NE/E CB/SH SE/NW@CAELT@NOSIG=@CAELT@METAR SLCO 281700Z 27006KT 9999 FEW010 BKN015 29/24 Q1011 A2986@CAELT@983.7 HR76 AC/CI=METAR SLRY 281700Z 24003KT 5000 -DZ BKN006 BKN012 OVC070 23/23Q1007 A2976 HR97 RWY WET INOP=METAR SLRQ 281700Z 18008KT 7000 VCSH SCT006 BKN012 OVC070 25/24Q1009 A2981 HR94 SH/TODAS DIRECCIONES RERA=METAR SLAP 281700Z 00000KT 4000 -RA BKN015 OVC070 17/16 Q1017A3007 858.6 HR96=METAR SLSB 281700Z 15008KT 5000 -DZ BKN008 OVC070 25/25 Q1009 A2980HR98 RWY WET INOP=METAR SLUY 281700Z 31006KT 9999 SCT020 FEW023CB SCT070 BKN20015/04 Q1033 A3051 657.7 HR48 CB/SH N/S/SW=
ZPX0531 281704@CAELT@GG SLZZYMYT@CAELT@281702 SLRBYGYS@CAELT@SABO SLRB 281700 RRA@CAELT@METAR SLRB 281700Z 36015KT 9999 BKN020 FEW025CB 34/23 Q1013 A2991@CAELT@HR54 CB/NE RWY NML=@CAELT@
ZPX0533 281711@CAELT@GG SLZZYMYT@CAELT@281711 SLVRYFYC@CAELT@SABO SLVR 281700 RRA@CAELT@METAR SLVR 281700Z 34009KT 9999 SCT015 BKN020 BKN200 29/23 Q1012@CAELT@A2989 HR71 NOSIG=@CAELT@METAR SLET 281700Z 31010KT 9999 BKN017 BKN200 29/23 Q1011 A2988 HR69@CAELT@AC NOSIG=@CAELT@METAR SLAS 281700Z 36010KT 9999 BKN015 FEW030CB 28/24 Q1013 A2992HR73 CB/SH/N/NE RWY HUM OPR=METAR SLCP 281700Z 34004KT 9999 BKN017 FEW027CB BKN200 27/22 Q1015A2997 HR76 CB/N RWY NML=METAR SLSI 281700Z 33005KT 9999 BKN013 OVC070 28/23 Q1012 A2988 HR72RWY NML=METAR SLTI 281700Z 00000KT 8000 VCSH BKN017 FEW030CB 29/25 Q1015A2997 HR81 CB/SH/S RESH RWY HUM OPR=METAR RTD SLRB 281700Z 36015KT 9999 BKN020 FEW025CB 34/23 Q1013 A2991HR54 CB/NE RWY NML=METAR SLPS 281700Z 36010KT 9999 SCT017 SCT200 34/25 Q1010 A2983 HR60=METAR SLCA 281700Z 00000KT 9999 BKN033 32/18 Q1014 A2994 HR44 RWY HUMOPR=
ZPX0563 281752@CAELT@GG SLZZYMYT@CAELT@281751 SLPSYGYS@CAELT@SABO SLPS 281800@CAELT@METAR SLPS 281800Z 36004KT 9999 BKN017 35/25 Q1009 A2980 HR58=@CAELT@
ZPX0564 281753@CAELT@GG SLZZYMYT@CAELT@281753 SLSBYSYX@CAELT@SABO SLSB 281800@CAELT@METAR SLSB 281800Z 11005KT 3000 -RA BKN005 OVC070 25/24 Q1009 A2980@CAELT@HR96 RWY WET INOP=@CAELT@
ZPX0568 281754@CAELT@GG SLZZYMYT@CAELT@281754 SLRBYGYS@CAELT@SABO SLRB 281800@CAELT@METAR SLRB 281800Z 36015KT 9999 BKN020 FEW025CB 35/23 Q1012 A2988@CAELT@HR50 CB NE/E/SE RWY NML=@CAELT@
ZPX0569 281755@CAELT@GG SLZZYMYT@CAELT@281755 SLVRYGYZ@CAELT@SABO SLVR 281800@CAELT@METAR SLVR 281800Z 36008KT 9999 SCT015 BKN020 BKN200 30/23 Q1011@CAELT@A2986 HR69 AC NOSIG=@CAELT@
ZPX0570 281755@CAELT@GG SLZZYMYT@CAELT@281755 SLCOYGYZ@CAELT@SABO SLCO 281800@CAELT@METAR SLCO 281800Z 21006KT 9999 BKN015 BKN200 29/25 Q1010 A2980 983.1@CAELT@HR80 AC=@CAELT@
ZPX0571 281755@CAELT@GG SLZZYMYT@CAELT@281755 SLCAYGYS@CAELT@SABO SLCA 281800@CAELT@METAR SLCA 281800Z 00000KT 9999 BKN033 32/18 Q1013 A2991 HR44 RWY HUM@CAELT@OPR=@CAELT@
ZPX0572 281755@CAELT@GG SLZZYMYT@CAELT@281755 SLETYMYC@CAELT@SABO SLET 281800@CAELT@METAR SLET 281800Z 32010KT 9999 SCT017 BKN200 30/23 Q1010 A2985 HR67@CAELT@AC NOSIG=@CAELT@
ZPX0573 281755@CAELT@GG SLZZYMYT@CAELT@281755 SLAGYSYX@CAELT@SABO SLAG 281800@CAELT@METAR SLAG 281800Z 02003KT 9999 SCT025 FEW033CB SCT070 BKN200 29/18@CAELT@Q1015 A2999 887.8 HR52 CB/E=@CAELT@
ZPX0574 281755@CAELT@GG SLZZYMYT@CAELT@281755 SLSAYGYS@CAELT@SABO SLSA 281800@CAELT@METAR SLSA 281800Z 36010KT 8000 VCSH BKN017 BKN080 28/24 Q1008 A2977@CAELT@HR79 SH N/S/SW=@CAELT@
ZPX0575 281757@CAELT@GG SLZZYMYT@CAELT@281756 SLTJYGYZ@CAELT@SABO SLTJ 281800@CAELT@METAR SLTJ 281800Z 00000KT 9999 SCT036 BKN200 28/12 Q1017 A3006 813.1@CAELT@HR37=@CAELT@
ZPX0576 281757@CAELT@GG SLZZYMYT@CAELT@281755 SLLPYGYZ@CAELT@SABO SLLP 281800@CAELT@METAR SLLP 281800Z 12012KT 090V150 8000 FEW006 SCT015 FEW017CB BKN070@CAELT@11/06 Q1035 A3058 626.3 HR74 P0785 VIS/RED SC/BAJOS NE/E CB/SH N/NW@CAELT@NOSIG=@CAELT@
ZPX0578 281757@CAELT@GG SLZZYMYT@CAELT@281756 SLTRYGYZ@CAELT@SABO SLTR 281800@CAELT@METAR SLTR 281800Z 09003KT 6000 VCSH SCT015 FEW020CB BKN070@CAELT@26/24 Q1009 A2982 991.3 HR89 RESHRA CB N/S SH N/NE/E/S@CAELT@TEMP 2000 SHRA=@CAELT@
ZPX0580 281758@CAELT@GG SLZZYMYT@CAELT@281758 SLTRYGYZ@CAELT@SABO SLTR 281800 CCA@CAELT@METAR COR SLTR 281800Z 09003KT 6000 VCSH SCT015 FEW020CB BKN070@CAELT@26/24 Q1009 A2982 991.3 HR89 RESHRA CB N/S SH N/NE/E/S@CAELT@TEMPO 2000 SHRA=@CAELT@
ZPX0581 281759@CAELT@GG SLZZYMYT@CAELT@281800 SLVRYFYC@CAELT@SABO SLVR 281800@CAELT@METAR SLVR 281800Z 36008KT 9999 SCT015 BKN020 BKN200 30/23 Q1011@CAELT@A2986 HR69 AC NOSIG=@CAELT@METAR SLET 281800Z 32010KT 9999 SCT017 BKN200 30/23 Q1010 A2985 HR67@CAELT@AC NOSIG=@CAELT@METAR SLAS 281800Z 36012KT 5000 VCSH BKN015 FEW030CB 26/23 Q1013A2992 HR84 CB/SH/N/E/SE RWY HUM OPR=METAR SLJV 281800Z 36005KT 9999 BKN015 BKN200 28/23 Q1011 A2985 HR76RWY NML=METAR SLCP 281800Z 36004KT 9999 BKN017 FEW027CB BKN200 27/22 Q1014A2994 HR74 CB/NW/N RWY NML=METAR SLSI 281800Z 33005KT 9999 BKN015 BKN070 28/22 Q1012 A2988 HR72METAR SLTI 281800Z 00000KT 6000 TS VCSH BKN017 FEW030CB OVC200 25/24Q1015 A2997 HR94 CB/TS/SH SE/S/SW RERA RWY WET OPR=METAR SLJE 281800Z 36005KT 9999 BKN015 31/23 Q1013 A2991 HR62 RWY NMLMETAR SLVG 281800Z 00000KT 9999 SCT025 FEW030CB OVC070 20/15 Q1024A3024 HR74 CB/NW/W SH/NW RWY NML=METAR SLRB 281800Z 36015KT 9999 BKN020 FEW025CB 35/23 Q1012 A2988HR50 CB NE/E/SE RWY NML=METAR SLPS 281800Z 36004KT 9999 BKN017 35/25 Q1009 A2980 HR58=METAR SLCA 281800Z 00000KT 9999 BKN033 32/18 Q1013 A2991 HR44 RWY HUMOPR=
ZPX0583 281800@CAELT@GG SLZZYMYT@CAELT@281759 SLCBYGYZ@CAELT@SABO SLCB 281800@CAELT@METAR SLCB 281800Z 36004KT 5000 -RA FEW013 BKN020 OVC070 15/13 Q1025@CAELT@A3029 751.9 HR88 VIS RED SW/W/NW/N RESTO 8000 FU NOSIG=@CAELT@
ZPX0584 281801@CAELT@GG SLZZYMYT@CAELT@281801 SLLPYFYA@CAELT@SABO SLLP 281800@CAELT@METAR SLLP 281800Z 12012KT 090V150 8000 FEW006 SCT015 FEW017CB BKN070@CAELT@11/06 Q1035 A3058 626.3 HR74 P0785 VIS/RED SC/BAJOS NE/E CB/SH N/NW@CAELT@NOSIG=@CAELT@METAR SLCO 281800Z 21006KT 9999 BKN015 BKN200 29/25 Q1010 A2980@CAELT@983.1 HR80 AC=METAR SLRY 281800Z 00000KT 7000 VCSH FEW006 BKN015 OVC070 24/23Q1007 A2974 HR95 SH N/NE/NW REDZ RWY WET INOP=METAR SLRQ 281800Z 18008KT 7000 VCSH SCT006 BKN010 OVC070 25/24Q1008 A2979 984.7 HR92 SH TODAS DIRECC=METAR SLAP 281800Z 00000KT 5000 -RA BKN015 OVC070 17/17 Q1017A3005 858.3 HR95=METAR SLSB 281800Z 11005KT 3000 -RA BKN005 OVC070 25/24 Q1009A2980 HR96 RWY WET INOP=
ZPX0587 281802@CAELT@GG SLZZYMYT@CAELT@281800 SLTRYGYS@CAELT@SABO SLTR 281800@CAELT@METAR SLTR 281800Z 09003KT 6000 VCSH SCT015 FEW020CB BKN070@CAELT@26/24 Q1009 A2982 991.3 HR89 RESHRA CB N/S SH N/NE/E/S@CAELT@TEMP 2000 SHRA=@CAELT@METAR SLGM 281800Z 35016KT 9999 BKN017 FEW020CB BKN080 32/24 Q1009@CAELT@A2981 HR63 CB N/NE/E/SE=METAR SLRI 281800Z 36008KT 8000 VCSH BKN017 FEW020CB BKN200 31/23Q1010 A2985 HR62 CB/SH N/E/SW/NW=METAR SLJO 281800Z NIL=METAR SLRA 281800Z 34010KT 9999 SCT017 SCT080 30/23 Q1010 A2984 HR66CI RWY NML=METAR SLMG 281800Z 32006KT 6000 VCSH SCT017 FEW023CB BKN080 29/23Q1010 A2982 HR70 CB/SH N/NW RWY HUM OP=METAR SLBU 281800Z 32004KT 9999 SCT017 BKN080 30/24 Q1008 A2979 HR72RWY HUM OPR=METAR SLSA 281800Z 36010KT 8000 VCSH BKN017 BKN080 28/24 Q1008 A2977HR79 SH N/S/SW=METAR SLSR 281800Z 12004KT 7000 VCSH BKN004 FEW023CB OVC070 24/24A2976 HR96 REDZ CB/SH N/NE/W/NW RWY WET INOP=METAR SLSM 281800Z 02008KT 8000 VCSH SCT012 FEW023CB OVC070 26/24Q1010 A2983 HR87 RERA CB/SH SW RWY WET INOP=
ZPX0590 281804@CAELT@GG SLZZYMYT@CAELT@281804 SLCBYGYS@CAELT@SABO SLCB 281800@CAELT@METAR SLCB 281800Z 36004KT 5000 -RA FEW013 BKN020 OVC070 15/13 Q1025@CAELT@A3029 751.9 HR88 VIS RED SW/W/NW/N RESTO 8000 FU NOSIG=@CAELT@METAR SLAL 281800Z 00000KT 9999 BKN017 OVC070 15/09 Q1030 A3043 704.6@CAELT@HR71=@CAELT@METAR SLPO 281800Z NIL=METAR SLAG 281800Z 02003KT 9999 SCT025 FEW033CB SCT070 BKN200 29/18Q1015 A2999 887.8 HR52 CB/E=METAR SLVM 281800Z NIL=METAR SLTJ 281800Z 00000KT 9999 SCT036 BKN200 28/12 Q1017 A3006 813.1HR37=METAR SLYA 281800Z 06010KT 9999 FEW023 35/25 Q1009 A2982 934.8 HR56=METAR SLBJ 281800Z NIL=METAR SLHI 281800Z NIL=
ZPX0598 281824@CAELT@GG SLZZYMYT@CAELT@281823 SLTRYGYS@CAELT@SABO SLTR 281800 CCA@CAELT@METAR COR SLTR 281800Z 09003KT 6000 VCSH SCT015 FEW020CB BKN070@CAELT@26/24 Q1009 A2982 991.3 HR89 RESHRA CB N/S SH N/NE/E/S@CAELT@TEMPO 2000 SHRA=@CAELT@METAR SLGM 281800Z 35016KT 9999 BKN017 FEW020CB BKN080 32/24 Q1009@CAELT@A2981 HR63 CB N/NE/E/SE=METAR SLRI 281800Z 36008KT 8000 VCSH BKN017 FEW020CB BKN200 31/23Q1010 A2985 HR62 CB/SH N/E/SW/NW=METAR SLJO 281800Z NIL=METAR SLRA 281800Z 34010KT 9999 SCT017 SCT080 30/23 Q1010 A2984 HR66CI RWY NML=METAR SLMG 281800Z 32006KT 6000 VCSH SCT017 FEW023CB BKN080 29/23Q1010 A2982 HR70 CB/SH N/NW RWY HUM OP=METAR SLBU 281800Z 32004KT 9999 SCT017 BKN080 30/24 Q1008 A2979 HR72RWY HUM OPR=METAR SLSA 281800Z 36010KT 8000 VCSH BKN017 BKN080 28/24 Q1008 A2977HR79 SH N/S/SW=METAR SLSR 281800Z 12004KT 7000 VCSH BKN004 FEW023CB OVC070 24/24A2976 HR96 REDZ CB/SH N/NE/W/NW RWY WET INOP=METAR SLSM 281800Z 02008KT 8000 VCSH SCT012 FEW023CB OVC070 26/24Q1010 A2983 HR87 RERA CB/SH SW RWY WET INOP=
ZPX0613 281852@CAELT@GG SLZZYMYT@CAELT@281851 SLPSYGYS@CAELT@SABO SLPS 281900@CAELT@METAR SLPS 281900Z 09006KT 9999 BKN017 35/25 Q1007 A2974 HR56=@CAELT@
ZPX0616 281854@CAELT@GG SLZZYMYT@CAELT@281855 SLCOYGYZ@CAELT@SABO SLCO 281900@CAELT@METAR SLCO 281900Z 25008KT 9999 SCT017 BKN200 30/24 Q1009 A2981 982.2@CAELT@HR73=@CAELT@
ZPX0617 281854@CAELT@GG SLZZYMYT@CAELT@281854 SLSAYGYS@CAELT@SABO SLSA 281900@CAELT@METAR SLSA 281900Z 33010KT 8000 VCSH SCT017 FEW023CB SCT080 29/24@CAELT@Q1007 A2975 HR75 RESHRA CB/SH E/SE=@CAELT@
ZPX0618 281855@CAELT@GG SLZZYMYT@CAELT@281855 SLTJYGYZ@CAELT@SABO SLTJ 281900@CAELT@METAR SLTJ 281900Z 13010KT 9999 SCT036 BKN200 28/13 Q1017 A3003 812.5@CAELT@HR38=@CAELT@
ZPX0619 281855@CAELT@GG SLZZYMYT@CAELT@281854 SLRBYGYS@CAELT@SABO SLRB 281900@CAELT@METAR SLRB 281900Z 36015KT 9999 BKN020 FEW025CB 35/23 Q1011 A2985@CAELT@HR49 CB NE/E/SE RWY NML=@CAELT@
ZPX0621 281855@CAELT@GG SLZZYMYT@CAELT@281855 SLORYGYZ@CAELT@SABO SLOR 281900@CAELT@METAR SLOR 281900Z 08015KT 9999 SCT020 FEW023CB BKN070 19/07 Q1032@CAELT@A3050 654.4 HR45 CB/SH E=@CAELT@
ZPX0622 281856@CAELT@GG SLZZYMYT@CAELT@281855 SLSBYSYX@CAELT@SABO SLSB 281900@CAELT@METAR SLSB 281900Z 11010KT 6000 -DZ BKN010 OVC070 25/24 Q1008 A2979@CAELT@HR96 RWY WET INOP=@CAELT@
ZPX0623 281856@CAELT@GG SLZZYMYT@CAELT@281855 SLLPYGYZ@CAELT@SABO SLLP 281900@CAELT@METAR SLLP 281900Z 10012KT 070V130 8000 VCSH FEW006 SCT015 FEW017CB@CAELT@BKN070 10/05 Q1034 A3056 625.9 HR72 P3487 CB/SH N/NE/E/W/NW NOSIG=@CAELT@
ZPX0624 281856@CAELT@GG SLZZYMYT@CAELT@281856 SLETYMYC@CAELT@SABO SLET 281900@CAELT@METAR SLET 281900Z 31010KT 9999 SCT017 FEW030CB BKN200 30/23 Q1009@CAELT@A2981 HR63 CB SW AC NOSIG=@CAELT@
ZPX0625 281857@CAELT@GG SLZZYMYT@CAELT@281857 SLVRYGYZ@CAELT@SABO SLVR 281900@CAELT@METAR SLVR 281900Z 36008KT 9999 FEW015 BKN023 FEW030CB BKN200 30/23@CAELT@Q1010 A2984 HR69 CB W NOSIG=@CAELT@
ZPX0627 281857@CAELT@GG SLZZYMYT@CAELT@281856 SLTRYGYZ@CAELT@SABO SLTR 281900@CAELT@METAR SLTR 281900Z 36009KT 5000 -RA SCT015 FEW020CB BKN070 23/23@CAELT@Q1009 A2981 990.9 HR98 CB N/E/SE/S TEMPO 1000=@CAELT@
ZPX0628 281857@CAELT@GG SLZZYMYT@CAELT@281857 SLCAYGYS@CAELT@SABO SLCA 281900@CAELT@METAR SLCA 281900Z 00000KT 9999 SCT033 33/18 Q1013 A2991 HR40 RWY HUM@CAELT@OPR=@CAELT@
ZPX0629 281858@CAELT@GG SLZZYMYT@CAELT@281858 SLCBYGYZ@CAELT@SABO SLCB 281900@CAELT@METAR SLCB 281900Z 24003KT 6000 -RA FEW010 BKN020 OVC070 15/13 Q1024@CAELT@A3027 751.3 HR86 SC BAJOS SW/W/NW/N/NE NOSIG=@CAELT@
ZPX0630 281858@CAELT@GG SLZZYMYT@CAELT@281858 SLLPYFYA@CAELT@SABO SLLP 281900@CAELT@METAR SLLP 281900Z 10012KT 070V130 8000 VCSH FEW006 SCT015 FEW017CB@CAELT@BKN070 10/05 Q1034 A3056 625.9 HR72 P3487 CB/SH N/NE/E/W/NW NOSIG=@CAELT@METAR SLCO 281900Z 25008KT 9999 SCT017 BKN200 30/24 Q1009 A2981@CAELT@982.2 HR73=@CAELT@METAR SLRY 281900Z 00000KT 8000 VCSH FEW006 BKN015 OVC070 25/23Q1006 A2973 HR89 SH E/N/SE RWY WET INOP=METAR SLRQ 281900Z 18006KT 5000 -DZ SCT006 BKN010 OVC070 25/24Q1008 A2978 984.3 HR94=METAR SLSB 281900Z 11010KT 6000 -DZ BKN010 OVC070 25/24 Q1008A2979 HR96 RWY WET INOP=METAR SLOR 281900Z 08015KT 9999 SCT020 FEW023CB BKN070 19/07Q1032 A3050 654.4 HR45 CB/SH E=
ZPX0631 281859@CAELT@GG SLZZYMYT@CAELT@281900 SLVRYFYC@CAELT@SABO SLVR 281900@CAELT@METAR SLVR 281900Z 36008KT 9999 FEW015 BKN023 FEW030CB BKN200 30/23@CAELT@Q1010 A2984 HR69 CB W NOSIG=@CAELT@METAR SLET 281900Z 31010KT 9999 SCT017 FEW030CB BKN200 30/23 Q1009@CAELT@A2981 HR63 CB SW AC NOSIG=@CAELT@METAR SLAS 281900Z 00000KT 9999 BKN015 FEW030CB BKN200 28/25 Q1012A2989 HR85 CB/SH/E/SE/S RWY HUM OPR=METAR SLJV 281900Z 36005KT 9999 BKN017 BKN200 29/23 Q1010 A2983 HR73RWY NML=METAR SLCP 281900Z 35004KT 9999 BKN017 FEW030CB BKN200 27/22 Q1013A2991 HR74 CB/SW/NW RWY NML=METAR SLSI 281900ZMETAR SLTI 281900Z 00000KT 9999 BKN020 OVC200 26/25 Q1013 A2991 HR92RETS RWY WET OPR=METAR SLJE 281900Z 36006KT 9999 BKN017 31/23 Q1012 A2988 HR63 RWY NMLMETAR SLVG 281900Z 00000KT 9999 SCT025 FEW030CB OVC070 22/14 Q1023A3021 HR57 CB/NW/SW SH/NW RWY NML=METAR SLRB 281900Z 36015KT 9999 BKN020 FEW025CB 35/23 Q1011 A2985HR49 CB NE/E/SE RWY NML=METAR SLPS 281900Z 09006KT 9999 BKN017 35/25 Q1007 A2974 HR56=METAR SLCA 281900Z 00000KT 9999 SCT033 33/18 Q1013 A2991 HR40 RWY HUMOPR=
ZPX0633 281900@CAELT@GG SLZZYMYT@CAELT@281900 SLTRYGYS@CAELT@SABO SLTR 281900@CAELT@METAR SLTR 281900Z 36009KT 5000 -RA SCT015 FEW020CB BKN070 23/23@CAELT@Q1009 A2981 990.9 HR98 CB N/E/SE/S TEMPO 1000=@CAELT@METAR SLGM 281900Z 02016KT 8000 VCSH BKN017 FEW020CB BKN200 30/25@CAELT@Q1008 A2973 AC CB/SH N/NE/E=@CAELT@METAR SLRI 281900Z 36008KT 8000 VCSH SCT017 FEW020CB BKN200 32/23Q1009 A2982 HR61 CB/SH E/SE/S/NW=METAR SLJO 281900Z NIL=METAR SLRA 281900Z 35010KT 9999 SCT017 SCT200 30/23 Q1009 A2981 HR68AC RWY NML=METAR SLMG 281900Z 32004KT 6000 VCSH FEW017 FEW023CB BKN080 28/25Q1009 A2980 HR81 RESHRA CB NE/SE/S SH SE/S RWY HUM OPR=METAR SLBU 281900Z 32004KT 9999 SCT017 BKN200 30/25 Q1007 A2976 HR71RWY HUM OPR=METAR SLSA 281900Z 33010KT 8000 VCSH SCT017 FEW023CB SCT080 29/24Q1007 A2975 HR75 RESHRA CB/SH E/SE=METAR SLSR 281900Z 00000KT 7000 VCSH FEW004 SCT010 FEW023CB OVC07026/24 Q1007 A2974 HR93 CB/SH N/NE/E/NW RWY WET INOP=METAR SLSM 281900Z 02006KT 9999 FEW015 SCT080 BKN200 27/24 Q1009A2980 HR82 RWY WET INOP=
ZPX0634 281900@CAELT@GG SLZZYMYT@CAELT@281901 SLVRYFYC@CAELT@SABO SLVR 281900@CAELT@METAR SLVR 281900Z 36008KT 9999 FEW015 BKN023 FEW030CB BKN200 30/23@CAELT@Q1010 A2984 HR69 CB W NOSIG=@CAELT@METAR SLET 281900Z 31010KT 9999 SCT017 FEW030CB BKN200 30/23 Q1009@CAELT@A2981 HR63 CB SW AC NOSIG=@CAELT@METAR SLAS 281900Z 00000KT 9999 BKN015 FEW030CB BKN200 28/25 Q1012A2989 HR85 CB/SH/E/SE/S RWY HUM OPR=METAR SLJV 281900Z 36005KT 9999 BKN017 BKN200 29/23 Q1010 A2983 HR73RWY NML=METAR SLCP 281900Z 35004KT 9999 BKN017 FEW030CB BKN200 27/22 Q1013A2991 HR74 CB/SW/NW RWY NML=METAR SLSI 281900Z 33006KT 9999 BKN015 BKN070 28/22 Q1010 A2983 HR71METAR SLTI 281900Z 00000KT 9999 BKN020 OVC200 26/25 Q1013 A2991 HR92RETS RWY WET OPR=METAR SLJE 281900Z 36006KT 9999 BKN017 31/23 Q1012 A2988 HR63 RWY NMLMETAR SLVG 281900Z 00000KT 9999 SCT025 FEW030CB OVC070 22/14 Q1023A3021 HR57 CB/NW/SW SH/NW RWY NML=METAR SLRB 281900Z 36015KT 9999 BKN020 FEW025CB 35/23 Q1011 A2985HR49 CB NE/E/SE RWY NML=METAR SLPS 281900Z 09006KT 9999 BKN017 35/25 Q1007 A2974 HR56=METAR SLCA 281900Z 00000KT 9999 SCT033 33/18 Q1013 A2991 HR40 RWY HUMOPR=
ZPX0638 281903@CAELT@GG SLZZYMYT@CAELT@281903 SLCBYGYS@CAELT@SABO SLCB 281900@CAELT@METAR SLCB 281900Z 24003KT 6000 -RA FEW010 BKN020 OVC070 15/13 Q1024@CAELT@A3027 751.3 HR86 SC BAJOS SW/W/NW/N/NE NOSIG=@CAELT@METAR SLAL 281900Z 02008KT 9999 SCT017 SCT070 BKN200 14/10 Q1029@CAELT@A3040 703.9 HR75=@CAELT@METAR SLPO 281900Z NIL=METAR SLAG 281900Z NIL=METAR SLVM 281900Z NIL=METAR SLTJ 281900Z 13010KT 9999 SCT036 BKN200 28/13 Q1017 A3003 812.5HR38=METAR SLYA 281900Z NIL=METAR SLBJ 281900Z NIL=METAR SLHI 281900Z NIL=
ZPX0668 281951@CAELT@GG SLZZYMYT@CAELT@281951 SLPSYGYS@CAELT@SABO SLPS 282000@CAELT@METAR SLPS 282000Z 36004KT 9999 BKN017 FEW030CB 34/25 Q1006 A2971@CAELT@HR60 CB/W=@CAELT@
ZPX0669 281954@CAELT@GG SLZZYMYT@CAELT@281954 SLCBYGYZ@CAELT@SABO SLCB 282000@CAELT@METAR SLCB 282000Z 33003KT 6000 -RA SCT010 BKN020 OVC070 15/13 Q1024@CAELT@A3025 750.9 HR86 SC BAJOS TODAS DIRECC NOSIG=@CAELT@
ZPX0670 281954@CAELT@GG SLZZYMYT@CAELT@281954 SLSBYSYX@CAELT@SABO SLSB 282000@CAELT@METAR SLSB 282000Z 14003KT 4000 -RA BKN005 OVC070 24/24 Q1008 A2977@CAELT@HR97 RWY WET INOP=@CAELT@
ZPX0671 281955@CAELT@GG SLZZYMYT@CAELT@281955 SLSAYGYS@CAELT@SABO SLSA 282000@CAELT@METAR SLSA 282000Z 34007KT 8000 VCSH SCT017 FEW023CB SCT080 29/24@CAELT@Q1006 A2973 HR75 CB/SH N/E=@CAELT@
ZPX0672 281955@CAELT@GG SLZZYMYT@CAELT@281955 SLETYMYC@CAELT@SABO SLET 282000@CAELT@METAR SLET 282000Z 31008KT 9999 BKN017 FEW030CB BKN200 29/24 Q1008@CAELT@A2979 HR71 CB SW NOSIG=@CAELT@
ZPX0673 281956@CAELT@GG SLZZYMYT@CAELT@281955 SLCOYGYZ@CAELT@SABO SLCO 282000@CAELT@METAR SLCO 282000Z 24008KT 9999 FEW020 FEW023CB BKN200 30/25 Q1008@CAELT@A2978 981.0 HR71 CB/NE AC=@CAELT@
ZPX0674 281956@CAELT@GG SLZZYMYT@CAELT@281955 SLTJYGYZ@CAELT@SABO SLTJ 282000@CAELT@METAR SLTJ 282000Z 12010KT 9999 SCT036 FEW040CB BKN200 27/14 Q1016@CAELT@A3001 811.7 HR43 CB/S/SW/W SH/S/SW=@CAELT@
ZPX0675 281956@CAELT@GG SLZZYMYT@CAELT@281957 SLVRYGYZ@CAELT@SABO SLVR 282000@CAELT@METAR SLVR 282000Z 35008KT 9999 FEW015 SCT020 FEW030CB BKN200 30/23@CAELT@Q1009 A2980 HR69 CB SW NOSIG=@CAELT@
ZPX0677 281957@CAELT@GG SLZZYMYT@CAELT@281956 SLLPYGYZ@CAELT@SABO SLLP 282000@CAELT@METAR SLLP 282000Z 10015KT 9999 SCT015 FEW017CB BKN070 10/05 Q1034@CAELT@A3054 625.4 HR68 P97// CB/SH N/NE/E/SE/NW NOSIG=@CAELT@
ZPX0678 281957@CAELT@GG SLZZYMYT@CAELT@281956 SLRBYGYS@CAELT@SABO SLRB 282000@CAELT@METAR SLRB 282000Z 36015KT 9999 BKN020 FEW025CB 35/23 Q1010 A2983@CAELT@HR49 CB N/NW/W RWY NML=@CAELT@
ZPX0679 281957@CAELT@GG SLZZYMYT@CAELT@281956 SLTRYGYZ@CAELT@SABO SLTR 282000@CAELT@METAR SLTR 282000Z 03003KT 7000 VCSH SCT015 FEW020CB SCT070 BKN200 26@CAELT@/25 Q1008 A2977 989.8 HR94 RERA CB/SH SE/S/NW TEMPO 2000 SHRA=@CAELT@
ZPX0681 281957@CAELT@GG SLZZYMYT@CAELT@281957 SLORYGYZ@CAELT@SABO SLOR 282000@CAELT@METAR SLOR 282000Z 10010KT 9999 SCT020 FEW023CB BKN070 15/08 Q1032@CAELT@A3049 654.2 HR64 CB/SH N CI=@CAELT@
ZPX0682 281958@CAELT@GG SLZZYMYT@CAELT@281958 SLTRYGYS@CAELT@SABO SLTR 282000@CAELT@METAR SLTR 282000Z 03003KT 7000 VCSH SCT015 FEW020CB SCT070 BKN200@CAELT@26/25 Q1008 A2977 989.8 HR94 RERA CB/SH SE/S/NW TEMPO 2000 SHRA=@CAELT@METAR SLGM 282000Z 02016KT 8000 VCSH SCT017 FEW020CB BKN200 29/24@CAELT@Q1008 A2978 HR79 RESHRA CB N/NE/E/SE SHE=@CAELT@METAR SLRI 282000Z 32006KT 8000 VCSH SCT017 FEW020CB BKN200 30/23Q1008 A2979 HR65 CB/SH E/SW/NW=METAR SLJO 282000Z NIL=METAR SLRA 282000Z 34008KT 9999 FEW017 FEW020CB SCT200 31/23 Q1008A2977 HR61 CB/SH N RWY NML=METAR SLMG 282000Z 34008KT 8000 8000 VCSH FEW017 FEW023CB BKN08029/24 Q1008 A2979 HR76 CB/SH N/NE/E RWY HUM OPR=METAR SLBU 282000Z 32004KT 9999 SCT017 BKN080 30/24 Q1007 A2974HR71 RWY HUM OPR=METAR SLSR 282000Z 00000KT 7000 VCSH BKN010 FEW023CB OVC070 26/24Q1007 A2974 HR90 CB/SH N/NE/E/NW RWY WET INOP=METAR SLSM 282000Z 02006KT 8000 VCSH SCT015 FEW023CB BKN200 28/24Q1008 A2977 HR78 CB/SH N/NE/E/NW RWY WET INOP=
ZPX0686 282001@CAELT@GG SLZZYMYT@CAELT@282001 SLCBYGYS@CAELT@SABO SLCB 282000@CAELT@METAR SLCB 282000Z 33003KT 6000 -RA SCT010 BKN020 OVC070 15/13 Q1024@CAELT@A3025 750.9 HR86 SC BAJOS TODAS DIRECC NOSIG=@CAELT@METAR SLAL 282000Z 00000KT 9999 FEW017 BKN200 14/10 Q1028 A3037 703.2@CAELT@HR74 AC=@CAELT@METAR SLPO 282000Z NIL=METAR SLAG 282000Z NIL=METAR SLVM 282000Z NIL=METAR SLTJ 282000Z 12010KT 9999 SCT036 FEW040CB BKN200 27/14 Q1016A3001 811.7 HR43 CB/S/SW/W SH/S/SW=METAR SLYA 282000Z NIL=METAR SLBJ 282000Z NIL=METAR SLHI 282000Z NIL=
ZPX0687 282001@CAELT@GG SLZZYMYT@CAELT@282000 SLVRYFYC@CAELT@SABO SLVR 282000@CAELT@METAR SLVR 282000Z 35008KT 9999 FEW015 SCT020 FEW030CB BKN200 30/23@CAELT@Q1009 A2980 HR69 CB SW NOSIG=@CAELT@METAR SLET 282000Z 31008KT 9999 BKN017 FEW030CB BKN200 29/24 Q1008@CAELT@A2979 HR71 CB SW NOSIG=@CAELT@METAR SLAS 282000Z 00000KT 9999 BKN015 FEW030CB OVC200 28/23 Q1011A2986 HR72 CB/SH/SE RWY HUM OPR=METAR SLJV 282000Z 36008KT 9999 BKN017 FEW030CB BKN200 29/23 Q1009A2980 HR72 CB/NE/E RWY NML=METAR SLCP 282000Z 34006KT 9999 SCT020 FEW030CB BKN200 27/21 Q1012A2988 HR70 CB/NW RWY NML=METAR SLSI 282000Z 33006KT 9999 SCT017 BKN200 29/23 Q1010 A2983 HR70RWY NML=METAR SLTI 282000Z 00000KT 9999 FEW020 SCT070 BKN200 26/25 Q1012A2988 HR93 RWY HUM OPR=METAR SLJE 282000Z 36006KT 9999 BKN017 31/23 Q1011 A2985 HR63 RWY NMLMETAR SLVG 282000Z 00000KT 9999 SCT025 FEW030CB BKN070 21/15 Q1022A3018 HR60 CB/ON STN/E RWY NML=METAR SLRB 282000Z 36015KT 9999 BKN020 FEW025CB 35/23 Q1010 A2983HR49 CB N/NW/W RWY NML=METAR SLPS 282000Z 36004KT 9999 BKN017 FEW030CB 34/25 Q1006 A2971HR60 CB/W=METAR SLCA 282000Z 00000KT 9999 BKN033 32/19 Q1011 A2985 HR47 RWY HUMOPR=
ZPX0691 282005@CAELT@GG SLZZYMYT@CAELT@282005 SLLPYFYA@CAELT@SABO SLLP 282000@CAELT@METAR SLLP 282000Z 10015KT 9999 SCT015 FEW017CB BKN070 10/05 Q1034@CAELT@A3054 625.4 HR68 P97// CB/SH N/NE/E/SE/NW NOSIG=@CAELT@METAR SLCO 282000Z 24008KT 9999 FEW020 FEW023CB BKN200 30/25 Q1008@CAELT@A2978 981.0 HR71 CB/NE AC=@CAELT@METAR SLRY 282000Z 00000KT 2000 -RA SCT006 BKN015 OVC070 24/23 Q1006A2972 HR94 RWY WET INOP=METAR SLRQ 282000Z 18010KT 4000 -RA BKN010 OVC070 24/24 Q1007 A2974983.2 HR98=METAR SLSB 282000Z 14003KT 4000 -RA BKN005 OVC070 24/24 Q1008 A2977HR97 RWY WET INOP=METAR SLOR 282000Z 10010KT 9999 SCT020 FEW023CB BKN070 15/08 Q1032A3049 654.2 HR64 CB/SH N CI=
ZPX0718 282052@CAELT@GG SLZZYMYT@CAELT@282051 SLCAYGYS@CAELT@SABO SLCA 282100@CAELT@METAR SLCA 282100Z 00000KT 9999 BKN033 31/20 Q1011 A2985 HR51 RWY NML@CAELT@
ZPX0720 282053@CAELT@GG SLZZYMYT@CAELT@282052 SLPSYGYS@CAELT@SABO SLPS 282100@CAELT@METAR SLPS 282100Z 36004KT 9999 SCT017 FEW030CB 34/26 Q1006 A2971@CAELT@HR62 CB/N=@CAELT@
ZPX0721 282054@CAELT@GG SLZZYMYT@CAELT@282054 SLSBYSYX@CAELT@SABO SLSB 282100@CAELT@METAR SLSB 282100Z 12005KT 7000 -DZ BKN005 OVC070 24/24 Q1007 A2976@CAELT@HR96 RWY WET INOP=@CAELT@
ZPX0722 282054@CAELT@GG SLZZYMYT@CAELT@282054 SLSAYGYS@CAELT@SABO SLSA 282100@CAELT@METAR SLSA 282100Z 33006KT 7000 VCSH SCT017 FEW023CB BKN200 29/24@CAELT@Q1006 A2972 HR73 CB/SH S/W/NW=@CAELT@
ZPX0723 282055@CAELT@GG SLZZYMYT@CAELT@282054 SLETYMYC@CAELT@SABO SLET 282100@CAELT@METAR SLET 282100Z 30008KT 9999 SCT017 FEW030CB BKN200 28/23 Q1008@CAELT@A2978 HR74 CB SW/NW NOSIG=@CAELT@
ZPX0724 282055@CAELT@GG SLZZYMYT@CAELT@282055 SLTJYGYZ@CAELT@SABO SLTJ 282100@CAELT@METAR SLTJ 282100Z 12010KT 9999 FEW036 FEW040CB BKN200 25/15 Q1016@CAELT@A3001 811.8 HR52 CB SW AC=@CAELT@
ZPX0725 282055@CAELT@GG SLZZYMYT@CAELT@282055 SLCOYGYZ@CAELT@SABO SLCO 282100@CAELT@METAR SLCO 282100Z 24008KT 9999 FEW020 FEW023CB BKN200 29/23 Q1007@CAELT@A2975 980.2 HR71 CB/N/NE AC=@CAELT@
ZPX0728 282055@CAELT@GG SLZZYMYT@CAELT@282055 SLTRYGYZ@CAELT@SABO SLTR 282100@CAELT@METAR SLTR 282100Z 27008KT 5000 VCSH SCT015 FEW020CB SCT070 BKN200 25@CAELT@/24 Q1008 A2977 989.5 HR90 C/SH SE/S/SW/W TEMPO SHRA=@CAELT@
ZPX0729 282056@CAELT@GG SLZZYMYT@CAELT@282056 SLVRYGYZ@CAELT@SABO SLVR 282100@CAELT@METAR SLVR 282100Z 34009KT 9999 SCT017 FEW030CB BKN200 29/23 Q1008@CAELT@A2979 HR70 CB W NOSIG=@CAELT@
ZPX0730 282056@CAELT@GG SLZZYMYT@CAELT@282055 SLORYGYZ@CAELT@SABO SLOR 282100@CAELT@METAR SLOR 282100Z 06015KT 9999 SCT020 FEW023CB BKN070 14/08 Q1032@CAELT@A3049 654.1 HR64 CB/SH N/NW CI=@CAELT@
ZPX0731 282057@CAELT@GG SLZZYMYT@CAELT@282056 SLRBYGYS@CAELT@SABO SLRB 282100@CAELT@METAR SLRB 282100Z 36010KT 9999 SCT020 FEW025CB 32/24 Q1010 A2983@CAELT@HR60 CB NW/W/SW RWY NML=@CAELT@
ZPX0733 282058@CAELT@GG SLZZYMYT@CAELT@282058 SLLPYGYZ@CAELT@SABO SLLP 282100@CAELT@METAR SLLP 282100Z 09011KT 050V110 9999 SCT015 FEW017CB BKN070 10/04@CAELT@Q1034 A3054 625.4 HR70 P97// CB/SH N/NE/E/SE/NW NOSIG=@CAELT@
ZPX0734 282058@CAELT@GG SLZZYMYT@CAELT@282059 SLVRYFYC@CAELT@SABO SLVR 282100@CAELT@METAR SLVR 282100Z 34009KT 9999 SCT017 FEW030CB BKN200 29/23 Q1008@CAELT@A2979 HR70 CB W NOSIG=@CAELT@METAR SLET 282100Z 30008KT 9999 SCT017 FEW030CB BKN200 28/23 Q1008@CAELT@A2978 HR74 CB SW/NW NOSIG=@CAELT@METAR SLAS 282100Z 34004KT 9999 BKN015 OVC200 28/22 Q1010 A2983 HR72RWY NML=METAR SLJV 282100Z 36005KT 9999 SCT017 BKN200 25/22 Q1009 A2980 HR88METAR SLCP 282100Z 0000KT 9999 SCT020 FEW030CB BKN200 26/23 Q1012A2988 HR82 CB/NW RWY NML=METAR SLSI 282100Z 00000KT 9999 SCT017 BKN200 28/23 Q1009 A2980 HR72METAR SLTI 282100Z 00000KT 9999 FEW020 BKN200 27/25 Q1012 A2988 HR90RWY HUM OPR=METAR SLJE 282100Z 36005KT 9999 SCT017 30/23 Q1011 A2985 HR65 RWY NMLMETAR SLVG 282100Z KT 9999 SCT025 FEW030CB BKN200 21/15 Q1022 A3018HR71 CB/ON STN/E/SE/W RWY NML=METAR SLRB 282100Z 36010KT 9999 SCT020 FEW025CB 32/24 Q1010 A2983HR60 CB NW/W/SW RWY NML=METAR SLPS 282100Z 36004KT 9999 SCT017 FEW030CB 34/26 Q1006 A2971HR62 CB/N=METAR SLCA 282100Z 00000KT 9999 BKN033 31/20 Q1011 A2985 HR51 RWY NML
ZPX0736 282059@CAELT@GG SLZZYMYT@CAELT@282055 SLCBYGYZ@CAELT@SABO SLCB@CAELT@SABO SLCB 282100@CAELT@METAR SLCB 282100Z 30003KT 6000 -RA SCT010 BKN020 OVC070 15/14 Q1024@CAELT@A3024 750.6 HR94 SC BAJOS TODAS DIRECC NOSIG=@CAELT@
ZPX0737 282059@CAELT@GG SLZZYMYT@CAELT@282059 SLLPYFYA@CAELT@SABO SLLP 282100@CAELT@METAR SLLP 282100Z 09011KT 050V110 9999 SCT015 FEW017CB BKN070 10/04@CAELT@Q1034 A3054 625.4 HR70 P97// CB/SH N/NE/E/SE/NW NOSIG=@CAELT@METAR SLCO 282100Z 24008KT 9999 FEW020 FEW023CB BKN200 29/23 Q1007@CAELT@A2975 980.2 HR71 CB/N/NE AC=@CAELT@METAR SLRY 282100Z 00000KT 1500 -RA BKN005 BKN012 OVC070 23/23 Q1005A2969 HR97 RWY WET INOP=METAR SLRQ 282100Z 18006KT 4000 -RA BKN008 OVC070 24/24 Q1007 A2974983.0 HR98=METAR SLSB 282100Z 12005KT 7000 -DZ BKN005 OVC070 24/24 Q1007 A2976HR96 RWY WET INOP=METAR SLOR 282100Z 06015KT 9999 SCT020 FEW023CB BKN070 14/08 Q1032A3049 654.1 HR64 CB/SH N/NW CI=
ZPX0739 282100@CAELT@GG SLZZYMYT@CAELT@282100 SLTRYGYS@CAELT@SABO SLTR 282100@CAELT@METAR SLTR 282100Z 27008KT 5000 VCSH SCT015 FEW020CB SCT070 BKN200@CAELT@25/24 Q1008 A2977 989.5 HR90 C/SH SE/S/SW/W TEMPO SHRA=@CAELT@METAR SLGM 282100Z 02018KT 8000 VCSH SCT017 FEW020CB BKN200 30/25@CAELT@Q1007 A2976 HR73 CB/SH NE/E/SE/SW=@CAELT@METAR SLRI 282100Z 36006KT 8000 VCSH SCT017 FEW020CB BKN200 31/23Q1008 A2977 HR62 CB/SH N/NW=METAR SLJO 282100Z NIL=METAR SLRA 282100Z 36007KT 8000 VCSH FEW017 FEW020CB BKN200 31/23Q1008 A2977 HR64 CB/SH E RWY NML=METAR SLMG 282100Z 00000KT 8000 VCSH FEW017 FEW023CB SCT080 BKN20028/24 Q1008 A2977 HR78 CB/SH N/NE/E/NW RWY HUM OPR=METAR SLBU 282100Z 00000KT 9999 FEW017 SCT080 BKN200 27/24 Q1006A2971 HR81 RWY HUM OPR=METAR SLSA 282100Z 33006KT 7000 VCSH SCT017 FEW023CB BKN200 29/24Q1006 A2972 HR73 CB/SH S/W/NW=METAR SLSR 282100Z 24006KT 7000 VCSH BKN010 FEW023CB OVC070 26/24Q1006 A2973 HR89 CB/SH N/NE/E/SE RWY WET INOP=METAR SLSM 282100Z 36004KT 8000 VCSH SCT015 FEW023CB OVC070 26/24Q1007 A2976 HR87 CB/SH N/NE/W/NW RWY OPR C337=
ZPX0740 282100@CAELT@GG SLZZYMYT@CAELT@282100 SLCBYGYS@CAELT@SABO SLCB 282100@CAELT@METAR SLCB 282100Z 30003KT 6000 -RA SCT010 BKN020 OVC070 15/14 Q1024@CAELT@A3024 750.6 HR94 SC BAJOS TODAS DIRECC NOSIG=@CAELT@METAR SLAL 282100Z 01009KT 9999 FEW017 BKN200 15/10 Q1028 A3036 702.9@CAELT@HR71=@CAELT@METAR SLPO 282100Z NIL=METAR SLAG 282100Z NIL=METAR SLVM 282100Z NIL=METAR SLTJ 282100Z 12010KT 9999 FEW036 FEW040CB BKN200 25/15 Q1016A3001 811.8 HR52 CB SW AC=METAR SLYA 282100Z NIL=METAR SLBJ 282100Z NIL=METAR SLHI 282100Z NIL=
ZPX0762 282153@CAELT@GG SLZZYMYT@CAELT@282152 SLPSYGYS@CAELT@SABO SLPS 282200@CAELT@METAR SLPS 282200Z 00000KT 9999 SCT017 FEW030CB BKN200 33/27 Q1006@CAELT@A2971 HR70 CB/N=@CAELT@
ZPX0763 282153@CAELT@GG SLZZYMYT@CAELT@282152 SLRBYGYS@CAELT@SABO SLRB 282200@CAELT@METAR SLRB 282200Z 36008KT 9999 FEW020 FEW025CB 31/24 Q1010 A2983@CAELT@HR65 CB ON STN/N/NW RWY NML=@CAELT@
ZPX0764 282154@CAELT@GG SLZZYMYT@CAELT@282154 SLSBYSYX@CAELT@SABO SLSB 282200@CAELT@METAR SLSB 282200Z 13004KT 7000 VCSH SCT012 BKN017 OVC070 24/24 Q1007@CAELT@A2976 HR96 REDZ SH/N NE E SE S RWY WET INOP=@CAELT@
ZPX0765 282154@CAELT@GG SLZZYMYT@CAELT@282154 SLCAYGYS@CAELT@SABO SLCA 282200@CAELT@METAR SLCA 282200Z 00000KT 9999 BKN033 30/22 Q1011 A2985 HR62 RWY HUM@CAELT@OPR=@CAELT@
ZPX0766 282154@CAELT@GG SLZZYMYT@CAELT@282154 SLETYMYC@CAELT@SABO SLET 282200@CAELT@METAR SLET 282200Z 32008KT 9999 SCT017 FEW027TCU BKN200 28/24 Q1008@CAELT@A2979 HR78 TCU NW NOSIG=@CAELT@
ZPX0767 282154@CAELT@GG SLZZYMYT@CAELT@282155 SLLPYFYA@CAELT@SABO SLRY 282200@CAELT@METAR SLRY 282200Z 18003KT 2000 -RA BKN005 OVC070 23/23 Q1005 A2969@CAELT@HR98 RWY WET INOP=@CAELT@
ZPX0768 282155@CAELT@GG SLZZYMYT@CAELT@282155 SLVRYGYZ@CAELT@SABO SLVR 282200@CAELT@METAR SLVR 282200Z 33009KT 9999 FEW017 BKN200 27/22 Q1009 A2980 HR74@CAELT@AC NOSIG=@CAELT@
ZPX0769 282156@CAELT@GG SLZZYMYT@CAELT@282156 SLTRYGYZ@CAELT@SABO SLTR 282200@CAELT@METAR SLTR 282200Z 00000KT 8000 VCSH FEW015 FEW020CB BKN070 BKN200@CAELT@25/23 Q1008 A2977 989.5 HR93 CB/SH SE/W/NW NOSIG=@CAELT@
ZPX0770 282156@CAELT@GG SLZZYMYT@CAELT@282157 SLVRYFYC@CAELT@SABO SLVR 282200@CAELT@METAR SLVR 282200Z 33009KT 9999 FEW017 BKN200 27/22 Q1009 A2980 HR74@CAELT@AC NOSIG=@CAELT@METAR SLET 282200Z 32008KT 9999 SCT017 FEW027TCU BKN200 28/24 Q1008@CAELT@A2979 HR78 TCU NW NOSIG=@CAELT@METAR SLAS 282200Z 34004KT 9999 FEW015 SCT070 BKN200 28/22 Q1010A2983 HR72 RWY NML=METAR SLJV 282200Z 36005KT 9999 SCT017 BKN200 25/22 Q1008 A2977 HR83RWY NML=METAR SLCP 282200Z 34006KT 9999 SCT020 BKN200 26/23 Q1012 A2988 HR82METAR SLSI 282200Z 00000KT 9999 FEW017 FEW025CB BKN200 28/23 Q1009A2980 HR75 CB/NW/N RWY NML=METAR SLTI 282200Z 00000KT 9999 NSC 27/25 Q1012 A2988 HR89 CI RWY HUMOPR=METAR SLJE 282200Z 36005KT 9999 FEW017 30/23 Q1009 A2980 HR65 RWY NMLMETAR SLRB 282200Z 36008KT 9999 FEW020 FEW025CB 31/24 Q1010 A2983HR65 CB ON STN/N/NW RWY NML=METAR SLPS 282200Z 00000KT 9999 SCT017 FEW030CB BKN200 33/27 Q1006A2971 HR70 CB/N=METAR SLCA 282200Z 00000KT 9999 BKN033 30/22 Q1011 A2985 HR62 RWY HUM
ZPX0771 282156@CAELT@GG SLZZYMYT@CAELT@282156 SLCOYGYZ@CAELT@SABO SLCO 282200@CAELT@METAR SLCO 282200Z 22006KT 9999 FEW020 FEW023CB BKN200 29/24 Q1007@CAELT@A2975 980.0 HR73 CB/NE AC=@CAELT@
ZPX0772 282157@CAELT@GG SLZZYMYT@CAELT@282155 SLCBYGYZ@CAELT@SABO SLCB 282200@CAELT@METAR SLCB 282200Z 30003KT 8000 -RA SCT008 BKN020 OVC070 15/14 Q1024@CAELT@A3024 750.7 HR93 ST BAJOS TODAS DIRECC NOSIG=@CAELT@
ZPX0773 282157@CAELT@GG SLZZYMYT@CAELT@282156 SLSAYGYS@CAELT@SABO SLSA 282200@CAELT@METAR SLSA 282200Z 00000KT 6000 VCSH SCT017 FEW023CB BKN200 25/24@CAELT@Q1007 A2974 HR92 RESHRA CB/SH E/SE/S=@CAELT@
ZPX0774 282157@CAELT@GG SLZZYMYT@CAELT@282157 SLLPYGYZ@CAELT@SABO SLLP 282200@CAELT@METAR SLLP 282200Z 07007KT 9999 SCT015 FEW017CB BKN070 09/04 Q1034@CAELT@A3054 625.4 HR75 P4754 CB/SH N/NE/NW NOSIG=@CAELT@
ZPX0775 282157@CAELT@GG SLZZYMYT@CAELT@282156 SLTJYGYZ@CAELT@SABO SLTJ 282200@CAELT@METAR SLTJ 282200Z 13008KT 9999 FEW033 FEW036TCU BKN200 25/14 Q1016@CAELT@A3002 812.1 HR51 TCU N/W=@CAELT@
ZPX0776 282158@CAELT@GG SLZZYMYT@CAELT@282158 SLLPYFYA@CAELT@SABO SLLP 282200@CAELT@METAR SLLP 282200Z 07007KT 9999 SCT015 FEW017CB BKN070 09/04 Q1034@CAELT@A3054 625.4 HR75 P4754 CB/SH N/NE/NW NOSIG=@CAELT@METAR SLCO 282200Z 22006KT 9999 FEW020 FEW023CB BKN200 29/24 Q1007@CAELT@A2975 980.0 HR73 CB/NE AC=@CAELT@METAR SLRY 282200Z 18003KT 2000 -RA BKN005 OVC070 23/23 Q1005A2969 HR98 RWY WET INOP=METAR SLRQ 282200Z 18006KT 4000 -DZ BKN008 OVC070 24/24 Q1007A2974 983.1 HR99=METAR SLSB 282200Z 13004KT 7000 VCSH SCT012 BKN017 OVC070 24/24Q1007 A2976 HR96 REDZ SH/N NE E SE S RWY WET INOP=
ZPX0777 282158@CAELT@GG SLZZYMYT@CAELT@282157 SLORYGYZ@CAELT@SABO SLOR 282200@CAELT@METAR SLOR 282200Z 07014KT 9999 SCT017 BKN070 12/06 Q1032 A3049 654.3@CAELT@HR67 CI=@CAELT@
ZPX0780 282200@CAELT@GG SLZZYMYT@CAELT@282159 SLTRYGYS@CAELT@SABO SLTR 282200@CAELT@METAR SLTR 282200Z 00000KT 8000 VCSH FEW015 FEW020CB BKN070 BKN200@CAELT@25/23 Q1008 A2977 989.5 HR93 CB/SH SE/W/NW NOSIG=@CAELT@METAR SLGM 282200Z 03015KT 8000 VCSH SCT017 FEW020CB BKN200 29/24@CAELT@Q1007 A2975 HR76 CB/SH NE/E/SE=@CAELT@METAR SLRI 282200Z 36004KT 8000 VCSH SCT017 FEW020CB BKN200 30/23Q1007 A2975 HR68 CB N/NW=METAR SLJO 282200Z NIL=METAR SLRA 282200Z 06005KT 9999 FEW017 FEW020CB BKN200 30/24 Q1007A2976 HR69 CB DIST NE RWY NML=METAR SLMG 282200Z 00000KT 8000 VCSH FEW017 FEW023CB SCT080 BKN200 25/24 Q1008 A2978 HR93 RESHRA CB N/SE/NW SH SE RWY HUM OPR=METAR SLBU 282200Z NIL=METAR SLSA 282200Z 00000KT 6000 VCSH SCT017 FEW023CB BKN200 25/24Q1007 A2974 HR92 RESHRA CB/SH E/SE/S=METAR SLSR 282200Z 24006KT 7000 VCSH BKN010 FEW023CB OVC070 26/24Q1006 A2972 HR87 CB/SH N/NE/E/SE RWY WET INOP=METAR SLSM 282200Z 00000KT 6000 VCSH SCT015 FEW023CB OVC070 26/23Q1007 A2976 HR87 CB/SH NE/NW RWY OPR C337=
ZPX0781 282200@CAELT@GG SLZZYMYT@CAELT@282200 SLCBYGYS@CAELT@SABO SLCB 282200@CAELT@METAR SLCB 282200Z 30003KT 8000 -RA SCT008 BKN020 OVC070 15/14 Q1024@CAELT@A3024 750.7 HR93 ST BAJOS TODAS DIRECC NOSIG=@CAELT@METAR SLAL 282200Z 36007KT 9999 FEW017 FEW030CB BKN200 14/10 Q1028@CAELT@A3036 702.9 HR74 CB/SW=@CAELT@METAR SLTJ 282200Z 13008KT 9999 FEW033 FEW036TCU BKN200 25/14 Q1016A3002 812.1 HR51 TCU N/W=
ZPX0784 282204@CAELT@GG SLZZYMYT@CAELT@282204 SLLPYFYA@CAELT@SABO SLLP 282200@CAELT@METAR SLLP 282200Z 07007KT 9999 SCT015 FEW017CB BKN070 09/04 Q1034@CAELT@A3054 625.4 HR75 P4754 CB/SH N/NE/NW NOSIG=@CAELT@METAR SLCO 282200Z 22006KT 9999 FEW020 FEW023CB BKN200 29/24 Q1007@CAELT@A2975 980.0 HR73 CB/NE AC=@CAELT@METAR SLRY 282200Z 18003KT 2000 -RA BKN005 OVC070 23/23 Q1005A2969 HR98 RWY WET INOP=METAR SLRQ 282200Z 18006KT 4000 -DZ BKN008 OVC070 24/24 Q1007A2974 983.1 HR99=METAR SLSB 282200Z 13004KT 7000 VCSH SCT012 BKN017 OVC070 24/24Q1007 A2976 HR96 REDZ SH/N NE E SE S RWY WET INOP=METAR SLOR 282200Z 07014KT 9999 SCT017 BKN070 12/06 Q1032 A3049654.3 HR67 CI=
ZPX0804 282253@CAELT@GG SLZZYMYT@CAELT@282253 SLRBYGYS@CAELT@SABO SLRB 282300@CAELT@METAR SLRB 282300Z 00000KT 9999 FEW025CB 30/23 Q1010 A2983 HR66 CB ON@CAELT@STN/N RWY NML=@CAELT@
ZPX0805 282254@CAELT@GG SLZZYMYT@CAELT@282253 SLSBYSYX@CAELT@SABO SLSB 282300@CAELT@METAR SLSB 282300Z 17004KT 5000 -DZ BKN005 OVC070 24/24 Q1008 A2977@CAELT@HR98 RWY WET INOP=@CAELT@
ZPX0806 282254@CAELT@GG SLZZYMYT@CAELT@282253 SLCAYGYS@CAELT@SABO SLCA 282300@CAELT@METAR SLCA 282300Z 00000KT 9999 SCT033 BKN200 28/22 Q1011 A2985 HR69@CAELT@RWY HUM OPR=@CAELT@
ZPX0807 282254@CAELT@GG SLZZYMYT@CAELT@282254 SLETYMYC@CAELT@SABO SLET 282300@CAELT@METAR SLET 282300Z 32010KT 9999 FEW017 FEW030CB BKN200 26/23 Q1008@CAELT@A2979 HR83 CB DIST S AC NOSIG=@CAELT@
ZPX0808 282255@CAELT@GG SLZZYMYT@CAELT@282255 SLVRYGYZ@CAELT@SABO SLVR 282300@CAELT@METAR SLVR 282300Z 34006KT 9999 FEW017 BKN200 26/22 Q1009 A2980 HR79@CAELT@NOSIG=@CAELT@
ZPX0809 282255@CAELT@GG SLZZYMYT@CAELT@282254 SLSAYGYS@CAELT@SABO SLSA 282300@CAELT@METAR SLSA 282300Z 00000KT 7000 VCSH FEW017 FEW023CB BKN200 25/24@CAELT@Q1007 A2974 HR94 CB/SH SE/S=@CAELT@
ZPX0810 282255@CAELT@GG SLZZYMYT@CAELT@282254 SLSAYGYS@CAELT@SABO SLSA 282300@CAELT@METAR SLSA 282300Z 00000KT 7000 VCSH FEW017 FEW023CB BKN200 25/24@CAELT@Q1007 A2974 HR94 CB/SH SE/S=@CAELT@
ZPX0811 282255@CAELT@GG SLZZYMYT@CAELT@282255 SLTJYGYZ@CAELT@SABO SLTJ 282300@CAELT@METAR SLTJ 282300Z 13008KT 9999 FEW033 FEW036CB BKN200 23/14 Q1017@CAELT@A3004 812.6 HR56 CB SW/W=@CAELT@
ZPX0812 282256@CAELT@GG SLZZYMYT@CAELT@282255 SLLPYGYZ@CAELT@SABO SLLP 282300@CAELT@METAR SLLP 282300Z 13007KT 9999 SCT013 FEW017CB BKN070 07/05 Q1034@CAELT@A3055 625.7 HR84 CB/SH N/E NOSIG=@CAELT@
ZPX0813 282256@CAELT@GG SLZZYMYT@CAELT@282256 SLTRYGYZ@CAELT@SABO SLTR 282300@CAELT@METAR SLTR 282300Z 00000KT 9999 FEW015 FEW020CB BKN070 BKN200 25/23@CAELT@Q1008 A2977 989.8 HR94 CB SE NOSIG=@CAELT@
ZPX0816 282257@CAELT@GG SLZZYMYT@CAELT@282256 SLCOYGYZ@CAELT@SABO SLCO 282300@CAELT@METAR SLCO 282300Z VRB02KT 9999 FEW020 BKN200 29/24 Q1007 A2976 980.4@CAELT@HR74 AC=@CAELT@
ZPX0817 282258@CAELT@GG SLZZYMYT@CAELT@282258 SLTRYGYS@CAELT@SABO SLTR 282300@CAELT@METAR SLTR 282300Z 00000KT 9999 FEW015 FEW020CB BKN070 BKN200 25/23@CAELT@Q1008 A2977 989.8 HR94 CB SE NOSIG=@CAELT@METAR SLGM 282300Z NIL=@CAELT@METAR SLRI 282300Z 00000KT 8000 VCSH SCT015 FEW020CB BKN200 28/25@CAELT@Q1008 A2979 HR82 RESHRA CB/SH E/SE/S=METAR SLMG 282300Z 00000KT 9999 FEW017 FEW023CB SCT080 BKN200 25/24Q1008 A2978 HR94 CB N RWY HUM OPR=METAR SLSA 282300Z 00000KT 7000 VCSH FEW017 FEW023CB BKN200 25/24Q1007 A2974 HR94 CB/SH SE/S=
ZPX0818 282258@CAELT@GG SLZZYMYT@CAELT@282300 SLVRYFYC@CAELT@SABO SLVR 282300@CAELT@METAR SLVR 282300Z 34006KT 9999 FEW017 BKN200 26/22 Q1009 A2980 HR79@CAELT@NOSIG=@CAELT@METAR SLET 282300Z 32010KT 9999 FEW017 FEW030CB BKN200 26/23 Q1008@CAELT@A2979 HR83 CB DIST S AC NOSIG=@CAELT@METAR SLSI 282300Z 00000KT 9999 FEW025CB BKN200 27/23 Q1009 A2980HR82 CB/N/NW RWY NML=METAR SLRB 282300Z 00000KT 9999 FEW025CB 30/23 Q1010 A2983 HR66 CB ONSTN/N RWY NML=METAR SLCA 282300Z 00000KT 9999 SCT033 BKN200 28/22 Q1011 A2985 HR69RWY HUM OPR=
ZPX0819 282259@CAELT@GG SLZZYMYT@CAELT@282259 SLLPYFYA@CAELT@SABO SLLP 282300@CAELT@METAR SLLP 282300Z 13007KT 9999 SCT013 FEW017CB BKN070 07/05 Q1034@CAELT@A3055 625.7 HR84 CB/SH N/E NOSIG=@CAELT@METAR SLCO 282300Z VRB02KT 9999 FEW020 BKN200 29/24 Q1007 A2976@CAELT@980.4 HR74 AC=@CAELT@METAR SLSB 282300Z 17004KT 5000 -DZ BKN005 OVC070 24/24 Q1008 A2977HR98 RWY WET INOP=
ZPX0820 282259@CAELT@GG SLZZYMYT@CAELT@282259 SLCBYGYZ@CAELT@SABO SLCB 282300@CAELT@METAR SLCB 282300Z 28003KT 9999 FEW008 BKN020 BKN070 15/13 Q1024@CAELT@A3025 750.9 HR92 SH NW/N/NE ST BAJOS W/NW/N/NE NOSIG=@CAELT@
ZPX0823 282300@CAELT@GG SLZZYMYT@CAELT@282300 SLCBYGYS@CAELT@SABO SLCB 282300@CAELT@METAR SLCB 282300Z 28003KT 9999 FEW008 BKN020 BKN070 15/13 Q1024@CAELT@A3025 750.9 HR92 SH NW/N/NE ST BAJOS W/NW/N/NE NOSIG=@CAELT@METAR SLAL 282300Z 01008KT 9999 FEW017 FEW030CB SCT070 BKN200 14/09@CAELT@Q1028 A3037 703.2 HR74 CB/N=@CAELT@METAR SLTJ 282300Z 13008KT 9999 FEW033 FEW036CB BKN200 23/14 Q1017A3004 812.6 HR56 CB SW/W=
ZPX0846 282352@CAELT@GG SLZZYMYT@CAELT@282353 SLVRYGYZ@CAELT@SABO SLVR 290000@CAELT@METAR SLVR 290000Z 32006KT 9999 FEW017 BKN200 25/22 Q1009 A2981 HR82@CAELT@NOSIG=@CAELT@
ZPX0847 282355@CAELT@GG SLZZYMYT@CAELT@282355 SLTJYGYZ@CAELT@SABO SLTJ 290000@CAELT@METAR SLTJ 290000Z 00000KT 9999 FEW030 FEW033CB BKN200 23/14 Q1017@CAELT@A3006 813.1 HR58 CB W=@CAELT@
