
ZPX0002 280001@CAELT@GG SLZZYMYT@CAELT@280000 SLCBYGYS@CAELT@SABO SLCB 280000@CAELT@METAR SLCB 280000Z 18006KT 9999 FEW036 BKN070 OVC200 18/08 Q1022@CAELT@A3019 749.4 HR53 NOSIG=@CAELT@METAR SLAL 280000Z 35005KT 9999 FEW015 FEW033CB SCT200 14/09 Q1027@CAELT@A3034 702.5 HR70 CB/DIST/N=@CAELT@
ZPX0013 280055@CAELT@GG SLLPZRZX@CAELT@280055 SLLPYGYZ@CAELT@SABO SLLP 280100@CAELT@METAR SLLP 280100Z 22006KT 180V240 5000 -RA SCT010 FEW017CB BKN070@CAELT@BKN200 07/06 Q1039 A3069 628.7 HR92 CB/LT S/SW NOSIG=@CAELT@
ZPX0014 280055@CAELT@GG SLZZYMYT@CAELT@280055 SLCBYGYZ@CAELT@SABO SLCB 280100@CAELT@METAR SLCB 280100Z 08003KT 9999 FEW036 SCT070 OVC200 19/07 Q1023@CAELT@A3023 750.4 HR46 NOSIG=@CAELT@
ZPX0015 280059@CAELT@GG SLZZYMYT@CAELT@280058 SLVRYGYZ@CAELT@SABO SLVR 280100@CAELT@METAR SLVR 280100Z VRB02KT 9999 FEW017 BKN070 BKN200 22/21 Q1012@CAELT@A2989 HR93 NOSIG=@CAELT@
ZPX0027 280156@CAELT@GG SLZZYMYT@CAELT@280155 SLCBYGYZ@CAELT@SABO SLCB 280200@CAELT@METAR SLCB 280200Z 07003KT 9999 FEW036 OVC200 19/06 Q1024 A3024@CAELT@750.7 HR42 AC NOSIG=@CAELT@
ZPX0028 280156@CAELT@GG SLLPZRZX@CAELT@280155 SLLPYGYZ@CAELT@SABO SLLP 280200@CAELT@METAR SLLP 280200Z 27006KT 5000 -RA FEW005 SCT010 BKN070 BKN200 06/05@CAELT@Q1039 A3070 629.1 HR94 NOSIG=@CAELT@
ZPX0030 280201@CAELT@GG SLZZYMYT@CAELT@280201 SLVRYGYZ@CAELT@SABO SLVR 280200Z@CAELT@METAR SLVR 280200Z VRB02KT 9999 BKN070 BKN200 21/21 Q1012 A2991 HR96@CAELT@NOSIG=@CAELT@
ZPX0033 280210@CAELT@GG SLZZYMYT@CAELT@280211 SLVRYGYZ@CAELT@SABO SLVR 280200Z@CAELT@METAR SLVR 280200Z VRB02KT 9999 BKN070 BKN200 21/21 Q1012 A2991 HR96@CAELT@NOSIG=@CAELT@
ZPX0043 280257@CAELT@GG SLZZYMYT@CAELT@280257 SLCBYGYZ@CAELT@SABO SLCB 280300@CAELT@METAR SLCB 280300Z 18005KT 9999 FEW036 SCT200 16/09 Q1023 A3023 750.5@CAELT@HR63 NOSIG=@CAELT@
ZPX0044 280258@CAELT@GG SLLPZRZX@CAELT@280258 SLLPYGYZ@CAELT@SABO SLLP 280300@CAELT@METAR SLLP 280300Z 26011KT 4000 BR FEW003 BKN010 OVC070 05/05 Q1039@CAELT@A3070 629.0 HR98 NOSIG=@CAELT@
ZPX0051 280353@CAELT@GG SLZZYMYT@CAELT@280354 SLVRYGYZ@CAELT@SABO SLVR 280400@CAELT@METAR SLVR 280400Z 33003KT 9999 FEW070 BKN200 21/21 Q1012 A2991 HR97@CAELT@NOSIG=@CAELT@
ZPX0052 280355@CAELT@GG SLLPZRZX@CAELT@280355 SLLPYGYZ@CAELT@SABO SLLP 280400@CAELT@METAR SLLP 280400Z 28004KT 240V320 9999 FEW003 BKN010 OVC070 05/04@CAELT@Q1040 A3072 629.4 HR95 NOSIG=@CAELT@
ZPX0053 280356@CAELT@GG SLZZYMYT@CAELT@280355 SLCBYGYZ@CAELT@SABO SLCB 280400@CAELT@METAR SLCB 280400Z 16003KT 9999 FEW036 SCT200 16/09 Q1024 A3024 750.6@CAELT@HR62 AC NOSIG=@CAELT@
ZPX0061 280455@CAELT@GG SLLPZRZX@CAELT@280455 SLLPYGYZ@CAELT@SABO SLLP 280500@CAELT@METAR SLLP 280500Z 17005KT 7000 -RA FEW003 BKN010 OVC070 05/04 Q1039@CAELT@A3071 629.2 HR93 NOSIG=@CAELT@
ZPX0062 280456@CAELT@GG SLZZYMYT@CAELT@280455 SLCBYGYZ@CAELT@SABO SLCB 280500@CAELT@METAR SLCB 280500Z 33003KT 9999 NSC 15/08 Q1023 A3023 750.4 HR60 CI@CAELT@NOSIG=@CAELT@
ZPX0064 280500@CAELT@GG SLZZYMYT@CAELT@280500 SLVRYGYZ@CAELT@SABO SLVR 280500@CAELT@METAR SLVR 280500Z 32004KT 9999 FEW070 BKN200 21/21 Q1012 A2990 HR97@CAELT@NOSIG=@CAELT@
ZPX0070 280555@CAELT@GG SLZZYMYT@CAELT@280555 SLVRYGYZ@CAELT@SABO SLVR 280600@CAELT@METAR SLVR 280600Z 32003KT 9999 FEW070 BKN200 21/20 Q1011 A2985 HR96@CAELT@NOSIG=@CAELT@
ZPX0071 280555@CAELT@GG SLLPZRZX@CAELT@280555 SLLPYGYZ@CAELT@SABO SLLP 280600@CAELT@METAR SLLP 280600Z 30012KT 9999 FEW003 SCT010 BKN200 05/04 Q1036@CAELT@A3062 627.2 HR95 NOSIG=@CAELT@
ZPX0072 280556@CAELT@GG SLZZYMYT@CAELT@280556 SLCBYGYZ@CAELT@SABO SLCB 280600@CAELT@METAR SLCB 280600Z 26003KT 9999 SCT070 15/08 Q1023 A3023 750.4 HR63@CAELT@CI NOSIG=@CAELT@
ZPX0079 280654@CAELT@GG SLZZYMYT@CAELT@280655 SLVRYGYZ@CAELT@SABO SLVR 280700@CAELT@METAR SLVR 280700Z 36004KT 9999 FEW070 BKN200 21/20 Q1011 A2988 HR94@CAELT@NOSIG=@CAELT@
ZPX0080 280655@CAELT@GG SLLPZRZX@CAELT@280655 SLLPYGYZ@CAELT@SABO SLLP 280700@CAELT@METAR SLLP 280700Z 28005KT 250V310 9999 FEW003 BKN200 05/04 Q1036@CAELT@A3062 627.2 HR93 AC NOSIG=@CAELT@
ZPX0081 280656@CAELT@GG SLZZYMYT@CAELT@280656 SLCBYGYZ@CAELT@SABO SLCB 280700@CAELT@METAR SLCB 280700Z 22003KT 9999 FEW036 SCT070 14/10 Q1023 A3023 750.4@CAELT@HR76 CI NOSIG=@CAELT@
ZPX0088 280756@CAELT@GG SLZZYMYT@CAELT@280756 SLVRYGYZ@CAELT@SABO SLVR 280800@CAELT@METAR SLVR 280800Z 04003KT 7000 FEW070 SCT200 20/19 Q1012 A2990 HR94@CAELT@BR TEMPO 4000=@CAELT@
ZPX0089 280756@CAELT@GG SLLPZRZX@CAELT@280756 SLLPYGYZ@CAELT@SABO SLLP 280800@CAELT@METAR SLLP 280800Z VRB02KT 9999 FEW003 BKN200 05/04 Q1036 A3061@CAELT@627.1 HR93 NOSIG=@CAELT@
ZPX0090 280757@CAELT@GG SLZZYMYT@CAELT@280756 SLCBYGYZ@CAELT@SABO SLCB 280800@CAELT@METAR SLCB 280800Z 00000KT 9999 FEW036 SCT200 14/09 Q1023 A3023 750.5@CAELT@HR72 AC NOSIG=@CAELT@
ZPX0101 280855@CAELT@GG SLZZYMYT@CAELT@280856 SLVRYGYZ@CAELT@SABO SLVR 280900@CAELT@METAR SLVR 280900Z 36003KT 6000 FEW070 SCT200 20/19 Q1012 A2990 HR96@CAELT@BR TEMPO 3000=@CAELT@
ZPX0102 280856@CAELT@GG SLLPZRZX@CAELT@280856 SLLPYGYZ@CAELT@SABO SLLP 280900@CAELT@METAR SLLP 280900Z VRB02KT 9999 FEW003 SCT200 04/04 Q1037 A3062@CAELT@627.3 HR98 NOSIG=@CAELT@
ZPX0103 280856@CAELT@GG SLZZYMYT@CAELT@280856 SLTRYGYZ@CAELT@SABO SLTR 280900@CAELT@METAR SLTR 280900Z 12003KT 9999 FEW005 BKN200 22/22 Q1010 A2985@CAELT@992.2 HR97 NOSIG=@CAELT@
ZPX0104 280857@CAELT@GG SLZZYMYT@CAELT@280856 SLCBYGYZ@CAELT@SABO SLCB 280900@CAELT@METAR SLCB 280900Z 00000KT 9999 FEW033 SCT060 13/09 Q1024 A3024 750.7@CAELT@HR75 FU CI NOSIG=@CAELT@
ZPX0106 280901@CAELT@GG SLZZYMYT@CAELT@280901 SLTRYGYS@CAELT@SABO SLTR 280900@CAELT@METAR SLTR 280900Z 12003KT 9999 FEW005 BKN200 22/22 Q1010 A2985@CAELT@992.2 HR97 NOSIG=@CAELT@METAR SLRI 280900Z 00000KT 9999 SCT008 BKN200 25/24 Q1010 A2984 HR91@CAELT@AC=@CAELT@
ZPX0118 280951@CAELT@GG SLZZYMYT@CAELT@280950 SLCAYGYS@CAELT@SABO SLCA 281000@CAELT@METAR SLCA 281000Z 00000KT 9999 NSC 18/16 Q1015 A2997 HR90 RWY HUM@CAELT@OPR=@CAELT@
ZPX0119 280952@CAELT@GG SLZZYMYT@CAELT@280952 SLETYMYC@CAELT@SABO SLET 281000@CAELT@METAR SLET 281000Z 31008KT 9999 FEW006 SCT200 21/20 Q1012 A2989 HR95@CAELT@NOSIG=@CAELT@
ZPX0120 280953@CAELT@GG SLZZYMYT@CAELT@280954 SLVRYGYZ@CAELT@SABO SLVR 281000@CAELT@METAR SLVR 281000Z 33004KT 8000 FEW070 SCT200 21/20 Q1013 A2992 HR94@CAELT@BR NOSIG=@CAELT@
ZPX0121 280954@CAELT@GG SLZZYMYT@CAELT@280953 SLRBYGYS@CAELT@SABO SLRB 281000@CAELT@METAR SLRB 281000Z 00000KT 9999 NSC 20/17 Q1014 A2994 HR83 RWY NML=@CAELT@
ZPX0122 280955@CAELT@GG SLZZYMYT@CAELT@280955 SLSAYGYS@CAELT@SABO SLSA 281000@CAELT@METAR SLSA 281000Z 16005KT 9999 BKN080 BKN200 22/22 Q1010 A2983@CAELT@HR96 FU=@CAELT@
ZPX0123 280955@CAELT@GG SLZZYMYT@CAELT@280955 SLLPYGYZ@CAELT@SABO SLLP 281000@CAELT@METAR SLLP 281000Z VRB02KT 9999 FEW003 BKN200 04/04 Q1037 A3063@CAELT@627.4 HR98 P4250 AC NOSIG=@CAELT@
ZPX0124 280956@CAELT@GG SLZZYMYT@CAELT@280956 SLCBYGYZ@CAELT@SABO SLCB 281000@CAELT@METAR SLCB 281000Z 00000KT 9999 FEW033 BKN060 BKN200 14/10 Q1024@CAELT@A3027 751.3 HR76 FU NOSIG=@CAELT@
ZPX0125 280956@CAELT@GG SLZZYMYT@CAELT@280956 SLVRYFYC@CAELT@SABO SLVR 281000@CAELT@METAR SLVR 281000Z 33004KT 8000 FEW070 SCT200 21/20 Q1013 A2992 HR94@CAELT@BR NOSIG=@CAELT@METAR SLET 281000Z 31008KT 9999 FEW006 SCT200 21/20 Q1012 A2989 HR95@CAELT@NOSIG=@CAELT@METAR SLCP 281000Z 00000KT 0050 FG VV/// 20/20 Q1016 A3000 HR100 RWYWET OPR=METAR SLSI 281000Z 00000KT 9999 SCT010 BKN070 22/21 Q1012 A2988 HR90RWY NML=METAR SLRB 281000Z 00000KT 9999 NSC 20/17 Q1014 A2994 HR83 RWY NML=METAR SLCA 281000Z 00000KT 9999 NSC 18/16 Q1015 A2997 HR90 RWY HUMOPR=
ZPX0126 280956@CAELT@GG SLZZYMYT@CAELT@280956 SLTRYGYZ@CAELT@SABO SLTR 281000@CAELT@METAR SLTR 281000Z 10004KT 9999 FEW005 SCT080 BKN200 22/22 Q1011@CAELT@A2987 992.9 HR97 NOSIG=@CAELT@
ZPX0127 280956@CAELT@GG SLZZYMYT@CAELT@280956 SLRQYSYX@CAELT@SABO SLRQ 281000@CAELT@METAR SLRQ 281000Z 00000KT 9999 SCT008 BKN020 OVC070 24/24 Q1011@CAELT@A2986 987.1 HR99=@CAELT@
ZPX0128 280956@CAELT@GG SLZZYMYT@CAELT@280955 SLSBYSYX@CAELT@SABO SLSB 281000@CAELT@METAR SLSB 281000Z 00000KT 9999 FEW023 BKN080 23/23 Q1011 A2988 HR98@CAELT@FU RWY NML=@CAELT@
ZPX0130 281002@CAELT@GG SLZZYMYT@CAELT@281001 SLTRYGYS@CAELT@SABO SLTR 281000@CAELT@METAR SLTR 281000Z 10004KT 9999 FEW005 SCT080 BKN200 22/22 Q1011@CAELT@A2987 992.9 HR97 NOSIG=@CAELT@METAR SLGM 281000Z NIL=@CAELT@METAR SLRI 281000Z 00000KT 9999 -SHRA SCT005 BKN070 BKN200 25/24@CAELT@Q1011 A2987 HR92=METAR SLJO 281000Z 00000KT 8000 FEW023 BKN080 23/23 Q1009 A2982HR98 FU RWY NML=METAR SLRA 281000Z 00000KT 9999 FEW006 BKN080 23/23 Q1010 A2984HR98 CI RWY HUM OPR=METAR SLMG 281000Z 00000KT 9999 BKN080 23/23 Q1009 A2982 HR97RWY HUM OPR=METAR SLBU 281000Z NIL=METAR SLSR 281000Z 00000KT 8000 FEW015 SCT070 BKN200 23/22 Q1010A2985 HR96 FU RWY OPR C210=METAR SLSM 281000Z 00000KT 9999 BKN080 22/22 Q1011 A2987 HR98RWY OPR C210=
ZPX0131 281002@CAELT@GG SLZZYMYT@CAELT@280958 SLLPYFYA@CAELT@SABO SLRY 281000@CAELT@METAR SLRY 281000Z 00000KT 8000 BKN023 OVC070 23/23 Q1010 A2984@CAELT@HR98 FU RETS RWY WET OPR C210=@CAELT@
ZPX0133 281003@CAELT@GG SLZZYMYT@CAELT@281002 SLCOYSYX@CAELT@SABO SLCO 281000@CAELT@METAR SLCO 281000Z 33003KT 6000 FEW003 BKN080 24/23 Q1008 A2978 981.2@CAELT@HR96 BR=@CAELT@
ZPX0134 281005@CAELT@GG SLZZYMYT@CAELT@281004 SLLPYFYA@CAELT@SABO SLLP 281000@CAELT@METAR SLLP 281000Z VRB02KT 9999 FEW003 BKN200 04/04 Q1037 A3063@CAELT@627.4 HR98 P4250 AC NOSIG=@CAELT@METAR SLCO 281000Z 33003KT 6000 FEW003 BKN080 24/23 Q1008 A2978@CAELT@981.2 HR96 BR=@CAELT@METAR SLRY 281000Z 00000KT 8000 BKN023 OVC070 23/23 Q1010 A2984HR98 FU RETS RWY WET OPR C210=METAR SLRQ 281000Z 00000KT 9999 SCT008 BKN020 OVC070 24/24 Q1011A2986 987.1 HR99=METAR SLAP 281000Z 00000KT 9999 BKN030 20/18 Q1017 A3004 858.0HR90 AC=METAR SLSB 281000Z 00000KT 9999 FEW023 BKN080 23/23 Q1011 A2988HR98 FU RWY NML=
ZPX0137 281018@CAELT@GG SLZZYMYT@CAELT@281010 SLCBYGYS@CAELT@SABO SLCB 281000 RRA@CAELT@METAR SLCB 281000Z 00000KT 9999 FEW033 BKN060 BKN200 14/10 Q1024@CAELT@A3027 751.3 HR76 FU NOSIG=@CAELT@METAR RTD SLVM 281000Z 00000KT 9999 NSC 21/20 Q1009 A2981 HR96 CI=@CAELT@
ZPX0155 281052@CAELT@GG SLZZYMYT@CAELT@281046 SLETYMYC@CAELT@SABO SLET 281100@CAELT@METAR SLET 281100Z 33010KT 9999 SCT008 BKN200 23/21 Q1013 A2991 HR89@CAELT@TEMPO BKN008=@CAELT@
ZPX0156 281053@CAELT@GG SLZZYMYT@CAELT@281054 SLSAYGYS@CAELT@SABO SLSA 281100@CAELT@METAR SLSA 281100Z 16004KT 9999 BKN080 BKN200 23/22 Q1011 A2986@CAELT@HR95 FU=@CAELT@
ZPX0157 281054@CAELT@GG SLZZYMYT@CAELT@281054 SLSBYSYX@CAELT@SABO SLSB 281100@CAELT@METAR SLSB 281100Z 00000KT 7000 BKN080 23/23 Q1012 A2991 HR97 FU@CAELT@RWY NML=@CAELT@
ZPX0158 281054@CAELT@GG SLZZYMYT@CAELT@281053 SLRBYGYS@CAELT@SABO SLRB 281100@CAELT@METAR SLRB 281100Z 00000KT 9999 NSC 22/19 Q1015 A2997 HR83 RWY NML=@CAELT@
ZPX0160 281055@CAELT@GG SLZZYMYT@CAELT@281055 SLVRYGYZ@CAELT@SABO SLVR 281100@CAELT@METAR SLVR 281100Z 34005KT 9999 SCT005 23/21 Q1013 A2993 HR92 TEMPO@CAELT@BKN005=@CAELT@
ZPX0163 281055@CAELT@GG SLZZYMYT@CAELT@281055 SLCAYGYS@CAELT@SABO SLCA 281100@CAELT@METAR SLCA 281100Z 00000KT 9999 NSC 20/18 Q1015 A2997 HR88 RWY HUM@CAELT@OPR=@CAELT@
ZPX0164 281055@CAELT@GG SLZZYMYT@CAELT@281055 SLLPYGYZ@CAELT@SABO SLLP 281100@CAELT@METAR SLLP 281100Z VRB02KT 9999 FEW003 BKN200 06/05 Q1038 A3066@CAELT@628.2 HR93 P4350 AC NOSIG=@CAELT@
ZPX0165 281056@CAELT@GG SLZZYMYT@CAELT@281055 SLRQYSYX@CAELT@SABO SLRQ 281100@CAELT@METAR SLRQ 281100Z 00000KT 9999 SCT008 BKN020 BKN070 24/24 Q1012@CAELT@A2989 988.0 HR99=@CAELT@
ZPX0166 281056@CAELT@GG SLZZYMYT@CAELT@281056 SLTRYGYZ@CAELT@SABO SLTR 281100@CAELT@METAR SLTR 281100Z 00000KT 9999 FEW005 BKN200 23/22 Q1012 A2989@CAELT@993.7 HR96 CI NOSIG=@CAELT@
ZPX0167 281056@CAELT@GG SLZZYMYT@CAELT@281056 SLCOYSYX@CAELT@SABO SLCO 281100@CAELT@METAR SLCO 281100Z 00000KT 7000 FEW006 BKN080 24/23 Q1011 A2986 983.8@CAELT@HR96 BR=@CAELT@
ZPX0168 281056@CAELT@GG SLZZYMYT@CAELT@281055 SLCBYGYZ@CAELT@SABO SLCB 281100@CAELT@METAR SLCB 281100Z 26003KT 9999 FEW033 SCT070 15/10 Q1025 A3030 752.1@CAELT@HR70 FU CI NOSIG=@CAELT@
ZPX0169 281057@CAELT@GG SLZZYMYT@CAELT@281057 SLVRYFYC@CAELT@SABO SLVR 281100@CAELT@METAR SLVR 281100Z 34005KT 9999 SCT005 23/21 Q1013 A2993 HR92 TEMPO@CAELT@BKN005=@CAELT@METAR SLET 281100Z 33010KT 9999 SCT008 BKN200 23/21 Q1013 A2991 HR89@CAELT@TEMPO BKN008=@CAELT@METAR SLAS 281100Z 00000KT 0200 FG VV/// 22/22 Q1015 A2997 HR96 RWYWET OPR=METAR SLJV 281100Z 00000KT 0200 FG VV/// 21/21 Q1012 A2988 HR100 RWYMETAR SLCP 281100Z 00000KT 0500 FG NSC 21/21 Q1016 A3000 HR100 CI RWYMETAR SLSI 281100Z 00000KT 9999 SCT010 BKN070 23/22 Q1013 A2991 HR89RWY NML=METAR SLTI 281100Z 00000KT 9999 NSC 24/22 Q1017 A3003 HR89 RWY NML=METAR SLJE 281100Z 00000KT 9999 NSC 24/22 Q1016 A3000 HR85 RWY NML=METAR SLRB 281100Z 00000KT 9999 NSC 22/19 Q1015 A2997 HR83 RWY NML=METAR SLCA 281100Z 00000KT 9999 NSC 20/18 Q1015 A2997 HR88 RWY HUMOPR=
ZPX0170 281058@CAELT@GG SLZZYMYT@CAELT@281058 SLTRYGYS@CAELT@SABO SLTR 281100@CAELT@METAR SLTR 281100Z 00000KT 9999 FEW005 BKN200 23/22 Q1012 A2989@CAELT@993.7 HR96 CI NOSIG=@CAELT@METAR SLGM 281100Z NIL=@CAELT@METAR SLRI 281100Z 00000KT 9999 SCT008 BKN070 25/24 Q1012 A2990@CAELT@HR91 CI=METAR SLJO 281100Z 00000KT 8000 FEW020 BKN080 24/23 Q1010 A2983HR96 FU RWY NML=METAR SLRA 281100Z 00000KT 9999 FEW006 BKN080 24/23 Q1011 A2986HR98 RWY HUM OPR=METAR SLMG 281100Z 00000KT 9999 BKN080 23/23 Q1010 A2984 HR96RWY HUM OPR=METAR SLBU 281100Z NIL=METAR SLSA 281100Z 16004KT 9999 BKN080 BKN200 23/22 Q1011 A2986HR95 FU=METAR SLSR 281100Z 00000KT 8000 FEW015 BKN200 23/22 Q1011 A2986HR96 FU RWY OPR C210=METAR SLSM 281100Z 00000KT 9999 BKN080 24/23 Q1012 A2989 HR95RWY OPR C210=
ZPX0171 281058@CAELT@GG SLZZYMYT@CAELT@281058 SLORYGYZ@CAELT@SABO SLOR 281100@CAELT@METAR SLOR 281100Z 05003KT 9999 NSC 07/M01 Q1035 A3058 656.3 HR57 FU@CAELT@N/SE/S/SW/NW CI=@CAELT@
ZPX0172 281058@CAELT@GG SLZZYMYT@CAELT@281058 SLTJYGYZ@CAELT@SABO SLTJ 281100@CAELT@METAR SLTJ 281100Z 00000KT 9999 FEW027 20/15 Q1018 A3009 814.0 HR76=@CAELT@
ZPX0174 281101@CAELT@GG SLZZYMYT@CAELT@281100 SLCBYGYS@CAELT@SABO SLCB 281100@CAELT@METAR SLCB 281100Z 26003KT 9999 FEW033 SCT070 15/10 Q1025 A3030 752.1@CAELT@HR70 FU CI NOSIG=@CAELT@METAR SLAL 281100Z 03004KT 9999 SCT017 12/11 Q1030 A3042 704.2 HR90@CAELT@METAR SLVM 281100Z 00000KT 9999 NSC 23/21 Q1010 A2983 HR87 CI=@CAELT@METAR SLTJ 281100Z 00000KT 9999 FEW027 20/15 Q1018 A3009 814.0 HR76=
ZPX0177 281103@CAELT@GG SLZZYMYT@CAELT@281102 SLLPYFYA@CAELT@SABO SLLP 281100@CAELT@METAR SLLP 281100Z VRB02KT 9999 FEW003 BKN200 06/05 Q1038 A3066@CAELT@628.2 HR93 P4350 AC NOSIG=@CAELT@METAR SLCO 281100Z 00000KT 7000 FEW006 BKN080 24/23 Q1011 A2986@CAELT@983.8 HR96 BR=@CAELT@METAR SLRY 281100Z 00000KT 8000 FEW017 BKN080 24/23 Q1010 A2985HR97 FU RWY WET OPR C210=METAR SLRQ 281100Z 00000KT 9999 SCT008 BKN020 BKN070 24/24 Q1012A2989 988.0 HR99=METAR SLSB 281100Z 00000KT 7000 BKN080 23/23 Q1012 A2991 HR97FU RWY NML=METAR SLOR 281100Z 05003KT 9999 NSC 07/M01 Q1035 A3058 656.3HR57 FU N/SE/S/SW/NW CI=
ZPX0182 281107@CAELT@GG SLZZYMYT@CAELT@281107 SLLPYFYA@CAELT@SABO SLLP 281100 RRA@CAELT@METAR SLLP 281100Z VRB02KT 9999 FEW003 BKN200 06/05 Q1038 A3066@CAELT@628.2 HR93 P4350 AC NOSIG=@CAELT@METAR SLCO 281100Z 00000KT 7000 FEW006 BKN080 24/23 Q1011 A2986@CAELT@983.8 HR96 BR=@CAELT@METAR SLRY 281100Z 00000KT 8000 FEW017 BKN080 24/23 Q1010 A2985HR97 FU RWY WET OPR C210=METAR SLRQ 281100Z 00000KT 9999 SCT008 BKN020 BKN070 24/24 Q1012A2989 988.0 HR99=SABO SLAP 281100METAR RTD SLAP 281100Z 36005KT 9999 SCT030 BKN070 20/18 Q1018A3006 858.7 HR90 AC=METAR SLSB 281100Z 00000KT 7000 BKN080 23/23 Q1012 A2991 HR97FU RWY NML=METAR SLOR 281100Z 05003KT 9999 NSC 07/M01 Q1035 A3058 656.3HR57 FU N/SE/S/SW/NW CI=
ZPX0202 281154@CAELT@GG SLZZYMYT@CAELT@281154 SLSBYSYX@CAELT@SABO SLSB 281200@CAELT@METAR SLSB 281200Z 00000KT 8000 FEW008 BKN080 24/23 Q1013 A2992 HR94@CAELT@FU RWY NML=@CAELT@
ZPX0203 281154@CAELT@GG SLZZYMYT@CAELT@281154 SLSAYGYS@CAELT@SABO SLSA 281200@CAELT@METAR SLSA 281200Z 14005KT 9999 SCT015 BKN080 BKN200 24/22 Q1012@CAELT@A2989 HR90 FU=@CAELT@
ZPX0204 281154@CAELT@GG SLZZYMYT@CAELT@281155 SLORYGYZ@CAELT@SABO SLOR 281200@CAELT@METAR SLOR 281200Z 02004KT 9999 NSC 09/M01 Q1036 A3061 657.0 HR50 FU@CAELT@N/SE/S/SW/NW CI=@CAELT@
ZPX0205 281154@CAELT@GG SLZZYMYT@CAELT@281153 SLRBYGYS@CAELT@SABO SLRB 281200@CAELT@METAR SLRB 281200Z 00000KT 9999 NSC 24/20 Q1016 A3000 HR76 RWY NML=@CAELT@
ZPX0206 281155@CAELT@GG SLZZYMYT@CAELT@281155 SLTJYGYZ@CAELT@SABO SLTJ 281200@CAELT@METAR SLTJ 281200Z 00000KT 9999 FEW027 22/16 Q1019 A3010 814.4 HR70=@CAELT@
ZPX0208 281155@CAELT@GG SLZZYMYT@CAELT@281156 SLVRYGYZ@CAELT@SABO SLVR 281200@CAELT@METAR SLVR 281200Z 34010KT 9999 SCT009 BKN013 25/22 Q1014 A2995 HR84@CAELT@NOSIG=@CAELT@
ZPX0210 281156@CAELT@GG SLZZYMYT@CAELT@281155 SLLPYFYA@CAELT@SABO SLRY 281200@CAELT@METAR SLRY 281200Z 00000KT 8000 SCT015 BKN080 26/24 Q1011 A2987@CAELT@HR86 FU RWY WET OPR C210=@CAELT@
ZPX0211 281156@CAELT@GG SLZZYMYT@CAELT@281156 SLCAYGYS@CAELT@SABO SLCA 281200@CAELT@METAR SLCA 281200Z 00000KT 9999 NSC 23/16 Q1015 A2997 HR67 RWY HUM@CAELT@OPR=@CAELT@
ZPX0212 281156@CAELT@GG SLZZYMYT@CAELT@281156 SLCBYGYZ@CAELT@SABO SLCB 281200@CAELT@METAR SLCB 281200Z 29003KT 9999 FEW036 20/09 Q1026 A3031 752.5 HR49@CAELT@FU AC CI NOSIG=@CAELT@
ZPX0213 281157@CAELT@GG SLZZYMYT@CAELT@281156 SLRQYSYX@CAELT@SABO SLRQ 281200@CAELT@METAR SLRQ 281200Z 00000KT 9999 FEW010 BKN020 BKN070 26/25 Q1012@CAELT@A2990 988.5 HR93=@CAELT@
ZPX0214 281158@CAELT@GG SLZZYMYT@CAELT@281157 SLTRYGYZ@CAELT@SABO SLTR 281200@CAELT@METAR SLTR 281200Z 00000KT 9999 BKN070 24/22 Q1012 A2991 994.4 HR91@CAELT@NOSIG=@CAELT@
ZPX0215 281158@CAELT@GG SLZZYMYT@CAELT@281158 SLLPYGYZ@CAELT@SABO SLLP 281200@CAELT@METAR SLLP 281200Z VRB02KT 6000 FEW004 BKN200 08/05 Q1039 A3069@CAELT@628.8 HR83 P92// VIS/RED ST/BAJOS S/SW/W AC BECMG 9999=@CAELT@
ZPX0216 281158@CAELT@GG SLZZYMYT@CAELT@281157 SLLPYFYA@CAELT@SABO SLAP 281200@CAELT@METAR SLAP 281200Z 36010KT 9999 SCT030 BKN070 21/18 Q1018 A3009@CAELT@859.4 HR84=@CAELT@
ZPX0219 281159@CAELT@GG SLZZYMYT@CAELT@281159 SLVRYFYC@CAELT@SABO SLVR 281200@CAELT@METAR SLVR 281200Z 34010KT 9999 SCT009 BKN013 25/22 Q1014 A2995 HR84@CAELT@NOSIG=@CAELT@METAR SLET 281200Z 32013KT 9999 SCT010 BKN015 24/20 Q1013 A2993 HR78@CAELT@METAR SLAS 281200Z 00000KT 8000 SCT010 24/22 Q1016 A3000 HR90 BR REDZ@CAELT@RWY WET OPR=METAR SLJV 281200Z 00000KT 9999 NSC 22/22 Q1014 A2994 HR100 REFG RWYWET OPR=METAR SLCP 281200Z 00000KT 1000 BR NSC 21/21 Q1017 A3003 HR100 REFGCI RWY WET OPR=METAR SLSI 281200Z 00000KT 9999 SCT015 BKN070 25/22 Q1014 A2994 HR83RWY NML=METAR SLTI 281200Z 00000KT 9999 NSC 26/23 Q1018 A3006 HR84 RWY NML=METAR SLJE 281200Z 00000KT 9999 SCT015 25/22 Q1017 A3003 HR82 RWY NMLMETAR SLVG 281200Z 00000KT 9999 NSC 17/14 Q1025 A3027 HR81 CI RWY NMLMETAR SLRB 281200Z 00000KT 9999 NSC 24/20 Q1016 A3000 HR76 RWY NML=METAR SLCA 281200Z 00000KT 9999 NSC 23/16 Q1015 A2997 HR67 RWY HUMOPR=
ZPX0220 281159@CAELT@GG SLZZYMYT@CAELT@281158 SLCOYSYX@CAELT@SABO SLCO 281200@CAELT@METAR SLCO 281200Z 00000KT 8000 SCT006 BKN080 26/25 Q1012 A2990 985.0@CAELT@HR92 BR=@CAELT@
ZPX0223 281201@CAELT@GG SLZZYMYT@CAELT@281200 SLTRYGYS@CAELT@SABO SLTR 281200@CAELT@METAR SLTR 281200Z 00000KT 9999 BKN070 24/22 Q1012 A2991 994.4 HR91@CAELT@NOSIG=@CAELT@METAR SLGM 281200Z NIL=@CAELT@METAR SLRI 281200Z 10005KT 9999 SCT010 BKN070 26/24 Q1013 A2992 HR86@CAELT@FU CI=METAR SLJO 281200Z 00000KT 8000 FEW020 BKN080 BKN200 25/24 Q1011A2986 HR94 FU RWY NML=METAR SLRA 281200Z 09003KT 9999 FEW006 BKN080 24/23 Q1011 A2987HR97 RWY HUM OPR=METAR SLMG 281200Z 00000KT 9999 SCT007 BKN080 24/23 Q1011 A2986HR93 RWY HUM OPR=METAR SLBU 281200Z NIL=METAR SLSA 281200Z 14005KT 9999 SCT015 BKN080 BKN200 24/22 Q1012A2989 HR90 FU=METAR SLSR 281200Z 12006KT 8000 SCT010 FEW023CB BKN080 25/23 Q1012A2988 HR88 FU CB/SH SE/S RWY OPR C210=METAR SLSM 281200Z 00000KT 9999 FEW015 BKN080 24/23 Q1013 A2992HR95 RWY OPR C210=
ZPX0224 281201@CAELT@GG SLZZYMYT@CAELT@281201 SLCBYGYS@CAELT@SABO SLCB 281200@CAELT@METAR SLCB 281200Z 29003KT 9999 FEW036 20/09 Q1026 A3031 752.5 HR49@CAELT@FU AC CI NOSIG=@CAELT@METAR SLAL 281200Z 35005KT 9999 BKN017 14/10 Q1031 A3045 705.2 HR82=@CAELT@METAR SLPO 281200Z NIL=@CAELT@METAR SLAG 281200Z NIL=METAR SLVM 281100Z 00000KT 9999 NSC 23/21 Q1010 A2983 HR87 CI=METAR SLTJ 281200Z 00000KT 9999 FEW027 22/16 Q1019 A3010 814.4 HR70=METAR SLYA 281200Z NIL=METAR SLBJ 281200Z NIL=METAR SLHI 281200Z NIL=
ZPX0225 281202@CAELT@GG SLZZYMYT@CAELT@281201 SLETYMYC@CAELT@SABO SLET 281200@CAELT@METAR SLET 281200Z 32013KT SCT010 BKN015 24/20 Q1013 A2993 HR78 NOSIG=@CAELT@
ZPX0228 281203@CAELT@GG SLZZYMYT@CAELT@281204 SLLPYGYZ@CAELT@SABO SLLP 281200 CCA@CAELT@METAR COR SLLP 281200Z VRB02KT 6000 FEW004 BKN200 08/05 Q1039 A3069@CAELT@628.8 HR83 P92// VIS/RED ST/BAJOS S/SW/W AC REFG BECMG 9999=@CAELT@
ZPX0231 281206@CAELT@GG SLZZYMYT@CAELT@281204 SLLPYFYA@CAELT@SABO SLLP 281200@CAELT@METAR SLLP 281200Z VRB02KT 6000 FEW004 BKN200 08/05 Q1039 A3069@CAELT@628.8 HR83 P92// VIS/RED ST/BAJOS S/SW/W AC REFG BECMG 9999=@CAELT@METAR SLCO 281200Z 00000KT 8000 SCT006 BKN080 26/25 Q1012 A2990@CAELT@985.0 HR92 BR=@CAELT@METAR SLRY 281200Z 00000KT 8000 SCT015 BKN080 26/24 Q1011 A2987HR86 FU RWY WET OPR C210=METAR SLRQ 281200Z 00000KT 9999 FEW010 BKN020 BKN070 26/25 Q1012A2990 988.5 HR93=METAR SLAP 281200Z 36010KT 9999 SCT030 BKN070 21/18 Q1018 A3009859.4 HR84=METAR SLSB 281200Z 00000KT 8000 FEW008 BKN080 24/23 Q1013 A2992HR94 FU RWY NML=METAR SLOR 281200Z 02004KT 9999 NSC 09/M01 Q1036 A3061 657.0 HR50FU N/SE/S/SW/NW CI=
ZPX0253 281251@CAELT@GG SLZZYMYT@CAELT@281251 SLCAYGYS@CAELT@SABO SLCA 281300@CAELT@METAR SLCA 281300Z 36003KT 9999 NSC 25/19 Q1015 A2997 HR68 RWY HUM@CAELT@OPR=@CAELT@
ZPX0255 281254@CAELT@GG SLZZYMYT@CAELT@281253 SLRBYGYS@CAELT@SABO SLRB 281300@CAELT@METAR SLRB 281300Z 00000KT 9999 NSC 30/23 Q1016 A3000 HR78 RWY NML=@CAELT@
ZPX0256 281255@CAELT@GG SLZZYMYT@CAELT@281255 SLVRYGYZ@CAELT@SABO SLVR 281300@CAELT@METAR SLVR 281300Z 35010KT 9999 SCT010 BKN015 26/22 Q1014 A2996 HR77@CAELT@NOSIG=@CAELT@
ZPX0257 281255@CAELT@GG SLZZYMYT@CAELT@281255 SLCOYSYX@CAELT@SABO SLCO 281300@CAELT@METAR SLCO 281300Z 07003KT 9999 SCT006 BKN080 28/25 Q1012 A2991 985.3@CAELT@HR85 CI=@CAELT@
ZPX0258 281255@CAELT@GG SLZZYMYT@CAELT@281255 SLSAYGYS@CAELT@SABO SLSA 281300@CAELT@METAR SLSA 281300Z 14005KT 9999 SCT015 BKN080 BKN200 25/22@CAELT@Q1012 A2991 HR84 FU=@CAELT@
ZPX0259 281256@CAELT@GG SLZZYMYT@CAELT@281255 SLLPYGYZ@CAELT@SABO SLLP 281300@CAELT@METAR SLLP 281300Z 15004KT 9999 SCT013 BKN200 10/05 Q1039 A3070@CAELT@629.1 HR73 P94// AC NOSIG=@CAELT@
ZPX0261 281256@CAELT@GG SLZZYMYT@CAELT@281255 SLSBYSYX@CAELT@SABO SLSB 281300@CAELT@METAR SLSB 281300Z 00000KT 8000 FEW012 BKN080 27/24 Q1013 A2994 HR85@CAELT@FU RWY NML=@CAELT@
ZPX0262 281256@CAELT@GG SLZZYMYT@CAELT@281256 SLTJYGYZ@CAELT@SABO SLTJ 281300@CAELT@METAR SLTJ 281300Z 36004KT 9999 FEW030 24/16 Q1019 A3010 814.2 HR61=@CAELT@
ZPX0263 281256@CAELT@GG SLZZYMYT@CAELT@281256 SLTRYGYZ@CAELT@SABO SLTR 281300@CAELT@METAR SLTR 281300Z 00000KT 9999 BKN070 26/23 Q1013 A2993 994.9 HR85@CAELT@NOSIG=@CAELT@
ZPX0264 281257@CAELT@GG SLZZYMYT@CAELT@281256 SLCBYGYZ@CAELT@SABO SLCB 281300@CAELT@METAR SLCB 281300Z 00000KT 9999 FEW036 23/08 Q1026 A3031 752.6 HR39@CAELT@FU CI NOSIG=@CAELT@
ZPX0265 281257@CAELT@GG SLZZYMYT@CAELT@281251 SLETYMYC@CAELT@SABO SLET 281300@CAELT@METAR SLET 281300Z 32013KT 9999 FEW010 BKN015 27/21 Q1014 A2996 HR70@CAELT@NOSIG=@CAELT@
ZPX0266 281257@CAELT@GG SLZZYMYT@CAELT@281256 SLORYGYZ@CAELT@SABO SLOR 281300@CAELT@METAR SLOR 281300Z 36008KT 9999 FEW020 SCT200 14/02 Q1036 A3062 657.2@CAELT@HR46=@CAELT@
ZPX0267 281258@CAELT@GG SLZZYMYT@CAELT@281258 SLVRYFYC@CAELT@SABO SLVR 281300@CAELT@METAR SLVR 281300Z 35010KT 9999 SCT010 BKN015 26/22 Q1014 A2996@CAELT@HR77 NOSIG=@CAELT@METAR SLET 281300Z 32013KT 9999 FEW010 BKN015 27/21 Q1014 A2996@CAELT@HR70 NOSIG=@CAELT@METAR SLAS 281300Z 36004KT 9999 NSC 27/23 Q1016 A3000 HR77RWY WET OPR=METAR SLJV 281300Z 00000KT 9999 NSC 25/23 Q1014 A2994 HR90RWY HUM OPR=METAR SLCP 281300Z 00000KT 9999 NSC 25/24 Q1018 A3006 HR95METAR SLSI 281300Z 00000KT 9999 BKN070 28/22 Q1014 A2994HR73 RWY NML=METAR SLTI 281300Z 00000KT 9999 NSC 30/23 Q1018 A3006 HR66 RWY NML=METAR SLJE 281300Z 00000KT 9999 SCT015 27/23 Q1017 A3003 HR78RWY NML=METAR SLVG 281300Z 36004KT 9999 NSC 19/14 Q1025 A3027 HR70CI RWY NML=METAR SLRB 281300Z 00000KT 9999 NSC 30/23 Q1016 A3000 HR78 RWY NML=METAR SLCA 281300Z 36003KT 9999 NSC 25/19 Q1015 A2997 HR68
ZPX0268 281258@CAELT@GG SLZZYMYT@CAELT@281258 SLRQYSYX@CAELT@SABO SLRQ 281300@CAELT@METAR SLRQ 281300Z 09004KT 9999 FEW010 BKN020 BKN070 26/25 Q1013@CAELT@A2993 989.3 HR93=@CAELT@
ZPX0272 281300@CAELT@GG SLZZYMYT@CAELT@281300 SLTRYGYS@CAELT@SABO SLTR 281300@CAELT@METAR SLTR 281300Z 00000KT 9999 BKN070 26/23 Q1013 A2993 994.9 HR85@CAELT@NOSIG=@CAELT@METAR SLGM 281400Z NIL=@CAELT@METAR SLRI 281300Z 11005KT 9999 FEW010 BKN070 28/24 Q1013 A2994 HR78@CAELT@FU CI=METAR SLJO 281400Z 03003KT 8000 FEW020 BKN080 BKN200 27/24 Q1012A2989 HR84 FU RWY NML=METAR SLRA 281400Z 12003KT 9999 FEW010 BKN080 25/23 Q1012 A2991HR91 RWY HUM OPR=METAR SLMG 281400Z 14004KT 9999 BKN080 25/23 Q1011 A2988 HR88RWY HUM OPR=METAR SLBU 281400Z NIL=METAR SLSA 281300Z 14005KT 9999 SCT015 BKN080 BKN200 25/22Q1012 A2991 HR84 FU=METAR SLSR 281400Z 12006KT 8000 SCT010 FEW023CB BKN080 26/23 Q1013A2991 HR82 FU CB SE RWY OPR C210=METAR SLSM 281400Z 15004KT 9999 FEW015 BKN080 25/24 Q1014 A2995HR89 RWY OPR C210=
ZPX0273 281301@CAELT@GG SLZZYMYT@CAELT@281300 SLCBYGYS@CAELT@SABO SLCB 281300@CAELT@METAR SLCB 281300Z 00000KT 9999 FEW036 23/08 Q1026 A3031 752.6 HR39@CAELT@FU CI NOSIG=@CAELT@METAR SLAL 281300Z 30006KT 9999 SCT017 15/10 Q1031 A3046 705.4 HR70=@CAELT@METAR SLVM 281300Z 36005KT 9999 NSC 28/22 Q1010 A2985 HR69=@CAELT@METAR SLTJ 281300Z 36004KT 9999 FEW030 24/16 Q1019 A3010 814.2 HR61=
ZPX0278 281303@CAELT@GG SLZZYMYT@CAELT@281303 SLLPYFYA@CAELT@SABO SLLP 281300@CAELT@METAR SLLP 281300Z 15004KT 9999 SCT013 BKN200 10/05 Q1039 A3070@CAELT@629.1 HR73 P94// AC NOSIG=@CAELT@METAR SLCO 281300Z 07003KT 9999 SCT006 BKN080 28/25 Q1012 A2991@CAELT@985.3 HR85 CI=@CAELT@METAR SLRY 281300Z 00000KT 8000 SCT015 BKN080 27/24 Q1012 A2988HR83 FU RWY WET OPR C210=METAR SLRQ 281300Z 09004KT 9999 FEW010 BKN020 BKN070 26/25 Q1013A2993 989.3 HR93=METAR SLAP 281300Z 36005KT 9999 SCT030 BKN070 23/19 Q1019 A3010860.2 HR76=METAR SLSB 281300Z 00000KT 8000 FEW012 BKN080 27/24 Q1013 A2994HR85 FU RWY NML=METAR SLOR 281300Z 36008KT 9999 FEW020 SCT200 14/02 Q1036 A3062657.2 HR46=
ZPX0283 281314@CAELT@GG SLZZYMYT@CAELT@281311 SLTRYGYS@CAELT@SABO SLTR 281300 RRA@CAELT@METAR SLTR 281300Z 00000KT 9999 BKN070 26/23 Q1013 A2993 994.9 HR85@CAELT@NOSIG=@CAELT@METAR RTD SLGM 281400Z 02010KT 9999 SCT017 BKN080 30/23 Q1012 A2990@CAELT@HR68=@CAELT@METAR SLRI 281300Z 11005KT 9999 FEW010 BKN070 28/24 Q1013 A2994 HR78FU CI=METAR SLJO 281300Z 03003KT 8000 FEW020 BKN080 BKN200 27/24 Q1012A2989 HR84 FU RWY NML=METAR SLRA 281300Z 12003KT 9999 FEW010 BKN080 25/23 Q1012 A2991HR91 RWY HUM OPR=METAR SLMG 281300Z 14004KT 9999 BKN080 25/23 Q1011 A2988 HR88RWY HUM OPR=METAR SLBU 281300Z NIL=METAR SLSA 281300Z 14005KT 9999 SCT015 BKN080 BKN200 25/22Q1012 A2991 HR84 FU=METAR SLSR 281300Z 12006KT 8000 SCT010 FEW023CB BKN080 26/23 Q1013A2991 HR82 FU CB SE RWY OPR C210=METAR SLSM 281300Z 15004KT 9999 FEW015 BKN080 25/24 Q1014 A2995HR89 RWY OPR C210=
ZPX0284 281314@CAELT@GG SLZZYMYT@CAELT@281311 SLTRYGYS@CAELT@SABO SLTR 281300 RRA@CAELT@METAR SLTR 281300Z 00000KT 9999 BKN070 26/23 Q1013 A2993 994.9 HR85@CAELT@NOSIG=@CAELT@METAR RTD SLGM 281300Z 02010KT 9999 SCT017 BKN080 30/23 Q1012 A2990@CAELT@HR68=@CAELT@METAR SLRI 281300Z 11005KT 9999 FEW010 BKN070 28/24 Q1013 A2994 HR78FU CI=METAR SLJO 281300Z 03003KT 8000 FEW020 BKN080 BKN200 27/24 Q1012A2989 HR84 FU RWY NML=METAR SLRA 281300Z 12003KT 9999 FEW010 BKN080 25/23 Q1012 A2991HR91 RWY HUM OPR=METAR SLMG 281300Z 14004KT 9999 BKN080 25/23 Q1011 A2988 HR88RWY HUM OPR=METAR SLBU 281300Z NIL=METAR SLSA 281300Z 14005KT 9999 SCT015 BKN080 BKN200 25/22Q1012 A2991 HR84 FU=METAR SLSR 281300Z 12006KT 8000 SCT010 FEW023CB BKN080 26/23 Q1013A2991 HR82 FU CB SE RWY OPR C210=METAR SLSM 281300Z 15004KT 9999 FEW015 BKN080 25/24 Q1014 A2995HR89 RWY OPR C210=
ZPX0308 281352@CAELT@GG SLZZYMYT@CAELT@281352 SLETYMYC@CAELT@SABO SLET 281400@CAELT@METAR SLET 281400Z 32013KT 9999 SCT016 BKN200 28/21 Q1014 A2996 HR66@CAELT@NOSIG=@CAELT@
ZPX0309 281353@CAELT@GG SLZZYMYT@CAELT@281353 SLSAYGYS@CAELT@SABO SLSA 281400@CAELT@METAR SLSA 281400Z 14004KT 9999 SCT015 BKN080 BKN200 26/23@CAELT@Q1012 A2991 HR82 FU=@CAELT@
ZPX0310 281354@CAELT@GG SLZZYMYT@CAELT@281354 SLORYGYZ@CAELT@SABO SLOR 281400@CAELT@METAR SLOR 281400Z 18004KT 9999 FEW020 SCT200 15/01 Q1036 A3061 657.1@CAELT@HR39=@CAELT@
ZPX0311 281354@CAELT@GG SLZZYMYT@CAELT@281354 SLSBYSYX@CAELT@SABO SLSB 281400@CAELT@METAR SLSB 281400Z 00000KT 8000 SCT017 BKN080 29/24 Q1014 A2995 HR73@CAELT@FU RWY NML=@CAELT@
ZPX0312 281354@CAELT@GG SLZZYMYT@CAELT@281354 SLRQYSYX@CAELT@SABO SLRQ 281400@CAELT@METAR SLRQ 281400Z 00000KT 9999 SCT010 BKN070 27/25 Q1013 A2994 989.6@CAELT@HR87=@CAELT@
ZPX0313 281355@CAELT@GG SLZZYMYT@CAELT@281355 SLCOYSYX@CAELT@SABO SLCO 281400@CAELT@METAR SLCO 281400Z 28004KT 9999 SCT012 SCT200 28/25 Q1012 A2991 985.4@CAELT@HR82 AC=@CAELT@
ZPX0314 281355@CAELT@GG SLZZYMYT@CAELT@281355 SLVRYGYZ@CAELT@SABO SLVR 281400@CAELT@METAR SLVR 281400Z 34010KT 9999 FEW010 SCT015 28/22 Q1014 A2996 HR68@CAELT@NOSIG=@CAELT@
ZPX0316 281355@CAELT@GG SLZZYMYT@CAELT@281354 SLRBYGYS@CAELT@SABO SLRB 281400@CAELT@METAR SLRB 281400Z 36006KT 9999 NSC 33/22 Q1016 A3000 HR53 RWY NML=@CAELT@
ZPX0317 281355@CAELT@GG SLZZYMYT@CAELT@281355 SLLPYFYA@CAELT@SABO SLRY 281400@CAELT@METAR SLRY 281400Z 00000KT 8000 BKN015 BKN080 28/24 Q1012 A2980@CAELT@HR80 FU RWY WET OPR C210=@CAELT@
ZPX0320 281356@CAELT@GG SLZZYMYT@CAELT@281356 SLTJYGYZ@CAELT@SABO SLTJ 281400@CAELT@METAR SLTJ 281400Z 00000KT 9999 FEW030 26/16 Q1018 A3008 813.8 HR55=@CAELT@
ZPX0321 281356@CAELT@GG SLZZYMYT@CAELT@281356 SLTRYGYZ@CAELT@SABO SLTR 281400@CAELT@METAR SLTR 281400Z 00000KT 9999 FEW020 BKN200 27/23 Q1013 A2993@CAELT@995.1 HR80 NOSIG=@CAELT@
ZPX0322 281357@CAELT@GG SLZZYMYT@CAELT@281357 SLVRYFYC@CAELT@SABO SLVR 281400@CAELT@METAR SLVR 281400Z 34010KT 9999 FEW010 SCT015 28/22 Q1014 A2996@CAELT@HR68 NOSIG=@CAELT@METAR SLET 281400Z 32013KT 9999 SCT016 BKN200 28/21 Q1014 A2996@CAELT@HR66 NOSIG=@CAELT@METAR SLAS 281400Z 36006KT 9999 NSC 29/23 Q1016 A3000 HR69RWY WET OPR=METAR SLJV 281400Z 00000KT 9999 NSC 27/23 Q1014 A2994 HR80RWY HUM OPR=METAR SLCP 281400Z 00000KT 9999 NSC 27/23 Q1018 A3006 HR79METAR SLSI 281400Z 00000KT 9999 SCT070 29/22 Q1015 A2997 HR65RWY NML=METAR SLTI 281400Z 00000KT 9999 NSC 32/22 Q1018 A3006 HR59METAR SLJE 281400Z 00000KT 9999 NSC 29/23 Q1018 A3006 HR71METAR SLVG 281400Z 35004KT 9999 NSC 21/14 Q1025 A3027 HR60CI RWY NML=METAR SLRB 281400Z 36006KT 9999 NSC 33/22 Q1016 A3000 HR53 RWY NML=METAR SLCA 281400Z 36004KT 9999 NSC 28/18 Q1015 A2997 HR57 RWY NML=
ZPX0323 281358@CAELT@GG SLZZYMYT@CAELT@281357 SLCBYGYZ@CAELT@SABO SLCB 281400@CAELT@METAR SLCB 281400Z 24003KT 9999 FEW036 24/08 Q1026 A3031 752.4 HR34@CAELT@FU CI NOSIG=@CAELT@
ZPX0324 281358@CAELT@GG SLZZYMYT@CAELT@281355 SLLPYGYZ@CAELT@SABO SLLP 281400@CAELT@METAR SLLP 281400Z 13004KT 070V190 9999 SCT015 BKN200 12/05 Q1039@CAELT@A3071 629.2 HR65 P94// AC NOSIG=@CAELT@
ZPX0327 281400@CAELT@GG SLZZYMYT@CAELT@281400 SLCBYGYS@CAELT@SABO SLCB 281400@CAELT@METAR SLCB 281400Z 24003KT 9999 FEW036 24/08 Q1026 A3031 752.4 HR34@CAELT@FU CI NOSIG=@CAELT@METAR SLAL 281400Z 35004KT 9999 SCT020 18/09 Q1031 A3046 705.3 HR58=@CAELT@METAR SLPO 281400Z NIL=@CAELT@METAR SLAG 281400Z NIL=METAR SLVM 281400Z NIL=METAR SLTJ 281400Z 00000KT 9999 FEW030 26/16 Q1018 A3008 813.8 HR55=METAR SLYA 281400Z NIL=METAR SLBJ 281400Z NIL=METAR SLHI 281400Z NIL=
ZPX0329 281401@CAELT@GG SLZZYMYT@CAELT@281400 SLLPYFYA@CAELT@SABO SLLP 281400@CAELT@METAR SLLP 281400Z 13004KT 070V190 9999 SCT015 BKN200 12/05 Q1039@CAELT@A3071 629.2 HR65 P94// AC NOSIG=@CAELT@METAR SLCO 281400Z 28004KT 9999 SCT012 SCT200 28/25 Q1012 A2991@CAELT@985.4 HR82 AC=@CAELT@METAR SLRY 281400Z 00000KT 8000 BKN015 BKN080 28/24 Q1012 A2980HR80 FU RWY WET OPR C210=METAR SLRQ 281400Z 00000KT 9999 SCT010 BKN070 27/25 Q1013 A2994989.6 HR87=METAR SLAP 281400Z 36015KT 9999 SCT025 BKN070 23/18 Q1019 A3011860.1 HR72=METAR SLSB 281400Z 00000KT 8000 SCT017 BKN080 29/24 Q1014 A2995HR73 FU RWY NML=METAR SLOR 281400Z 18004KT 9999 FEW020 SCT200 15/01 Q1036 A3061657.1 HR39=
ZPX0332 281401@CAELT@GG SLZZYMYT@CAELT@281400 SLTRYGYS@CAELT@SABO SLTR 281400@CAELT@METAR SLTR 281400Z 00000KT 9999 FEW020 BKN200 27/23 Q1013 A2993@CAELT@995.1 HR80 NOSIG=@CAELT@METAR SLGM 281400Z 36016KT 9999 BKN017 32/24 Q1012 A2991 HR63 AC=@CAELT@METAR SLRI 281400Z 11005KT 9999 FEW015 BKN070 28/24 Q1014 A2995 HR77@CAELT@FU CI=METAR SLJO 281400Z 10004KT 9999 FEW020 BKN080 28/24 Q1012 A2991HR82 RWY NML=METAR SLRA 281400Z 00000KT 9999 FEW020 BKN080 26/24 Q1013 A2991HR89 RWY HUM OPR=METAR SLMG 281400Z 12004KT 9999 BKN080 26/24 Q1012 A2991 HR87RWY NML=METAR SLBU 281400Z NIL=METAR SLSA 281400Z 14004KT 9999 SCT015 BKN080 BKN200 26/23Q1012 A2991 HR82 FU=METAR SLSR 281400Z 12006KT 8000 SCT015 BKN080 28/23 Q1013 A2992HR76 FU RWY HUM OPR=METAR SLSM 281400Z 00000KT 9999 BKN080 28/24 Q1013 A2994 HR78RWY OPR C210=
ZPX0341 281415@CAELT@GG SLZZYMYT@CAELT@281415 SLCBYGYS@CAELT@SABO SLCB 281400 RRB@CAELT@METAR SLCB 281400Z 24003KT 9999 FEW036 24/08 Q1026 A3031 752.4 HR34@CAELT@FU CI NOSIG=@CAELT@METAR SLAL 281400Z 35004KT 9999 SCT020 18/09 Q1031 A3046 705.3 HR58=@CAELT@METAR SLPO 281400Z NIL=@CAELT@METAR SLAG 281400Z NIL=METAR RTD SLVM 281400Z 36008KT 9999 NSC 30/22 Q1010 A2984 HR62=METAR SLTJ 281400Z 00000KT 9999 FEW030 26/16 Q1018 A3008 813.8 HR55=METAR SLYA 281400Z NIL=METAR SLBJ 284300Z NIL=METAR SLHI 281400Z NIL=
ZPX0361 281454@CAELT@GG SLZZYMYT@CAELT@281454 SLSAYGYS@CAELT@SABO SLSA 281500@CAELT@METAR SLSA 281500Z 14004KT 9999 FEW015 SCT080 BKN200 27/22@CAELT@Q1012 A2991 HR73 FU=@CAELT@
ZPX0362 281455@CAELT@GG SLZZYMYT@CAELT@281455 SLVRYGYZ@CAELT@SABO SLVR 281500@CAELT@METAR SLVR 281500Z 36013KT 9999 SCT017 30/22 Q1014 A2996 HR61 NOSIG=@CAELT@
ZPX0364 281455@CAELT@GG SLZZYMYT@CAELT@281455 SLRQYSYX@CAELT@SABO SLRQ 281500@CAELT@METAR SLRQ 281500Z 00000KT 9999 BKN013 BKN070 30/25 Q1013 A2992 989.2@CAELT@HR76=@CAELT@
ZPX0365 281455@CAELT@GG SLZZYMYT@CAELT@281453 SLRBYGYS@CAELT@SABO SLRB 281500@CAELT@METAR SLRB 281500Z 36008KT 9999 NSC 34/22 Q1015 A2997 HR50 RWY NML=@CAELT@
ZPX0366 281455@CAELT@GG SLZZYMYT@CAELT@281356 SLETYMYC@CAELT@SABO SLET 281500@CAELT@METAR SLET 281500Z 33018KT 9999 SCT018 BKN200 30/21 Q1014 A2994 HR58@CAELT@NOSIG=@CAELT@
ZPX0368 281455@CAELT@GG SLZZYMYT@CAELT@281454 SLSBYSYX@CAELT@SABO SLSB 281500@CAELT@METAR SLSB 281500Z 00000KT 8000 SCT020 SCT080 30/23 Q1013 A2994 HR70@CAELT@FU RWY NML=@CAELT@
ZPX0369 281456@CAELT@GG SLZZYMYT@CAELT@281456 SLTRYGYZ@CAELT@SABO SLTR 281500@CAELT@METAR SLTR 281500Z 00000KT 9999 FEW020 31/23 Q1013 A2993 995.0 HR65@CAELT@AC/CC NOSIG=@CAELT@
ZPX0370 281456@CAELT@GG SLZZYMYT@CAELT@281456 SLCAYGYS@CAELT@SABO SLCA 281500@CAELT@METAR SLCA 281500Z 36006KT 9999 NSC 29/18 Q1014 A2994 HR53 RWY NML=@CAELT@
ZPX0371 281456@CAELT@GG SLZZYMYT@CAELT@281455 SLCBYGYZ@CAELT@SABO SLCB 281500@CAELT@METAR SLCB 281500Z 25004KT 9999 FEW040 26/07 Q1025 A3028 751.8 HR28@CAELT@FU CI NOSIG=@CAELT@
ZPX0373 281456@CAELT@GG SLZZYMYT@CAELT@281456 SLLPYFYA@CAELT@SABO SLRY 281500@CAELT@METAR SLRY 281500Z 00000KT 8000 BKN016 BKN080 29/24 Q1012 A2991@CAELT@HR73 FU RWY WET OPR C210=@CAELT@
ZPX0375 281457@CAELT@GG SLZZYMYT@CAELT@281457 SLLPYGYZ@CAELT@SABO SLLP 281500@CAELT@METAR SLLP 281500Z 13008KT 090V160 9999 SCT017 BKN200 13/05 Q1039@CAELT@A3070 629.0 HR57 P94// AC NOSIG=@CAELT@
ZPX0376 281458@CAELT@GG SLZZYMYT@CAELT@281457 SLTJYGYZ@CAELT@SABO SLTJ 281500@CAELT@METAR SLTJ 281500Z 19004KT 9999 FEW033 27/16 Q1017 A3005 813.0 HR49=@CAELT@
ZPX0377 281458@CAELT@GG SLZZYMYT@CAELT@281457 SLCOYSYX@CAELT@SABO SLCO 281500@CAELT@METAR SLCO 281500Z 36003KT 9999 SCT017 BKN080 30/25 Q1012 A2991 985.3@CAELT@HR76 CI=@CAELT@
ZPX0378 281458@CAELT@GG SLZZYMYT@CAELT@281458 SLCBYGYS@CAELT@SABO SLCB 281500@CAELT@METAR SLCB 281500Z 25004KT 9999 FEW040 26/07 Q1025 A3028 751.8 HR28@CAELT@FU CI NOSIG=@CAELT@METAR SLAL 281500Z 03005KT 9999 SCT023 20/09 Q1031 A3045 705.0 HR50=@CAELT@METAR SLPO 281500Z NIL=@CAELT@METAR SLAG 281500Z NIL=METAR SLVM 281500Z 36005KT 9999 NSC 31/23 Q1010 A2983 HR60=METAR SLTJ 281500Z 19004KT 9999 FEW033 27/16 Q1017 A3005 813.0 HR49=METAR SLYA 281500Z NIL=METAR SLBJ 281500Z NIL=METAR SLHI 281500Z NIL=
ZPX0381 281500@CAELT@GG SLZZYMYT@CAELT@281500 SLVRYFYC@CAELT@SABO SLVR 281500@CAELT@METAR SLVR 281500Z 36013KT 9999 SCT017 30/22 Q1014 A2996 HR61 NOSIG=@CAELT@METAR SLET 281500Z 33018KT 9999 SCT018 BKN200 30/21 Q1014 A2994@CAELT@HR58 NOSIG=@CAELT@METAR SLAS 281500Z 36006KT 9999 NSC 31/23 Q1016 A3000 HR65@CAELT@RWY HUM OPR=METAR SLJV 281500Z 00000KT 9999 NSC 29/22 Q1014 A2994 HR67 RWY NML=METAR SLCP 281500Z 33005KT 9999 NSC 29/23 Q1017 A3003 HR70 RWY NML=METAR SLSI 281500Z 00000KT 9999 SCT017 32/22 Q1014 A2994 HR55RWY NML=METAR SLTI 281500Z 00000KT 9999 NSC 34/23 Q1017 A3003 HR52 RWY NML=METAR SLJE 281500Z 36005KT 9999 NSC 31/22 Q1017 A3003 HR56 RWY NML=METAR SLVG 281500Z 36009KT 9999 FEW025 23/14 Q1025 A3027 HR55METAR SLRB 281500Z 36008KT 9999 NSC 34/22 Q1015 A2997 HR50 RWY NML=METAR SLCA 281500Z 36006KT 9999 NSC 29/18 Q1014 A2994 HR53 RWY NML=
ZPX0382 281500@CAELT@GG SLZZYMYT@CAELT@281500 SLTRYGYS@CAELT@SABO SLTR 281500@CAELT@METAR SLTR 281500Z 00000KT 9999 FEW020 31/23 Q1013 A2993 995.0 HR65@CAELT@AC/CC NOSIG=@CAELT@METAR SLGM 281500Z 02015KT 9999 BKN017 32/24 Q1012 A2990 HR62=@CAELT@METAR SLRI 281500Z 08005KT 9999 FEW017 BKN070 30/24 Q1013 A2994 HR71@CAELT@METAR SLJO 281500Z 12004KT 9999 FEW020 BKN080 28/24 Q1012 A2991HR79 RWY NML=METAR SLRA 281500Z 12003KT 9999 FEW017 BKN080 28/24 Q1013 A2991HR80 RWY NML=METAR SLMG 281500Z 00000KT 9999 FEW017 BKN080 28/24 Q1012 A2991METAR SLBU 281500Z NIL=METAR SLSA 281500Z 14004KT 9999 FEW015 SCT080 BKN200 27/22Q1012 A2991 HR73 FU=METAR SLSR 281500Z 09006KT 8000 SCT017 BKN080 29/24 Q1013 A2991HR75 FU RWY HUM OPR=METAR SLSM 281500Z 00000KT 9999 FEW017 SCT080 29/24 Q1013 A2993HR72 RWY OPR C210=
ZPX0383 281502@CAELT@GG SLZZYMYT@CAELT@281501 SLLPYFYA@CAELT@SABO SLLP 281500@CAELT@METAR SLLP 281500Z 13008KT 090V160 9999 SCT017 BKN200 13/05 Q1039@CAELT@A3070 629.0 HR57 P94// AC NOSIG=@CAELT@METAR SLCO 281500Z 36003KT 9999 SCT017 BKN080 30/25 Q1012 A2991@CAELT@985.3 HR76 CI=@CAELT@METAR SLRY 281500Z 00000KT 8000 BKN016 BKN080 29/24 Q1012 A2991HR73 FU RWY WET OPR C210=METAR SLRQ 281500Z 00000KT 9999 BKN013 BKN070 30/25 Q1013 A2992989.2 HR76=METAR SLAP 281500Z 36005KT 9999 SCT025 OVC070 24/18 Q1019 A3011860.1 HR67=METAR SLSB 281500Z 00000KT 8000 SCT020 SCT080 30/23 Q1013 A2994HR70 FU RWY NML=
ZPX0407 281554@CAELT@GG SLZZYMYT@CAELT@281554 SLSAYGYS@CAELT@SABO SLSA 281600@CAELT@METAR SLSA 281600Z 09003KT 9999 SCT015 SCT080 BKN200 27/22@CAELT@Q1012 A2989 HR74 FU=@CAELT@
ZPX0412 281556@CAELT@GG SLZZYMYT@CAELT@281555 SLLPYFYA@CAELT@SABO SLRY 281600@CAELT@METAR SLRY 281600Z 00000KT 9999 SCT017 SCT080 31/25 Q1012 A2989@CAELT@HR67 FU RWY HUM OPR C210=@CAELT@
ZPX0413 281556@CAELT@GG SLZZYMYT@CAELT@281554 SLRBYGYS@CAELT@SABO SLRB 281600@CAELT@METAR SLRB 281600Z 36006KT 9999 NSC 35/21 Q1015 A2997 HR44 RWY NML=@CAELT@
ZPX0414 281556@CAELT@GG SLZZYMYT@CAELT@281555 SLLPYGYZ@CAELT@SABO SLLP 281600@CAELT@METAR SLLP 281600Z 13010KT 080V170 9999 SCT023 BKN200 14/03 Q1038@CAELT@A3068 628.6 HR48 P94// NOSIG=@CAELT@
ZPX0415 281556@CAELT@GG SLZZYMYT@CAELT@281556 SLTRYGYZ@CAELT@SABO SLTR 281600@CAELT@METAR SLTR 281600Z 35004KT 9999 SCT020 33/23 Q1012 A2991 994.4 HR58@CAELT@AC/CI NOSIG=@CAELT@
ZPX0416 281556@CAELT@GG SLZZYMYT@CAELT@281552 SLETYMYC@CAELT@SABO SLET 281600@CAELT@METAR SLET 281600Z 35013G24KT 9999 SCT020 31/22 Q1013 A2993 HR59@CAELT@NOSIG=@CAELT@
ZPX0417 281556@CAELT@GG SLZZYMYT@CAELT@281557 SLVRYGYZ@CAELT@SABO SLVR 281600@CAELT@METAR SLVR 281600Z 35010G21KT 9999 SCT017 32/22 Q1013 A2994 HR55@CAELT@NOSIG=@CAELT@
ZPX0418 281557@CAELT@GG SLZZYMYT@CAELT@281556 SLRQYSYX@CAELT@SABO SLRQ 281600@CAELT@METAR SLRQ 281600Z 36004KT 9999 BKN017 31/26 Q1012 A2990 988.4 HR74@CAELT@
ZPX0419 281557@CAELT@GG SLZZYMYT@CAELT@281556 SLCOYSYX@CAELT@SABO SLCO 281600@CAELT@METAR SLCO 281600Z 00000KT 9999 BKN020 31/24 Q1011 A2988 984.7 HR70@CAELT@AC/CI=@CAELT@
ZPX0420 281557@CAELT@GG SLZZYMYT@CAELT@281557 SLCAYGYS@CAELT@SABO SLCA 281600@CAELT@METAR SLCA 281600Z 36006KT 9999 NSC 31/17 Q1013 A2991 HR43 RWY NML=@CAELT@
ZPX0421 281557@CAELT@GG SLZZYMYT@CAELT@281556 SLSBYSYX@CAELT@SABO SLSB 281600@CAELT@METAR SLSB 281600Z 00000KT 8000 SCT020 BKN080 31/24 Q1013 A2992 HR57@CAELT@FU RWY NML=@CAELT@
ZPX0423 281558@CAELT@GG SLZZYMYT@CAELT@281557 SLCBYGYZ@CAELT@SABO SLCB 281600@CAELT@METAR SLCB 281600Z 19005KT 9999 SCT040 28/06 Q1024 A3025 750.8 HR24@CAELT@FU CI NOSIG=@CAELT@
ZPX0425 281558@CAELT@GG SLZZYMYT@CAELT@281551 SLTJYGYZ@CAELT@SABO SLTJ 281600@CAELT@METAR SLTJ 281600Z 22005KT 9999 FEW033 FEW036TCU 29/15 Q1016 A3002@CAELT@812.2 HR43 TCU N/SW/W=@CAELT@
ZPX0426 281558@CAELT@GG SLZZYMYT@CAELT@281557 SLTRYGYS@CAELT@SABO SLTR 281600@CAELT@METAR SLTR 281600Z 35004KT 9999 SCT020 33/23 Q1012 A2991 994.4 HR58@CAELT@AC/CI NOSIG=@CAELT@METAR SLGM 281600Z 32010KT 9999 BKN017 FEW020CB BKN080 33/24 Q1011@CAELT@A2988 HR59 CB SE=@CAELT@METAR SLRI 281600Z 08005KT 9999 FEW017 BKN070 30/24 Q1013 A2992 HR67METAR SLJO 281600Z 12004KT 9999 FEW020 FEW023CB BKN080 31/25 Q1012A2989 HR72 CB E RWY NML=METAR SLRA 281600Z 09004KT 9999 FEW017 FEW020CB SCT080 29/24 Q1012A2991 HR76 CI CB N/NE RWY NML=METAR SLMG 281600Z 00000KT 8000 VCSH SCT017 FEW023CB BKN080 31/24Q1011 A2988 HR69 CB/SH E/SE RWY NML=METAR SLBU 281600Z NIL=METAR SLSR 281600Z 09004KT 8000 SCT017 SCT080 30/24 Q1011 A2987HR71 FU RWY HUM OPR=METAR SLSA 281600Z 09003KT 9999 SCT015 SCT080 BKN200 27/22Q1012 A2989 HR74 FU=METAR SLSM 281600Z 00000KT 9999 BKN017 31/25 Q1013 A2992 HR68 RWYOPR C210=
ZPX0427 281559@CAELT@GG SLZZYMYT@CAELT@281559 SLVRYFYC@CAELT@SABO SLVR 281600@CAELT@METAR SLVR 281600Z 35010G21KT 9999 SCT017 32/22 Q1013 A2994@CAELT@HR55 NOSIG=@CAELT@METAR SLET 281600Z 35013G24KT 9999 SCT020 31/22 Q1013 A2993@CAELT@HR59 NOSIG=@CAELT@METAR SLAS 281600Z 36008KT 9999 NSC 32/24 Q1015 A2997 HR62RWY HUM OPR=METAR SLJV 281600Z 00000KT 9999 NSC 30/22 Q1014 A2994 HR63 RWY NML=METAR SLCP 281600Z 33005KT 9999 FEW020 30/23 Q1017 A3003 HR69RWY NML=METAR SLSI 281600Z 36006KT 9999 SCT017 34/22 Q1013 A2991 HR46METAR SLRB 281600Z 36006KT 9999 NSC 35/21 Q1015 A2997 HR44 RWY NML=METAR SLCA 281600Z 36006KT 9999 NSC 31/17 Q1013 A2991 HR43 RWY NML=
ZPX0428 281600@CAELT@GG SLZZYMYT@CAELT@281600 SLLPYFYA@CAELT@SABO SLLP 281600@CAELT@METAR SLLP 281600Z 13010KT 080V170 9999 SCT023 BKN200 14/03 Q1038@CAELT@A3068 628.6 HR48 P94// NOSIG=@CAELT@METAR SLCO 281600Z 00000KT 9999 BKN020 31/24 Q1011 A2988 984.7@CAELT@HR70 AC/CI=@CAELT@METAR SLRY 281600Z 00000KT 9999 SCT017 SCT080 31/25 Q1012 A2989HR67 FU RWY HUM OPR C210=METAR SLRQ 281600Z 36004KT 9999 BKN017 31/26 Q1012 A2990 988.4HR74 CI=METAR SLAP 281600Z 00000KT 9999 SCT025 FEW027CB BKN070 25/20 Q1018A3009 859.4 HR74 CB/SH NE/E=METAR SLSB 281600Z 00000KT 8000 SCT020 BKN080 31/24 Q1013 A2992HR57 FU RWY NML=
ZPX0429 281600@CAELT@GG SLZZYMYT@CAELT@281559 SLCBYGYS@CAELT@SABO SLCB 281600@CAELT@METAR SLCB 281600Z 19005KT 9999 SCT040 28/06 Q1024 A3025 750.8 HR24@CAELT@FU CI NOSIG=@CAELT@METAR SLAL 281600Z 00000KT 9999 SCT023 21/07 Q1030 A3043 704.8 HR43=@CAELT@METAR SLPO 281600Z NIL=@CAELT@METAR SLAG 281600Z NIL=METAR SLVM 281600Z 36010KT 9999 NSC 33/23 Q1009 A2980 HR56 CI=METAR SLTJ 281600Z 22005KT 9999 FEW033 FEW036TCU 29/15 Q1016 A3002812.2 HR43 TCU N/SW/W=METAR SLYA 281600Z NIL=METAR SLBJ 281600Z NIL=METAR SLHI 281500Z NIL=
ZPX0451 281650@CAELT@GG SLZZYMYT@CAELT@281650 SLCAYGYS@CAELT@SABO SLCA 281700@CAELT@METAR SLCA 281700Z 36010KT 9999 FEW036 29/18 Q1013 A2991 HR38 RWY NML@CAELT@
ZPX0452 281652@CAELT@GG SLZZYMYT@CAELT@281652 SLCAYGYS@CAELT@SABO SLCA 281700@CAELT@METAR SLCA 281700Z 36010KT 9999 FEW036 29/18 Q1013 A2991 HR38 RWY NML@CAELT@
ZPX0453 281653@CAELT@GG SLZZYMYT@CAELT@281653 SLRBYGYS@CAELT@SABO SLRB 281700@CAELT@METAR SLRB 281700Z 36004KT 9999 FEW020 35/21 Q1015 A2997 HR44 RWY NML=@CAELT@
ZPX0454 281654@CAELT@GG SLZZYMYT@CAELT@281654 SLSBYSYX@CAELT@SABO SLSB 281700@CAELT@METAR SLSB 281700Z 00000KT 8000 SCT020 BKN080 31/24 Q1012 A2989 HR64@CAELT@FU RWY NML=@CAELT@
ZPX0455 281654@CAELT@GG SLZZYMYT@CAELT@281646 SLETYMYC@CAELT@SABO SLET 281700@CAELT@METAR SLET 281700Z 32012G23KT 9999 SCT020 32/22 Q1012 A2989 HR56@CAELT@NOSIG=@CAELT@
ZPX0457 281655@CAELT@GG SLZZYMYT@CAELT@281654 SLSAYGYS@CAELT@SABO SLSA 281700@CAELT@METAR SLSA 281700Z 00000KT 9999 SCT017 SCT080 BKN200 29/24@CAELT@Q1011 A2987 HR73 FU=@CAELT@
ZPX0458 281655@CAELT@GG SLZZYMYT@CAELT@281655 SLCOYSYX@CAELT@SABO SLCO 281700@CAELT@METAR SLCO 281700Z 01004KT 9999 SCT023 31/24 Q1011 A2985 983.6 HR66@CAELT@AC/CI=@CAELT@
ZPX0459 281655@CAELT@GG SLZZYMYT@CAELT@281656 SLLPYGYZ@CAELT@SABO SLLP 281700@CAELT@METAR SLLP 281700Z 13008G19KT 060V200 9999 SCT023 BKN200 16/03 Q1038@CAELT@A3065 628.0 HR43 P94// NOSIG=@CAELT@
ZPX0461 281656@CAELT@GG SLZZYMYT@CAELT@281655 SLRQYSYX@CAELT@SABO SLRQ 281700@CAELT@METAR SLRQ 281700Z 36004KT 9999 BKN020 32/25 Q1011 A2987 987.4 HR68@CAELT@AC/CI=@CAELT@
ZPX0462 281656@CAELT@GG SLZZYMYT@CAELT@281656 SLVRYFYC@CAELT@SABO SLVR 281700@CAELT@METAR SLVR 281700Z 33010G22KT 9999 SCT020 32/22 Q1012 A2991@CAELT@HR53 NOSIG=@CAELT@METAR SLET 281700Z 32012G23KT 9999 SCT020 32/22 Q1012 A2989@CAELT@HR56 NOSIG=@CAELT@METAR SLAS 281700Z 36008KT 9999 NSC 32/23 Q1014 A2994 HR59 RWY NML=METAR SLCP 281700Z 33005KT 9999 FEW020 30/23 Q1016 A3000 HR65RWY NML=METAR SLSI 281700Z 36008KT 9999 SCT017 35/21 Q1012 A2988 HR43METAR SLRB 281700Z 36004KT 9999 FEW020 35/21 Q1015 A2997 HR44METAR SLCA 281700Z 36010KT 9999 FEW036 29/18 Q1013 A2991 HR38
ZPX0463 281656@CAELT@GG SLZZYMYT@CAELT@281656 SLTJYGYZ@CAELT@SABO SLTJ 281700@CAELT@METAR SLTJ 281700Z 14008KT 9999 FEW033 FEW036CB 32/14 Q1015 A2999 811@CAELT@.2 HR35 CB W/NW CI=@CAELT@
ZPX0465 281657@CAELT@GG SLZZYMYT@CAELT@281657 SLTRYGYZ@CAELT@SABO SLTR 281700@CAELT@METAR SLTR 281700Z 34004KT 8000 VCSH SCT020 FEW023CB 32/24 Q1011@CAELT@A2988 993.3 HR62 CB/SH N/S TEMPO SHRA=@CAELT@
ZPX0467 281657@CAELT@GG SLZZYMYT@CAELT@281657 SLCBYGYZ@CAELT@SABO SLCB 281700@CAELT@METAR SLCB 281700Z 01005KT 9999 SCT042 29/07 Q1022 A3020 749.7 HR24@CAELT@FU CI NOSIG=@CAELT@
ZPX0468 281658@CAELT@GG SLZZYMYT@CAELT@281658 SLCBYGYS@CAELT@SABO SLCB 281700@CAELT@METAR SLCB 281700Z 01005KT 9999 SCT042 29/07 Q1022 A3020 749.7 HR24@CAELT@FU CI NOSIG=@CAELT@METAR SLAL 281700Z 00000KT 9999 SCT023 22/07 Q1029 A3040 703.9 HR40=@CAELT@METAR SLPO 281700Z NIL=@CAELT@METAR SLAG 281600Z NIL=METAR SLVM 281700Z 36010G22KT 9999 NSC 34/23 Q1008 A2977 HR54 CI=METAR SLTJ 281700Z 14008KT 9999 FEW033 FEW036CB 32/14 Q1015 A2999 811.2 HR35 CB W/NW CI=METAR SLYA 281700Z NIL=METAR SLBJ 281700Z NIL=METAR SLHI 281700Z NIL=
ZPX0469 281659@CAELT@GG SLZZYMYT@CAELT@281658 SLTRYGYS@CAELT@SABO SLTR 281700@CAELT@METAR SLTR 281700Z 34004KT 8000 VCSH SCT020 FEW023CB 32/24 Q1011@CAELT@A2988 993.3 HR62 CB/SH N/S TEMPO SHRA=@CAELT@METAR SLGM 281700Z 00000KT 7000 VCSH BKN017 FEW020CB BKN080 33/24@CAELT@Q1010 A2985 HR58 CB/SH NE/E/SE/S=@CAELT@METAR SLRI 281700Z 00000KT 9999 FEW017 FEW020CB BKN070 31/24 Q1013A2992 HR66 CB E/SE CI=METAR SLJO 281700Z 09004KT 8000 VCSH SCT017 FEW023CB SCT080 31/25Q1011 A2988 HR68 CB/SH NE/E RWY NML=METAR SLRA 281700Z 09003KT 8000 VCSH FEW017 FEW020CB 31/24 Q1012A2989 HR68 AC/CI CB/SH N/NE/E RWY NML=METAR SLMG 281700Z 09012KT 0500 +TSRA BKN015 FEW020CB OVC070 25/24Q1012 A2989 HR96 CB E/SE/S/W TS ON STN/E RWY WET OPR C210=METAR SLBU 281700Z NIL=METAR SLSA 281700Z 00000KT 9999 SCT017 SCT080 BKN200 29/24Q1011 A2987 HR73 FU=METAR SLSR 281700Z 09004KT 8000 BKN017 31/24 Q1011 A2986 HR66 FURWY HUM OPR=METAR SLSM 281700Z 36004KT 9999 BKN017 31/25 Q1012 A2989 HR69RWY OPR C210=
ZPX0471 281700@CAELT@GG SLZZYMYT@CAELT@281700 SLLPYFYA@CAELT@SABO SLRY 281700@CAELT@METAR SLRY 281700Z 00000KT 9999 SCT020 32/24 Q1011 A2987 HR62@CAELT@CI RWY HUM OPR C210=@CAELT@
ZPX0472 281702@CAELT@GG SLZZYMYT@CAELT@281702 SLLPYFYA@CAELT@SABO SLLP 281700@CAELT@METAR SLLP 281700Z 13008G19KT 060V200 9999 SCT023 BKN200 16/03 Q1038@CAELT@A3065 628.0 HR43 P94// NOSIG=@CAELT@METAR SLCO 281700Z 01004KT 9999 SCT023 31/24 Q1011 A2985 983.6 HR66@CAELT@AC/CI=@CAELT@METAR SLRY 281700Z 00000KT 9999 SCT020 32/24 Q1011 A2987 HR62CI RWY HUM OPR C210=METAR SLRQ 281700Z 36004KT 9999 BKN020 32/25 Q1011 A2987 987.4 HR68METAR SLAP 281700Z 00000KT 9999 SCT025 FEW027CB BKN070 26/19 Q1018A3007 858.9 HR64 CB/SH E/SE/S CI=METAR SLSB 281700Z 00000KT 8000 SCT020 BKN080 31/24 Q1012 A2989 HR64FU RWY NML=
ZPX0475 281709@CAELT@GG SLZZYMYT@CAELT@281707 SLTRYGYS@CAELT@SABO SLTR 281700 CCA@CAELT@METAR SLTR 281700Z 34004KT 8000 VCSH SCT020 FEW023CB 32/24 Q1011@CAELT@A2988 993.3 HR62 CB/SH N/S TEMPO SHRA=@CAELT@METAR COR SLGM 281700Z 00000KT 7000 TS VCSH BKN017 FEW020CB BKN080 33@CAELT@/24@CAELT@Q1010 A2985 HR58 CB/SH NE/E/SE/S TS S=METAR SLRI 281700Z 00000KT 9999 FEW017 FEW020CB BKN070 31/24 Q1013A2992 HR66 CB E/SE CI=METAR SLJO 281700Z 09004KT 8000 VCSH SCT017 FEW023CB SCT080 31/25Q1011 A2988 HR68 CB/SH NE/E RWY NML=METAR SLRA 281700Z 09003KT 8000 VCSH FEW017 FEW020CB 31/24 Q1012A2989 HR68 AC/CI CB/SH N/NE/E RWY NML=METAR SLMG 281700Z 09012KT 0500 +TSRA BKN015 FEW020CB OVC070 25/24Q1012 A2989 HR96 CB E/SE/S/W TS ON STN/E RWY WET OPR C210=METAR SLBU 281700Z NIL=METAR SLSA 281700Z 00000KT 9999 SCT017 SCT080 BKN200 29/24Q1011 A2987 HR73 FU=METAR SLSR 281700Z 09004KT 8000 BKN017 31/24 Q1011 A2986 HR66 FURWY HUM OPR=METAR SLSM 281700Z 36004KT 9999 BKN017 31/25 Q1012 A2989 HR69RWY OPR C210=
ZPX0496 281751@CAELT@GG SLZZYMYT@CAELT@281750 SLRBYGYS@CAELT@SABO SLRB 281800@CAELT@METAR SLRB 281800Z 36005KT 9999 SCT020 35/21 Q1013 A2991 HR44 RWY NML=@CAELT@
ZPX0497 281753@CAELT@GG SLZZYMYT@CAELT@281752 SLETYMYC@CAELT@SABO SLET 281800@CAELT@METAR SLET 281800Z 33015G25KT 9999 SCT020 33/20 Q1011 A2987 HR48@CAELT@NOSIG=@CAELT@
ZPX0499 281754@CAELT@GG SLZZYMYT@CAELT@281754 SLSAYGYS@CAELT@SABO SLSA 281800@CAELT@METAR SLSA 281800Z 00000KT 9999 SCT017 SCT080 30/23 Q1010 A2983@CAELT@HR66 FU=@CAELT@
ZPX0500 281754@CAELT@GG SLZZYMYT@CAELT@281755 SLLPYFYA@CAELT@SABO SLRY 281800@CAELT@METAR SLRY 281800Z 36003KT 9999 SCT020 SCT080 33/24 Q1010 A2983@CAELT@HR61 RWY HUM OPR=@CAELT@
ZPX0501 281755@CAELT@GG SLZZYMYT@CAELT@281754 SLTJYGYZ@CAELT@SABO SLTJ 281800@CAELT@METAR SLTJ 281800Z 13008KT 9999 FEW036 FEW040CB SCT200 31/16 Q1015@CAELT@A2997 810.8 HR40 CB W/NW=@CAELT@
ZPX0502 281755@CAELT@GG SLZZYMYT@CAELT@281755 SLCBYGYZ@CAELT@SABO SLCB 281800@CAELT@METAR SLCB 281800Z 24005KT 9999 SCT042 29/05 Q1021 A3016 748.6 HR21@CAELT@FU CI NOSIG=@CAELT@
ZPX0503 281755@CAELT@GG SLZZYMYT@CAELT@281755 SLRQYSYX@CAELT@SABO SLRQ 281600@CAELT@METAR SLRQ 281600Z 36004KT 9999 BKN020 32/26 Q1010 A2984 986.3 HR69@CAELT@
ZPX0504 281755@CAELT@GG SLZZYMYT@CAELT@281755 SLLPYGYZ@CAELT@SABO SLLP 281800@CAELT@METAR SLLP 281800Z 14012KT 100V180 9999 SCT023 BKN200 17/03 Q1037@CAELT@A3063 627.4 HR40 P94// NOSIG=@CAELT@
ZPX0505 281756@CAELT@GG SLZZYMYT@CAELT@281755 SLSBYSYX@CAELT@SABO SLSB 281800@CAELT@METAR SLSB 281800Z 36003KT 8000 VCSH BKN020 FEW025CB 33/D25 Q1010@CAELT@A2984 HR63 CB SH SE RWY NML=@CAELT@
ZPX0506 281756@CAELT@GG SLZZYMYT@CAELT@281757 SLVRYGYZ@CAELT@SABO SLVR 281800@CAELT@METAR SLVR 281800Z 36010G21KT 9999 SCT020 33/22 Q1011 A2987 HR53@CAELT@NOSIG=@CAELT@
ZPX0508 281757@CAELT@GG SLZZYMYT@CAELT@281757 SLCAYGYS@CAELT@SABO SLCA 281800@CAELT@METAR SLCA 281800Z 36006KT 9999 FEW036 33/18 Q1011 A2985 HR41 RWY NML@CAELT@
ZPX0509 281758@CAELT@GG SLZZYMYT@CAELT@281758 SLTRYGYZ@CAELT@SABO SLTR 281800@CAELT@METAR SLTR 281800Z 35006KT 8000 VCSH FEW020 FEW023CB 33/23 Q1010@CAELT@A2985 992.2 HR58 CB/SH SE/S NOSIG=@CAELT@
ZPX0510 281758@CAELT@GG SLZZYMYT@CAELT@281758 SLVRYFYC@CAELT@SABO SLVR 281800@CAELT@METAR SLVR 281800Z 36010G21KT 9999 SCT020 33/22 Q1011 A2987 HR53@CAELT@NOSIG=@CAELT@METAR SLET 281800Z 33015G25KT 9999 SCT020 33/20 Q1011 A2987 HR48@CAELT@METAR SLAS 281800Z 36006KT 9999 FEW020 34/23 Q1013 A2991 HR54 RWY NML@CAELT@METAR SLJV 281800Z 36010KT 9999 SCT020 32/23 Q1012 A2988 HR57 RWY NMLMETAR SLCP 281800Z 33005KT 9999 SCT020 FEW030CB 32/22 Q1015A2997 HR57 CB/NE/E RWY NML=METAR SLSI 281800Z 36010KT 9999 SCT017 35/21 Q1011 A2985 HR43 RWY NMLMETAR SLTI 281800Z 00000KT 9999 NSC 36/23 Q1014 A2994 HR46 RWY NML=METAR SLJE 281800Z 00000KT 9999 SCT017 34/23 Q1014 A2994 HR54 RWY NMLMETAR SLVG 281800Z 36010KT 9999 SCT027 25/14 Q1023 A3021 HR47 RWY NMLMETAR SLRB 281800Z 36005KT 9999 SCT020 35/21 Q1013 A2991 HR44 RWY NMLMETAR SLCA 281800Z 36006KT 9999 FEW036 33/18 Q1011 A2985 HR41 RWY NML
ZPX0513 281800@CAELT@GG SLZZYMYT@CAELT@281755 SLCBYGYZ@CAELT@SABO SLCB 281800@CAELT@METAR SLCB 281800Z 24005KT 9999 SCT042 29/05 Q1021 A3016 748.6 HR21@CAELT@FU CI NOSIG=@CAELT@
ZPX0515 281801@CAELT@GG SLZZYMYT@CAELT@281800 SLLPYFYA@CAELT@SABO SLLP 281800@CAELT@METAR SLLP 281800Z 14012KT 100V180 9999 SCT023 BKN200 17/03 Q1037@CAELT@A3063 627.4 HR40 P94// NOSIG=@CAELT@METAR SLRY 281800Z 36003KT 9999 SCT020 SCT080 33/24 Q1010 A2983@CAELT@HR61 RWY HUM OPR=@CAELT@METAR SLRQ 281600Z 36004KT 9999 BKN020 32/26 Q1010 A2984 986.3 HR69METAR SLAP 281800Z 00000KT 9999 SCT025 FEW027CB BKN070 28/19 Q1016A3002 857.3 HR58 CB/SH SE/S/SW CI=METAR SLSB 281800Z 36003KT 8000 VCSH BKN020 FEW025CB 33/D25 Q1010A2984 HR63 CB SH SE RWY NML=
ZPX0516 281802@CAELT@GG SLZZYMYT@CAELT@281801 SLCBYGYS@CAELT@SABO SLCB 281800@CAELT@METAR SLCB 281800Z 24005KT 9999 SCT042 29/05 Q1021 A3016 748.6 HR21@CAELT@FU CI NOSIG=@CAELT@METAR SLAL 281800Z NIL=@CAELT@METAR SLPO 281800Z NIL=@CAELT@METAR SLAG 281800Z NIL=METAR SLVM 281800Z 36015G27KT 9999 NSC 35/23 Q1007 A2974 HR50 CI=METAR SLTJ 281800Z 13008KT 9999 FEW036 FEW040CB SCT200 31/16 Q1015A2997 810.8 HR40 CB W/NW=METAR SLYA 281800Z NIL=METAR SLBJ 281800Z NIL=METAR SLHI 281800Z NIL=
ZPX0517 281802@CAELT@GG SLZZYMYT@CAELT@281800 SLTRYGYS@CAELT@SABO SLTR 281800@CAELT@METAR SLTR 281800Z 35006KT 8000 VCSH FEW020 FEW023CB 33/23 Q1010@CAELT@A2985 992.2 HR58 CB/SH SE/S NOSIG=@CAELT@METAR SLGM 281800Z 23015KT 7000 TS VCSH BKN017 FEW020CB BKN200@CAELT@30/24 Q1009 A2982 HR73 AC CB/SH NE/E/SE/S/SW TS S=@CAELT@METAR SLRI 281800Z 36005KT 9999 SCT017 FEW020CB 32/24 Q1010 A2985HR61 CB N/S AC/CI=METAR SLJO 281800Z NIL=METAR SLRA 281800Z 06012KT 6000 TS VCSH SCT017 FEW020CB SCT20029/22 Q1011 A2987 HR66 AC CB/SH NE/E/SE/NW TS NW RWY NML=METAR SLMG 281800Z 00000KT 8000 VCSH SCT015 FEW023CB BKN070 23/23Q1011 A2986 HR95 CB/SH SW/W RWY WET OPR C210=METAR SLBU 281800Z NIL=METAR SLSA 281800Z 00000KT 9999 SCT017 SCT080 30/23 Q1010 A2983HR66 FU=METAR SLSR 281800Z 32004KT 8000 SCT017 FEW023CB 32/24 Q1010 A2984HR65 FU CB SE RWY NML=METAR SLSM 281800Z 36004KT 9999 SCT017 31/24 Q1010 A2985 HR64RWY NML=
ZPX0520 281807@CAELT@GG SLZZYMYT@CAELT@281806 SLRQYSYX@CAELT@SABO SLRQ 281800 CCA@CAELT@METAR COR SLRQ 281800Z 36004KT 9999 BKN020 32/26 Q1010 A2984 986.3@CAELT@HR69 CI=@CAELT@
ZPX0521 281807@CAELT@GG SLZZYMYT@CAELT@281807 SLSBYSYX@CAELT@SABO SLSB 281800 CCA@CAELT@METAR COR SLSB 281800Z 36003KT 8000 VCSH BKN020 FEW025CB 33/25 Q1010@CAELT@A2984 HR63 CB SH SE RWY NML=@CAELT@
ZPX0523 281809@CAELT@GG SLZZYMYT@CAELT@281809 SLLPYFYA@CAELT@SABO SLLP 281800 CCA@CAELT@METAR SLLP 281800Z 14012KT 100V180 9999 SCT023 BKN200 17/03 Q1037@CAELT@A3063 627.4 HR40 P94// NOSIG=@CAELT@METAR SLRY 281800Z 36003KT 9999 SCT020 SCT080 33/24 Q1010 A2983@CAELT@HR61 RWY HUM OPR=@CAELT@METAR COR SLRQ 281800Z 36004KT 9999 BKN020 32/26 Q1010 A2984 986.3HR69 CI=METAR SLAP 281800Z 00000KT 9999 SCT025 FEW027CB BKN070 28/19 Q1016A3002 857.3 HR58 CB/SH SE/S/SW CI=METAR COR SLSB 281800Z 36003KT 8000 VCSH BKN020 FEW025CB 33/25 Q1010A2984 HR63 CB SH SE RWY NML=
ZPX0536 281850@CAELT@GG SLZZYMYT@CAELT@281850 SLRBYGYS@CAELT@SABO SLRB 281900@CAELT@METAR SLRB 281900Z 36005KT 9999 SCT020 35/21 Q1012 A2988 HR44 RWY NML=@CAELT@
ZPX0538 281855@CAELT@GG SLZZYMYT@CAELT@281855 SLRQYSYX@CAELT@SABO SLRQ 281900@CAELT@METAR SLRQ 281900Z 36004KT 9999 BKN020 32/26 Q1008 A2979 984.6 HR69@CAELT@
ZPX0539 281855@CAELT@GG SLZZYMYT@CAELT@281855 SLSBYSYX@CAELT@SABO SLSB 281900@CAELT@METAR SLSB 281900Z 36003KT 9999 SCT020 33/24 Q1009 A2980 HR60 RWY NML=@CAELT@
ZPX0540 281855@CAELT@GG SLZZYMYT@CAELT@281855 SLSAYGYS@CAELT@SABO SLSA 281900@CAELT@METAR SLSA 281900Z 00000KT 9999 SCT017 FEW023CB 31/24 Q1008 A2979@CAELT@HR64 FU CB E=@CAELT@
ZPX0542 281855@CAELT@GG SLZZYMYT@CAELT@281855 SLVRYGYZ@CAELT@SABO SLVR 281900@CAELT@METAR SLVR 281900Z 34010G21KT 9999 SCT020 FEW027CB 33/22 Q1010 A2985@CAELT@HR52 CB/NE NOSIG=@CAELT@
ZPX0543 281856@CAELT@GG SLZZYMYT@CAELT@281855 SLLPYGYZ@CAELT@SABO SLLP 281900@CAELT@METAR SLLP 281900Z 13014KT 080V160 9999 SCT023 BKN200 18/02 Q1036@CAELT@A3060 626.8 HR36 P94// NOSIG=@CAELT@
ZPX0544 281856@CAELT@GG SLZZYMYT@CAELT@281855 SLLPYFYA@CAELT@SABO SLRY 281900@CAELT@METAR SLRY 281900Z 00000KT 9999 SCT020 34/24 Q1008 A2979 HR56@CAELT@AC RWY HUM OPR==@CAELT@
ZPX0545 281856@CAELT@GG SLZZYMYT@CAELT@281856 SLTRYGYZ@CAELT@SABO SLTR 281900@CAELT@METAR SLTR 281900Z 13006KT 7000 VCSH FEW020 FEW023CB 29/24 Q1009@CAELT@A2981 991.0 HR72 CB NE/SE SH SE NOSIG=@CAELT@
ZPX0546 281856@CAELT@GG SLZZYMYT@CAELT@281856 SLTJYGYZ@CAELT@SABO SLTJ 281900@CAELT@METAR SLTJ 281900Z 13007KT 9999 FEW036 FEW040CB SCT100 BKN200 28/16@CAELT@Q1015 A2997 810.8 HR47 CB W=@CAELT@
ZPX0547 281856@CAELT@GG SLZZYMYT@CAELT@281847 SLETYMYC@CAELT@SABO SLET 281900@CAELT@METAR SLET 281900Z 33015G25KT 9999 SCT020 33/21 Q1010 A2983 HR49@CAELT@N0SIG=@CAELT@
ZPX0548 281857@CAELT@GG SLZZYMYT@CAELT@281856 SLCAYGYS@CAELT@SABO SLCA 281900@CAELT@METAR SLCA 281900Z 36010KT 9999 FEW036 33/17 Q1011 A2985 HR39 RWY NML@CAELT@
ZPX0549 281857@CAELT@GG SLZZYMYT@CAELT@281857 SLCBYGYZ@CAELT@SABO SLCB 281900@CAELT@METAR SLCB 281900Z 24004KT 9999 SCT042 FEW044TCU 30/04 Q1019 A3012@CAELT@747.4 HR19 TCU/E FU CI NOSIG=@CAELT@
ZPX0551 281858@CAELT@GG SLZZYMYT@CAELT@281858 SLVRYFYC@CAELT@SABO SLVR 281900@CAELT@METAR SLVR 281900Z 34010G21KT 9999 SCT020 FEW027CB 33/22 Q1010 A2985@CAELT@HR52 CB/NE NOSIG=@CAELT@METAR SLET 281900Z 33015G25KT 9999 SCT020 33/21 Q1010 A2983 HR49@CAELT@N0SIG=@CAELT@METAR SLAS 281900Z 36006KT 9999 SCT020 34/23 Q1012 A2989 HR52 RWY NMLMETAR SLJV 281900Z 00000KT 9999 SCT020 32/22 Q1010 A2983 HR56 RWY NMLMETAR SLCP 281900Z 36004KT 9999 SCT020 32/22 Q1014 A2994 HR55 RWY NMLMETAR SLSI 281900Z 33010KT 9999 SCT017 35/21 Q1010 A2983 HR43 RWY NMLMETAR SLTI 281900Z 00000KT 9999 NSC 38/21 Q1012 A2988 HR39 RWY NML=METAR SLJE 281900Z 00000KT 9999 SCT017 34/23 Q1013 A2991 HR52 RWY NMLMETAR SLVG 281900Z 35012KT 9999 SCT027 25/13 Q1022 A3018 HR44 RWY NMLMETAR SLRB 281900Z 36005KT 9999 SCT020 35/21 Q1012 A2988 HR44 RWY NMLMETAR SLCA 281900Z 36010KT 9999 FEW036 33/17 Q1011 A2985 HR39 RWY NML
ZPX0554 281901@CAELT@GG SLZZYMYT@CAELT@281857 SLTRYGYS@CAELT@SABO SLTR 281900@CAELT@METAR SLTR 281900Z 13006KT 7000 VCSH FEW020 FEW023CB 29/24 Q1009@CAELT@A2981 991.0 HR72 CB NE/SE SH SE NOSIG=@CAELT@METAR SLGM 281900Z NIL=@CAELT@METAR SLRI 281900Z 29005KT 9999 SCT017 FEW020CB 33/24 Q1008 A2974@CAELT@HR57 CB N/NE/SE/S AC/CI=METAR SLJO 281900Z NIL=METAR SLRA 281900Z 09004KT 8000 TS VCSH FEW017 FEW020CB BKN200 29/23Q1009 A2981 HR70 AC CB/SH N/NE/S/SW/W TS N/NE RWY NML=METAR SLMG 281900Z 00000KT 8000 FEW015 FEW023CB BKN070 BKN200 25/24Q1009 A2982 HR94 CB N/SW/NW SH NW RWY WET OPR C210=METAR SLBU 281900Z NIL=METAR SLSA 281900Z 00000KT 9999 SCT017 FEW023CB 31/24 Q1008 A2979HR64 FU CB E=METAR SLSR 281900Z 32004KT 8000 VCSH SCT017 FEW023CB 33/24 Q1008A2978 HR62 FU CB/SH E/SE RWY NML=METAR SLSM 281900Z 00000KT 9999 SCT017 32/24 Q1009 A2982 HR64 RWYHUM OPR=
ZPX0556 281901@CAELT@GG SLZZYMYT@CAELT@281901 SLCBYGYS@CAELT@SABO SLCB 281900@CAELT@METAR SLCB 281900Z 24004KT 9999 SCT042 FEW044TCU 30/04 Q1019 A3012@CAELT@747.4 HR19 TCU/E FU CI NOSIG=@CAELT@METAR SLAL 281900Z NIL=@CAELT@METAR SLPO 281900Z NIL=@CAELT@METAR SLAG 281900Z NIL=METAR SLVM 281900Z 36017G30KT 9999 NSC 35/22 Q1005 A2969 HR48 CI=METAR SLTJ 281900Z 13007KT 9999 FEW036 FEW040CB SCT100 BKN200 28/16Q1015 A2997 810.8 HR47 CB W=METAR SLYA 281900Z NIL=METAR SLBJ 281900Z NIL=METAR SLHI 281900Z NIL=
ZPX0557 281901@CAELT@GG SLZZYMYT@CAELT@281901 SLLPYFYA@CAELT@SABO SLLP 281900@CAELT@METAR SLLP 281900Z 13014KT 080V160 9999 SCT023 BKN200 18/02 Q1036@CAELT@A3060 626.8 HR36 P94// NOSIG=@CAELT@METAR SLRY 281900Z 00000KT 9999 SCT020 34/24 Q1008 A2979 HR56@CAELT@AC RWY HUM OPR=@CAELT@METAR SLRQ 281900Z 36004KT 9999 BKN020 32/26 Q1008 A2979 984.6 HR69METAR SLSB 281900Z 36003KT 9999 SCT020 33/24 Q1009 A2980 HR60 RWY NML=
ZPX0566 281917@CAELT@GG SLZZYMYT@CAELT@281915 SLTRYGYS@CAELT@SABO SLTR 281900 CCA@CAELT@METAR SLTR 281900Z 13006KT 7000 VCSH FEW020 FEW023CB 29/24 Q1009@CAELT@A2981 991.0 HR72 CB NE/SE SH SE NOSIG=@CAELT@METAR SLGM 281900Z NIL=@CAELT@METAR SLRI 281900Z 29005KT 9999 SCT017 FEW020CB 33/24 Q1008 A2974@CAELT@HR57 CB N/NE/SE/S AC/CI=METAR SLJO 281900Z NIL=METAR SLRA 281900Z 09004KT 8000 TS VCSH FEW017 FEW020CB BKN200 29/23Q1009 A2981 HR70 AC CB/SH N/NE/S/SW/W TS N/NE RWY NML=METAR COR SLMG 281900Z 00000KT 8000 VCSH FEW015 FEW023CB BKN070BKN200 25/24 Q1009 A2982 HR94 CB N/SW/NW SH NW RWY WET OPR C210=METAR SLBU 281900Z NIL=METAR SLSA 281900Z 00000KT 9999 SCT017 FEW023CB 31/24 Q1008 A2979HR64 FU CB E=METAR SLSR 281900Z 32004KT 8000 VCSH SCT017 FEW023CB 33/24 Q1008A2978 HR62 FU CB/SH E/SE RWY NML=METAR SLSM 281900Z 00000KT 9999 SCT017 32/24 Q1009 A2982 HR64 RWYHUM OPR=
ZPX0582 281950@CAELT@GG SLZZYMYT@CAELT@281950 SLRBYGYS@CAELT@SABO SLRB 282000@CAELT@METAR SLRB 282000Z 36004KT 9999 FEW020 36/21 Q1011 A2985 HR43 RWY NML=@CAELT@
ZPX0586 281955@CAELT@GG SLZZYMYT@CAELT@281955 SLSBYSYX@CAELT@SABO SLSB 282000@CAELT@METAR SLSB 282000Z 04003KT 9999 FEW020 33/24 Q1008 A2976 HR58 RWY NML=@CAELT@
ZPX0587 281955@CAELT@GG SLZZYMYT@CAELT@281955 SLVRYGYZ@CAELT@SABO SLVR 282000@CAELT@METAR SLVR 282000Z 35010G21KT 9999 SCT020 FEW027CB 33/22 Q1009 A2981@CAELT@HR50 CB//W/NE/E NOSIG=@CAELT@
ZPX0588 281955@CAELT@GG SLZZYMYT@CAELT@281955 SLSAYGYS@CAELT@SABO SLSA 282000@CAELT@METAR SLSA 282000Z 00000KT 9999 SCT017 FEW023CB 33/24 Q1007 A2975@CAELT@HR61 FU CB E=@CAELT@
ZPX0590 281956@CAELT@GG SLZZYMYT@CAELT@281956 SLTRYGYZ@CAELT@SABO SLTR 282000@CAELT@METAR SLTR 282000Z 10003KT 9999 FEW020 FEW023CB BKN200 30/24 Q1008@CAELT@A2978 990.0 HR70 CB E NOSIG=@CAELT@
ZPX0591 281957@CAELT@GG SLZZYMYT@CAELT@281956 SLRQYSYX@CAELT@SABO SLRQ 282000@CAELT@METAR SLRQ 282000Z 36004KT 9999 BKN020 35/26 Q1007 A2975 983.4 HR60@CAELT@
ZPX0592 281957@CAELT@GG SLZZYMYT@CAELT@281956 SLLPYGYZ@CAELT@SABO SLLP 282000@CAELT@METAR SLLP 282000Z 10009KT 060V160 9999 SCT023 BKN200 17/02 Q1035@CAELT@A3057 626.2 HR36 P3483 NOSIG=@CAELT@
ZPX0595 281958@CAELT@GG SLZZYMYT@CAELT@281958 SLCAYGYS@CAELT@SABO SLCA 282000@CAELT@METAR SLCA 282000Z 09006KT 9999 FEW036 33/16 Q1010 A2983 HR36 RWY NML@CAELT@
ZPX0596 281958@CAELT@GG SLZZYMYT@CAELT@281957 SLCBYGYZ@CAELT@SABO SLCB 282000@CAELT@METAR SLCB 282000Z 08009KT 9999 FEW042 FEW044CB 30/03 Q1018 A3009 746@CAELT@.6 HR18 CB/S FU AC CI NOSIG=@CAELT@
ZPX0597 281958@CAELT@GG SLZZYMYT@CAELT@281953 SLETYMYC@CAELT@SABO SLET 282000@CAELT@METAR SLET 282000Z 32013G23KT 9999 SCT020 FEW030CB 33/21 Q1008 A2979@CAELT@HR48 CB NE NOSIG=@CAELT@
ZPX0598 281959@CAELT@GG SLZZYMYT@CAELT@281959 SLVRYFYC@CAELT@SABO SLVR 282000@CAELT@METAR SLVR 282000Z 35010G21KT 9999 SCT020 FEW027CB 33/22 Q1009 A2981@CAELT@HR50 CB//W/NE/E NOSIG=@CAELT@METAR SLET 282000Z 32013G23KT 9999 SCT020 FEW030CB 33/21 Q1008 A2979@CAELT@HR48 CB NE NOSIG=@CAELT@METAR SLAS 282000Z 36006KT 9999 FEW020 34/23 Q1010 A2983 HR52 RWY NMLMETAR SLJV 282000Z 00000KT 9999 SCT020 30/23 Q1009 A2980 HR65 RWY NMLMETAR SLCP 282000Z 00000KT 9999 FEW020 30/23 Q1013 A2991 HR66 RWY NMLMETAR SLSI 282000Z 36005KT 9999 SCT017 34/21 Q1009 A2980 HR45 RWY NMLMETAR SLTI 282000Z 00000KT 9999 NSC 38/22 Q1011 A2985 HR40 RWY NML=METAR SLJE 282000Z 00000KT 9999 SCT017 34/23 Q1012 A2988 HR54 RWY NMLMETAR SLVG 282000Z 35008KT 9999 SCT027 24/14 Q1021 A3015 HR49 RWY NMLMETAR SLRB 282000Z 36004KT 9999 FEW020 36/21 Q1011 A2985 HR43 RWY NMLMETAR SLCA 282000Z 09006KT 9999 FEW036 33/16 Q1010 A2983 HR36 RWY NML
ZPX0602 282001@CAELT@GG SLZZYMYT@CAELT@282000 SLTRYGYS@CAELT@SABO SLTR 282000@CAELT@METAR SLTR 282000Z 10003KT 9999 FEW020 FEW023CB BKN200 30/24 Q1008@CAELT@A2978 990.0 HR70 CB E NOSIG=@CAELT@METAR SLGM 282000Z NIL=@CAELT@METAR SLRI 282000Z 21005KT 9999 SCT017 FEW020CB BKN200 30/25 Q1007@CAELT@A2976 HR79 CB N/NE/S AC=METAR SLJO 282000Z NIL=METAR SLRA 282000Z 14007KT 8000 TS VCSH FEW017 FEW020CB SCT080BKN200 28/24 Q1009 A2981 HR82 CB/SH N/SW/NW TS N RWY NML=METAR SLMG 282000Z 00000KT 8000 VCSH FEW015 FEW023CB BKN070 BKN20026/25 Q1009 A2981 HR91 CB/SH SW RWY WET OPR C210=METAR SLBU 282000Z NIL=METAR SLSA 282000Z 00000KT 9999 SCT017 FEW023CB 33/24 Q1007 A2975HR61 FU CB E=METAR SLSR 282000Z 32006KT 8000 VCSH SCT017 FEW023CB 33/24 Q1006A2973 HR59 FU CB/SH NE/E RWY NML=METAR SLSM 282000Z 00000KT 9999 FEW017 32/24 Q1007 A2976 HR63 RWYHUM OPR=
ZPX0604 282002@CAELT@GG SLZZYMYT@CAELT@282001 SLCBYGYS@CAELT@SABO SLCB 282000@CAELT@METAR SLCB 282000Z 08009KT 9999 FEW042 FEW044CB 30/03 Q1018 A3009 746@CAELT@.6 HR18 CB/S FU AC CI NOSIG=@CAELT@METAR SLAL 282000Z NIL=@CAELT@METAR SLPO 282000Z NIL=@CAELT@METAR SLAG 282000Z NIL=METAR SLVM 282000Z NIL=METAR SLTJ 282000Z NIL=METAR SLYA 282000Z NIL=METAR SLBJ 282000Z NIL=METAR SLHI 282000Z NIL=
ZPX0606 282004@CAELT@GG SLZZYMYT@CAELT@282000 SLLPYFYA@CAELT@SABO SLRY 282000@CAELT@METAR SLRY 282000Z 32003KT 9999 SCT020 34/24 Q1007 A2976 HR54@CAELT@CI RWY NML=@CAELT@
ZPX0607 282005@CAELT@GG SLZZYMYT@CAELT@282004 SLLPYFYA@CAELT@SABO SLLP 282000@CAELT@METAR SLLP 282000Z 10009KT 060V160 9999 SCT023 BKN200 17/02 Q1035@CAELT@A3057 626.2 HR36 P3483 NOSIG=@CAELT@METAR SLRY 282000Z 32003KT 9999 SCT020 34/24 Q1007 A2976 HR54@CAELT@CI RWY NML=@CAELT@METAR SLRQ 282000Z 36004KT 9999 BKN020 35/26 Q1007 A2975 983.4HR60 CI=METAR SLSB 282000Z 04003KT 9999 FEW020 33/24 Q1008 A2976 HR58RWY NML=
ZPX0626 282050@CAELT@GG SLZZYMYT@CAELT@282050 SLRBYGYS@CAELT@SABO SLRB 282100@CAELT@METAR SLRB 282100Z 00000KT 9999 FEW020 35/21 Q1011 A2985 HR44 RWY NML=@CAELT@
ZPX0628 282053@CAELT@GG SLZZYMYT@CAELT@282026 SLETYMYC@CAELT@SABO SLET 282100@CAELT@METAR SLET 282100Z 32012KT 9999 FEW020 FEW030CB 31/21 Q1008 A2978@CAELT@HR54 CB W NOSIG=@CAELT@
ZPX0630 282054@CAELT@GG SLZZYMYT@CAELT@282054 SLSAYGYS@CAELT@SABO SLSA 282100@CAELT@METAR SLSA 282100Z 09006KT 7000 VCSH SCT017 FEW023CB BKN200 32/23@CAELT@Q1007 A2975 HR58 FU CB/SH NE/E=@CAELT@
ZPX0631 282054@CAELT@GG SLZZYMYT@CAELT@282054 SLSAYGYS@CAELT@SABO SLSA 282100@CAELT@METAR SLSA 282100Z 09006KT 7000 VCSH SCT017 FEW023CB BKN200 32/23@CAELT@Q1007 A2975 HR58 FU CB/SH NE/E=@CAELT@
ZPX0632 282055@CAELT@GG SLZZYMYT@CAELT@282055 SLVRYGYZ@CAELT@SABO SLVR 282100@CAELT@METAR SLVR 282100Z 36010G20KT 9999 FEW020 FEW027CB 32/21 Q1009 A2980@CAELT@HR54 CB//N/NE/E NOSIG=@CAELT@
ZPX0633 282055@CAELT@GG SLZZYMYT@CAELT@282055 SLSBYSYX@CAELT@SABO SLSB 282100@CAELT@METAR SLSB 282100Z 05003KT 9999 FEW020 SCT200 33/24 Q1007 A2975 HR60@CAELT@RWY NML=@CAELT@
ZPX0636 282055@CAELT@GG SLZZYMYT@CAELT@282055 SLCAYGYS@CAELT@SABO SLCA 282100@CAELT@METAR SLCA 282100Z 15004KT 9999 FEW036 SCT200 32/16 Q1010 A2983 HR37@CAELT@RWY NML=@CAELT@
ZPX0637 282056@CAELT@GG SLZZYMYT@CAELT@282055 SLLPYFYA@CAELT@SABO SLRY 282100@CAELT@METAR SLRY 282100Z 00000KT 9999 FEW020 FEW025CB SCT200 34/24 Q1006@CAELT@A2973 HR57 CB/N RWY NML=@CAELT@
ZPX0638 282056@CAELT@GG SLZZYMYT@CAELT@282056 SLTRYGYZ@CAELT@SABO SLTR 282100@CAELT@METAR SLTR 282100Z 10003KT 9999 FEW020 FEW023CB SCT200 32/24 Q1007@CAELT@A2976 989.2 HR61 AC CB N/E NOSIG=@CAELT@
ZPX0639 282056@CAELT@GG SLZZYMYT@CAELT@282055 SLRQYSYX@CAELT@SABO SLRQ 282100@CAELT@METAR SLRQ 282100Z 00000KT 9999 SCT020 SCT200 32/27 Q1007 A2974 983.0@CAELT@HR75 AC=@CAELT@
ZPX0640 282056@CAELT@GG SLZZYMYT@CAELT@282055 SLCBYGYZ@CAELT@SABO SLCB 282100@CAELT@METAR SLCB 282100Z 13010KT 030V190 9999 FEW042 29/04 Q1018 A3008 746.@CAELT@4 HR21 FU AC CI NOSIG=@CAELT@
ZPX0641 282056@CAELT@GG SLZZYMYT@CAELT@282056 SLLPYGYZ@CAELT@SABO SLLP 282100@CAELT@METAR SLLP 282100Z 12009KT 080V160 9999 FEW023 FEW025CB BKN200 16/02@CAELT@Q1034 A3056 625.8 HR38 P93// CB/S NOSIG=@CAELT@
ZPX0642 282058@CAELT@GG SLZZYMYT@CAELT@282058 SLVRYFYC@CAELT@SABO SLVR 282100@CAELT@METAR SLVR 282100Z 36010G20KT 9999 FEW020 FEW027CB 32/21 Q1009 A2980@CAELT@HR54 CB//N/NE/E NOSIG=@CAELT@METAR SLET 282100Z 32012KT 9999 FEW020 FEW030CB 31/21 Q1008 A2978@CAELT@HR54 CB W NOSIG=@CAELT@METAR SLAS 282100Z 36005KT 9999 FEW020 33/21 Q1010 A2983 HR50 RWY NMLMETAR SLJV 282100Z 00000KT 9999 FEW020 30/23 Q1009 A2980 HR68 RWY NMLMETAR SLCP 282100Z 00000KT 9999 FEW020 30/23 Q1013 A2991 HR70 RWY NMLMETAR SLSI 282100Z 33005KT 9999 SCT017 34/22 Q1009 A2980 HR48 RWY NMLMETAR SLTI 282100Z 00000KT 9999 NSC 38/21 Q1011 A2985 HR37 RWY NML=METAR SLJE 282100Z 00000KT 9999 FEW017 34/24 Q1011 A2985 HR56 RWY NMLMETAR SLVG 282100Z 02006KT 9999 SCT027 BKN200 23/14 Q1021A3015 HR55 RWY NML=METAR SLRB 282100Z 00000KT 9999 FEW020 35/21 Q1011 A2985 HR44 RWY NMLMETAR SLCA 282100Z 15004KT 9999 FEW036 SCT200 32/16 Q1010 A2983HR37 RWY NML=
ZPX0646 282100@CAELT@GG SLZZYMYT@CAELT@282100 SLTRYGYS@CAELT@SABO SLTR 282100@CAELT@METAR SLTR 282100Z 10003KT 9999 FEW020 FEW023CB SCT200 32/24 Q1007@CAELT@A2976 989.2 HR61 AC CB N/E NOSIG=@CAELT@METAR SLGM 282100Z NIL=@CAELT@METAR SLRI 282100Z NIL=@CAELT@METAR SLJO 282100Z NIL=METAR SLRA 282100Z 14004KT 8000 TS VCSH FEW017 FEW020CB SCT080BKN200 28/24 Q1009 A2980 HR82 CB/TS/SH NW RWY NML=METAR SLMG 282100Z 00000KT 9999 FEW015 SCT070 BKN200 26/24 Q1008A2979 HR91 RWY WET OPR C210=METAR SLBU 282100Z NIL=METAR SLSA 282100Z 09006KT 7000 VCSH SCT017 FEW023CB BKN200 32/23Q1007 A2975 HR58 FU CB/SH NE/E=METAR SLSR 282100Z 32004KT 8000 FEW017 FEW023CB SCT200 34/24 Q1006A2972 HR58 FU CB N/NE RWY NML=METAR SLSM 282100Z 00000KT 9999 FEW017 SCT200 32/24 Q1007 A2976HR63 RWY NML=
ZPX0647 282100@CAELT@GG SLZZYMYT@CAELT@282100 SLCBYGYS@CAELT@SABO SLCB 282100@CAELT@METAR SLCB 282100Z 13010KT 030V190 9999 FEW042 29/04 Q1018 A3008 746.@CAELT@4 HR21 FU AC CI NOSIG=@CAELT@METAR SLAL 282100Z NIL=@CAELT@METAR SLPO 282100Z NIL=@CAELT@METAR SLAG 282100Z NIL=METAR SLVM 282100Z NIL=METAR SLTJ 282100Z NIL=METAR SLYA 282100Z NIL=METAR SLBJ 282100Z NIL=METAR SLHI 282100Z NIL=
ZPX0648 282101@CAELT@GG SLZZYMYT@CAELT@282101 SLLPYFYA@CAELT@SABO SLLP 282100@CAELT@METAR SLLP 282100Z 12009KT 080V160 9999 FEW023 FEW025CB BKN200 16/02@CAELT@Q1034 A3056 625.8 HR38 P93// CB/S NOSIG=@CAELT@METAR SLRY 282100Z 00000KT 9999 FEW020 FEW025CB SCT200 34/24 Q1006@CAELT@A2973 HR57 CB/N RWY NML=@CAELT@METAR SLRQ 282100Z 00000KT 9999 SCT020 SCT200 32/27 Q1007 A2974983.0 HR75 AC=METAR SLSB 282100Z 05003KT 9999 FEW020 SCT200 33/24 Q1007 A2975HR60 RWY NML=
ZPX0649 282101@CAELT@GG SLZZYMYT@CAELT@282101 SLTRYGYS@CAELT@SABO SLTR 282100 RRA@CAELT@METAR SLTR 282100Z 10003KT 9999 FEW020 FEW023CB SCT200 32/24 Q1007@CAELT@A2976 989.2 HR61 AC CB N/E NOSIG=@CAELT@METAR SLGM 282100Z NIL=@CAELT@METAR RTD SLRI 282100Z 29006KT 1500 +SHRA SCT015 FEW020CB BKN200 27/@CAELT@Q1008 A2979 HR91 CB ON STN/N/NE/SE/S AC=METAR SLJO 282100Z NIL=METAR SLRA 282100Z 14004KT 8000 TS VCSH FEW017 FEW020CB SCT080BKN200 28/24 Q1009 A2980 HR82 CB/TS/SH NW RWY NML=METAR SLMG 282100Z 00000KT 9999 FEW015 SCT070 BKN200 26/24 Q1008A2979 HR91 RWY WET OPR C210=METAR SLBU 282100Z NIL=METAR SLSA 282100Z 09006KT 7000 VCSH SCT017 FEW023CB BKN200 32/23Q1007 A2975 HR58 FU CB/SH NE/E=METAR SLSR 282100Z 32004KT 8000 FEW017 FEW023CB SCT200 34/24 Q1006A2972 HR58 FU CB N/NE RWY NML=METAR SLSM 282100Z 00000KT 9999 FEW017 SCT200 32/24 Q1007 A2976HR63 RWY NML=
ZPX0664 282153@CAELT@GG SLZZYMYT@CAELT@282152 SLRBYGYS@CAELT@SABO SLRB 282200@CAELT@METAR SLRB 282200Z 00000KT 9999 NSC 34/22 Q1011 A2985 HR48 RWY NML=@CAELT@
ZPX0665 282153@CAELT@GG SLZZYMYT@CAELT@282153 SLETYMYC@CAELT@SABO SLET 282200@CAELT@METAR SLET 282200Z 32015KT 9999 FEW017 BKN200 30/20 Q1008 A2979 NOSIG=@CAELT@
ZPX0667 282154@CAELT@GG SLZZYMYT@CAELT@282155 SLSBYSYX@CAELT@SABO SLSB 282200@CAELT@METAR SLSB 282200Z 00000KT 9999 NSC 32/24 Q1007 A2975 HR65 CI RWY NML=@CAELT@
ZPX0668 282155@CAELT@GG SLZZYMYT@CAELT@282155 SLVRYGYZ@CAELT@SABO SLVR 282200@CAELT@METAR SLVR 282200Z 35010KT 9999 FEW020 FEW027CB 31/21 Q1009 A2980@CAELT@HR57 CB/N CI NOSIG=@CAELT@
ZPX0670 282156@CAELT@GG SLZZYMYT@CAELT@282155 SLLPYFYA@CAELT@SABO SLRY 282200@CAELT@METAR SLRY 282200Z 00000KT 6000 VCSH FEW020 FEW023CB SCT200 33/24@CAELT@Q1007 A2974 HR59 CB/SH W/NW RWY NML=@CAELT@
ZPX0672 282156@CAELT@GG SLZZYMYT@CAELT@282156 SLTRYGYZ@CAELT@SABO SLTR 282200@CAELT@METAR SLTR 282200Z 00000KT 9999 FEW020 FEW023CB SCT200 32/24 Q1007@CAELT@A2976 989.2 HR62 CB E NOSIG=@CAELT@
ZPX0673 282156@CAELT@GG SLZZYMYT@CAELT@282156 SLLPYGYZ@CAELT@SABO SLLP 282200@CAELT@METAR SLLP 282200Z 10010KT 060V130 9999 FEW020 FEW023CB BKN200 14/02@CAELT@Q1034 A3056 625.8 HR43 P93// CB/S NOSIG=@CAELT@
ZPX0674 282157@CAELT@GG SLZZYMYT@CAELT@282156 SLSAYGYS@CAELT@SABO SLSA 282200@CAELT@METAR SLSA 282200Z 09010KT 7000 VCSH SCT017 FEW023CB BKN200 30/24@CAELT@Q1007 A2975 HR69 FU CB/SH N/NE=@CAELT@
ZPX0675 282157@CAELT@GG SLZZYMYT@CAELT@282156 SLCBYGYZ@CAELT@SABO SLCB 282200@CAELT@METAR SLCB 282200Z 11008KT 060V170 9999 FEW040 SCT200 28/05 Q1018@CAELT@A3008 746.5 HR22 FU AC NOSIG=@CAELT@
ZPX0676 282157@CAELT@GG SLZZYMYT@CAELT@282156 SLRQYSYX@CAELT@SABO SLRQ 282200@CAELT@METAR SLRQ 282200Z 00000KT 9999 SCT020 SCT200 31/26 Q1007 A2976 983.6@CAELT@HR74 AC=@CAELT@
ZPX0677 282158@CAELT@GG SLZZYMYT@CAELT@282158 SLVRYFYC@CAELT@SABO SLVR 282200@CAELT@METAR SLVR 282200Z 35010KT 9999 FEW020 FEW027CB 31/21 Q1009 A2980@CAELT@HR57 CB/N CI NOSIG=@CAELT@METAR SLET 282200Z 32015KT 9999 FEW017 BKN200 30/20 Q1008 A2979 NOSIG@CAELT@=@CAELT@METAR SLAS 282200Z 00000KT 9999 NSC 32/22 Q1010 A2983 HR55 RWY NML=METAR SLJV 282200Z 00000KT 9999 NSC 29/22 Q1009 A2980 HR70 RWY NML=METAR SLCP 282200Z 00000KT 9999 NSC 28/23 Q1013 A2991 HR73 RWY NML=METAR SLSI 282200Z 00000KT 9999 SCT017 33/21 Q1009 A2980 HR55 RWY NMLMETAR SLTI 282200Z 00000KT 9999 NSC 36/21 Q1011 A2985 HR44 RWY NML=METAR SLJE 282200Z 00000KT 9999 FEW017 33/23 Q1011 A2985 HR57 RWY NMLMETAR SLRB 282200Z 00000KT 9999 NSC 34/22 Q1011 A2985 HR48 RWY NML=METAR SLCA 282200Z 36004KT 9999 FEW070 31/16 Q1010 A2983 HR41 RWY NML
ZPX0681 282200@CAELT@GG SLZZYMYT@CAELT@282200 SLLPYFYA@CAELT@SABO SLLP 282200@CAELT@METAR SLLP 282200Z 10010KT 060V130 9999 FEW020 FEW023CB BKN200 14/02@CAELT@Q1034 A3056 625.8 HR43 P93// CB/S NOSIG=@CAELT@METAR SLRY 282200Z 00000KT 6000 VCSH FEW020 FEW023CB SCT200 33/24@CAELT@Q1007 A2974 HR59 CB/SH W/NW RWY NML=@CAELT@METAR SLRQ 282200Z 00000KT 9999 SCT020 SCT200 31/26 Q1007 A2976 983.6HR74 AC=METAR SLSB 282200Z 00000KT 9999 NSC 32/24 Q1007 A2975 HR65 CI RWY NML=
ZPX0682 282201@CAELT@GG SLZZYMYT@CAELT@282200 SLTRYGYS@CAELT@SABO SLTR 282200@CAELT@METAR SLTR 282200Z 00000KT 9999 FEW020 FEW023CB SCT200 32/24 Q1007@CAELT@A2976 989.2 HR62 CB E NOSIG=@CAELT@METAR SLGM 282200Z NIL=@CAELT@METAR SLRI 282200Z 29008KT 2000 SHRA SCT015 FEW020CB BKN200 24/23@CAELT@Q1010 A2983 HR95 CB N/NE/SE/NW AC=METAR SLJO 282200Z NIL=METAR SLRA 282200Z 00000KT 9999 FEW017 SCT080 BKN200 28/24 Q1008A2979 HR80 RETS RWY NML=METAR SLMG 282200Z 00000KT 9999 FEW015 SCT080 BKN200 26/24 Q1008A2978 HR93 RWY WET OPR C210=METAR SLBU 282200Z NIL=METAR SLSA 282200Z 09010KT 7000 VCSH SCT017 FEW023CB BKN200 30/24Q1007 A2975 HR69 FU CB/SH N/NE=METAR SLSR 282200Z 36006KT 8000 FEW017 FEW023CB BKN200 32/25 Q1006A2972 HR64 FU CB N/NE RWY NML=METAR SLSM 282200Z 00000KT 9999 FEW017 SCT200 32/24 Q1007 A2975HR64 RWY NML=
ZPX0694 282250@CAELT@GG SLZZYMYT@CAELT@282250 SLRBYGYS@CAELT@SABO SLRB 282300@CAELT@METAR SLRB 282300Z 00000KT 9999 NSC 32/22 Q1011 A2985 HR57 RWY NML=@CAELT@
ZPX0696 282251@CAELT@GG SLZZYMYT@CAELT@282250 SLRBYGYS@CAELT@SABO SLRB 282300@CAELT@METAR SLRB 282300Z 00000KT 9999 NSC 32/22 Q1011 A2985 HR57 RWY NML=@CAELT@
ZPX0697 282254@CAELT@GG SLZZYMYT@CAELT@282254 SLSAYGYS@CAELT@SABO SLSA 282300@CAELT@METAR SLSA 282300Z 09006KT 9999 FEW017 FEW023CB BKN200 28/24 Q1008@CAELT@A2977 HR78 FU CB NW=@CAELT@
ZPX0698 282254@CAELT@GG SLZZYMYT@CAELT@282254 SLSAYGYS@CAELT@SABO SLSA 282300@CAELT@METAR SLSA 282300Z 09006KT 9999 FEW017 FEW023CB BKN200 28/24 Q1008@CAELT@A2977 HR78 FU CB NW=@CAELT@
ZPX0699 282255@CAELT@GG SLZZYMYT@CAELT@282255 SLVRYGYZ@CAELT@SABO SLVR 282300@CAELT@METAR SLVR 282300Z 36004KT 9999 FEW020 SCT200 28/21 Q1009 A2982 HR66@CAELT@NOSIG=@CAELT@
ZPX0700 282255@CAELT@GG SLZZYMYT@CAELT@282255 SLCAYGYS@CAELT@SABO SLCA 282300@CAELT@METAR SLCA 282300Z 00000KT 9999 SCT070 30/16 Q1011 A2985 HR44 RWY NML@CAELT@
ZPX0701 282255@CAELT@GG SLZZYMYT@CAELT@282255 SLCBYGYZ@CAELT@SABO SLCB 282300@CAELT@METAR SLCB 282300Z 09014KT 9999 FEW040 BKN200 25/07 Q1019 A3011 747.2@CAELT@HR31 AC FU NOSIG=@CAELT@
ZPX0702 282255@CAELT@GG SLZZYMYT@CAELT@282255 SLSBYSYX@CAELT@SABO SLSB 282300@CAELT@METAR SLSB 282300Z 00000KT 9999 NSC 30/25 Q1008 A2977 HR75 CI RWY NML@CAELT@
ZPX0703 282256@CAELT@GG SLZZYMYT@CAELT@282256 SLTRYGYZ@CAELT@SABO SLTR 282300@CAELT@METAR SLTR 282300Z 00000KT 9999 FEW020 BKN200 30/23 Q1008 A2977@CAELT@989.8 HR67 NOSIG=@CAELT@
ZPX0704 282256@CAELT@GG SLZZYMYT@CAELT@282256 SLLPYGYZ@CAELT@SABO SLLP 282300@CAELT@METAR SLLP 282300Z 11011KT 9999 FEW017 FEW020CB BKN200 12/02 Q1035@CAELT@A3058 626.3 HR49 CB/SW NOSIG=@CAELT@
ZPX0705 282257@CAELT@GG SLZZYMYT@CAELT@282257 SLVRYFYC@CAELT@SABO SLVR 282300@CAELT@METAR SLVR 282300Z 36004KT 9999 FEW020 SCT200 28/21 Q1009 A2982 HR66@CAELT@NOSIG=@CAELT@METAR SLSI 282300Z 00000KT 9999 SCT017 31/21 Q1009 A2980 HR55 RWY NML@CAELT@METAR SLRB 282300Z 00000KT 9999 NSC 32/22 Q1011 A2985 HR57 RWY NML=@CAELT@METAR SLCA 282300Z 00000KT 9999 SCT070 30/16 Q1011 A2985 HR44 RWY NML
ZPX0706 282258@CAELT@GG SLZZYMYT@CAELT@282258 SLTRYGYS@CAELT@SABO SLTR 282300@CAELT@METAR SLTR 282300Z 00000KT 9999 FEW020 BKN200 30/23 Q1008 A2977@CAELT@989.8 HR67 NOSIG=@CAELT@METAR SLTR 282300Z NIL=@CAELT@METAR SLRI 282300Z 29008KT 5000 SHRA SCT010 FEW020CB BKN200 24/23@CAELT@Q1010 A2983 HR97 CB N/NE/SE/NW AC=METAR SLSA 282300Z 09006KT 9999 FEW017 FEW023CB BKN200 28/24 Q1008A2977 HR78 FU CB NW=
ZPX0707 282259@CAELT@GG SLZZYMYT@CAELT@282300 SLLPYFYA@CAELT@SABO SLLP 282300@CAELT@METAR SLLP 282300Z 11011KT 9999 FEW017 FEW020CB BKN200 12/02 Q1035@CAELT@A3058 626.3 HR49 CB/SW NOSIG=@CAELT@METAR SLSB 282300Z 00000KT 9999 NSC 30/25 Q1008 A2977 HR75 CI@CAELT@RWY NML=@CAELT@
ZPX0724 282355@CAELT@GG SLZZYMYT@CAELT@282355 SLVRYGYZ@CAELT@SABO SLVR 290000@CAELT@METAR SLVR 290000Z 33004KT 9999 NSC 27/21 Q1010 A2983 HR69 CI NOSIG=@CAELT@
