
ZPX0001 260000@CAELT@GG SLZZYMYT@CAELT@260000 SLCBYGYS@CAELT@SABO SLCB 260000@CAELT@METAR SLCB 260000Z 18004KT 9999 FEW033 SCT200 21/05 Q1019 A3009 746.8@CAELT@HR36 AC FU NOSIG=@CAELT@
ZPX0016 260055@CAELT@GG SLZZYMYT@CAELT@260056 SLVRYGYZ@CAELT@SABO SLVR 260100@CAELT@METAR SLVR 260100Z 34012KT 8000 NSC 29/22 Q1005 A2968 HR65 FU CI@CAELT@NOSIG=@CAELT@
ZPX0017 260056@CAELT@GG SLLPZRZX@CAELT@260055 SLLPYGYZ@CAELT@SABO SLLP 260100@CAELT@METAR SLLP 260100Z 36005KT 9999 FEW015 FEW017CB SCT200 09/M02 Q1037@CAELT@A3063 627.5 HR44 CB/LT W AC NOSIG=@CAELT@
ZPX0018 260056@CAELT@GG SLZZYMYT@CAELT@260056 SLCBYGYZ@CAELT@SABO SLCB 260100@CAELT@METAR SLCB 260100Z 15003KT 9999 FEW033 BKN200 21/05 Q1020 A3012 747.5@CAELT@HR33 AC FU NOSIG=@CAELT@
ZPX0019 260058@CAELT@GG SLZZYMYT@CAELT@260058 SLCBYGYS@CAELT@SABO SLCB 260100@CAELT@METAR SLCB 260100Z 15003KT 9999 FEW033 BKN200 21/05 Q1020 A3012 747.5@CAELT@HR33 AC FU NOSIG=@CAELT@
ZPX0026 260156@CAELT@GG SLLPZRZX@CAELT@260155 SLLPYGYZ@CAELT@SABO SLLP 260200@CAELT@METAR SLLP 260200Z 32008KT 290V350 9999 FEW015 BKN200 09/M01 Q1038@CAELT@A3067 628.3 HR50 AC NOSIG=@CAELT@
ZPX0027 260157@CAELT@GG SLZZYMYT@CAELT@260157 SLVRYGYZ@CAELT@SABO SLVR 260200@CAELT@METAR SLVR 260200Z 33012KT 7000 NSC 29/22 Q1005 A2969 HR68 FU CI@CAELT@NOSIG=@CAELT@
ZPX0028 260158@CAELT@GG SLZZYMYT@CAELT@260157 SLCBYGYZ@CAELT@SABO SLCB 260200@CAELT@METAR SLCB 260200Z 12003KT 9999 NSC 21/04 Q1020 A3014 748.0 HR34 CI@CAELT@FU NOSIG=@CAELT@
ZPX0029 260159@CAELT@GG SLZZYMYT@CAELT@260159 SLCBYGYS@CAELT@SABO SLCB 260200@CAELT@METAR SLCB 260200Z 12003KT 9999 NSC 21/04 Q1020 A3014 748.0 HR34 CI@CAELT@FU NOSIG=@CAELT@
ZPX0036 260255@CAELT@GG SLLPZRZX@CAELT@260255 SLLPYGYZ@CAELT@SABO SLLP 260300@CAELT@METAR SLLP 260300Z 35006KT 9999 FEW015 SCT200 09/01 Q1038 A3068@CAELT@628.5 HR58 AC NOSIG=@CAELT@
ZPX0037 260256@CAELT@GG SLZZYMYT@CAELT@260255 SLCBYGYZ@CAELT@SABO SLCB 260300@CAELT@METAR SLCB 260300Z 30003KT 9999 NSC 17/06 Q1021 A3016 748.6 HR46 FU@CAELT@CI NOSIG=@CAELT@
ZPX0038 260256@CAELT@GG SLZZYMYT@CAELT@260257 SLVRYGYZ@CAELT@SABO SLVR 260300@CAELT@METAR SLVR 260300Z 33010KT 7000 NSC 28/23 Q1005 A2970 HR73 FU CI@CAELT@NOSIG=@CAELT@
ZPX0039 260257@CAELT@GG SLZZYMYT@CAELT@260256 SLCBYGYS@CAELT@SABO SLCB 260300@CAELT@METAR SLCB 260300Z 30003KT 9999 NSC 17/06 Q1021 A3016 748.6 HR46 FU@CAELT@CI NOSIG=@CAELT@
ZPX0046 260356@CAELT@GG SLZZYMYT@CAELT@260356 SLCBYGYZ@CAELT@SABO SLCB 260400@CAELT@METAR SLCB 260400Z 00000KT 9999 NSC 17/05 Q1021 A3015 748.3 HR46 FU@CAELT@CI NOSIG=@CAELT@
ZPX0047 260357@CAELT@GG SLLPZRZX@CAELT@260357 SLLPYGYZ@CAELT@SABO SLLP 260400@CAELT@METAR SLLP 260400Z 06004KT 9999 FEW015 SCT200 05/01 Q1038 A3067@CAELT@628.3 HR77 AC NOSIG=@CAELT@
ZPX0048 260357@CAELT@GG SLZZYMYT@CAELT@260356 SLCBYGYS@CAELT@SABO SLCB 260400@CAELT@METAR SLCB 260400Z 00000KT 9999 NSC 17/05 Q1021 A3015 748.3 HR46 FU@CAELT@CI NOSIG=@CAELT@
ZPX0049 260357@CAELT@GG SLZZYMYT@CAELT@260358 SLVRYGYZ@CAELT@SABO SLVR 260400@CAELT@METAR SLVR 260400Z 36013KT 7000 FEW020 BKN200 28/22 Q1005 A2969 HR73@CAELT@FU NOSIG=@CAELT@
ZPX0056 260455@CAELT@GG SLZZYMYT@CAELT@260456 SLVRYGYZ@CAELT@SABO SLVR 260500@CAELT@METAR SLVR 260500Z 35015G27KT 6000 FEW017 BKN200 27/22 Q1004 A2966@CAELT@HR74 FU NOSIG=@CAELT@
ZPX0057 260456@CAELT@GG SLLPZRZX@CAELT@260455 SLLPYGYZ@CAELT@SABO SLLP 260500@CAELT@METAR SLLP 260500Z VRB02KT 9999 FEW015 SCT200 04/01 Q1037 A3064@CAELT@627.7 HR85 AC NOSIG=@CAELT@
ZPX0058 260457@CAELT@GG SLZZYMYT@CAELT@260457 SLCBYGYZ@CAELT@SABO SLCB 260500@CAELT@METAR SLCB 260500Z 15003KT 9999 NSC 16/06 Q1020 A3014 748.1 HR50 FU@CAELT@CI NOSIG=@CAELT@
ZPX0059 260458@CAELT@GG SLZZYMYT@CAELT@260458 SLCBYGYS@CAELT@SABO SLCB 260500@CAELT@METAR SLCB 260500Z 15003KT 9999 NSC 16/06 Q1020 A3014 748.1 HR50 FU@CAELT@CI NOSIG=@CAELT@
ZPX0062 260507@CAELT@GG SLZZYMYT@CAELT@260507 SLVRYGYU@CAELT@SABO SLVR 260500@CAELT@METAR SLVR 260500Z 35015G27KT 6000 FEW017 BKN200 27/22 Q1004 A2966@CAELT@HR74 FU NOSIG=@CAELT@
ZPX0069 260556@CAELT@GG SLLPZRZX@CAELT@260555 SLLPYGYZ@CAELT@SABO SLLP 260600@CAELT@METAR SLLP 260600Z 36004KT 9999 FEW006 SCT200 06/M00 Q1037 A3062@CAELT@627.3 HR67 NOSIG=@CAELT@
ZPX0070 260556@CAELT@GG SLZZYMYT@CAELT@260557 SLVRYGYZ@CAELT@SABO SLVR 260600@CAELT@METAR SLVR 260600Z 35015G27KT 5000 FU FEW017 SCT200 26/22 Q1003 A2965@CAELT@HR76 NOSIG=@CAELT@
ZPX0071 260557@CAELT@GG SLZZYMYT@CAELT@260556 SLCBYGYZ@CAELT@SABO SLCB 260600@CAELT@METAR SLCB 260600Z 00000KT 9999 NSC 17/05 Q1020 A3014 748.1 HR47 FU@CAELT@NOSIG=@CAELT@
ZPX0072 260557@CAELT@GG SLZZYMYT@CAELT@260557 SLCBYGYS@CAELT@SABO SLCB 260600@CAELT@METAR SLCB 260600Z 00000KT 9999 NSC 17/05 Q1020 A3014 748.1 HR47 FU@CAELT@NOSIG=@CAELT@
ZPX0079 260656@CAELT@GG SLLPZRZX@CAELT@260656 SLLPYGYZ@CAELT@SABO SLLP 260700@CAELT@METAR SLLP 260700Z VRB02KT 9999 FEW006 SCT200 04/00 Q1036 A3061@CAELT@627.0 HR72 NOSIG=@CAELT@
ZPX0080 260656@CAELT@GG SLZZYMYT@CAELT@260657 SLVRYGYZ@CAELT@SABO SLVR 260700@CAELT@METAR SLVR 260700Z 35016G28KT 5000 FU NSC 26/22 Q1003 A2963 HR78 CI@CAELT@NOSIG=@CAELT@
ZPX0081 260656@CAELT@GG SLZZYMYT@CAELT@260656 SLCBYGYZ@CAELT@SABO SLCB 260700@CAELT@METAR SLCB 260700Z 17003KT 9999 NSC 15/07 Q1020 A3013 747.8 HR57 FU@CAELT@NOSIG=@CAELT@
ZPX0082 260657@CAELT@GG SLZZYMYT@CAELT@260657 SLCBYGYS@CAELT@SABO SLCB 260700@CAELT@METAR SLCB 260700Z 17003KT 9999 NSC 15/07 Q1020 A3013 747.8 HR57 FU@CAELT@NOSIG=@CAELT@
ZPX0089 260754@CAELT@GG SLZZYMYT@CAELT@260755 SLVRYGYZ@CAELT@SABO SLVR 260800@CAELT@METAR SLVR 260800Z 35018G30KT 5000 FU NSC 26/22 Q1003 A2964 HR81 CI@CAELT@NOSIG=@CAELT@
ZPX0090 260756@CAELT@GG SLLPZRZX@CAELT@260756 SLLPYGYZ@CAELT@SABO SLLP 260800@CAELT@METAR SLLP 260800Z 01005KT 9999 FEW004 SCT200 05/M01 Q1036 A3060@CAELT@626.8 HR67 NOSIG=@CAELT@
ZPX0091 260757@CAELT@GG SLZZYMYT@CAELT@260757 SLCBYGYZ@CAELT@SABO SLCB 260800@CAELT@METAR SLCB 260800Z 13003KT 9999 NSC 14/07 Q1020 A3013 747.8 HR62 FU@CAELT@CI NOSIG=@CAELT@
ZPX0097 260830@CAELT@GG SLZZYMYT@CAELT@260830 SLCBYGYS@CAELT@SABO SLCB 260800@CAELT@METAR SLCB 260800Z 13003KT 9999 NSC 14/07 Q1020 A3013 747.8 HR62 FU@CAELT@CI NOSIG=@CAELT@
ZPX0105 260855@CAELT@GG SLZZYMYT@CAELT@260856 SLVRYGYZ@CAELT@SABO SLVR 260900@CAELT@METAR SLVR 260900Z 35015G26KT 5000 FU NSC 26/23 Q1004 A2966 HR83 CI@CAELT@NOSIG=@CAELT@
ZPX0106 260855@CAELT@GG SLLPZRZX@CAELT@260855 SLLPYGYZ@CAELT@SABO SLLP 260900@CAELT@METAR SLLP 260900Z 02005KT 9999 FEW004 SCT200 05/M02 Q1036 A3061@CAELT@626.9 HR62 NOSIG=@CAELT@
ZPX0107 260855@CAELT@GG SLZZYMYT@CAELT@260855 SLCBYGYZ@CAELT@SABO SLCB 260900@CAELT@METAR SLCB 260900Z 28003KT 9999 NSC 12/07 Q1020 A3015 748.2 HR68 FU@CAELT@NOSIG=@CAELT@
ZPX0108 260856@CAELT@GG SLZZYMYT@CAELT@260856 SLTRYGYZ@CAELT@SABO SLTR 260900@CAELT@METAR SLTR 260900Z 34008KT 7000 NSC 27/23 Q1005 A2969 987.1 HR79@CAELT@FU CI NOSIG=@CAELT@
ZPX0109 260857@CAELT@GG SLZZYMYT@CAELT@260856 SLCBYGYS@CAELT@SABO SLCB 260900@CAELT@METAR SLCB 260900Z 28003KT 9999 NSC 12/07 Q1020 A3015 748.2 HR68 FU@CAELT@NOSIG=@CAELT@
ZPX0110 260859@CAELT@GG SLZZYMYT@CAELT@260858 SLTRYGYS@CAELT@SABO SLTR 260900@CAELT@METAR SLTR 260900Z 34008KT 7000 NSC 27/23 Q1005 A2969 987.1 HR79@CAELT@FU CI NOSIG=@CAELT@METAR SLRI 260900Z 09007KT 5000 FU FEW010 SCT070 25/23 Q1008 A2979@CAELT@HR92=@CAELT@
ZPX0126 260953@CAELT@GG SLZZYMYT@CAELT@260953 SLPSYGYS@CAELT@SABO SLPS 261000@CAELT@METAR SLPS 261000Z 09004KT 8000 NSC 24/23 Q1008 A2977 HR94 FU CI=@CAELT@
ZPX0127 260954@CAELT@GG SLZZYMYT@CAELT@260954 SLSAYGYS@CAELT@SABO SLSA 261000@CAELT@METAR SLSA 261000Z 34007KT 7000 NSC 25/23 Q1006 A2971 HR87 FU CI=@CAELT@
ZPX0128 260954@CAELT@GG SLZZYMYT@CAELT@260954 SLSAYGYS@CAELT@SABO SLSA 261000@CAELT@METAR SLSA 261000Z 34007KT 7000 NSC 25/23 Q1006 A2971 HR87 FU CI=@CAELT@
ZPX0129 260954@CAELT@GG SLZZYMYT@CAELT@260955 SLRQYSYX@CAELT@SABO SLRQ 261000@CAELT@METAR SLRQ 261000Z 00000KT 8000 FEW015 24/24 Q1005 A2970 HR98 FU=@CAELT@
ZPX0130 260954@CAELT@GG SLZZYMYT@CAELT@260953 SLRYYSYX@CAELT@SABO SLRY 261000@CAELT@METAR SLRY 261000Z 00000KT 6000 NSC 24/23 Q1004 A2967 HR96 FU CI RWY@CAELT@NML=@CAELT@
ZPX0131 260955@CAELT@GG SLZZYMYT@CAELT@260957 SLUYYGYS@CAELT@SABO SLUY 261000@CAELT@METAR SLUY 261000Z 00000KT 9999 NSC 04/M04 Q1033 A3052 658.0@CAELT@HR58=@CAELT@
ZPX0132 260955@CAELT@GG SLZZYMYT@CAELT@260955 SLCBYGYZ@CAELT@SABO SLCB 261000@CAELT@METAR SLCB 261000Z 00000KT 9999 NSC 12/06 Q1021 A3016 748.5 HR67 FU@CAELT@CI NOSIG=@CAELT@
ZPX0133 260955@CAELT@GG SLZZYMYT@CAELT@260955 SLLPYGYZ@CAELT@SABO SLLP 261000@CAELT@METAR SLLP 261000Z VRB02KT 9999 FEW004 SCT200 02/M02 Q1036 A3061@CAELT@627.0 HR73 P90// NOSIG=@CAELT@
ZPX0135 260955@CAELT@GG SLZZYMYT@CAELT@260956 SLCOYGYZ@CAELT@SABO SLCO 261000@CAELT@METAR SLCO 261000Z 34004KT 7000 BKN080 26/24 Q1009 A2980 981.8 HR88@CAELT@
ZPX0136 260956@CAELT@GG SLZZYMYT@CAELT@260956 SLTRYGYZ@CAELT@SABO SLTR 261000@CAELT@METAR SLTR 261000Z 34004KT 5000 FU NSC 27/24 Q1006 A2971 987.8 HR83@CAELT@CI NOSIG=@CAELT@
ZPX0137 260956@CAELT@GG SLZZYMYT@CAELT@260955 SLSBYSYX@CAELT@SABO SLSB 261000@CAELT@METAR SLSB 261000Z 36003KT 8000 NSC 24/23 Q1005 A2970 HR95 FU RWY NML=@CAELT@
ZPX0138 260956@CAELT@GG SLZZYMYT@CAELT@260956 SLCAYGYS@CAELT@SABO SLCA 261000@CAELT@METAR SLCA 261000Z 21012KT 9999 OVC033 25/16 Q1014 A2994 HR59 DU RWY@CAELT@NML=@CAELT@
ZPX0139 260956@CAELT@GG SLZZYMYT@CAELT@260955 SLRBYGYS@CAELT@SABO SLRB 261000@CAELT@METAR SLRB 261000Z 36015KT 8000 NSC 26/22 Q1009 A2980 HR77 FU RWY NML=@CAELT@
ZPX0140 260957@CAELT@GG SLZZYMYT@CAELT@260956 SLCBYGYS@CAELT@SABO SLCB 261000@CAELT@METAR SLCB 261000Z 00000KT 9999 NSC 12/06 Q1021 A3016 748.5 HR67 FU@CAELT@CI NOSIG=@CAELT@
ZPX0142 260958@CAELT@GG SLZZYMYT@CAELT@260958 SLVRYGYZ@CAELT@SABO SLVR 261000@CAELT@METAR SLVR 261000Z 33008KT 3000 FU SCT017 BKN200 26/23 Q1008 A2977@CAELT@HR84 NOSIG=@CAELT@
ZPX0143 260958@CAELT@GG SLZZYMYT@CAELT@260957 SLTRYGYS@CAELT@SABO SLTR 261000@CAELT@METAR SLTR 261000Z 34004KT 5000 FU NSC 27/24 Q1006 A2971 987.8 HR83@CAELT@CI NOSIG=@CAELT@METAR SLGM 261000Z 02003KT 4000 FU SCT080 BKN200 25/24 Q1009 A2979@CAELT@HR96=@CAELT@METAR SLRI 261000Z 09007KT 5000 FU FEW010 SCT070 24/23 Q1009 A2981HR92 CI=METAR SLJO 261000Z 36006KT 8000 NSC 25/24 Q1007 A2976 HR92 FU CIRWY NML=METAR SLRA 261000Z 36008KT 8000 NSC 26/23 Q1007 A2974 HR88 FU CIMETAR SLMG 261000Z 00000KT 8000 NSC 25/23 Q1006 A2972 HR90 FU CIMETAR SLBU 261000Z NIL=METAR SLSA 261000Z 34007KT 7000 NSC 25/23 Q1006 A2971 HR87 FU CI=METAR SLSR 261000Z 32008KT 7000 FEW017 FEW023CB BKN200 25/23 Q1005A2969 HR86 FU CB SW RWY NML=METAR SLSM 261000Z 34006KT 8000 NSC 24/24 Q1005 A2970 HR97 FUCI RWY NML=
ZPX0145 261002@CAELT@GG SLZZYMYT@CAELT@261000 SLVRYGYS@CAELT@SABO SLVR 261000@CAELT@METAR SLVR 261000Z 33008KT 3000 FU SCT017 BKN200 26/23 Q1008 A2977@CAELT@HR84 NOSIG=@CAELT@METAR SLET 261000Z NIL=@CAELT@METAR SLCP 261000Z 30010KT 4000 FU BKN010 24/21 Q1011 A2985 HR82 RWY@CAELT@NML=METAR SLSI 261000Z 33005KT 8000 SCT015 24/23 Q1007 A2974 HR92 FU RWYMETAR SLRB 261000Z 36015KT 8000 NSC 26/22 Q1009 A2980 HR77 FU RWY NMLMETAR SLPS 261000Z 09004KT 8000 NSC 24/23 Q1008 A2977 HR94 FU CI=METAR SLCA 261000Z 21012KT 9999 OVC033 25/16 Q1014 A2994 HR59 DU RWY
ZPX0146 261002@CAELT@GG SLZZYMYT@CAELT@261001 SLLPYFYA@CAELT@SABO SLLP 261000@CAELT@METAR SLLP 261000Z VRB02KT 9999 FEW004 SCT200 02/M02 Q1036 A3061@CAELT@627.0 HR73 P90// NOSIG=@CAELT@METAR SLCO 261000Z 34004KT 7000 BKN080 26/24 Q1009 A2980 981.8 HR88@CAELT@METAR SLRY 261000Z 00000KT 6000 NSC 24/23 Q1004 A2967 HR96 FU CI RWY@CAELT@NML=METAR SLRQ 261000Z 00000KT 8000 FEW015 24/24 Q1005 A2970 HR98 FU=METAR SLAP 261000Z 36005KT 9999 BKN025 21/18 Q1014 A2995 855.2 HR85AC=METAR SLSB 261000Z 36003KT 8000 NSC 24/23 Q1005 A2970 HR95 FU RWY NMLMETAR SLUY 261000Z 00000KT 9999 NSC 04/M04 Q1033 A3052 658.0HR58=
ZPX0148 261008@CAELT@GG SLZZYMYT@CAELT@261006 SLCBYGYS@CAELT@METAR SLCB 261000 RRA@CAELT@METAR SLCB 261000Z 00000KT 9999 NSC 12/06 Q1021 A3016 748.5 HR67 FU@CAELT@CI NOSIG=@CAELT@METAR RTD SLAL 261000Z 00000KT 9999 FEW020 11/06 Q1026 A3031 701.8@CAELT@HR72 AC=@CAELT@
ZPX0150 261011@CAELT@GG SLZZYMYT@CAELT@261010 SLCBYGYS@CAELT@SABO SLCB 261000 RRA@CAELT@METAR SLCB 261000Z 00000KT 9999 NSC 12/06 Q1021 A3016 748.5 HR67 FU@CAELT@CI NOSIG=@CAELT@METAR RTD SLAL 261000Z 00000KT 9999 FEW020 11/06 Q1026 A3031 701.8@CAELT@HR72 AC=@CAELT@
ZPX0155 261037@CAELT@GG SLZZYMYT@CAELT@261036 SLETYMYC@CAELT@SABO SLET 261000@CAELT@METAR SLET 261000Z 32012G23KT 3500 FU BKN020 BKN200 27/23 Q1008 A2977@CAELT@HR80 NOSIG=@CAELT@
ZPX0159 261053@CAELT@GG SLZZYMYT@CAELT@261053 SLPSYGYS@CAELT@SABO SLPS 261100@CAELT@METAR SLPS 261100Z 09004KT 8000 SCT020 BKN070 26/23 Q1008 A2977 HR85@CAELT@
ZPX0160 261054@CAELT@GG SLZZYMYT@CAELT@261055 SLSAYGYS@CAELT@SABO SLSA 261100@CAELT@METAR SLSA 261100Z 33012KT 7000 NSC 26/23 Q1007 A2974 HR83 FU CI=@CAELT@
ZPX0161 261054@CAELT@GG SLZZYMYT@CAELT@261055 SLSAYGYS@CAELT@SABO SLSA 261100@CAELT@METAR SLSA 261100Z 33012KT 7000 NSC 26/23 Q1007 A2974 HR83 FU CI=@CAELT@
ZPX0162 261055@CAELT@GG SLZZYMYT@CAELT@261056 SLUYYGYS@CAELT@SABO SLUY 261100@CAELT@METAR SLUY 261100Z 00000KT 9999 NSC 06/M05 Q1034 A3054 658.5@CAELT@HR47=@CAELT@
ZPX0163 261055@CAELT@GG SLZZYMYT@CAELT@261055 SLRQYSYX@CAELT@SABO SLRQ 261100@CAELT@METAR SLRQ 261100Z 00000KT 8000 SCT017 BKN070 25/24 Q1007 A2974 HR98@CAELT@
ZPX0164 261055@CAELT@GG SLZZYMYT@CAELT@261053 SLRYYSYX@CAELT@SABO SLRY 261100@CAELT@METAR SLRY 261100Z 34006KT 8000 NSC 25/24 Q1005 A2968 HR90 FU RWY NML@CAELT@
ZPX0165 261055@CAELT@GG SLZZYMYT@CAELT@261055 SLCAYGYS@CAELT@SABO SLCA 261100@CAELT@METAR SLCA 261100Z 21014KT 9999 OVC033 24/15 Q1016 A3000 HR57 DU RWY@CAELT@NML=@CAELT@
ZPX0166 261055@CAELT@GG SLZZYMYT@CAELT@261055 SLSBYSYX@CAELT@SABO SLSB 261100@CAELT@METAR SLSB 261100Z 00000KT 8000 NSC 25/24 Q1006 A2973 HR96 FU RWY NML=@CAELT@
ZPX0168 261056@CAELT@GG SLZZYMYT@CAELT@261056 SLCBYGYZ@CAELT@SABO SLCB 261100@CAELT@METAR SLCB 261100Z 00000KT 9999 NSC 17/07 Q1022 A3018 749.1 HR52 FU@CAELT@NOSIG=@CAELT@
ZPX0169 261056@CAELT@GG SLZZYMYT@CAELT@261056 SLORYGYZ@CAELT@SABO SLOR 261100@CAELT@METAR SLOR 261100Z 07003KT 9999 NSC 06/00 Q1034 A3055 655.7 HR66 FU@CAELT@
ZPX0170 261056@CAELT@GG SLZZYMYT@CAELT@261055 SLCOYGYZ@CAELT@SABO SLCO 261100@CAELT@METAR SLCO 261100Z 34004KT 7000 BKN080 26/24 Q1009 A2982 982.5 HR87@CAELT@
ZPX0171 261056@CAELT@GG SLZZYMYT@CAELT@261056 SLTRYGYZ@CAELT@SABO SLTR 261100@CAELT@METAR SLTR 261100Z 33010KT 5000 FU NSC 27/23 Q1007 A2974 988.7 HR81@CAELT@CI NOSIG=@CAELT@
ZPX0172 261056@CAELT@GG SLZZYMYT@CAELT@261057 SLVRYGYZ@CAELT@SABO SLVR 261100@CAELT@METAR SLVR 261100Z 35009KT 3000 FU BKN017 BKN200 26/23 Q1009 A2980@CAELT@HR84 NOSIG=@CAELT@
ZPX0173 261056@CAELT@GG SLZZYMYT@CAELT@261056 SLLPYGYZ@CAELT@SABO SLLP 261100@CAELT@METAR SLLP 261100Z 01006KT 9999 NSC 07/M03 Q1037 A3062 627.3@CAELT@HR50 CI NOSIG=@CAELT@
ZPX0175 261057@CAELT@GG SLZZYMYT@CAELT@261056 SLRBYGYS@CAELT@SABO SLRB 261100@CAELT@METAR SLRB 261100Z 36015KT 8000 NSC 27/23 Q1011 A2985 HR77 FU RWY NML=@CAELT@
ZPX0176 261058@CAELT@GG SLZZYMYT@CAELT@261058 SLVRYGYS@CAELT@SABO SLVR 261100@CAELT@METAR SLVR 261100Z 35009KT 3000 FU BKN017 BKN200 26/23 Q1009 A2980@CAELT@HR84 NOSIG=@CAELT@METAR SLET 261100Z 32012G23KT 3500 FU FEW015 BKN020 BKN200 27/23@CAELT@Q1008 A2979 HR80 NOSIG=@CAELT@METAR SLAS 261100Z 36006KT 3000 FU NSC 26/23 Q1009 A2980 HR80 RWY NMLMETAR SLJV 261100Z 34010KT 4000 FU BKN012 24/22 Q1007 A2974 HR87 RWYNML=METAR SLCP 261100Z 30010KT 4000 FU BKN010 24/21 Q1012 A2988 HR82 RWYMETAR SLSI 261100Z 33006KT 8000 SCT015 25/22 Q1008 A2977 HR88 RWY NMLMETAR SLTI 261100Z 36005KT 9999 NSC 26/22 Q1012 A2988 HR80 RWY HUMOPR=METAR SLJE 261100Z 00000KT 2500 FU BKN015 27/23 Q1012 A2988 HR77 RWYMETAR SLRB 261100Z 36015KT 8000 NSC 27/23 Q1011 A2985 HR77 FU RWY NMLMETAR SLPS 261100Z 09004KT 8000 SCT020 BKN070 26/23 Q1008 A2977 HR85METAR SLCA 261100Z 21014KT 9999 OVC033 24/15 Q1016 A3000 HR57 DU RWY
ZPX0177 261059@CAELT@GG SLZZYMYT@CAELT@261100 SLLPYFYA@CAELT@SABO SLLP 261100@CAELT@METAR SLLP 261100Z 01006KT 9999 NSC 07/M03 Q1037 A3062 627.3@CAELT@HR50 CI NOSIG=@CAELT@METAR SLCO 261100Z 34004KT 7000 BKN080 26/24 Q1009 A2982@CAELT@982.5 HR87 FU=@CAELT@METAR SLRY 261100Z 34006KT 8000 NSC 25/24 Q1005 A2968 HR90FU RWY NML=METAR SLRQ 261100Z 00000KT 8000 SCT017 BKN070 25/24 Q1007A2974 HR98 FU=METAR SLSB 261100Z 00000KT 8000 NSC 25/24 Q1006 A2973 HR96METAR SLAP 261100Z 36005KT 9999 BKN025 21/18 Q1014 A2997855.8 HR84 AC=METAR SLOR 261100Z 07003KT 9999 NSC 06/00 Q1034 A3055 655.7HR66 FU CI=METAR SLUY 261100Z 00000KT 9999 NSC 06/M05 Q1034 A3054658.5 HR47=
ZPX0178 261059@CAELT@GG SLZZYMYT@CAELT@261059 SLTRYGYS@CAELT@SABO SLTR 261100@CAELT@METAR SLTR 261100Z 33010KT 5000 FU NSC 27/23 Q1007 A2974 988.7 HR81@CAELT@CI NOSIG=@CAELT@METAR SLGM 261100Z 02004KT 5000 FU FEW080 SCT200 25/24 Q1009 A2981@CAELT@HR94=@CAELT@METAR SLRI 261100Z 07005KT 5000 FU FEW070 SCT200 25/24 Q1010 A2983HR92=METAR SLJO 261100Z 36008KT 8000 NSC 26/23 Q1008 A2977 HR88 FU CIRWY NML=METAR SLRA 261100Z 35012KT 8000 NSC 26/23 Q1007 A2975 HR85 FU CIMETAR SLMG 261100Z 34004KT 8000 NSC 26/23 Q1006 A2974 HR87 FU CIMETAR SLBU 261100Z NIL=METAR SLSA 261100Z 33012KT 7000 NSC 26/23 Q1007 A2974 HR83 FU CI=METAR SLSR 261100Z 32012KT 7000 FEW017 FEW023CB BKN200 27/23 Q1005A2970 HR82 FU CB SW RWY NML=METAR SLSM 261100Z 33006KT 8000 NSC 25/24 Q1006 A2972 HR91 FU CI
ZPX0181 261101@CAELT@GG SLZZYMYT@CAELT@261100 SLCBYGYS@CAELT@SABO SLCB 261100@CAELT@METAR SLCB 261100Z 00000KT 9999 NSC 17/07 Q1022 A3018 749.1 HR52 FU@CAELT@NOSIG=@CAELT@METAR SLAL 261100Z 08012KT 9999 FEW020 15/07 Q1028 A3036 700.1 HR60=@CAELT@METAR SLVM 261100Z 18012G25KT 9999 SCT023 OVC070 21/17 Q1016 A3002@CAELT@HR78=
ZPX0188 261110@CAELT@GG SLZZYMYT@CAELT@261110 SLCBYGYS@CAELT@SABO SLCB 261100 RRB@CAELT@METAR SLCB 261100Z 00000KT 9999 NSC 17/07 Q1022 A3018 749.1 HR52 FU@CAELT@NOSIG=@CAELT@METAR SLAL 261100Z 08012KT 9999 FEW020 15/07 Q1028 A3036 700.1 HR60=@CAELT@METAR SLVM 261100Z 18012G25KT 9999 SCT023 OVC070 21/17 Q1016 A3002@CAELT@HR78=METAR RTD SLYA 261100Z 21016KT 9999 BKN020 OVC070 20/17 Q1018 A3006942.5 HR83=
ZPX0213 261152@CAELT@GG SLZZYMYT@CAELT@261152 SLPSYGYS@CAELT@SABO SLPS 261200@CAELT@METAR SLPS 261200Z 09005KT 8000 SCT020 BKN070 28/24 Q1009 A2980 HR80@CAELT@
ZPX0214 261152@CAELT@GG SLZZYMYT@CAELT@261152 SLCAYGYS@CAELT@SABO SLCA 261200@CAELT@METAR SLCA 261200Z 21010KT 9999 OVC033 24/15 Q1019 A3009 HR57 RWY NML@CAELT@
ZPX0215 261155@CAELT@GG SLZZYMYT@CAELT@261155 SLORYGYZ@CAELT@SABO SLOR 261200@CAELT@METAR SLOR 261200Z 01005KT 9999 NSC 10/M01 Q1035 A3057 656.0 HR50 CI@CAELT@
ZPX0216 261155@CAELT@GG SLZZYMYT@CAELT@261154 SLRBYGYS@CAELT@SABO SLRB 261200@CAELT@METAR SLRB 261200Z 36015KT 8000 NSC 29/24 Q1012 A2988 HR73 FU RWY NML=@CAELT@
ZPX0217 261155@CAELT@GG SLZZYMYT@CAELT@261155 SLRQYSYX@CAELT@SABO SLRQ 261200@CAELT@METAR SLRQ 261200Z 00000KT 6000 BKN023 BKN200 27/25 Q1008 A2977 HR87@CAELT@FU AC=@CAELT@
ZPX0218 261155@CAELT@GG SLZZYMYT@CAELT@261155 SLSAYGYS@CAELT@SABO SLSA 261200@CAELT@METAR SLSA 261200Z 34017KT 7000 FEW020 SCT200 28/24 Q1008 A2977@CAELT@HR77 FU=@CAELT@
ZPX0219 261155@CAELT@GG SLZZYMYT@CAELT@261155 SLSAYGYS@CAELT@SABO SLSA 261200@CAELT@METAR SLSA 261200Z 34017KT 7000 FEW020 SCT200 28/24 Q1008 A2977@CAELT@HR77 FU=@CAELT@
ZPX0221 261155@CAELT@GG SLZZYMYT@CAELT@261153 SLRYYSYX@CAELT@SABO SLRY 261200@CAELT@METAR SLRY 261200Z 34010KT 9999 FEW017 27/24 Q1006 A2971 HR81 FU RWY@CAELT@NML=@CAELT@
ZPX0222 261156@CAELT@GG SLZZYMYT@CAELT@261156 SLCOYGYZ@CAELT@SABO SLCO 261200@CAELT@METAR SLCO 261200Z 31007KT 8000 SCT080 27/23 Q1010 A2984 983.2 HR80@CAELT@
ZPX0223 261156@CAELT@GG SLZZYMYT@CAELT@261155 SLSBYSYX@CAELT@SABO SLSB 261200@CAELT@METAR SLSB 261200Z 01005KT 8000 SCT015 28/24 Q1007 A2975 HR82 FU RWY@CAELT@NML=@CAELT@
ZPX0225 261156@CAELT@GG SLZZYMYT@CAELT@261158 SLUYYGYS@CAELT@SABO SLUY 261200@CAELT@METAR SLUY 261200Z 16003KT 9999 NSC 08/M06 Q1034 A3056 658.9@CAELT@HR39=@CAELT@
ZPX0226 261156@CAELT@GG SLZZYMYT@CAELT@261157 SLLPYGYZ@CAELT@SABO SLLP 261200@CAELT@METAR SLLP 261200Z 25005KT 9999 NSC 10/M01 Q1038 A3066@CAELT@628.0 HR48 FU CI NOSIG=@CAELT@
ZPX0227 261156@CAELT@GG SLZZYMYT@CAELT@261156 SLCBYGYZ@CAELT@SABO SLCB 261200@CAELT@METAR SLCB 261200Z 00000KT 9999 NSC 20/08 Q1022 A3020 749.6 HR45 FU@CAELT@CI NOSIG=@CAELT@
ZPX0228 261156@CAELT@GG SLZZYMYT@CAELT@261157 SLVRYGYZ@CAELT@SABO SLVR 261200@CAELT@METAR SLVR 261200Z 33012KT 3000 FU BKN017 BKN200 27/24 Q1010 A2985@CAELT@HR82 NOSIG=@CAELT@
ZPX0229 261157@CAELT@GG SLZZYMYT@CAELT@261156 SLAGYSYX@CAELT@SABO SLAG 261200@CAELT@METAR SLAG 261200Z 18018KT 9999 BKN015 BKN070 22/16 Q1020 A3014 892.5@CAELT@HR69 SH NE/S/SW/W=@CAELT@
ZPX0231 261158@CAELT@GG SLZZYMYT@CAELT@261157 SLVRYGYS@CAELT@SABO SLVR 261200@CAELT@METAR SLVR 261200Z 33012KT 3000 FU BKN017 BKN200 27/24 Q1010 A2985@CAELT@HR82 NOSIG=@CAELT@METAR SLET 261200Z 27011KT 3500 FU SCT013 BKN020 BKN200 27/23 Q1011@CAELT@A2986 HR80 NOSIG=@CAELT@METAR SLAS 261200Z 35006KT 3000 FU NSC 27/24 Q1011 A2986 HR81 RWY NMLMETAR SLJV 261200Z 34010KT 4000 FU BKN012 26/23 Q1010 A2983 HR83 RWYNML=METAR SLCP 261200Z 30010KT 5000 FU BKN010 25/22 Q1013 A2991 HR82 RWYMETAR SLSI 261200Z 33006KT 8000 SCT015 26/23 Q1010 A2983 HR81 FU RWYMETAR SLTI 261200Z 00000KT 9999 NSC 28/22 Q1013 A2991 HR72 RWY NML=METAR SLJE 261200Z 00000KT 2500 FU BKN015 29/23 Q1013 A2991 HR70 RWYMETAR SLVG 261200Z 17006KT 6000 VCSH OVC015 17/15 Q1023 A3021 HR86 SHE/SE/S RWY NML=METAR SLRB 261200Z 36015KT 8000 NSC 29/24 Q1012 A2988 HR73 FU RWY NMLMETAR SLPS 261200Z 09005KT 8000 SCT020 BKN070 28/24 Q1009 A2980 HR80METAR SLCA 261200Z 21010KT 9999 OVC033 24/15 Q1019 A3009 HR57 RWY NML=
ZPX0232 261158@CAELT@GG SLZZYMYT@CAELT@261156 SLTRYGYZ@CAELT@SABO SLTR 261200@CAELT@METAR SLTR 261200Z 34014G24KT 5000 FU FEW020 29/24 Q1008 A2978@CAELT@990.0 HR75 CI NOSIG=@CAELT@
ZPX0234 261159@CAELT@GG SLZZYMYT@CAELT@261159 SLLPYFYA@CAELT@SABO SLLP 261200@CAELT@METAR SLLP 261200Z 25005KT 9999 NSC 10/M01 Q1038 A3066@CAELT@628.0 HR48 FU CI NOSIG=@CAELT@METAR SLCO 261200Z 31007KT 8000 SCT080 27/23 Q1010 A2984 983.2@CAELT@HR80 FU=@CAELT@METAR SLRY 261200Z 34010KT 9999 FEW017 27/24 Q1006 A2971 HR81FU RWY NML=METAR SLRQ 261200Z 00000KT 6000 BKN023 BKN200 27/25 Q1008A2977 HR87 FU AC=METAR SLAP 261200Z 36008KT 9999 FEW025 23/16 Q1016 A3000 856.9HR65 AC=METAR SLSB 261200Z 01005KT 8000 SCT015 28/24 Q1007 A2975 HR82METAR SLOR 261200Z 01005KT 9999 NSC 10/M01 Q1035 A3057 656.0HR50 CI FU=METAR SLUY 261200Z 16003KT 9999 NSC 08/M06 Q1034 A3056 658.9HR39=
ZPX0237 261200@CAELT@GG SLZZYMYT@CAELT@261200 SLAGYSYX@CAELT@SABO SLAG 261200 CCA@CAELT@METAR COR SLAG 261200Z 18018KT 9999 BKN015 OVC070 22/16 Q1020 A3014@CAELT@892.5 HR69 SH NE/S/SW/W=@CAELT@
ZPX0238 261200@CAELT@GG SLZZYMYT@CAELT@261200 SLTRYGYS@CAELT@SABO SLTR 261200@CAELT@METAR SLTR 261200Z 34014G24KT 5000 FU FEW020 29/24 Q1008 A2978@CAELT@990.0 HR75 CI NOSIG=@CAELT@METAR SLGM 261200Z 02008KT 7000 NSC 27/24 Q1010 A2984 HR86 FU CI=@CAELT@METAR SLRI 261200Z 09005KT 5000 FU FEW070 BKN200 28/24 Q1011 A2986@CAELT@HR78=METAR SLJO 261200Z 36012KT 8000 NSC 28/24 Q1008 A2979 HR79 FU CIRWY NML=METAR SLRA 261200Z 36014KT 8000 NSC 28/23 Q1008 A2978 HR75 FU CIMETAR SLMG 261200Z 32010KT 8000 NSC 28/23 Q1008 A2978 HR78 FU CIMETAR SLBU 261200Z 36008KT 8000 NSC 28/24 Q1007 A2979 HR78 FU CIMETAR SLSA 261200Z 34017KT 7000 FEW020 SCT200 28/24 Q1008 A2977HR77 FU=METAR SLSR 261200Z 32015G25KT 7000 FEW017 BKN200 28/23 Q1007 A2974HR75 FU RWY NML=METAR SLSM 261200Z 33010KT 8000 FEW017 28/24 Q1007 A2976 HR81 FU
ZPX0239 261201@CAELT@GG SLZZYMYT@CAELT@261200 SLETYMYC@CAELT@SABO SLET 261200@CAELT@METAR SLET 261200Z 27011KT 3500 FU SCT013 BKN020 BKN200 27/23 Q1011@CAELT@A2986 HR80 NOSIG=@CAELT@
ZPX0241 261202@CAELT@GG SLZZYMYT@CAELT@261200 SLCBYGYS@CAELT@SABO SLCB 261200@CAELT@METAR SLCB 261200Z 00000KT 9999 NSC 20/08 Q1022 A3020 749.6 HR45 FU@CAELT@CI NOSIG=@CAELT@METAR SLAL 261200Z 10008KT 9999 FEW023 17/07 Q1029 A3039 703.7 HR55=@CAELT@METAR SLPO 261200Z NIL=@CAELT@METAR SLAG 261200Z 18018KT 9999 BKN015 OVC070 22/16 Q1020 A3014892.5 HR69 SH NE/S/SW/W=METAR SLVM 261200Z 18015G27KT 9999 SCT023 OVC070 22/17 Q1017 A3005HR76=METAR SLTJ 261200Z NIL=METAR SLYA 261200Z 21010KT 9999 BKN020 OVC070 21/17 Q1018 A3008 943.0HR79=METAR SLBJ 261200Z NIL=METAR SLHI 261200Z NIL=
ZPX0248 261210@CAELT@GG SLZZYMYT@CAELT@261205 SLTJYGYZ@CAELT@SABO SLTJ 261200 RRA@CAELT@METAR RTD SLTJ 261200Z 12008KT 4000NW -RA BKN020 OVC070 15/10 Q1024@CAELT@A3025 818.6 HR73 VIS RED/N/SW/W/NW RESTO 8000=@CAELT@
ZPX0251 261211@CAELT@GG SLZZYMYT@CAELT@261211 SLCBYGYS@CAELT@SABO SLCB 261200 RRC@CAELT@METAR SLCB 261200Z 00000KT 9999 NSC 20/08 Q1022 A3020 749.6 HR45 FU@CAELT@CI NOSIG=@CAELT@METAR SLAL 261200Z 10008KT 9999 FEW023 17/07 Q1029 A3039 703.7 HR55=@CAELT@METAR SLPO 261200Z NIL=@CAELT@METAR SLAG 261200Z 18018KT 9999 BKN015 OVC070 22/16 Q1020 A3014892.5 HR69 SH NE/S/SW/W=METAR SLVM 261200Z 18015G27KT 9999 SCT023 OVC070 22/17 Q1017 A3005HR76=METAR RTD SLTJ 261200Z 12008KT 4000NW -RA BKN020 OVC070 15/10 Q1024A3025 818.6 HR73 VIS RED/N/SW/W/NW RESTO 8000=METAR SLYA 261200Z 21010KT 9999 BKN020 OVC070 21/17 Q1018 A3008 943.0HR79=METAR SLBJ 261200Z NIL=METAR SLHI 261200Z NIL=
ZPX0270 261252@CAELT@GG SLZZYMYT@CAELT@261251 SLCAYGYS@CAELT@SABO SLCA 261300@CAELT@METAR SLCA 261300Z 21010KT 9999 OVC033 24/16 Q019 A3009 HR63 RWY NML=@CAELT@
ZPX0272 261252@CAELT@GG SLZZYMYT@CAELT@261253 SLVRYGYZ@CAELT@SABO SLVR 261300@CAELT@METAR SLVR 261300Z 22012G24KT 5000 -RA BKN023 FEW030CB BKN070 25/23@CAELT@Q1011 A2988 HR87 FU CB DIST S NOSIG=@CAELT@
ZPX0273 261252@CAELT@GG SLZZYMYT@CAELT@261252 SLPSYGYS@CAELT@SABO SLPS 261300@CAELT@METAR SLPS 261300Z 09004KT 8000 SCT020 OVC070 29/24 Q1010 A2983 HR75@CAELT@
ZPX0275 261253@CAELT@GG SLZZYMYT@CAELT@261254 SLSAYGYS@CAELT@SABO SLSA 261300@CAELT@METAR SLSA 261300Z 34015G25KT 8000 SCT020 31/24 Q1008 A2979 HR64 FU=@CAELT@
ZPX0276 261254@CAELT@GG SLZZYMYT@CAELT@261254 SLSAYGYS@CAELT@SABO SLSA 261300@CAELT@METAR SLSA 261300Z 34015G25KT 8000 SCT020 31/24 Q1008 A2979 HR64 FU=@CAELT@
ZPX0277 261254@CAELT@GG SLZZYMYT@CAELT@261255 SLSBYSYX@CAELT@SABO SLSB 261300@CAELT@METAR SLSB 261300Z 33008KT 8000 BKN015 29/24 Q1007 A2976 HR76 FU RWY@CAELT@NML=@CAELT@
ZPX0279 261254@CAELT@GG SLZZYMYT@CAELT@261255 SLRQYSYX@CAELT@SABO SLRQ 261300@CAELT@METAR SLRQ 261300Z 35006KT 5000 FU BKN020 BKN200 28/25 Q1008 A2979@CAELT@HR82=@CAELT@
ZPX0281 261256@CAELT@GG SLZZYMYT@CAELT@261255 SLAGYSYX@CAELT@SABO SLAG 261300@CAELT@METAR SLAG 261300Z 18015KT 9999 BKN015 OVC070 21/13 Q1022 A3019 893.9@CAELT@HR58=@CAELT@
ZPX0282 261256@CAELT@GG SLZZYMYT@CAELT@261255 SLRBYGYS@CAELT@SABO SLRB 261300@CAELT@METAR SLRB 261300Z 36015KT 8000 NSC 31/24 Q1013 A2991 HR67 FU RWY NML=@CAELT@
ZPX0284 261256@CAELT@GG SLZZYMYT@CAELT@261256 SLCBYGYZ@CAELT@SABO SLCB 261300@CAELT@METAR SLCB 261300Z 00000KT 9999 NSC 23/10 Q1023 A3021 749.9 HR43 FU@CAELT@CI NOSIG=@CAELT@
ZPX0285 261256@CAELT@GG SLZZYMYT@CAELT@261257 SLCOYGYZ@CAELT@SABO SLCO 261300@CAELT@METAR SLCO 261300Z 32010KT 9999 SCT080 29/22 Q1011 A2987 984.2 HR69@CAELT@
ZPX0286 261256@CAELT@GG SLZZYMYT@CAELT@261255 SLETYMYC@CAELT@SABO SLET 261300@CAELT@METAR SLET 261300Z 17015G28KT 8000 VCSH BKN020 FEW030CB BKN070 25/20@CAELT@Q1011 A2987 HR73 CB/NW SH S/NW NOSIG=@CAELT@
ZPX0287 261257@CAELT@GG SLZZYMYT@CAELT@261255 SLRYYSYX@CAELT@SABO SLRY 261300@CAELT@METAR SLRY 261300Z 34014KT 8000 FEW017 30/24 Q1006 A2973 HR72 FU RWY@CAELT@NML=@CAELT@
ZPX0288 261257@CAELT@GG SLZZYMYT@CAELT@261255 SLUYYGYS@CAELT@SABO SLUY 261300@CAELT@METAR SLUY 261300Z 00000KT 9999 NSC 11/M03 Q1034 A3056 658.9@CAELT@HR35=@CAELT@
ZPX0289 261257@CAELT@GG SLZZYMYT@CAELT@261257 SLLPYGYZ@CAELT@SABO SLLP 261300@CAELT@METAR SLLP 261300Z VRB02KT 9999 NSC 12/00 Q1038 A3067@CAELT@628.3 HR42 FU NOSIG=@CAELT@
ZPX0290 261257@CAELT@GG SLZZYMYT@CAELT@261256 SLTRYGYZ@CAELT@SABO SLTR 261300@CAELT@METAR SLTR 261300Z 32012G25KT 5000 FU FEW020 31/24 Q1009 A2980@CAELT@990.6 HR70 NOSIG=@CAELT@
ZPX0291 261257@CAELT@GG SLZZYMYT@CAELT@261257 SLORYGYZ@CAELT@SABO SLOR 261300@CAELT@METAR SLOR 261300Z 01005KT 9999 NSC 14/03 Q1035 A3057 656.0 HR47 CC=@CAELT@
ZPX0292 261258@CAELT@GG SLZZYMYT@CAELT@261255 SLTJYGYZ@CAELT@SABO SLTJ 261300@CAELT@METAR SLTJ 261300Z 13006KT 6000 VCSH BKN020 OVC070 15/11 Q1025 A3027@CAELT@819.2 HR73 VIS RED SH/N/S/SW/W/NW RESTO 9999=@CAELT@
ZPX0294 261258@CAELT@GG SLZZYMYT@CAELT@261258 SLCBYGYS@CAELT@SABO SLCB 261300@CAELT@METAR SLCB 261300Z 00000KT 9999 NSC 23/10 Q1023 A3021 749.9 HR43 FU@CAELT@CI NOSIG=@CAELT@METAR SLAL 261300Z 08008KT 9999 FEW023 18/08 Q1030 A3042 704.3 HR54=@CAELT@METAR SLPO 261300Z NIL=@CAELT@METAR SLAG 261300Z 18015KT 9999 BKN015 OVC070 21/13 Q1022 A3019 893.9HR58=METAR SLVM 261300Z 18015G25KT 9999 BKN023 OVC070 22/17 Q1018 A3008HR73=METAR SLTJ 261300Z 13006KT 6000 VCSH BKN020 OVC070 15/11 Q1025 A3027819.2 HR73 VIS RED SH/N/S/SW/W/NW RESTO 9999=METAR SLBJ 261300Z NIL=METAR SLHI 261300Z NIL=
ZPX0295 261259@CAELT@GG SLZZYMYT@CAELT@261259 SLTRYGYS@CAELT@SABO SLTR 261300@CAELT@METAR SLTR 261300Z 32012G25KT 5000 FU FEW020 31/24 Q1009 A2980@CAELT@990.6 HR70 NOSIG=@CAELT@METAR SLGM 261300Z 36012KT 8000 NSC 30/25 Q1011 A2986 HR75 FU CI=@CAELT@METAR SLRI 261300Z 04005KT 5000 FU FEW070 BKN200 29/24 Q1011 A2987@CAELT@HR74=METAR SLJO 261300Z 36012KT 8000 NSC 30/24 Q1010 A2985 HR71 FU CIRWY NML=METAR SLRA 261300Z 35015KT 8000 FEW020 SCT200 31/23 Q1009 A2980 HR65FU RWY NML=METAR SLMG 261300Z 32015KT 8000 NSC 30/23 Q1008 A2979 HR68 FU CIMETAR SLBU 261300Z 36008KT 8000 NSC 30/24 Q1009 A2980 HR68 FU CIMETAR SLSA 261300Z 34015G25KT 8000 SCT020 31/24 Q1008 A2979 HR64 FU=METAR SLSR 261300Z 32015G25KT 7000 FEW017 SCT200 30/24 Q1007 A2976HR71 FU RWY NML=METAR SLSM 261300Z 36012KT 8000 SCT017 29/24 Q1008 A2979 HR73 FU
ZPX0296 261259@CAELT@GG SLZZYMYT@CAELT@261258 SLVRYGYS@CAELT@SABO SLVR 261300@CAELT@METAR SLVR 261300Z 22012G24KT 5000 -RA BKN023 FEW030CB BKN070@CAELT@25/23 Q1011 A2988 HR87 FU CB DIST S NOSIG=@CAELT@METAR SLET 261300Z 17015G28KT 8000 VCSH BKN020 FEW030CB BKN070@CAELT@25/20 Q1011 A2987 HR73 CB/NW SH S/NW NOSIG=@CAELT@METAR SLAS 261300Z 36005KT 4000 FU NSC 29/24 Q1013 A2991 HR73RWY NML=METAR SLJV 261300Z 34010KT 5000 FU SCT015 29/23 Q1011 A2985HR71 RWY NML=METAR SLCP 261300Z 30012KT 6000 SCT013 27/23 Q1014 A2994 HR80FU RWY NML=METAR SLSI 261300Z 36010KT 8000 SCT015 28/23 Q1012 A2988 HR75METAR SLTI 261300Z 36010KT 9999 NSC 32/22 Q1015 A2997 HR57 RWY NML=METAR SLJE 261300Z 32006KT 2500 FU BKN15 30/24 Q1013 A2991 HR68METAR SLVG 261300Z 17010KT 9999 OVC015 18/15 Q1025 A3027 HR82 RWY NM=METAR SLRB 261300Z 36015KT 8000 NSC 31/24 Q1013 A2991 HR67 FU RWY NMLMETAR SLPS 261300Z 09004KT 8000 SCT020 OVC070 29/24 Q1010 A2983HR75 FU=METAR SLCA 261300Z 21010KT 9999 OVC033 24/16 Q019 A3009 HR63
ZPX0298 261300@CAELT@GG SLZZYMYT@CAELT@261259 SLLPYFYA@CAELT@SABO SLLP 261300@CAELT@METAR SLLP 261300Z VRB02KT 9999 NSC 12/00 Q1038 A3067@CAELT@628.3 HR42 FU NOSIG=@CAELT@METAR SLCO 261300Z 32010KT 9999 SCT080 29/22 Q1011 A2987@CAELT@984.2 HR69 FU=@CAELT@METAR SLRY 261300Z 34014KT 8000 FEW017 30/24 Q1006 A2973HR72 FU RWY NML=METAR SLRQ 261300Z 35006KT 5000 FU BKN020 BKN200 28/25 Q1008A2979 HR82=METAR SLAP 261300Z 36008KT 9999 FEW025 26/18 Q1015 A3000856.8 HR61 AC=METAR SLSB 261300Z 33008KT 8000 BKN015 29/24 Q1007 A2976 HR76FU RWY NML=METAR SLOR 261300Z 01005KT 9999 NSC 14/03 Q1035 A3057 656.0HR47 CC=METAR SLUY 261300Z 00000KT 9999 NSC 11/M03 Q1034 A3056 658.9HR35=
ZPX0300 261302@CAELT@GG SLZZYMYT@CAELT@261300 SLCBYGYS@CAELT@SABO SLCB 261300@CAELT@METAR SLCB 261300Z 00000KT 9999 NSC 23/10 Q1023 A3021 749.9 HR43 FU@CAELT@CI NOSIG=@CAELT@METAR SLAL 261300Z 08008KT 9999 FEW023 18/08 Q1030 A3042 704.3 HR54=@CAELT@METAR SLPO 261300Z NIL=@CAELT@METAR SLAG 261300Z 18015KT 9999 BKN015 OVC070 21/13 Q1022 A3019 893.9HR58=METAR SLVM 261300Z 18015G25KT 9999 BKN023 OVC070 22/17 Q1018 A3008HR73=METAR SLTJ 261300Z 13006KT 6000 VCSH BKN020 OVC070 15/11 Q1025 A3027819.2 HR73 VIS RED SH/N/S/SW/W/NW RESTO 9999=METAR SLYA 261300Z 21016KT 9999 BKN020 OVC070 21/17 Q1019 A3011 944.0HR78=METAR SLBJ 261300Z NIL=METAR SLHI 261300Z NIL=
ZPX0326 261350@CAELT@GG SLZZYMYT@CAELT@261350 SLRBYGYS@CAELT@SABO SLRB 261400@CAELT@METAR SLRB 261400Z 36015KT 8000 NSC 32/24 Q1012 A2988 HR65 FU RWY NML=@CAELT@
ZPX0327 261352@CAELT@GG SLZZYMYT@CAELT@261352 SLPSYGYS@CAELT@SABO SLPS 261400@CAELT@METAR SLPS 261400Z 09006KT 8000 OVC070 30/24 Q1010 A2983 HR71 FU=@CAELT@
ZPX0328 261352@CAELT@GG SLZZYMYT@CAELT@261352 SLCAYGYS@CAELT@SABO SLCA 261400@CAELT@METAR SLCA 241400Z 21010KT 9999 OVC033 25/11 Q1020 A3012 HR43 RWY NML@CAELT@
ZPX0329 261354@CAELT@GG SLZZYMYT@CAELT@261354 SLSAYGYS@CAELT@SABO SLSA 261400@CAELT@METAR SLSA 261400Z 34015G25KT 8000 SCT020 32/24 Q1009 A2980 HR61 FU=@CAELT@
ZPX0330 261354@CAELT@GG SLZZYMYT@CAELT@261354 SLSAYGYS@CAELT@SABO SLSA 261400@CAELT@METAR SLSA 261400Z 34015G25KT 8000 SCT020 32/24 Q1009 A2980 HR61 FU=@CAELT@
ZPX0331 261354@CAELT@GG SLZZYMYT@CAELT@261354 SLCAYGYS@CAELT@SABO SLCA 261400 CCA@CAELT@METAR COR SLCA 261400Z 21010KT 9999 OVC033 25/11 Q1020 A3012 HR43 RWY@CAELT@NML=@CAELT@
ZPX0333 261355@CAELT@GG SLZZYMYT@CAELT@261353 SLRYYSYX@CAELT@SABO SLRY 261400@CAELT@METAR SLRY 261400Z 34014KT 8000 FEW017 31/24 Q1007 A2974 HR67 FU RWY@CAELT@NML=@CAELT@
ZPX0334 261355@CAELT@GG SLZZYMYT@CAELT@261357 SLLPYGYZ@CAELT@SABO SLLP 261400@CAELT@METAR SLLP 261400Z 25004KT 9999 FEW017 15/M03 Q1038 A3067@CAELT@628.4 HR29 P2380 FU NOSIG=@CAELT@
ZPX0336 261355@CAELT@GG SLZZYMYT@CAELT@261355 SLAGYSYX@CAELT@SABO SLAG 261400@CAELT@METAR SLAG 261400Z 18015KT 9999 SCT017 OVC070 22/11 Q1022 A3021 894.4@CAELT@HR51=@CAELT@
ZPX0337 261356@CAELT@GG SLZZYMYT@CAELT@261355 SLORYGYZ@CAELT@SABO SLOR 261400@CAELT@METAR SLOR 261400Z 01006KT 9999 NSC 16/03 Q1035 A3057 655.9 HR45 CC=@CAELT@
ZPX0338 261356@CAELT@GG SLZZYMYT@CAELT@261355 SLTJYGYZ@CAELT@SABO SLTJ 261400@CAELT@METAR SLTJ 261400Z 15008KT 7000 VCSH FEW015 BKN020 OVC070 17/10 Q1024@CAELT@A3026 818.9 HR66 SH/N/SW/W/NW=@CAELT@
ZPX0340 261356@CAELT@GG SLZZYMYT@CAELT@261355 SLRQYSYX@CAELT@SABO SLRQ 261400@CAELT@METAR SLRQ 261400Z 36004KT 5000 FU BKN017 30/25 Q1008 A2979 HR74 CI=@CAELT@
ZPX0342 261357@CAELT@GG SLZZYMYT@CAELT@261356 SLTRYGYZ@CAELT@SABO SLTR 261400@CAELT@METAR SLTR 261400Z 32014KT 5000 FU FEW020 32/24 Q1009 A2982 991.2@CAELT@HR64 NOSIG=@CAELT@
ZPX0343 261357@CAELT@GG SLZZYMYT@CAELT@261356 SLSBYSYX@CAELT@SABO SLSB 261400@CAELT@METAR SLSB 261400Z 35010KT 8000 BKN017 31/25 Q1008 A2978 HR71 FU RWY@CAELT@NML=@CAELT@
ZPX0344 261357@CAELT@GG SLZZYMYT@CAELT@261358 SLVRYGYZ@CAELT@SABO SLVR 261400@CAELT@METAR SLVR 261400Z 18010KT 5000 -TSRA BKN023 FEW030CB OVC070 24/22@CAELT@Q1013 A2992 HR86 FU CB/TS NW/N NOSIG=@CAELT@
ZPX0345 261358@CAELT@GG SLZZYMYT@CAELT@261358 SLCOYGYZ@CAELT@SABO SLCO 261400@CAELT@METAR SLCO 261400Z 34011KT 9999 BKN080 30/23 Q1011 A2988 984.3 HR67@CAELT@
ZPX0346 261358@CAELT@GG SLZZYMYT@CAELT@261358 SLCBYGYZ@CAELT@SABO SLCB 261400@CAELT@METAR SLCB 261400Z 12007KT 9999 FEW030 27/09 Q1023 A3021 749.9 HR31@CAELT@FU NOSIG=@CAELT@
ZPX0349 261400@CAELT@GG SLZZYMYT@CAELT@261400 SLCBYGYS@CAELT@SABO SLCB 261400@CAELT@METAR SLCB 261400Z 12007KT 9999 FEW030 27/09 Q1023 A3021 749.9 HR31@CAELT@FU NOSIG=@CAELT@METAR SLAL 261400Z 04006KT 9999 SCT023 FEW030CB 20/09 Q1029 A3040@CAELT@704.0 HR50 CB/NE=@CAELT@METAR SLPO 261400Z NIL=METAR SLAG 261400Z 18015KT 9999 SCT017 OVC070 22/11 Q1022 A3021 894.4HR51=METAR SLVM 261400Z 18015G28KT 9999 BKN023 OVC070 22/17 Q1019 A3009HR71=METAR SLTJ 261400Z 15008KT 7000 VCSH FEW015 BKN020 OVC070 17/10 Q1024A3026 818.9 HR66 SH/N/SW/W/NW=METAR SLYA 261400Z 21015KT 9999 BKN020 OVC070 21/17 Q1020 A3014 944.8HR76=METAR SLBJ 261400Z NIL=METAR SLHI 261400Z NIL=
ZPX0350 261400@CAELT@GG SLZZYMYT@CAELT@261400 SLTRYGYS@CAELT@SABO SLTR 261400@CAELT@METAR SLTR 261400Z 32014KT 5000 FU FEW020 32/24 Q1009 A2982 991.2@CAELT@HR64 NOSIG=@CAELT@METAR SLGM 261400Z 36012KT 9999 NSC 32/24 Q1011 A2987 HR63 CI=@CAELT@METAR SLRI 261400Z 01008KT 7000 FEW017 BKN200 31/24 Q1011 A2988 HR66@CAELT@FU AC=METAR SLJO 261400Z 36014KT 8000 NSC 31/24 Q1011 A2986 HR66 FU CIRWY NML=METAR SLRA 261400Z 34018KT 8000 FEW020 32/23 Q1009 A2980 HR59 FU CIMETAR SLMG 261400Z 32015G25KT 8000 FEW017 33/23 Q1009 A2980 HR54 FUMETAR SLBU 261400Z 36012KT 8000 NSC 34/24 Q1009 A2981 HR55 FU CIMETAR SLSA 261400Z 34015G25KT 8000 SCT020 32/24 Q1009 A2980 HR61 FU=METAR SLSR 261400Z 32015G25KT 7000 FEW017 SCT200 31/23 Q1008 A2977HR66 FU RWY NML=METAR SLSM 261400Z 36014KT 8000 SCT017 31/24 Q1009 A2980 HR67 FU
ZPX0353 261403@CAELT@GG SLZZYMYT@CAELT@261402 SLVRYGYS@CAELT@SABO SLVR 261400@CAELT@METAR SLVR 261400Z 18010KT 5000 -TSRA BKN023 FEW030CB OVC070@CAELT@24/22 Q1013 A2992 HR86 FU CB/TS NW/N NOSIG=@CAELT@METAR SLET 261400Z 17020G30KT 8000 -RA BKN023 FEW030CB BKN070 25/19@CAELT@Q1013 A2992 HR66 CB/NW NOSIG=@CAELT@METAR SLAS 261400Z 34006KT 6000 FEW020 OVC200 31/24 Q1013 A2991 HR68FU RWY NML=METAR SLJV 261400Z 34010KT 5000 FU SCT015 31/23 Q1011 A2985 HR64 RWYNML=METAR SLCP 261400Z 30012KT 8000 BKN015 28/23 Q1014 A2994 HR73 FU RWYMETAR SLSI 261400Z 36008KT 8000 SCT015 30/23 Q1012 A2988 HR66 FU RWYMETAR SLTI 261400Z 34008KT 9999 FEW017 33/23 Q1015 A2997 HR54 RWY NMLMETAR SLJE 261400Z 32008KT 3000 FU OVC015 31/24 Q1013 A2991 HR67 RWYMETAR SLVG 261400Z 17015KT 7000 VCSH OVC015 17/15 Q1025 A3027 HR86SH/N/E/SE/S RWY NML=METAR SLRB 261400Z 36015KT 8000 NSC 32/24 Q1012 A2988 HR65 FU RWY NMLMETAR SLPS 261400Z 09006KT 8000 OVC070 30/24 Q1010 A2983 HR71 FU=METAR SLCA 261400Z 21010KT 9999 OVC033 25/11 Q1020 A3012 HR43RWY NML=
ZPX0354 261404@CAELT@GG SLZZYMYT@CAELT@261400 SLLPYFYA@CAELT@SABO SLLP 261400@CAELT@METAR SLLP 261400Z 25004KT 9999 FEW017 15/M03 Q1038 A3067@CAELT@628.4 HR29 P2380 FU NOSIG=@CAELT@METAR SLCO 261400Z 34011KT 9999 BKN080 30/23 Q1011 A2988@CAELT@984.3 HR67 FU=@CAELT@METAR SLRY 261400Z 34014KT 8000 FEW017 31/24 Q1007 A2974HR67 FU RWY NML=METAR SLRQ 261400Z 36004KT 5000 FU BKN017 30/25 Q1008 A2979HR74 CI=METAR SLAP 261400Z 36010KT 9999 FEW025 27/18 Q1016 A3001857.1 HR57=METAR SLSB 261400Z 35010KT 8000 BKN017 31/25 Q1008 A2978HR71 FU RWY NML=METAR SLOR 261400Z 01006KT 9999 NSC 16/03 Q1035 A3057 655.9HR45 CC=METAR SLUY 261400Z 00000KT 9999 NSC 15/M02 Q1034 A3054 658.5HR32 CI=
ZPX0378 261450@CAELT@GG SLZZYMYT@CAELT@261450 SLCAYGYS@CAELT@SABO SLCA 261500@CAELT@METAR SLCA 261500Z 21010KT 9999 BKN036 OVC070 24/11 Q1020 A3012 HR45@CAELT@RWY NML=@CAELT@
ZPX0381 261453@CAELT@GG SLZZYMYT@CAELT@261452 SLPSYGYS@CAELT@SABO SLPS 261500@CAELT@METAR SLPS 261500Z 09009KT 8000 BKN070 33/25 Q1009 A2980 HR64 FU=@CAELT@
ZPX0382 261454@CAELT@GG SLZZYMYT@CAELT@261454 SLSAYGYS@CAELT@SABO SLSA 261500@CAELT@METAR SLSA 261500Z 34015G25KT 8000 SCT020 33/24 Q1009 A2980 HR58 FU=@CAELT@
ZPX0383 261454@CAELT@GG SLZZYMYT@CAELT@261454 SLSAYGYS@CAELT@SABO SLSA 261500@CAELT@METAR SLSA 261500Z 34015G25KT 8000 SCT020 33/24 Q1009 A2980 HR58 FU=@CAELT@
ZPX0384 261454@CAELT@GG SLZZYMYT@CAELT@261453 SLRYYSYX@CAELT@SABO SLRY 261500@CAELT@METAR SLRY 261500Z 34014KT 8000 SCT017 33/24 Q1007 A2974 HR60 FU RWY@CAELT@NML=@CAELT@
ZPX0385 261455@CAELT@GG SLZZYMYT@CAELT@261455 SLVRYGYZ@CAELT@SABO SLVR 261500@CAELT@METAR SLVR 261500Z 18010KT 9000 -RA BKN027 FEW030CB OVC070 23/20@CAELT@Q1012 A2991 HR82 CB/ W/NW/N NOSIG=@CAELT@
ZPX0386 261455@CAELT@GG SLZZYMYT@CAELT@261455 SLRQYSYX@CAELT@SABO SLRQ 261500@CAELT@METAR SLRQ 261500Z 36008KT 7000 BKN017 33/26 Q1008 A2978 HR66 FU=@CAELT@
ZPX0388 261456@CAELT@GG SLZZYMYT@CAELT@261456 SLORYGYZ@CAELT@SABO SLOR 261500@CAELT@METAR SLOR 261500Z 24003KT 9999 FEW020 18/07 Q1034 A3055 655.6 HR47=@CAELT@
ZPX0389 261456@CAELT@GG SLZZYMYT@CAELT@261455 SLSBYSYX@CAELT@SABO SLSB 261500@CAELT@METAR SLSB 261500Z 31008KT 8000 SCT017 32/25 Q1008 A2971 HR65 RWY FU@CAELT@NML=@CAELT@
ZPX0391 261456@CAELT@GG SLZZYMYT@CAELT@261455 SLRBYGYS@CAELT@SABO SLRB 261500@CAELT@METAR SLRB 261500Z 36015KT 8000 BKN020 32/24 Q1012 A2988 HR64 FU RWY@CAELT@NML=@CAELT@
ZPX0392 261456@CAELT@GG SLZZYMYT@CAELT@261456 SLUYYGYS@CAELT@SABO SLUY 261500@CAELT@METAR SLUY 261500Z 26005KT 9999 FEW023 17/M00 Q1033 A3053 658.2@CAELT@HR28 CI=@CAELT@
ZPX0393 261456@CAELT@GG SLZZYMYT@CAELT@261457 SLLPYGYZ@CAELT@SABO SLLP 261500@CAELT@METAR SLLP 261500Z 17004KT 9999 FEW020 17/M03 Q1038 A3065@CAELT@628.0 HR24 P93// FU NOSIG=@CAELT@
ZPX0394 261456@CAELT@GG SLZZYMYT@CAELT@261455 SLAGYSYX@CAELT@SABO SLAG 261500@CAELT@METAR SLAG 261500Z 20015KT 9999 FEW017 OVC070 22/10 Q1023 A3022 894.7@CAELT@HR49=@CAELT@
ZPX0396 261456@CAELT@GG SLZZYMYT@CAELT@261456 SLTRYGYZ@CAELT@SABO SLTR 261500@CAELT@METAR SLTR 261500Z 31010KT 5000 FU FEW020 33/25 Q1009 A2982@CAELT@991.4 HR61 NOSIG=@CAELT@
ZPX0398 261457@CAELT@GG SLZZYMYT@CAELT@261457 SLCOYGYZ@CAELT@SABO SLCO 261500@CAELT@METAR SLCO 261500Z 29010KT 9999 SCT025 31/23 Q1011 A2985 983.6 HR64@CAELT@
ZPX0399 261457@CAELT@GG SLZZYMYT@CAELT@261457 SLCBYGYZ@CAELT@SABO SLCB 261500@CAELT@METAR SLCB 261500Z 14010KT 9999 FEW030 FEW033CB 28/07 Q1022 A3020 749@CAELT@.6 HR26 CB/NW NOSIG=@CAELT@
ZPX0401 261459@CAELT@GG SLZZYMYT@CAELT@261457 SLTJYGYZ@CAELT@SABO SLTJ 261500@CAELT@METAR SLTJ 261500Z 14008KT 9999 FEW015 BKN020 OVC070 17/11 Q1024@CAELT@A3025 818.7 HR67 SH/SW/W/NW=@CAELT@
ZPX0405 261500@CAELT@GG SLZZYMYT@CAELT@261500 SLCBYGYS@CAELT@SABO SLCB 261500@CAELT@METAR SLCB 261500Z 14010KT 9999 FEW030 FEW033CB 28/07 Q1022 A3020@CAELT@749.6 HR26 CB/NW NOSIG=@CAELT@METAR SLAL 261500Z 04011KT 9999 BKN023 FEW033CB 18/10 Q1029 A3038@CAELT@703.6 HR60 CB/N/SE/S=@CAELT@METAR SLPO 261500Z NIL=METAR SLAG 261500Z 20015KT 9999 FEW017 OVC070 22/10 Q1023 A3022 894.7HR49=METAR SLVM 261500Z 18012G25KT 9999 FEW023 OVC070 23/17 Q1018 A3008HR70=METAR SLTJ 261500Z 14008KT 9999 FEW015 BKN020 OVC070 17/11 Q1024A3025 818.7 HR67 SH/SW/W/NW=METAR SLYA 261500Z 21015KT 9999 FEW020 BKN070 22/17 Q1018 A3009 943.2HR73=METAR SLBJ 261500Z NIL=METAR SLHI 261500Z NIL=
ZPX0406 261501@CAELT@GG SLZZYMYT@CAELT@261500 SLTRYGYS@CAELT@SABO SLTR 261500@CAELT@METAR SLTR 261500Z 31010KT 5000 FU FEW020 33/25 Q1009 A2982@CAELT@991.4 HR61 NOSIG=@CAELT@METAR SLGM 261500Z 36010KT 9999 FEW017 33/24 Q1011 A2985 HR59=@CAELT@METAR SLRI 261500Z 36010KT 7000 FEW017 BKN200 33/24 Q1011 A2987 HR59@CAELT@METAR SLJO 261500Z 34014KT 8000 FEW020 SCT200 33/24 Q1010 A2983 HR59FU RWY NML=METAR SLRA 261500Z 36014G25KT 8000 FEW020 34/24 Q1009 A2980 HR54FU CI RWY NML=METAR SLMG 261500Z 32015G25KT 8000 FEW017 35/23 Q1009 A2980 HR49METAR SLBU 261500Z 36008KT 8000 SCT017 36/24 Q1009 A2980 HR49 FURWY NML=METAR SLSA 261500Z 34015G25KT 8000 SCT020 33/24 Q1009 A2980 HR58 FU=METAR SLSR 261500Z 32015G25KT 7000 SCT017 32/23 Q1008 A2979 HR58METAR SLSM 261500Z 36015G25KT 9999 BKN017 33/24 Q1009 A2981 HR61
ZPX0407 261501@CAELT@GG SLZZYMYT@CAELT@261500 SLLPYFYA@CAELT@SABO SLLP 261500@CAELT@METAR SLLP 261500Z 17004KT 9999 FEW020 17/M03 Q1038 A3065@CAELT@628.0 HR24 P93// FU NOSIG=@CAELT@METAR SLCO 261500Z 29010KT 9999 SCT025 31/23 Q1011 A2985@CAELT@983.6 HR64 AC=@CAELT@METAR SLRY 261500Z 34014KT 8000 SCT017 33/24 Q1007 A2974HR60 FU RWY NML=METAR SLRQ 261500Z 36008KT 7000 BKN017 33/26 Q1008 A2978HR66 FU=METAR SLAP 261500Z 36005KT 9999 FEW025 29/16 Q1015 A2999856.6 HR47=METAR SLSB 261500Z 31008KT 8000 SCT017 32/25 Q1008 A2971HR65 RWY FU NML=METAR SLOR 261500Z 24003KT 9999 FEW020 18/07 Q1034 A3055655.6 HR47=METAR SLUY 261500Z 26005KT 9999 FEW023 17/M00 Q1033 A3053658.2 HR28 CI=
ZPX0408 261501@CAELT@GG SLZZYMYT@CAELT@261500 SLVRYGYS@CAELT@SABO SLVR 261500@CAELT@METAR SLVR 261500Z 18010KT 9000 -RA BKN027 FEW030CB OVC070 23/20@CAELT@Q1012 A2991 HR82 CB/W/NW/N NOSIG=@CAELT@METAR SLET 261500Z 16020G30KT 9999 BKN023 FEW030CB BKN070 25/19@CAELT@Q1012 A2990 HR67 CB/NW NOSIG=@CAELT@METAR SLAS 261500Z 34006KT 7000 FEW020 BKN200 32/25 Q1013 A2991HR64 FU RWY NML=METAR SLJV 261500Z 34008KT 5000 FU SCT015 32/23 Q1010 A2983 HR61RWY NML=METAR SLCP 261500Z 30012KT 8000 SCT015 BKN070 28/23 Q1014 A2994HR73 FU RWY NML=METAR SLSI 261500Z 33006KT 8000 BKN017 30/23 Q1012 A2988 HR67FU RWY NML=METAR SLTI 261500Z 35008KT 9999 SCT017 35/23 Q1014 A2994 HR51 RWY NMLMETAR SLJE 261500Z 32008KT 4000 FU OVC015 31/24 Q1013 A2991HR68 RWY NML=METAR SLVG 261500Z 17015G25KT 9999 BKN017 18/11 Q1025 A3027 HR61METAR SLRB 261500Z 36015KT 8000 BKN020 32/24 Q1012 A2988 HR64METAR SLPS 261500Z 09009KT 8000 BKN070 33/25 Q1009 A2980 HR64 FU=METAR SLCA 261500Z 21010KT 9999 BKN036 OVC070 24/11 Q1020 A3012HR45 RWY NML=
ZPX0409 261502@CAELT@GG SLZZYMYT@CAELT@261502 SLETYGYS@CAELT@SABO SLET 261500@CAELT@METAR SLET 261500Z 16020G30KT 9999 BKN023 FEW030CB BKN070 25/19 Q1012@CAELT@A2990 HR67 CB/NW NOSIG=@CAELT@
ZPX0443 261553@CAELT@GG SLZZYMYT@CAELT@261553 SLPSYGYS@CAELT@SABO SLPS 261600@CAELT@METAR SLPS 261600Z 26012KT 8000 SCT020 OVC070 35/25 Q1009 A2980 HR59@CAELT@
ZPX0444 261553@CAELT@GG SLZZYMYT@CAELT@261553 SLVRYGYZ@CAELT@SABO SLVR 261600@CAELT@METAR SLVR 261600Z 17010KT 8000 -TSRA BKN027 FEW030CB BKN070 23/20@CAELT@Q1012 A2989 HR82 CB TS W/NW/N/NE NOSIG=@CAELT@
ZPX0445 261554@CAELT@GG SLZZYMYT@CAELT@261554 SLSAYGYS@CAELT@SABO SLSA 261600@CAELT@METAR SLSA 261600Z 34015G25KT 6000 BKN020 35/24 Q1008 A2979 HR53 FU=@CAELT@
ZPX0446 261554@CAELT@GG SLZZYMYT@CAELT@261554 SLSAYGYS@CAELT@SABO SLSA 261600@CAELT@METAR SLSA 261600Z 34015G25KT 6000 BKN020 35/24 Q1008 A2979 HR53 FU=@CAELT@
ZPX0449 261555@CAELT@GG SLZZYMYT@CAELT@261555 SLAGYSYX@CAELT@SABO SLAG 261600@CAELT@METAR SLAG 261600Z 20013KT 9999 SCT020 FEW030TCU BKN070 24/11 Q1021@CAELT@A3018 893.5 HR45 TCU/W=@CAELT@
ZPX0450 261555@CAELT@GG SLZZYMYT@CAELT@261556 SLTJYGYZ@CAELT@SABO SLTJ 261600@CAELT@METAR SLTJ 261600Z 12006KT 9999 BKN020 OVC070 18/11 Q1023 A3022 817.8@CAELT@HR64 SH/SW/W/NW=@CAELT@
ZPX0451 261555@CAELT@GG SLZZYMYT@CAELT@261555 SLORYGYZ@CAELT@SABO SLOR 261600@CAELT@METAR SLOR 261600Z 25004KT 9999 FEW023 21/06 Q1033 A3052 654.8 HR38=@CAELT@
ZPX0452 261555@CAELT@GG SLZZYMYT@CAELT@261555 SLSBYSYX@CAELT@SABO SLSB 261600@CAELT@METAR SLSB 261600Z 33006KT 8000 BKN017 33/25 Q1007 A2976 HR64 FU RWY@CAELT@NML=@CAELT@
ZPX0453 261555@CAELT@GG SLZZYMYT@CAELT@261555 SLCAYGYS@CAELT@SABO SLCA 261600@CAELT@METAR SLCA 261600Z 21010KT 9999 BKN040 OVC070 25/11 Q1020 A3012 HR42@CAELT@RWY NML=@CAELT@
ZPX0454 261556@CAELT@GG SLZZYMYT@CAELT@261557 SLUYYGYS@CAELT@SABO SLUY 261600@CAELT@METAR SLUY 261600Z 29003KT 9999 FEW023 18/M03 Q1033 A3051 657.7@CAELT@HR24 CI=@CAELT@
ZPX0455 261557@CAELT@GG SLZZYMYT@CAELT@261557 SLLPYGYZ@CAELT@SABO SLLP 261600@CAELT@METAR SLLP 261600Z 14006KT 9999 FEW023 19/M06 Q1036 A3062@CAELT@627.2 HR18 P93// FU NOSIG=@CAELT@
ZPX0457 261557@CAELT@GG SLZZYMYT@CAELT@261555 SLETYMYC@CAELT@SABO SLET 261600@CAELT@METAR SLET 261600Z 15013G23KT 8000 VCSH TS BKN025 FEW030CB BKN070 25/@CAELT@19 Q1012 A2990 HR68 CB/TS W/NW/N CI NOSIG=@CAELT@
ZPX0458 261557@CAELT@GG SLZZYMYT@CAELT@261556 SLTRYGYZ@CAELT@SABO SLTR 261600@CAELT@METAR SLTR 261600Z 31014KT 8000 FEW020 35/24 Q1008 A2979 990.4@CAELT@HR55 FU NOSIG=@CAELT@
ZPX0459 261558@CAELT@GG SLZZYMYT@CAELT@261556 SLRBYGYS@CAELT@SABO SLRB 261600@CAELT@METAR SLRB 261600Z 36015KT 8000 BKN020 33/24 Q1011 A2985 HR57 FU RWY@CAELT@NML=@CAELT@
ZPX0460 261559@CAELT@GG SLZZYMYT@CAELT@261558 SLVRYGYS@CAELT@SABO SLVR 261600@CAELT@METAR SLVR 261600Z 17010KT 8000 -TSRA BKN027 FEW030CB BKN070 23/20@CAELT@Q1012 A2989 HR82 CB TS W/NW/N/NE NOSIG=@CAELT@METAR SLET 261600Z 15013G23KT 8000 VCSH TS BKN025 FEW030CB BKN070 25/@CAELT@19 Q1012 A2990 HR68 CB/TS W/NW/N CI NOSIG=@CAELT@METAR SLAS 261600Z 33006KT 8000 FEW020 OVC200 35/24 Q1011 A2986HR54 FU RWY NML=METAR SLCP 261600Z 32010KT 7000 BKN017 29/22 Q1013 A2991 HR67FU RWY NML=METAR SLSI 261600Z 36006KT 8000 BKN017 BKN070 30/23 Q1011 A2985HR66 FU RWY NML=METAR SLRB 261600Z 36015KT 8000 BKN020 33/24 Q1011 A2985 HR57METAR SLPS 261600Z 26012KT 8000 SCT020 OVC070 35/25 Q1009 A2980HR59 FU=METAR SLCA 261600Z 21010KT 9999 BKN040 OVC070 25/11 Q1020 A3012HR42 RWY NML=
ZPX0461 261559@CAELT@GG SLZZYMYT@CAELT@261559 SLTRYGYS@CAELT@SABO SLTR 261600@CAELT@METAR SLTR 261600Z 31014KT 8000 FEW020 35/24 Q1008 A2979 990.4@CAELT@HR55 FU NOSIG=@CAELT@METAR SLGM 261600Z 36010KT 9999 SCT017 34/24 Q1010 A2982 HR55=@CAELT@METAR SLRI 261600Z 36015KT 8000 FEW17 SCT200 34/22 Q1010 A2985 HR48@CAELT@METAR SLJO 261600Z 34014KT 8000 SCT020 SCT200 34/24 Q1010 A2983HR57 FU RWY NML=METAR SLRA 261600Z 33015KT 8000 SCT020 35/23 Q1009 A2980 HR50 FU CIRWY NML=METAR SLMG 261600Z 32015G25KT 8000 BKN017 35/23 Q1008 A2979 HR47 FUMETAR SLBU 261600Z 36008KT 8000 BKN017 FEW023CB 32/25 Q1008 A2978HR65 FU CB S RWY NML=METAR SLSA 261600Z 34015G25KT 6000 BKN020 35/24 Q1008 A2979 HR53 FU=METAR SLSR 261600Z 32015G25KT 7000 SCT017 33/23 Q1007 A2976 HR56 FUMETAR SLSM 261600Z 36015G25KT 9999 BKN017 33/24 Q1008 A2978 HR59
ZPX0462 261559@CAELT@GG SLZZYMYT@CAELT@261559 SLCBYGYZ@CAELT@SABO SLCB 261600@CAELT@METAR SLCB 261600Z 16012KT 9999 FEW033 FEW036CB 29/08 Q1021 A3016 748@CAELT@.6 HR27 CB/NW AC FU NOSIG=@CAELT@
ZPX0464 261601@CAELT@GG SLZZYMYT@CAELT@261559 SLLPYFYA@CAELT@SABO SLRY 261600@CAELT@METAR SLRY 261600Z 34018KT 9999 SCT020 34/24 Q1006 A2972 HR55@CAELT@FU RWY NML=@CAELT@
ZPX0466 261601@CAELT@GG SLZZYMYT@CAELT@261600 SLCBYGYS@CAELT@SABO SLCB 261600@CAELT@METAR SLCB 261600Z 16012KT 9999 FEW033 FEW036CB 29/08 Q1021 A3016@CAELT@748.6 HR27 CB/NW AC FU NOSIG=@CAELT@METAR SLAL 261600Z 01016KT 9999 BKN023 FEW033CB 19/09 Q1028 A3036@CAELT@703.1 HR56 CB/SE/S/SW=@CAELT@METAR SLPO 261600Z NIL=METAR SLAG 261600Z 20013KT 9999 SCT020 FEW030TCU BKN070 24/11 Q1021A3018 893.5 HR45 TCU/W=METAR SLVM 261600Z 18012G25KT 9999 FEW023 OVC070 24/17 Q1017 A3006HR62=METAR SLTJ 261600Z 12006KT 9999 BKN020 OVC070 18/11 Q1023 A3022 817.8HR64 SH/SW/W/NW=METAR SLYA 261600Z 21015KT 9999 FEW020 BKN070 26/17 Q1017 A3006 942.2HR58=METAR SLBJ 261600Z NIL=METAR SLHI 261600Z NIL=
ZPX0467 261603@CAELT@GG SLZZYMYT@CAELT@261600 SLCOYGYZ@CAELT@SABO SLCO 261600@CAELT@METAR SLCO 261600Z 35012KT 9999 BKN025 36/23 Q1012 A2991 983.7 HR60@CAELT@
ZPX0469 261603@CAELT@GG SLZZYMYT@CAELT@261602 SLLPYFYA@CAELT@SABO SLLP 261600@CAELT@METAR SLLP 261600Z 14006KT 9999 FEW023 19/M06 Q1036 A3062@CAELT@627.2 HR18 P93// FU NOSIG=@CAELT@METAR SLCO 261600Z 35012KT 9999 BKN025 36/23 Q1012 A2991@CAELT@983.7 HR60 CI=@CAELT@METAR SLRY 261600Z 34018KT 9999 SCT020 34/24 Q1006 A2972 HR55FU RWY NML=METAR SLRQ 261600Z 36006KT 7000 BKN017 34/26 Q1007 A2975HR63 FU=METAR SLAP 261600Z 36005KT 9999 FEW025 29/15 Q1015 A2998856.1 HR41=METAR SLSB 261600Z 33006KT 8000 BKN017 33/25 Q1007 A2976HR64 FU RWY NML=METAR SLOR 261600Z 25004KT 9999 FEW023 21/06 Q1033 A3052654.8 HR38=METAR SLUY 261600Z 29003KT 9999 FEW023 18/M03 Q1033 A3051657.7 HR24 CI=
ZPX0495 261652@CAELT@GG SLZZYMYT@CAELT@261652 SLPSYGYS@CAELT@SABO SLPS 261700@CAELT@METAR SLPS 261700Z 26013KT 7000 SCT020 OVC070 35/25 Q1008 A2977 HR57@CAELT@
ZPX0496 261653@CAELT@GG SLZZYMYT@CAELT@261654 SLCOYGYZ@CAELT@SABO SLCO 261700@CAELT@METAR SLCO 261700Z 32009KT 9999 BKN025 36/24 Q1009 A2980 981.7 HR50@CAELT@
ZPX0497 261654@CAELT@GG SLZZYMYT@CAELT@261654 SLRBYGYS@CAELT@SABO SLRB 261700@CAELT@METAR SLRB 261700Z 21015KT 9999 OVC020 32/23 Q1011 A2985 HR61 FU RWY@CAELT@NML=@CAELT@
ZPX0498 261655@CAELT@GG SLZZYMYT@CAELT@261654 SLSAYGYS@CAELT@SABO SLSA 261700@CAELT@METAR SLSA 261700Z 33017KT 6000 BKN020 35/23 Q1008 A2977 HR51 FU=@CAELT@
ZPX0499 261655@CAELT@GG SLZZYMYT@CAELT@261654 SLSAYGYS@CAELT@SABO SLSA 261700@CAELT@METAR SLSA 261700Z 33017KT 6000 BKN020 35/23 Q1008 A2977 HR51 FU=@CAELT@
ZPX0500 261655@CAELT@GG SLZZYMYT@CAELT@261655 SLSBYSYX@CAELT@SABO SLSB 261700@CAELT@METAR SLSB 261700Z 34008KT 8000 BKN017 35/25 Q1006 A2973 HR58 FU RWY@CAELT@NML=@CAELT@
ZPX0501 261655@CAELT@GG SLZZYMYT@CAELT@261657 SLLPYGYZ@CAELT@SABO SLLP 261700@CAELT@METAR SLLP 261700Z 09013G24KT 040V130 9999 SCT023 19/M06 Q1035@CAELT@A3058 626.4 HR18 P93// FU NOSIG=@CAELT@
ZPX0502 261655@CAELT@GG SLZZYMYT@CAELT@261655 SLRQYSYX@CAELT@SABO SLRQ 261700@CAELT@METAR SLRQ 261700Z 36012KT 8000 BKN017 35/26 Q1006 A2972 HR60 FU=@CAELT@
ZPX0503 261656@CAELT@GG SLZZYMYT@CAELT@261657 SLTJYGYZ@CAELT@SABO SLTJ 261700@CAELT@METAR SLTJ 261700Z 13008KT 9999 BKN025 OVC070 18/10 Q1022 A3018 816.6@CAELT@HR61=@CAELT@
ZPX0504 261656@CAELT@GG SLZZYMYT@CAELT@261657 SLUYYGYS@CAELT@SABO SLUY 261700@CAELT@METAR SLUY 261700Z 33007KT 9999 FEW025 18/M03 Q1032 A3048 657.0@CAELT@HR22 CI=@CAELT@
ZPX0505 261656@CAELT@GG SLZZYMYT@CAELT@261656 SLTRYGYZ@CAELT@SABO SLTR 261700@CAELT@METAR SLTR 261700Z 31012KT 8000 SCT020 35/24 Q1007 A2976 989.4@CAELT@HR52 FU NOSIG=@CAELT@
ZPX0506 261656@CAELT@GG SLZZYMYT@CAELT@261655 SLAGYSYX@CAELT@SABO SLAG 261700@CAELT@METAR SLAG 261700Z 18012KT 9999 SCT020 FEW030CB BKN070 23/12 Q1020@CAELT@A3013 892.2 HR47 CB/W=@CAELT@
ZPX0508 261657@CAELT@GG SLZZYMYT@CAELT@261656 SLCAYGYS@CAELT@SABO SLCA 261700@CAELT@METAR SLCA 261700Z 21005KT 9999 BKN040 OVC070 26/11 Q1018 A3006 HR40@CAELT@RWY NML=@CAELT@
ZPX0509 261657@CAELT@GG SLZZYMYT@CAELT@261656 SLORYGYZ@CAELT@SABO SLOR 261700@CAELT@METAR SLOR 261700Z 30009KT 9999 FEW023 23/06 Q1030 A3044 653.1 HR32=@CAELT@
ZPX0510 261657@CAELT@GG SLZZYMYT@CAELT@261657 SLCBYGYZ@CAELT@SABO SLCB 261700@CAELT@METAR SLCB 261700Z 09007KT 360V150 9999 FEW033 FEW036CB SCT200 30/08@CAELT@Q1019 A3011 747.1 HR24 CB/N AC NOSIG=@CAELT@
ZPX0511 261659@CAELT@GG SLZZYMYT@CAELT@261659 SLTRYGYS@CAELT@SABO SLTR 261700@CAELT@METAR SLTR 261700Z 31012KT 8000 SCT020 35/24 Q1007 A2976 989.4@CAELT@HR52 FU NOSIG=@CAELT@METAR SLGM 261700Z 32012KT 9999 SCT017 FEW020CB 35/24 Q1009 A2979@CAELT@HR54 CB N=@CAELT@METAR SLRI 261700Z 01015KT 8000 FEW017 SCT200 35/21 Q1009 A2981 HR44METAR SLJO 261700Z 34015KT 8000 SCT020 SCT200 35/24 Q1009 A2982 HR53FU RWY NML=METAR SLRA 261700Z 35012KT 8000 SCT020 FEW023CB 35/23 Q1008 A2978HR49 FU CB SW RWY NML=METAR SLMG 261700Z 32010KT 8000 BKN017 35/23 Q1007 A2976 HR51 FURWY NML=METAR SLBU 261700Z 36008KT 8000 BKN017 FEW023CB 34/23 Q1007 A2975HR52 FU CB SW RWY NML=METAR SLSA 261700Z 33017KT 6000 BKN020 35/23 Q1008 A2977 HR51 FU=METAR SLSR 261700Z 32015G25KT 7000 SCT017 34/23 Q1006 A2973 HR51 FUMETAR SLSM 261700Z 34010KT 9999 BKN017 34/24 Q1007 A2975 HR56
ZPX0512 261659@CAELT@GG SLZZYMYT@CAELT@261659 SLCBYGYS@CAELT@SABO SLCB 261700@CAELT@METAR SLCB 261700Z 09007KT 360V150 9999 FEW033 FEW036CB SCT200 30/08@CAELT@Q1019 A3011 747.1 HR24 CB/N AC NOSIG=@CAELT@METAR SLAL 261700Z 02015KT 9999 SCT023 FEW033CB 20/09 Q1027 A3032@CAELT@702.3 HR51 CB/S/SW=@CAELT@METAR SLPO 261700Z NIL=METAR SLAG 261700Z 18012KT 9999 SCT020 FEW030CB BKN070 23/12 Q1020A3013 892.2 HR47 CB/W=METAR SLVM 261700Z 18010KT 9999 OVC070 26/17 Q1016 A3001 HR61=METAR SLTJ 261700Z 13008KT 9999 BKN025 OVC070 18/10 Q1022 A3018 816.6HR61=METAR SLYA 261700Z 21012KT 9999 FEW020 BKN070 28/18 Q1016 A3000 940.6HR55=METAR SLBJ 261700Z NIL=METAR SLHI 261700Z NIL=
ZPX0515 261700@CAELT@GG SLZZYMYT@CAELT@261659 SLLPYFYA@CAELT@SABO SLLP 261700@CAELT@METAR SLLP 261700Z 09013G24KT 040V130 9999 SCT023 19/M06 Q1035@CAELT@A3058 626.4 HR18 P93// FU NOSIG=@CAELT@METAR SLCO 261700Z 32009KT 9999 BKN025 36/24 Q1009 A2980 981.7@CAELT@HR50 CI=@CAELT@METAR SLRY 261700Z 34016KT 9999 SCT020 34/24 Q1005 A2970HR55 FU RWY NML=METAR SLRQ 261700Z 36012KT 8000 BKN017 35/26 Q1006 A2972HR60 FU=METAR SLAP 261700Z 00000KT 9999 FEW025 33/16 Q1013 A2994855.0 HR37=METAR SLSB 261700Z 34008KT 8000 BKN017 35/25 Q1006 A2973HR58 FU RWY NML=METAR SLOR 261700Z 30009KT 9999 FEW023 23/06 Q1030 A3044653.1 HR32=METAR SLUY 261700Z 33007KT 9999 FEW025 18/M03 Q1032 A3048657.0 HR22 CI=
ZPX0516 261700@CAELT@GG SLZZYMYT@CAELT@261659 SLVRYGYS@CAELT@SABO SLVR 261700@CAELT@METAR SLVR 261700Z 18010KT 8000 -TSRA BKN023 FEW030CB BKN070 23/20@CAELT@Q1013 A2992 HR84 CB TS W/NW/N NOSIG=@CAELT@METAR SLET 261700Z NIL=@CAELT@METAR SLAS 261700Z 18015G25KT 9999 TS BKN020 FEW030CB OVC200 32/25@CAELT@Q1011 A2986 HR68 FU CB/TS/S/SW RWY NML=METAR SLCP 261700Z 00000KT 5000 TS FU SCT017 FEW030CB OVC070 28/24Q1012 A2988 HR78 CB/TS S/SW RWY NML=METAR SLSI 261700Z 34010KT 8000 BKN017 BKN070 29/23 Q1009 A2985HR68 FU RWY NML=METAR SLRB 261700Z 21015KT 9999 OVC020 32/23 Q1011 A2985 HR61FU RWY NML=METAR SLPS 261700Z 26013KT 7000 SCT020 OVC070 35/25 Q1008 A2977HR57 FU=METAR SLCA 261700Z 21005KT 9999 BKN040 OVC070 26/11 Q1018 A3006HR40 RWY NML=
ZPX0518 261702@CAELT@GG SLZZYMYT@CAELT@261700 SLETYMYC@CAELT@SABO SLET 261700@CAELT@METAR SLET 261700Z 14015G28KT 8000 VCSH BKN025 FEW030CB BKN070 25/19@CAELT@Q1012 A2989 HR69 CB/SH W/NW CI NOSIG=@CAELT@
ZPX0546 261751@CAELT@GG SLZZYMYT@CAELT@261752 SLPSYGYS@CAELT@SABO SLPS 261800@CAELT@METAR SLPS 261800Z 26014KT 7000 TS BKN020 FEW030CB OVC070 34/25 Q1007@CAELT@A2974 HR60 FU TS/W CB/N/SW/S/NE=@CAELT@
ZPX0547 261753@CAELT@GG SLZZYMYT@CAELT@261755 SLTJYGYZ@CAELT@SABO SLTJ 261800@CAELT@METAR SLTJ 261800Z 11008KT 9999 BKN025 OVC070 18/09 Q1021 A3015 815.8@CAELT@HR56=@CAELT@
ZPX0548 261754@CAELT@GG SLZZYMYT@CAELT@261753 SLRBYGYS@CAELT@SABO SLRB 261800@CAELT@METAR SLRB 261800Z 18015KT 9999 OVC020 27/24 Q1010 A2983 HR85 RWY NML=@CAELT@
ZPX0549 261754@CAELT@GG SLZZYMYT@CAELT@261754 SLCBYGYZ@CAELT@SABO SLCB 261800@CAELT@METAR SLCB 261800Z 24009KT 190V320 9999 FEW033 FEW036CB SCT200 29/07@CAELT@Q1017 A3006 745.8 HR25 CB NW/N AC NOSIG=@CAELT@
ZPX0550 261755@CAELT@GG SLZZYMYT@CAELT@261755 SLORYGYZ@CAELT@SABO SLOR 261800@CAELT@METAR SLOR 261800Z 36008KT 9999 SCT025 23/03 Q1030 A3044 653.1 HR26@CAELT@
ZPX0551 261755@CAELT@GG SLZZYMYT@CAELT@261755 SLCOYGYZ@CAELT@SABO SLCO 261800@CAELT@METAR SLCO 261800Z 33010KT 9999 BKN025 36/24 Q1007 A2976 980.3 HR50@CAELT@
ZPX0552 261755@CAELT@GG SLZZYMYT@CAELT@261755 SLSAYGYS@CAELT@SABO SLSA 261800@CAELT@METAR SLSA 261800Z 34017KT 5000 FU SCT020 FEW023CB 36/23 Q1006 A2971@CAELT@HR45 CB E=@CAELT@
ZPX0553 261756@CAELT@GG SLZZYMYT@CAELT@261755 SLSAYGYS@CAELT@SABO SLSA 261800@CAELT@METAR SLSA 261800Z 34017KT 5000 FU SCT020 FEW023CB 36/23 Q1006 A2971@CAELT@HR45 CB E=@CAELT@
ZPX0554 261756@CAELT@GG SLZZYMYT@CAELT@261755 SLRQYSYX@CAELT@SABO SLRQ 261800@CAELT@METAR SLRQ 261800Z 36008KT 7000 BKN017 36/26 Q1005 A2968 HR56 FU=@CAELT@
ZPX0555 261756@CAELT@GG SLZZYMYT@CAELT@261757 SLVRYGYZ@CAELT@SABO SLVR 261800@CAELT@METAR SLVR 261800Z 17012KT 9000 -TSRA BKN027 FEW030CB BKN070 23/19@CAELT@Q1010 A2982 HR80 CB TS NW/N/NE NOSIG=@CAELT@
ZPX0556 261756@CAELT@GG SLZZYMYT@CAELT@261756 SLTRYGYZ@CAELT@SABO SLTR 261800@CAELT@METAR SLTR 261800Z 30014KT 8000 SCT020 FEW023CB 36/24 Q1006 A2973@CAELT@988.2 HR50 FU CB N NOSIG=@CAELT@
ZPX0557 261756@CAELT@GG SLZZYMYT@CAELT@261755 SLAGYSYX@CAELT@SABO SLAG 261800@CAELT@METAR SLAG 261800Z 20008KT 9999 BKN023 BKN070 23/13 Q1019 A3010 891.1@CAELT@HR54=@CAELT@
ZPX0559 261757@CAELT@GG SLZZYMYT@CAELT@261757 SLLPYGYZ@CAELT@SABO SLLP 261800@CAELT@METAR SLLP 261800Z 24013G25KT 9999 SCT020 FEW025CB SCT200 16/M11@CAELT@Q1035 A3056 625.9 HR15 P94// CB/SH SW/W/NW WS RWY10 AC NOSIG=@CAELT@
ZPX0560 261757@CAELT@GG SLZZYMYT@CAELT@261756 SLSBYSYX@CAELT@SABO SLSB 261800@CAELT@METAR SLSB 261800Z 28006KT 8000 BKN020 34/25 Q1005 A2970 HR58 FU@CAELT@RWY NML=@CAELT@
ZPX0562 261757@CAELT@GG SLZZYMYT@CAELT@261757 SLCAYGYS@CAELT@SABO SLCA 261800@CAELT@METAR SLCA 261800Z 21010KT 9999 BKN040 BKN080 27/11 Q1017 A3003 HR37@CAELT@RWY NML=@CAELT@
ZPX0563 261757@CAELT@GG SLZZYMYT@CAELT@261757 SLLPYFYA@CAELT@SABO SLRY 261800@CAELT@METAR SLRY 261800Z 34014KT 9999 SCT020 35/23 Q1004 A2967@CAELT@HR51 FU RWY NML=@CAELT@
ZPX0564 261758@CAELT@GG SLZZYMYT@CAELT@261757 SLETYMYC@CAELT@SABO SLET 261800@CAELT@METAR SLET 261800Z 14013G24KT 8000 VCSH BKN025 FEW030CB BKN070 26/18@CAELT@Q1010 A2983 HR60 CB/SH W/NW CI NOSIG=@CAELT@
ZPX0566 261759@CAELT@GG SLZZYMYT@CAELT@261758 SLTRYGYS@CAELT@SABO SLTR 261800@CAELT@METAR SLTR 261800Z 30014KT 8000 SCT020 FEW023CB 36/24 Q1006 A2973@CAELT@988.2 HR50 FU CB N NOSIG=@CAELT@METAR SLGM 261800Z 36006KT 9999 SCT017 FEW020CB 34/24 Q1008 A2977@CAELT@HR55 CB N/SE=@CAELT@METAR SLRI 261800Z 36012KT 9999 SCT017 BKN200 36/21 Q1008 A2977 HR43=METAR SLJO 261800Z NIL=METAR SLRA 261800Z 32015KT 7000 VCSH SCT017 FEW023CB BKN200 35/23Q1006 A2972 HR52 FU CB/SH S/SW/W RWY NML=METAR SLMG 261800Z 32012KT 8000 BKN017 BKN200 36/23 Q1006 A2973 HR46FU RWY NML=METAR SLBU 261800Z 32008KT 8000 SCT017 FEW023CB BKN200 35/23 Q1006A2972 HR50 FU CB SW RWY NML=METAR SLSA 261800Z 34017KT 5000 FU SCT020 FEW023CB 36/23 Q1006 A2971HR45 CB E=METAR SLSR 261800Z 32015G25KT 7000 SCT017 BKN200 35/23 Q1005 A2968HR50 FU RWY NML=METAR SLSM 261800Z 33008KT 9999 BKN017 34/23 Q1006 A2972 HR54RWY NML=
ZPX0567 261759@CAELT@GG SLZZYMYT@CAELT@261758 SLCBYGYS@CAELT@SABO SLCB 261800@CAELT@METAR SLCB 261800Z 24009KT 190V320 9999 FEW033 FEW036CB SCT200 29/07@CAELT@Q1017 A3006 745.8 HR25 CB NW/N AC NOSIG=@CAELT@METAR SLAL 261800Z 02011KT 9999 BKN023 19/09 Q1025 A3028 701.1 HR55=@CAELT@METAR SLPO 261800Z NIL=@CAELT@METAR SLAG 261800Z 20008KT 9999 BKN023 BKN070 23/13 Q1019 A3010 891.1HR54=METAR SLVM 261800Z 18012KT 9999 SCT070 27/17 Q1014 A2996 HR56 CI=METAR SLTJ 261800Z 11008KT 9999 BKN025 OVC070 18/09 Q1021 A3015 815.8HR56=METAR SLYA 261800Z 21015KT 9999 FEW020 BKN070 29/18 Q1015 A2997 939.6HR52=METAR SLBJ 261800Z NIL=METAR SLHI 261800Z NIL=
ZPX0568 261759@CAELT@GG SLZZYMYT@CAELT@261758 SLVRYGYS@CAELT@SABO SLVR 261800@CAELT@METAR SLVR 261800Z 17012KT 9000 -TSRA BKN027 FEW030CB BKN070@CAELT@23/19 Q1010 A2982 HR80 CB TS NW/N/NE NOSIG=@CAELT@METAR SLET 261800Z 14013G24KT 8000 VCSH BKN025 FEW030CB BKN070@CAELT@26/18 Q1010 A2983 HR60 CB/SH W/NW CI NOSIG=@CAELT@METAR SLAS 261800Z 18015G25KT 9999 TS BKN020 FEW030 OVC200 24/22Q1011 A2986 HR87 FU CB/TS/SH/W/N/NE RWY NML=METAR SLJV 261800Z 19010KT 5000 -RA BKN015 FEW027CB OVC070 22/21Q1010 A2983 HR94 CB/N/NW/S FU RWY WET OPR=METAR SLCP 261800Z 19008KT 6000 TS BKN015 FEW030CB OVC070 26/22Q1012 A2988 HR81 CB/TS SE/S/SW FU RWY NML=METAR SLSI 261800Z 33012KT 8000 BKN017 BKN070 29/24 Q1007 A2974HR72 RWY NML=METAR SLTI 261800Z 34010KT 9999 SCT017 37/22 Q1009 A2980 HR41RWY NML=METAR SLJE 261800Z 18012KT 9000 BKN013 BKN070 28/23 Q1011 A2985HR76 FU RWY NML=METAR SLVG 261800Z 18012G22KT 9999 SCT023 BKN200 18/09 Q1024 A3024HR53 RWY NML=METAR SLRB 261800Z 18015KT 9999 OVC020 27/24 Q1010 A2983 HR85METAR SLPS 261800Z 26014KT 7000 TS BKN020 FEW030CB OVC070 34/25Q1007 A2974 HR60 FU TS/W CB/N/SW/S/NE=METAR SLCA 261800Z 21010KT 9999 BKN040 BKN080 27/11 Q1017 A3003HR37 RWY NML=
ZPX0571 261801@CAELT@GG SLZZYMYT@CAELT@261800 SLLPYFYA@CAELT@SABO SLLP 261800@CAELT@METAR SLLP 261800Z 24013G25KT 9999 SCT020 FEW025CB SCT200 16/M11@CAELT@Q1035 A3056 625.9 HR15 P94// CB/SH SW/W/NW WS RWY10 AC NOSIG=@CAELT@METAR SLCO 261800Z 33010KT 9999 BKN025 36/24 Q1007 A2976 980.3@CAELT@HR50 CI=@CAELT@METAR SLRY 261800Z 34014KT 9999 SCT020 35/23 Q1004 A2967HR51 FU RWY NML=METAR SLRQ 261800Z 36008KT 7000 BKN017 36/26 Q1005 A2968 HR56 FU=METAR SLAP 261800Z 00000KT 9999 FEW025 33/15 Q1012 A2991 854.1HR34=METAR SLSB 261800Z 28006KT 8000 BKN020 34/25 Q1005 A2970 HR58 FURWY NML=METAR SLOR 261800Z 36008KT 9999 SCT025 23/03 Q1030 A3044 653.1HR26 CI=METAR SLUY 261800Z NIL=
ZPX0576 261818@CAELT@GG SLZZYMYT@CAELT@261817 SLVRYGYS@CAELT@SABO SLSI 261800 CCA@CAELT@METAR COR SLSI 261800Z 33012KT 8000 BKN017 BKN070 29/24 Q1007@CAELT@A2974 FU HR72 RWY NML=@CAELT@
ZPX0680 261851@CAELT@GG SLZZYMYT@CAELT@261851 SLPSYGYS@CAELT@SABO SLPS 261900@CAELT@METAR SLPS 261900Z 18018KT 7000 VCSH BKN013 FEW030CB OVC070 27/23@CAELT@Q1009 A2980 HR79 CB/SH/NE/S/W/SW RETS=@CAELT@
ZPX0682 261853@CAELT@GG SLZZYMYT@CAELT@261853 SLCAYGYS@CAELT@SABO SLCA 261900@CAELT@METAR SLCA 261900Z 21005KT 9999 BKN040 OVC070 27/11 Q1016 A3000 HR46@CAELT@RWY NML=@CAELT@
ZPX0683 261853@CAELT@GG SLZZYMYT@CAELT@261853 SLRBYGYS@CAELT@SABO SLRB 261900@CAELT@METAR SLRB 261900Z 18015KT 9999 OVC020 27/23 Q1011 A2985 HR78 RWY NML=@CAELT@
ZPX0684 261854@CAELT@GG SLZZYMYT@CAELT@261855 SLCOYGYZ@CAELT@SABO SLCO 261900@CAELT@METAR SLCO 261900Z 28010KT 9999 BKN025 36/24 Q1006 A2972 979.0 HR50@CAELT@
ZPX0685 261855@CAELT@GG SLZZYMYT@CAELT@261854 SLCBYGYZ@CAELT@SABO SLCB 261900@CAELT@METAR SLCB 261900Z 33012KT 280V040 9999 FEW033 FEW036CB SCT200 30/07@CAELT@Q1016 A3002 744.9 HR23 CB SE/SW AC FU NOSIG=@CAELT@
ZPX0686 261855@CAELT@GG SLZZYMYT@CAELT@261855 SLSAYGYS@CAELT@SABO SLSA 261900@CAELT@METAR SLSA 261900Z 32015KT 8000 SCT020 FEW023CB 36/22 Q1005 A2968@CAELT@HR44 CB E=@CAELT@
ZPX0687 261855@CAELT@GG SLZZYMYT@CAELT@261855 SLSAYGYS@CAELT@SABO SLSA 261900@CAELT@METAR SLSA 261900Z 32015KT 8000 SCT020 FEW023CB 36/22 Q1005 A2968@CAELT@HR44 CB E=@CAELT@
ZPX0688 261855@CAELT@GG SLZZYMYT@CAELT@261855 SLTRYGYZ@CAELT@SABO SLTR 261900@CAELT@METAR SLTR 261900Z 31012KT 8000 FEW020 FEW023CB SCT200 36/24 Q1005@CAELT@A2968 985.0 HR50 FU CB NW NOSIG=@CAELT@
ZPX0689 261855@CAELT@GG SLZZYMYT@CAELT@261855 SLRQYSYX@CAELT@SABO SLRQ 261900@CAELT@METAR SLRQ 261900Z 36006KT 8000 BKN017 36/26 Q1004 A2965 980.1 HR56@CAELT@
ZPX0690 261856@CAELT@GG SLZZYMYT@CAELT@261855 SLAGYSYX@CAELT@SABO SLAG 261900@CAELT@METAR SLAG 261900Z 22005KT 9999 SCT025 BKN070 24/13 Q1018 A3006 890.1@CAELT@HR50=@CAELT@
ZPX0691 261856@CAELT@GG SLZZYMYT@CAELT@261855 SLSBYSYX@CAELT@SABO SLSB 261900@CAELT@METAR SLSB 261900Z 29007KT 8000 BKN020 35/26 Q1004 A2867 HR60 FU@CAELT@RWY NML=@CAELT@
ZPX0692 261856@CAELT@GG SLZZYMYT@CAELT@261857 SLLPYGYZ@CAELT@SABO SLLP 261900@CAELT@METAR SLLP 261900Z 03010G20KT 330V050 9999 VCTS SCT020 FEW023CB@CAELT@BKN200 14/M02 Q1034 A3055 625.6 HR34 P1784 CB/SH NE/SW/W/NW TS/W@CAELT@AC TEMPO -TSRA=@CAELT@
ZPX0693 261857@CAELT@GG SLZZYMYT@CAELT@261856 SLLPYFYA@CAELT@SABO SLRY 261900@CAELT@METAR SLRY 261900Z 34016KT 9999 SCT020 36/23 Q1003 A2964 HR47@CAELT@FU RWY NML=@CAELT@
ZPX0694 261857@CAELT@GG SLZZYMYT@CAELT@261857 SLTJYGYZ@CAELT@SABO SLTJ 261900@CAELT@METAR SLTJ 261900Z 10008KT 9999 BKN025 OVC070 16/09 Q1020 A3013 815.2@CAELT@HR64=@CAELT@
ZPX0695 261858@CAELT@GG SLZZYMYT@CAELT@261859 SLVRYGYZ@CAELT@SABO SLVR 261900@CAELT@METAR SLVR 261900Z 19004KT 9999 BKN027 FEW030CB BKN070 25/19 Q1009@CAELT@A2982 HR72 RETS CB DIST NW/N/NE NOSIG=@CAELT@
ZPX0696 261858@CAELT@GG SLZZYMYT@CAELT@261858 SLTRYGYS@CAELT@SABO SLTR 261900@CAELT@METAR SLTR 261900Z 31012KT 8000 FEW020 FEW023CB SCT200 36/24 Q1005@CAELT@A2968 985.0 HR50 FU CB NW NOSIG=@CAELT@METAR SLGM 261900Z 34012KT 9999 BKN017 FEW020CB BKN200 36/24 Q1006@CAELT@A2973 HR51 AC CB N/NE/SE=@CAELT@METAR SLRI 261900Z 36014KT 9999 BKN017 FEW020CB BKN200 35/21 Q1007A2975 HR45 CB SE=METAR SLJO 261900Z NIL=METAR SLRA 261900Z 36012KT 8000 VCSH SCT017 FEW023CB BKN200 35/23Q1005 A2969 HR49 FU CB/SH N/S=METAR SLMG 261900Z 32012KT 8000 VCSH SCT017 FEW023CB BKN200 35/23Q1005 A2971 HR49 FU CB/SH NE/E/SE RWY NML=METAR SLBU 261900Z 03008KT 3000 -SHRA SCT017 FEW023CB BKN200 34/24Q1005 A2969 HR98 CB E/S RWY WET OPR C210=METAR SLSA 261900Z 32015KT 8000 SCT020 FEW023CB 36/22 Q1005 A2968HR44 CB E=METAR SLSR 261900Z 32012KT 7000 SCT017 FEW023CB BKN200 36/23 Q1004A2065 HR49 CB NE/NW FU RWY NML=METAR SLSM 261900Z 31008KT 9999 SCT017 35/24 Q1004 A2967 HR51RWY NML=
ZPX0697 261859@CAELT@GG SLZZYMYT@CAELT@261859 SLVRYGYS@CAELT@SABO SLVR 261900@CAELT@METAR SLVR 261900Z 19004KT 9999 BKN027 FEW030CB BKN070 25/19@CAELT@Q1009 A2982 HR72 RETS CB DIST NW/N/NE NOSIG=@CAELT@METAR SLET 261900Z 17015KT 9999 SCT025 FEW030CB BKN070 BKN200 29/15@CAELT@Q1009 A2981 HR43 CB NW NOSIG=@CAELT@METAR SLAS 261900Z 18012KT 9999 TS SCT020 FEW030CB OVC200 25/21Q1010 A2983 HR81 FU CB/TS/SH/N/NE/E RWY NML=METAR SLJV 261900Z 19010KT 6000 BKN015 FEW027CB OVC070 23/21 Q1009A2980 HR91 CB/N FU RERA RWY WET OPR=METAR SLCP 261900Z 18006KT 8000 BKN015 OVC070 24/23 Q1012 A2988HR95 FU RETS RWY NML=METAR SLSI 261900Z 22018KT 9999 BKN015 OVC070 27/23 Q1008 A2977HR75 RWY NML=METAR SLTI 261900Z 34010KT 9999 SCT017 BKN200 36/22 Q1008 A2977 HR45RWY NML=METAR SLJE 261900Z 18015KT 9999 BKN013 BKN070 28/23 Q1011 A2985 HR72FU RWY NML=METAR SLVG 261900Z 17010G20KT 9999 SCT023 BKN200 18/08 Q1024 A3024HR49 RWY NML=METAR SLRB 261900Z 18015KT 9999 OVC020 27/23 Q1011 A2985 HR78METAR SLPS 261900Z 18018KT 7000 VCSH BKN013 FEW030CB OVC070 27/23Q1009 A2980 HR79 CB/SH/NE/S/W/SW RETS=METAR SLCA 261900Z 21005KT 9999 BKN040 OVC070 27/11 Q1016 A3000HR46 RWY NML=
ZPX0698 261859@CAELT@GG SLZZYMYT@CAELT@261859 SLLPYFYA@CAELT@SABO SLLP 261900@CAELT@METAR SLLP 261900Z 03010G20KT 330V050 9999 VCTS SCT020 FEW023CB@CAELT@BKN200 14/M02 Q1034 A3055 625.6 HR34 P1784 CB/SH NE/SW/W/NW TS/W@CAELT@AC TEMPO -TSRA=@CAELT@METAR SLCO 261900Z 28010KT 9999 BKN025 36/24 Q1006 A2972 979.0@CAELT@HR50 CI=METAR SLRY 261900Z 34016KT 9999 SCT020 36/23 Q1003 A2964 HR47FU RWY NML=METAR SLRQ 261900Z 36006KT 8000 BKN017 36/26 Q1004 A2965 980.1HR56 FU=METAR SLSB 261900Z 29007KT 8000 BKN020 35/26 Q1004 A2867 HR60
ZPX0699 261859@CAELT@GG SLZZYMYT@CAELT@261858 SLETYMYC@CAELT@SABO SLET 261900@CAELT@METAR SLET 261900Z 17015KT 9999 SCT025 FEW030CB BKN070 BKN200 29/15@CAELT@Q1009 A2981 HR43 CB NW NOSIG=@CAELT@
ZPX0701 261902@CAELT@GG SLZZYMYT@CAELT@261900 SLCBYGYS@CAELT@SABO SLCB 261900@CAELT@METAR SLCB 261900Z 33012KT 280V040 9999 FEW033 FEW036CB SCT200 30/07@CAELT@Q1016 A3002 744.9 HR23 CB SE/SW AC FU NOSIG=@CAELT@METAR SLAL 261900Z 03015G25KT 9999 SCT020 FEW033CB 18/09 Q1024 A3025@CAELT@700.4 HR57 CB/SE/S/SW=@CAELT@METAR SLPO 261900Z NIL=METAR SLAG 261900Z 22005KT 9999 SCT025 BKN070 24/13 Q1018 A3006 890.1HR50=METAR SLTJ 261900Z 10008KT 9999 BKN025 OVC070 16/09 Q1020 A3013 815.2HR64=METAR SLYA 261900Z NIL=METAR SLBJ 261900Z NIL=METAR SLHI 261900Z NIL=
ZPX0711 261923@CAELT@GG SLZZYMYT@CAELT@261922 SLSAYGYS@CAELT@SABO SLSA 261900 CCA@CAELT@METAR COR SLSA 261900Z 32015KT 8000 SCT020 FEW023CB 36/22 Q1005@CAELT@A2968 HR44 FU CB E=@CAELT@
ZPX0720 261953@CAELT@GG SLZZYMYT@CAELT@261953 SLPSYGYS@CAELT@SABO SLPS 262000@CAELT@METAR SLPS 262000Z 18010KT 8000 TSVCSH BKN015 FEW030CB OVC070 25/22@CAELT@Q1009 A2980 HR87 CB/TS/ON STN/N SH/NE/S=@CAELT@
ZPX0721 261953@CAELT@GG SLZZYMYT@CAELT@261954 SLETYMYC@CAELT@SABO SLET 262000@CAELT@METAR SLET 262000Z 15014KT 9999 SCT025 FEW030CB BKN070 BKN200 29/14@CAELT@Q1009 A2981 HR39 CB NW NOSIG=@CAELT@
ZPX0722 261954@CAELT@GG SLZZYMYT@CAELT@261955 SLTJYGYZ@CAELT@SABO SLTJ 262000@CAELT@METAR SLTJ 262000Z 16008KT 9999 BKN025 OVC070 16/09 Q1020 A3013 815.2@CAELT@HR65=@CAELT@
ZPX0723 261955@CAELT@GG SLZZYMYT@CAELT@261953 SLRBYGYS@CAELT@SABO SLRB 262000@CAELT@METAR SLRB 262000Z 18012KT 9999 OVC020 26/22 Q1012 A2988 HR78 RWY NML=@CAELT@
ZPX0724 261955@CAELT@GG SLZZYMYT@CAELT@261956 SLVRYGYZ@CAELT@SABO SLVR 262000@CAELT@METAR SLVR 262000Z 15005KT 9999 BKN027 FEW030CB BKN070 24/21 Q1009@CAELT@A2981 HR81 CB DIST NW/N/NE NOSIG=@CAELT@
ZPX0725 261955@CAELT@GG SLZZYMYT@CAELT@261955 SLCOYGYZ@CAELT@SABO SLCO 262000@CAELT@METAR SLCO 262000Z 29008KT 9999 SCT025 36/24 Q1005 A2969 978.2 HR50=@CAELT@
ZPX0726 261955@CAELT@GG SLZZYMYT@CAELT@261955 SLCOYGYZ@CAELT@SABO SLCO 262000@CAELT@METAR SLCO 262000Z 29008KT 9999 SCT025 36/24 Q1005 A2969 978.2 HR50=@CAELT@
ZPX0727 261955@CAELT@GG SLZZYMYT@CAELT@261953 SLRYYSYX@CAELT@SABO SLRY 262000@CAELT@METAR SLRY 262000Z 34014KT 9999 FEW020 36/23 Q1003 A2962 HR48 FU RWY@CAELT@NML=@CAELT@
ZPX0728 261955@CAELT@GG SLZZYMYT@CAELT@261955 SLSAYGYS@CAELT@SABO SLSA 262000@CAELT@METAR SLSA 262000Z 31015KT 7000 VCSH SCT020 FEW023CB 35/23 Q1004@CAELT@A2965 HR49 FU CB/SH NE/E=@CAELT@
ZPX0729 261955@CAELT@GG SLZZYMYT@CAELT@261955 SLSAYGYS@CAELT@SABO SLSA 262000@CAELT@METAR SLSA 262000Z 31015KT 7000 VCSH SCT020 FEW023CB 35/23 Q1004@CAELT@A2965 HR49 FU CB/SH NE/E=@CAELT@
ZPX0730 261955@CAELT@GG SLZZYMYT@CAELT@261955 SLTRYGYZ@CAELT@SABO SLTR 262000@CAELT@METAR SLTR 262000Z 29006KT 8000 FEW020 FEW023CB BKN200 36/24 Q1004@CAELT@A2967 986.2 HR49 FU CB NW NOSIG=@CAELT@
ZPX0732 261956@CAELT@GG SLZZYMYT@CAELT@261955 SLSBYSYX@CAELT@SABO SLSB 262000@CAELT@METAR SLSB 262000Z 03004KT 8000 TS VCSH SCT020 FEW023CB 36/25 Q1004@CAELT@A2965 HR53 TS/NE CB/SH NE E SE FU RWY NML=@CAELT@
ZPX0733 261956@CAELT@GG SLZZYMYT@CAELT@261957 SLLPYGYZ@CAELT@SABO SLLP 262000@CAELT@METAR SLLP 262000Z 02010G20KT 320V110 9999 SCT020 FEW023CB BKN200 13/@CAELT@M04 Q1035 A3057 626.0 HR31 P4754 CB/SH N/NE/SW/W AC NOSIG=@CAELT@
ZPX0734 261957@CAELT@GG SLZZYMYT@CAELT@261956 SLVRYGYS@CAELT@SABO SLVR 262000@CAELT@METAR SLVR 262000Z 15005KT 9999 BKN027 FEW030CB BKN070 24/21@CAELT@Q1009 A2981 HR81 CB DIST NW/N/NE NOSIG=@CAELT@METAR SLET 262000Z 15014KT 9999 SCT025 FEW030CB BKN070 BKN200@CAELT@29/14 Q1009 A2981 HR39 CB NW NOSIG=@CAELT@METAR SLAS 262000Z 18012KT 9999 SCT020 FEW030CB OVC200 24/22Q1009 A2980 HR85 FU CB/SH/NE/E RETS RWY NML=METAR SLJV 262000Z 19013KT 7000 SCT017 OVC070 23/20 Q1008 A2977HR81 FU RWY WET OPR=METAR SLCP 262000Z 18010KT 9999 BKN013 OVC070 24/22 Q1012 A2988HR87 FU RWY NML=METAR SLSI 262000Z 22015KT 9999 BKN015 OVC070 25/22 Q1008 A2977HR 78 RWY NML=METAR SLTI 262000Z 00000KT 9999 SCT020 OVC200 33/22 Q1008 A2977HR53 RWY NML=METAR SLJE 262000Z 18018KT 9999 BKN013 BKN070 28/22 Q1011 A2985HR68 FU RWY NML=METAR SLVG 262000Z 17010KT 9999 SCT023 BKN200 18/08 Q1024 A3024HR45 RWY NML=METAR SLRB 262000Z 18012KT 9999 OVC020 26/22 Q1012 A2988 HR78 RWY NMLMETAR SLPS 262000Z 18010KT 8000 TSVCSH BKN015 FEW030CB OVC070 25/22Q1009 A2980 HR87 CB/TS/ON STN/N SH/NE/S=METAR SLCA 262000Z 21005KT 9999 BKN040 OVC070 27/12 Q1016 A3000HR48 RWY NML=
ZPX0735 261957@CAELT@GG SLZZYMYT@CAELT@261957 SLCBYGYZ@CAELT@SABO SLCB 262000@CAELT@METAR SLCB 262000Z 01010G22KT 9999 FEW030 FEW033CB SCT200 29/06 Q1015@CAELT@A3000 744.3 HR24 CB N/SE/S/SW AC NOSIG=@CAELT@
ZPX0736 261957@CAELT@GG SLZZYMYT@CAELT@261957 SLRQYSYX@CAELT@SABO SLRQ 262000@CAELT@METAR SLRQ 262000Z 36004KT 8000 SCT020 FEW023TCU 35/25 Q1003 A2962@CAELT@979.1 HR54 FU TCU E/SW=@CAELT@
ZPX0739 262001@CAELT@GG SLZZYMYT@CAELT@261959 SLLPYFYA@CAELT@SABO SLLP 262000@CAELT@METAR SLLP 262000Z 02010G20KT 320V110 9999 SCT020 FEW023CB@CAELT@BKN200 13/M04 Q1035 A3057 626.0 HR31 P4754 CB/SH N/NE/SW/W@CAELT@AC NOSIG=@CAELT@METAR SLCO 262000Z 29008KT 9999 SCT025 36/24 Q1005 A2969@CAELT@978.2 HR50=METAR SLRY 262000Z 34014KT 9999 FEW020 36/23 Q1003 A2962 HR48FU RWY NML=METAR SLRQ 262000Z 36004KT 8000 SCT020 FEW023TCU 35/25 Q1003A2962 979.1 HR54 FU TCU E/SW=METAR SLSB 262000Z 03004KT 8000 TS VCSH SCT020 FEW023CB 36/25Q1004 A2965 HR53 TS/NE CB/SH NE E SE FU RWY NML=
ZPX0740 262001@CAELT@GG SLZZYMYT@CAELT@261958 SLTRYGYS@CAELT@SABO SLTR 262000@CAELT@METAR SLTR 262000Z 29006KT 8000 FEW020 FEW023CB BKN200 36/24 Q1004@CAELT@A2967 986.2 HR49 FU CB NW NOSIG=@CAELT@METAR SLGM 262000Z 29008KT 9999 BKN017 FEW020CB BKN200 37/24 Q1005@CAELT@A2969 HR49 CB N/NE/SE=@CAELT@METAR SLRI 262000Z 36010KT 8000 VCSH BKN017 FEW020CB BKN200 35/21Q1006 A2971 HR45 CB/SH S/SW/W=METAR SLJO 262000Z NIL=METAR SLRA 262000Z 36008KT 8000 VCSH FEW017 FEW023CB BKN200 36/24Q1005 A2968 HR58 FU CB/SH SE/W RWY NML=METAR SLMG 262000Z 02008KT 8000 TS VCSH SCT017 FEW023CB OVC200 34/23Q1005 A2969 HR52 CB/SH NE/E/SE/SW TS NE/SE RWY NML=METAR SLBU 261000Z 36004KT 8000 VCSH SCT017 FEW023CB BKN200 25/25Q1004 A2967 HR97 RESHRA CB/SH S/SW RWY WET OPR C210=METAR SLSA 262000Z 31015KT 7000 VCSH SCT020 FEW023CB 35/23 Q1004A2965 HR49 FU CB/SH NE/E=METAR SLSR 262000Z 32012KT 7000 VCSH SCT017 FEW023CB BKN200 36/24Q1002 A2961 HR50 FU CB/SH NE/NW RWY NML=METAR SLSM 262000Z 30006KT 9999 SCT017 36/24 Q1003 A2965 HR50RWY NML=
ZPX0741 262001@CAELT@GG SLZZYMYT@CAELT@262000 SLCBYGYS@CAELT@SABO SLCB 262000@CAELT@METAR SLCB 262000Z 01010G22KT 9999 FEW030 FEW033CB SCT200 29/06 Q1015@CAELT@A3000 744.3 HR24 CB N/SE/S/SW AC NOSIG=@CAELT@METAR SLAL 262000Z 03015G25KT 9999 SCT015 FEW030CB BKN200 16/09 Q1024@CAELT@A3025 700.4 HR65 CB/SE/S/SW AC=@CAELT@METAR SLPO 262000Z NIL=METAR SLAG 262000Z NIL=METAR SLVM 262000Z NIL=METAR SLTJ 262000Z 16008KT 9999 BKN025 OVC070 16/09 Q1020 A3013 815.2HR65=METAR SLYA 262000Z NIL=METAR SLBJ 262000Z NIL=METAR SLHI 262000Z NIL=
ZPX0764 262053@CAELT@GG SLZZYMYT@CAELT@262052 SLCAYGYS@CAELT@SABO SLCA 262100@CAELT@METAR SLCA 272100Z 21005KT 9999 BKN040 OVC070 27/12 Q1015 A2997 HR40@CAELT@RWY NML=@CAELT@
ZPX0765 262053@CAELT@GG SLZZYMYT@CAELT@262053 SLPSYGYS@CAELT@SABO SLPS 262100@CAELT@METAR SLPS 262100Z 18015KT 4000 -TSRA BKN015 FEW030CB OVC070 23/23@CAELT@Q1010 A2983 HR100 CB/TS/ON STN/N=@CAELT@
ZPX0766 262054@CAELT@GG SLZZYMYT@CAELT@262053 SLRBYGYS@CAELT@SABO SLRB 262100@CAELT@METAR SLRB 262100Z 18006KT 8000 -DZ OVC017 25/22 Q1013 A2991 HR85 RWY@CAELT@NML=@CAELT@
ZPX0767 262054@CAELT@GG SLZZYMYT@CAELT@262054 SLSBYSYX@CAELT@SABO SLSB 262100@CAELT@METAR SLSB 262100Z 05006KT 7000 TS VCSH BKN020 FEW023CB 34/26 Q1003@CAELT@A2964 HR63 TS/S CB/SH E SE S FU RWY NML=@CAELT@
ZPX0768 262055@CAELT@GG SLZZYMYT@CAELT@262053 SLRYYSYX@CAELT@SABO SLRY 262100@CAELT@METAR SLRY 262100Z 34008KT 9999 FEW020 35/24 Q1002 A2961 HR50 FU RWY@CAELT@NML=@CAELT@
ZPX0769 262055@CAELT@GG SLZZYMYT@CAELT@262055 SLTRYGYZ@CAELT@SABO SLTR 262100@CAELT@METAR SLTR 262100Z 15020G35KT 3000 TS VCSH FU SCT020 FEW023CB BKN200@CAELT@27/22 Q1007 A2974 988.6 HR74 CB/SH NE/E/SE/S TS SE TEMPO TSRA=@CAELT@
ZPX0770 262055@CAELT@GG SLZZYMYT@CAELT@262054 SLETYMYC@CAELT@SABO SLET 262100@CAELT@METAR SLET 262100Z 15008KT 9999 SCT025 FEW030CB BKN070 BKN200 28/16@CAELT@Q1009 A2981 HR49 CB NW NOSIG=@CAELT@
ZPX0771 262055@CAELT@GG SLZZYMYT@CAELT@262055 SLSAYGYS@CAELT@SABO SLSA 262100@CAELT@METAR SLSA 262100Z 31014KT 7000 VCSH SCT020 FEW023CB BKN200 36/22@CAELT@Q1004 A2965 HR44 FU CB/SH N/NE/E=@CAELT@
ZPX0772 262055@CAELT@GG SLZZYMYT@CAELT@262055 SLSAYGYS@CAELT@SABO SLSA 262100@CAELT@METAR SLSA 262100Z 31014KT 7000 VCSH SCT020 FEW023CB BKN200 36/22@CAELT@Q1004 A2965 HR44 FU CB/SH N/NE/E=@CAELT@
ZPX0773 262056@CAELT@GG SLZZYMYT@CAELT@262055 SLCOYGYZ@CAELT@SABO SLCO 262100@CAELT@METAR SLCO 262100Z 31010KT 9999 SCT025 36/24 Q1004 A2966 977.1 HR48=@CAELT@
ZPX0774 262056@CAELT@GG SLZZYMYT@CAELT@262055 SLRQYSYX@CAELT@SABO SLRQ 262100@CAELT@METAR SLRQ 262100Z 36004KT 8000 SCT020 SCT200 35/25 Q1002 A2961 978.8@CAELT@HR56 FU=@CAELT@
ZPX0775 262056@CAELT@GG SLZZYMYT@CAELT@262057 SLLPYGYZ@CAELT@SABO SLLP 262100@CAELT@METAR SLLP 262100Z 05007KT 360V130 9999 SCT020 FEW023CB BKN200@CAELT@14/M03 Q1033 A3053 625.2 HR32 P1784 CB/SH NE/SW/W AC NOSIG=@CAELT@
ZPX0776 262056@CAELT@GG SLZZYMYT@CAELT@262056 SLTRYGYS@CAELT@SABO SLTR 262100@CAELT@METAR SLTR 262100Z 15020G35KT 3000 TS VCSH FU SCT020 FEW023CB BKN200@CAELT@27/22 Q1007 A2974 988.6 HR74 CB/SH NE/E/SE/S TS SE TEMPO TSRA=@CAELT@METAR SLGM 262100Z 02006KT 9999 SCT017 FEW020CB BKN200 35/25 Q1004@CAELT@A2967 HR52 CB NE/E=@CAELT@METAR SLRI 262100Z 36008KT 8000 VCSH SCT017 FEW020CB BKN200 33/23Q1005 A2968 HR54 CB/SH SE/S/SW=METAR SLJO 262100Z NIL=METAR SLRA 262100Z 36006KT 8000 FEW020 FEW023CB OVC200 33/24 Q1004A2966 HR59 FU CB E RWY NML=METAR SLMG 262100Z 16006KT 1000 +TSRA BKN017 FEW023CB OVC200 23/23Q1006 A2973 HR95 CB/TS SE/S/SW RWY WET OPR C210=METAR SLBU 262100Z NIL=METAR SLSA 262100Z 31014KT 7000 VCSH SCT020 FEW023CB BKN200 36/22Q1004 A2965 HR44 FU CB/SH N/NE/E=METAR SLSR 262100Z 32010KT 5000 FU VCSH SCT017 FEW023CB BKN200 35/24Q1002 A2961 HR51 CB/SH NE/S/SW RWY NML=METAR SLSM 262100Z 00000KT 8000 VCSH SCT017 FEW020CB 36/24 Q1003A2963 HR51 CB/SH E/SE RWY NML=
ZPX0777 262057@CAELT@GG SLZZYMYT@CAELT@262057 SLVRYGYZ@CAELT@SABO SLVR 262100@CAELT@METAR SLVR 262100Z 17003KT 9999 SCT025 FEW030CB BKN070 BKN200 25/18@CAELT@Q1009 A2981 HR69 CB DIST NW/N/NE NOSIG=@CAELT@
ZPX0779 262058@CAELT@GG SLZZYMYT@CAELT@262058 SLVRYGYS@CAELT@SABO SLVR 262100@CAELT@METAR SLVR 262100Z 17003KT 9999 SCT025 FEW030CB BKN070 BKN200 25/18@CAELT@Q1009 A2981 HR69 CB DIST NW/N/NE NOSIG=@CAELT@METAR SLET 262100Z 15008KT 9999 SCT025 FEW030CB BKN070 BKN200@CAELT@28/16 Q1009 A2981 HR49 CB NW NOSIG=@CAELT@METAR SLAS 262100Z 18012KT 9999 FEW020 FEW030CB OVC200 26/20 Q1009A2980 HR69 FU CB/DIST/N/E RWY NML=METAR SLJV 262100Z 19013KT 9999 SCT020 OVC070 24/20 Q1008 A2977HR79 FU RWY HUM OPR=METAR SLCP 262100Z 18010KT 9999 SCT013 OVC070 25/21 Q1011 A2985HR80 FU RWY NML=METAR SLSI 262100Z 22015KT 9999 BKN015 OBC070 25/22 Q1008 A2977HR82 RWY NML=METAR SLTI 262100Z 00000KT 9999 BKN020 OVC200 33/22 Q1009 A2980HR54 RWY NML=METAR SLJE 262100Z 18015KT 9999 BKN013 BKN070 27/20 Q1011 A2985HR68 RWY NML=METAR SLVG 262100Z 18007KT 9999 SCT070 BKN200 18/08 Q1023 A3021HR45 RWY NML=METAR SLRB 262100Z 18006KT 8000 -DZ OVC017 25/22 Q1013 A2991HR85 RWY NML=METAR SLPS 262100Z 18015KT 4000 -TSRA BKN015 FEW030CB OVC070 23/23Q1010 A2983 HR100 CB/TS/ON STN/N=METAR SLCA 272100Z 21005KT 9999 BKN040 OVC070 27/12 Q1015 A2997HR40 RWY NML=
ZPX0780 262058@CAELT@GG SLZZYMYT@CAELT@262058 SLCBYGYZ@CAELT@SABO SLCB 262100@CAELT@METAR SLCB 262100Z 01010G20KT 320V070 9999 FEW030 FEW033CB SCT200 26/@CAELT@08 Q1015 A3000 744.3 HR32 CB NE/SE/S/SW AC FU NOSIG=@CAELT@
ZPX0785 262105@CAELT@GG SLZZYMYT@CAELT@262100 SLLPYFYA@CAELT@SABO SLLP 262100@CAELT@METAR SLLP 262100Z 05007KT 360V130 9999 SCT020 FEW023CB BKN200@CAELT@14/M03 Q1033 A3053 625.2 HR32 P1784 CB/SH NE/SW/W AC NOSIG=@CAELT@METAR SLCO 262100Z 31010KT 9999 SCT025 36/24 Q1004 A2966 977.1@CAELT@HR48=@CAELT@METAR SLRY 262100Z 34008KT 9999 FEW020 35/24 Q1002 A2961 HR50FU RWY NML=METAR SLRQ 262100Z 36004KT 8000 SCT020 SCT200 35/25 Q1002 A2961978.8 HR56 FU=METAR SLSB 262100Z 05006KT 7000 TS VCSH BKN020 FEW023CB 34/26Q1003 A2964 HR63 TS/S CB/SH E SE S FU RWY NML=
ZPX0793 262154@CAELT@GG SLZZYMYT@CAELT@262155 SLVRYGYZ@CAELT@SABO SLVR 262200@CAELT@METAR SLVR 262200Z 17006KT 9999 SCT025 FEW030CB BKN070 BKN200 25/18@CAELT@Q1009 A2980 HR68 CB DIST NW/N/NE NOSIG=@CAELT@
ZPX0794 262154@CAELT@GG SLZZYMYT@CAELT@262153 SLRBYGYS@CAELT@SABO SLRB 262200@CAELT@METAR SLRB 262200Z 18006KT 9999 OVC017 23/20 Q1013 A2991 HR85 REDZ@CAELT@RWY NML=@CAELT@
ZPX0795 262154@CAELT@GG SLZZYMYT@CAELT@262154 SLSAYGYS@CAELT@SABO SLSA 262200@CAELT@METAR SLSA 262200Z 31007KT 7000 TS VCSH SCT020 FEW023CB BKN200 34/23@CAELT@Q1004 A2965 HR50 FU CB/SH NE/E/SE TS E=@CAELT@
ZPX0796 262155@CAELT@GG SLZZYMYT@CAELT@262154 SLSAYGYS@CAELT@SABO SLSA 262200@CAELT@METAR SLSA 262200Z 31007KT 7000 TS VCSH SCT020 FEW023CB BKN200 34/23@CAELT@Q1004 A2965 HR50 FU CB/SH NE/E/SE TS E=@CAELT@
ZPX0798 262155@CAELT@GG SLZZYMYT@CAELT@262155 SLPSYGYS@CAELT@SABO SLPS 262200@CAELT@METAR SLPS 262200Z 18010KT 6000 -RA BKN015 FEW030CB OVC070 22/22@CAELT@Q1010 A2983 HR100 CB/N/E/NE RETS=@CAELT@
ZPX0800 262155@CAELT@GG SLZZYMYT@CAELT@262157 SLLPYGYZ@CAELT@SABO SLLP 262200@CAELT@METAR SLLP 262200Z 03006KT 350V070 9999 FEW020 FEW023CB SCT200@CAELT@15/M02 Q1033 A3053 625.1 HR30 P4753 CB/DIST N/NE AC NOSIG=@CAELT@
ZPX0801 262155@CAELT@GG SLZZYMYT@CAELT@262153 SLRYYSYX@CAELT@SABO SLRY 262200@CAELT@METAR SLRY 262200Z 34004KT 9999 FEW020 SCT200 34/24 Q1002 A2961 HR57@CAELT@FU RWY NML=@CAELT@
ZPX0802 262155@CAELT@GG SLZZYMYT@CAELT@262155 SLRQYSYX@CAELT@SABO SLRQ 262200@CAELT@METAR SLRQ 262200Z 36004KT 8000 SCT020 BKN200 33/25 Q1003 A2962 979.0@CAELT@HR62=@CAELT@
ZPX0803 262156@CAELT@GG SLZZYMYT@CAELT@262155 SLCBYGYZ@CAELT@SABO SLCB 262200@CAELT@METAR SLCB 262200Z 36011KT 300V060 9999 FEW030 FEW033CB SCT080 24/06@CAELT@Q1017 A3005 745.6 HR31 CB E/SE/S SH SE/S CI NOSIG=@CAELT@
ZPX0804 262156@CAELT@GG SLZZYMYT@CAELT@262156 SLCAYGYS@CAELT@SABO SLCA 262200@CAELT@METAR SLCA 262200Z 00000KT 9999 SCT040 BKN080 26/13 Q1015 A2997 HR46@CAELT@RWY NML=@CAELT@
ZPX0806 262157@CAELT@GG SLZZYMYT@CAELT@262156 SLTRYGYZ@CAELT@SABO SLTR 262200@CAELT@METAR SLTR 262200Z 15020G35KT 8000 VCSH SCT008 FEW023CB BKN200 24/23@CAELT@Q1007 A2976 989.2 HR93 FU RETS CB/SH N/NE/E/SE/NW TEMPO RA=@CAELT@
ZPX0807 262157@CAELT@GG SLZZYMYT@CAELT@262156 SLETYMYC@CAELT@SABO SLET 262200@CAELT@METAR SLET 262200Z 15010KT 9999 SCT025 FEW030CB BKN070 BKN200 27/15@CAELT@Q1009 A2980 HR47 CB NW NOSIG=@CAELT@
ZPX0808 262157@CAELT@GG SLZZYMYT@CAELT@262157 SLVRYGYS@CAELT@SABO SLVR 262200@CAELT@METAR SLVR 262200Z 17006KT 9999 SCT025 FEW030CB BKN070 BKN200 25/18@CAELT@Q1009 A2980 HR68 CB DIST NW/N/NE NOSIG=@CAELT@METAR SLET 262200Z 15010KT 9999 SCT025 FEW030CB BKN070 BKN200 27/15@CAELT@Q1009 A2980 HR47 CB NW NOSIG=@CAELT@METAR SLAS 262200Z 18015KT 9999 FEW020 OVC200 26/19 Q1011 A2986 HR65FU RWY NML=METAR SLJV 262200Z 19010KT 9999 SCT020 OVC070 23/20 Q1009 A2980 HR81FU RWY HUM OPR=METAR SLCP 262200Z 18010KT 9999 BKN013 OVC070 23/20 Q1012 A2988 HR83RWY NML=METAR SLSI 262200Z 22015KT 9999 BKN015 OVC070 24/22 Q1008 A2977 HR84METAR SLTI 262200Z 00000KT 9999 BKN023 OVC200 32/23 Q1009 A2980 HR60METAR SLJE 262200Z 18012KT 9999 OVC013 26/20 Q1012 A2988 HR70METAR SLRB 262200Z 18006KT 9999 OVC017 23/20 Q1013 A2991 HR85REDZ RWY NML=METAR SLPS 262200Z 18010KT 6000 -RA BKN015 FEW030CB OVC070 22/22Q1010 A2983 HR100 CB/N/E/NE RETS=METAR SLCA 262200Z 00000KT 9999 SCT040 BKN080 26/13 Q1015 A2997HR46 RWY NML=
ZPX0810 262159@CAELT@GG SLZZYMYT@CAELT@262157 SLSBYSYX@CAELT@SABO SLSB 262200@CAELT@METAR SLSB 262200Z 08008KT 5000 TS VCSH BKN020 FEW023CB BKN200 31/25@CAELT@Q1003 A2964 HR69 TS/E SE CB/SH NE E SE SW RWY NML=@CAELT@
ZPX0811 262159@CAELT@GG SLZZYMYT@CAELT@262158 SLTRYGYS@CAELT@SABO SLTR 262200@CAELT@METAR SLTR 262200Z 15020G35KT 8000 VCSH SCT008 FEW023CB BKN200 24/23@CAELT@Q1007 A2976 989.2 HR93 FU RETS CB/SH N/NE/E/SE/NW TEMPO RA=@CAELT@METAR SLGM 262200Z 00000KT 9999 SCT017 FEW020CB BKN200 33/25 Q1005@CAELT@A2968 HR61 CB NE/E=@CAELT@METAR SLRI 262200Z 36006KT 8000 VCSH SCT017 FEW020CB BKN200 33/24Q1005 A2969 HR57 CB/SH N/NE/S=METAR SLJO 262200Z NIL=METAR SLRA 262200Z 36006KT 8000 FEW020 FEW023CB OVC200 31/23 Q1004A2966 HR62 FU CB SE/S RWY NML=METAR SLMG 262200Z 00000KT 8000 -TSRA SCT017 FEW023CB OVC070 24/23Q1006 A2971 HR98 CB/TS SE/SW RWY OPR C210=METAR SLBU 262200Z NIL=METAR SLSA 262200Z 31007KT 7000 TS VCSH SCT020 FEW023CB BKN200 34/23Q1004 A2965 HR50 FU CB/SH NE/E/SE TS E=METAR SLSR 262200Z 32006KT 5000 FU VCSH SCT017 FEW023CB BKN200 34/24Q1006 A2962 HR54 CB/SH SE/S RWY NML=METAR SLSM 262200Z 15015G25KT 6000 TS VCSH BKN015 FEW020CB OVC07026/22 Q1006 A2971 HR77 CB/SH E/SE/S/SW TS S/SW RWY NML=
ZPX0814 262201@CAELT@GG SLZZYMYT@CAELT@262201 SLLPYFYA@CAELT@SABO SLLP 262200@CAELT@METAR SLLP 262200Z 03006KT 350V070 9999 FEW020 FEW023CB SCT200@CAELT@15/M02 Q1033 A3053 625.1 HR30 P4753 CB/DIST N/NE AC NOSIG=@CAELT@METAR SLRY 262200Z 34004KT 9999 FEW020 SCT200 34/24 Q1002 A2961@CAELT@HR57 FU RWY NML=@CAELT@METAR SLRQ 262200Z 36004KT 8000 SCT020 BKN200 33/25 Q1003 A2962979.0 HR62=METAR SLSB 262200Z 08008KT 5000 TS VCSH BKN020 FEW023CB BKN20031/25 Q1003 A2964 HR69 TS/E SE CB/SH NE E SE SW RWY NML=
ZPX0817 262203@CAELT@GG SLZZYMYT@CAELT@262203 SLCOYGYZ@CAELT@SABO SLCO 262200 RRA@CAELT@METAR RTD SLCO 262200Z 32010KT 9999 SCT025 35/23 Q1004 A2966 977.1@CAELT@HR49=@CAELT@
ZPX0818 262204@CAELT@GG SLZZYMYT@CAELT@262204 SLLPYFYA@CAELT@SABO SLLP 262200 RRA@CAELT@METAR SLLP 262200Z 03006KT 350V070 9999 FEW020 FEW023CB SCT200@CAELT@15/M02 Q1033 A3053 625.1 HR30 P4753 CB/DIST N/NE AC NOSIG=@CAELT@METAR RTD SLCO 262200Z 32010KT 9999 SCT025 35/23 Q1004 A2966@CAELT@977.1 HR49=@CAELT@METAR SLRY 262200Z 34004KT 9999 FEW020 SCT200 34/24 Q1002 A2961HR57 FU RWY NML=METAR SLRQ 262200Z 36004KT 8000 SCT020 BKN200 33/25 Q1003 A2962979.0 HR62=METAR SLSB 262200Z 08008KT 5000 TS VCSH BKN020 FEW023CB BKN20031/25 Q1003 A2964 HR69 TS/E SE CB/SH NE E SE SW RWY NML=
ZPX0821 262212@CAELT@GG SLZZYMYT@CAELT@262211 SLLPYFYA@CAELT@SABO SLLP 262200 CCA@CAELT@METAR SLLP 262200Z 03006KT 350V070 9999 FEW020 FEW023CB SCT200@CAELT@15/M02 Q1033 A3053 625.1 HR30 P4753 CB/DIST N/NE AC NOSIG=@CAELT@METAR SLCO 262200Z 32010KT 9999 SCT025 35/23 Q1004 A2966@CAELT@977.1 HR49=@CAELT@METAR SLRY 262200Z 34004KT 9999 FEW020 SCT200 34/24 Q1002 A2961HR57 FU RWY NML=METAR COR SLRQ 262200Z 36004KT 8000 SCT020 BKN200 33/25 Q1003A2962 979.0 HR62 FU=METAR SLSB 262200Z 08008KT 5000 TS VCSH BKN020 FEW023CB BKN20031/25 Q1003 A2964 HR69 TS/E SE CB/SH NE E SE SW RWY NML=
ZPX0831 262255@CAELT@GG SLZZYMYT@CAELT@262254 SLRBYGYS@CAELT@SABO SLRB 262300@CAELT@METAR SLRB 262300Z 18004KT 9999 OVC017 22/19 Q1013 A2991 HR85 RWY NML=@CAELT@
ZPX0832 262255@CAELT@GG SLZZYMYT@CAELT@262257 SLLPYGYZ@CAELT@SABO SLLP 262300@CAELT@METAR SLLP 262300Z 07006KT 9999 FEW017 FEW020CB SCT200 10/00@CAELT@Q1034 A3054 625.4 HR51 CB/LT N/NE AC NOSIG=@CAELT@
ZPX0833 262256@CAELT@GG SLZZYMYT@CAELT@262256 SLTRYGYZ@CAELT@SABO SLTR 262300@CAELT@METAR SLTR 262300Z 12016KT 6000 VCSH SCT008 FEW023CB BKN200 24/23@CAELT@Q1008 A2979 990.2 HR94 FU CB/SH N/NE/W/NW TEMPO RA=@CAELT@
ZPX0834 262257@CAELT@GG SLZZYMYT@CAELT@262255 SLSBYSYX@CAELT@SABO SLSB 262300@CAELT@METAR SLSB 262300Z 10012KT 3000 -TSRA BKN017 FEW023CB BKN200 27/25@CAELT@Q1005 A2969 HR88 TS/CB ON STN S/SW RWY WET OPR C210=@CAELT@
ZPX0835 262258@CAELT@GG SLZZYMYT@CAELT@262258 SLCOYGYZ@CAELT@SABO SLCO 262300@CAELT@METAR SLCO 262300Z 31004KT 9999 SCT025 33/22 Q1005 A2968 977.8 HR53@CAELT@
ZPX0836 262258@CAELT@GG SLZZYMYT@CAELT@262257 SLCBYGYZ@CAELT@SABO SLCB 262300@CAELT@METAR SLCB 262300Z 12012G24KT 070V180 9000 SCT030 SCT033CB BKN070 20/@CAELT@08 Q1020 A3013 747.8 HR46 CB/ON STN/E/SE/S/SW/W SH/W/NW CI BECMG@CAELT@13010KT=@CAELT@
ZPX0837 262259@CAELT@GG SLZZYMYT@CAELT@262259 SLVRYGYZ@CAELT@SABO SLVR 262300@CAELT@METAR SLVR 262300Z 14007KT 9999 SCT025 FEW030CB BKN070 BKN200 24/17@CAELT@Q1008 A2979 HR64 CB DIST NW/N/NE NOSIG=@CAELT@
ZPX0839 262259@CAELT@GG SLZZYMYT@CAELT@262259 SLVRYGYS@CAELT@SABO SLVR 262300@CAELT@METAR SLVR 262300Z 14007KT 9999 SCT025 FEW030CB BKN070 BKN200 24/17@CAELT@Q1008 A2979 HR64 CB DIST NW/N/NE NOSIG=@CAELT@METAR SLSI 262300Z 22010KT 9999 SCT015 OVC070 24/22 Q1010 A2983@CAELT@HR85 RWY NML=@CAELT@METAR SLRB 262300Z 18004KT 9999 OVC017 22/19 Q1013 A2991 HR85RWY NML=METAR SLCA 262300Z 00000KT 9999 BKN080 25/18 Q1015 A2997 HR64
ZPX0841 262302@CAELT@GG SLZZYMYT@CAELT@262257 SLTRYGYS@CAELT@SABO SLTR 262300@CAELT@METAR SLTR 262300Z 12016KT 6000 VCSH SCT008 FEW023CB BKN200 24/23@CAELT@Q1008 A2979 990.2 HR94 FU CB/SH N/NE/W/NW TEMPO RA=@CAELT@METAR SLGM 262300Z 34006KT 8000 VCSH SCT017 FEW020CB BKN200 32/24@CAELT@Q1006 A2972 HR65 CB/SH NE/E=@CAELT@METAR SLRI 262300Z 36004KT 8000 VCSH FEW017 FEW020CB BKN200 32/24Q1006 A2972 HR62 CB/SH NE/E/S=METAR SLMG 262300Z 00000KT 8000 TS VCSH SCT020 FEW023CB OVC070 24/24Q1006 A2972 HR98 RERA CB/TS/SH SE/S RWY OPR C210=METAR SLSA 262300Z 10010KT 6000 TS VCSH SCT020 FEW023CB BKN200 30/23Q1005 A2968 HR67 FU CB/SH E/SE/S/SW/W TS SW/W=
ZPX0843 262304@CAELT@GG SLZZYMYT@CAELT@262300 SLLPYFYA@CAELT@SABO SLLP 262300@CAELT@METAR SLLP 262300Z 07006KT 9999 FEW017 FEW020CB SCT200 10/00@CAELT@Q1034 A3054 625.4 HR51 CB/LT N/NE AC NOSIG=@CAELT@METAR SLCO 262300Z 31004KT 9999 SCT025 33/22 Q1005 A2968 977.8@CAELT@HR53 FU=@CAELT@METAR SLSB 262300Z 10012KT 3000 -TSRA BKN017 FEW023CB BKN20027/25 Q1005 A2969 HR88 TS/CB ON STN S/SW RWY WET OPR C210=
