
ZPX0002 120001@CAELT@GG SLZZYMYT@CAELT@120000 SLCBYGYS@CAELT@SABO SLCB 120000@CAELT@METAR SLCB 120000Z 09018G33KT 050V180 9999 FEW036 FEW040CB BKN070 20/@CAELT@02 Q1021 A3017 748.8 HR31 CB/NW/SE LT/SE CI RETS BECMG 14010G20KT WS@CAELT@FCST RWY32=@CAELT@METAR SLAL 120000Z 35011KT 9999 SCT015 FEW030CB SCT200 13/08 Q1026@CAELT@A3030 701.5 HR71 CB/N/SW/W/NW AC=METAR SLTJ 120000Z 13004KT 9999 FEW036 FEW040CB BKN200 23/13 Q1016A3002 812.1 HR55 CB SW=
ZPX0004 120003@CAELT@GG SLZZYMYT@CAELT@120002 SLLPYFYA@CAELT@SABO SLLP 120000@CAELT@METAR SLLP 120000Z 10010KT 9999 FEW015 FEW017CB SCT200 12/01 Q1032@CAELT@A3048 624.0 HR50 CB/LT W/NW AC NOSIG=@CAELT@METAR SLUY 120000Z 09013KT 9999 SCT017 FEW020CB 17/M01 Q1027@CAELT@A3035 653.9 HR29 CB/LT SE/S/SW=@CAELT@
ZPX0021 120055@CAELT@GG SLZZYMYT@CAELT@120055 SLTJYGYZ@CAELT@SABO SLTJ 120100@CAELT@METAR SLTJ 120100Z 00000KT 9999 SCT036 BKN200 22/14 Q1017 A3004 812.6@CAELT@HR59=@CAELT@
ZPX0022 120055@CAELT@GG SLZZYMYT@CAELT@120056 SLVRYGYZ@CAELT@SABO SLVR 120100@CAELT@METAR SLVR 120100Z 01004KT 9999 NSC 24/22 Q1008 A2978 HR88 NOSIG=@CAELT@
ZPX0023 120055@CAELT@GG SLLPZRZX@CAELT@120055 SLLPYGYZ@CAELT@SABO SLLP 120100@CAELT@METAR SLLP 120100Z 05004KT 330V080 9999 FEW013 FEW017CB SCT200 11/M03@CAELT@Q1033 A3052 624.9 HR37 CB/LT W/NW AC NOSIG=@CAELT@
ZPX0024 120058@CAELT@GG SLZZYMYT@CAELT@120058 SLCBYGYZ@CAELT@SABO SLCB 120100@CAELT@METAR SLCB 120100Z 15012KT 060V230 9999 FEW036 SCT200 20/01 Q1023@CAELT@A3021 749.9 HR28 AC NOSIG=@CAELT@
ZPX0027 120102@CAELT@GG SLZZYMYT@CAELT@120100 SLCBYGYS@CAELT@SABO SLCB 120100@CAELT@METAR SLCB 120100Z 15012KT 060V230 9999 FEW036 SCT200 20/01 Q1023@CAELT@A3021 749.9 HR28 AC NOSIG=@CAELT@METAR SLTJ 120100Z 00000KT 9999 SCT036 BKN200 22/14 Q1017 A3004 812.6@CAELT@HR59=@CAELT@
ZPX0037 120154@CAELT@GG SLZZYMYT@CAELT@120155 SLVRYGYZ@CAELT@SABO SLVR 120200@CAELT@METAR SLVR 120200Z 02005KT 9999 FEW017 23/22 Q1009 A2981 HR92 NOSIG=@CAELT@
ZPX0038 120156@CAELT@GG SLLPZRZX@CAELT@120155 SLLPYGYZ@CAELT@SABO SLLP 120200@CAELT@METAR SLLP 120200Z 08003KT 9999 FEW013 FEW017CB SCT070 BKN200 10/00@CAELT@Q1034 A3056 625.8 HR52 CB/LT DIST NW NOSIG=@CAELT@
ZPX0039 120200@CAELT@GG SLZZYMYT@CAELT@120157 SLCBYGYZ@CAELT@SABO SLCB 120200@CAELT@METAR SLCB 120200Z 13011KT 060V170 9999 FEW036 SCT200 19/04 Q1024@CAELT@A3025 750.9 HR38 AC NOSIG=@CAELT@
ZPX0049 120254@CAELT@GG SLZZYMYT@CAELT@120254 SLVRYGYZ@CAELT@SABO SLVR 120300@CAELT@METAR SLVR 120300Z 03005KT 9999 FEW005 SCT017 24/22 Q1010 A2982 HR92@CAELT@NOSIG=@CAELT@
ZPX0050 120256@CAELT@GG SLLPZRZX@CAELT@120255 SLLPYGYZ@CAELT@SABO SLLP 120300@CAELT@METAR SLLP 120300Z 31004KT 270V340 9999 FEW013 SCT070 BKN200 11/03@CAELT@Q1036 A3060 626.7 HR59 NOSIG=@CAELT@
ZPX0051 120256@CAELT@GG SLZZYMYT@CAELT@120255 SLCBYGYZ@CAELT@SABO SLCB 120300@CAELT@METAR SLCB 120300Z 23006KT 9999 FEW036 16/06 Q1024 A3025 750.9 HR48@CAELT@AC CI NOSIG=@CAELT@
ZPX0062 120353@CAELT@GG SLZZYMYT@CAELT@120353 SLVRYGYZ@CAELT@SABO SLVR 120400@CAELT@METAR SLVR 120400Z 03004KT 9999 SCT017 23/22 Q1009 A2982 HR95 NOSIG=@CAELT@
ZPX0063 120355@CAELT@GG SLLPZRZX@CAELT@120355 SLLPYGYZ@CAELT@SABO SLLP 120400@CAELT@METAR SLLP 120400Z 03003KT 9999 FEW013 BKN200 10/M02 Q1035 A3059 626.@CAELT@6 HR41 NOSIG=@CAELT@
ZPX0064 120356@CAELT@GG SLZZYMYT@CAELT@120355 SLCBYGYZ@CAELT@SABO SLCB 120400@CAELT@METAR SLCB 120400Z 31004KT 9999 FEW036 16/04 Q1023 A3023 750.4 HR43@CAELT@FU AC CI NOSIG=@CAELT@
ZPX0072 120454@CAELT@GG SLZZYMYT@CAELT@120454 SLVRYGYZ@CAELT@SABO SLVR 120500@CAELT@METAR SLVR 120500Z 02003KT 9999 FEW017 SCT070 23/22 Q1009 A2981 HR97@CAELT@NOSIG=@CAELT@
ZPX0073 120455@CAELT@GG SLLPZRZX@CAELT@120455 SLLPYGYZ@CAELT@SABO SLLP 120500@CAELT@METAR SLLP 120500Z 06006KT 9999 FEW013 SCT200 09/01 Q1035 A3058 626.3@CAELT@HR58 AC NOSIG=@CAELT@
ZPX0077 120504@CAELT@GG SLZZYMYT@CAELT@120458 SLCBYGYZ@CAELT@SABO SLCB 120500@CAELT@METAR SLCB 120500Z 00000KT 9999 FEW036 16/05 Q1022 A3019 749.4 HR49@CAELT@FU CI NOSIG=@CAELT@
ZPX0085 120554@CAELT@GG SLZZYMYT@CAELT@120554 SLVRYGYZ@CAELT@SABO SLVR 120600@CAELT@METAR SLVR 120600Z 36005KT 9999 FEW017 BKN070 23/22 Q1009 A2980 HR93@CAELT@NOSIG=@CAELT@
ZPX0086 120555@CAELT@GG SLLPZRZX@CAELT@120555 SLLPYGYZ@CAELT@SABO SLLP 120600@CAELT@METAR SLLP 120600Z 09007KT 4000E VCFG FEW003 SCT200 06/05 Q1035 A3057@CAELT@626.0 HR89 VCFG NE/E/SE NOSIG=@CAELT@
ZPX0087 120600@CAELT@GG SLZZYMYT@CAELT@120557 SLCBYGYZ@CAELT@SABO SLCB 120600@CAELT@METAR SLCB 120600Z 09003KT 9999 FEW036 16/04 Q1022 A3019 749.2 HR45@CAELT@FU AC CI NOSIG=@CAELT@
ZPX0093 120653@CAELT@GG SLZZYMYT@CAELT@120654 SLVRYGYZ@CAELT@SABO SLVR 120700@CAELT@METAR SLVR 120700Z 35006KT 9999 FEW017 BKN070 BKN200 23/22 Q1008@CAELT@A2979 HR91 NOSIG=@CAELT@
ZPX0094 120655@CAELT@GG SLLPZRZX@CAELT@120655 SLLPYGYZ@CAELT@SABO SLLP 120700@CAELT@METAR SLLP 120700Z 09007KT 3000E VCFG FEW002 SCT200 06/05 Q1034@CAELT@A3055 625.7 HR96 VCFG NE/E/SE NOSIG=@CAELT@
ZPX0096 120700@CAELT@GG SLZZYMYT@CAELT@120659 SLCBYGYZ@CAELT@SABO SLCB 120700@CAELT@METAR SLCB 120700Z 25003KT 9999 FEW036 13/07 Q1022 A3018 749.1 HR65@CAELT@FU CI NOSIG=@CAELT@
ZPX0103 120755@CAELT@GG SLLPZRZX@CAELT@120755 SLLPYGYZ@CAELT@SABO SLLP 120800@CAELT@METAR SLLP 120800Z 11009KT 4000E VCFG FEW002 SCT200 05/05 Q1034@CAELT@A3054 625.4 HR94 VCFG NE/E/SE NOSIG=@CAELT@
ZPX0104 120755@CAELT@GG SLZZYMYT@CAELT@120755 SLCBYGYZ@CAELT@SABO SLCB 120800@CAELT@METAR SLCB 120800Z 00000KT 9999 FEW036 13/06 Q1022 A3018 749.1 HR61@CAELT@FU CI NOSIG=@CAELT@
ZPX0105 120758@CAELT@GG SLZZYMYT@CAELT@120758 SLVRYGYZ@CAELT@SABO SLVR 120800@CAELT@METAR SLVR 120800Z 36005KT 5000 -DZ BKN006 BKN200 23/22 Q1009 A2980@CAELT@HR93 AC NOSIG=@CAELT@
ZPX0119 120855@CAELT@GG SLLPZRZX@CAELT@120855 SLLPYGYZ@CAELT@SABO SLLP 120900@CAELT@METAR SLLP 120900Z 05006KT 4000E VCFG FEW002 SCT200 05/04 Q1034@CAELT@A3055 625.7 HR96 VCFG NE/E/SE NOSIG=@CAELT@
ZPX0120 120856@CAELT@GG SLZZYMYT@CAELT@120856 SLTRYGYZ@CAELT@SABO SLTR 120900@CAELT@METAR SLTR 120900Z 33004KT 9999 NSC 24/23 Q1008 A2978 989.9 HR98@CAELT@AC NOSIG=@CAELT@
ZPX0121 120858@CAELT@GG SLZZYMYT@CAELT@120858 SLVRYGYZ@CAELT@SABO SLVR 120900@CAELT@METAR SLVR 120900Z 35007KT 8000 -RA BKN006 BKN010 23/22 Q1009 A2981@CAELT@HR95 NOSIG=@CAELT@
ZPX0122 120858@CAELT@GG SLZZYMYT@CAELT@120857 SLCBYGYZ@CAELT@SABO SLCB 120900@CAELT@METAR SLCB 120900Z 00000KT 9999 FEW036 FEW040CB SCT200 13/06 Q1022@CAELT@A3020 749.6 HR65 CB/LT DIST NE FU AC NOSIG=@CAELT@
ZPX0123 120859@CAELT@GG SLZZYMYT@CAELT@120859 SLTRYGYS@CAELT@SABO SLTR 120900@CAELT@METAR SLTR 120900Z 33004KT 9999 NSC 24/23 Q1008 A2978 989.9 HR98@CAELT@AC NOSIG=@CAELT@METAR SLRI 120900Z 00000KT 9999 SCT004 SCT020 BKN080 23/23 Q1010@CAELT@A2984 HR98=@CAELT@
ZPX0127 120907@CAELT@GG SLZZYMYT@CAELT@120906 SLETYMYC@CAELT@SABO SLET 110900@CAELT@METAR SLET 110900Z 33012KT 5000 -DZ BKN006 BKN017 OVC070 23/22 Q1009@CAELT@A2980 HR95=@CAELT@
ZPX0141 120952@CAELT@GG SLZZYMYT@CAELT@120952 SLETYMYC@CAELT@SABO SLET 121000@CAELT@METAR SLET 121000Z 33012KT 5000 -RADZ BKN006 BKN017 OVC070 23/22@CAELT@Q1010 A2982 HR95 NOSIG=@CAELT@
ZPX0142 120954@CAELT@GG SLZZYMYT@CAELT@120954 SLSBYSYX@CAELT@SABO SLSB 121000@CAELT@METAR SLSB 121000Z 00000KT 9999 BKN012 BKN200 23/23 Q1009 A2981 HR97@CAELT@RWY NML=@CAELT@
ZPX0143 120954@CAELT@GG SLZZYMYT@CAELT@120954 SLCAYGYS@CAELT@SABO SLCA 121000@CAELT@METAR SLCA 121000Z 00000KT 9999 NSC 18/17 Q1013 A2991 HR92 RWY NML=@CAELT@
ZPX0145 120955@CAELT@GG SLZZYMYT@CAELT@120954 SLSAYGYS@CAELT@SABO SLSA 121000@CAELT@METAR SLSA 121000Z 34004KT 9999 BKN080 24/24 Q1009 A2980 HR95=@CAELT@
ZPX0146 120956@CAELT@GG SLZZYMYT@CAELT@120955 SLLPYGYZ@CAELT@SABO SLLP 121000@CAELT@METAR SLLP 121000Z 08007KT 3000E VCFG FEW002 SCT200 05/04 Q1035@CAELT@A3057 626.1 HR98 P92// VCFG NE/E/SE NOSIG=@CAELT@
ZPX0147 120956@CAELT@GG SLZZYMYT@CAELT@120956 SLTRYGYZ@CAELT@SABO SLTR 121000@CAELT@METAR SLTR 121000Z 33005KT 9999 FEW020 SCT200 24/23 Q1009 A2980@CAELT@990.7 HR96 AC NOSIG=@CAELT@
ZPX0148 120957@CAELT@GG SLZZYMYT@CAELT@120956 SLCBYGYZ@CAELT@SABO SLCB 121000@CAELT@METAR SLCB 121000Z 21003KT 9999 FEW033 FEW036CB SCT200 12/07 Q1023@CAELT@A3023 750.3 HR71 CB DIST NE FU AC LEN/N NOSIG=@CAELT@
ZPX0149 120957@CAELT@GG SLZZYMYT@CAELT@120956 SLRQYSYX@CAELT@SABO SLRQ 121000@CAELT@METAR SLRQ 121000Z 00000KT 9999 BKN020 24/23 Q1008 A2978 984.4 HR97=@CAELT@
ZPX0150 120957@CAELT@GG SLZZYMYT@CAELT@120958 SLVRYGYZ@CAELT@SABO SLVR 121000@CAELT@METAR SLVR 121000Z 34008KT 9999 BKN006 BKN013 23/22 Q1010 A2983 HR95@CAELT@NOSIG=@CAELT@
ZPX0151 120958@CAELT@GG SLZZYMYT@CAELT@120957 SLRBYGYS@CAELT@SABO SLRB 121000@CAELT@METAR SLRB 121000Z 36005KT 9999 NSC 24/23 Q1013 A2991 HR90 RWY NML=@CAELT@
ZPX0153 121000@CAELT@GG SLZZYMYT@CAELT@120959 SLVRYFYC@CAELT@SABO SLVR 121000@CAELT@METAR SLVR 121000Z 34008KT 9999 BKN006 BKN013 23/22 Q1010 A2983 HR95@CAELT@NOSIG=@CAELT@METAR SLET 121000Z 33012KT 5000 -RADZ BKN006 BKN017 OVC070 23/22@CAELT@Q1010 A2982 HR95 NOSIG=@CAELT@METAR SLCP 121000Z 00000KT 9999 OVC008 22/22 Q1014 A2994 HR99 RWY HUMOPR=METAR SLSI 121000Z 00000KT 9999 OVC010 22/21 Q1011 A2985 HR92 RWY NMLMETAR SLRB 121000Z 36005KT 9999 NSC 24/23 Q1013 A2991 HR90 RWY NML=METAR SLCA 121000Z 00000KT 9999 NSC 18/17 Q1013 A2991 HR92 RWY NML=
ZPX0154 121002@CAELT@GG SLZZYMYT@CAELT@121002 SLLPYFYA@CAELT@SABO SLLP 121000@CAELT@METAR SLLP 121000Z 08007KT 3000E VCFG FEW002 SCT200 05/04 Q1035@CAELT@A3057 626.1 HR98 P92// VCFG NE/E/SE NOSIG=@CAELT@METAR SLRY 121000Z 00000KT 9999 BKN012 SCT070 23/23 Q1007 A2976@CAELT@HR97 RWY NML=@CAELT@METAR SLRQ 121000Z 00000KT 9999 BKN020 24/23 Q1008 A2978 984.4 HR97=METAR SLAP 121000Z 00000KT 9999 SCT015 BKN070 19/17 Q1015 A2998 856.2HR93=METAR SLSB 121000Z 00000KT 9999 BKN012 BKN200 23/23 Q1009 A2981 HR97RWY NML=
ZPX0156 121003@CAELT@GG SLZZYMYT@CAELT@121000 SLTRYGYS@CAELT@SABO SLTR 121000@CAELT@METAR SLTR 121000Z 33005KT 9999 FEW020 SCT200 24/23 Q1009 A2980@CAELT@990.7 HR96 AC NOSIG=@CAELT@METAR SLGM 121000Z NIL=@CAELT@METAR SLRI 121000Z 00000KT 9999 FEW004 SCT020 BKN080 23/23 Q1010@CAELT@A2985 HR98=METAR SLJO 121000Z 00903KT 9999 FEW020 BKN080 24/23 Q1008 A2979HR96 CI RWY NML=METAR SLRA 121000Z 06005KT 9999 FEW008 SCT020 24/23 Q1009 A2981HR96 AC/CI RWY NML=METAR SLMG 121000Z 36006KT 9999 BKN007 OVC070 24/24 Q1008 A2979HR95 RWY OPR C210=METAR SLBU 121000Z NIL=METAR SLSA 121000Z 34004KT 9999 BKN080 24/24 Q1009 A2980 HR95=METAR SLSR 121000Z 32006KT 9999 SCT015 BKN080 24/22 Q1008 A2976HR92 RWY NML=METAR SLSM 121000Z 00000KT 9999 NSC 23/23 Q1009 A2981 HR97RWY NML=
ZPX0157 121005@CAELT@GG SLZZYMYT@CAELT@121003 SLCBYGYS@CAELT@SABO SLCB 121000 RRA@CAELT@METAR SLCB 121000Z 21003KT 9999 FEW033 FEW036CB SCT200 12/07 Q1023@CAELT@A3023 750.3 HR71 CB DIST NE FU AC LEN/N NOSIG=@CAELT@METAR RTD SLYA 121000Z 00000KT 9999 NSC 19/19 Q1008 A2976 933.8 HR97=@CAELT@
ZPX0172 121052@CAELT@GG SLZZYMYT@CAELT@121052 SLCAYGYS@CAELT@SABO SLCA 121100@CAELT@METAR SLCA 121100Z 00000KT 9999 NSC 20/18 Q1014 A2994 HR88 RWY NML=@CAELT@
ZPX0173 121053@CAELT@GG SLZZYMYT@CAELT@121052 SLETYMYC@CAELT@SABO SLET 121100@CAELT@METAR SLET 121100 33018KT 9999 BKN008 BKN015 24/22 Q1010 A2985 HR91@CAELT@NOSIG=@CAELT@
ZPX0174 121055@CAELT@GG SLZZYMYT@CAELT@121055 SLORYGYZ@CAELT@SABO SLOR 121100@CAELT@METAR SLOR 121100Z 07003KT 9999 NSC 09/M01 Q1033 A3052 654.8 HR49 FU=@CAELT@
ZPX0175 121055@CAELT@GG SLZZYMYT@CAELT@121055 SLRQYSYX@CAELT@SABO SLRQ 121100@CAELT@METAR SLRQ 121100Z 00000KT 9999 BKN020 24/24 Q1010 A2983 985.9 HR97@CAELT@
ZPX0177 121055@CAELT@GG SLZZYMYT@CAELT@121055 SLSAYGYS@CAELT@SABO SLSA 121100@CAELT@METAR SLSA 121100Z 36005KT 9999 FEW020 SCT080 25/24 Q1009 A2982 HR93=@CAELT@
ZPX0178 121055@CAELT@GG SLZZYMYT@CAELT@121055 SLSBYSYX@CAELT@SABO SLSB 121100@CAELT@METAR SLSB 121100Z 00000KT 9999 SCT012 25/23 Q1011 A2986 HR91 RWY NML=@CAELT@
ZPX0179 121055@CAELT@GG SLZZYMYT@CAELT@121055 SLRBYGYS@CAELT@SABO SLRB 121100@CAELT@METAR SLRB 121100Z 36006KT 9999 NSC 26/23 Q1014 A2994 HR84 RWY NML=@CAELT@
ZPX0180 121056@CAELT@GG SLZZYMYT@CAELT@121055 SLLPYGYZ@CAELT@SABO SLLP 121100@CAELT@METAR SLLP 121100Z 10007KT 3000E VCFG FEW002 SCT200 08/06 Q1036@CAELT@A3060 626.8 HR91 P92// VCFG NE/E/SE NOSIG=@CAELT@
ZPX0181 121056@CAELT@GG SLZZYMYT@CAELT@121055 SLCBYGYZ@CAELT@SABO SLCB 121100@CAELT@METAR SLCB 121100Z 00000KT 9999 FEW033 SCT200 16/07 Q1025 A3027 751.4@CAELT@HR55 AC FU NOSIG=@CAELT@
ZPX0182 121056@CAELT@GG SLZZYMYT@CAELT@121055 SLSAYGYS@CAELT@SABO SLSA 121100@CAELT@METAR SLSA 121100Z 36005KT 9999 FEW020 SCT080 25/24 Q1009 A2982 HR93=@CAELT@
ZPX0183 121056@CAELT@GG SLZZYMYT@CAELT@121056 SLTRYGYZ@CAELT@SABO SLTR 121100@CAELT@METAR SLTR 121100Z 32005KT 9999 FEW020 SCT200 25/24 Q1010 A2984@CAELT@992.0 HR92 NOSIG=@CAELT@
ZPX0185 121058@CAELT@GG SLZZYMYT@CAELT@121057 SLTRYGYS@CAELT@SABO SLTR 121100@CAELT@METAR SLTR 121100Z 32005KT 9999 FEW020 SCT200 25/24 Q1010 A2984@CAELT@992.0 HR92 NOSIG=@CAELT@METAR SLGM 121100Z NIL=@CAELT@METAR SLRI 121100Z 00000KT 9999 FEW004 BKN020 BKN080 24/23 Q1011@CAELT@A2988 HR98=METAR SLJO 121100Z 09003KT 9999 FEW015 SCT080 24/24 Q1009 A2982HR96 RWY NML=METAR SLRA 121100Z 06004KT 9999 SCT008 SCT020 24/23 Q1010 A2983HR94 AC/CI RWY NML=METAR SLMG 121100Z 03006KT 9999 SCT007 BKN080 24/23 Q1009 A2982HR94 RWY OPR C210=METAR SLBU 121100Z NIL=METAR SLSA 121100Z 36005KT 9999 FEW020 SCT080 25/24 Q1009 A2982 HR93=METAR SLSR 121100Z 32006KT 9999 FEW015 SCT080 24/23 Q1009 A2980HR90 RWY NML=METAR SLSM 121100Z 00000KT 9999 NSC 24/24 Q1010 A2984 HR97 CIRWY NML=
ZPX0186 121059@CAELT@GG SLZZYMYT@CAELT@121059 SLVRYFYC@CAELT@SABO SLVR 121100@CAELT@METAR SLVR 121100Z 35013KT 9999 BKN007 BKN015 24/22 Q1011 A2985 HR91@CAELT@NOSIG=@CAELT@METAR SLET 121100Z 33018KT 9999 BKN008 BKN015 24/22 Q1010 A29.85 HR91@CAELT@METAR SLAS 121100Z 00000KT 6000 -RA OVC012 23/22 Q1013 A2992 HR93 RWY@CAELT@HUM OPR=METAR SLJV 121100Z 00000KT 9999 OVC010 22/22 Q1011 A2985 HR98 RWY NMLMETAR SLCP 121100Z 00000KT 9999 OVC008 22/22 Q1015 A2997 HR97 RWY HUMOPR=METAR SLSI 121100Z 00000KT 9999 OVC010 23/22 Q1013 A2991 HR90 RWY NMLMETAR SLTI 121100Z 00000KT 9999 SCT017 SCT070 24/23 Q1016 A3000 HR92RESH RWY HUM OPR=METAR SLJE 121100Z 00000KT 9999 FEW015 25/23 Q1014 A2994 HR86 RWY NMLMETAR SLVG 121100Z 00000KT 9999 BKN015 15/14 Q1023 A3021 HR90 RWY NMLMETAR SLRB 121100Z 36006KT 9999 NSC 26/23 Q1014 A2994 HR84 RWY NML=METAR SLCA 121100Z 00000KT 9999 NSC 20/18 Q1014 A2994 HR88 RWY NML=
ZPX0188 121100@CAELT@GG SLZZYMYT@CAELT@121100 SLCBYGYS@CAELT@SABO SLCB 121100@CAELT@METAR SLCB 121100Z 00000KT 9999 FEW033 SCT200 16/07 Q1025 A3027 751.4@CAELT@HR55 AC FU NOSIG=@CAELT@METAR SLYA 121100Z 00000KT 9999 NSC 24/19 Q1009 A2980 934.0 HR76=@CAELT@
ZPX0189 121100@CAELT@GG SLZZYMYT@CAELT@121100 SLLPYFYA@CAELT@SABO SLLP 121100@CAELT@METAR SLLP 121100Z 10007KT 3000E VCFG FEW002 SCT200 08/06 Q1036@CAELT@A3060 626.8 HR91 P92// VCFG NE/E/SE NOSIG=@CAELT@METAR SLRY 121100Z 00000KT 9999 BKN012 OVC070 24/23 Q1008@CAELT@A2978 HR94 RWY NML=@CAELT@METAR SLRQ 121100Z 00000KT 9999 BKN020 24/24 Q1010 A2983 985.9 HR97METAR SLAP 121100Z 00000KT 9999 SCT015 BKN070 19/17 Q1016 A3001 857.2HR88=METAR SLSB 121100Z 00000KT 9999 SCT012 25/23 Q1011 A2986 HR91 RWY NMLMETAR SLOR 121100Z 07003KT 9999 NSC 09/M01 Q1033 A3052 654.8 HR49 FU=
ZPX0215 121152@CAELT@GG SLZZYMYT@CAELT@121152 SLVRYGYZ@CAELT@SABO SLVR 121200@CAELT@METAR SLVR 121200Z 36015KT 9999 BKN008 BKN015 25/23 Q1011 A2988 HR87@CAELT@NOSIG=@CAELT@
ZPX0216 121154@CAELT@GG SLZZYMYT@CAELT@121154 SLSBYSYX@CAELT@SABO SLSB 121200@CAELT@METAR SLSB 121200Z 31010KT 9999 FEW015 SCT025 27/24 Q1011 A2987 HR88@CAELT@RWY NML=@CAELT@
ZPX0217 121154@CAELT@GG SLZZYMYT@CAELT@121154 SLCAYGYS@CAELT@SABO SLCA 121200@CAELT@METAR SLCA 121200Z 00000KT 9999 NSC 22/19 Q1014 A2994 HR82 RWY NML=@CAELT@
ZPX0218 121155@CAELT@GG SLZZYMYT@CAELT@121155 SLORYGYZ@CAELT@SABO SLOR 121200@CAELT@METAR SLOR 121200Z 06012KT 9999 NSC 13/M00 Q1033 A3052 655.0 HR39=@CAELT@
ZPX0219 121156@CAELT@GG SLZZYMYT@CAELT@121156 SLLPYGYZ@CAELT@SABO SLLP 121200@CAELT@METAR SLLP 121200Z 06005KT 6000 FEW005 09/05 Q1037 A3063 627.4@CAELT@HR76 P92// VIS/RED/ST BAJOS NE/E/SE HZ SW/W CI NOSIG=@CAELT@
ZPX0220 121156@CAELT@GG SLZZYMYT@CAELT@121155 SLSAYGYS@CAELT@SABO SLSA 121200@CAELT@METAR SLSA 121200Z 34006KT 9999 BKN015 26/25 Q1010 A2985 HR89=@CAELT@
ZPX0221 121156@CAELT@GG SLZZYMYT@CAELT@121156 SLRBYGYS@CAELT@SABO SLRB 121200@CAELT@METAR SLRB 121200Z 36012KT 9999 NSC 27/23 Q1014 A2994 HR77 RWY NML=@CAELT@
ZPX0223 121157@CAELT@GG SLZZYMYT@CAELT@121156 SLCBYGYZ@CAELT@SABO SLCB 121200@CAELT@METAR SLCB 121200Z 24003KT 9999 FEW036 19/06 Q1025 A3028 751.7 HR42@CAELT@AC FU CI NOSIG=@CAELT@
ZPX0224 121158@CAELT@GG SLZZYMYT@CAELT@121156 SLRQYSYX@CAELT@SABO SLRQ 121200@CAELT@METAR SLRQ 121200Z 00000KT 9999 BKN020 25/24 Q1011 A2986 987.0 HR93=@CAELT@
ZPX0225 121158@CAELT@GG SLZZYMYT@CAELT@121157 SLCOYGYZ@CAELT@SABO SLCO 121200@CAELT@METAR SLCO 121200Z 05004KT 9999 BKN080 25/22 Q1011 A2987 984.1 HR88=@CAELT@
ZPX0226 121158@CAELT@GG SLZZYMYT@CAELT@121108 SLETYMYC@CAELT@SABO SLET 121200@CAELT@METAR SLET 121200Z 32013G24KT 9999 BKN008 BKN015 24/22 Q1011 A2987@CAELT@HR90 NOSIG=@CAELT@
ZPX0228 121158@CAELT@GG SLZZYMYT@CAELT@121158 SLTRYGYZ@CAELT@SABO SLTR 121200@CAELT@METAR SLTR 121200Z 33007KT 9999 FEW012 FEW020CB BKN200 26/24 Q1011@CAELT@A2986 992.5 HR86 NOSIG=@CAELT@
ZPX0229 121159@CAELT@GG SLZZYMYT@CAELT@121158 SLLPYFYA@CAELT@SABO SLRY 121200@CAELT@METAR SLRY 121200Z 00000KT 9999 BKN012 BKN070 25/23 Q1009 A2982@CAELT@HR91 RWY NML=@CAELT@
ZPX0230 121159@CAELT@GG SLZZYMYT@CAELT@121159 SLTRYGYS@CAELT@SABO SLTR 121200@CAELT@METAR SLTR 121200Z 33007KT 9999 FEW012 FEW020CB BKN200 26/24 Q1011@CAELT@A2986 992.5 HR86 NOSIG=@CAELT@METAR SLGM 121200Z NIL=@CAELT@METAR SLRI 121200Z 00000KT 8000 VCSH FEW004 BKN020 BKN080 24/24 Q1013@CAELT@A2991 HR98 SH S/SW=METAR SLJO 121200Z 36005KT 9999 BKN012 BKN080 25/24 Q1010 A2985HR92 RWY NML=METAR SLRA 121200Z 04007KT 9999 SCT010 SCT080 25/24 Q1011 A2986HR92 RWY NML=03006KT 9999 SCT007 BKN080 24/23 Q1011 A2985 HR94RWY HUM OPR=METAR SLBU 121200Z NIL=METAR SLSA 121200Z 34006KT 9999 BKN015 26/25 Q1010 A2985 HR89=METAR SLSR 121200Z 32010KT 9999 SCT015 FEW023CB SCT080 25/23 Q1010A2984 HR88 CB SW RWY NML=METAR SLSM 121200Z 36006KT 9999 FEW015 SCT200 26/24 Q1010 A2984HR89 RWY NML=
ZPX0232 121159@CAELT@GG SLZZYMYT@CAELT@121158 SLTJYGYZ@CAELT@SABO SLTJ 121200@CAELT@METAR SLTJ 121200Z 36005KT 9999 FEW040 23/14 Q1018 A3007 813.5 HR57=@CAELT@
ZPX0234 121200@CAELT@GG SLZZYMYT@CAELT@121158 SLTRYGYZ@CAELT@SABO SLTR 121200 CCA@CAELT@METAR COR SLTR 121200Z 33007KT 9999 FEW012 FEW020CB BKN200 26/24@CAELT@Q1011@CAELT@A2986 992.5 HR86 CB E NOSIG=@CAELT@
ZPX0236 121201@CAELT@GG SLZZYMYT@CAELT@121201 SLVRYFYC@CAELT@SABO SLVR 121200@CAELT@METAR SLVR 121200Z 36015KT 9999 BKN008 BKN015 25/23 Q1011 A2988 HR87@CAELT@NOSIG=@CAELT@METAR SLET 121200Z 32013G24KT 9999 BKN008 BKN015 24/22 Q1011 A2987@CAELT@HR90 NOSIG=@CAELT@METAR SLAS 121200Z 00000KT 9999 OVC013 24/23 Q1014 A2994 HR87 RWY WETOPR=METAR SLJV 121200Z 36005KT 9999 OVC010 22/22 Q1011 A2985 HR97 RWY NMLMETAR SLCP 121200Z 00000KT 9999 OVC008 23/22 Q1016 A3000 HR96 REDZRWY HUM OPR=METAR SLSI 121200Z 00000KT 9999 OVC013 24/22 Q1013 A2991 HR87 RWY NMLMETAR SLTI 121200Z 00000KT 9999 SCT070 25/23 Q1016 A3000 HR86 RWY HUMMETAR SLJE 121200Z 00000KT 9999 BKN015 26/22 Q1015 A2997 HR82 RWY NMLMETAR SLVG 121200Z 00000KT 9999 SCT020 17/14 Q1023 A3021 HR81 RWY NMLMETAR SLRB 121200Z 36012KT 9999 NSC 27/23 Q1014 A2994 HR77 RWY NML=METAR SLCA 121200Z 00000KT 9999 NSC 22/19 Q1014 A2994 HR82 RWY NML=
ZPX0237 121201@CAELT@GG SLZZYMYT@CAELT@121201 SLLPYFYA@CAELT@SABO SLLP 121200@CAELT@METAR SLLP 121200Z 06005KT 6000 FEW005 09/05 Q1037 A3063 627.4@CAELT@HR76 P92// VIS/RED/ST BAJOS NE/E/SE HZ SW/W CI NOSIG=@CAELT@METAR SLCO 121200Z 05004KT 9999 BKN080 25/22 Q1011 A2987 984.1@CAELT@HR88=@CAELT@METAR SLRY 121200Z 00000KT 9999 BKN012 BKN070 25/23 Q1009 A2982HR91 RWY NML=METAR SLRQ 121200Z 00000KT 9999 BKN020 25/24 Q1011 A2986 987.0HR93=METAR SLAP 121200Z 36005KT 9999 BKN020 OVC070 20/17 Q1017 A3003857.7 HR85=METAR SLSB 121200Z 31010KT 9999 FEW015 SCT025 27/24 Q1011 A2987HR88 RWY NML=METAR SLOR 121200Z 06012KT 9999 NSC 13/M00 Q1033 A3052 655.0HR39=
ZPX0238 121201@CAELT@GG SLZZYMYT@CAELT@121201 SLCBYGYS@CAELT@SABO SLCB 121200@CAELT@METAR SLCB 121200Z 24003KT 9999 FEW036 19/06 Q1025 A3028 751.7 HR42@CAELT@AC FU CI NOSIG=@CAELT@METAR SLAL 121200Z 35008KT 9999 BKN017 FEW027CB 13/11 Q1029 A3040 703@CAELT@.9 HR88 CB/NE=@CAELT@METAR SLPO 121200Z NIL=METAR SLAG 121200Z NIL=METAR SLVM 121200Z NIL=METAR SLTJ 121200Z 36005KT 9999 FEW040 23/14 Q1018 A3007 813.5 HR57=METAR SLYA 121200Z 06005KT 9999 NSC 28/21 Q1009 A2980 934.0 HR69=METAR SLBJ 121200Z NIL=METAR SLHI 121200Z NIL=
ZPX0243 121204@CAELT@GG SLZZYMYT@CAELT@121203 SLTRYGYS@CAELT@SABO SLTR 121200 CCA@CAELT@METAR COR SLTR 121200Z 33007KT 9999 FEW012 FEW020CB BKN200 26/24@CAELT@Q1011 A2986 992.5 HR86 CB E NOSIG=@CAELT@METAR SLGM 121200Z NIL=@CAELT@METAR SLRI 121200Z 00000KT 8000 VCSH FEW004 BKN020 BKN080 24/24 Q1013@CAELT@A2991 HR98 SH S/SW=METAR SLJO 121200Z 36005KT 9999 BKN012 BKN080 25/24 Q1010 A2985HR92 RWY NML=METAR SLRA 121200Z 04007KT 9999 SCT010 SCT080 25/24 Q1011 A2986METAR SLMG 121200Z 03006KT 9999 SCT007 BKN080 24/23 Q1011 A2985 HR94RWY HUM OPR=METAR SLBU 121200Z NIL=METAR SLSA 121200Z 34006KT 9999 BKN015 26/25 Q1010 A2985 HR89=METAR SLSR 121200Z 32010KT 9999 SCT015 FEW023CB SCT080 25/23 Q1010A2984 HR88 CB SW RWY NML=METAR SLSM 121200Z 36006KT 9999 FEW015 SCT200 26/24 Q1010 A2984HR89 RWY NML=
ZPX0266 121250@CAELT@GG SLZZYMYT@CAELT@121250 SLCAYGYS@CAELT@SABO SLCA 121300@CAELT@METAR SLCA 121300Z 00000KT 9999 FEW036 27/19 Q1014 A2994 HR82 RWY NML@CAELT@
ZPX0270 121254@CAELT@GG SLZZYMYT@CAELT@121254 SLCBYGYZ@CAELT@SABO SLCB 121300@CAELT@METAR SLCB 121300Z 15004KT 100V200 9999 FEW036 22/06 Q1025 A3028 751.@CAELT@7 HR35 AC FU CI NOSIG=@CAELT@
ZPX0273 121255@CAELT@GG SLZZYMYT@CAELT@121255 SLTJYGYZ@CAELT@SABO SLTJ 121300@CAELT@METAR SLTJ 121300Z 27004KT 9999 FEW040 25/13 Q1017 A3006 813.1 HR50=@CAELT@
ZPX0274 121255@CAELT@GG SLZZYMYT@CAELT@121255 SLCOYGYZ@CAELT@SABO SLCO 121300@CAELT@METAR SLCO 121300Z 35009KT 9999 FEW012 BKN080 27/25 Q1012 A2989 984.9@CAELT@HR86=@CAELT@
ZPX0275 121256@CAELT@GG SLZZYMYT@CAELT@121255 SLSBYSYX@CAELT@SABO SLSB 121300@CAELT@METAR SLSB 121300Z 30012KT 9999 SCT017 28/24 Q1011 A2988 HR80 RWY NML=@CAELT@
ZPX0277 121256@CAELT@GG SLZZYMYT@CAELT@121255 SLLPYGYZ@CAELT@SABO SLLP 121300@CAELT@METAR SLLP 121300Z 26005KT 9999 FEW010 12/01 Q1037 A3065 627.8 HR47@CAELT@P4053 HZ SW/W CI NOSIG=@CAELT@
ZPX0278 121256@CAELT@GG SLZZYMYT@CAELT@121255 SLORYGYZ@CAELT@SABO SLOR 121300@CAELT@METAR SLOR 121300Z 00000KT 9999 FEW017 16/M01 Q1033 A3053 655.1 HR32=@CAELT@
ZPX0280 121257@CAELT@GG SLZZYMYT@CAELT@121256 SLRBYGYS@CAELT@SABO SLRB 121300@CAELT@METAR SLRB 121300Z 36008KT 9999 NSC 29/23 Q1014 A2994 HR71 RWY NML=@CAELT@
ZPX0281 121257@CAELT@GG SLZZYMYT@CAELT@121257 SLTRYGYZ@CAELT@SABO SLTR 121300@CAELT@METAR SLTR 121300Z 31010KT 9999 SCT015 BKN200 28/24 Q1011 A2986@CAELT@992.6 HR80 NOSIG=@CAELT@
ZPX0283 121259@CAELT@GG SLZZYMYT@CAELT@120858 SLRQYSYX@CAELT@SABO SLRQ 121300@CAELT@METAR SLRQ 121300Z 00000KT 9999 BKN020 27/25 Q1011 A2987 987.4 HR86@CAELT@
ZPX0285 121259@CAELT@GG SLZZYMYT@CAELT@121257 SLLPYFYA@CAELT@SABO SLRY 121300@CAELT@METAR SLRY 121300Z 34003KT 9999 BKN013 BKN070 26/23 Q1010 A2984@CAELT@HR82 RWY NML=@CAELT@
ZPX0286 121259@CAELT@GG SLZZYMYT@CAELT@121253 SLETYMYC@CAELT@SABO SLET 121300@CAELT@METAR SLET 121300Z 32013G24KT 9999 BKN009 BKN015 25/22 Q1011 A2987@CAELT@HR84 NOSIG=@CAELT@
ZPX0288 121300@CAELT@GG SLZZYMYT@CAELT@121300 SLCBYGYS@CAELT@SABO SLCB 121300@CAELT@METAR SLCB 121300Z 15004KT 100V200 9999 FEW036 22/06 Q1025 A3028 751.@CAELT@7 HR35 AC FU CI NOSIG=@CAELT@METAR SLAL 121300Z 35010KT 9999 SCT020 FEW027CB 15/10 Q1030 A3041 704@CAELT@.2 HR72 CB/SE=@CAELT@METAR SLPO 121300Z NIL=METAR SLAG 121300Z NIL=METAR SLVM 121300Z NIL=METAR SLTJ 121300Z 27004KT 9999 FEW040 25/13 Q1017 A3006 813.1 HR50=METAR SLYA 121300Z 06007KT 9999 NSC 30/22 Q1008 A2979 933.8 HR64=METAR SLBJ 121300Z NIL=METAR SLHI 121300Z NIL=
ZPX0289 121300@CAELT@GG SLZZYMYT@CAELT@121300 SLLPYFYA@CAELT@SABO SLLP 121300@CAELT@METAR SLLP 121300Z 26005KT 9999 FEW010 12/01 Q1037 A3065 627.8@CAELT@HR47 P4053 HZ SW/W CI NOSIG=@CAELT@METAR SLCO 121300Z 35009KT 9999 FEW012 BKN080 27/25 Q1012 A2989@CAELT@984.9 HR86=@CAELT@METAR SLRY 121300Z 34003KT 9999 BKN013 BKN070 26/23 Q1010 A2984HR82 RWY NML=METAR SLRQ 121300Z 00000KT 9999 BKN020 27/25 Q1011 A2987 987.4HR86 AC=METAR SLAP 121300Z 36005KT 9999 BKN020 OVC070 21/17 Q1018 A3006858.7 HR79=METAR SLSB 121300Z 30012KT 9999 SCT017 28/24 Q1011 A2988 HR80RWY NML=METAR SLOR 121300Z 00000KT 9999 FEW017 16/M01 Q1033 A3053 655.1HR32=
ZPX0290 121301@CAELT@GG SLZZYMYT@CAELT@121300 SLTRYGYS@CAELT@SABO SLTR 121300@CAELT@METAR SLTR 121300Z 31010KT 9999 SCT015 BKN200 28/24 Q1011 A2986@CAELT@992.6 HR80 NOSIG=@CAELT@METAR SLGM 121300Z NIL=@CAELT@METAR SLRI 121300Z 07005KT 5000 -RA FEW004 BKN015 BKN080 25/24 Q1013@CAELT@A2994 HR94=METAR SLJO 121300Z 34010KT 8000 VCSH SCT012 FEW023CB BKN080 27/24Q1011 A2986 HR86 CB/SH N/NE RWY NML=METAR SLRA 121300Z 36015KT 9999 SCT015 27/24 Q1011 A2987 HR82 AC/CIRWY NML=METAR SLMG 121300Z 03006KT 9999 SCT008 BKN080 25/23 Q1011 A2986 HR93RWY HUM OPR=METAR SLBU 121300Z NIL=METAR SLSA 121300Z NIL=METAR SLSR 121300Z 32010KT 9999 SCT015 FEW023CB BKN080 26/23 Q1011A2986 HR81 CB SW RWY NML=METAR SLSM 121300Z 33008KT 9999 FEW015 SCT200 28/24 Q1010 A2984 HR82
ZPX0291 121301@CAELT@GG SLZZYMYT@CAELT@121257 SLSAYGYS@CAELT@SABO SLSA 121300@CAELT@METAR SLSA 121300Z 34008KT 9999 BKN015 27/24 Q1011 A2986 HR81=@CAELT@
ZPX0293 121302@CAELT@GG SLZZYMYT@CAELT@121302 SLVRYGYZ@CAELT@SABO SLVR 121300@CAELT@METAR SLVR 121300Z 35017KT 9999 BKN010 BN015 26/23 Q1011 A29.88 HR84@CAELT@NOSIG=@CAELT@
ZPX0295 121303@CAELT@GG SLZZYMYT@CAELT@121300 SLVRYFYC@CAELT@SABO SLVR 121300@CAELT@METAR SLVR 121300Z 35017KT 9999 BKN010 BKN015 26/23 Q1011 A2988 HR84@CAELT@NOSIG=@CAELT@METAR SLET 121300Z 32013G24KT 9999 BKN009 BKN015 25/22 Q1011 A2987@CAELT@HR84 NOSIG=@CAELT@METAR SLAS 121300Z 36008KT 9999 OVC013 26/24 Q1014 A2994 HR87 RWY HUMOPR=METAR SLJV 121300Z 36006KT 9999 OVC010 24/23 Q1012 A2988 HR96 RWY NMLMETAR SLCP 121300Z 00000KT 3000 -DZ OVC008 23/22 Q1017 A3003 HR97 RWYHUM OPR=METAR SLSI 121300Z 00000KT 9999 OVC013 24/23 Q1013 A2991 HR89 RWY NMLMETAR SLTI 121300Z 36006KT 9999 NSC 28/24 Q1016 A3000 HR76 RWY NML=METAR SLJE 121300Z 00000KT 9999 BKN015 27/23 Q1015 A2997 HR77 RWY NMLMETAR SLVG 121300Z 00000KT 9999 FEW023 20/15 Q1023 A3021 HR70 RWY NMLMETAR SLRB 121300Z 36008KT 9999 NSC 29/23 Q1014 A2994 HR71 RWY NML=METAR SLCA 121300Z 00000KT 9999 FEW036 27/19 Q1014 A2994 HR82 RWY NML
ZPX0320 121352@CAELT@GG SLZZYMYT@CAELT@121346 SLETYMYC@CAELT@SABO SLET 121400@CAELT@METAR SLET 121400Z 33015G25KT 9999 SCT010 BKN015 27/22 Q1011 A2987@CAELT@HR76 NOSIG=@CAELT@
ZPX0321 121352@CAELT@GG SLZZYMYT@CAELT@121351 SLCAYGYS@CAELT@SABO SLCA 121400@CAELT@METAR SLCA 121400Z 36004KT 9999 SCT036 28/19 Q1013 A2991 HR58 RWY NML@CAELT@
ZPX0323 121353@CAELT@GG SLZZYMYT@CAELT@121352 SLRBYGYS@CAELT@SABO SLRB 121400@CAELT@METAR SLRB 121400Z 36010KT 9999 FEW020 30/23 Q1014 A2994 HR66 RWY NML=@CAELT@
ZPX0325 121355@CAELT@GG SLZZYMYT@CAELT@121355 SLVRYGYZ@CAELT@SABO SLVR 121400@CAELT@METAR SLVR 121400Z 36010G20KT 9999 SCT010 BKN015 28/23 Q1011 A2987@CAELT@HR77 NOSIG=@CAELT@
ZPX0326 121355@CAELT@GG SLZZYMYT@CAELT@121355 SLCOYGYZ@CAELT@SABO SLCO 121400@CAELT@METAR SLCO 121400Z 35009KT 9999 SCT012 BKN080 28/24 Q1012 A2991 985.3@CAELT@HR79=@CAELT@
ZPX0327 121355@CAELT@GG SLZZYMYT@CAELT@121354 SLSAYGYS@CAELT@SABO SLSA 121400@CAELT@METAR SLSA 121400Z 34008KT 9999 BKN017 28/24 Q1011 A2988 HR79=@CAELT@
ZPX0328 121356@CAELT@GG SLZZYMYT@CAELT@121355 SLSBYSYX@CAELT@SABO SLSB 121400@CAELT@METAR SLSB 121400Z 31014KT 9999 SCT017 29/25 Q1010 A2985 HR77 RWY NML=@CAELT@
ZPX0329 121356@CAELT@GG SLZZYMYT@CAELT@121355 SLORYGYZ@CAELT@SABO SLOR 121400@CAELT@METAR SLOR 121400Z 01008KT 9999 FEW020 18/M01 Q1034 A3055 655.5 HR27=@CAELT@
ZPX0330 121356@CAELT@GG SLZZYMYT@CAELT@121355 SLLPYGYZ@CAELT@SABO SLLP 121400@CAELT@METAR SLLP 121400Z 20004KT 9999 FEW015 14/00 Q1037 A3065 627.9 HR38@CAELT@P93// CI NOSIG=@CAELT@
ZPX0331 121356@CAELT@GG SLZZYMYT@CAELT@121356 SLTRYGYZ@CAELT@SABO SLTR 121400@CAELT@METAR SLTR 121400Z 31012KT 9999 SCT017 29/24 Q1011 A2986 992.7 HR76@CAELT@NOSIG=@CAELT@
ZPX0332 121357@CAELT@GG SLZZYMYT@CAELT@121356 SLTJYGYZ@CAELT@SABO SLTJ 121400@CAELT@METAR SLTJ 121400Z 10003KT 9999 FEW040 27/15 Q1017 A3003 812.4 HR47=@CAELT@
ZPX0333 121357@CAELT@GG SLZZYMYT@CAELT@121356 SLLPYFYA@CAELT@SABO SLRY 121400@CAELT@METAR SLRY 121400Z 32006KT 9999 BKN015 SCT080 28/24 Q1010 A2985@CAELT@HR79 RWY NML=@CAELT@
ZPX0334 121357@CAELT@GG SLZZYMYT@CAELT@121357 SLTRYGYS@CAELT@SABO SLTR 121400@CAELT@METAR SLTR 121400Z 31012KT 9999 SCT017 29/24 Q1011 A2986 992.7 HR76@CAELT@NOSIG=@CAELT@METAR SLGM 121400Z NIL=@CAELT@METAR SLRI 121400Z 09007KT 9999 BKN015 BKN080 26/24 Q1014 A2995 HR88=@CAELT@METAR SLJO 121400Z 34010KT 8000 VCSH SCT012 FEW023CB SCT080 27/24Q1011 A2988 HR87 RESH CB/SH N/NE/NW RWY HUM OPR=METAR SLRA 121400Z 35014KT 9999 SCT015 28/24 Q1011 A2988 HR77 CIRWY NML=METAR SLMG 121400Z 36006KT 9999 FEW010 FEW023CB BKN080 25/24 Q1011A2988 HR92 CB E RWY HUM OPR=METAR SLBU 121400Z NIL=METAR SLSA 121400Z 34008KT 9999 BKN017 28/24 Q1011 A2988 HR79=METAR SLSR 121400Z 32015KT 9999 SCT015 FEW023CB BKN080 27/23 Q1011A2986 HR77 CB SW/W RWY NML=METAR SLSM 121400Z 33010KT 9999 BKN015 28/24 Q1010 A2984 HR79 CI
ZPX0335 121359@CAELT@GG SLZZYMYT@CAELT@121359 SLVRYFYC@CAELT@SABO SLVR 121400@CAELT@METAR SLVR 121400Z 36010G20KT 9999 SCT010 BKN015 28/23 Q1011 A2987@CAELT@HR77 NOSIG=@CAELT@METAR SLET 121400Z 33015G25KT 9999 SCT010 BKN015 27/22 Q1011 A2987@CAELT@HR76 NOSIG=@CAELT@METAR SLAS 121400Z 36012KT 9999 OVC013 27/23 Q1014 A2994 HR81 RWY HUMOPR=METAR SLJV 121400Z 36005KT 9999 OVC012 25/24 Q1012 A2988 HR92 RWY NMLMETAR SLCP 121400Z 31006KT 9999 OVC010 24/23 Q1016 A3000 HR92 REDZRWY HUM OPR=METAR SLSI 121400Z 36006KT 9999 OVC015 25/23 Q1013 A2991 HR86 RWY NMLMETAR SLTI 121400Z 36006KT 9999 FEW017 31/23 Q1016 A3000 HR63 RWY NMLMETAR SLJE 121400Z 00000KT 9999 BKN015 29/23 Q1015 A2997 HR69 RWY NMLMETAR SLVG 121400Z 36006KT 9999 SCT023 23/14 Q1023 A3021 HR55 RWY NMLMETAR SLRB 121400Z 36010KT 9999 FEW020 30/23 Q1014 A2994 HR66 RWY NMLMETAR SLCA 121400Z 36004KT 9999 SCT036 28/19 Q1013 A2991 HR58 RWY NML
ZPX0336 121359@CAELT@GG SLZZYMYT@CAELT@121359 SLCBYGYZ@CAELT@SABO SLCB 121400@CAELT@METAR SLCB 121400Z 20007KT 140V260 9999 FEW040 25/04 Q1024 A3026 751.@CAELT@2 HR25 AC FU CI NOSIG=@CAELT@
ZPX0338 121359@CAELT@GG SLZZYMYT@CAELT@121358 SLRQYSYX@CAELT@SABO SLRQ 121400@CAELT@METAR SLRQ 121400Z 00000KT 9999 BKN020 28/24 Q1011 A2986 987.1 HR80@CAELT@
ZPX0341 121400@CAELT@GG SLZZYMYT@CAELT@121359 SLCBYGYS@CAELT@SABO SLCB 121400@CAELT@METAR SLCB 121400Z 20007KT 140V260 9999 FEW040 25/04 Q1024 A3026 751.@CAELT@2 HR25 AC FU CI NOSIG=@CAELT@METAR SLAL 121400Z 35014KT 9999 SCT020 FEW027CB 16/09 Q1029 A3040@CAELT@703.9 HR66 CB/SE AC=@CAELT@METAR SLPO 121400Z NIL=METAR SLAG 121400Z NIL=METAR SLVM 121400Z NIL=METAR SLTJ 121400Z 10003KT 9999 FEW040 27/15 Q1017 A3003 812.4 HR47=METAR SLYA 121400Z 06010KT 9999 NSC 31/23 Q1008 A2977 933.0 HR60=METAR SLBJ 121400Z NIL=METAR SLHI 121400Z NIL=
ZPX0343 121401@CAELT@GG SLZZYMYT@CAELT@121401 SLLPYFYA@CAELT@SABO SLLP 121400@CAELT@METAR SLLP 121400Z 20004KT 9999 FEW015 14/00 Q1037 A3065 627.9@CAELT@HR38 P93// CI NOSIG=@CAELT@METAR SLCO 121400Z 35009KT 9999 SCT012 BKN080 28/24 Q1012 A2991@CAELT@985.3 HR79=@CAELT@METAR SLRY 121400Z 32006KT 9999 BKN015 SCT080 28/24 Q1010 A2985HR79 RWY NML=METAR SLRQ 121400Z 00000KT 9999 BKN020 28/24 Q1011 A2986 987.1HR80 AC=METAR SLAP 121400Z 36005KT 9999 BKN020 OVC070 22/19 Q1018 A3007858.8 HR83=METAR SLSB 121400Z 31014KT 9999 SCT017 29/25 Q1010 A2985 HR77RWY NML=METAR SLOR 121400Z 01008KT 9999 FEW020 18/M01 Q1034 A3055 655.5HR27=
ZPX0381 121453@CAELT@GG SLZZYMYT@CAELT@121453 SLSBYSYX@CAELT@SABO SLSB 121500@CAELT@METAR SLSB 121500Z 31015KT 9999 SCT020 31/25 Q1010 A2983 HR70 RWY NML=@CAELT@
ZPX0382 121454@CAELT@GG SLZZYMYT@CAELT@121455 SLLPYFYA@CAELT@SABO SLRY 121500@CAELT@METAR SLRY 121500Z 32010KT 9999 BKN016 29/23 Q1010 A2984 HR71@CAELT@RWY NML=@CAELT@
ZPX0383 121455@CAELT@GG SLZZYMYT@CAELT@121454 SLSAYGYS@CAELT@SABO SLSA 121500@CAELT@METAR SLSA 121500Z 34012KT 9999 BKN017 29/24 Q1011 A2988 HR73=@CAELT@
ZPX0384 121455@CAELT@GG SLZZYMYT@CAELT@121454 SLETYMYC@CAELT@SABO SLET 121500@CAELT@METAR SLET 121500Z 33015G25KT 9999 SCT012 BKN017 29/22 Q1010 A2985@CAELT@HR69 NOSIG=@CAELT@
ZPX0385 121455@CAELT@GG SLZZYMYT@CAELT@121455 SLCOYGYZ@CAELT@SABO SLCO 121500@CAELT@METAR SLCO 121500Z 04012KT 7000 VCSH BKN015 FEW020CB 29/24 Q1012@CAELT@A2989 984.9 HR76 CB/SH SW/W/NW=@CAELT@
ZPX0386 121456@CAELT@GG SLZZYMYT@CAELT@121455 SLRQYSYX@CAELT@SABO SLRQ 121500@CAELT@METAR SLRQ 121500Z 00000KT 9999 BKN020 29/25 Q1010 A2984 986.2 HR77=@CAELT@
ZPX0387 121456@CAELT@GG SLZZYMYT@CAELT@121455 SLRBYGYS@CAELT@SABO SLRB 121500@CAELT@METAR SLRB 121500Z 36008KT 9999 FEW020 31/23 Q1013 A2991 HR61 RWY NML=@CAELT@
ZPX0389 121457@CAELT@GG SLZZYMYT@CAELT@121455 SLTJYGYZ@CAELT@SABO SLTJ 121500@CAELT@METAR SLTJ 121500Z 13005KT 9999 FEW040 28/14 Q1015 A2999 811.2 HR42=@CAELT@
ZPX0390 121457@CAELT@GG SLZZYMYT@CAELT@121457 SLVRYGYZ@CAELT@SABO SLVR 121500@CAELT@METAR SLVR 121500Z 33010G21KT 9999 SCT012 BKN017 28/23 Q1011 A2986@CAELT@HR75 TEMPO SHRA=@CAELT@
ZPX0391 121457@CAELT@GG SLZZYMYT@CAELT@121457 SLCAYGYS@CAELT@SABO SLCA 121500@CAELT@METAR SLCA 121500Z 00000KT 9999 SCT036 30/19 Q1012 A2988 HR52 RWY NML@CAELT@
ZPX0393 121458@CAELT@GG SLZZYMYT@CAELT@121457 SLTRYGYZ@CAELT@SABO SLTR 121500@CAELT@METAR SLTR 121500Z 31013KT 9999 SCT017 SCT200 30/24 Q1011 A2986@CAELT@992.5 HR72 SH E/SE TEMPO SHRA=@CAELT@
ZPX0394 121458@CAELT@GG SLZZYMYT@CAELT@121458 SLVRYFYC@CAELT@SABO SLVR 121500@CAELT@METAR SLVR 121500Z 33010G21KT 9999 SCT012 BKN017 28/23 Q1011 A2986@CAELT@HR75 TEMPO SHRA=@CAELT@METAR SLET 121500Z 33015G25KT 9999 SCT012 BKN017 29/22 Q1010 A2985@CAELT@HR69 NOSIG=@CAELT@METAR SLAS 121500Z 36012KT 9999 OVC013 28/24 Q1014 A2994 HR82 RWY NMLMETAR SLJV 121500Z 36005KT 9999 OVC012 25/23 Q1011 A2985 HR90 RWY NMLMETAR SLCP 121500Z 36012KT 0500 +DZ OVC010 23/21 Q1016 A3000 HR93 RWYWET OPR=METAR SLSI 121500Z 36008KT 9999 OVC015 26/23 Q1013 A2991 HR82 RWY NMLMETAR SLTI 121500Z 36010KT 9999 SCT017 32/22 Q1015 A2997 HR56 RWY NMLMETAR SLJE 121500Z 32005KT 9999 BKN015 30/23 Q1015 A2997 HR67 RWY NMLMETAR SLVG 121500Z 00000KT 9999 SCT023 24/14 Q1022 A3018 HR49 RWY NMLMETAR SLRB 121500Z 36008KT 9999 FEW020 31/23 Q1013 A2991 HR61 RWY NMLMETAR SLCA 121500Z 00000KT 9999 SCT036 30/19 Q1012 A2988 HR52 RWY NML
ZPX0395 121458@CAELT@GG SLZZYMYT@CAELT@121457 SLLPYGYZ@CAELT@SABO SLLP 121500@CAELT@METAR SLLP 121500Z 12007KT 040V170 9999 FEW017 FEW020CB 16/05 Q1037@CAELT@A3063 627.5 HR48 P0784 CB/SH N/S AC/CI NOSIG=@CAELT@
ZPX0396 121459@CAELT@GG SLZZYMYT@CAELT@121458 SLTRYGYS@CAELT@SABO SLTR 121500@CAELT@METAR SLTR 121500Z 31013KT 9999 SCT017 SCT200 30/24 Q1011 A2986@CAELT@992.5 HR72 SH E/SE TEMPO SHRA=@CAELT@METAR SLGM 121500Z NIL=@CAELT@METAR SLRI 121500Z 03010KT 9999 SCT015 BKN080 28/24 Q1013 A2993 HR78=@CAELT@METAR SLJO 121500Z 36015KT 5000 VCSH SCT012 FEW020CB BKN070 28/24Q1012 A2989 HR82 RESHRA CB/SH N/E/SE RWY HUM OPR=METAR SLRA 121500Z 36015KT 8000 VCSH SCT015 FEW020CB SCT200 29/24Q1011 A2988 HR72 CB SW SH N/SW RWY NML=METAR SLMG 121500Z 36008KT 9999 SCT012 BKN080 26/24 Q1011 A2988HR89 RWY HUM OPR=METAR SLBU 121500Z NIL=METAR SLSA 121500Z 34012KT 9999 BKN017 29/24 Q1011 A2988 HR73=METAR SLSR 121500Z 32015KT 9999 SCT017 BKN080 29/23 Q1010 A2984HR73 RWY NML=METAR SLSM 121500Z 33010KT 9999 SCT017 30/24 Q1010 A2984 HR70RWY NML=
ZPX0397 121459@CAELT@GG SLZZYMYT@CAELT@121458 SLCBYGYZ@CAELT@SABO SLCB 121500@CAELT@METAR SLCB 121500Z 19008KT 9999 FEW040 26/04 Q1023 A3023 750.3 HR23@CAELT@FU CI NOSIG=@CAELT@
ZPX0399 121500@CAELT@GG SLZZYMYT@CAELT@121500 SLCBYGYS@CAELT@SABO SLCB 121500@CAELT@METAR SLCB 121500Z 19008KT 9999 FEW040 26/04 Q1023 A3023 750.3 HR23@CAELT@FU CI NOSIG=@CAELT@METAR SLAL 121500Z 35010KT 9999 SCT023 17/08 Q1029 A3038 703.5 HR55=@CAELT@METAR SLPO 121500Z NIL=@CAELT@METAR SLAG 121500Z NIL=METAR SLVM 121500Z NIL=METAR SLTJ 121500Z 13005KT 9999 FEW040 28/14 Q1015 A2999 811.2 HR42=METAR SLYA 121500Z 06010KT 9999 NSC 33/23 Q1007 A2976 932.6 HR56=METAR SLBJ 121500Z NIL=METAR SLHI 121500Z NIL=
ZPX0400 121501@CAELT@GG SLZZYMYT@CAELT@121500 SLLPYFYA@CAELT@SABO SLLP 121500@CAELT@METAR SLLP 121500Z 12007KT 040V170 9999 FEW017 FEW020CB 16/05@CAELT@Q1037 A3063 627.5 HR48 P0784 CB/SH N/S AC/CI NOSIG=@CAELT@METAR SLCO 121500Z 04012KT 7000 VCSH BKN015 FEW020CB 29/24@CAELT@Q1012 A2989 984.9 HR76 CB/SH SW/W/NW=@CAELT@METAR SLRY 121500Z 32010KT 9999 BKN016 29/23 Q1010 A2984 HR71RWY NML=METAR SLRQ 121500Z 00000KT 9999 BKN020 29/25 Q1010 A2984 986.2HR77=METAR SLAP 121500Z 00000KT 9999 SCT020 BKN070 24/20 Q1017 A3005858.2 HR77=METAR SLSB 121500Z 31015KT 9999 SCT020 31/25 Q1010 A2983 HR70
ZPX0439 121554@CAELT@GG SLZZYMYT@CAELT@121554 SLSBYSYX@CAELT@SABO SLSB 121600@CAELT@METAR SLSB 121600Z 33015KT 9999 BKN020 31/24 Q1010 A2983 HR68 RWY NML=@CAELT@
ZPX0440 121555@CAELT@GG SLZZYMYT@CAELT@121555 SLVRYGYZ@CAELT@SABO SLVR 121600@CAELT@METAR SLVR 121600Z 34015KT 9999 FEW013 BKN017 29/23 Q1010 A2984 HR69@CAELT@NOSIG=@CAELT@
ZPX0442 121555@CAELT@GG SLZZYMYT@CAELT@121555 SLCAYGYS@CAELT@SABO SLCA 121600@CAELT@METAR SLCA 121600Z 36004KT 9999 SCT036 32/18 Q1010 A2983 HR44 RWY NML@CAELT@
ZPX0443 121555@CAELT@GG SLZZYMYT@CAELT@121555 SLCBYGYZ@CAELT@SABO SLCB 121600@CAELT@METAR SLCB 121600Z 24007KT 9999 FEW043 27/03 Q1022 A3019 749.3 HR22@CAELT@FU CI NOSIG=@CAELT@
ZPX0444 121555@CAELT@GG SLZZYMYT@CAELT@121555 SLTJYGYZ@CAELT@SABO SLTJ 121600@CAELT@METAR SLTJ 121600Z 21004KT 9999 FEW040 29/13 Q1014 A2996 810.5 HR39=@CAELT@
ZPX0445 121555@CAELT@GG SLZZYMYT@CAELT@121554 SLSAYGYS@CAELT@SABO SLSA 121600@CAELT@METAR SLSA 121600Z 34012KT 9999 BKN017 30/24 Q1010 A2985 HR71 SH NW=@CAELT@
ZPX0446 121555@CAELT@GG SLZZYMYT@CAELT@121555 SLCOYGYZ@CAELT@SABO SLCO 121600@CAELT@METAR SLCO 121600Z 32010KT 8000 VCSH SCT010 FEW020CB BKN080 26/25@CAELT@Q1012 A2989 984.8 HR95 CB/SH/NE/E/SE RERA=@CAELT@
ZPX0447 121555@CAELT@GG SLZZYMYT@CAELT@121554 SLRBYGYS@CAELT@SABO SLRB 121600@CAELT@METAR SLRB 121600Z 36008KT 9999 SCT020 32/22 Q1013 A2991 HR56 RWY NML=@CAELT@
ZPX0448 121556@CAELT@GG SLZZYMYT@CAELT@121555 SLLPYGYZ@CAELT@SABO SLLP 121600@CAELT@METAR SLLP 121600Z 11009KT 030V190 9999 SCT020 FEW023CB 17/03 Q1036@CAELT@A3061 626.9 HR38 P0784 CB/SH N/S/NW AC/CI NOSIG=@CAELT@
ZPX0450 121557@CAELT@GG SLZZYMYT@CAELT@121547 SLETYMYC@CAELT@SABO SLET 121600@CAELT@METAR SLET 121600Z 32013G23KT 9999 SCT012 BKN017 28/23 Q1010 A2983@CAELT@HR71 TEMPO SHRA=@CAELT@
ZPX0451 121557@CAELT@GG SLZZYMYT@CAELT@121556 SLRQYSYX@CAELT@SABO SLRQ 121600@CAELT@METAR SLRQ 121600Z 00000KT 9999 BKN020 30/25 Q1009 A2981 985.2 HR72=@CAELT@
ZPX0456 121559@CAELT@GG SLZZYMYT@CAELT@121559 SLVRYFYC@CAELT@SABO SLVR 121600@CAELT@METAR SLVR 121600Z 34015KT 9999 FEW013 BKN017 29/23 Q1010 A2984 HR69@CAELT@NOSIG=@CAELT@METAR SLET 121600Z 32013G23KT 9999 SCT012 BKN017 28/23 Q1010 A2983@CAELT@HR71 TEMPO SHRA=@CAELT@METAR SLAS 121600Z 36012KT 9999 OVC013 28/26 Q1014 A2994 HR77 SH N/NE/E/SW RWY NML=METAR SLCP 121600Z 36010KT 1500 -DZ OVC010 22/20 Q1016 A3000 HR86 RWYWET OPR=METAR SLSI 121600Z 36010KT 5000 -RA OVC015 24/23 Q1013 A2991 HR90 RWYMETAR SLRB 121600Z 36008KT 9999 SCT020 32/22 Q1013 A2991 HR56 RWY NMLMETAR SLCA 121600Z 36004KT 9999 SCT036 32/18 Q1010 A2983 HR44 RWY NML
ZPX0457 121559@CAELT@GG SLZZYMYT@CAELT@121557 SLLPYFYA@CAELT@SABO SLRY 121600@CAELT@METAR SLRY 121600Z 32012KT 9999 SCT016 31/24 Q1009 A2981 HR67@CAELT@RWY NML=@CAELT@
ZPX0460 121601@CAELT@GG SLZZYMYT@CAELT@121559 SLTRYGYZ@CAELT@SABO SLTR 121600@CAELT@METAR SLTR 121600Z 33013KT 9999 SCT017 32/24 Q1010 A2983 991.7 HR64@CAELT@SH SE TEMPO SHRA=@CAELT@
ZPX0461 121601@CAELT@GG SLZZYMYT@CAELT@121600 SLCBYGYS@CAELT@SABO SLCB 121600@CAELT@METAR SLCB 121600Z 24007KT 9999 FEW043 27/03 Q1022 A3019 749.3 HR22@CAELT@FU CI NOSIG=@CAELT@METAR SLAL 121600Z NIL=@CAELT@METAR SLPO 121600Z NIL=@CAELT@METAR SLAG 121600Z NIL=METAR SLVM 121600Z NIL=METAR SLTJ 121600Z 21004KT 9999 FEW040 29/13 Q1014 A2996 810.5 HR39=METAR SLYA 121600Z 06010KT 9999 NSC 34/23 Q1006 A2973 932.0 HR54=METAR SLBJ 121600Z NIL=METAR SLHI 121600Z NIL=
ZPX0462 121602@CAELT@GG SLZZYMYT@CAELT@121600 SLTRYGYS@CAELT@SABO SLTR 121600@CAELT@METAR SLTR 121600Z 33013KT 9999 SCT017 32/24 Q1010 A2983 991.7 HR64@CAELT@SH SE TEMPO SHRA=@CAELT@METAR SLGM 121600Z NIL=@CAELT@METAR SLRI 121600Z 01010KT 9999 SCT015 BKN080 29/25 Q1012 A2990 HR75=@CAELT@METAR SLJO 121600Z 36015KT 7000 VCSH SCT012 FEW023CB BKN070 27/24Q1011 A2988 HR83 CB/SH NE/E/SW RWY HUM OPR=METAR SLRA 121600Z 35016KT 8000 VCSH SCT015 FEW020CB BKN200 28/24Q1011 A2987 HR79 AC CB/SH SE RWY NML=METAR SLMG 121600Z 34012KT 9999 FEW015 BKN080 26/23 Q1011 A2987HR85 RWY NML=METAR SLBU 121600Z NIL=METAR SLSA 121600Z 34012KT 9999 BKN017 30/24 Q1010 A2985 HR71 SH NW=METAR SLSR 121600Z 32015G25KT 9999 SCT017 BKN080 30/23 Q1009 A2980HR67 RWY NML=METAR SLSM 121600Z 33010KT 8000 VCSH BKN017 FEW023CB 30/24 Q1010A2984 HR70 CB/SH N/S/SW RWY NML=
ZPX0463 121602@CAELT@GG SLZZYMYT@CAELT@121602 SLLPYFYA@CAELT@SABO SLLP 121600@CAELT@METAR SLLP 121600Z 11009KT 030V190 9999 SCT020 FEW023CB 17/03@CAELT@Q1036 A3061 626.9 HR38 P0784 CB/SH N/S/NW AC/CI NOSIG=@CAELT@METAR SLCO 121600Z 32010KT 8000 VCSH SCT010 FEW020CB BKN080@CAELT@26/25 Q1012 A2989 984.8 HR95 CB/SH/NE/E/SE RERA=@CAELT@METAR SLRY 121600Z 32012KT 9999 SCT016 31/24 Q1009 A2981 HR67RWY NML=METAR SLRQ 121600Z 00000KT 9999 BKN020 30/25 Q1009 A2981985.2 HR72=METAR SLAP 121600Z 00000KT 9999 SCT025 26/22 Q1016 A3001 857.1HR76 AC=METAR SLSB 121600Z 33015KT 9999 BKN020 31/24 Q1010 A2983 HR68
ZPX0483 121650@CAELT@GG SLZZYMYT@CAELT@121650 SLCAYGYS@CAELT@SABO SLCA 121700@CAELT@METAR SLCA 121700Z 00000KT 9999 SCT036 34/17 Q1009 A2980 HR39 RWY NML@CAELT@
ZPX0484 121651@CAELT@GG SLZZYMYT@CAELT@121650 SLRBYGYS@CAELT@SABO SLRB 121700@CAELT@METAR SLRB 121700Z 36010KT 9999 SCT020 33/23 Q1012 A2988 HR55 RWY NML=@CAELT@
ZPX0488 121654@CAELT@GG SLZZYMYT@CAELT@121654 SLCBYGYZ@CAELT@SABO SLCB 121700@CAELT@METAR SLCB 121700Z 24006KT 9999 FEW043 28/03 Q1020 A3014 747.9 HR20@CAELT@CI NOSIG=@CAELT@
ZPX0489 121654@CAELT@GG SLZZYMYT@CAELT@121655 SLCOYGYZ@CAELT@SABO SLCO 121700@CAELT@METAR SLCO 121700Z 31012KT 9999 BKN015 BKN080 27/25 Q1011 A2986 983.9@CAELT@HR88=@CAELT@
ZPX0490 121654@CAELT@GG SLZZYMYT@CAELT@121655 SLLPYFYA@CAELT@SABO SLRY 121700@CAELT@METAR SLRY 121700Z 34012KT 9999 SCT017 32/24 Q1008 A2979 HR63@CAELT@RWY NML=@CAELT@
ZPX0491 121655@CAELT@GG SLZZYMYT@CAELT@121647 SLETYMYC@CAELT@SABO SLET 121700@CAELT@METAR SLET 121700Z 32013G24KT 9999 FEW012 BKN017 29/22 Q1009 A2980@CAELT@HR64 NOSIG=@CAELT@
ZPX0492 121655@CAELT@GG SLZZYMYT@CAELT@121654 SLSBYSYX@CAELT@SABO SLSB 121700@CAELT@METAR SLSB 121700Z 32010KT 9999 BKN020 30/23 Q1009 A2979 HR67 RWY NML=@CAELT@
ZPX0493 121655@CAELT@GG SLZZYMYT@CAELT@121655 SLVRYGYZ@CAELT@SABO SLVR 121700@CAELT@METAR SLVR 121700Z 35011G23KT 9999 FEW013 BKN017 31/23 Q1009 A2981@CAELT@HR64 AC NOSIG=@CAELT@
ZPX0494 121655@CAELT@GG SLZZYMYT@CAELT@121654 SLSAYGYS@CAELT@SABO SLSA 121700@CAELT@METAR SLSA 121700Z 34016KT 8000 VCSH BKN017 FEW023CB BKN200 29/24@CAELT@Q1010 A2983 HR73 RESHRA CB/SH W/NW=@CAELT@
ZPX0495 121655@CAELT@GG SLZZYMYT@CAELT@121655 SLRQYSYX@CAELT@SABO SLRQ 121700@CAELT@METAR SLRQ 121700Z 36005KT 9999 BKN020 FEW023CB 31/26 Q1008 A2979 984@CAELT@.6 HR73 CB W=@CAELT@
ZPX0496 121656@CAELT@GG SLZZYMYT@CAELT@121655 SLLPYGYZ@CAELT@SABO SLLP 121700@CAELT@METAR SLLP 121700Z 10009KT 050V210 9999 SCT020 FEW023CB 19/02 Q1035@CAELT@A3058 626.2 HR33 P3784 CB/SH SE/S/SW/NW AC/CI NOSIG=@CAELT@
ZPX0497 121657@CAELT@GG SLZZYMYT@CAELT@121656 SLTRYGYZ@CAELT@SABO SLTR 121700@CAELT@METAR SLTR 121700Z 32013KT 9999 SCT017 FEW020CB SCT200 31/24 Q1009@CAELT@A2981 991.1 HR66 CB/SH E TEMPO SHRA=@CAELT@
ZPX0500 121659@CAELT@GG SLZZYMYT@CAELT@121659 SLVRYFYC@CAELT@SABO SLVR 121700@CAELT@METAR SLVR 121700Z 35011G23KT 9999 FEW013 BKN017 31/23 Q1009 A2981@CAELT@HR64 AC NOSIG=@CAELT@METAR SLET 121700Z 32013G24KT 9999 FEW012 BKN017 29/22 Q1009 A2980@CAELT@HR64 NOSIG=@CAELT@METAR SLAS 121700Z 36010KT 9999 BKN017 28/25 Q1014 A2994 HR83 SH N/NE/E/SW RWY NML=METAR SLCP 121700Z 34006KT 5000 -DZ BKN010 OVC070 23/22 Q1016 A3000HR96 RWY WET OPR=METAR SLSI 121700Z 33008KT 9999 OVC015 24/23 Q1012 A2988 HR89 RERARWY WET OPR=METAR SLRB 121700Z 36010KT 9999 SCT020 33/23 Q1012 A2988 HR55 RWY NMLMETAR SLCA 121700Z 00000KT 9999 SCT036 34/17 Q1009 A2980 HR39 RWY NML
ZPX0501 121659@CAELT@GG SLZZYMYT@CAELT@121659 SLTRYGYS@CAELT@SABO SLTR 121700@CAELT@METAR SLTR 121700Z 32013KT 9999 SCT017 FEW020CB SCT200 31/24 Q1009@CAELT@A2981 991.1 HR66 CB/SH E TEMPO SHRA=@CAELT@METAR SLGM 121700Z NIL=@CAELT@METAR SLRI 121700Z 03012KT 9999 SCT017 BKN080 31/23 Q1011 A2988 HR64=@CAELT@METAR SLJO 121700Z 340112KT 8000 VCSH SCT015 FEW020CB BKN200 27/24Q1010 A2984 HR84 CB/SH S RWY HUM OPR=METAR SLRA 121700Z 36015KT 9999 SCT017 BKN200 30/24 Q1011 A2986HR71 RWY NML=METAR SLMG 121700Z NIL=METAR SLBU 121700Z NIL=METAR SLSA 121700Z 34016KT 8000 VCSH BKN017 FEW023CB BKN200 29/24Q1010 A2983 HR73 RESHRA CB/SH W/NW=METAR SLSR 121700Z 32015G25KT 9999 SCT015 BKN080 30/23 Q1008 A2978HR67 RWY NML=METAR SLSM 121700Z 33012KT 8000 VCSH BKN017 FEW023CB 29/24 Q1009A2982 HR75 CB/SH NE/SE/S/SW RWY NML=
ZPX0503 121701@CAELT@GG SLZZYMYT@CAELT@121701 SLCBYGYS@CAELT@SABO SLCB 121700@CAELT@METAR SLCB 121700Z 24006KT 9999 FEW043 28/03 Q1020 A3014 747.9 HR20@CAELT@CI NOSIG=@CAELT@METAR SLAL 121700Z NIL=@CAELT@METAR SLPO 121700Z NIL=@CAELT@METAR SLAG 121700Z NIL=METAR SLVM 121700Z NIL=METAR SLTJ 121700Z NIL=METAR SLYA 121700Z NIL=METAR SLBJ 121700Z NIL=METAR SLHI 121700Z NIL=
ZPX0504 121702@CAELT@GG SLZZYMYT@CAELT@121701 SLTRYGYS@CAELT@SABO SLTR 121700 RRA@CAELT@METAR SLTR 121700Z 32013KT 9999 SCT017 FEW020CB SCT200 31/24 Q1009@CAELT@A2981 991.1 HR66 CB/SH E TEMPO SHRA=@CAELT@METAR SLGM 121700Z NIL=@CAELT@METAR SLRI 121700Z 03012KT 9999 SCT017 BKN080 31/23 Q1011 A2988 HR64=@CAELT@METAR SLJO 121700Z 340112KT 8000 VCSH SCT015 FEW020CB BKN200 27/24Q1010 A2984 HR84 CB/SH S RWY HUM OPR=METAR SLRA 121700Z 36015KT 9999 SCT017 BKN200 30/24 Q1011 A2986HR71 RWY NML=METAR RTD SLMG 121700Z 34006KT 9999 FEW017 BKN080 27/23 Q1014 A2994HR79 RWY NML=METAR SLBU 121700Z NIL=METAR SLSA 121700Z 34016KT 8000 VCSH BKN017 FEW023CB BKN200 29/24Q1010 A2983 HR73 RESHRA CB/SH W/NW=METAR SLSR 121700Z 32015G25KT 9999 SCT015 BKN080 30/23 Q1008 A2978HR67 RWY NML=METAR SLSM 121700Z 33012KT 8000 VCSH BKN017 FEW023CB 29/24 Q1009A2982 HR75 CB/SH NE/SE/S/SW RWY NML=
ZPX0506 121704@CAELT@GG SLZZYMYT@CAELT@121704 SLTRYGYS@CAELT@SABO SLTR 121700 CCA@CAELT@METAR SLTR 121700Z 32013KT 9999 SCT017 FEW020CB SCT200 31/24 Q1009@CAELT@A2981 991.1 HR66 CB/SH E TEMPO SHRA=@CAELT@METAR SLGM 121700Z NIL=@CAELT@METAR SLRI 121700Z 03012KT 9999 SCT017 BKN080 31/23 Q1011 A2988@CAELT@HR64=METAR COR SLJO 121700Z 34012KT 8000 VCSH SCT015 FEW020CB BKN20027/24 Q1010 A2984 HR84 CB/SH S RWY HUM OPR=METAR SLRA 121700Z 36015KT 9999 SCT017 BKN200 30/24 Q1011 A2986HR71 RWY NML=METAR SLMG 121700Z 34006KT 9999 FEW017 BKN080 27/23 Q1014 A2994HR79 RWY NML=METAR SLBU 121700Z NIL=METAR SLSA 121700Z 34016KT 8000 VCSH BKN017 FEW023CB BKN200 29/24Q1010 A2983 HR73 RESHRA CB/SH W/NW=METAR SLSR 121700Z 32015G25KT 9999 SCT015 BKN080 30/23 Q1008 A2978HR67 RWY NML=METAR SLSM 121700Z 33012KT 8000 VCSH BKN017 FEW023CB 29/24 Q1009A2982 HR75 CB/SH NE/SE/S/SW RWY NML=
ZPX0526 121750@CAELT@GG SLZZYMYT@CAELT@121750 SLRBYGYS@CAELT@SABO SLRB 121800@CAELT@METAR SLRB 121800Z 36010KT 9999 SCT020 34/23 Q1010 A2983 HR52 RWY NML=@CAELT@
ZPX0528 121754@CAELT@GG SLZZYMYT@CAELT@121752 SLETYMYC@CAELT@SABO SLET 121800@CAELT@METAR SLET 121800Z 31015G25KT 9999 BKN020 30/22 Q101008 A2977 HR65@CAELT@NOSIG=@CAELT@
ZPX0529 121754@CAELT@GG SLZZYMYT@CAELT@121755 SLSBYSYX@CAELT@SABO SLSB 121800@CAELT@METAR SLSB 121800Z 33010G20KT 9999 BKN020 32/24 Q1007 A2975 HR64 RWY@CAELT@NML=@CAELT@
ZPX0530 121755@CAELT@GG SLZZYMYT@CAELT@121755 SLVRYGYZ@CAELT@SABO SLVR 121800@CAELT@METAR SLVR 121800Z 36013G24KT 9999 FEW013 BKN017 32/23 Q1008 A2978@CAELT@HR60 AC NOSIG=@CAELT@
ZPX0532 121756@CAELT@GG SLZZYMYT@CAELT@121755 SLSAYGYS@CAELT@SABO SLSA 121800@CAELT@METAR SLSA 121800Z 34016KT 6000 VCSH SCT017 FEW023CB BKN200 26/25@CAELT@Q1009 A2980 HR92 RESHRA CB/SH E/SW/W/NW=@CAELT@
ZPX0533 121757@CAELT@GG SLZZYMYT@CAELT@121756 SLLPYFYA@CAELT@SABO SLRY 121700@CAELT@METAR SLRY 121700Z 32010KT 9999 SCT017 31/24 Q1007 A2976 HR64@CAELT@RWY NML=@CAELT@
ZPX0534 121757@CAELT@GG SLZZYMYT@CAELT@121756 SLLPYGYZ@CAELT@SABO SLLP 121800@CAELT@METAR SLLP 121800Z 15009KT 8000 VCTSSH SCT020 FEW023CB BKN200 16/M02@CAELT@Q1034 A3056 625.8 HR29 P94// CB/SH S/SW/W/NW TS SW/NW AC NOSIG=@CAELT@
ZPX0535 121757@CAELT@GG SLZZYMYT@CAELT@121757 SLVRYFYC@CAELT@SABO SLVR 121800@CAELT@METAR SLVR 121800Z 36013G24KT 9999 FEW013 BKN017 32/23 Q1008 A2978@CAELT@HR60 AC NOSIG=@CAELT@METAR SLET 121800Z 31015G25KT 9999 BKN020 30/22 Q101008 A2977 HR65@CAELT@NOSIG=@CAELT@METAR SLAS 121800Z 36010KT 8000 VCSH BKN013 27/24 Q1012 A2989 HR86 SHN/NE/E/S/SW RWY HUM OPR=METAR SLJV 121800Z 36015KT 9999 OVC012 24/23 Q1010 A2983 HR92 RERARWY WET OPR=METAR SLCP 121800Z 36005KT 9999 OVC010 24/21 Q1014 A2994 HR84 REDZMETAR SLSI 121800Z 33008KT 9999 BKN015 25/23 Q1012 A2988 HR88 RWY WETOPR=METAR SLTI 121800Z 36010KT 9999 BKN017 34/22 Q1012 A2988 HR47 RWY NMLMETAR SLJE 121800Z 32006KT 9999 BKN017 FEW027CB 32/23 Q1011 A2985HR59 CB SE/NW RWY NML=METAR SLVG 121800Z 36009KT 9999 SCT027 FEW030CB 28/12 Q1019 A3009HR34 CB E RWY NML=METAR SLRB 121800Z 36010KT 9999 SCT020 34/23 Q1010 A2983 HR52 RWY NMLMETAR SLCA 121800Z 36006KT 9999 SCT036 35/19 Q1007 A2974 HR41 RWY NML
ZPX0536 121757@CAELT@GG SLZZYMYT@CAELT@121757 SLTRYGYZ@CAELT@SABO SLTR 121800@CAELT@METAR SLTR 121800Z 31013KT 9999 FEW017 FEW020CB SCT200 32/24 Q1008@CAELT@A2977 989.8 HR63 CB SE NOSIG=@CAELT@
ZPX0537 121758@CAELT@GG SLZZYMYT@CAELT@121758 SLCAYGYS@CAELT@SABO SLCA 121800@CAELT@METAR SLCA 121800Z 36006KT 9999 SCT036 35/19 Q1007 A2974 HR41 RWY NML@CAELT@
ZPX0538 121759@CAELT@GG SLZZYMYT@CAELT@121759 SLTRYGYS@CAELT@SABO SLTR 121800@CAELT@METAR SLTR 121800Z 31013KT 9999 FEW017 FEW020CB SCT200 32/24 Q1008@CAELT@A2977 989.8 HR63 CB SE NOSIG=@CAELT@METAR SLGM 121800Z NIL=@CAELT@METAR SLRI 121800Z 03010KT 9999 SCT017 FEW020CB BKN080 32/23 Q1010@CAELT@A2985 HR61 CB DIST NW CI=METAR SLJO 121800Z NIL=METAR SLRA 121800Z 35014KT 8000 VCSH SCT017 FEW020CB BKN200 30/23Q1010 A2985 HR69 CB/SH NW RWY NML=METAR SLMG 121800Z 34010KT 9999 FEW017 BKN080 28/24 Q1010 A2984 HR78RWY NML=METAR SLBU 121800Z NIL=METAR SLSA 121800Z 34016KT 6000 VCSH SCT017 FEW023CB BKN200 26/25Q1009 A2980 HR92 RESHRA CB/SH E/SW/W/NW=METAR SLSR 121800Z 32015G25KT 8000 VCSH SCT017 FEW023CB BKN080 30/24Q1007 A2976 HR69 CB/SH N/W/NW RWY NML=METAR SLSM 121800Z 33012KT 9999 SCT017 32/24 Q1008 A2977 HR64 CB N
ZPX0540 121759@CAELT@GG SLZZYMYT@CAELT@121757 SLRQYSYX@CAELT@SABO SLRQ 121800@CAELT@METAR SLRQ 121800Z 34006KT 8000 VCSH BKN017 FEW020CB 31/25 Q1007@CAELT@A2976 HR71 CBW/NW=@CAELT@
ZPX0543 121800@CAELT@GG SLZZYMYT@CAELT@121800 SLVRYFYC@CAELT@SABO SLVR 121800 CCA@CAELT@METAR SLVR 121800Z 36013G24KT 9999 FEW013 BKN017 32/23 Q1008 A2978@CAELT@HR60 AC NOSIG=@CAELT@METAR COR SLET 121800Z 31015G25KT 9999 BKN020 30/22 Q1008 A2977 HR65@CAELT@NOSIG=@CAELT@METAR SLAS 121800Z 36010KT 8000 VCSH BKN013 27/24 Q1012 A2989 HR86 SHN/NE/E/S/SW RWY HUM OPR=METAR SLJV 121800Z 36015KT 9999 OVC012 24/23 Q1010 A2983 HR92 RERARWY WET OPR=METAR SLCP 121800Z 36005KT 9999 OVC010 24/21 Q1014 A2994 HR84 REDZMETAR SLSI 121800Z 33008KT 9999 BKN015 25/23 Q1012 A2988 HR88 RWY WETOPR=METAR SLTI 121800Z 36010KT 9999 BKN017 34/22 Q1012 A2988 HR47 RWY NMLMETAR SLJE 121800Z 32006KT 9999 BKN017 FEW027CB 32/23 Q1011 A2985HR59 CB SE/NW RWY NML=METAR SLVG 121800Z 36009KT 9999 SCT027 FEW030CB 28/12 Q1019 A3009HR34 CB E RWY NML=METAR SLRB 121800Z 36010KT 9999 SCT020 34/23 Q1010 A2983 HR52 RWY NMLMETAR SLCA 121800Z 36006KT 9999 SCT036 35/19 Q1007 A2974 HR41 RWY NML
ZPX0544 121800@CAELT@GG SLZZYMYT@CAELT@121759 SLCBYGYZ@CAELT@SABO SLCB 121800@CAELT@METAR SLCB 121800Z 25007KT 9999 FEW043 FEW046CB 30/04 Q1018 A3008 746@CAELT@.3 HR18 CB N/SW CI NOSIG=@CAELT@
ZPX0546 121801@CAELT@GG SLZZYMYT@CAELT@121801 SLCBYGYS@CAELT@SABO SLCB 121800@CAELT@METAR SLCB 121800Z 25007KT 9999 FEW043 FEW046CB 30/04 Q1018 A3008 746@CAELT@.3 HR18 CB N/SW CI NOSIG=@CAELT@METAR SLAL 121800Z NIL=@CAELT@METAR SLPO 121800Z NIL=@CAELT@METAR SLAG 121800Z NIL=METAR SLVM 121800Z NIL=METAR SLTJ 121800Z NIL=METAR SLYA 121800Z NIL=METAR SLBJ 121800Z NIL=METAR SLHI 121800Z NIL=
ZPX0547 121802@CAELT@GG SLZZYMYT@CAELT@121802 SLLPYFYA@CAELT@SABO SLLP 121800@CAELT@METAR SLLP 121800Z 15009KT 8000 VCTSSH SCT020 FEW023CB BKN200@CAELT@16/M02 Q1034 A3056 625.8 HR29 P94// CB/SH S/SW/W/NW TS SW/NW AC@CAELT@NOSIG=@CAELT@METAR SLRY 121800Z 32010KT 9999 SCT017 31/24 Q1007 A2976 HR64@CAELT@RWY NML=METAR SLRQ 121800Z 34006KT 8000 VCSH BKN017 FEW020CB 31/25Q1007 A2976 HR71 CBW/NW=METAR SLAP 121800Z 00000KT 9999 SCT025 29/23 Q1014 A2994855.1 HR70=METAR SLSB 121800Z 33010G20KT 9999 BKN020 32/24 Q1007 A2975HR64 RWY NML=
ZPX0564 121851@CAELT@GG SLZZYMYT@CAELT@121850 SLRBYGYS@CAELT@SABO SLRB 121900@CAELT@METAR SLRB 121900Z 36012KT 9999 SCT020 34/23 Q1009 A2980 HR52 RWY NML=@CAELT@
ZPX0565 121852@CAELT@GG SLZZYMYT@CAELT@121852 SLCAYGYS@CAELT@SABO SLCA 121900@CAELT@METAR SLCA 121900Z 36006KT 9999 SCT036 34/19 Q1006 A2971 HR41 RWY NML@CAELT@
ZPX0566 121852@CAELT@GG SLZZYMYT@CAELT@121852 SLETYMYC@CAELT@SABO SLET 121900@CAELT@METAR SLET 121900Z 33015G27KT 9999 BKN020 31/22 Q1007 A2974 HR59@CAELT@NOSIG=@CAELT@
ZPX0567 121855@CAELT@GG SLZZYMYT@CAELT@121855 SLSBYSYX@CAELT@SABO SLSB 121900@CAELT@METAR SLSB 121900Z 31010G20KT 9999 BKN020 32/24 Q1006 A2971 HR65 RWY@CAELT@NML=@CAELT@
ZPX0568 121856@CAELT@GG SLZZYMYT@CAELT@121855 SLLPYGYZ@CAELT@SABO SLLP 121900@CAELT@METAR SLLP 121900Z 05009KT 310V120 9999 SCT020 FEW023CB BKN200 16/M01@CAELT@Q1034 A3053 625.3 HR32 P94// RETS CB/SH S/SW/W/NW AC NOSIG=@CAELT@
ZPX0569 121856@CAELT@GG SLZZYMYT@CAELT@121855 SLSAYGYS@CAELT@SABO SLSA 121900@CAELT@METAR SLSA 121900Z 33014KT 7000 -RA FEW008 SCT017 FEW023CB BKN200 25/@CAELT@24 Q1009 A2980 HR94 CB/E.SE=@CAELT@
ZPX0570 121856@CAELT@GG SLZZYMYT@CAELT@121856 SLCBYGYZ@CAELT@SABO SLCB 121900@CAELT@METAR SLCB 121900Z 22007KT 9999 FEW043 FEW046CB SCT200 32/04 Q1017@CAELT@A3003 745.2 HR17 CB SW/W/NW NOSIG=@CAELT@
ZPX0571 121856@CAELT@GG SLZZYMYT@CAELT@121856 SLTRYGYZ@CAELT@SABO SLTR 121900@CAELT@METAR SLTR 121900Z 31013KT 9999 FEW017 FEW020CB SCT200 32/24 Q1007@CAELT@A2974 988.7 HR62 CB NE/E/NW NOSIG=@CAELT@
ZPX0572 121856@CAELT@GG SLZZYMYT@CAELT@121856 SLVRYGYZ@CAELT@SABO SLVR 121900@CAELT@METAR SLVR 121900Z 34015KT 9999 FEW015 BKN020 30/23 Q1007 A2974 HR65@CAELT@AC NOSIG=@CAELT@
ZPX0575 121858@CAELT@GG SLZZYMYT@CAELT@121858 SLTRYGYS@CAELT@SABO SLTR 121900@CAELT@METAR SLTR 121900Z 31013KT 9999 FEW017 FEW020CB SCT200 32/24 Q1007@CAELT@A2974 988.7 HR62 CB NE/E/NW NOSIG=@CAELT@METAR SLGM 121900Z NIL=@CAELT@METAR SLSA 121900Z 33014KT 7000 -RA FEW008 SCT017 FEW023CB BKN200 25/@CAELT@24 Q1009 A2980 HR94 CB/E.SE=METAR SLRI 121900Z 06008KT 9999 SCT017 FEW020CB BKN200 31/23 Q1009A2981 HR63 CB DIST/SW AC=METAR SLJO 121900Z NIL=METAR SLRA 121900Z 32012KT 6000 -SHRA SCT017 FEW020CB SCT070 BKN20028/25 Q1010 A2983 HR84 CB NE/SE/SW/NW RWY HUM OPR=METAR SLMG 121900Z 34008KT 9999 FEW017 BKN080 28/24 Q1009 A2981 HR77RWY NML=METAR SLBU 121900Z NIL=METAR SLSR 121900Z 32015G25KT 8000 VCSH SCT017 FEW023CB BKN080 29/25Q1006 A2972 HR77 RESHRA CB N/NE/E RWY NML=METAR SLSM 121900Z 33012KT 9999 SCT017 FEW023CB 32/24 Q1007 A2974HR62 CB N RWY NML=
ZPX0576 121859@CAELT@GG SLZZYMYT@CAELT@121858 SLTRYGYS@CAELT@SABO SLTR 121900@CAELT@METAR SLTR 121900Z 31013KT 9999 FEW017 FEW020CB SCT200 32/24 Q1007@CAELT@A2974 988.7 HR62 CB NE/E/NW NOSIG=@CAELT@METAR SLGM 121900Z NIL=@CAELT@METAR SLSA 121900Z 33014KT 7000 -RA FEW008 SCT017 FEW023CB BKN200@CAELT@25/24 Q1009 A2980 HR94 CB/E/SE=METAR SLRI 121900Z 06008KT 9999 SCT017 FEW020CB BKN200 31/23 Q1009A2981 HR63 CB DIST/SW AC=METAR SLJO 121900Z NIL=METAR SLRA 121900Z 32012KT 6000 -SHRA SCT017 FEW020CB SCT070 BKN20028/25 Q1010 A2983 HR84 CB NE/SE/SW/NW RWY HUM OPR=METAR SLMG 121900Z 34008KT 9999 FEW017 BKN080 28/24 Q1009 A2981 HR77RWY NML=METAR SLBU 121900Z NIL=METAR SLSR 121900Z 32015G25KT 8000 VCSH SCT017 FEW023CB BKN080 29/25Q1006 A2972 HR77 RESHRA CB N/NE/E RWY NML=METAR SLSM 121900Z 33012KT 9999 SCT017 FEW023CB 32/24 Q1007 A2974HR62 CB N RWY NML=
ZPX0577 121859@CAELT@GG SLZZYMYT@CAELT@121858 SLLPYFYA@CAELT@SABO SLRY 121900@CAELT@METAR SLRY 121900Z 32014KT 9999 SCT020 32/24 Q1007 A2974 HR63@CAELT@RWY NML=@CAELT@
ZPX0579 121900@CAELT@GG SLZZYMYT@CAELT@121900 SLVRYFYC@CAELT@SABO SLVR 121900@CAELT@METAR SLVR 121900Z 34015KT 9999 FEW015 BKN020 30/23 Q1007 A2974 HR65@CAELT@AC NOSIG=@CAELT@METAR SLET 121900Z 33015G27KT 9999 BKN020 31/22 Q1007 A2974 HR59@CAELT@NOSIG=@CAELT@METAR SLAS 121900Z 36012KT 9999 BKN017 FEW030CB 28/23 Q1012 A2988HR76 SH N/NE RWY NML=METAR SLJV 121900Z 36012KT 9999 BKN012 26/23 Q1009 A2980 HR82 RWY WETOPR=METAR SLCP 121900Z 36005KT 9999 BKN010 OVC070 25/21 Q1013 A2991 HR81RWY WET OPR=METAR SLSI 121900Z 33010KT 9999 BKN015 26/23 Q1010 A2983 HR81 RWY HUMMETAR SLTI 121900Z 34015KT 9999 BKN017 FEW030CB 32/23 Q1011 A2985HR58 CB/SH NW RWY NML=METAR SLJE 121900Z 32006KT 9999 SCT017 FEW027CB 33/23 Q1011 A2985HR57 CB SE RWY NML=METAR SLVG 121900Z 36015KT 9999 SCT027 FEW030CB 26/15 Q1018 A3006HR46 CB E/SE RWY NML=METAR SLRB 121900Z 36012KT 9999 SCT020 34/23 Q1009 A2980 HR52 RWY NMLMETAR SLCA 121900Z 36006KT 9999 SCT036 34/19 Q1006 A2971 HR41 RWY NML
ZPX0580 121900@CAELT@GG SLZZYMYT@CAELT@121900 SLLPYFYA@CAELT@SABO SLLP 121900@CAELT@METAR SLLP 121900Z 05009KT 310V120 9999 SCT020 FEW023CB BKN200@CAELT@16/M01 Q1034 A3053 625.3 HR32 P94// RETS CB/SH S/SW/W/NW@CAELT@AC NOSIG=@CAELT@METAR SLRY 121900Z 32014KT 9999 SCT020 32/24 Q1007 A2974 HR63@CAELT@RWY NML=METAR SLRQ 121900Z 33006KT 9999 BKN017 FEW020CB 31/25 Q1006A2972 HR70 CB/W/NW=METAR SLSB 121900Z 31010G20KT 9999 BKN020 32/24 Q1006 A2971HR65 RWY NML=
ZPX0581 121901@CAELT@GG SLZZYMYT@CAELT@121900 SLCBYGYS@CAELT@SABO SLCB 121900@CAELT@METAR SLCB 121900Z 22007KT 9999 FEW043 FEW046CB SCT200 32/04 Q1017@CAELT@A3003 745.2 HR17 CB SW/W/NW NOSIG=@CAELT@METAR SLAL 121900Z NIL=@CAELT@METAR SLPO 121900Z NIL=@CAELT@METAR SLAG 121900Z NIL=METAR SLVM 121900Z NIL=METAR SLTJ 121900Z NIL=METAR SLYA 121900Z NIL=METAR SLBJ 121900Z NIL=METAR SLHI 121900Z NIL=
ZPX0582 121902@CAELT@GG SLZZYMYT@CAELT@121901 SLCBYGYS@CAELT@METAR 121900@CAELT@METAR SLCB 121900Z 22007KT 9999 FEW043 FEW046CB SCT200 32/04 Q1017@CAELT@A3003 745.2 HR17 CB SW/W/NW NOSIG=@CAELT@METAR SLTR 121900Z 31013KT 9999 FEW017 FEW020CB SCT200 32/24 Q1007@CAELT@A2974 988.7 HR62 CB NE/E/NW NOSIG=@CAELT@METAR SLRI 121900Z 06008KT 9999 SCT017 FEW020CB BKN200 31/23 Q1009A2981 HR63 CB DIST/SW AC=METAR SLVR 121900Z 34015KT 9999 FEW015 BKN020 30/23 Q1007 A2974 HR65AC NOSIG=METAR SLET 121900Z 33015G27KT 9999 BKN020 31/22 Q1007 A2974 HR59NOSIG=METAR SLLP 121900Z 05009KT 310V120 9999 SCT020 FEW023CB BKN20016/M01 Q1034 A3053 625.3 HR32 P94// RETS CB/SH S/SW/W/NW
ZPX0587 121911@CAELT@GG SLZZYMYT@CAELT@121910 SLVRYFYC@CAELT@SABO SLVR 121900 CCB@CAELT@METAR SLVR 121900Z 34015KT 9999 FEW015 BKN020 30/23 Q1007 A2974 HR65@CAELT@AC NOSIG=@CAELT@METAR SLET 121900Z 33015G27KT 9999 BKN020 31/22 Q1007 A2974 HR59@CAELT@NOSIG=@CAELT@METAR COR SLAS 121900Z 36012KT 9999 BKN017 FEW030CB 28/23 Q1012 A2988HR76 CB N/NE RWY NML=METAR SLJV 121900Z 36012KT 9999 BKN012 26/23 Q1009 A2980 HR82 RWY WETOPR=METAR SLCP 121900Z 36005KT 9999 BKN010 OVC070 25/21 Q1013 A2991 HR81RWY WET OPR=METAR SLSI 121900Z 33010KT 9999 BKN015 26/23 Q1010 A2983 HR81 RWY HUMMETAR SLTI 121900Z 34015KT 9999 BKN017 FEW030CB 32/23 Q1011 A2985HR58 CB/SH NW RWY NML=METAR SLJE 121900Z 32006KT 9999 SCT017 FEW027CB 33/23 Q1011 A2985HR57 CB SE RWY NML=METAR SLVG 121900Z 36015KT 9999 SCT027 FEW030CB 26/15 Q1018 A3006HR46 CB E/SE RWY NML=METAR SLRB 121900Z 36012KT 9999 SCT020 34/23 Q1009 A2980 HR52 RWY NMLMETAR SLCA 121900Z 36006KT 9999 SCT036 34/19 Q1006 A2971 HR41 RWY NML
ZPX0589 121915@CAELT@GG SLZZYMYT@CAELT@121858 SLTRYGYS@CAELT@SABO SLTR 121900@CAELT@METAR SLTR 121900Z 31013KT 9999 FEW017 FEW020CB SCT200 32/24 Q1007@CAELT@A2974 988.7 HR62 CB NE/E/NW NOSIG=@CAELT@METAR SLGM 121900Z NIL=@CAELT@METAR SLSA 121900Z 33014KT 7000 -RA FEW008 SCT017 FEW023CB BKN200@CAELT@25/24 Q1009 A2980 HR94 CB/E/SE=METAR SLRI 121900Z 06008KT 9999 SCT017 FEW020CB BKN200 31/23 Q1009A2981 HR63 CB DIST/SW AC=METAR SLJO 121900Z NIL=METAR SLRA 121900Z 32012KT 6000 -SHRA SCT017 FEW020CB SCT070 BKN20028/25 Q1010 A2983 HR84 CB NE/SE/SW/NW RWY HUM OPR=METAR SLMG 121900Z 34008KT 9999 FEW017 BKN080 28/24 Q1009 A2981 HR77RWY NML=METAR SLBU 121900Z NIL=25/24 Q1009 A2980 HR94 CB/E.SE=METAR SLSR 121900Z 32015G25KT 8000 VCSH SCT017 FEW023CB BKN080 29/25Q1006 A2972 HR77 RESHRA CB N/NE/E RWY NML=METAR SLSM 121900Z 33012KT 9999 SCT017 FEW023CB 32/24 Q1007 A2974HR62 CB N RWY NML=
ZPX0590 121915@CAELT@GG SLZZYMYT@CAELT@121858 SLTRYGYS@CAELT@SABO SLTR 121900@CAELT@METAR SLTR 121900Z 31013KT 9999 FEW017 FEW020CB SCT200 32/24 Q1007@CAELT@A2974 988.7 HR62 CB NE/E/NW NOSIG=@CAELT@METAR SLGM 121900Z NIL=@CAELT@METAR SLSA 121900Z 33014KT 7000 -RA FEW008 SCT017 FEW023CB BKN200@CAELT@25/24 Q1009 A2980 HR94 CB/E/SE=METAR SLRI 121900Z 06008KT 9999 SCT017 FEW020CB BKN200 31/23 Q1009A2981 HR63 CB DIST/SW AC=METAR SLJO 121900Z NIL=METAR SLRA 121900Z 32012KT 6000 -SHRA SCT017 FEW020CB SCT070 BKN20028/25 Q1010 A2983 HR84 CB NE/SE/SW/NW RWY HUM OPR=METAR SLMG 121900Z 34008KT 9999 FEW017 BKN080 28/24 Q1009 A2981 HR77RWY NML=METAR SLBU 121900Z NIL=25/24 Q1009 A2980 HR94 CB/E.SE=METAR SLSR 121900Z 32015G25KT 8000 VCSH SCT017 FEW023CB BKN080 29/25Q1006 A2972 HR77 RESHRA CB N/NE/E RWY NML=METAR SLSM 121900Z 33012KT 9999 SCT017 FEW023CB 32/24 Q1007 A2974HR62 CB N RWY NML=
ZPX0605 121950@CAELT@GG SLZZYMYT@CAELT@121950 SLCAYGYS@CAELT@SABO SLCA 122000@CAELT@METAR SLCA 122000Z 36010KT 9999 SCT036 34/18 Q1005 A2968 HR38 RWY NML@CAELT@
ZPX0607 121953@CAELT@GG SLZZYMYT@CAELT@121952 SLRBYGYS@CAELT@SABO SLRB 122000@CAELT@METAR SLRB 122000Z 36015KT 9999 SCT020 35/23 Q1009 A2980 HR51 RWY NML=@CAELT@
ZPX0608 121955@CAELT@GG SLZZYMYT@CAELT@121955 SLVRYGYZ@CAELT@SABO SLVR 122000@CAELT@METAR SLVR 122000Z 36017KT 9999 FEW015 BKN020 30/23 Q1006 A2972 HR65@CAELT@NOSIG=@CAELT@
ZPX0610 121955@CAELT@GG SLZZYMYT@CAELT@121955 SLLPYGYZ@CAELT@SABO SLLP 122000@CAELT@METAR SLLP 122000Z 33014G26KT 9999 FEW020 SCT023CB BKN200 13/00 Q1033@CAELT@A3052 625.0 HR42 P4457 CB/SH E/SE/S/W/NW AC BECMG AT2045 33012KT=@CAELT@
ZPX0611 121957@CAELT@GG SLZZYMYT@CAELT@121955 SLSAYGYS@CAELT@SABO SLSA 122000@CAELT@METAR SLSA 122000Z 34007KT 8000 VCSH SCT017 FEW023CB SCT080 BKN200@CAELT@27/25 Q1007 A2976 HR89 RERA CB/SH E/SE=@CAELT@
ZPX0612 121957@CAELT@GG SLZZYMYT@CAELT@121956 SLCBYGYZ@CAELT@SABO SLCB 122000@CAELT@METAR SLCB 122000Z 29009KT 9999 FEW043 FEW046CB SCT200 30/04 Q1015@CAELT@A3000 744.2 HR18 CB S/W/NW/N AC NOSIG=@CAELT@
ZPX0613 121957@CAELT@GG SLZZYMYT@CAELT@121953 SLETYMYC@CAELT@SABO SLET 122000@CAELT@METAR SLET 122000Z 32015G26KT 9999 SCT020 FEW025TCU 31/22 Q1005 A2970@CAELT@HR60 TCU NE/E NOSIG=@CAELT@
ZPX0614 121958@CAELT@GG SLZZYMYT@CAELT@121956 SLLPYFYA@CAELT@SABO SLRY 122000@CAELT@METAR SLRY 122000Z 35012KT 9999 SCT020 32/24 Q1005 A2970 HR64@CAELT@RWY NML=@CAELT@
ZPX0615 121959@CAELT@GG SLZZYMYT@CAELT@121958 SLTRYGYZ@CAELT@SABO SLTR 122000@CAELT@METAR SLTR 122000Z 33018KT 5000 VCSH SCT017 FEW020CB SCT200 30/23@CAELT@Q1007 A2974 988.7 HR67 RESHRA CB/SH N/NE NOSIG=@CAELT@
ZPX0616 121959@CAELT@GG SLZZYMYT@CAELT@121959 SLVRYFYC@CAELT@SABO SLVR 122000@CAELT@METAR SLVR 122000Z 36017KT 9999 FEW015 BKN020 30/23 Q1006 A2972 HR65@CAELT@NOSIG=@CAELT@METAR SLET 122000Z 32015G26KT 9999 SCT020 FEW025TCU 31/22 Q1005 A2970@CAELT@HR60 TCU NE/E NOSIG=@CAELT@METAR SLAS 122000Z 36016KT 8000 VCSH BKN017 29/25 Q1010 A2983 HR76 SHNW/N/NE RWY NML=METAR SLJV 122000Z 36010KT 9999 BKN013 26/22 Q1008 A2977 HR79 RWY HUMOPR=METAR SLCP 122000Z 33005KT 9999 BKN012 BKN070 26/21 Q1012 A2988 HR77RWY HUM OPR=METAR SLSI 122000Z 34006KT 9999 SCT017 27/23 Q1009 A2980 HR76 RWY NMLMETAR SLTI 122000Z 35010KT 9999 BKN017 FEW030CB 31/21 Q1011 A2985HR57 CB NE/E RWY NML=METAR SLJE 122000Z 32008KT 9999 SCT017 32/22 Q1010 A2983 HR54 RWY NMLMETAR SLVG 122000Z 36012KT 9999 SCT027 FEW030CB 24/15 Q1018 A3006HR53 CB S RWY NML=METAR SLRB 122000Z 36015KT 9999 SCT020 35/23 Q1009 A2980 HR51 RWY NMLMETAR SLCA 122000Z 36010KT 9999 SCT036 34/18 Q1005 A2968 HR38 RWY NML
ZPX0617 121959@CAELT@GG SLZZYMYT@CAELT@121959 SLCBYGYS@CAELT@SABO SLCB 122000@CAELT@METAR SLCB 122000Z 29009KT 9999 FEW043 FEW046CB SCT200 30/04 Q1015@CAELT@A3000 744.2 HR18 CB S/W/NW/N AC NOSIG=@CAELT@METAR SLAL 122000Z NIL=@CAELT@METAR SLPO 122000Z NIL=@CAELT@METAR SLAG 122000Z NIL=METAR SLVM 122000Z NIL=METAR SLTJ 122000Z NIL=METAR SLYA 122000Z NIL=METAR SLBJ 122000Z NIL=METAR SLHI 122000Z NIL=
ZPX0618 122000@CAELT@GG SLZZYMYT@CAELT@122000 SLLPYFYA@CAELT@SABO SLLP 122000@CAELT@METAR SLLP 122000Z 33014G26KT 9999 FEW020 SCT023CB BKN200 13/00@CAELT@Q1033 A3052 625.0 HR42 P4457 CB/SH E/SE/S/W/NW AC BECMG@CAELT@AT2045 33012KT=@CAELT@METAR SLRY 122000Z 35012KT 9999 SCT020 32/24 Q1005 A2970 HR64@CAELT@RWY NML=METAR SLRQ 122000Z 35006KT 9999 BKN017 FEW020CB 31/25 Q1005A2969 HR73 CB/SW/W/NW=METAR SLSB 122000Z 33015G25KT 9999 SCT020 31/25 Q1005 A2970HR71 RWY NML=
ZPX0620 122001@CAELT@GG SLZZYMYT@CAELT@121959 SLTRYGYS@CAELT@SABO SLTR 122000@CAELT@METAR SLTR 122000Z 33018KT 5000 VCSH SCT017 FEW020CB SCT200 30/23@CAELT@Q1007 A2974 988.7 HR67 RESHRA CB/SH N/NE NOSIG=@CAELT@METAR SLGM 122000Z NIL=@CAELT@METAR SLRI 122000Z 09008KT 9999 FEW017 FEW020CB BKN200 31/23 Q1008@CAELT@A2978 HR64 CB E/SE/NW AC=METAR SLJO 122000Z NIL=METAR SLRA 122000Z 34010KT 8000 VCSH FEW017 FEW020CB BKN070 BKN20025/24 Q1009 A2980 HR92 RESHRA CB/SH SE RWY HUM OPR=METAR SLMG 122000Z 34006KT 8000 VCSH SCT017 FEW023CB BKN080 28/24Q1008 A2981 HR81 CB/SH W RWY NML=METAR SLBU 122000Z NIL=METAR SLSA 122000Z 34007KT 8000 VCSH SCT017 FEW023CB SCT080 BKN20027/25 Q1007 A2976 HR89 RERA CB/SH E/SE=METAR SLSR 122000Z 32015G25KT 6000 VCSH SCT017 FEW023CB BKN080 29/24Q1005 A2969 HR74 CB/SH NE/E/NW RWY NML=METAR SLSM 122000Z 33010KT 9999 SCT017 FEW023CB 30/24 Q1006 A2972HR70 CB NE RWY NML=
ZPX0641 122055@CAELT@GG SLZZYMYT@CAELT@122051 SLETYMYC@CAELT@SABO SLET 122100@CAELT@METAR SLET 122100Z 32014KT 9999 FEW015 SCT020 29/21 Q1005 A2969 HR62@CAELT@CI NOSIG=@CAELT@
ZPX0643 122055@CAELT@GG SLZZYMYT@CAELT@122055 SLVRYGYZ@CAELT@SABO SLVR 122100@CAELT@METAR SLVR 122100Z 35015KT 9999 FEW015 BKN020 29/22 Q1006 A2971 HR65@CAELT@NOSIG=@CAELT@
ZPX0644 122055@CAELT@GG SLZZYMYT@CAELT@122055 SLSBYSYX@CAELT@SABO SLSB 122100@CAELT@METAR SLSB 122100Z 35012KT 9999 FEW020 31/25 Q1004 A2967 HR70 RWY NML=@CAELT@
ZPX0645 122055@CAELT@GG SLZZYMYT@CAELT@122054 SLRBYGYS@CAELT@SABO SLRB 122100@CAELT@METAR SLRB 122100Z 36015KT 9999 SCT020 35/23 Q1009 A2980 HR51 RWY NML=@CAELT@
ZPX0646 122056@CAELT@GG SLZZYMYT@CAELT@122055 SLSAYGYS@CAELT@SABO SLSA 122100@CAELT@METAR SLSA 122100Z 34006KT 9999 FEW017 FEW023CB SCT080 BKN200 27/24@CAELT@Q1007 A2974 HR85 CB SE/NW=@CAELT@
ZPX0647 122056@CAELT@GG SLZZYMYT@CAELT@122056 SLTRYGYZ@CAELT@SABO SLTR 122100@CAELT@METAR SLTR 122100Z 33012KT 9999 FEW017 BKN200 27/25 Q1006 A2973@CAELT@988.2 HR90 NOSIG=@CAELT@
ZPX0648 122057@CAELT@GG SLZZYMYT@CAELT@122056 SLLPYGYZ@CAELT@SABO SLLP 122100@CAELT@METAR SLLP 122100Z 01010KT 9999 FEW020 SCT023CB SCT200 14/M01 Q1033@CAELT@A3051 624.8 HR36 P4754 CB/SH N/NE/SE/S/SW AC NOSIG=@CAELT@
ZPX0649 122058@CAELT@GG SLZZYMYT@CAELT@122057 SLLPYFYA@CAELT@SABO SLRY 122100@CAELT@METAR SLRY 122100Z 32010KT 9999 SCT020 31/24 Q1005 A2970 HR66@CAELT@RWY NML=@CAELT@
ZPX0650 122059@CAELT@GG SLZZYMYT@CAELT@122057 SLCBYGYZ@CAELT@SABO SLCB 122100@CAELT@METAR SLCB 122100Z 32015KT 9999 FEW040 FEW043CB BKN200 28/04 Q1015@CAELT@A2998 743.7 HR21 CB ON STN/SE/S/NW/N AC NOSIG=@CAELT@
ZPX0651 122059@CAELT@GG SLZZYMYT@CAELT@122058 SLTRYGYS@CAELT@SABO SLTR 122100@CAELT@METAR SLTR 122100Z 33012KT 9999 FEW017 BKN200 27/25 Q1006 A2973@CAELT@988.2 HR90 NOSIG=@CAELT@METAR SLGM 122100Z NIL=@CAELT@METAR SLRI 122100Z 09007KT 9999 FEW017 FEW020CB BKN200 30/23 Q1008@CAELT@A2977 HR67 CB SE/W/NW AC=METAR SLJO 122100Z NIL=METAR SLRA 122100Z 02006KT 9999 FEW017 SCT070 BKN200 27/24 Q1008A2977 HR81 RWY NML=METAR SLMG 122100Z 32004KT 9999 FEW017 FEW023CB SCT080 BKN200 27/24Q1008 A2978 HR85 RESHRA CB N RWY HUM OPR=METAR SLBU 122100Z NIL=METAR SLSA 122100Z 34006KT 9999 FEW017 FEW023CB SCT080 BKN200 27/24Q1007 A2974 HR85 CB SE/NW=METAR SLSR 122100Z 32015KT 8000 VCSH FEW017 FEW023CB BKN080 28/24Q1004 A2966 HR79 RESHRA CB/SH N/NE/NW RWY HUM OPR=METAR SLSM 122100Z 33014KT 9999 SCT017 29/24 Q1006 A2971 HR77RWY NML=
ZPX0652 122059@CAELT@GG SLZZYMYT@CAELT@122059 SLCAYGYS@CAELT@SABO SLCA 122100@CAELT@METAR 122100Z 36004KT 9999 SCT036 33/18 1005 A2965 HR37 RWY NML=@CAELT@
ZPX0654 122100@CAELT@GG SLZZYMYT@CAELT@122100 SLVRYFYC@CAELT@SABO SLVR 122100@CAELT@METAR SLVR 122100Z 35015KT 9999 FEW015 BKN020 29/22 Q1006 A2971 HR65@CAELT@NOSIG=@CAELT@METAR SLET 122100Z 32014KT 9999 FEW015 SCT020 29/21 Q1005 A2969 HR62@CAELT@CI NOSIG=@CAELT@METAR SLAS 122100Z 36010KT 9999 BKN020 29/25 Q1009 A2980 HR76 SH NW/N/NE RWY NML=METAR SLJV 122100Z 36010KT 9999 SCT015 26/22 Q1007 A2974 HR82 RWY HUMOPR=METAR SLCP 122100Z 33005KT 9999 SCT012 26/22 Q1012 A2988 HR81 RWY HUMMETAR SLSI 122100Z 36006KT 9999 BKN017 25/22 Q1008 A2977 HR84 RWY NMLMETAR SLTI 122100Z 00000KT 9999 BKN020 31/23 Q1011 A2985 HR62 RWY NMLMETAR SLJE 122100Z 32010KT 9999 SCT017 31/21 Q1010 A2983 HR56 RWY NMLMETAR SLVG 122100Z 36007KT 9999 SCT027 FEW030CB 22/14 Q1018 A3006HR61 CB W RWY NML=METAR SLRB 122100Z 36015KT 9999 SCT020 35/23 Q1009 A2980 HR51 RWY NMLMETAR SLCA 122100Z 36004KT 9999 SCT036 33/18 Q1005 A2965 HR37 RWY NML
ZPX0655 122100@CAELT@GG SLZZYMYT@CAELT@122100 SLLPYFYA@CAELT@SABO SLLP 122100@CAELT@METAR SLLP 122100Z 01010KT 9999 FEW020 SCT023CB SCT200 14/M01@CAELT@Q1033 A3051 624.8 HR36 P4754 CB/SH N/NE/SE/S/SW AC NOSIG=@CAELT@METAR SLRY 122100Z 32010KT 9999 SCT020 31/24 Q1005 A2970 HR66@CAELT@RWY NML=@CAELT@METAR SLRQ 122100Z 35006KT 9999 BKN017 FEW020CB 30/25 Q1004A2967 HR75 CB/SE/S/SW/W/NW=METAR SLSB 122100Z 35012KT 9999 FEW020 31/25 Q1004 A2967 HR70
ZPX0658 122105@CAELT@GG SLZZYMYT@CAELT@122105 SLCAYGYS@CAELT@SABO SLCA 122100 CCA@CAELT@METAR COR SLCA 122100Z 36004KT 9999 SCT036 33/18 Q1005 A2965 HR37 RWY@CAELT@NML=@CAELT@
ZPX0671 122153@CAELT@GG SLZZYMYT@CAELT@122153 SLCAYGYS@CAELT@SABO SLCA 122200@CAELT@METAR SLCA 122200Z 36006KT 9999 FEW036 SCT070 33/18 Q1007 A2974 HR38@CAELT@RWY NML=@CAELT@
ZPX0672 122153@CAELT@GG SLZZYMYT@CAELT@122152 SLETYMYC@CAELT@SABO SLET 122200@CAELT@METAR SLET 122200Z 32012KT 9999 SCT017 29/22 Q1005 A2969 HR65 NOSIG=@CAELT@
ZPX0674 122155@CAELT@GG SLZZYMYT@CAELT@122155 SLVRYGYZ@CAELT@SABO SLVR 122200@CAELT@METAR SLVR 122200Z 02013KT 9999 FEW015 SCT020 28/22 Q1006 A2971 HR71@CAELT@NOSIG=@CAELT@
ZPX0675 122155@CAELT@GG SLZZYMYT@CAELT@122155 SLSBYSYX@CAELT@SABO SLSB 122200@CAELT@METAR SLSB 122200Z 34007KT 9999 FEW020 29/23 Q1004 A2967 HR70 RWY NML=@CAELT@
ZPX0676 122155@CAELT@GG SLZZYMYT@CAELT@122154 SLSAYGYS@CAELT@SABO SLSA 122200@CAELT@METAR SLSA 122200Z 34006KT 8000 VCSH FEW017 FEW023CB BKN200 27/24@CAELT@Q1007 A2974 HR86 CB/SH W/NW=@CAELT@
ZPX0677 122155@CAELT@GG SLZZYMYT@CAELT@122155 SLRBYGYS@CAELT@SABO SLRB 122200@CAELT@METAR SLRB 122200Z 36015KT 9999 NSC 33/24 Q1009 A2980 HR59 RWY NML=@CAELT@
ZPX0678 122156@CAELT@GG SLZZYMYT@CAELT@122156 SLTRYGYZ@CAELT@SABO SLTR 122200@CAELT@METAR SLTR 122200Z 32012KT 9999 FEW020 SCT200 27/23 Q1005 A2970@CAELT@987.4 HR77 NOSIG=@CAELT@
ZPX0679 122157@CAELT@GG SLZZYMYT@CAELT@122156 SLCBYGYZ@CAELT@SABO SLCB 122200@CAELT@METAR SLCB 122200Z 06013KT 9999 TS FEW036 SCT040CB BKN200 28/05 Q1015@CAELT@A2999 744.1 HR23 CB NE/E/SE/S/SW TS NE/SE/S VIRGA SE/S AC NOSIG=@CAELT@
ZPX0680 122157@CAELT@GG SLZZYMYT@CAELT@122157 SLVRYFYC@CAELT@SABO SLVR 122200@CAELT@METAR SLVR 122200Z 02013KT 9999 FEW015 SCT020 28/22 Q1006 A2971 HR71@CAELT@NOSIG=@CAELT@METAR SLET 122200Z 32012KT 9999 SCT017 29/22 Q1005 A2969 HR65 NOSIG=@CAELT@METAR SLAS 122200Z 36010KT 9999 FEW020 27/24 Q1009 A2980 HR82 RWY NML@CAELT@METAR SLJV 122200Z 36008KT 9999 SCT015 25/22 Q1007 A2974 HR84 RWY NMLMETAR SLCP 122200Z 34005KT 9999 SCT015 25/22 Q1011 A2985 HR84 RWY HUMOPR=METAR SLSI 122200Z 36005KT 9999 SCT017 25/22 Q1008 A2977 HR85 RWY NMLMETAR SLTI 122200Z 00000KT 9999 SCT020 30/24 Q1011 A2985 HR70 RWY NMLMETAR SLJE 122200Z 33006KT 9999 FEW017 30/21 Q1009 A2980 HR59 RWY NMLMETAR SLRB 122200Z 36015KT 9999 NSC 33/24 Q1009 A2980 HR59 RWY NML=METAR SLCA 122200Z 36006KT 9999 FEW036 SCT070 33/18 Q1007 A2974 HR38RWY NML=
ZPX0681 122157@CAELT@GG SLZZYMYT@CAELT@122156 SLLPYGYZ@CAELT@SABO SLLP 122200@CAELT@METAR SLLP 122200Z 26014G27KT 230V290 6000 -TSRA FEW017 FEW020CB@CAELT@SCT070 BKN200 10/01 Q1035 A3056 626.0 HR52 P0487 CB/ON/STN NE/E/SE/S@CAELT@NOSIG=@CAELT@
ZPX0683 122200@CAELT@GG SLZZYMYT@CAELT@122158 SLLPYFYA@CAELT@SABO SLRY 122200@CAELT@METAR SLRY 122200Z 35006KT 9999 SCT020 29/24 Q1005 A2969 HR73@CAELT@RWY NML=@CAELT@
ZPX0684 122201@CAELT@GG SLZZYMYT@CAELT@122201 SLLPYFYA@CAELT@SABO SLLP 122200@CAELT@METAR SLLP 122200Z 26014G27KT 230V290 6000 -TSRA FEW017 FEW020CB@CAELT@SCT070 BKN200 10/01 Q1035 A3056 626.0 HR52 P0487 CB/ON/STN@CAELT@NE/E/SE/S NOSIG=@CAELT@METAR SLRY 122200Z 35006KT 9999 SCT020 29/24 Q1005 A2969 HR73@CAELT@RWY NML=METAR SLRQ 122200Z 3500KT 9999 SCT017 29/25 Q1005 A2968 HR77METAR SLSB 122200Z 34007KT 9999 FEW020 29/23 Q1004 A2967 HR70
ZPX0686 122203@CAELT@GG SLZZYMYT@CAELT@122200 SLTRYGYS@CAELT@SABO SLTR 122200@CAELT@METAR SLTR 122200Z 32012KT 9999 FEW020 SCT200 27/23 Q1005 A2970@CAELT@987.4 HR77 NOSIG=@CAELT@METAR SLGM 122200Z NIL=@CAELT@METAR SLRI 122200Z 34008KT 5000 -RA SCT017 FEW020CB BKN070 BKN200@CAELT@30/25 Q1008 A2977 HR75 CB N/W/NW=METAR SLJO 122200Z NIL=METAR SLRA 122200Z 33005KT 9999 FE017 BKN200 28/24 Q1007 A2976 HR80AC RWY NML=METAR SLMG 122200Z 00000KT 9999 FEW017 SCT080 BKN200 27/25 Q1007A2975 HR89 RWY HUM OPR=METAR SLBU 122200Z NIL=METAR SLSA 122200Z 34006KT 8000 VCSH FEW017 FEW023CB BKN200 27/24Q1007 A2974 HR86 CB/SH W/NW=METAR SLSR 122200Z 32010KT 8000 VCSH FEW017 FEW023CB SCT080 BKN20029/25 Q1004 A2966 HR77 CB/SH N/NE/NW RWY HUM OPR=METAR SLSM 122200Z 33008KT 9999 FEW017 28/24 Q1005 A2969 HR77RWY NML=
ZPX0687 122205@CAELT@GG SLZZYMYT@CAELT@122204 SLLPYFYA@CAELT@SABO SLLP 122200 CCA@CAELT@METAR SLLP 122200Z 26014G27KT 230V290 6000 -TSRA FEW017 FEW020CB@CAELT@SCT070 BKN200 10/01 Q1035 A3056 626.0 HR52 P0487 CB/ON/STN@CAELT@NE/E/SE/S NOSIG=@CAELT@METAR SLRY 122200Z 35006KT 9999 SCT020 29/24 Q1005 A2969 HR73@CAELT@RWY NML=METAR COR SLRQ 122200Z 35005KT 9999 SCT017 29/25 Q1005 A2968 HR77METAR SLSB 122200Z 34007KT 9999 FEW020 29/23 Q1004 A2967 HR70
ZPX0688 122206@CAELT@GG SLZZYMYT@CAELT@122200 SLTRYGYS@CAELT@SABO SLTR 122200@CAELT@METAR SLTR 122200Z 32012KT 9999 FEW020 SCT200 27/23 Q1005 A2970@CAELT@987.4 HR77 NOSIG=@CAELT@METAR SLGM 122200Z NIL=@CAELT@METAR SLRI 122200Z 34008KT 5000 -RA SCT017 FEW020CB BKN070 BKN200@CAELT@30/25 Q1008 A2977 HR75 CB N/W/NW=METAR SLJO 122200Z NIL=METAR SLRA 122200Z 33005KT 9999 FEW017 BKN200 28/24 Q1007 A2976 HR80AC RWY NML=METAR SLMG 122200Z 00000KT 9999 FEW017 SCT080 BKN200 27/25 Q1007A2975 HR89 RWY HUM OPR=METAR SLBU 122200Z NIL=METAR SLSA 122200Z 34006KT 8000 VCSH FEW017 FEW023CB BKN200 27/24Q1007 A2974 HR86 CB/SH W/NW=METAR SLSR 122200Z 32010KT 8000 VCSH FEW017 FEW023CB SCT080 BKN20029/25 Q1004 A2966 HR77 CB/SH N/NE/NW RWY HUM OPR=METAR SLSM 122200Z 33008KT 9999 FEW017 28/24 Q1005 A2969 HR77RWY NML=
ZPX0709 122250@CAELT@GG SLZZYMYT@CAELT@122250 SLCAYGYS@CAELT@SABO SLCA 122300@CAELT@METAR SLCA 122300Z 36004KT 9999 FEW036 BKN070 30/18 Q1008 A2977 HR49@CAELT@RWY NML=@CAELT@
ZPX0710 122254@CAELT@GG SLZZYMYT@CAELT@122253 SLRBYGYS@CAELT@SABO SLRB 122300@CAELT@METAR SLRB 122300Z 35005KT 9999 NSC 30/25 Q1009 A2980 HR73 RWY NML=@CAELT@
ZPX0711 122255@CAELT@GG SLZZYMYT@CAELT@122246 SLETYMYC@CAELT@SABO SLET 122300@CAELT@METAR SLET 122300Z 30010KT 6000 VCSH SCT012 BKN017 25/24 Q1006 A2971@CAELT@HR89 SH NW/N TEMPO SHRA=@CAELT@
ZPX0712 122255@CAELT@GG SLZZYMYT@CAELT@122255 SLVRYGYZ@CAELT@SABO SLVR 122300@CAELT@METAR SLVR 122300Z 36013KT 9999 SCT015 SCT020 27/23 Q1006 A2972 HR75@CAELT@TEMPO SHRA=@CAELT@
ZPX0714 122256@CAELT@GG SLLPZRZX@CAELT@122255 SLLPYGYZ@CAELT@SABO SLLP 122300@CAELT@METAR SLLP 122300Z 01013KT 330V050 9999 FEW015 FEW017CB SCT070 BKN200@CAELT@09/01 Q1034 A3053 625.3 HR57 RETSRA CB/SH N/SW/W/NW NOSIG=@CAELT@
ZPX0715 122256@CAELT@GG SLZZYMYT@CAELT@122255 SLSAYGYS@CAELT@SABO SLSA 122300@CAELT@METAR SLSA 122300Z 32014KT 8000 VCSH SCT017 FEW023CB BKN200 25/24@CAELT@Q1007 A2974 HR90 CB/SH W/NW=@CAELT@
ZPX0716 122256@CAELT@GG SLZZYMYT@CAELT@122255 SLSAYGYS@CAELT@SABO SLSA 122300@CAELT@METAR SLSA 122300Z 32014KT 8000 VCSH SCT017 FEW023CB BKN200 25/24@CAELT@Q1007 A2974 HR90 CB/SH W/NW=@CAELT@
ZPX0717 122256@CAELT@GG SLZZYMYT@CAELT@122256 SLTRYGYZ@CAELT@SABO SLTR 122300@CAELT@METAR SLTR 122300Z 34007KT 9999 FEW020 SCT200 26/23 Q1006 A2972@CAELT@987.9 HR82 NOSIG=@CAELT@
ZPX0718 122257@CAELT@GG SLZZYMYT@CAELT@122256 SLSBYSYX@CAELT@SABO SLSB 122300@CAELT@METAR SLSB 122300Z 35004KT 9999 FEW020 SCT200 28/24 Q1005 A2970 HR79@CAELT@RWY NML=@CAELT@
ZPX0719 122258@CAELT@GG SLZZYMYT@CAELT@122257 SLVRYFYC@CAELT@SABO SLVR 122300@CAELT@METAR SLVR 122300Z 36013KT 9999 SCT015 SCT020 27/23 Q1006 A2972 HR75@CAELT@TEMPO SHRA=@CAELT@METAR SLET 122300Z 30010KT 6000 VCSH SCT012 BKN017 25/24 Q1006 A2971@CAELT@HR89 SH NW/N TEMPO SHRA=@CAELT@METAR SLSI 122300Z 00000KT 9999 BKN017 23/21 Q1008 A2977 HR88 RWY NMLMETAR SLRB 122300Z 35005KT 9999 NSC 30/25 Q1009 A2980 HR73 RWY NML=METAR SLCA 122300Z 36004KT 9999 FEW036 BKN070 30/18 Q1008 A2977 HR49RWY NML=
ZPX0720 122259@CAELT@GG SLZZYMYT@CAELT@122258 SLCBYGYZ@CAELT@SABO SLCB 122300@CAELT@METAR SLCB 122300Z 06015KT 360V110 8000 -TSRA FEW036 FEW040CB SCT070@CAELT@BKN200 18/10 Q1019 A3011 747.3 HR58 CB/TS/LT/N/NE/E NOSIG=@CAELT@
ZPX0722 122301@CAELT@GG SLZZYMYT@CAELT@122300 SLTRYGYS@CAELT@SABO SLTR 122300@CAELT@METAR SLTR 122300Z 34007KT 9999 FEW020 SCT200 26/23 Q1006 A2972@CAELT@987.9 HR82 NOSIG=@CAELT@METAR SLRI 122300Z 33018G30KT 8000 VCSH BKN010 FEW020CB BKN200 27/25@CAELT@Q1009 A2982 HR88 CB/SH N/SW/W/NW LT/SW=@CAELT@METAR SLSA 122300Z 32014KT 8000 VCSH SCT017 FEW023CB BKN200 25/24Q1007 A2974 HR90 CB/SH W/NW=
ZPX0723 122302@CAELT@GG SLZZYMYT@CAELT@122301 SLLPYFYA@CAELT@SABO SLLP 122300@CAELT@METAR SLLP 122300Z 01013KT 330V050 9999 FEW015 FEW017CB SCT070@CAELT@BKN200 09/01 Q1034 A3053 625.3 HR57 RETSRA CB/SH N/SW/W/NW NOSIG=@CAELT@METAR SLSB 122300Z 35004KT 9999 FEW020 SCT200 28/24 Q1005 A2970@CAELT@HR79 RWY NML=@CAELT@
