
ZPX0013 170056@CAELT@GG SLLPZRZX@CAELT@170055 SLLPYGYZ@CAELT@SABO SLLP 170100@CAELT@METAR SLLP 170100Z 09008KT 9999 FEW006 FEW017CB BKN200 05/02 Q1039@CAELT@A3069 628.7 HR83 CB/LT SW/W/NW AC NOSIG=@CAELT@
ZPX0014 170058@CAELT@GG SLZZYMYT@CAELT@170057 SLCBYGYZ@CAELT@SABO SLCB 170100@CAELT@METAR SLCB 170100Z 28003KT 9999 FEW008 SCT025 BKN070 13/12 Q1029@CAELT@A3039 754.5 HR96 ST BAJOS/SE/S NOSIG=@CAELT@
ZPX0023 170154@CAELT@GG SLZZYMYT@CAELT@170155 SLVRYGYZ@CAELT@SABO SLVR 170200@CAELT@METAR SLVR 170200Z 34004KT 9999 NSC 22/19 Q1014 A2996 HR83 CI NOSIG=@CAELT@
ZPX0025 170156@CAELT@GG SLLPZRZX@CAELT@170155 SLLPYGYZ@CAELT@SABO SLLP 170200@CAELT@METAR SLLP 170200Z 09003KT 9999 FEW004 FEW017CB SCT070 BKN200 03/02@CAELT@Q1040 A3072 629.4 HR91 CB/LT W NOSIG=@CAELT@
ZPX0026 170157@CAELT@GG SLZZYMYT@CAELT@170157 SLCBYGYZ@CAELT@SABO SLCB 170200@CAELT@METAR SLCB 170200Z 00000KT 9999 FEW008 SCT025 SCT070 13/11 Q1029@CAELT@A3039 754.6 HR88 ST BAJOS/E/SE CI NOSIG=@CAELT@
ZPX0035 170255@CAELT@GG SLZZYMYT@CAELT@170255 SLVRYGYZ@CAELT@SABO SLVR 170300@CAELT@METAR SLVR 170300Z 32004KT 9999 NSC 22/20 Q1015 A2997 HR86 CI NOSIG=@CAELT@
ZPX0036 170255@CAELT@GG SLLPZRZX@CAELT@170255 SLLPYGYZ@CAELT@SABO SLLP 170300@CAELT@METAR SLLP 170300Z 32005KT 290V030 9999 FEW004 SCT070 BKN200 06/03@CAELT@Q1040 A3073 629.6 HR84 NOSIG=@CAELT@
ZPX0038 170300@CAELT@GG SLZZYMYT@CAELT@170300 SLCBYGYZ@CAELT@SABO SLCB 170300 RRA@CAELT@METAR RTD SLCB 170300Z 00000KT 8000 FEW008 SCT025 SCT200@CAELT@13/12 Q1029 A3039 754.6 HR96 ST BAJOS/NW/NE/E/SE NOSIG=@CAELT@
ZPX0039 170302@CAELT@GG SLZZYMYT@CAELT@170302 SLCBYGYZ@CAELT@SABO SLCB 170300 CCA@CAELT@METAR COR SLCB 170300Z 00000KT 8000 FEW008 SCT025 SCT200@CAELT@13/12 Q1028 A3037 754.1 HR96 ST BAJOS/NW/NE/E/SE AC NOSIG=@CAELT@
ZPX0047 170355@CAELT@GG SLZZYMYT@CAELT@170356 SLVRYGYZ@CAELT@SABO SLVR 170400@CAELT@METAR SLVR 170400Z 31005KT 9999 NSC 21/19 Q1014 A2996 HR87 CI NOSIG=@CAELT@
ZPX0048 170356@CAELT@GG SLLPZRZX@CAELT@170355 SLLPYGYZ@CAELT@SABO SLLP 170400@CAELT@METAR SLLP 170400Z 30005KT 270V330 9999 FEW004 SCT070 BKN200 06/03@CAELT@Q1040 A3071 629.3 HR82 NOSIG=@CAELT@
ZPX0049 170357@CAELT@GG SLZZYMYT@CAELT@170356 SLCBYGYZ@CAELT@SABO SLCB 170400@CAELT@METAR SLCB 170400Z 00000KT 8000 FEW006 BKN200 13/12 Q1027 A3034 753.2@CAELT@HR97 ST BAJOS TODAS DIRECC AC NOSIG=@CAELT@
ZPX0056 170454@CAELT@GG SLZZYMYT@CAELT@170455 SLVRYGYZ@CAELT@SABO SLVR 170500@CAELT@METAR SLVR 170500Z 28004KT 9999 NSC 21/19 Q1014 A2995 HR88 CI NOSIG=@CAELT@
ZPX0057 170455@CAELT@GG SLLPZRZX@CAELT@170455 SLLPYGYZ@CAELT@SABO SLLP 170500@CAELT@METAR SLLP 170500Z 26006KT 230V290 9999 FEW004 SCT070 BKN200 05/03@CAELT@Q1039 A3069 628.8 HR86 NOSIG=@CAELT@
ZPX0058 170457@CAELT@GG SLZZYMYT@CAELT@170457 SLCBYGYZ@CAELT@SABO SLCB 170500@CAELT@METAR SLCB 170500Z 36005KT 8000 FEW006 BKN200 13/12 Q1026 A3031 752.4@CAELT@HR95 ST BAJOS TODAS DIRECC AC FU NOSIG=@CAELT@
ZPX0065 170555@CAELT@GG SLLPZRZX@CAELT@170555 SLLPYGYZ@CAELT@SABO SLLP 170600@CAELT@METAR SLLP 170600Z 29008KT 9999 FEW004 SCT070 BKN200 05/02 Q1038@CAELT@A3068 628.5 HR83 NOSIG=@CAELT@
ZPX0066 170556@CAELT@GG SLZZYMYT@CAELT@170557 SLVRYGYZ@CAELT@SABO SLVR 170600@CAELT@METAR SLVR 170600Z 30003KT 9999 FEW070 SCT200 21/20 Q1013 A2993 HR91@CAELT@NOSIG=@CAELT@
ZPX0067 170557@CAELT@GG SLZZYMYT@CAELT@170557 SLCBYGYZ@CAELT@SABO SLCB 170600@CAELT@METAR SLCB 170600Z 34003KT 9000 FEW006 SCT200 12/12 Q1026 A3031 752.5@CAELT@HR96 ST BAJOS/NW/N/NE/SE AC FU NOSIG=@CAELT@
ZPX0074 170656@CAELT@GG SLLPZRZX@CAELT@170656 SLLPYGYZ@CAELT@SABO SLLP 170700@CAELT@METAR SLLP 170700Z 31008KT 270V330 9999 FEW006 SCT070 BKN200 04/02@CAELT@Q1038 A3065 628.0 HR85 NOSIG=@CAELT@
ZPX0075 170657@CAELT@GG SLZZYMYT@CAELT@170657 SLCBYGYZ@CAELT@SABO SLCB 170700@CAELT@METAR SLCB 170700Z 17004KT 7000 FEW006 SCT080 BKN200 12/12 Q1025@CAELT@A3029 752.0 HR96 ST BAJOS TODAS DIRECC FU NOSIG=@CAELT@
ZPX0076 170658@CAELT@GG SLZZYMYT@CAELT@170658 SLVRYGYZ@CAELT@SABO SLVR 170700@CAELT@METAR SLVR 170700Z 35003KT 9000 FEW070 SCT200 20/19 Q1012 A2991 HR90@CAELT@FU NOSIG=@CAELT@
ZPX0083 170757@CAELT@GG SLZZYMYT@CAELT@170757 SLVRYGYZ@CAELT@SABO SLVR 170800@CAELT@METAR SLVR 170800Z VRB02KT 9000 NSC 20/18 Q1013 A2992 HR90 FU CI@CAELT@NOSIG=@CAELT@
ZPX0084 170757@CAELT@GG SLZZYMYT@CAELT@170757 SLCBYGYZ@CAELT@SABO SLCB 170800@CAELT@METAR SLCB 170800Z 17004KT 8000 FEW006 SCT080 BKN200 12/12 Q1025@CAELT@A3029 752.0 HR98 ST BAJOS N/NE/E/SE FU NOSIG=@CAELT@
ZPX0085 170757@CAELT@GG SLLPZRZX@CAELT@170756 SLLPYGYZ@CAELT@SABO SLLP 170800@CAELT@METAR SLLP 170800Z 31006KT 270V360 9999 FEW006 SCT070 BKN200 05/03@CAELT@Q1037 A3063 627.5 HR86 NOSIG=@CAELT@
ZPX0094 170856@CAELT@GG SLZZYMYT@CAELT@170857 SLVRYGYZ@CAELT@SABO SLVR 170900@CAELT@METAR SLVR 170900Z 31005KT 9000 NSC 20/18 Q1013 A2992 HR89 FU CI@CAELT@NOSIG=@CAELT@
ZPX0095 170857@CAELT@GG SLLPZRZX@CAELT@170858 SLLPYGYZ@CAELT@SABO SLLP 170900@CAELT@METAR SLLP 170900Z VRB02KT 9999 FEW006 SCT070 BKN200 05/02 Q1037@CAELT@A3063 627.5 HR85 NOSIG=@CAELT@
ZPX0096 170857@CAELT@GG SLZZYMYT@CAELT@170857 SLCBYGYZ@CAELT@SABO SLCB 170900@CAELT@METAR SLCB 170900Z 30003KT 7000 FEW005 SCT080 BKN200 12/11 Q1026@CAELT@A3030 752.2 HR98 ST BAJOS TODAS DIRECC BR BECMG 4000=@CAELT@
ZPX0104 170953@CAELT@GG SLZZYMYT@CAELT@170953 SLSAYGYS@CAELT@SABO SLSA 171000@CAELT@METAR SLSA 171000Z 00000KT 5000 BR SCT080 BKN200 21/21@CAELT@Q1011 A2986 HR98 FU=@CAELT@
ZPX0105 170954@CAELT@GG SLZZYMYT@CAELT@170955 SLCOYGYZ@CAELT@SABO SLCO 171000@CAELT@METAR SLCO 171000Z 00000KT 3000 FU SCT080 24/23 Q1012 A2989 984.6@CAELT@HR96=@CAELT@
ZPX0106 170955@CAELT@GG SLZZYMYT@CAELT@170952 SLLPYFYA@CAELT@SABO SLRY 151000@CAELT@METAR SLRY 151000Z 00000KT 9999 22/20 Q1009 A2979 HR79@CAELT@RWY NML=@CAELT@
ZPX0107 170956@CAELT@GG SLZZYMYT@CAELT@170955 SLLPYFYA@CAELT@SABO SLRY 171000@CAELT@METAR SLRY 171000Z 00000KT 9999 22/20 Q1009 A2979 HR79@CAELT@RWY NML=@CAELT@
ZPX0108 170956@CAELT@GG SLZZYMYT@CAELT@170956 SLLPYGYZ@CAELT@SABO SLLP 171000@CAELT@METAR SLLP 171000Z VRB02KT 8000 FEW006 SCT070 BKN200 04/02 Q1038@CAELT@A3065 628.0 HR88 P91// FU NOSIG=@CAELT@
ZPX0109 170956@CAELT@GG SLZZYMYT@CAELT@170956 SLCAYGYS@CAELT@SABO SLCA 171000@CAELT@METAR SLCA 171000Z 00000KT 9999 BKN070 21/15 Q1016 A3000 HR69 FU RWY@CAELT@NML=@CAELT@
ZPX0110 170956@CAELT@GG SLZZYMYT@CAELT@170957 SLVRYGYZ@CAELT@SABO SLVR 171000@CAELT@METAR SLVR 171000Z 31005KT 9000 FEW070 SCT200 20/18 Q1013 A2993 HR89@CAELT@FU NOSIG=@CAELT@
ZPX0111 170957@CAELT@GG SLZZYMYT@CAELT@170956 SLRQYSYX@CAELT@SABO SLRQ 171000@CAELT@METAR SLRQ 171000Z 00000KT 9999 FEW008 BKN070 20/20 Q1011 A2988 HR97=@CAELT@
ZPX0112 170957@CAELT@GG SLZZYMYT@CAELT@170957 SLTRYGYZ@CAELT@SABO SLTR 171000@CAELT@METAR SLTR 171000Z 00000KT 5000 BR SCT080 BKN200 22/22 Q1011 A2988@CAELT@993.4 HR97 NOSIG=@CAELT@
ZPX0113 170958@CAELT@GG SLZZYMYT@CAELT@170957 SLCBYGYZ@CAELT@SABO SLCB 171000@CAELT@METAR SLCB 171000Z 33003KT 4000 2000SE BR FEW005 BKN080 12/12 Q1026@CAELT@A3031 752.6 HR99 ST BAJOS SE/S TEMPO 1000FG=@CAELT@
ZPX0115 171000@CAELT@GG SLZZYMYT@CAELT@170959 SLLPYFYA@CAELT@SABO SLLP 171000@CAELT@METAR SLLP 171000Z VRB02KT 8000 FEW006 SCT070 BKN200 04/02 Q1038@CAELT@A3065 628.0 HR88 P91// FU NOSIG=@CAELT@METAR SLCO 171000Z 00000KT 3000 FU SCT080 24/23 Q1012 A2989 984.6@CAELT@HR96=@CAELT@METAR SLRY 171000Z 00000KT 9999 NSC 22/20 Q1009 A2979 HR79RWY NML=METAR SLRQ 171000Z 00000KT 9999 FEW008 BKN070 20/20 Q1011A2988 HR97=
ZPX0116 171001@CAELT@GG SLZZYMYT@CAELT@170958 SLSBYSYX@CAELT@SABO SLSB 171000@CAELT@METAR SLSB 171000Z 00000KT 5000 BR FEW017 21/21 Q1012 A2990 HR100@CAELT@RWY WET OPR C210=@CAELT@
ZPX0118 171003@CAELT@GG SLZZYMYT@CAELT@171002 SLLPYFYA@CAELT@SABO SLLP 171000 RRA@CAELT@METAR SLLP 171000Z VRB02KT 8000 FEW006 SCT070 BKN200 04/02 Q1038@CAELT@A3065 628.0 HR88 P91// FU NOSIG=@CAELT@METAR SLCO 171000Z 00000KT 3000 FU SCT080 24/23 Q1012 A2989 984.6@CAELT@HR96=@CAELT@METAR SLRY 171000Z 00000KT 9999 NSC 22/20 Q1009 A2979 HR79RWY NML=METAR SLRQ 171000Z 00000KT 9999 FEW008 BKN070 20/20 Q1011A2988 HR97=METAR RTD SLSB 171000Z 00000KT 5000 BR FEW017 21/21 Q1012 A2990HR100 RWY WET OPR C210=
ZPX0119 171003@CAELT@GG SLZZYMYT@CAELT@171000 SLTRYGYS@CAELT@SABO SLTR 171000@CAELT@METAR SLTR 171000Z 00000KT 5000 BR SCT080 BKN200 22/22 Q1011 A2988@CAELT@993.4 HR97 NOSIG=@CAELT@METAR SLGM 171000Z 00000KT 2000 FU BKN080 23/23 Q1011 A2987 HR98=@CAELT@METAR SLSA 171000Z 00000KT 5000 BR SCT080 BKN200 21/21 Q1011 A2986@CAELT@HR98 FU=
ZPX0120 171003@CAELT@GG SLZZYMYT@CAELT@171000 SLVRYGYS@CAELT@SABO SLVR 171000@CAELT@METAR SLVR 171000Z 31005KT 9000 FEW070 SCT200 20/18 Q1013 A2993 HR89@CAELT@FU NOSIG=@CAELT@METAR SLET 171000Z NIL=@CAELT@METAR SLCP 171000Z 00000KT 8000 BKN070 21/20 Q1016 A3000 HR98 FU RWY@CAELT@NML=METAR SLSI 171000Z 00000KT 6000 NSC 21/20 Q1013 A2991 HR92 FU RWY NMLMETAR SLRB 171000Z 00000KT 9999 NSC 22/19 Q1015 A2997 HR86 RWY NML=METAR SLCA 171000Z 00000KT 9999 BKN070 21/15 Q1016 A3000 HR69 FU RWY
ZPX0121 171006@CAELT@GG SLZZYMYT@CAELT@171005 SLLPYFYA@CAELT@SABO SLLP 171000 RRB@CAELT@METAR SLLP 171000Z VRB02KT 8000 FEW006 SCT070 BKN200 04/02 Q1038@CAELT@A3065 628.0 HR88 P91// FU NOSIG=@CAELT@METAR SLCO 171000Z 00000KT 3000 FU SCT080 24/23 Q1012 A2989 984.6@CAELT@HR96=@CAELT@METAR SLRY 171000Z 00000KT 9999 NSC 22/20 Q1009 A2979 HR79RWY NML=METAR SLRQ 171000Z 00000KT 9999 FEW008 BKN070 20/20 Q1011A2988 HR97=METAR SLSB 171000Z 00000KT 5000 BR FEW017 21/21 Q1012 A2990HR100 RWY WET OPR C210=METAR RTD SLAP 171000Z 00000KT 9999 BKN015 OVC070 16/16 Q1019A3011 859.9 HR98=
ZPX0123 171020@CAELT@GG SLZZYMYT@CAELT@171019 SLETYMYC@CAELT@SABO SLET 171000@CAELT@METAR SLET 171000Z 30007KT 9999 FEW070 21/18 Q1013 A2991 HR83 NOSIG=@CAELT@
ZPX0125 171025@CAELT@GG SLZZYMYT@CAELT@171025 SLVRYGYS@CAELT@SABO SLVR 171000 RRA@CAELT@METAR SLVR 171000Z 31005KT 9000 FEW070 SCT200 20/18 Q1013 A2993 HR89@CAELT@FU NOSIG=@CAELT@METAR RTD SLET 171000Z 30007KT 9999 FEW070 21/18 Q1013 A2991 HR83@CAELT@NOSIG=@CAELT@METAR SLCP 171000Z 00000KT 8000 BKN070 21/20 Q1016 A3000 HR98 FU RWYNML=METAR SLSI 171000Z 00000KT 6000 NSC 21/20 Q1013 A2991 HR92 FU RWY NMLMETAR SLRB 171000Z 00000KT 9999 NSC 22/19 Q1015 A2997 HR86 RWY NML=METAR SLCA 171000Z 00000KT 9999 BKN070 21/15 Q1016 A3000 HR69 FU RWY
ZPX0141 171054@CAELT@GG SLZZYMYT@CAELT@171055 SLCOYGYZ@CAELT@SABO SLCO 171100@CAELT@METAR SLCO 171100Z 00000KT 3000 FU SCT080 24/23 Q1012 A2990 985.2@CAELT@HR93 CI=@CAELT@
ZPX0142 171054@CAELT@GG SLZZYMYT@CAELT@171054 SLSBYSYX@CAELT@SABO SLSB 171100@CAELT@METAR SLSB 171100Z 00000KT 0300 FG FEW017 21/21 Q1012 A2991 HR100@CAELT@RWY WET OPR C210=@CAELT@
ZPX0143 171054@CAELT@GG SLZZYMYT@CAELT@171055 SLSAYGYS@CAELT@SABO SLSA 171100@CAELT@METAR SLSA 171100Z 00000KT 6000 SCT080 BKN200 21/21 Q1011 A2988@CAELT@HR98 FU=@CAELT@
ZPX0144 171055@CAELT@GG SLZZYMYT@CAELT@171055 SLRQYSYX@CAELT@SABO SLRQ 171100@CAELT@METAR SLRQ 171100Z 00000KT 9999 FEW008 BKN070 21/21 Q1012 A2990 988.5@CAELT@HR98=@CAELT@
ZPX0145 171055@CAELT@GG SLZZYMYT@CAELT@171055 SLLPYFYA@CAELT@SABO SLRY 171100@CAELT@METAR SLRY 171100Z 00000KT 9999 BKN070 20/20 Q1009 A2982 HR98@CAELT@RWY HUM OP C210=@CAELT@
ZPX0146 171056@CAELT@GG SLZZYMYT@CAELT@171056 SLTRYGYZ@CAELT@SABO SLTR 171100@CAELT@METAR SLTR 171100Z 00000KT 9999 SCT080 SCT200 23/22 Q1013 A2992@CAELT@994.5 HR93 NOSIG=@CAELT@
ZPX0147 171056@CAELT@GG SLZZYMYT@CAELT@171056 SLVRYGYZ@CAELT@SABO SLVR 171100@CAELT@METAR SLVR 171100Z 32006KT 9999 FEW070 SCT200 22/19 Q1014 A2995 HR87@CAELT@FU NOSIG=@CAELT@
ZPX0149 171057@CAELT@GG SLZZYMYT@CAELT@171057 SLETYMYC@CAELT@SABO SLET 171100@CAELT@METAR SLET 171100Z 30008KT 9999 FEW070 23/19 Q1013 A2993 HR81 NOSIG=@CAELT@
ZPX0150 171057@CAELT@GG SLZZYMYT@CAELT@171056 SLCBYGYZ@CAELT@SABO SLCB 171100@CAELT@METAR SLCB 171100Z 28003KT 7000 3000SE BR FEW010 BKN080 12/12 Q1027@CAELT@A3034 753.2 HR99 VIS RED SE FU CI BECMG 5000=@CAELT@
ZPX0151 171058@CAELT@GG SLZZYMYT@CAELT@171057 SLCBYGYS@CAELT@SABO SLCB 171100@CAELT@METAR SLCB 171100Z 28003KT 7000 3000SE BR FEW010 BKN080 12/12 Q1027@CAELT@A3034 753.2 HR99 VIS RED SE FU CI BECMG 5000=@CAELT@
ZPX0152 171058@CAELT@GG SLZZYMYT@CAELT@171058 SLLPYGYZ@CAELT@SABO SLLP 171100@CAELT@METAR SLLP 171100Z 06004KT 040V100 4000E VCFG FEW004 SCT070 BKN200 04@CAELT@/03 Q1038 A3068 628.5 HR92 P92// VCFG NE/E/SE FU NOSIG=@CAELT@
ZPX0153 171058@CAELT@GG SLZZYMYT@CAELT@171058 SLVRYGYS@CAELT@SABO SLVR 171100@CAELT@METAR SLVR 171100Z 32006KT 9999 FEW070 SCT200 22/19 Q1014 A2995 HR87@CAELT@FU NOSIG=@CAELT@METAR SLET 171100Z 30008KT 9999 FEW070 23/19 Q1013 A2993 HR81 NOSIG=@CAELT@METAR SLAS 171100Z 00000KT 3000 BR NSC 22/21 Q1015 A2997 HR95 RWY NML@CAELT@METAR SLJV 171100Z 00000KT 8000 NSC 21/20 Q1012 A2988 HR95 FU RWY NMLMETAR SLCP 171100Z 00000KT 8000 SCT070 22/21 Q1016 A3000 HR97 FU RWYNML=METAR SLSI 171100Z 00000KT 6000 NSC 22/19 Q1013 A2991 HR85 FU RWY NMLMETAR SLTI 171100Z 00000KT 3000 FU NSC 25/21 Q1016 A3000 HR79 RWY NMLMETAR SLJE 171100Z 00000KT 7000 NSC 25/21 Q1016 A3000 HR78 FU RWY NMLMETAR SLRB 171100Z 00000KT 9999 NSC 23/20 Q1015 A2997 HR83 RWY NML=METAR SLCA 171100Z 00000KT 9999 SCT070 21/16 Q1017 A3003 HR75 FU RWY
ZPX0154 171100@CAELT@GG SLZZYMYT@CAELT@171059 SLTRYGYS@CAELT@SABO SLTR 171100@CAELT@METAR SLTR 171100Z 00000KT 9999 SCT080 SCT200 23/22 Q1013 A2992@CAELT@994.5 HR93 NOSIG=@CAELT@METAR SLGM 171100Z 00000KT 2000 FU BKN080 23/23 Q1012 A2988 HR98=@CAELT@METAR SLSA 171100Z 00000KT 6000 SCT080 BKN200 21/21 Q1011 A2988 HR98@CAELT@
ZPX0155 171101@CAELT@GG SLZZYMYT@CAELT@171100 SLLPYFYA@CAELT@SABO SLLP 171100@CAELT@METAR SLLP 171100Z 06004KT 040V100 4000E VCFG FEW004 SCT070 BKN200@CAELT@04/03 Q1038 A3068 628.5 HR92 P92// VCFG NE/E/SE FU NOSIG=@CAELT@METAR SLCO 171100Z 00000KT 3000 FU SCT080 24/23 Q1012 A2990 985.2@CAELT@HR93 CI=@CAELT@METAR SLRY 171100Z 00000KT 9999 BKN070 20/20 Q1009 A2982 HR98RWY HUM OP C210=METAR SLRQ 171100Z 00000KT 9999 FEW008 BKN070 21/21 Q1012 A2990988.5 HR98=METAR SLSB 171100Z 00000KT 0300 FG FEW017 21/21 Q1012 A2991 HR100RWY WET OPR C210=
ZPX0181 171152@CAELT@GG SLZZYMYT@CAELT@171152 SLSBYSYX@CAELT@SABO SLSB 171200@CAELT@METAR SLSB 171200Z 00000KT 0500 FG OVC004 22/22 Q1013 A2993 HR100@CAELT@RWY WET OPR C210=@CAELT@
ZPX0182 171153@CAELT@GG SLZZYMYT@CAELT@171152 SLETYMYC@CAELT@SABO SLET 171200@CAELT@METAR SLET 171200Z 31010KT 9999 FEW070 25/21 Q1013 A2994 HR79 NOSIG=@CAELT@
ZPX0183 171154@CAELT@GG SLZZYMYT@CAELT@171155 SLVRYGYZ@CAELT@SABO SLVR 171200@CAELT@METAR SLVR 171200Z 31008KT 9999 FEW080 SCT200 25/21 Q1014 A2996 HR79@CAELT@FU NOSIG=@CAELT@
ZPX0184 171155@CAELT@GG SLZZYMYT@CAELT@171155 SLLPYGYZ@CAELT@SABO SLLP 171200@CAELT@METAR SLLP 171200Z VRB02KT 8000 FEW010 SCT070 BKN200 07/03 Q1039@CAELT@A3070 629.1 HR76 P91// FU NOSIG=@CAELT@
ZPX0186 171155@CAELT@GG SLZZYMYT@CAELT@171155 SLSAYGYS@CAELT@SABO SLSA 171200@CAELT@METAR SLSA 171200Z 19004KT 8000 SCT080 BKN200 24/23 Q1012 A2991@CAELT@HR91 FU=@CAELT@
ZPX0187 171155@CAELT@GG SLZZYMYT@CAELT@171155 SLCAYGYS@CAELT@SABO SLCA 171200@CAELT@METAR SLCA 171200Z 00000KT 9999 SCT070 25/17 Q1017 A3003 HR60 FU RWY@CAELT@NML=@CAELT@
ZPX0188 171156@CAELT@GG SLZZYMYT@CAELT@171156 SLVRYGYS@CAELT@SABO SLVR 171200@CAELT@METAR SLVR 171200Z 31008KT 9999 FEW080 SCT200 25/21 Q1014 A2996 HR79@CAELT@FU NOSIG=@CAELT@METAR SLET 171200Z 31010KT 9999 FEW070 25/21 Q1013 A2994 HR79 NOSIG=@CAELT@METAR SLAS 171200Z 00000KT 5000 FU NSC 24/21 Q1015 A2997 HR87 RWY NML@CAELT@METAR SLJV 171200Z 00000KT 9999 NSC 23/20 Q1013 A2991 HR87 FU RWY NMLMETAR SLCP 171200Z 00000KT 9000 NSC 24/22 Q1017 A3003 HR88 FU RWY NMLMETAR SLSI 171200Z 00000KT 8000 NSC 24/20 Q1014 A2994 HR76 FU RWY NMLMETAR SLTI 171200Z 00000KT 3000 FU NSC 28/21 Q1017 A3003 HR66 RWY NMLMETAR SLJE 171200Z 00000KT 7000 NSC 28/22 Q1017 A3003 HR70 FU RWY NMLMETAR SLVG 171200Z 00000KT 9999 SCT070 17/14 Q1025 A3027 HR86 FU RWYNML=METAR SLRB 171200Z 00000KT 9999 NSC 26/22 Q1016 A3000 HR78 RWY NML=METAR SLCA 171200Z 00000KT 9999 SCT070 25/17 Q1017 A3003 HR60 FU RWY
ZPX0190 171156@CAELT@GG SLZZYMYT@CAELT@171155 SLRQYSYX@CAELT@SABO SLRQ 171200@CAELT@METAR SLRQ 171200Z 00000KT 9999 FEW008 BKN070 23/22 Q1013 A2993 989.3@CAELT@HR96=@CAELT@
ZPX0191 171157@CAELT@GG SLZZYMYT@CAELT@171156 SLTRYGYZ@CAELT@SABO SLTR 171200@CAELT@METAR SLTR 171200Z 00000KT 9999 SCT080 25/22 Q1014 A2994 995.4@CAELT@HR86 FU CI NOSIG=@CAELT@
ZPX0192 171157@CAELT@GG SLZZYMYT@CAELT@171156 SLTJYGYZ@CAELT@SABO SLTJ 171200@CAELT@METAR SLTJ 171200Z 00000KT 8000 FEW017 BKN070 17/15 Q1021 A3018 816.5@CAELT@HR84 FU CI=@CAELT@
ZPX0193 171157@CAELT@GG SLZZYMYT@CAELT@171156 SLCBYGYZ@CAELT@SABO SLCB 171200@CAELT@METAR SLCB 171200Z 00000KT 4000SE BR FU FEW018 BKN080 15/12 Q1027@CAELT@A3035 753.6 HR84 VIS RED SE/S RESTO 7000 CI BECMG 8000=@CAELT@
ZPX0194 171158@CAELT@GG SLZZYMYT@CAELT@171158 SLTRYGYS@CAELT@SABO SLTR 171200@CAELT@METAR SLTR 171200Z 00000KT 9999 SCT080 25/22 Q1014 A2994 995.4 HR86@CAELT@FU CI NOSIG=@CAELT@METAR SLGM 171200Z 18005KT 4000 FU SCT080 25/24 Q1012 A2989 HR92=@CAELT@METAR SLRI 171200Z 00000KT 5000 FU BKN080 24/22 Q1014 A2995 HR88=@CAELT@METAR SLSA 171200Z 19004KT 8000 SCT080 BKN200 24/23 Q1012 A2991 HR91
ZPX0195 171158@CAELT@GG SLZZYMYT@CAELT@171158 SLCOYGYZ@CAELT@SABO SLCO 171200@CAELT@METAR SLCO 171200Z 18004KT 5000 FU SCT080 26/24 Q1013 A2994 986.4@CAELT@HR88 CI=@CAELT@
ZPX0197 171200@CAELT@GG SLZZYMYT@CAELT@171159 SLLPYFYA@CAELT@SABO SLRY 171200@CAELT@METAR SLRY 171200Z 00000KT 9999 BKN070 22/21 Q1010 A2985 HR95@CAELT@RWY HUM OP C210=@CAELT@
ZPX0199 171201@CAELT@GG SLZZYMYT@CAELT@171201 SLCBYGYS@CAELT@SABO SLCB 171200@CAELT@METAR SLCB 171200Z 00000KT 4000SE BR FU FEW018 BKN080 15/12 Q1027@CAELT@A3035 753.6 HR84 VIS RED SE/S RESTO 7000 CI BECMG 8000=@CAELT@METAR SLAL 171200Z 00000KT 9999 FEW070 11/08 Q1031 A3045 705.1 HR80=@CAELT@METAR SLVM 171200Z 00000KT 9999 SCT070 26/17 Q1014 A2995 HR61 FU CI=@CAELT@METAR SLTJ 171200Z 00000KT 8000 FEW017 BKN070 17/15 Q1021 A3018 816.5HR84 FU CI=
ZPX0200 171202@CAELT@GG SLZZYMYT@CAELT@171202 SLLPYFYA@CAELT@SABO SLLP 171200@CAELT@METAR SLLP 171200Z VRB02KT 8000 FEW010 SCT070 BKN200 07/03 Q1039@CAELT@A3070 629.1 HR76 P91// FU NOSIG=@CAELT@METAR SLCO 171200Z 18004KT 5000 FU SCT080 26/24 Q1013 A2994 986.4@CAELT@HR88 CI=@CAELT@METAR SLRY 171200Z 00000KT 9999 BKN070 22/21 Q1010 A2985 HR95RWY HUM OP C210=METAR SLRQ 171200Z 00000KT 9999 FEW008 BKN070 23/22 Q1013 A2993989.3 HR96=METAR SLAP 171200Z 00000KT 9999 BKN015 OVC070 17/16 Q1020 A3014861.0 HR94=METAR SLSB 171200Z 00000KT 0500 FG OVC004 22/22 Q1013 A2993 HR100RWY WET OPR C210=
ZPX0223 171254@CAELT@GG SLZZYMYT@CAELT@171254 SLRBYGYS@CAELT@SABO SLRB 171300@CAELT@METAR SLRB 171300Z 00000KT 9999 NSC 31/23 Q1016 A3000 HR62 RWY NML=@CAELT@
ZPX0224 171254@CAELT@GG SLZZYMYT@CAELT@171254 SLSAYGYS@CAELT@SABO SLSA 171300@CAELT@METAR SLSA 171300Z 16004KT 8000 FEW080 SCT200 27/22 Q1013 A2992@CAELT@HR76 FU=@CAELT@
ZPX0225 171254@CAELT@GG SLZZYMYT@CAELT@171255 SLVRYGYZ@CAELT@SABO SLVR 171300@CAELT@METAR SLVR 171300Z 33008KT 9999 FEW080 SCT200 28/22 Q1014 A2996 HR69@CAELT@FU NOSIG=@CAELT@
ZPX0228 171255@CAELT@GG SLZZYMYT@CAELT@171255 SLCOYGYZ@CAELT@SABO SLCO 171300@CAELT@METAR SLCO 171300Z 16003KT 8000 SCT080 28/24 Q1014 A2996 987.2 HR80@CAELT@FU CI=@CAELT@
ZPX0229 171255@CAELT@GG SLZZYMYT@CAELT@171255 SLSBYSYX@CAELT@SABO SLSB 171300@CAELT@METAR SLSB 171300Z 00000KT 9999 SCT015 BKN080 26/23 Q1014 A2995 HR84@CAELT@RWY WET OPR C210=@CAELT@
ZPX0230 171255@CAELT@GG SLZZYMYT@CAELT@171255 SLCAYGYS@CAELT@SABO SLCA 171300@CAELT@METAR SLCA 171300Z 00000KT 9999 BKN070 26/17 Q1018 A3006 HR57 FU RWY@CAELT@NML=@CAELT@
ZPX0231 171256@CAELT@GG SLZZYMYT@CAELT@171255 SLETYMYC@CAELT@SABO SLET 171300@CAELT@METAR SLET 171300Z 31012KT 9999 FEW070 28/21 Q1014 A2995 HR66 NOSIG=@CAELT@
ZPX0232 171256@CAELT@GG SLZZYMYT@CAELT@171256 SLTRYGYZ@CAELT@SABO SLTR 171300@CAELT@METAR SLTR 171300Z 00000KT 9999 SCT080 28/23 Q1014 A2995 995.8@CAELT@HR77 FU CI NOSIG=@CAELT@
ZPX0233 171256@CAELT@GG SLZZYMYT@CAELT@171256 SLCBYGYZ@CAELT@SABO SLCB 171300@CAELT@METAR SLCB 171300Z 00000KT 4000SE BR FU FEW018 BKN070 16/12 Q1028@CAELT@A3037 754.1 HR76 VIS RED SE/S RESTO 7000 BECMG 8000=@CAELT@
ZPX0234 171256@CAELT@GG SLZZYMYT@CAELT@171255 SLLPYGYZ@CAELT@SABO SLLP 171300@CAELT@METAR SLLP 171300Z VRB02KT 9999 FEW013 SCT070 BKN200 10/01 Q1040@CAELT@A3072 629.5 HR53 P93// FU NOSIG=@CAELT@
ZPX0235 171257@CAELT@GG SLZZYMYT@CAELT@171255 SLTJYGYZ@CAELT@SABO SLTJ 171300@CAELT@METAR SLTJ 171300Z 00000KT 9999 FEW020 20/15 Q1022 A3018 816.7 HR73@CAELT@FU AC/CI=@CAELT@
ZPX0237 171257@CAELT@GG SLZZYMYT@CAELT@171257 SLLPYFYA@CAELT@SABO SLRY 171300@CAELT@METAR SLRY 171300Z 00000KT 9999 BKN080 25/22 Q1011 A2988 HR88@CAELT@RWY HUM OPR C210=@CAELT@
ZPX0239 171258@CAELT@GG SLZZYMYT@CAELT@171258 SLTRYGYS@CAELT@SABO SLTR 171300@CAELT@METAR SLTR 171300Z 00000KT 9999 SCT080 28/23 Q1014 A2995 995.8 HR77@CAELT@FU CI NOSIG=@CAELT@METAR SLGM 171300Z 18006KT 5000 FU SCT080 28/24 Q1013 A2993 HR79=@CAELT@METAR SLRI 171300Z 18008KT 5000 FU BKN080 28/23 Q1014 A2996 HR74 CI=@CAELT@METAR SLSA 171300Z 16004KT 8000 FEW080 SCT200 27/22 Q1013 A2992 HR76
ZPX0241 171259@CAELT@GG SLZZYMYT@CAELT@171258 SLRQYSYX@CAELT@SABO SLRQ 171300@CAELT@METAR SLRQ 171300Z 00000KT 9999 FEW008 BKN070 25/21 Q1014 A2995 HR83=@CAELT@
ZPX0242 171259@CAELT@GG SLZZYMYT@CAELT@171259 SLVRYGYS@CAELT@SABO SLVR 171300@CAELT@METAR SLVR 171300Z 33008KT 9999 FEW080 SCT200 28/22 Q1014 A2996@CAELT@HR69 FU NOSIG=@CAELT@METAR SLET 171300Z 31012KT 9999 FEW070 28/21 Q1014 A2995 HR66 NOSIG=@CAELT@METAR SLAS 171300Z 00000KT 6000 NSC 25/22 Q1016 A3000 HR80@CAELT@FU RWY NML=METAR SLJV 171300Z 00000KT 9999 NSC 24/20 Q1013 A2991 HR80 RWY NML=METAR SLCP 171300Z 00000KT 9999 NSC 27/22 Q1017 A3003 HR76METAR SLSI 171300Z 00000KT 8000 NSC 25/21 Q1014 A2994 HR74METAR SLTI 171300Z 00000KT 4000 FU NSC 33/21 Q1017 A3003 HR50 RWY NMLMETAR SLJE 171300Z 00000KT 7000 NSC 30/23 Q1017 A3003 HR68METAR SLVG 171300Z 35004KT 9999 SCT070 19/13 Q1026 A3030 HR62METAR SLRB 171300Z 00000KT 9999 NSC 31/23 Q1016 A3000 HR62 RWY NML=METAR SLCA 171300Z 00000KT 9999 BKN070 26/17 Q1018 A3006 HR57
ZPX0243 171300@CAELT@GG SLZZYMYT@CAELT@171259 SLLPYFYA@CAELT@SABO SLLP 171300@CAELT@METAR SLLP 171300Z VRB02KT 9999 FEW013 SCT070 BKN200 10/01 Q1040@CAELT@A3072 629.5 HR53 P93// FU NOSIG=@CAELT@METAR SLCO 171300Z 16003KT 8000 SCT080 28/24 Q1014 A2996 987.2@CAELT@HR80 FU CI=@CAELT@METAR SLRY 171300Z 00000KT 9999 BKN080 25/22 Q1011 A2988 HR88RWY HUM OPR C210=METAR SLRQ 171300Z 00000KT 9999 FEW008 BKN070 25/21 Q1014 A2995HR83=METAR SLAP 171300Z 00000KT 9999 BKN015 OVC070 17/16 Q1022 A3020862.8 HR93=METAR SLSB 171300Z 00000KT 9999 SCT015 BKN080 26/23 Q1014 A2995HR84 RWY WET OPR C210=
ZPX0245 171302@CAELT@GG SLZZYMYT@CAELT@171302 SLCBYGYS@CAELT@SABO SLCB 171300@CAELT@METAR SLCB 171300Z 00000KT 4000SE BR FU FEW018 BKN070 16/12 Q1028@CAELT@A3037 754.1 HR76 VIS RED SE/S RESTO 7000 BECMG 8000=@CAELT@METAR SLAL 171300Z 00000KT 9999 FEW010 14/08 Q1031 A3047 705.5 HR69@CAELT@METAR SLVM 171300Z 00000KT 9999 NSC 28/23 Q1014 A2996 HR74 FU CI=@CAELT@METAR SLTJ 171300Z 00000KT 9999 FEW020 20/15 Q1022 A3018 816.7 HR73FU AC/CI=
ZPX0271 171350@CAELT@GG SLZZYMYT@CAELT@171350 SLCAYGYS@CAELT@SABO SLCA 171400@CAELT@METAR SLCA 171400Z 00000KT 9999 BKN070 28/16 Q1017 A3003 HR49 FU RWY@CAELT@NML=@CAELT@
ZPX0272 171352@CAELT@GG SLZZYMYT@CAELT@171351 SLETYMYC@CAELT@SABO SLET 171400@CAELT@METAR SLET 171400Z 31011G22KT 9999 FEW080 30/20 Q1014 A2994 HR53@CAELT@NOSIG=@CAELT@
ZPX0273 171352@CAELT@GG SLZZYMYT@CAELT@171353 SLRBYGYS@CAELT@SABO SLRB 171400@CAELT@METAR SLRB 171400Z 36008KT 9999 NSC 34/23 Q1015 A2997 HR54 RWY NML=@CAELT@
ZPX0277 171354@CAELT@GG SLZZYMYT@CAELT@171355 SLORYGYZ@CAELT@SABO SLOR 171400@CAELT@METAR SLOR 171400Z 36005KT 9999 SCT017 11/04 Q1037 A3065 657.9 HR63@CAELT@AC/CI=@CAELT@
ZPX0278 171354@CAELT@GG SLZZYMYT@CAELT@171354 SLSAYGYS@CAELT@SABO SLSA 171400@CAELT@METAR SLSA 171400Z 00000KT 8000 NSC 29/22 Q1013 A2992 HR67 FU CI=@CAELT@
ZPX0279 171355@CAELT@GG SLZZYMYT@CAELT@171354 SLVRYGYS@CAELT@SABO SLVR 171400@CAELT@METAR SLVR 171400Z 33012KT 9999 FEW080 30/21 Q1014 A2995 HR59 NOSIG=@CAELT@METAR SLET 171400Z 31011G22KT 9999 FEW080 30/20 Q1014 A2994@CAELT@HR53 NOSIG=@CAELT@METAR SLAS 171400Z 00000KT 8000 NSC 30/22 Q1016 A3000 HR64@CAELT@FU RWY NML=METAR SLJV 171400Z 00000KT 9999 NSC 25/21 Q1013 A2991 HR79METAR SLCP 171400Z 00000KT 9999 NSC 29/22 Q1017 A3003 HR67METAR SLSI 171400Z 00000KT 8000 NSC 30/21 Q1014 A2994 HR62METAR SLTI 171400Z 00000KT 5000 FU NSC 35/20 Q1016 A3000 HR42 RWY NMLMETAR SLJE 171400Z 00000KT 7000 NSC 32/22 Q1017 A3003 HR57METAR SLVG 171400Z 36005KT 9999 NSC 22/11 Q1026 A3030 HR47 RWY NML=METAR SLRB 171400Z 36008KT 9999 NSC 34/23 Q1015 A2997 HR54 RWY NML=METAR SLCA 171400Z 00000KT 9999 BKN070 28/16 Q1017 A3003 HR49
ZPX0280 171355@CAELT@GG SLZZYMYT@CAELT@171356 SLVRYGYZ@CAELT@SABO SLVR 171400@CAELT@METAR SLVR 171400Z 33012KT 9999 FEW080 30/21 Q1014 A2995 HR59 NOSIG=@CAELT@
ZPX0281 171355@CAELT@GG SLZZYMYT@CAELT@171355 SLCOYGYZ@CAELT@SABO SLCO 171400@CAELT@METAR SLCO 171400Z 14004KT 8000 SCT080 29/24 Q1014 A2997 987.3 HR75@CAELT@FU CI=@CAELT@
ZPX0283 171356@CAELT@GG SLZZYMYT@CAELT@171355 SLTJYGYZ@CAELT@SABO SLTJ 171400@CAELT@METAR SLTJ 171400Z 14003KT 9999 FEW025 23/14 Q1021 A3017 816.2 HR59@CAELT@FU CI=@CAELT@
ZPX0284 171356@CAELT@GG SLZZYMYT@CAELT@171355 SLLPYGYZ@CAELT@SABO SLLP 171400@CAELT@METAR SLLP 171400Z VRB02KT 9999 SCT015 BKN200 13/01 Q1040 A3072@CAELT@629.4 HR45 P1483 AC FU NOSIG=@CAELT@
ZPX0285 171356@CAELT@GG SLZZYMYT@CAELT@171356 SLTRYGYZ@CAELT@SABO SLTR 171400@CAELT@METAR SLTR 171400Z 36004KT 9999 FEW020 SCT080 29/23 Q1014 A2995@CAELT@995.8 HR72 FU NOSIG=@CAELT@
ZPX0286 171356@CAELT@GG SLZZYMYT@CAELT@171356 SLLPYFYA@CAELT@SABO SLRY 171400@CAELT@METAR SLRY 171400Z 00000KT 9999 BKN080 26/22 Q1011 A2988 HR81@CAELT@RWY HUM OPR C210=@CAELT@
ZPX0288 171357@CAELT@GG SLZZYMYT@CAELT@171355 SLCBYGYZ@CAELT@SABO SLCB 171400@CAELT@METAR SLCB 171400Z 00000KT 7000 FEW018 SCT070 17/11 Q1028 A3036 753.8@CAELT@HR68 FU CI NOSIG=@CAELT@
ZPX0290 171357@CAELT@GG SLZZYMYT@CAELT@171356 SLRQYSYX@CAELT@SABO SLRQ 171400@CAELT@METAR SLRQ 171400Z 00000KT 9999 BKN080 26/23 Q1014 A2996 990.4 HR81=@CAELT@
ZPX0293 171358@CAELT@GG SLZZYMYT@CAELT@171358 SLTRYGYS@CAELT@SABO SLTR 171400@CAELT@METAR SLTR 171400Z 36004KT 9999 FEW020 SCT080 29/23 Q1014 A2995@CAELT@995.8 HR72 FU NOSIG=@CAELT@METAR SLGM 171400Z 18006KT 5000 FU FEW080 30/24 Q1013 A2994 HR71=@CAELT@METAR SLRI 171400Z 16006KT 5000 FU NSC 30/22 Q1014 A2997 HR62=@CAELT@METAR SLSA 171400Z 00000KT 8000 NSC 29/22 Q1013 A2992 HR67 FU CI=
ZPX0294 171359@CAELT@GG SLZZYMYT@CAELT@171358 SLSBYSYX@CAELT@SABO SLSB 171400@CAELT@METAR SLSB 171400Z 00000KT 9999 FEW015 BKN080 27/23 Q1014 A2995 HR79@CAELT@RWY WET OPR C210=@CAELT@
ZPX0296 171400@CAELT@GG SLZZYMYT@CAELT@171400 SLLPYFYA@CAELT@SABO SLLP 171400@CAELT@METAR SLLP 171400Z VRB02KT 9999 SCT015 BKN200 13/01 Q1040 A3072@CAELT@629.4 HR45 P1483 AC FU NOSIG=@CAELT@METAR SLCO 171400Z 14004KT 8000 SCT080 29/24 Q1014 A2997 987.3@CAELT@HR75 FU CI=@CAELT@METAR SLRY 171400Z 00000KT 9999 BKN080 26/22 Q1011 A2988 HR81RWY HUM OPR C210=METAR SLRQ 171400Z 00000KT 9999 BKN080 26/23 Q1014 A2996 990.4HR81=METAR SLAP 171400Z 00000KT 9999 SCT020 BKN070 19/17 Q1021 A3018862.0 HR86=METAR SLSB 171400Z 00000KT 9999 FEW015 BKN080 27/23 Q1014 A2995HR79 RWY WET OPR C210=METAR SLOR 171400Z 36005KT 9999 SCT017 11/04 Q1037 A3065 657.9HR63 AC/CI=
ZPX0297 171400@CAELT@GG SLZZYMYT@CAELT@171400 SLCBYGYS@CAELT@SABO SLCB 171400@CAELT@METAR SLCB 171400Z 00000KT 7000 FEW018 SCT070 17/11 Q1028 A3036 753.8@CAELT@HR68 FU CI NOSIG=@CAELT@METAR SLAL 171400Z 02005KT 9999 FEW015 14/08 Q1031 A3047 705.4 HR65@CAELT@METAR SLTJ 171400Z 14003KT 9999 FEW025 23/14 Q1021 A3017 816.2 HR59@CAELT@FU CI=
ZPX0314 171452@CAELT@GG SLZZYMYT@CAELT@171451 SLETYMYC@CAELT@SABO SLET 171500@CAELT@METAR SLET 171500Z 31012G22KT 9999 FEW080 32/19 Q1013 A2993 HR45@CAELT@NOSIG=@CAELT@
ZPX0315 171453@CAELT@GG SLZZYMYT@CAELT@171454 SLSAYGYS@CAELT@SABO SLSA 171500@CAELT@METAR SLSA 171500Z 00000KT 8000 NSC 31/22 Q1013 A2992 HR62 FU CI=@CAELT@
ZPX0316 171453@CAELT@GG SLZZYMYT@CAELT@171453 SLRBYGYS@CAELT@SABO SLRB 171500@CAELT@METAR SLRB 171500Z 36006KT 9999 NSC 35/23 Q1016 A3000 HR49 RWY NML=@CAELT@
ZPX0317 171455@CAELT@GG SLZZYMYT@CAELT@171455 SLORYGYZ@CAELT@SABO SLOR 171500@CAELT@METAR SLOR 171500Z 33004KT 9999 SCT020 12/03 Q1037 A3062 657.6 HR54@CAELT@AC/CI=@CAELT@
ZPX0318 171455@CAELT@GG SLZZYMYT@CAELT@171456 SLVRYGYZ@CAELT@SABO SLVR 171500@CAELT@METAR SLVR 171500Z 33012G22KT 9999 FEW080 31/21 Q1013 A2994 HR54@CAELT@NOSIG=@CAELT@
ZPX0319 171455@CAELT@GG SLZZYMYT@CAELT@171454 SLVRYGYS@CAELT@SABO SLVR 171500@CAELT@METAR SLVR 171500Z 33012G22KT 9999 FEW080 31/21 Q1013 A2994 HR54@CAELT@NOSIG=@CAELT@METAR SLET 171500Z 31012G22KT 9999 FEW080 32/19 Q1013 A2993 HR45@CAELT@METAR SLAS 171500Z 00000KT 9999 NSC 32/23 Q1016 A3000 HR60 FU@CAELT@RWY NML=METAR SLJV 171500Z 36010KT 9999 NSC 31/20 Q1014 A2994 HR51 FUMETAR SLCP 171500Z 00000KT 9999 FEW020 BKN200 31/22 Q1017 A3003HR60FU RWY NML=METAR SLSI 171500Z 00000KT 8000 NSC 31/22 Q1013 A2991 HR58METAR SLTI 171500Z 00000KT 5000 FU NSC 36/20 Q1016 A3000 HR38METAR SLJE 171500Z 36006KT 7000 NSC 34/23 Q1016 A3000 HR54METAR SLVG 171500Z 36007KT 9999 NSC 23/11 Q1025 A3027 HR42 RWY NML=METAR SLRB 171500Z 36006KT 9999 NSC 35/23 Q1016 A3000 HR49 RWY NML=METAR SLCA 171500Z 00000KT 9999 FEW036 29/16 Q1016 A3000 HR45
ZPX0320 171456@CAELT@GG SLZZYMYT@CAELT@171456 SLCAYGYS@CAELT@SABO SLCA 171500@CAELT@METAR SLCA 171500Z 00000KT 9999 FEW036 29/16 Q1016 A3000 HR45 FU RWY@CAELT@NML=@CAELT@
ZPX0322 171456@CAELT@GG SLZZYMYT@CAELT@171456 SLTRYGYZ@CAELT@SABO SLTR 171500@CAELT@METAR SLTR 171500Z 25003KT 9999 SCT080 30/23 Q1014 A2995 995.5@CAELT@HR68 FU NOSIG=@CAELT@
ZPX0323 171456@CAELT@GG SLZZYMYT@CAELT@171455 SLLPYGYZ@CAELT@SABO SLLP 171500@CAELT@METAR SLLP 171500Z 21005KT 9999 SCT017 FEW020CB BKN200 13/01 Q1039@CAELT@A3071 629.2 HR43 P6784 CB/SH N/NE/E AC FU NOSIG=@CAELT@
ZPX0324 171456@CAELT@GG SLZZYMYT@CAELT@171455 SLTJYGYZ@CAELT@SABO SLTJ 171500@CAELT@METAR SLTJ 171500Z 23006KT 9999 FEW027 SCT200 25/13 Q1020 A3014 815.6@CAELT@HR47 FU=@CAELT@
ZPX0325 171457@CAELT@GG SLZZYMYT@CAELT@171455 SLRQYSYX@CAELT@SABO SLRQ 171500@CAELT@METAR SLRQ 171500Z 00000KT 9999 FEW013 BKN080 28/23 Q1014 A2995 990.1@CAELT@HR74 CI=@CAELT@
ZPX0327 171457@CAELT@GG SLZZYMYT@CAELT@171456 SLCBYGYZ@CAELT@SABO SLCB 171500@CAELT@METAR SLCB 171500Z 00000KT 8000 FEW030 SCT070 20/10 Q1027 A3033 753.0@CAELT@HR55 FU CI NOSIG=@CAELT@
ZPX0328 171457@CAELT@GG SLZZYMYT@CAELT@171457 SLLPYFYA@CAELT@SABO SLRY 171500@CAELT@METAR SLRY 171500Z 00000KT 9999 BKN080 27/23 Q1011 A2988 HR76@CAELT@RWY HUM OPR=@CAELT@
ZPX0330 171458@CAELT@GG SLZZYMYT@CAELT@171458 SLCOYGYZ@CAELT@SABO SLCO 171500@CAELT@METAR SLCO 171500Z 09004KT 9999 FEW023 SCT080 31/24 Q1014 A2996 987.1@CAELT@HR67 FU CI=@CAELT@
ZPX0331 171459@CAELT@GG SLZZYMYT@CAELT@171459 SLSBYSYX@CAELT@SABO SLSB 171500@CAELT@METAR SLSB 171500Z 00000KT 9999 FEW020 BKN080 28/24 Q1014 A2994 HR77@CAELT@RWY WET OPR C210=@CAELT@
ZPX0334 171500@CAELT@GG SLZZYMYT@CAELT@171458 SLTRYGYS@CAELT@SABO SLTR 171500@CAELT@METAR SLTR 171500Z 25003KT 9999 SCT080 30/23 Q1014 A2995 995.5 HR68@CAELT@FU NOSIG=@CAELT@METAR SLGM 171500Z 18006KT 5000 FU NSC 31/24 Q1013 A2992 HR68=@CAELT@METAR SLRI 171500Z 15006KT 5000 FU NSC 32/23 Q1014 A2996 HR57 CI=@CAELT@METAR SLSA 171500Z 00000KT 8000 NSC 31/22 Q1013 A2992 HR62 FU CI=
ZPX0335 171500@CAELT@GG SLZZYMYT@CAELT@171500 SLCBYGYS@CAELT@SABO SLCB 171500@CAELT@METAR SLCB 171500Z 00000KT 8000 FEW030 SCT070 20/10 Q1027 A3033 753.0@CAELT@HR55 FU CI NOSIG=@CAELT@METAR SLAL 171500Z 02010KT 9999 SCT017 17/09 Q1031 A3046 705.2 HR61=@CAELT@METAR SLTJ 171500Z 23006KT 9999 FEW027 SCT200 25/13 Q1020 A3014 815.6@CAELT@HR47 FU=
ZPX0337 171501@CAELT@GG SLZZYMYT@CAELT@171501 SLLPYFYA@CAELT@SABO SLLP 171500@CAELT@METAR SLLP 171500Z 21005KT 9999 SCT017 FEW020CB BKN200 13/01 Q1039@CAELT@A3071 629.2 HR43 P6784 CB/SH N/NE/E AC FU NOSIG=@CAELT@METAR SLCO 171500Z 09004KT 9999 FEW023 SCT080 31/24 Q1014 A2996@CAELT@987.1 HR67 FU CI=@CAELT@METAR SLRY 171500Z 00000KT 9999 BKN080 27/23 Q1011 A2988 HR76RWY HUM OPR=METAR SLRQ 171500Z 00000KT 9999 FEW013 BKN080 28/23 Q1014 A2995990.1 HR74 CI=METAR SLAP 171500Z 00000KT 9999 FEW020 SCT070 21/18 Q1021 A3016861.6 HR82=METAR SLSB 171500Z 00000KT 9999 FEW020 BKN080 28/24 Q1014 A2994HR77 RWY WET OPR C210=METAR SLOR 171500Z 33004KT 9999 SCT020 12/03 Q1037 A3062 657.6HR54 AC/CI=
ZPX0366 171552@CAELT@GG SLZZYMYT@CAELT@171551 SLETYMYC@CAELT@SABO SLET 171600@CAELT@METAR SLET 171600Z 31012G22KT 9999 FEW080 33/19 Q1013 A2992 HR43@CAELT@NOSIG=@CAELT@
ZPX0367 171553@CAELT@GG SLZZYMYT@CAELT@171554 SLSAYGYS@CAELT@SABO SLSA 171600@CAELT@METAR SLSA 171600Z 00000KT 8000 NSC 32/23 Q1012 A2989 HR62 FU CI=@CAELT@
ZPX0369 171554@CAELT@GG SLZZYMYT@CAELT@171553 SLRBYGYS@CAELT@SABO SLRB 171600@CAELT@METAR SLRB 171600Z 36006KT 9999 FEW020 36/22 Q1014 A2994 HR45 RWY NML=@CAELT@
ZPX0370 171555@CAELT@GG SLZZYMYT@CAELT@171556 SLVRYGYZ@CAELT@SABO SLVR 171600@CAELT@METAR SLVR 171600Z 34012G22KT 9999 FEW020 32/20 Q1013 A2992 HR50 AC@CAELT@NOSIG=@CAELT@
ZPX0371 171555@CAELT@GG SLZZYMYT@CAELT@171556 SLTRYGYZ@CAELT@SABO SLTR 171600@CAELT@METAR SLTR 171600Z 36003KT 9999 FEW020 31/21 Q1013 A2992 994.6@CAELT@HR56 FU AC NOSIG=@CAELT@
ZPX0373 171556@CAELT@GG SLZZYMYT@CAELT@171556 SLCOYGYZ@CAELT@SABO SLCO 171600@CAELT@METAR SLCO 171600Z 00000KT 9999 FEW023 SCT080 33/24 Q1013 A2993 986.2@CAELT@HR61 FU=@CAELT@
ZPX0374 171556@CAELT@GG SLZZYMYT@CAELT@171556 SLTRYGYS@CAELT@SABO SLTR 171600@CAELT@METAR SLTR 171600Z 36003KT 9999 FEW020 31/21 Q1013 A2992 994.6 HR56@CAELT@FU AC NOSIG=@CAELT@METAR SLGM 171600Z 16004KT 5000 FU FEW017 32/24 Q1012 A2989 HR62=@CAELT@METAR SLRI 171600Z 14006KT 5000 FU SCT017 BKN200 34/22 Q1013 A2993@CAELT@HR52=METAR SLSA 171600Z 00000KT 8000 NSC 32/23 Q1012 A2989 HR62 FU CI=
ZPX0375 171556@CAELT@GG SLZZYMYT@CAELT@171556 SLCBYGYZ@CAELT@SABO SLCB 171600@CAELT@METAR SLCB 171600Z 24004KT 9000 FEW036 SCT070 23/10 Q1025 A3028 751.8@CAELT@HR42 FU CI NOSIG=@CAELT@
ZPX0376 171557@CAELT@GG SLZZYMYT@CAELT@171556 SLRQYSYX@CAELT@SABO SLRQ 171600@CAELT@METAR SLRQ 171600Z 09004KT 9999 FEW017 SCT080 30/23 Q1013 A2993 989.3@CAELT@HR65 CI=@CAELT@
ZPX0377 171557@CAELT@GG SLZZYMYT@CAELT@171556 SLLPYGYZ@CAELT@SABO SLLP 171600@CAELT@METAR SLLP 171600Z 09009KT 8000 -TSRA SCT017 FEW020CB BKN200 12/01@CAELT@Q1039 A3069 628.7 HR45 P3487 CB/ON/STN N/NE/E/S AC FU NOSIG=@CAELT@
ZPX0378 171557@CAELT@GG SLZZYMYT@CAELT@171557 SLLPYFYA@CAELT@SABO SLRY 171600@CAELT@METAR SLRY 171600Z 00000KT 9999 BKN080 29/23 Q1011 A2988 HR71@CAELT@RWY HUM OPR=@CAELT@
ZPX0379 171557@CAELT@GG SLZZYMYT@CAELT@171557 SLVRYGYS@CAELT@SABO SLVR 171600@CAELT@METAR SLVR 171600Z 34012G22KT 9999 FEW020 32/20 Q1013 A2992@CAELT@HR50 AC NOSIG=@CAELT@METAR SLET 171600Z 31012G22KT 9999 FEW080 33/19 Q1013 A2992 HR43@CAELT@NOSIG=@CAELT@METAR SLAS 171600Z NIL=METAR SLJV 171600Z 36010KT 9999 NSC 32/20 Q1014 A2994 HR50 RWY NML=METAR SLCP 171600Z 00000KT 9999 SCT020 BKN200 31/21 Q1016 A3000HR59 FU RWY NML=METAR SLSI 171600Z 33006KT 8000 FEW017 32/22 Q1013 A2991 HR52FU RWY NML=METAR SLRB 171600Z 36006KT 9999 FEW020 36/22 Q1014 A2994 HR45 RWY NMLMETAR SLCA 171600Z 12004KT 9999 SCT036 32/16 Q1015 A2997 HR37
ZPX0381 171559@CAELT@GG SLZZYMYT@CAELT@171559 SLCAYGYS@CAELT@SABO SLCA 171600@CAELT@METAR SLCA 171600Z 12004KT 9999 SCT036 32/16 Q1015 A2997 HR37 FU RWY@CAELT@NML=@CAELT@
ZPX0383 171600@CAELT@GG SLZZYMYT@CAELT@171600 SLCBYGYS@CAELT@SABO SLCB 171600@CAELT@METAR SLCB 171600Z 24004KT 9000 FEW036 SCT070 23/10 Q1025 A3028 751.8@CAELT@HR42 FU CI NOSIG=@CAELT@METAR SLAL 171600Z 04007KT 9999 SCT020 17/07 Q1030 A3044 704.7 HR53=@CAELT@
ZPX0384 171602@CAELT@GG SLZZYMYT@CAELT@171602 SLLPYFYA@CAELT@SABO SLLP 171600@CAELT@METAR SLLP 171600Z 09009KT 8000 -TSRA SCT017 FEW020CB BKN200 12/01@CAELT@Q1039 A3069 628.7 HR45 P3487 CB/ON/STN N/NE/E/S AC FU NOSIG=@CAELT@METAR SLCO 171600Z 00000KT 9999 FEW023 SCT080 33/24 Q1013 A2993@CAELT@986.2 HR61 FU=@CAELT@METAR SLRY 171600Z 00000KT 9999 BKN080 29/23 Q1011 A2988 HR71RWY HUM OPR=METAR SLRQ 171600Z 09004KT 9999 FEW017 SCT080 30/23 Q1013 A2993989.3 HR65 CI=METAR SLAP 171600Z 00000KT 9999 FEW020 SCT070 24/18 Q1020 A3014860.8 HR69=
ZPX0390 171612@CAELT@GG SLZZYMYT@CAELT@171612 SLSBYSYX@CAELT@SABO SLSB 171600@CAELT@METAR SLSB 171600Z 36004KT 9999 FEW020 SCT080 30/23 Q1013 A2994 HR69@CAELT@RWY WET OPR C210=@CAELT@
ZPX0393 171614@CAELT@GG SLZZYMYT@CAELT@171614 SLLPYFYA@CAELT@SABO SLLP 171600 RRA@CAELT@METAR SLLP 171600Z 09009KT 8000 -TSRA SCT017 FEW020CB BKN200 12/01@CAELT@Q1039 A3069 628.7 HR45 P3487 CB/ON/STN N/NE/E/S AC FU NOSIG=@CAELT@METAR SLCO 171600Z 00000KT 9999 FEW023 SCT080 33/24 Q1013 A2993@CAELT@986.2 HR61 FU=@CAELT@METAR SLRY 171600Z 00000KT 9999 BKN080 29/23 Q1011 A2988 HR71RWY HUM OPR=METAR SLRQ 171600Z 09004KT 9999 FEW017 SCT080 30/23 Q1013 A2993989.3 HR65 CI=METAR SLAP 171600Z 00000KT 9999 FEW020 SCT070 24/18 Q1020 A3014860.8 HR69=METAR RTD SLSB 171600Z 36004KT 9999 FEW020 SCT080 30/23 Q1013 A2994HR69 RWY WET OPR C210=
ZPX0415 171653@CAELT@GG SLZZYMYT@CAELT@171653 SLRBYGYS@CAELT@SABO SLRB 171700@CAELT@METAR SLRB 171700Z 36004KT 9999 SCT020 37/22 Q1012 A2988 HR42 RWY NML=@CAELT@
ZPX0416 171653@CAELT@GG SLZZYMYT@CAELT@171654 SLSAYGYS@CAELT@SABO SLSA 171700@CAELT@METAR SLSA 171700Z 00000KT 8000 FEW017 SCT200 32/23 Q1011 A2988@CAELT@HR57 FU=@CAELT@
ZPX0417 171654@CAELT@GG SLZZYMYT@CAELT@171654 SLSBYSYX@CAELT@SABO SLSB 171700@CAELT@METAR SLSB 171700Z 36005KT 9999 FEW020 31/22 Q1012 A2990 HR59 RWY WET@CAELT@OPR C210=@CAELT@
ZPX0418 171655@CAELT@GG SLZZYMYT@CAELT@171654 SLCAYGYS@CAELT@SABO SLCA 171700@CAELT@METAR SLCA 171700Z 12004KT 9999 FEW036 SCT070 33/15 Q1013 A2991 HR33@CAELT@FU RWY NML=@CAELT@
ZPX0419 171655@CAELT@GG SLZZYMYT@CAELT@171656 SLVRYGYZ@CAELT@SABO SLVR 171700@CAELT@METAR SLVR 171700Z 33014G25KT 9999 FEW020 33/20 Q1011 A2988 HR47@CAELT@NOSIG=@CAELT@
ZPX0420 171655@CAELT@GG SLZZYMYT@CAELT@171655 SLETYMYC@CAELT@SABO SLET 171700@CAELT@METAR SLET 171700Z 31012G22KT 9999 FEW080 34/19 Q1011 A2987 HR42@CAELT@NOSIG=@CAELT@
ZPX0421 171656@CAELT@GG SLZZYMYT@CAELT@171656 SLTRYGYZ@CAELT@SABO SLTR 171700@CAELT@METAR SLTR 171700Z 32004KT 9999 FEW020 33/21 Q1011 A2988 993.4@CAELT@HR49 FU AC NOSIG=@CAELT@
ZPX0423 171656@CAELT@GG SLZZYMYT@CAELT@171655 SLLPYGYZ@CAELT@SABO SLLP 171700@CAELT@METAR SLLP 171700Z 04010KT 8000 VCTSSH SCT017 FEW020CB BKN200 10/01@CAELT@Q1038 A3066 628.2 HR55 P4754 CB/SH N/NE/S/W/NW TS/NW RERA AC NOSIG=@CAELT@
ZPX0424 171656@CAELT@GG SLZZYMYT@CAELT@171657 SLTRYGYS@CAELT@SABO SLTR 171700@CAELT@METAR SLTR 171700Z 32004KT 9999 FEW020 33/21 Q1011 A2988 993.4 HR49@CAELT@FU AC NOSIG=@CAELT@METAR SLRI 171700Z 00000KT 5000 FU SCT017 FEW020CB BKN200 35/23@CAELT@Q1012 A2990 HR49 CB E=@CAELT@METAR SLSA 171700Z 00000KT 8000 FEW017 SCT200 32/23 Q1011 A2988 HR57
ZPX0425 171658@CAELT@GG SLZZYMYT@CAELT@171657 SLLPYFYA@CAELT@SABO SLRY 171700@CAELT@METAR SLRY 171700Z 34003KT 9999 SCT080 31/24 Q1010 A2985 HR65@CAELT@RWY HUM OPR=@CAELT@
ZPX0426 171658@CAELT@GG SLZZYMYT@CAELT@171657 SLCBYGYZ@CAELT@SABO SLCB 171700@CAELT@METAR SLCB 171700Z 10004KT 9999 FEW036 FEW040CB SCT070 BKN200 25/09@CAELT@Q1023 A3023 750.4 HR38 CB/TS/SH N/NE FU NOSIG=@CAELT@
ZPX0427 171658@CAELT@GG SLZZYMYT@CAELT@171658 SLVRYGYS@CAELT@SABO SLVR 171700@CAELT@METAR SLVR 171700Z 33014G25KT 9999 FEW020 33/20 Q1011 A2988 HR47@CAELT@NOSIG=@CAELT@METAR SLET 171700Z 31012G22KT 9999 FEW080 34/19 Q1011 A2987 HR42@CAELT@METAR SLCP 171700Z 00000KT 9999 BKN020 BKN200 32/23 Q1015 A2997@CAELT@HR57 FU RWY NML=METAR SLSI 171700Z 33006KT 8000 SCT017 34/23 Q1012 A2988 HR50FU RWY NML=METAR SLRB 171700Z 36004KT 9999 SCT020 37/22 Q1012 A2988 HR42 RWY NMLMETAR SLCA 171700Z 12004KT 9999 FEW036 SCT070 33/15 Q1013 A2991HR33 FU RWY NML=
ZPX0432 171701@CAELT@GG SLZZYMYT@CAELT@171700 SLCBYGYZ@CAELT@SABO SLCB 171700 CCA@CAELT@METAR COR SLCB 171700Z 10004KT 9999 VCTS FEW036 FEW040CB SCT070@CAELT@BKN200 25/09 Q1023 A3023 750.4 HR38 CB/TS/SH N/NE FU BECMG 04015KT=@CAELT@
ZPX0433 171702@CAELT@GG SLZZYMYT@CAELT@171700 SLRQYSYX@CAELT@SABO SLRQ 171700@CAELT@METAR SLRQ 171700Z 34003KT 9999 SCT080 31/24 Q1011 A2988 987.8 HR65=@CAELT@
ZPX0434 171702@CAELT@GG SLZZYMYT@CAELT@171702 SLCBYGYS@CAELT@SABO SLCB 171700@CAELT@METAR SLCB 171700Z 10004KT 9999 VCTS FEW036 FEW040CB SCT070@CAELT@BKN200 25/09 Q1023 A3023 750.4 HR38 CB/TS/SH N/NE FU BECMG 04015KT=@CAELT@
ZPX0435 171702@CAELT@GG SLZZYMYT@CAELT@171702 SLLPYFYA@CAELT@SABO SLLP 171700@CAELT@METAR SLLP 171700Z 04010KT 8000 VCTSSH SCT017 FEW020CB BKN200 10/01@CAELT@Q1038 A3066 628.2 HR55 P4754 CB/SH N/NE/S/W/NW TS/NW RERA AC NOSIG=@CAELT@METAR SLRY 171700Z 34003KT 9999 SCT080 31/24 Q1010 A2985 HR65@CAELT@RWY HUM OPR=@CAELT@METAR SLRQ 171700Z 34003KT 9999 SCT080 31/24 Q1011 A2988 987.8HR65=METAR SLAP 171700Z 36015KT 9999 FEW020 SCT070 27/18 Q1018 A3009859.3 HR60=METAR SLSB 171700Z 36005KT 9999 FEW020 31/22 Q1012 A2990 HR59RWY WET OPR C210=
ZPX0453 171751@CAELT@GG SLZZYMYT@CAELT@171751 SLRBYGYS@CAELT@SABO SLRB 171800@CAELT@METAR SLRB 171800Z 36004KT 9999 SCT020 37/22 Q1011 A2985 HR42 RWY NML=@CAELT@
ZPX0454 171753@CAELT@GG SLZZYMYT@CAELT@171752 SLETYMYC@CAELT@SABO SLET 171800@CAELT@METAR SLET 171800Z 31013G24KT 9999 FEW020 34/19 Q1010 A2984 HR42@CAELT@NOSIG=@CAELT@
ZPX0456 171753@CAELT@GG SLZZYMYT@CAELT@171754 SLVRYGYZ@CAELT@SABO SLVR 171800@CAELT@METAR SLVR 171800Z 35012G23KT 9999 FEW020 34/20 Q1010 A2984 HR45 CI@CAELT@NOSIG=@CAELT@
ZPX0457 171754@CAELT@GG SLZZYMYT@CAELT@171754 SLSAYGYS@CAELT@SABO SLSA 171800@CAELT@METAR SLSA 171800Z 32008KT 8000 SCT017 34/22 Q1010 A2985 HR49 FU=@CAELT@
ZPX0458 171754@CAELT@GG SLZZYMYT@CAELT@171754 SLSAYGYS@CAELT@SABO SLSA 171800@CAELT@METAR SLSA 171800Z 32008KT 8000 SCT017 34/22 Q1010 A2985 HR49 FU=@CAELT@
ZPX0459 171754@CAELT@GG SLZZYMYT@CAELT@171755 SLRQYSYX@CAELT@SABO SLRQ 171800@CAELT@METAR SLRQ 171800Z 04004KT 9999 FEW017 SCT080 32/25 Q1010 A2985 986.6@CAELT@HR66=@CAELT@
ZPX0460 171755@CAELT@GG SLZZYMYT@CAELT@171755 SLSBYSYX@CAELT@SABO SLSB 171800@CAELT@METAR SLSB 171800Z 01008KT 9999 FEW020 32/22 Q1010 A2983 HR56 RWY NML=@CAELT@
ZPX0462 171756@CAELT@GG SLZZYMYT@CAELT@171756 SLTRYGYZ@CAELT@SABO SLTR 171800@CAELT@METAR SLTR 171800Z 34004KT 9999 FEW020 34/21 Q1010 A2984 991.9@CAELT@HR49 FU NOSIG=@CAELT@
ZPX0463 171756@CAELT@GG SLZZYMYT@CAELT@171755 SLLPYGYZ@CAELT@SABO SLLP 171800@CAELT@METAR SLLP 171800Z 03014KT 9999 VCTS SCT017 FEW020CB BKN200 09/00@CAELT@Q1037 A3063 627.4 HR56 P0784 CB/SH N/S/SW/W/NW TS/W/NW AC NOSIG=@CAELT@
ZPX0465 171757@CAELT@GG SLZZYMYT@CAELT@171756 SLVRYGYS@CAELT@SABO SLVR 171800@CAELT@METAR SLVR 171800Z 35012G23KT 9999 FEW020 34/20 Q1010 A2984 HR45@CAELT@CI NOSIG=@CAELT@METAR SLET 171800Z 31013G24KT 9999 FEW020 34/19 Q1010 A2984 HR42@CAELT@NOSIG=@CAELT@METAR SLAS 171800Z 31005KT 9999 NSC 36/24 Q1013 A2991 HR53 FU RWY NMLMETAR SLJV 171800Z 36012KT 9999 NSC 34/21 Q1011 A2985 HR46 FU RWY NMLMETAR SLCP 171800Z 00000KT 9999 SCT020 OVC200 32/22 Q1014 A2994HR55 FU RWY NML=METAR SLSI 171800Z 33006KT 8000 SCT020 36/21 Q1010 A2983 HR41FU RWY NML=METAR SLTI 171800Z 00000KT 6000 NSC 40/20 Q1012 A2988 HR31 FU RWY NMLMETAR SLJE 171800Z 32006KT 9000 FEW017 37/22 Q1013 A2991 HR42METAR SLVG 171800Z 36010KT 9999 SCT025 27/10 Q1023 A3021 HR31 RWY NMLMETAR SLRB 171800Z 36004KT 9999 SCT020 37/22 Q1011 A2985 HR42 RWY NMLMETAR SLCA 171800Z 12005KT 9999 FEW036 BKN070 34/16 Q1012 A2988HR37 FU RWY NML=
ZPX0466 171758@CAELT@GG SLZZYMYT@CAELT@171755 SLCBYGYZ@CAELT@SABO SLCB 171800@CAELT@METAR SLCB 171800Z 05008KT 340V110 9999 TS FEW036 SCT040CB SCT070@CAELT@25/04 Q1022 A3019 749.4 HR27 CB/NW/N/NE/S/SW/W TS/N/NE SH/W FU CI@CAELT@BECMG 28015KT=@CAELT@
ZPX0467 171759@CAELT@GG SLZZYMYT@CAELT@171758 SLTRYGYS@CAELT@SABO SLTR 171800@CAELT@METAR SLTR 171800Z 34004KT 9999 FEW020 34/21 Q1010 A2984 991.9 HR49@CAELT@FU NOSIG=@CAELT@METAR SLRI 171800Z 15006KT 5000 FU SCT017 FEW020CB BKN200 35/22@CAELT@Q1011 A2987 HR48 CB SE=@CAELT@METAR SLSA 171800Z 32008KT 8000 SCT017 34/22 Q1010 A2985 HR49 FU=
ZPX0468 171759@CAELT@GG SLZZYMYT@CAELT@171759 SLLPYFYA@CAELT@SABO SLRY 171800@CAELT@METAR SLRY 171800Z 36003KT 9999 FEW016 SCT080 31/24 Q1008 A2979 HR65@CAELT@RWY NML=@CAELT@
ZPX0470 171800@CAELT@GG SLZZYMYT@CAELT@171759 SLCBYGYS@CAELT@SABO SLCB 171800@CAELT@METAR SLCB 171800Z 05008KT 340V110 9999 TS FEW036 SCT040CB SCT070@CAELT@25/04 Q1022 A3019 749.4 HR27 CB/NW/N/NE/S/SW/W TS/N/NE SH/W FU CI@CAELT@BECMG 28015KT=@CAELT@
ZPX0472 171800@CAELT@GG SLZZYMYT@CAELT@171800 SLLPYFYA@CAELT@SABO SLLP 171800@CAELT@METAR SLLP 171800Z 03014KT 9999 VCTS SCT017 FEW020CB BKN200 09/00@CAELT@Q1037 A3063 627.4 HR56 P0784 CB/SH N/S/SW/W/NW TS/W/NW AC NOSIG=@CAELT@METAR SLRY 171800Z 36003KT 9999 FEW016 SCT080 31/24 Q1008 A2979@CAELT@HR65 RWY NML=@CAELT@METAR SLRQ 171800Z 04004KT 9999 FEW017 SCT080 32/25 Q1010 A2985986.6 HR66=METAR SLAP 171800Z 36015KT 9999 FEW025 27/20 Q1017 A3006 858.5HR65 AC=METAR SLSB 171800Z 01008KT 9999 FEW020 32/22 Q1010 A2983 HR56RWY NML=
ZPX0494 171854@CAELT@GG SLZZYMYT@CAELT@171854 SLSAYGYS@CAELT@SABO SLSA 171900@CAELT@METAR SLSA 171900Z 31008KT 8000 SCT017 34/23 Q1009 A2981 HR52 FU=@CAELT@
ZPX0495 171854@CAELT@GG SLZZYMYT@CAELT@171854 SLSAYGYS@CAELT@SABO SLSA 171900@CAELT@METAR SLSA 171900Z 31008KT 8000 SCT017 34/23 Q1009 A2981 HR52 FU=@CAELT@
ZPX0496 171854@CAELT@GG SLZZYMYT@CAELT@171853 SLETYMYC@CAELT@SABO SLET 171900@CAELT@METAR SLET 171900Z 31015G28KT 9999 FEW020 33/19 Q1009 A2980 HR44@CAELT@NOSIG=@CAELT@
ZPX0497 171854@CAELT@GG SLZZYMYT@CAELT@171855 SLRQYSYX@CAELT@SABO SLRQ 171900@CAELT@METAR SLRQ 171900Z 36004KT 9999 SCT017 33/23 Q1009 A2981 985.3 HR57@CAELT@
ZPX0498 171854@CAELT@GG SLZZYMYT@CAELT@171855 SLSBYSYX@CAELT@SABO SLSB 171900@CAELT@METAR SLSB 171900Z 35005KT 9999 FEW020 33/223 Q1009 A2980 HR57 RWY@CAELT@NML=@CAELT@
ZPX0499 171855@CAELT@GG SLZZYMYT@CAELT@171855 SLVRYGYZ@CAELT@SABO SLVR 171900@CAELT@METAR SLVR 171900Z 35012G22KT 9999 FEW020 34/20 Q1009 A2980 HR44 CI@CAELT@NOSIG=@CAELT@
ZPX0500 171856@CAELT@GG SLZZYMYT@CAELT@171856 SLTRYGYZ@CAELT@SABO SLTR 171900@CAELT@METAR SLTR 171900Z 31006KT 9999 FEW020 34/22 Q1009 A2980 990.8 HR50@CAELT@FU NOSIG=@CAELT@
ZPX0501 171856@CAELT@GG SLZZYMYT@CAELT@171856 SLCAYGYS@CAELT@SABO SLCA 171900@CAELT@METAR SLCA 171900Z 12006KT 9999 FEW036 BKN070 33/15 Q1011 A2985 HR34@CAELT@FU RWY NML=@CAELT@
ZPX0502 171857@CAELT@GG SLZZYMYT@CAELT@171856 SLLPYFYA@CAELT@SABO SLRY 171900@CAELT@METAR SLRY 171900Z 00000KT 9999 FEW020 32/24 Q1008 A2977 HR61@CAELT@RWY NML=@CAELT@
ZPX0503 171857@CAELT@GG SLZZYMYT@CAELT@171856 SLRBYGYS@CAELT@SABO SLRB 171900@CAELT@METAR SLRB 171900Z 36005KT 9999 SCT020 38/22 Q1010 A2983 HR41 RWY NML=@CAELT@
ZPX0504 171858@CAELT@GG SLZZYMYT@CAELT@171856 SLLPYGYZ@CAELT@SABO SLLP 171900@CAELT@METAR SLLP 171900Z 33012KT 8000 -RA SCT017 FEW020CB SCT070 BKN200@CAELT@06/02 Q1037 A3064 627.8 HR78 P4754 CB/N/NE/S/SW/W RETS NOSIG=@CAELT@
ZPX0505 171858@CAELT@GG SLZZYMYT@CAELT@171858 SLVRYGYS@CAELT@SABO SLVR 171900@CAELT@METAR SLVR 171900Z 35012G22KT 9999 FEW020 34/20 Q1009 A2980 HR44@CAELT@CI NOSIG=@CAELT@METAR SLET 171900Z 31015G28KT 9999 FEW020 33/19 Q1009 A2980 HR44@CAELT@NOSIG=@CAELT@METAR SLAS 171900Z 31008KT 9999 NSC 36/23 Q1011 A2986 HR46FU RWY NML=METAR SLJV 171900Z 36012KT 9999 NSC 35/21 Q1010 A2983 HR45METAR SLCP 171900Z 00000KT 9999 SCT020 OVC200 32/21 Q1013 A2991HR54 FU RWY NML=METAR SLSI 171900Z 36006KT 8000 SCT020 36/22 Q1009 A2980 HR39METAR SLTI 171900Z 00000KT 6000 NSC 39/20 Q1010 A2983 HR33METAR SLJE 171900Z 36006KT 9000 FEW017 37/21 Q1012 A2988 HR41METAR SLVG 171900Z 36015KT 9999 SCT025 FEW030CB 26/09 Q1022 A3018HR29 CB/S/SW RWY NML=METAR SLRB 171900Z 36005KT 9999 SCT020 38/22 Q1010 A2983 HR41 RWY NMLMETAR SLCA 171900Z 12006KT 9999 FEW036 BKN070 33/15 Q1011 A2985HR34 FU RWY NML=
ZPX0506 171859@CAELT@GG SLZZYMYT@CAELT@171857 SLCBYGYZ@CAELT@SABO SLCB 171900@CAELT@METAR SLCB 171900Z 33006KT 9999 FEW036 FEW040CB SCT070 BKN200 24/02@CAELT@Q1021 A3017 748.7 HR24 CB/ON STN/NW/N/S/SW SH/NW FU RETS TEMPO@CAELT@06012KT=@CAELT@
ZPX0507 171859@CAELT@GG SLZZYMYT@CAELT@171858 SLSBYSYX@CAELT@SABO SLSB 171900 CCA@CAELT@METAR COR SLSB 171900Z 35005KT 9999 FEW020 33/23 Q1009 A2980 HR57 RWY@CAELT@NML=@CAELT@
ZPX0508 171900@CAELT@GG SLZZYMYT@CAELT@171859 SLCBYGYS@CAELT@SABO SLCB 171900@CAELT@METAR SLCB 171900Z 33006KT 9999 FEW036 FEW040CB SCT070 BKN200 24/02@CAELT@Q1021 A3017 748.7 HR24 CB/ON STN/NW/N/S/SW SH/NW FU RETS TEMPO@CAELT@06012KT=@CAELT@
ZPX0509 171900@CAELT@GG SLZZYMYT@CAELT@171900 SLLPYFYA@CAELT@SABO SLLP 171900@CAELT@METAR SLLP 171900Z 33012KT 8000 -RA SCT017 FEW020CB SCT070 BKN200@CAELT@06/02 Q1037 A3064 627.8 HR78 P4754 CB/N/NE/S/SW/W RETS NOSIG=@CAELT@METAR SLRY 171900Z 00000KT 9999 FEW020 32/24 Q1008 A2977 HR61@CAELT@RWY NML=@CAELT@METAR SLRQ 171900Z 36004KT 9999 SCT017 33/23 Q1009 A2981 985.3HR57 AC=METAR SLSB 171900Z 35005KT 9999 FEW020 33/23 Q1009 A2980 HR57
ZPX0514 171906@CAELT@GG SLZZYMYT@CAELT@171900 SLTRYGYS@CAELT@SABO SLTR 171900@CAELT@METAR SLTR 171900Z 31006KT 9999 FEW020 34/22 Q1009 A2980 990.8 HR50@CAELT@FU NOSIG=@CAELT@METAR SLSA 171900Z 31008KT 8000 SCT017 34/23 Q1009 A2981 HR52 FU=@CAELT@
ZPX0530 171950@CAELT@GG SLZZYMYT@CAELT@171950 SLRBYGYS@CAELT@SABO SLRB 172000@CAELT@METAR SLRB 172000Z 36006KT 9999 SCT020 38/22 Q1009 A2980 HR38 RWY NML=@CAELT@
ZPX0531 171950@CAELT@GG SLZZYMYT@CAELT@171951 SLRBYGYS@CAELT@SABO SLRB 172000@CAELT@METAR SLRB 172000Z 36006KT 9999 SCT020 38/22 Q1009 A2980 HR38 RWY NML=@CAELT@
ZPX0533 171954@CAELT@GG SLZZYMYT@CAELT@171955 SLSAYGYS@CAELT@SABO SLSA 172000@CAELT@METAR SLSA 172000Z 34005KT 8000 SCT017 34/24 Q1008 A2979 HR54 FU=@CAELT@
ZPX0534 171954@CAELT@GG SLZZYMYT@CAELT@171955 SLSAYGYS@CAELT@SABO SLSA 172000@CAELT@METAR SLSA 172000Z 34005KT 8000 SCT017 34/24 Q1008 A2979 HR54 FU=@CAELT@
ZPX0535 171954@CAELT@GG SLZZYMYT@CAELT@171955 SLVRYGYZ@CAELT@SABO SLVR 172000@CAELT@METAR SLVR 172000Z 35012KT 9999 FEW020 33/20 Q1008 A2977 HR46 CI@CAELT@NOSIG=@CAELT@
ZPX0536 171954@CAELT@GG SLZZYMYT@CAELT@171955 SLRQYSYX@CAELT@SABO SLRQ 172000@CAELT@METAR SLRQ 172000Z 36004KT 9999 SCT020 33/23 Q1008 A2978 984.3 HR55=@CAELT@
ZPX0537 171955@CAELT@GG SLZZYMYT@CAELT@171952 SLETYMYC@CAELT@SABO SLET 172000@CAELT@METAR SLET 172000Z 30013G25KT 9999 FEW020 32/19 Q1008 A2977 HR46@CAELT@NOSIG=@CAELT@
ZPX0538 171955@CAELT@GG SLZZYMYT@CAELT@171955 SLSBYSYX@CAELT@SABO SLSB 172000@CAELT@METAR SLSB 172000Z 32004KT 9999 FEW020 33/23 Q1009 A2982 HR55 RWY NML=@CAELT@
ZPX0539 171955@CAELT@GG SLZZYMYT@CAELT@171955 SLCAYGYS@CAELT@SABO SLCA 172000@CAELT@METAR SLCA 172000Z 00000KT 9999 FEW036 OVC070 33/14 Q1010 A2983 HR33@CAELT@FU RWY NML=@CAELT@
ZPX0540 171956@CAELT@GG SLZZYMYT@CAELT@171955 SLLPYGYZ@CAELT@SABO SLLP 172000@CAELT@METAR SLLP 172000Z 34009KT 8000 -RA SCT017 FEW020CB BKN070 05/03@CAELT@Q1037 A3064 627.8 HR86 P4755 CB/N/NE/S CI NOSIG=@CAELT@
ZPX0541 171956@CAELT@GG SLZZYMYT@CAELT@171956 SLTRYGYZ@CAELT@SABO SLTR 172000@CAELT@METAR SLTR 172000Z 30008KT 9999 FEW020 33/22 Q1008 A2977 989.7@CAELT@HR50 FU NOSIG=@CAELT@
ZPX0542 171957@CAELT@GG SLZZYMYT@CAELT@171957 SLTRYGYS@CAELT@SABO SLTR 172000@CAELT@METAR SLTR 172000Z 30008KT 9999 FEW020 33/22 Q1008 A2977 989.7 HR50@CAELT@FU NOSIG=@CAELT@METAR SLSA 172000Z 34005KT 8000 SCT017 34/24 Q1008 A2979 HR54 FU=@CAELT@
ZPX0544 171959@CAELT@GG SLZZYMYT@CAELT@171957 SLLPYFYA@CAELT@SABO SLRY 172000@CAELT@METAR SLRY 172000Z 34004KT 9999 FEW020 33/24 Q1007 A2974 HR57@CAELT@RWY NML=@CAELT@
ZPX0546 171959@CAELT@GG SLZZYMYT@CAELT@171957 SLCBYGYZ@CAELT@SABO SLCB 172000@CAELT@METAR SLCB 172000Z 30012KT 260V360 9999 FEW036 FEW040CB SCT070 BKN200@CAELT@23/04 Q1021 A3016 748.6 HR29 CB/SE/S/SW/W/NW SH/W/NW FU NOSIG=@CAELT@
ZPX0547 172000@CAELT@GG SLZZYMYT@CAELT@171959 SLCBYGYS@CAELT@SABO SLCB 172000@CAELT@METAR SLCB 172000Z 30012KT 260V360 9999 FEW036 FEW040CB SCT070 BKN200@CAELT@23/04 Q1021 A3016 748.6 HR29 CB/SE/S/SW/W/NW SH/W/NW FU NOSIG=@CAELT@
ZPX0548 172000@CAELT@GG SLZZYMYT@CAELT@171958 SLVRYGYS@CAELT@SABO SLVR 172000@CAELT@METAR SLVR 172000Z 35012KT 9999 FEW020 33/20 Q1008 A2977 HR46 CI@CAELT@NOSIG=@CAELT@METAR SLET 172000Z 30013G25KT 9999 FEW020 32/19 Q1008 A2977 HR46@CAELT@METAR SLAS 172000Z 31004KT 9999 NSC 36/23 Q1009 A2980 HR56@CAELT@FU RWY NML=METAR SLJV 172000Z 36008KT 9999 NSC 34/21 Q1010 A2983 HR46METAR SLCP 172000Z 00000KT 9999 NSC 32/21 Q1012 A2988 HR52FU CI RWY NML=METAR SLSI 172000Z 33005KT 8000 SCT020 36/22 Q1007 A2974 HR42METAR SLTI 172000Z 00000KT 6000 NSC 39/20 Q1009 A2980 HR32 FU RWY NMLMETAR SLJE 172000Z 36006KT 9000 FEW017 37/22 Q1011 A2985 HR43METAR SLVG 172000Z 36010KT 9999 SCT025 FEW030CB 25/10 Q1021 A3015HR36 CB/S RWY NML=METAR SLRB 172000Z 36006KT 9999 SCT020 38/22 Q1009 A2980 HR38 RWY NMLMETAR SLCA 172000Z 00000KT 9999 FEW036 OVC070 33/14 Q1010 A2983HR33 FU RWY NML=
ZPX0550 172000@CAELT@GG SLZZYMYT@CAELT@172000 SLLPYFYA@CAELT@SABO SLLP 172000@CAELT@METAR SLLP 172000Z 34009KT 8000 -RA SCT017 FEW020CB BKN070 05/03@CAELT@Q1037 A3064 627.8 HR86 P4755 CB/N/NE/S CI NOSIG=@CAELT@METAR SLRY 172000Z 34004KT 9999 FEW020 33/24 Q1007 A2974 HR57@CAELT@RWY NML=@CAELT@METAR SLRQ 172000Z 36004KT 9999 SCT020 33/23 Q1008 A2978 984.3HR55=METAR SLSB 172000Z 32004KT 9999 FEW020 33/23 Q1009 A2982 HR55
ZPX0562 172048@CAELT@GG SLZZYMYT@CAELT@172050 SLRBYGYS@CAELT@SABO SLRB 172100@CAELT@METAR SLRB 172100Z 00000KT 9999 SCT020 FEW025CB 36/21 Q1009 A2980@CAELT@HR41 CB/SE/E RWY NML=@CAELT@
ZPX0563 172055@CAELT@GG SLZZYMYT@CAELT@172055 SLSBYSYX@CAELT@SABO SLSB 172100@CAELT@METAR SLSB 172100Z 33004KT 9999 NSC 33/22 Q1007 A2975 HR51 RWY NML=@CAELT@
ZPX0564 172055@CAELT@GG SLZZYMYT@CAELT@172055 SLSAYGYS@CAELT@SABO SLSA 172100@CAELT@METAR SLSA 172100Z 00000KT 8000 SCT017 34/23 Q1007 A2975 HR53 FU=@CAELT@
ZPX0565 172055@CAELT@GG SLZZYMYT@CAELT@172055 SLSAYGYS@CAELT@SABO SLSA 172100@CAELT@METAR SLSA 172100Z 00000KT 8000 SCT017 34/23 Q1007 A2975 HR53 FU=@CAELT@
ZPX0566 172055@CAELT@GG SLZZYMYT@CAELT@172056 SLVRYGYZ@CAELT@SABO SLVR 172100@CAELT@METAR SLVR 172100Z 33014KT 9999 FEW020 32/19 Q1007 A2976 HR46 CI@CAELT@NOSIG=@CAELT@
ZPX0568 172056@CAELT@GG SLZZYMYT@CAELT@172056 SLTRYGYZ@CAELT@SABO SLTR 172100@CAELT@METAR SLTR 172100Z 30006KT 9999 FEW020 33/22 Q1007 A2975 988.9@CAELT@HR52 FU NOSIG=@CAELT@
ZPX0569 172056@CAELT@GG SLZZYMYT@CAELT@172056 SLETYMYC@CAELT@SABO SLET 172100@CAELT@METAR SLET 172100Z 30013G25KT 9999 FEW020 32/19 Q1007 A2976 HR46@CAELT@NOSIG=@CAELT@
ZPX0570 172056@CAELT@GG SLZZYMYT@CAELT@172055 SLLPYGYZ@CAELT@SABO SLLP 172100@CAELT@METAR SLLP 172100Z VRB02KT 9999 SCT017 FEW020CB BKN070 06/03 Q1037@CAELT@A3062 627.3 HR79 P4457 CB/SH E/SE/S CI NOSIG=@CAELT@
ZPX0571 172057@CAELT@GG SLZZYMYT@CAELT@172055 SLRQYSYX@CAELT@SABO SLRQ 172100@CAELT@METAR SLRQ 172100Z 36004KT 9999 FEW020 33/24 Q1007 A2975 983.3 HR60=@CAELT@
ZPX0574 172058@CAELT@GG SLZZYMYT@CAELT@172057 SLVRYGYS@CAELT@SABO SLVR 172100@CAELT@METAR SLVR 172100Z 33014KT 9999 FEW020 32/19 Q1007 A2976 HR46 CI@CAELT@NOSIG=@CAELT@METAR SLET 172100Z 30013G25KT 9999 FEW020 32/19 Q1007 A2976 HR46@CAELT@METAR SLAS 172100Z 00000KT 9999 NSC 31/25 Q1009 A2980 HR71@CAELT@FU RWY NML=METAR SLJV 172100Z 00000KT 9999 NSC 34/20 Q1008 A2977 HR44METAR SLCP 172100Z 00000KT 9999 NSC 32/21 Q1011 A2985 HR52METAR SLSI 172100Z 33006KT 8000 SCT020 35/20 Q1007 A2974 HR41METAR SLTI 172100Z 00000KT 6000 NSC 39/20 Q1009 A2980 HR32METAR SLJE 172100Z 36006KT 9000 FEW017 37/22 Q1010 A2983 HR44METAR SLVG 172100Z 36007KT 9999 SCT025 FEW030CB BKN200 22/11 Q1021A3015 HR47 CB/S RWY NML=METAR SLRB 172100Z 00000KT 9999 SCT020 FEW025CB 36/21 Q1009 A2980HR41 CB/SE/E RWY NML=METAR SLCA 172100Z 00000KT 9999 FEW036 OVC070 33/14 Q1010 A2983HR34 FU RWY NML=
ZPX0575 172058@CAELT@GG SLZZYMYT@CAELT@172057 SLCBYGYZ@CAELT@SABO SLCB 172100@CAELT@METAR SLCB 172100Z 27010KT 190V350 9999 FEW036 FEW040CB SCT070 BKN200@CAELT@20/05 Q1021 A3017 748.8 HR36 CB/E/SE/W/NW SH/W/NW FU NOSIG=@CAELT@
ZPX0576 172059@CAELT@GG SLZZYMYT@CAELT@172059 SLCAYGYS@CAELT@SABO SLCA 172100@CAELT@METAR SLCA 172100Z 00000KT 9999 FEW036 OVC070 33/14 Q1010 A2983 HR34@CAELT@FU RWY NML=@CAELT@
ZPX0577 172059@CAELT@GG SLZZYMYT@CAELT@172059 SLLPYFYA@CAELT@SABO SLRY 172100@CAELT@METAR SLRY 172100Z 00000KT 9999 NSC 33/23 Q1006 A2972 HR55@CAELT@RWY NML=@CAELT@
ZPX0578 172059@CAELT@GG SLZZYMYT@CAELT@172059 SLCBYGYS@CAELT@SABO SLCB 172100@CAELT@METAR SLCB 172100Z 27010KT 190V350 9999 FEW036 FEW040CB SCT070 BKN200@CAELT@20/05 Q1021 A3017 748.8 HR36 CB/E/SE/W/NW SH/W/NW FU NOSIG=@CAELT@
ZPX0580 172100@CAELT@GG SLZZYMYT@CAELT@172100 SLLPYFYA@CAELT@SABO SLLP 172100@CAELT@METAR SLLP 172100Z VRB02KT 9999 SCT017 FEW020CB BKN070 06/03 Q1037@CAELT@A3062 627.3 HR79 P4457 CB/SH E/SE/S CI NOSIG=@CAELT@METAR SLRY 172100Z 00000KT 9999 NSC 33/23 Q1006 A2972 HR55@CAELT@RWY NML=@CAELT@METAR SLRQ 172100Z 36004KT 9999 FEW020 33/24 Q1007 A2975 983.3HR60=METAR SLSB 172100Z 33004KT 9999 NSC 33/22 Q1007 A2975 HR51
ZPX0584 172107@CAELT@GG SLZZYMYT@CAELT@172100 SLTRYGYS@CAELT@SABO SLTR 172100@CAELT@METAR SLTR 172100Z 30006KT 9999 FEW020 33/22 Q1007 A2975 988.9@CAELT@HR52 FU NOSIG=@CAELT@METAR SLSA 172100Z 00000KT 8000 SCT017 34/23 Q1007 A2975 HR53 FU=@CAELT@
ZPX0595 172149@CAELT@GG SLZZYMYT@CAELT@172150 SLRBYGYS@CAELT@SABO SLRB 172200@CAELT@METAR SLRB 172200Z 00000KT 9999 SCT020 FEW025CB 34/22 Q1010 A2983@CAELT@HR49 CB NE/E/SE RWY NML=@CAELT@
ZPX0597 172154@CAELT@GG SLZZYMYT@CAELT@172155 SLVRYGYZ@CAELT@SABO SLVR 172200@CAELT@METAR SLVR 172200Z 33010KT 9999 NSC 31/19 Q1008 A2978 HR47 CI NOSIG=@CAELT@
ZPX0598 172154@CAELT@GG SLZZYMYT@CAELT@172155 SLRQYSYX@CAELT@SABO SLRQ 172200@CAELT@METAR SLRQ 172200Z 00000KT 9999 NSC 30/25 Q1007 A2974 983.0 HR72 CI=@CAELT@
ZPX0599 172155@CAELT@GG SLZZYMYT@CAELT@172155 SLSAYGYS@CAELT@SABO SLSA 172200@CAELT@METAR SLSA 172200Z 00000KT 8000 FEW017 BKN200 33/23 Q1007 A2975@CAELT@HR57 FU=@CAELT@
ZPX0600 172155@CAELT@GG SLZZYMYT@CAELT@172155 SLSAYGYS@CAELT@SABO SLSA 172200@CAELT@METAR SLSA 172200Z 00000KT 8000 FEW017 BKN200 33/23 Q1007 A2975@CAELT@HR57 FU=@CAELT@
ZPX0601 172156@CAELT@GG SLZZYMYT@CAELT@172155 SLLPYGYZ@CAELT@SABO SLLP 172200@CAELT@METAR SLLP 172200Z 17005KT 9999 FEW017 FEW020CB BKN200 06/02 Q1036@CAELT@A3061 627.1 HR78 P3783 CB/SH SE/S AC NOSIG=@CAELT@
ZPX0602 172156@CAELT@GG SLZZYMYT@CAELT@172156 SLCBYGYZ@CAELT@SABO SLCB 172200@CAELT@METAR SLCB 172200Z 26008KT 180V320 9999 FEW036 FEW040CB SCT070 BKN200@CAELT@19/05 Q1023 A3021 749.8 HR38 CB/E/W/NW SH/NW FU NOSIG=@CAELT@
ZPX0603 172156@CAELT@GG SLZZYMYT@CAELT@172156 SLTRYGYZ@CAELT@SABO SLTR 172200@CAELT@METAR SLTR 172200Z 27004KT 9999 NSC 32/22 Q1007 A2974 988.8 HR56@CAELT@FU CI NOSIG=@CAELT@
ZPX0604 172157@CAELT@GG SLZZYMYT@CAELT@172156 SLETYMYC@CAELT@SABO SLET 172200@CAELT@METAR SLET 172200Z 30012KT 9999 FEW020 31/19 Q1008 A2978 HR49 NOSIG=@CAELT@
ZPX0605 172157@CAELT@GG SLZZYMYT@CAELT@172157 SLCBYGYS@CAELT@SABO SLCB 172200@CAELT@METAR SLCB 172200Z 26008KT 180V320 9999 FEW036 FEW040CB SCT070 BKN200@CAELT@19/05 Q1023 A3021 749.8 HR38 CB/E/W/NW SH/NW FU NOSIG=@CAELT@
ZPX0606 172157@CAELT@GG SLZZYMYT@CAELT@172157 SLCAYGYS@CAELT@SABO SLCA 172200@CAELT@METAR SLCA 172200Z 00000KT 9999 SCT036 OVC070 31/14 Q1012 A2988 HR37@CAELT@FU RWY NML=@CAELT@
ZPX0607 172157@CAELT@GG SLZZYMYT@CAELT@172156 SLSBYSYX@CAELT@SABO SLSB 172200@CAELT@METAR SLSB 172200Z 00000KT 9999 NSC 32/23 Q1006 A2972 HR61 RWY NML=@CAELT@
ZPX0608 172157@CAELT@GG SLZZYMYT@CAELT@172157 SLTRYGYS@CAELT@SABO SLTR 172200@CAELT@METAR SLTR 172200Z 27004KT 9999 NSC 32/22 Q1007 A2974 988.8 HR56@CAELT@FU CI NOSIG=@CAELT@METAR SLSA 172200Z 00000KT 8000 FEW017 BKN200 33/23 Q1007 A2975 HR57@CAELT@
ZPX0609 172159@CAELT@GG SLZZYMYT@CAELT@172158 SLLPYFYA@CAELT@SABO SLRY 172200@CAELT@METAR SLRY 172200Z 00000KT 9999 NSC 32/23 Q1005 A2970 HR61@CAELT@RWY NML=@CAELT@
ZPX0612 172200@CAELT@GG SLZZYMYT@CAELT@172159 SLLPYFYA@CAELT@SABO SLLP 172200@CAELT@METAR SLLP 172200Z 17005KT 9999 FEW017 FEW020CB BKN200 06/02 Q1036@CAELT@A3061 627.1 HR78 P3783 CB/SH SE/S AC NOSIG=@CAELT@METAR SLRY 172200Z 00000KT 9999 NSC 32/23 Q1005 A2970 HR61@CAELT@RWY NML=@CAELT@METAR SLRQ 172200Z 00000KT 9999 NSC 30/25 Q1007 A2974 983.0HR72 CI=METAR SLSB 172200Z 00000KT 9999 NSC 32/23 Q1006 A2972 HR61
ZPX0613 172200@CAELT@GG SLZZYMYT@CAELT@172159 SLVRYGYS@CAELT@SABO SLVR 172200@CAELT@METAR SLVR 172200Z 33010KT 9999 NSC 31/19 Q1008 A2978 HR47 CI NOSIG=@CAELT@METAR SLET 172200Z 30012KT 9999 FEW020 31/19 Q1008 A29.78 HR49 NOSIG=@CAELT@METAR SLAS 172200Z 00000KT 9999 NSC 30/23 Q1009 A2980 HR67@CAELT@FU RWY NML=@CAELT@METAR SLJV 172200Z 00000KT 9999 NSC 31/20 Q1008 A2977 HR53 RWY NML=METAR SLCP 172200Z 00000KT 9999 NSC 32/22 Q1011 A2985 HR56FU CI RWY NML=METAR SLSI 172200Z 00000KT 8000 NSC 34/21 Q1007 A2974 HR45METAR SLTI 172200Z 00000KT 6000 NSC 37/21 Q1009 A2980 HR40METAR SLJE 172200Z 36005KT 9000 NSC 36/22 Q1010 A2983 HR45METAR SLRB 172200Z 00000KT 9999 SCT020 FEW025CB 34/22 Q1010A2983 HR49 CB NE/E/SE RWY NML=METAR SLCA 172200Z 00000KT 9999 SCT036 OVC070 31/14 Q1012A2988 HR37 FU RWY NML=
ZPX0625 172251@CAELT@GG SLZZYMYT@CAELT@172250 SLCAYGYS@CAELT@SABO SLCA 172300@CAELT@METAR SLCA 172300Z 12004KT 9999 SCT036 OVC070 31/14 Q1013 A2991 HR36@CAELT@FU RWY NML=@CAELT@
ZPX0626 172254@CAELT@GG SLZZYMYT@CAELT@172254 SLRBYGYS@CAELT@SABO SLRB 172300@CAELT@METAR SLRB 172300Z 00000KT 9999 FEW025CB 30/22 Q1011 A2985 HR61 CB/LT@CAELT@N/NW/W RWY NML=@CAELT@
ZPX0627 172254@CAELT@GG SLZZYMYT@CAELT@172255 SLVRYGYZ@CAELT@SABO SLVR 172300@CAELT@METAR SLVR 172300Z 33007KT 9999 NSC 29/19 Q1009 A2980 HR56 CI NOSIG=@CAELT@
ZPX0628 172255@CAELT@GG SLZZYMYT@CAELT@172255 SLCBYGYZ@CAELT@SABO SLCB 172300@CAELT@METAR SLCB 172300Z 26003KT 9999 FEW033 FEW036CB BKN070 19/06 Q1023@CAELT@A3023 750.5 HR43 CB NE/E/NW SH/NW FU CI NOSIG=@CAELT@
ZPX0629 172255@CAELT@GG SLZZYMYT@CAELT@172255 SLSBYSYX@CAELT@SABO SLSB 172300@CAELT@METAR SLSB 172300Z 00000KT 9999 NSC 28/24 Q1007 A2976 HR76 RWY NML=@CAELT@
ZPX0630 172256@CAELT@GG SLLPZRZX@CAELT@172255 SLLPYGYZ@CAELT@SABO SLLP 172300@CAELT@METAR SLLP 172300Z 13005KT 9999 FEW015 FEW017CB BKN200 06/02 Q1037@CAELT@A3063 627.3 HR79 CB/LT S/SW/NW AC NOSIG=@CAELT@
ZPX0631 172258@CAELT@GG SLZZYMYT@CAELT@172258 SLLPYFYA@CAELT@SABO SLLP 172300@CAELT@METAR SLLP 172300Z 13005KT 9999 FEW015 FEW017CB BKN200 06/02 Q1037@CAELT@A3063 627.3 HR79 CB/LT S/SW/NW AC NOSIG=@CAELT@METAR SLSB 172300Z 00000KT 9999 NSC 28/24 Q1007 A2976 HR76 RWY NML=@CAELT@
ZPX0632 172258@CAELT@GG SLZZYMYT@CAELT@172258 SLVRYGYS@CAELT@SABO SLVR 172300@CAELT@METAR SLVR 172300Z 33007KT 9999 NSC 29/19 Q1009 A2980 HR56 CI NOSIG=@CAELT@METAR SLSI 172300Z 00000KT 8000 NSC 32/22 Q1008 A2977 HR54 FU RWY NML@CAELT@METAR SLRB 172300Z 00000KT 9999 FEW025CB 30/22 Q1011 A2985 HR61@CAELT@CB/LT N/NW/W RWY NML=@CAELT@METAR SLCA 172300Z 12004KT 9999 SCT036 OVC070 31/14 Q1013 A2991HR36 FU RWY NML=
ZPX0639 172354@CAELT@GG SLZZYMYT@CAELT@172354 SLVRYGYZ@CAELT@SABO SLVR 180000@CAELT@METAR SLVR 180000Z 35004KT 9999 NSC 26/20 Q1009 A2982 HR68 NOSIG=@CAELT@
