
ZPX0009 290054@CAELT@GG SLZZYMYT@CAELT@290054 SLCBYGYZ@CAELT@SABO SLCB 290100@CAELT@METAR SLCB 290100Z 10010KT 9999 FEW036 SCT200 23/07 Q1022 A3020 749.7@CAELT@HR36 AC FU NOSIG=@CAELT@
ZPX0010 290055@CAELT@GG SLZZYMYT@CAELT@290055 SLVRYGYZ@CAELT@SABO SLVR 290100@CAELT@METAR SLVR 290100Z 31004KT 9999 NSC 27/21 Q1011 A2985 HR71 CI NOSIG=@CAELT@
ZPX0011 290055@CAELT@GG SLZZYMYT@CAELT@290055 SLLPYGYZ@CAELT@SABO SLLP 290100@CAELT@METAR SLLP 290100Z 08006KT 9999 FEW015 FEW017CB BKN200 08/04 Q1037@CAELT@A3064 627.7 HR71 CB/LT/DIST SW NOSIG=@CAELT@
ZPX0019 290154@CAELT@GG SLZZYMYT@CAELT@290154 SLCBYGYZ@CAELT@SABO SLCB 290200@CAELT@METAR SLCB 290200Z 14004KT 9999 FEW036 SCT200 21/06 Q1024 A3024 750.6@CAELT@HR38 AC FU NOSIG=@CAELT@
ZPX0020 290154@CAELT@GG SLZZYMYT@CAELT@290156 SLLPYGYZ@CAELT@SABO SLLP 290200@CAELT@METAR SLLP 290200Z 06011KT 9999 FEW013 FEW017CB BKN200 08/05 Q1038@CAELT@A3067 628.4 HR80 CB/LT/DIST SW AC NOSIG=@CAELT@
ZPX0021 290155@CAELT@GG SLZZYMYT@CAELT@290155 SLVRYGYZ@CAELT@SABO SLVR 290200@CAELT@METAR SLVR 290200Z 35004KT 9999 NSC 26/21 Q1011 A2988 HR74 CI NOSIG=@CAELT@
ZPX0032 290255@CAELT@GG SLZZYMYT@CAELT@290255 SLVRYGYZ@CAELT@SABO SLVR 290300@CAELT@METAR SLVR 290300Z 36005KT 9999 NSC 26/22 Q1011 A2988 HR76 CI NOSIG=@CAELT@
ZPX0033 290257@CAELT@GG SLZZYMYT@CAELT@290256 SLCBYGYZ@CAELT@SABO SLCB 290300@CAELT@METAR SLCB 290300Z 13004KT 9999 FEW036 SCT200 20/07 Q1024 A3027 751.3@CAELT@HR42 AC FU NOSIG=@CAELT@
ZPX0041 290354@CAELT@GG SLZZYMYT@CAELT@290354 SLCBYGYZ@CAELT@SABO SLCB 290400@CAELT@METAR SLCB 290400Z 12004KT 9999 FEW036 SCT200 19/07 Q1024 A3027 751.3@CAELT@HR45 AC FU NOSIG=@CAELT@
ZPX0042 290355@CAELT@GG SLZZYMYT@CAELT@290355 SLVRYGYZ@CAELT@SABO SLVR 290400@CAELT@METAR SLVR 290400Z 34006KT 9999 NSC 25/22 Q1011 A2988 HR80 CI NOSIG=@CAELT@
ZPX0043 290355@CAELT@GG SLLPZRZX@CAELT@290355 SLLPYGYZ@CAELT@SABO SLLP 290400@CAELT@METAR SLLP 290400Z 07007KT 9999 FEW010 BKN200 08/03 Q1038 A3068@CAELT@628.6 HR70 AC NOSIG=@CAELT@
ZPX0057 290453@CAELT@GG SLZZYMYT@CAELT@290453 SLCBYGYZ@CAELT@SABO SLCB 290500@CAELT@METAR SLCB 290500Z 12006KT 9999 FEW036 SCT200 19/08 Q1024 A3025 751.0@CAELT@HR49 AC FU NOSIG=@CAELT@
ZPX0058 290455@CAELT@GG SLZZYMYT@CAELT@290455 SLVRYGYZ@CAELT@SABO SLVR 290500@CAELT@METAR SLVR 290500Z 35005KT 9999 NSC 25/22 Q1011 A2987 HR82 CI NOSIG=@CAELT@
ZPX0059 290456@CAELT@GG SLLPZRZX@CAELT@290455 SLLPYGYZ@CAELT@SABO SLLP 290500@CAELT@METAR SLLP 290500Z 16004KT 9999 FEW004 FEW017CB BKN200 07/05 Q1038@CAELT@A3067 628.4 HR85 CB/LT NE AC BECMG 4000E VCFG=@CAELT@
ZPX0066 290554@CAELT@GG SLZZYMYT@CAELT@290554 SLCBYGYZ@CAELT@SABO SLCB 290600@CAELT@METAR SLCB 290600Z 16008KT 9999 FEW036 SCT200 18/08 Q1024 A3024 750.7@CAELT@HR52 AC FU NOSIG=@CAELT@
ZPX0067 290555@CAELT@GG SLZZYMYT@CAELT@290555 SLVRYGYZ@CAELT@SABO SLVR 290600@CAELT@METAR SLVR 290600Z 33007KT 9999 NSC 25/22 Q1011 A2985 HR83 CI NOSIG=@CAELT@
ZPX0068 290556@CAELT@GG SLZZYMYT@CAELT@290555 SLLPYGYZ@CAELT@SABO SLLP 290600@CAELT@METAR SLLP 290600Z 10004KT 9999 FEW004 FEW017CB BKN200 05/04 Q1037@CAELT@A3064 627.7 HR91 CB/LT NE AC NOSIG=@CAELT@
ZPX0075 290651@CAELT@GG SLZZYMYT@CAELT@290651 SLVRYGYZ@CAELT@SABO SLVR 290700@CAELT@METAR SLVR 290700Z 32007KT 9999 NSC 24/22 Q1011 A2985 HR86 CI NOSIG=@CAELT@
ZPX0076 290654@CAELT@GG SLZZYMYT@CAELT@290654 SLCBYGYZ@CAELT@SABO SLCB 290700@CAELT@METAR SLCB 290700Z 15004KT 9999 FEW036 SCT200 17/09 Q1023 A3023 750.5@CAELT@HR57 AC FU NOSIG=@CAELT@
ZPX0077 290656@CAELT@GG SLLPZRZX@CAELT@290656 SLLPYGYZ@CAELT@SABO SLLP 290700@CAELT@METAR SLLP 290700Z 07003KT 4000E VCFG FEW003 FEW017CB BKN200 04/03@CAELT@Q1037 A3062 627.3 HR96 VCFG NE/E/SE CB/LT NE NOSIG=@CAELT@
ZPX0084 290753@CAELT@GG SLZZYMYT@CAELT@290754 SLCBYGYZ@CAELT@SABO SLCB 290800@CAELT@METAR SLCB 290800Z 13003KT 9999 FEW036 SCT200 17/09 Q1023 A3023 750.5@CAELT@HR57 AC FU NOSIG=@CAELT@
ZPX0085 290755@CAELT@GG SLLPZRZX@CAELT@290656 SLLPYGYZ@CAELT@SABO SLLP 290800@CAELT@METAR SLLP 290800Z VRB02KT 4000E VCFG FEW003 BKN200 06/05 Q1037 A3062@CAELT@627.4 HR94 VCFG NE/E/SE NOSIG=@CAELT@
ZPX0089 290804@CAELT@GG SLZZYMYT@CAELT@290804 SLVRYGYU@CAELT@SABO SLVR 290800 RRA@CAELT@METAR SLVR 290800Z 32006KT 9999 NSC 24/22 Q1011 A2985 HR87 CI NOSIG=@CAELT@
ZPX0096 290851@CAELT@GG SLZZYMYT@CAELT@290852 SLVRYGYZ@CAELT@SABO SLVR 290900@CAELT@METAR SLVR 290900Z 32006KT 9999 NSC 24/22 Q1011 A2985 HR89 CI NOSIG=@CAELT@
ZPX0097 290854@CAELT@GG SLZZYMYT@CAELT@290854 SLCBYGYZ@CAELT@SABO SLCB 290900@CAELT@METAR SLCB 290900Z 23003KT 9999 FEW036 SCT200 16/08 Q1024 A3024 750.6@CAELT@HR61 AC FU NOSIG=@CAELT@
ZPX0098 290856@CAELT@GG SLLPZRZX@CAELT@290856 SLLPYGYZ@CAELT@SABO SLLP 290900@CAELT@METAR SLLP 290900Z VRB02KT 4000E VCFG FEW003 SCT010 BKN200 05/05@CAELT@Q1037 A3064 627.7 HR95 VCFG NE/E/SE NOSIG=@CAELT@
ZPX0099 290856@CAELT@GG SLZZYMYT@CAELT@290856 SLTRYGYZ@CAELT@SABO SLTR 290900@CAELT@METAR SLTR 290900Z 00000KT 9999 NSC 23/23 Q1010 A2984 992.1 HR97@CAELT@CI NOSIG=@CAELT@
ZPX0100 290859@CAELT@GG SLZZYMYT@CAELT@290858 SLTRYGYS@CAELT@SABO SLTR 290900@CAELT@METAR SLTR 290900Z 00000KT 9999 NSC 23/23 Q1010 A2984 992.1 HR97@CAELT@CI NOSIG=@CAELT@METAR SLRI 290900Z 00000KT 9999 SCT008 BKN200 23/23 Q1011 A2988 HR98@CAELT@
ZPX0112 290950@CAELT@GG SLZZYMYT@CAELT@290950 SLCAYGYS@CAELT@SABO SLCA 291000@CAELT@METAR SLCA 291000Z 00000KT 9999 NSC 19/18 Q1015 A2997 HR84 RWY NML=@CAELT@
ZPX0113 290954@CAELT@GG SLZZYMYT@CAELT@290954 SLVRYGYZ@CAELT@SABO SLVR 291000@CAELT@METAR SLVR 291000Z 34004KT 9999 NSC 23/22 Q1011 A2985 HR91 CI NOSIG=@CAELT@
ZPX0114 290954@CAELT@GG SLZZYMYT@CAELT@290952 SLETYMYC@CAELT@SABO SLET 291000Z@CAELT@METAR SLET 291000Z 32007KT 9999 NSC 25/22 Q1011 A2987 HR84 NOSIG=@CAELT@
ZPX0115 290955@CAELT@GG SLZZYMYT@CAELT@290954 SLCBYGYZ@CAELT@SABO SLCB 291000@CAELT@METAR SLCB 291000Z 10004KT 9999 FEW036 SCT200 15/08 Q1024 A3026 751.1@CAELT@HR60 AC FU NOSIG=@CAELT@
ZPX0116 290955@CAELT@GG SLZZYMYT@CAELT@290953 SLRBYGYS@CAELT@SABO SLRB 291000@CAELT@METAR SLRB 291000Z 00000KT 9999 NSC 25/22 Q1014 A2994 HR84 RWY NML=@CAELT@
ZPX0117 290955@CAELT@GG SLZZYMYT@CAELT@290955 SLRQYSYX@CAELT@SABO SLRQ 291000@CAELT@METAR SLRQ 291000Z 00000KT 6000 BKN006 25/25 Q1010 A2985 HR99 VIS RED@CAELT@ST BAJOS TODAS DIRECCIONES=@CAELT@
ZPX0118 290955@CAELT@GG SLZZYMYT@CAELT@290955 SLSAYGYS@CAELT@SABO SLSA 291000@CAELT@METAR SLSA 291000Z 00000KT 8000 BKN080 24/23 Q1010 A2983 HR95 FU=@CAELT@
ZPX0119 290955@CAELT@GG SLZZYMYT@CAELT@290955 SLSAYGYS@CAELT@SABO SLSA 291000@CAELT@METAR SLSA 291000Z 00000KT 8000 BKN080 24/23 Q1010 A2983 HR95 FU=@CAELT@
ZPX0120 290956@CAELT@GG SLZZYMYT@CAELT@290955 SLSBYSYX@CAELT@SABO SLSB 291000@CAELT@METAR SLSB 291000Z 00000KT 7000 NSC 24/23 Q1010 A2985 HR97 FU RWY NML=@CAELT@
ZPX0121 290956@CAELT@GG SLZZYMYT@CAELT@290956 SLLPYGYZ@CAELT@SABO SLLP 291000@CAELT@METAR SLLP 291000Z 29003KT 4000E VCFG FEW003 SCT012 FEW017CB BKN200@CAELT@06/05 Q1038 A3065 628.1 HR92 P1783 VCFG NE/E/SE CB/NE NOSIG=@CAELT@
ZPX0122 290956@CAELT@GG SLZZYMYT@CAELT@290956 SLTRYGYZ@CAELT@SABO SLTR 291000@CAELT@METAR SLTR 291000Z 00000KT 9999 NSC 24/23 Q1011 A2986 992.6 HR97@CAELT@CI NOSIG=@CAELT@
ZPX0123 290958@CAELT@GG SLZZYMYT@CAELT@290957 SLTRYGYS@CAELT@SABO SLTR 291000@CAELT@METAR SLTR 291000Z 00000KT 9999 NSC 24/23 Q1011 A2986 992.6 HR97@CAELT@CI NOSIG=@CAELT@METAR SLGM 291000Z NIL=@CAELT@METAR SLRI 291000Z 00000KT 9999 BKN008 BKN200 23/23 Q1013 A2992@CAELT@HR98 AC=METAR SLJO 291000Z 00000KT 9999 NSC 23/23 Q1011 A2986 HR98 CIRWY OPR C206=METAR SLRA 291000Z 00000KT 9999 FEW080 24/23 Q1010 A2985 HR98CI RWY NML=METAR SLMG 291000Z 00000KT 9999 FEW080 23/23 Q1010 A2984 HR98RWY HUM OPR=METAR SLBU 291000Z NIL=METAR SLSA 291000Z 00000KT 8000 BKN080 24/23 Q1010 A2983 HR95 FU=METAR SLSR 291000Z 00000KT 3000 BR FEW017 FEW023CB BKN200 24/23Q1010 A2984 HR98 CB NW RWY NML=METAR SLSM 291000Z 00000KT 9999 NSC 23/23 Q1010 A2984 HR98 CIRWY NML=
ZPX0126 291001@CAELT@GG SLZZYMYT@CAELT@291000 SLLPYFYA@CAELT@SABO SLLP 291000@CAELT@METAR SLLP 291000Z 29003KT 4000E VCFG FEW003 SCT012 FEW017CB BKN200@CAELT@06/05 Q1038 A3065 628.1 HR92 P1783 VCFG NE/E/SE CB/NE NOSIG=@CAELT@METAR SLRY 291000Z 00000KT 9999 FEW023 BKN200 23/23 Q1009 A2982@CAELT@HR100 RWY NML=@CAELT@METAR SLRQ 291000Z 00000KT 6000 BKN006 25/25 Q1010 A2985 HR99 VISRED ST BAJOS TODAS DIRECCIONES=METAR SLSB 291000Z 00000KT 7000 NSC 24/23 Q1010 A2985 HR97 FU RWY NML
ZPX0127 291002@CAELT@GG SLZZYMYT@CAELT@291002 SLVRYFYC@CAELT@SABO SLVR 291000@CAELT@METAR SLVR 291000Z 34004KT 9999 NSC 23/22 Q1011 A2985 HR91@CAELT@CI NOSIG=@CAELT@METAR SLET 291000Z 32007KT 9999 NSC 25/22 Q1011 A2987 HR84 NOSIG=@CAELT@METAR SLCP 291000Z 00000KT 9999 NSC 22/21 Q1016 A3000 HR96@CAELT@CI RWY NML=METAR SLSI 291000Z 00000KT 9999 NSC 23/22 Q1012 A2988 HR90METAR SLRB 291000Z 00000KT 9999 NSC 25/22 Q1014 A2994 HR84 RWY NML=METAR SLCA 291000Z 00000KT 9999 NSC 19/18 Q1015 A2997 HR84 RWY NML=
ZPX0147 291051@CAELT@GG SLZZYMYT@CAELT@291051 SLCAYGYS@CAELT@SABO SLCA 291100@CAELT@METAR SLCA 291100Z 00000KT 9999 NSC 21/18 Q1016 A3000 HR86 RWY NML=@CAELT@
ZPX0149 291053@CAELT@GG SLZZYMYT@CAELT@291054 SLVRYGYZ@CAELT@SABO SLVR 291100@CAELT@METAR SLVR 291100Z 34006KT 9999 NSC 26/23 Q1012 A2990 HR85 CI NOSIG=@CAELT@
ZPX0150 291054@CAELT@GG SLZZYMYT@CAELT@291055 SLSBYSYX@CAELT@SABO SLSB 291100@CAELT@METAR SLSB 291100Z 00000KT 8000 NSC 25/24 Q1011 A2988 HR93 FU CI RWY@CAELT@NML=@CAELT@
ZPX0151 291055@CAELT@GG SLZZYMYT@CAELT@291054 SLETYMYC@CAELT@SABO SLET 291100Z@CAELT@METAR SLET 291100Z 30010KT 9999 NSC 27/22 Q1012 A2990 HR75 NOSIG=@CAELT@
ZPX0152 291055@CAELT@GG SLZZYMYT@CAELT@291055 SLSAYGYS@CAELT@SABO SLSA 291100@CAELT@METAR SLSA 291100Z 33006KT 8000 SCT080 26/24 Q1011 A2986 HR91 FU=@CAELT@
ZPX0153 291056@CAELT@GG SLZZYMYT@CAELT@291055 SLRBYGYS@CAELT@SABO SLRB 291100@CAELT@METAR SLRB 291100Z 00000KT 9999 NSC 27/23 Q1015 A2997 HR81 RWY NML=@CAELT@
ZPX0154 291056@CAELT@GG SLZZYMYT@CAELT@291055 SLLPYFYA@CAELT@SABO SLRY 291100@CAELT@METAR SLRY 291100Z 00000KT 9999 FEW023 24/24 Q1010 A2985 HR97@CAELT@RWY NML=@CAELT@
ZPX0155 291057@CAELT@GG SLZZYMYT@CAELT@291056 SLTRYGYZ@CAELT@SABO SLTR 291100@CAELT@METAR SLTR 291100Z 33003KT 9999 NSC 25/24 Q1012 A2989 993.6 HR93@CAELT@CI NOSIG=@CAELT@
ZPX0156 291057@CAELT@GG SLZZYMYT@CAELT@291055 SLCBYGYZ@CAELT@SABO SLCB 291100@CAELT@METAR SLCB 291100Z 12006KT 9999 FEW036 19/09 Q1025 A3028 751.7 HR51@CAELT@FU AC CI NOSIG=@CAELT@
ZPX0157 291057@CAELT@GG SLZZYMYT@CAELT@291057 SLVRYFYC@CAELT@SABO SLVR 291100@CAELT@METAR SLVR 291100Z 34006KT 9999 NSC 26/23 Q1012 A2990 HR85@CAELT@CI NOSIG=@CAELT@METAR SLET 291100Z 30010KT 9999 NSC 27/22 Q1012 A29.90 HR75 NOSIG=@CAELT@METAR SLAS 291100Z 00000KT 9999 NSC 25/22 Q1014 A2994 HR84 RWY NML=@CAELT@METAR SLJV 291100Z 00000KT 9999 NSC 23/22 Q1013 A2991 HR96 RWY NML =METAR SLCP 291100Z 00000KT 9999 NSC 23/22 Q1016 A3000 HR96CI RWY NML=METAR SLSI 291100Z 00000KT 9999 NSC 26/22 Q1013 A2991 HR78METAR SLTI 291100Z 00000KT 9999 NSC 28/22 Q1016 A3000 HR72 RWY NML=METAR SLJE 291100Z 00000KT 9999 NSC 28/23 Q1016 A3000 HR77 RWY NML=METAR SLVG 291100Z 00000KT 9999 BKN015 16/14 Q1025 A3027HR90 RWY NML=METAR SLRB 291100Z 00000KT 9999 NSC 27/23 Q1015 A2997 HR81 RWY NML=METAR SLCA 291100Z 00000KT 9999 NSC 21/18 Q1016 A3000 HR86 RWY NML=
ZPX0162 291059@CAELT@GG SLZZYMYT@CAELT@291058 SLRQYSYX@CAELT@SABO SLRQ 291100@CAELT@METAR SLRQ 291100Z 00000KT 6000 BKN006 25/25 Q1012 A2989 988.0 HR98@CAELT@VIS RED ST BAJOS=@CAELT@
ZPX0163 291059@CAELT@GG SLZZYMYT@CAELT@291056 SLLPYGYZ@CAELT@SABO SLLP 291100@CAELT@METAR SLLP 291100Z VRB02KT 6000 FEW004 SCT012 BKN200 07/04 Q1038@CAELT@A3067 628.6 HR82 P93// VIS/RED ST/BJOS NE/E/SE NOSIG=@CAELT@
ZPX0167 291100@CAELT@GG SLZZYMYT@CAELT@291100 SLLPYFYA@CAELT@SABO SLLP 291100@CAELT@METAR SLLP 291100Z VRB02KT 6000 FEW004 SCT012 BKN200 07/04 Q1038@CAELT@A3067 628.6 HR82 P93// VIS/RED ST/BJOS NE/E/SE NOSIG=@CAELT@METAR SLRY 291100Z 00000KT 9999 FEW023 24/24 Q1010 A2985 HR97@CAELT@RWY NML=@CAELT@METAR SLRQ 291100Z 00000KT 6000 BKN006 25/25 Q1012 A2989 988.0HR98 VIS RED ST BAJOS=METAR SLSB 291100Z 00000KT 8000 NSC 25/24 Q1011 A2988 HR93 FUCI RWY NML=
ZPX0168 291102@CAELT@GG SLZZYMYT@CAELT@291100 SLTRYGYS@CAELT@SABO SLTR 291100@CAELT@METAR SLTR 291100Z 33003KT 9999 NSC 25/24 Q1012 A2989 993.6 HR93@CAELT@CI NOSIG=@CAELT@METAR SLGM 291100Z 00000KT 3000 FU BKN020 BKN080 24/24 Q1012@CAELT@A2988 HR95=@CAELT@METAR SLRI 291100Z 00000KT 9999 BKN008 BKN200 23/23 Q1013 A2994 HR97METAR SLJO 291100Z 36003KT 9999 FEW080 25/24 Q1011 A2986 HR96CI RWY HUM OPR=METAR SLRA 291100Z 09003KT 9999 FEW080 25/24 Q1011 A2986 HR96CI RWY NML=METAR SLMG 291100Z 00000KT 9999 FEW080 24/24 Q1011 A2986 HR98RWY HUM OPR=METAR SLBU 291100Z NIL=METAR SLSA 291100Z 33006KT 8000 SCT080 26/24 Q1011 A2986 HR91 FU=METAR SLSR 291100Z 32006KT 9999 FEW017 FEW023CB BKN200 26/24Q1011 A2986 HR89 CB NE RWY NML=METAR SLSM 291100Z 00000KT 9999 NSC 24/24 Q1011 A2987 HR97 CIRWY NML=
ZPX0189 291150@CAELT@GG SLZZYMYT@CAELT@291150 SLCAYGYS@CAELT@SABO SLCA 291200@CAELT@METAR SLCA 291200Z 00000KT 9999 NSC 23/19 Q1016 A3000 HR76 RWY NML=@CAELT@
ZPX0190 291151@CAELT@GG SLZZYMYT@CAELT@291152 SLVRYGYZ@CAELT@SABO SLVR 291200@CAELT@METAR SLVR 291200Z 33008KT 9999 NSC 29/24 Q1013 A2993 HR77 CI NOSIG=@CAELT@
ZPX0191 291153@CAELT@GG SLZZYMYT@CAELT@291151 SLETYMYC@CAELT@SABO SLET 291200Z@CAELT@METAR SLET 291200Z 33008KT 9999 NSC 29/22 Q1013 A2992 HR66 NOSIG=@CAELT@
ZPX0192 291154@CAELT@GG SLZZYMYT@CAELT@291153 SLRBYGYS@CAELT@SABO SLRB 291200@CAELT@METAR SLRB 291200Z 36004KT 9999 NSC 30/22 Q1015 A2997 HR61 RWY NML=@CAELT@
ZPX0193 291154@CAELT@GG SLZZYMYT@CAELT@291155 SLSBYSYX@CAELT@SABO SLSB 291200@CAELT@METAR SLSB 291200Z 00000KT 8000 NSC 29/25 Q1012 A2989 HR80 FU CI RWY@CAELT@NML=@CAELT@
ZPX0195 291155@CAELT@GG SLZZYMYT@CAELT@291155 SLLPYFYA@CAELT@SABO SLRY 291200@CAELT@METAR SLRY 291200Z 00000KT 9999 SCT015 26/24 Q1011 A2988 HR86 RWY NML@CAELT@
ZPX0196 291156@CAELT@GG SLZZYMYT@CAELT@291156 SLTRYGYZ@CAELT@SABO SLTR 291200@CAELT@METAR SLTR 291200Z 32006KT 9999 NSC 28/24 Q1013 A2992 994.5 HR82@CAELT@CI NOSIG=@CAELT@
ZPX0198 291156@CAELT@GG SLZZYMYT@CAELT@291156 SLVRYFYC@CAELT@SABO SLVR 291200@CAELT@METAR SLVR 291200Z 33008KT 9999 NSC 29/24 Q1013 A2993 HR77 CI NOSIG=@CAELT@METAR SLET 291200Z 33008KT 9999 NSC 29/22 Q1013 A2992 HR66 NOSIG=@CAELT@METAR SLAS 291200Z 00000KT 9999 NSC 27/24 Q1015 A2997 HR83 RWY NML=@CAELT@METAR SLJV 291200Z 00000KT 9999 NSC 25/22 Q1013 A2991 HR87 RWY NML=@CAELT@METAR SLCP 291200Z 00000KT 9999 NSC 25/24 Q1017 A3003 HR92 CI RWY NMLMETAR SLSI 291200Z 36006KT 9999 NSC 28/22 Q1013 A2991 HR70 RWY NML=METAR SLTI 291200Z 00000KT 9999 NSC 31/23 Q1016 A3000 HR62 RWY NML=METAR SLJE 291200Z 00000KT 9999 NSC 30/23 Q1016 A3000 HR67 RWY NML=METAR SLVG 291200Z 00000KT 9999 BKN015 17/14 Q1025 A3027 HR81 RWY NMLMETAR SLRB 291200Z 36004KT 9999 NSC 30/22 Q1015 A2997 HR61 RWY NML=METAR SLCA 291200Z 00000KT 9999 NSC 23/19 Q1016 A3000 HR76 RWY NML=
ZPX0199 291156@CAELT@GG SLZZYMYT@CAELT@291156 SLSAYGYS@CAELT@SABO SLSA 291200@CAELT@METAR SLSA 291200Z 32006KT 9999 SCT080 27/24 Q1011 A2987 HR81 FU=@CAELT@
ZPX0200 291157@CAELT@GG SLZZYMYT@CAELT@291156 SLRQYSYX@CAELT@SABO SLRQ 291200@CAELT@METAR SLRQ 291200Z 00000KT 9999 SCT015 26/26 Q1012 A2991 988.6 HR95@CAELT@
ZPX0201 291158@CAELT@GG SLZZYMYT@CAELT@291156 SLLPYGYZ@CAELT@SABO SLLP 291200@CAELT@METAR SLLP 291200Z VRB02KT 6000 FEW005 SCT013 BKN200 08/04 Q1039@CAELT@A3070 629.1 HR78 P93// VIS/RED SC/BJOS NE/E/SE AC FU NOSIG=@CAELT@
ZPX0202 291159@CAELT@GG SLZZYMYT@CAELT@291159 SLCOYSYX@CAELT@SABO SLCO 291200@CAELT@METAR SLCO 281200Z 00000KT 9999 BKN003 BKN080 24/24 Q1013 A2992 985.7@CAELT@HR98=@CAELT@
ZPX0206 291200@CAELT@GG SLZZYMYT@CAELT@291159 SLCOYSYX@CAELT@SABO SLCO 291200 CCA@CAELT@METAR COR SLCO 291200Z 00000KT 9999 BKN003 BKN080 24/24 Q1013 A2992@CAELT@985.7 HR98=@CAELT@
ZPX0207 291201@CAELT@GG SLZZYMYT@CAELT@291201 SLLPYFYA@CAELT@SABO SLLP 291200@CAELT@METAR SLLP 291200Z VRB02KT 6000 FEW005 SCT013 BKN200 08/04 Q1039@CAELT@A3070 629.1 HR78 P93// VIS/RED SC/BJOS NE/E/SE AC FU NOSIG=@CAELT@METAR SLCO 291200Z 00000KT 9999 BKN003 BKN080 24/24 Q1013 A2992@CAELT@985.7 HR98=@CAELT@METAR SLRY 291200Z 00000KT 9999 SCT015 26/24 Q1011 A2988 HR86 RWY NMLMETAR SLRQ 291200Z 00000KT 9999 SCT015 26/26 Q1012 A2991 988.6 HR95METAR SLSB 291200Z 00000KT 8000 NSC 29/25 Q1012 A2989 HR80 FU CI RWYNML=
ZPX0208 291202@CAELT@GG SLZZYMYT@CAELT@291201 SLCBYGYZ@CAELT@SABO SLCB 291200@CAELT@METAR SLCB 291200Z 16003KT 9999 FEW036 22/09 Q1026 A3030 752.3 HR44@CAELT@FU AC NOSIG=@CAELT@
ZPX0209 291202@CAELT@GG SLZZYMYT@CAELT@291200 SLTRYGYS@CAELT@SABO SLTR 291200@CAELT@METAR SLTR 291200Z 32006KT 9999 NSC 28/24 Q1013 A2992 994.5 HR82@CAELT@CI NOSIG=@CAELT@METAR SLGM 291200Z 02004KT 8000 VCSH SCT015 FEW020CB BKN080 25/24@CAELT@Q1013 A2993 HR91 CB/SH SE=@CAELT@METAR SLRI 291200Z 00000KT 9999 SCT010 BKN070 25/24 Q1014 A2996HR95 CI=METAR SLJO 291200Z 36006KT 9999 FEW080 27/24 Q1011 A2988 HR87CI RWY HUM OP=METAR SLRA 291200Z 32005KT 9999 FEW080 27/24 Q1012 A2989 HR86RWY NML=METAR SLMG 291200Z 32004KT 9999 FEW080 26/24 Q1011 A2988 HR90RWY HUM OPR=METAR SLBU 291200Z NIL=METAR SLSA 291200Z 32006KT 9999 SCT080 27/24 Q1011 A2987 HR81 FU=METAR SLSR 291200Z 32006KT 9999 FEW017 SCT080 28/24 Q1011 A2987HR81 RWY NML=METAR SLSM 291200Z 00000KT 9999 NSC 27/25 Q1012 A2990 HR87
ZPX0211 291203@CAELT@GG SLZZYMYT@CAELT@291202 SLCBYGYS@CAELT@SABO SLCB 291200@CAELT@METAR SLCB 291200Z 16003KT 9999 FEW036 22/09 Q1026 A3030 752.3 HR44@CAELT@FU AC NOSIG=@CAELT@METAR SLAL 291200Z 00000KT 9999 FEW017 17/09 Q1031 A3046 705.2 HR61=@CAELT@
ZPX0226 291253@CAELT@GG SLZZYMYT@CAELT@291254 SLSAYGYS@CAELT@SABO SLSA 291300@CAELT@METAR SLSA 291300Z 32006KT 9999 SCT080 30/24 Q1012 A2989 HR70 FU=@CAELT@
ZPX0227 291253@CAELT@GG SLZZYMYT@CAELT@291254 SLSAYGYS@CAELT@SABO SLSA 291300@CAELT@METAR SLSA 291300Z 32006KT 9999 SCT080 30/24 Q1012 A2989 HR70 FU=@CAELT@
ZPX0228 291253@CAELT@GG SLZZYMYT@CAELT@291254 SLVRYGYZ@CAELT@SABO SLVR 291300@CAELT@METAR SLVR 291300Z 31013KT 9999 FEW017 30/23 Q1013 A2993 HR65 NOSIG=@CAELT@
ZPX0229 291254@CAELT@GG SLZZYMYT@CAELT@291255 SLLPYFYA@CAELT@SABO SLRY 291300@CAELT@METAR SLRY 291300Z 00000KT 9999 SCT015 28/24 Q1012 A2989 HR83 RWY NML=@CAELT@
ZPX0230 291254@CAELT@GG SLZZYMYT@CAELT@291255 SLSBYSYX@CAELT@SABO SLSB 291300@CAELT@METAR SLSB 291300Z 00000KT 9999 NSC 30/25 Q1013 A2992 HR76 RWY NML=@CAELT@
ZPX0231 291254@CAELT@GG SLZZYMYT@CAELT@291250 SLETYMYC@CAELT@SABO SLET 291300Z@CAELT@METAR SLET 291300Z 30015KT 9999 FEW015 31/22 Q1013 A2993 HR61 NOSIG=@CAELT@
ZPX0233 291255@CAELT@GG SLZZYMYT@CAELT@291255 SLRQYSYX@CAELT@SABO SLRQ 291300@CAELT@METAR SLRQ 291300Z 00000KT 9999 SCT017 29/25 Q1013 A2992 989.2 HR79=@CAELT@
ZPX0234 291256@CAELT@GG SLZZYMYT@CAELT@291251 SLCOYSYX@CAELT@SABO SLCO 291300@CAELT@METAR SLCO 291300Z 00000KT 9999 BKN005 BKN080 25/24 Q1013 A2993 986.1@CAELT@HR91=@CAELT@
ZPX0235 291256@CAELT@GG SLZZYMYT@CAELT@291256 SLTRYGYZ@CAELT@SABO SLTR 291300@CAELT@METAR SLTR 291300Z 32006KT 9999 FEW020 30/25 Q1013 A2993 994.9 HR72@CAELT@CI NOSIG=@CAELT@
ZPX0236 291257@CAELT@GG SLZZYMYT@CAELT@291256 SLLPYGYZ@CAELT@SABO SLLP 291300@CAELT@METAR SLLP 291300Z VRB02KT 9999 SCT015 FEW017CB BKN200 11/05 Q1040@CAELT@A3072 629.4 HR63 P4753 CB/SH N/NE AC FU NOSIG=@CAELT@
ZPX0237 291258@CAELT@GG SLZZYMYT@CAELT@291258 SLCBYGYZ@CAELT@SABO SLCB 291300@CAELT@METAR SLCB 291300Z 23005KT 9999 FEW036 24/09 Q1026 A3031 752.4 HR39@CAELT@AC NOSIG=@CAELT@
ZPX0239 291259@CAELT@GG SLZZYMYT@CAELT@291259 SLVRYFYC@CAELT@SABO SLVR 291300@CAELT@METAR SLVR 291300Z 31013KT 9999 FEW017 30/23 Q1013 A2993 HR65 NOSIG=@CAELT@METAR SLET 291300Z 30015KT 9999 FEW015 31/22 Q1013 A2993 HR61 NOSIG=@CAELT@METAR SLAS 291300Z 00000KT 9999 NSC 29/23 Q1015 A2997 HR70 RWY NML=@CAELT@METAR SLJV 291300Z 00000KT 9999 NSC 26/22 Q1013 A2991 HR87 RWY NML=@CAELT@METAR SLCP 291300Z 36004KT 9999 FEW013 SCT200 28/24 Q1017 A3003 HR78RWY NML=METAR SLSI 291300Z 33006KT 9999 NSC 31/22 Q1014 A2994 HR59 RWY NML=METAR SLTI 291300Z 00000KT 9999 NSC 35/21 Q1016 A3000 HR45 RWY NML=METAR SLJE 291300Z 00000KT 9999 NSC 31/23 Q1016 A000 HR62 RWY NML=METAR SLVG 291300Z 34005KT 9999 BKN020 19/15 Q1026 A3030 HR74 RWY NMLMETAR SLRB 291300Z 36004KT 9999 NSC 32/23 Q1015 A2997 HR59 RWY NML=METAR SLCA 291300Z 36004KT 9999 NSC 28/18 Q1016 A3000 HR55 RWY NML=
ZPX0240 291259@CAELT@GG SLZZYMYT@CAELT@291258 SLCBYGYS@CAELT@SABO SLCB 291300@CAELT@METAR SLCB 291300Z 23005KT 9999 FEW036 24/09 Q1026 A3031 752.4 HR39@CAELT@AC NOSIG=@CAELT@METAR SLAL 291300Z 00000KT 9999 FEW020 19/08 Q1031 A3046 705.3 HR52=@CAELT@
ZPX0241 291259@CAELT@GG SLZZYMYT@CAELT@291258 SLTRYGYS@CAELT@SABO SLTR 291300@CAELT@METAR SLTR 291300Z 32006KT 9999 FEW020 30/25 Q1013 A2993 994.9 HR72@CAELT@CI NOSIG=@CAELT@METAR SLGM 291300Z 02006KT 7000 VCSH SCT015 FEW020CB BKN080 25/24@CAELT@Q1013 A2994 HR92 CB/SH NE/SE=@CAELT@METAR SLRI 291300Z 00000KT 9999 SCT010 BKN070 26/24 Q1015 A2997 HR85METAR SLJO 291300Z 34006KT 9999 FEW080 28/24 Q1012 A2990 HR83CI RWY HUM OPR=METAR SLRA 291300Z 33004KT 9999 NSC 29/24 Q1013 A2991 HR74 AC/CIRWY NML=METAR SLMG 291300Z 32004KT 9999 FEW080 SCT200 28/24 Q1012 A2990HR77 RWY HUM OPR=METAR SLBU 291300Z NIL=METAR SLSA 291300Z 32006KT 9999 SCT080 30/24 Q1012 A2989 HR70 FU=METAR SLSR 291300Z 32006KT 9999 FEW017 SCT200 29/24 Q1012 A2989HR78 RWY NML=METAR SLSM 291300Z 36004KT 9999 NSC 29/26 Q1013 A2992 HR82 RWY NML=
ZPX0244 291302@CAELT@GG SLZZYMYT@CAELT@291300 SLLPYFYA@CAELT@SABO SLLP 291300@CAELT@METAR SLLP 291300Z VRB02KT 9999 SCT015 FEW017CB BKN200 11/05 Q1040@CAELT@A3072 629.4 HR63 P4753 CB/SH N/NE AC FU NOSIG=@CAELT@METAR SLCO 291300Z 00000KT 9999 BKN005 BKN080 25/24 Q1013 A2993 986.1@CAELT@HR91=@CAELT@METAR SLRY 291300Z 00000KT 9999 SCT015 28/24 Q1012 A2989 HR83 RWY NMLMETAR SLRQ 291300Z 00000KT 9999 SCT017 29/25 Q1013 A2992 989.2 HR79=METAR SLSB 291300Z 00000KT 9999 NSC 30/25 Q1013 A2992 HR76 RWY NML=
ZPX0018 291354@CAELT@GG SLZZYMYT@CAELT@291354 SLVRYGYZ@CAELT@SABO SLVR 291400@CAELT@METAR SLVR 291400Z 33013KT 9999 SCT017 32/23 Q1013 A2994 HR59 NOSIG=@CAELT@
ZPX0019 291354@CAELT@GG SLZZYMYT@CAELT@291351 SLETYMYC@CAELT@SABO SLET 291400Z@CAELT@METAR SLET 291400Z 34015KT 9999 BKN017 31/22 Q1013 A2993 HR58 NOSIG=@CAELT@
ZPX0020 291354@CAELT@GG SLZZYMYT@CAELT@291355 SLLPYFYA@CAELT@SABO SLRY 291400@CAELT@METAR SLRY 291400Z 00000KT 9999 FEW015 30/24 Q1012 A2990 HR69 RWY NML=@CAELT@
ZPX0022 291355@CAELT@GG SLZZYMYT@CAELT@291355 SLSAYGYS@CAELT@SABO SLSA 291400@CAELT@METAR SLSA 291400Z 32006KT 9999 SCT017 SCT080 31/24 Q1012 A2989@CAELT@HR67 FU=@CAELT@
ZPX0023 291355@CAELT@GG SLZZYMYT@CAELT@291355 SLCAYGYS@CAELT@SABO SLCA 291400@CAELT@METAR SLCA 291400Z 36004KT 9999 NSC 30/17 Q1015 A2997 HR46 RWY NML=@CAELT@
ZPX0025 291356@CAELT@GG SLZZYMYT@CAELT@291355 SLLPYGYZ@CAELT@SABO SLLP 291400@CAELT@METAR SLLP 291400Z 11004KT 9999 SCT017 FEW020CB BKN200 14/02 Q1040@CAELT@A3072 629.4 HR46 P3487 CB/SH N/NE/E AC FU NOSIG=@CAELT@
ZPX0026 291356@CAELT@GG SLZZYMYT@CAELT@291356 SLTRYGYZ@CAELT@SABO SLTR 291400@CAELT@METAR SLTR 291400Z 30004KT 9999 FEW020 32/24 Q1013 A2993 994.9 HR65@CAELT@CI NOSIG=@CAELT@
ZPX0027 291357@CAELT@GG SLZZYMYT@CAELT@291357 SLCBYGYZ@CAELT@SABO SLCB 291400@CAELT@METAR SLCB 291400Z 33005KT 9999 SCT036 26/10 Q1025 A3029 752.0 HR36@CAELT@NOSIG=@CAELT@
ZPX0028 291357@CAELT@GG SLZZYMYT@CAELT@291356 SLRBYGYS@CAELT@SABO SLRB 291400@CAELT@METAR SLRB 291400Z 36004KT 9999 NSC 33/22 Q1015 A2997 HR54 RWY NML=@CAELT@
ZPX0030 291359@CAELT@GG SLZZYMYT@CAELT@291359 SLVRYFYC@CAELT@SABO SLVR 291400@CAELT@METAR SLVR 291400Z 33013KT 9999 SCT017 32/23 Q1013 A2994 HR59 NOSIG=@CAELT@METAR SLET 291400Z 34015KT 9999 BKN017 31/22 Q1013 A2993 HR58 NOSIG=@CAELT@METAR SLAS 291400Z 36006KT 9999 NSC 32/24 Q1015 A2997 HR63 RWY NML=@CAELT@METAR SLJV 291400Z 00000KT 9999 FEW020 BKN200 27/23 Q1013 A2991 HR79@CAELT@RWY NML=METAR SLCP 291400Z 33008KT 9999 FEW015 30/23 Q1017 A3003 HR70 RWY NMLMETAR SLSI 291400Z 33008KT 9999 NSC 32/22 Q1014 A2994 HR54 RWY NML=METAR SLTI 291400Z 34007KT 9999 NSC 37/22 Q1016 A3000 HR44 RWY NML=METAR SLJE 291400Z 32006KT 9999 NSC 33/23 Q1016 A3000 HR58 RWY NML=METAR SLVG 291400Z 35005KT 9999 SCT023 21/15 Q1025 A3027 HR67 RWY NMLMETAR SLRB 291400Z 36004KT 9999 NSC 33/22 Q1015 A2997 HR54 RWY NML=METAR SLCA 291400Z 36004KT 9999 NSC 30/17 Q1015 A2997 HR46 RWY NML=
ZPX0031 291359@CAELT@GG SLZZYMYT@CAELT@291358 SLCOYSYX@CAELT@SABO SLCO 291400@CAELT@METAR SLCO 291400Z 29007KT 9999 BKN008 27/25 Q1014 A2996 987.0 HR89@CAELT@
ZPX0032 291400@CAELT@GG SLZZYMYT@CAELT@291400 SLTRYGYS@CAELT@SABO SLTR 291400@CAELT@METAR SLTR 291400Z 30004KT 9999 FEW020 32/24 Q1013 A2993 994.9 HR65@CAELT@CI NOSIG=@CAELT@METAR SLGM 291400Z 35006KT 9999 SCT015 BKN080 28/24 Q1013 A2992 HR78@CAELT@RESHRA=@CAELT@METAR SLRI 291400Z 00000KT 9999 SCT010 BKN080 28/25 Q1014 A2997 HR81=METAR SLJO 291400Z 34005KT 9999 FEW017 30/24 Q1012 A2991 HR73 ACRWY HUM OPR=METAR SLRA 291400Z 34003KT 9999 FEW020 31/24 Q1013 A2992 HR67 AC/CIRWY NML=METAR SLMG 291400Z 00000KT 9999 FEW017 SCT200 30/25 Q1012 A2991HR72 AC RWY NML=METAR SLBU 291400Z NIL=METAR SLSA 291400Z 32006KT 9999 SCT017 SCT080 31/24 Q1012 A2989HR67 FU=METAR SLSR 291400Z 32008KT 9999 FEW017 SCT200 30/25 Q1013 A2991HR75 RWY NML=METAR SLSM 291400Z 33004KT 9999 FEW017 31/25 Q1013 A2993 HR72
ZPX0034 291400@CAELT@GG SLZZYMYT@CAELT@291359 SLSBYSYX@CAELT@SABO SLSB 291400@CAELT@METAR SLSB 291400Z 30003KT 9999 FEW017 31/25 Q1013 A2992 HR71 RWY NML=@CAELT@
ZPX0035 291400@CAELT@GG SLZZYMYT@CAELT@291359 SLRQYSYX@CAELT@SABO SLRQ 291400@CAELT@METAR SLRQ 291400Z 00000KT 9999 SCT020 31/26 Q1013 A2992 981.9 HR74=@CAELT@
ZPX0036 291401@CAELT@GG SLZZYMYT@CAELT@291401 SLLPYFYA@CAELT@SABO SLLP 291400@CAELT@METAR SLLP 291400Z 11004KT 9999 SCT017 FEW020CB BKN200 14/02 Q1040@CAELT@A3072 629.4 HR46 P3487 CB/SH N/NE/E AC FU NOSIG=@CAELT@METAR SLCO 291400Z 29007KT 9999 BKN008 27/25 Q1014 A2996 987.0 HR89@CAELT@METAR SLRY 291400Z 00000KT 9999 FEW015 30/24 Q1012 A2990 HR69 RWY NML@CAELT@METAR SLRQ 291400Z 00000KT 9999 SCT020 31/26 Q1013 A2992 981.9 HR74=METAR SLSB 291400Z 30003KT 9999 FEW017 31/25 Q1013 A2992 HR71 RWY NML
ZPX0039 291403@CAELT@GG SLZZYMYT@CAELT@291401 SLCBYGYS@CAELT@SABO SLCB 291400@CAELT@METAR SLCB 291400Z 33005KT 9999 SCT036 26/10 Q1025 A3029 752.0 HR36@CAELT@NOSIG=@CAELT@METAR SLAL 291400Z 33009KT 9999 SCT020 20/07 Q1031 A3046 705.4 HR44=@CAELT@
ZPX0068 291451@CAELT@GG SLZZYMYT@CAELT@291450 SLRBYGYS@CAELT@SABO SLRB 291500@CAELT@METAR SLRB 291500Z 36005KT 9999 FEW020 34/23 Q1015 A2997 HR52 RWY NML=@CAELT@
ZPX0071 291454@CAELT@GG SLZZYMYT@CAELT@291454 SLVRYGYZ@CAELT@SABO SLVR 291500@CAELT@METAR SLVR 291500Z 34010G21KT 9999 BKN020 33/23 Q1013 A2993 HR56@CAELT@NOSIG=@CAELT@
ZPX0073 291454@CAELT@GG SLZZYMYT@CAELT@291454 SLSAYGYS@CAELT@SABO SLSA 291500@CAELT@METAR SLSA 291500Z 33006KT 9999 SCT017 33/24 Q1012 A2989 HR61 FU=@CAELT@
ZPX0074 291454@CAELT@GG SLZZYMYT@CAELT@291452 SLETYMYC@CAELT@SABO SLET 291500Z@CAELT@METAR SLET 291500Z 30015KT 9999 BKN017 33/22 Q1013 A2992 HR55 NOSIG=@CAELT@
ZPX0075 291455@CAELT@GG SLZZYMYT@CAELT@291455 SLCAYGYS@CAELT@SABO SLCA 291500@CAELT@METAR SLCA 291500Z 36006KT 9999 NSC 32/16 Q1014 A2994 HR40 RWY NML=@CAELT@
ZPX0076 291455@CAELT@GG SLZZYMYT@CAELT@291455 SLSBYSYX@CAELT@SABO SLSB 291500@CAELT@METAR SLSB 291500Z 35003KT 9999 SCT020 32/25 Q1012 A2990 HR66 RWY NML=@CAELT@
ZPX0077 291455@CAELT@GG SLZZYMYT@CAELT@291455 SLCOYSYX@CAELT@SABO SLCO 291500@CAELT@METAR SLCO 291500Z 31004KT 9999 BKN012 30/25 Q1013 A2994 986.4 HR77@CAELT@
ZPX0078 291455@CAELT@GG SLZZYMYT@CAELT@291455 SLRQYSYX@CAELT@SABO SLRQ 291500@CAELT@METAR SLRQ 291500Z 00000KT 9999 BKN020 31/26 Q1012 A2989 988.8 HR74=@CAELT@
ZPX0079 291456@CAELT@GG SLZZYMYT@CAELT@291456 SLTRYGYZ@CAELT@SABO SLTR 291500@CAELT@METAR SLTR 291500Z 35004KT 9999 SCT020 33/24 Q1012 A2991 994.4 HR58@CAELT@NOSIG=@CAELT@
ZPX0081 291457@CAELT@GG SLZZYMYT@CAELT@291456 SLLPYGYZ@CAELT@SABO SLLP 291500@CAELT@METAR SLLP 291500Z 09009KT 010V150 9999 SCT017 FEW020CB SCT200 15/05@CAELT@Q1039 A3071 629.2 HR54 P1487 CB/SH N/E/SE AC NOSIG=@CAELT@
ZPX0084 291458@CAELT@GG SLZZYMYT@CAELT@291457 SLCBYGYZ@CAELT@SABO SLCB 291500@CAELT@METAR SLCB 291500Z 13008KT 9999 SCT036 27/09 Q1025 A3027 751.5 HR32@CAELT@NOSIG=@CAELT@
ZPX0087 291500@CAELT@GG SLZZYMYT@CAELT@291500 SLTRYGYS@CAELT@SABO SLTR 291500@CAELT@METAR SLTR 291500Z 35004KT 9999 SCT020 33/24 Q1012 A2991 994.4 HR58@CAELT@NOSIG=@CAELT@METAR SLGM 291500Z 27004KT 9999 SCT017 BKN080 30/24 Q1013 A2991@CAELT@HR72=@CAELT@METAR SLRI 291500Z 32006KT 9999 SCT017 BKN080 29/24 Q1014 A2996 HR76=METAR SLJO 291500Z 34005KT 9999 SCT017 32/24 Q1012 A2991 HR65RWY NML=METAR SLRA 291500Z 32004KT 9999 FEW020 32/23 Q1012 A2991 HR62 CIMETAR SLMG 291500Z 36004KT 9999 SCT017 32/24 Q1012 A2991 HR62 CIMETAR SLBU 291500Z NIL=METAR SLSA 291500Z 33006KT 9999 SCT017 33/24 Q1012 A2989 HR61 FU=METAR SLSR 291500Z 32006KT 9999 SCT017 31/25 Q1013 A2991 HR68METAR SLSM 291500Z 33008KT 9999 SCT017 31/25 Q1013 A2992 HR69
ZPX0088 291501@CAELT@GG SLZZYMYT@CAELT@291501 SLVRYFYC@CAELT@SABO SLVR 291500@CAELT@METAR SLVR 291500Z 34010G21KT 9999 BKN020 33/23 Q1013 A2993 HR56@CAELT@NOSIG=@CAELT@METAR SLET 291500Z 30015KT 9999 BKN017 33/22 Q1013 A2992 HR55 NOSIG=@CAELT@METAR SLAS 291500Z 36010KT 9999 FEW020 33/22 Q1015 A2997 HR53 RWY NML@CAELT@METAR SLJV 291500Z 00000KT 9999 SCTO20 31/22 Q1014 A2994 HR59 RWY NMLMETAR SLCP 291500Z 34006KT 9999 SCT017 30/23 Q1017 A3003 HR67 RWY NMLMETAR SLSI 291500Z 36008KT 9999 SCT017 33/21 Q1013 A2991 HR48 RWYNML=METAR SLTI 291500Z 00000KT 9999 SCT017 37/22 Q1015 A2997 HR42 RWY NMLMETAR SLJE 291500Z 32006KT 9999 FEW017 34/23 Q1016 A3000 HR53 RWY NMLMETAR SLVG 291500Z 02006KT 9999 SCT023 23/15 Q1025 A3027 HR58 RWY NMLMETAR SLRB 291500Z 36005KT 9999 FEW020 34/23 Q1015 A2997 HR52 RWY NMLMETAR SLCA 291500Z 36006KT 9999 NSC 32/16 Q1014 A2994 HR40 RWY NML=
ZPX0089 291502@CAELT@GG SLZZYMYT@CAELT@291500 SLCBYGYS@CAELT@SABO SLCB 291500@CAELT@METAR SLCB 291500Z 13008KT 9999 SCT036 27/09 Q1025 A3027 751.5 HR32@CAELT@NOSIG=@CAELT@METAR SLAL 291500Z 34012KT 9999 SCT023 21/07 Q1031 A3045 705.0 HR42=@CAELT@
ZPX0097 291515@CAELT@GG SLZZYMYT@CAELT@291504 SLLPYFYA@CAELT@SABO SLLP 291500@CAELT@METAR SLLP 291500Z 09009KT 010V150 9999 SCT017 FEW020CB SCT200 15/05@CAELT@Q1039 A3071 629.2 HR54 P1487 CB/SH N/E/SE AC NOSIG=@CAELT@METAR SLCO 291500Z 31004KT 9999 BKN012 30/25 Q1013 A2994 986.4 HR77@CAELT@METAR SLRY 291500Z 00000KT 9999 SCT017 32/26 Q1012 A2989 HR70 RWY NML@CAELT@METAR SLRQ 291500Z 00000KT 9999 BKN020 31/26 Q1012 A2989 988.8 HR74=METAR SLSB 291500Z 35003KT 9999 SCT020 32/25 Q1012 A2990 HR66 RWY NML
ZPX0111 291550@CAELT@GG SLZZYMYT@CAELT@291550 SLRBYGYS@CAELT@SABO SLRB 291600@CAELT@METAR SLRB 291600Z 36006KT 9999 FEW020 35/23 Q1014 A2994 HR49 RWY NML=@CAELT@
ZPX0113 291555@CAELT@GG SLZZYMYT@CAELT@291555 SLSAYGYS@CAELT@SABO SLSA 291600@CAELT@METAR SLSA 291600Z 32005KT 9999 SCT017 33/24 Q1011 A2986 HR59 FU=@CAELT@
ZPX0114 291555@CAELT@GG SLZZYMYT@CAELT@291555 SLSBYSYX@CAELT@SABO SLSB 291600@CAELT@METAR SLSB 291600Z 32003KT 9999 SCT020 33/25 Q1011 A2986 HR62 RWY NML=@CAELT@
ZPX0115 291555@CAELT@GG SLZZYMYT@CAELT@291555 SLVRYGYZ@CAELT@SABO SLVR 291600@CAELT@METAR SLVR 291600Z 34011G23KT 9999 BKN020 33/22 Q1012 A2991 HR52@CAELT@NOSIG=@CAELT@
ZPX0116 291555@CAELT@GG SLZZYMYT@CAELT@291555 SLCAYGYS@CAELT@SABO SLCA 291600@CAELT@METAR SLCA 291600Z 36004KT 9999 NSC 33/16 Q1013 A2991 HR37 RWY NML=@CAELT@
ZPX0117 291556@CAELT@GG SLZZYMYT@CAELT@291555 SLLPYGYZ@CAELT@SABO SLLP 291600@CAELT@METAR SLLP 291600Z 11009KT 060V160 9999 SCT020 FEW023CB SCT200 16/02@CAELT@Q1039 A3069 628.8 HR38 P4457 CB/E/SE/SW SH/E AC NOSIG=@CAELT@
ZPX0118 291556@CAELT@GG SLZZYMYT@CAELT@291555 SLRQYSYX@CAELT@SABO SLRQ 291600@CAELT@METAR SLRQ 291600Z 00000KT 9999 BKN020 34/26 Q1011 A2988 987.8 HR63=@CAELT@
ZPX0119 291556@CAELT@GG SLZZYMYT@CAELT@291556 SLTRYGYZ@CAELT@SABO SLTR 291600@CAELT@METAR SLTR 291600Z 35006KT 9999 FEW020 34/23 Q1012 A2989 993.6 HR53@CAELT@NOSIG=@CAELT@
ZPX0120 291556@CAELT@GG SLZZYMYT@CAELT@291556 SLCBYGYZ@CAELT@SABO SLCB 291600@CAELT@METAR SLCB 291600Z 12008KT 9999 SCT036 28/08 Q1024 A3024 750.6 HR28@CAELT@NOSIG=@CAELT@
ZPX0121 291556@CAELT@GG SLZZYMYT@CAELT@291556 SLCOYSYX@CAELT@SABO SLCO 291600@CAELT@METAR SLCO 291600Z 32005KT 9999 BKN017 31/25 Q1012 A2990 985.2 HR68@CAELT@
ZPX0122 291557@CAELT@GG SLZZYMYT@CAELT@291545 SLETYMYC@CAELT@SABO SLET 291600Z@CAELT@METAR SLET 291600Z 31013G23KT 9999 BKN020 33/22 Q1012 A2989 HR53@CAELT@NOSIG=@CAELT@
ZPX0123 291557@CAELT@GG SLZZYMYT@CAELT@291557 SLTRYGYS@CAELT@SABO SLTR 291600@CAELT@METAR SLTR 291600Z 35006KT 9999 FEW020 34/23 Q1012 A2989 993.6 HR53@CAELT@NOSIG=@CAELT@METAR SLGM 291600Z 03015KT 9999 BKN017 33/24 Q1012 A2990 HR61 AC=@CAELT@METAR SLRI 291600Z 36004KT 9999 SCT017 BKN080 31/25 Q1013 A2994 HR72=@CAELT@METAR SLJO 291600Z 34005KT 9999 SCT017 33/24 Q1011 A2988 HR58RWY NML=METAR SLRA 291600Z 03003KT 9999 FEW020 SCT200 33/23 Q1012 A2989HR57 RWY NML=METAR SLMG 291600Z 00000KT 9999 SCT017 33/24 Q1011 A2988 HR59 CIMETAR SLBU 291600Z NIL=METAR SLSA 291600Z 32005KT 9999 SCT017 33/24 Q1011 A2986 HR59 FU=METAR SLSR 291600Z 34006KT 8000 VCSH BKN017 FEW023CB 32/25 Q1011A2987 HR67 CB/SH E/SE RWY NML=METAR SLSM 291600Z 33010KT 9999 SCT017 33/24 Q1012 A2988 HR59
ZPX0124 291558@CAELT@GG SLZZYMYT@CAELT@291558 SLVRYFYC@CAELT@SABO SLVR 291600@CAELT@METAR SLVR 291600Z 34011G23KT 9999 BKN020 33/22 Q1012 A2991 HR52@CAELT@NOSIG=@CAELT@METAR SLET 291600Z 31013G23KT 9999 BKN020 33/22 Q1012 A2989 HR53@CAELT@METAR SLAS 291600Z 36010KT 9999 FEW020 34/23 Q1015 A2997 HR53 RWY NML@CAELT@METAR SLJV 291600Z 36008KT 9999 SCTO20 32/23 Q1014 A2994 HR57 RWY NMLMETAR SLCP 291600Z 36004KT 9999 BKN017 30/23 Q1016 A3000 HR67 RWY NMLMETAR SLSI 291600Z 36006KT 9999 SCT017 34/22 Q1012 A2988 HR42 RWY NMLMETAR SLTI 291600Z 02006KT 9999 SCT017 39/21 Q1014 A2994 HR34 RWY NMLMETAR SLJE 291600Z 32006KT 9999 SCT020 35/22 Q1015 A2997 HR48 RWY NMLMETAR SLVG 291600Z 36006KT 9999 SCT025 25/15 Q1025 A3027 HR50 RWY NMLMETAR SLRB 291600Z 36006KT 9999 FEW020 35/23 Q1014 A2994 HR49 RWY NMLMETAR SLCA 291600Z 36004KT 9999 NSC 33/16 Q1013 A2991 HR37 RWY NML=
ZPX0127 291600@CAELT@GG SLZZYMYT@CAELT@291559 SLLPYFYA@CAELT@SABO SLRY 291600@CAELT@METAR SLRY 291600Z 00000KT 9999 BKN017 32/25 Q1011 A2988 HR65 RWY NML=@CAELT@
ZPX0128 291602@CAELT@GG SLZZYMYT@CAELT@291600 SLLPYFYA@CAELT@SABO SLLP 291600@CAELT@METAR SLLP 291600Z 11009KT 060V160 9999 SCT020 FEW023CB SCT200 16/02@CAELT@Q1039 A3069 628.8 HR38 P4457 CB/E/SE/SW SH/E AC NOSIG=@CAELT@METAR SLCO 291600Z 32005KT 9999 BKN017 31/25 Q1012 A2990 985.2 HR68@CAELT@METAR SLRY 291600Z 00000KT 9999 BKN017 32/25 Q1011 A2988 HR65 RWY NML@CAELT@METAR SLRQ 291600Z 00000KT 9999 BKN020 34/26 Q1011 A2988 987.8 HR63=METAR SLSB 291600Z 32003KT 9999 SCT020 33/25 Q1011 A2986 HR62 RWY NML
ZPX0129 291602@CAELT@GG SLZZYMYT@CAELT@291600 SLCBYGYS@CAELT@SABO SLCB 291600@CAELT@METAR SLCB 291600Z 12008KT 9999 SCT036 28/08 Q1024 A3024 750.6 HR28@CAELT@NOSIG=@CAELT@METAR SLAL 291600Z 01010KT 9999 SCT023 22/07 Q1030 A3043 704.5 HR39=@CAELT@
ZPX0149 291652@CAELT@GG SLZZYMYT@CAELT@291652 SLCAYGYS@CAELT@SABO SLCA 291700@CAELT@METAR SLCA 291700Z 36010KT 9999 NSC 34/16 Q1012 A2988 HR35 RWY NML=@CAELT@
ZPX0151 291653@CAELT@GG SLZZYMYT@CAELT@291654 SLVRYGYZ@CAELT@SABO SLVR 291700@CAELT@METAR SLVR 291700Z 34010G21KT 9999 FEW015 BKN020 33/22 Q1012 A2989@CAELT@HR52 NOSIG=@CAELT@
ZPX0152 291654@CAELT@GG SLZZYMYT@CAELT@291653 SLRBYGYS@CAELT@SABO SLRB 291700@CAELT@METAR SLRB 291700Z 36010KT 9999 FEW020 36/22 Q1013 A2991 HR45 RWY NML=@CAELT@
ZPX0153 291655@CAELT@GG SLZZYMYT@CAELT@291654 SLSAYGYS@CAELT@SABO SLSA 291700@CAELT@METAR SLSA 291700Z 34005KT 9999 BKN017 33/23 Q1010 A2983 HR56 FU=@CAELT@
ZPX0154 291655@CAELT@GG SLZZYMYT@CAELT@291649 SLETYMYC@CAELT@SABO SLET 291700Z@CAELT@METAR SLET 291700Z 34013G23KT 9999 BKN020 33/22 Q1011 A2987 HR52@CAELT@NOSIG=@CAELT@
ZPX0155 291655@CAELT@GG SLZZYMYT@CAELT@291655 SLCBYGYZ@CAELT@SABO SLCB 291700@CAELT@METAR SLCB 291700Z 13012KT 9999 SCT036 29/06 Q1022 A3020 749.7 HR23@CAELT@NOSIG=@CAELT@
ZPX0156 291655@CAELT@GG SLZZYMYT@CAELT@291655 SLRQYSYX@CAELT@SABO SLRQ 291700@CAELT@METAR SLRQ 291700Z 00000KT 9999 BKN020 34/26 Q1010 A2985 986.8 HR62=@CAELT@
ZPX0157 291656@CAELT@GG SLZZYMYT@CAELT@291656 SLVRYFYC@CAELT@SABO SLVR 291700@CAELT@METAR SLVR 291700Z 34010G21KT 9999 FEW015 BKN020 33/22 Q1012 A2989@CAELT@HR52 NOSIG=@CAELT@METAR SLET 291700Z 34013G23KT 9999 BKN020 33/22 Q1011 A2987 HR52@CAELT@NOSIG=@CAELT@METAR SLAS 291700Z 36010KT 9999 FEW020 34/22 Q1014 A2994 HR51 RWY NMLMETAR SLJV 291700Z 36010KT 9999 SCTO20 33/23 Q1013 A2991 HR55 RWY NMLMETAR SLCP 291700Z 36006KT 9999 SCT017 32/23 Q1015 A2997 HR57 RWY NMLMETAR SLSI 291700Z 33008KT 9999 BKN017 35/21 Q1012 A2988 HR43 RWY NMLMETAR SLTI 291700Z 36005KT 9999 SCT020 39/22 Q1013 A2991 HR37 RWY NMLMETAR SLJE 291700Z 32006KT 9999 BKN020 36/22 Q1014 A2994 HR46 RWY NMLMETAR SLVG 291700Z 36007KT 9999 SCT027 25/15 Q1024 A3024 HR47 RWY NMLMETAR SLRB 291700Z 36010KT 9999 FEW020 36/22 Q1013 A2991 HR45 RWY NMLMETAR SLCA 291700Z 36010KT 9999 NSC 34/16 Q1012 A2988 HR35 RWY NML=
ZPX0159 291657@CAELT@GG SLZZYMYT@CAELT@291657 SLTRYGYZ@CAELT@SABO SLTR 291700@CAELT@METAR SLTR 291700Z 36004KT 9999 FEW020 36/23 Q1010 A2985 992.3 HR47@CAELT@NOSIG=@CAELT@
ZPX0160 291657@CAELT@GG SLZZYMYT@CAELT@291657 SLCOYSYX@CAELT@SABO SLCO 291700@CAELT@METAR SLCO 291700Z 03004KT 9999 BKN020 32/25 Q1011 A2987 984.2 HR66@CAELT@
ZPX0164 291658@CAELT@GG SLZZYMYT@CAELT@291658 SLTRYGYS@CAELT@SABO SLTR 291700@CAELT@METAR SLTR 291700Z 36004KT 9999 FEW020 36/23 Q1010 A2985 992.3 HR47@CAELT@NOSIG=@CAELT@METAR SLGM 291700Z 03015KT 9999 BKN017 33/23 Q1011 A2988 HR58 AC=@CAELT@METAR SLRI 291700Z 32008KT 9999 BKN017 32/25 Q1012 A2990 HR65=@CAELT@METAR SLJO 291700Z 34006KT 9999 SCT017 35/24 Q1010 A2985 HR53RWY NML=METAR SLRA 291700Z 06003KT 9999 FEW020 FEW023CB SCT200 33/23 Q1011A2987 HR57 CB N RWY NML=METAR SLMG 291700Z 00000KT 9999 BKN023CB 33/25 Q1011 A2986 HR61CB N RWY NML=METAR SLBU 291700Z NIL=METAR SLSA 291700Z 34005KT 9999 BKN017 33/23 Q1010 A2983 HR56 FU=METAR SLSR 291700Z 34006KT 7000 VCSH BKN017 FEW023CB BKN200 28/26Q1011 A2986 HR86 RESHRA CB/SH SE/S/SW RWY HUM OPR=METAR SLSM 291700Z 33008KT 9999 SCT017 34/25 Q1011 A2986 HR59
ZPX0165 291658@CAELT@GG SLZZYMYT@CAELT@291657 SLLPYFYA@CAELT@SABO SLRY 291700@CAELT@METAR SLRY 291700Z 00000KT 9999 BKN017 34/25 Q1010 A2985@CAELT@HR61 RWY NML=@CAELT@
ZPX0166 291658@CAELT@GG SLZZYMYT@CAELT@291657 SLTJYGYZ@CAELT@SABO SLTJ 291700@CAELT@METAR SLTJ 291700Z 13006KT 9999 FEW040 31/12 Q1016 A3000 811.6 HR31=@CAELT@
ZPX0169 291700@CAELT@GG SLZZYMYT@CAELT@291700 SLLPYFYA@CAELT@SABO SLLP 291700@CAELT@METAR SLLP 291700Z 09011KT 060V140 9999 SCT020 FEW023CB 17/03 Q1038@CAELT@A3066 628.2 HR41 P3784 CB/SH SE/NW AC/CI NOSIG=@CAELT@METAR SLCO 291700Z 03004KT 9999 BKN020 32/25 Q1011 A2987 984.2 HR66@CAELT@METAR SLRY 291700Z 00000KT 9999 BKN017 34/25 Q1010 A2985@CAELT@HR61 RWY NML=METAR SLRQ 291700Z 00000KT 9999 BKN020 34/26 Q1010 A2985 986.8 HR62=
ZPX0170 291702@CAELT@GG SLZZYMYT@CAELT@291700 SLCBYGYS@CAELT@SABO SLCB 291700@CAELT@METAR SLCB 291700Z 13012KT 9999 SCT036 29/06 Q1022 A3020 749.7 HR23@CAELT@NOSIG=@CAELT@METAR SLAL 291700Z 01016KT 9999 SCT023 22/05 Q1029 A3040 704.0 HR35=@CAELT@METAR SLTJ 291700Z 13006KT 9999 FEW040 31/12 Q1016 A3000 811.6 HR31=@CAELT@
ZPX0190 291753@CAELT@GG SLZZYMYT@CAELT@291749 SLETYMYC@CAELT@SABO SLET 291800Z@CAELT@METAR SLET 291800Z 32013G23KT 9999 SCT020 35/21 Q1010 A2983 HR44@CAELT@NOSIG=@CAELT@
ZPX0191 291753@CAELT@GG SLZZYMYT@CAELT@291752 SLRBYGYS@CAELT@SABO SLRB 291800@CAELT@METAR SLRB 291800Z 36012KT 9999 FEW020 37/22 Q1011 A2985 HR41 RWY NML=@CAELT@
ZPX0192 291754@CAELT@GG SLZZYMYT@CAELT@291754 SLVRYGYZ@CAELT@SABO SLVR 291800@CAELT@METAR SLVR 291800Z 35012G22KT 9999 SCT020 35/21 Q1010 A2984 HR44@CAELT@NOSIG=@CAELT@
ZPX0193 291754@CAELT@GG SLZZYMYT@CAELT@291754 SLCAYGYS@CAELT@SABO SLCA 291800@CAELT@METAR SLCA 291800Z 36010KT 9999 FEW036 35/16 Q1011 A2985 HR33 RWY NML@CAELT@
ZPX0195 291755@CAELT@GG SLZZYMYT@CAELT@291754 SLSAYGYS@CAELT@SABO SLSA 291800@CAELT@METAR SLSA 291800Z 34005KT 9999 BKN017 35/24 Q1009 A2980 HR54 FU=@CAELT@
ZPX0197 291755@CAELT@GG SLZZYMYT@CAELT@291755 SLVRYFYC@CAELT@SABO SLVR 291800@CAELT@METAR SLVR 291800Z 35012G22KT 9999 SCT020 35/21 Q1010 A2984 HR44@CAELT@NOSIG=@CAELT@METAR SLET 291800Z 32013G23KT 9999 SCT020 35/21 Q1010 A2983 HR44@CAELT@METAR SLAS 291800Z 36010KT 9999 FEW020 35/22 Q1013 A2991 HR49 RWY NML@CAELT@METAR SLJV 291800Z 36010KT 9999 SCTO20 34/20 Q1011 A2985 HR46 RWY NMLMETAR SLCP 291800Z 32006KT 9999 SCT017 32/22 Q1014 A2994 HR56 RWY NMLMETAR SLSI 291800Z 33008KT 9999 BKN017 35/22 Q1011 A2985 HR45 RWY NMLMETAR SLTI 291800Z 36008KT 9999 SCT020 39/21 Q1012 A2988 HR36 RWY NMLMETAR SLJE 291800Z 32005KT 9999 BKN020 36/22 Q1013 A2991 HR44 RWY NMLMETAR SLVG 291800Z 02009KT 9999 SCT027 26/15 Q1023 A3021 HR46 RWY NMLMETAR SLRB 291800Z 36012KT 9999 FEW020 37/22 Q1011 A2985 HR41 RWY NMLMETAR SLCA 291800Z 36010KT 9999 FEW036 35/16 Q1011 A2985 HR33 RWY NML
ZPX0198 291756@CAELT@GG SLZZYMYT@CAELT@291755 SLSBYSYX@CAELT@SABO SLSB 291800@CAELT@METAR SLSB 291800Z 33004KT 9999 SCT020 34/24 Q1009 A2980 HR56 RWY NML=@CAELT@
ZPX0199 291756@CAELT@GG SLZZYMYT@CAELT@291756 SLTRYGYZ@CAELT@SABO SLTR 291800@CAELT@METAR SLTR 291800Z 30004KT 9999 FEW020 35/22 Q1009 A2980 990.8 HR46@CAELT@NOSIG=@CAELT@
ZPX0200 291756@CAELT@GG SLZZYMYT@CAELT@291755 SLRQYSYX@CAELT@SABO SLRQ 291800@CAELT@METAR SLRQ 291800Z 00000KT 9999 BKN020 FEW023TCU 35/27 Q1009 A2981@CAELT@HR64 TCU/N/NE/SW=@CAELT@
ZPX0201 291756@CAELT@GG SLZZYMYT@CAELT@291755 SLLPYGYZ@CAELT@SABO SLLP 291800@CAELT@METAR SLLP 291800Z 10011G23KT 070V140 9999 SCT020 FEW023CB 18/03@CAELT@Q1037 A3063 627.5 HR36 P4354 CB/SH W/NW AC/CI NOSIG=@CAELT@
ZPX0202 291757@CAELT@GG SLZZYMYT@CAELT@291756 SLTJYGYZ@CAELT@SABO SLTJ 291800@CAELT@METAR SLTJ 291800Z 10007KT 9999 SCT040 33/14 Q1014 A2996 810.5 HR32=@CAELT@
ZPX0204 291758@CAELT@GG SLZZYMYT@CAELT@291757 SLCBYGYZ@CAELT@SABO SLCB 291800@CAELT@METAR SLCB 291800Z 12015KT 9999 FEW036 FEW040CB 30/04 Q1021 A3016 748@CAELT@.6 HR19 CB/SE NOSIG=@CAELT@
ZPX0205 291758@CAELT@GG SLZZYMYT@CAELT@291758 SLTRYGYS@CAELT@SABO SLTR 291800@CAELT@METAR SLTR 291800Z 30004KT 9999 FEW020 35/22 Q1009 A2980 990.8 HR46@CAELT@NOSIG=@CAELT@METAR SLGM 291800Z 28008KT 9999 BKN017 FEW020CB 34/24 Q1010 A2983@CAELT@HR56 AC CB N/NE/E=@CAELT@METAR SLRI 291800Z 32004KT 9999 BKN017 32/24 Q1011 A2986 HR62=METAR SLJO 291800Z NIL=METAR SLRA 291800Z 08003KT 9999 FEW020 FEW023CB SCT200 35/23 Q1009A2982 HR50 CB NE/SE RWY NML=METAR SLMG 291800Z 32006KT 9999 SCT017 FEW023CB 34/25 Q1010 A2983HR59 CB N RWY NML=METAR SLBU 291800Z NIL=METAR SLSA 291800Z 34005KT 9999 BKN017 35/24 Q1009 A2980 HR54 FU=METAR SLSR 291800Z 34006KT 7000 VCSH SCT017 FEW023CB BKN200 29/23Q1009 A2982 HR82 CB/SH E/SE/S RWY HUM OPR=METAR SLSM 291800Z 36015G25KT 9999 SCT017 FEW023CB 32/25 Q1009A2982 HR66 CB N/NW RWY NML=
ZPX0208 291800@CAELT@GG SLZZYMYT@CAELT@291757 SLLPYFYA@CAELT@SABO SLRY 291800@CAELT@METAR SLRY 291800Z 00000KT 3000 - RASH BKN017 FEW023CB 29/26 Q1009@CAELT@A2982 HR83 CB/NW/W/SE RWY HUM OPR=@CAELT@
ZPX0209 291801@CAELT@GG SLZZYMYT@CAELT@291800 SLCBYGYS@CAELT@SABO SLCB 291800@CAELT@METAR SLCB 291800Z 12015KT 9999 FEW036 FEW040CB 30/04 Q1021 A3016 748@CAELT@.6 HR19 CB/SE NOSIG=@CAELT@METAR SLAL 291800Z 04009KT 9999 SCT023 FEW040CB 23/07 Q1028 A3037 703@CAELT@.2 HR37 CB/DIST/SW=@CAELT@METAR SLTJ 291800Z 10007KT 9999 SCT040 33/14 Q1014 A2996 810.5 HR32=
ZPX0210 291802@CAELT@GG SLZZYMYT@CAELT@291801 SLLPYFYA@CAELT@SABO SLLP 291800@CAELT@METAR SLLP 291800Z 10011G23KT 070V140 9999 SCT020 FEW023CB 18/03@CAELT@Q1037 A3063 627.5 HR36 P4354 CB/SH W/NW AC/CI NOSIG=@CAELT@METAR SLRY 291800Z 00000KT 3000 - RASH BKN017 FEW023CB 29/26 Q1009@CAELT@A2982 HR83 CB/NW/W/SE RWY HUM OPR=@CAELT@METAR SLRQ 291800Z 00000KT 9999 BKN020 FEW023TCU 35/27 Q1009 A2981HR64 TCU/N/NE/SW=METAR SLSB 291800Z 33004KT 9999 SCT020 34/24 Q1009 A2980 HR56 RWY NML=
ZPX0213 291808@CAELT@GG SLZZYMYT@CAELT@291808 SLVRYGYZ@CAELT@SABO SLVR 291800CCA@CAELT@METAR COR SLVR 291800Z 35012G22KT 9999 SCT020 34/21 Q1010 A2984 HR46@CAELT@NOSIG=@CAELT@
ZPX0243 291853@CAELT@GG SLZZYMYT@CAELT@291853 SLSAYGYS@CAELT@SABO SLSA 291900@CAELT@METAR SLSA 291900Z 34006KT 9999 BKN017 34/23 Q1008 A2977 HR51 FU=@CAELT@
ZPX0244 291853@CAELT@GG SLZZYMYT@CAELT@291854 SLVRYGYZ@CAELT@SABO SLVR 291900@CAELT@METAR SLVR 291900Z 33014G24KT 9999 SCT020 35/21 Q1009 A2982 HR45@CAELT@NOSIG=@CAELT@
ZPX0245 291853@CAELT@GG SLZZYMYT@CAELT@291853 SLRBYGYS@CAELT@SABO SLRB 291900@CAELT@METAR SLRB 291900Z 36010KT 9999 SCT020 38/22 Q1010 A2983 HR40 RWY NML=@CAELT@
ZPX0246 291854@CAELT@GG SLZZYMYT@CAELT@291855 SLSBYSYX@CAELT@SABO SLSB 291900@CAELT@METAR SLSB 291900Z 02006KT 9999 FEW020 34/25 Q1009 A2980 HR59 RWY NML=@CAELT@
ZPX0248 291855@CAELT@GG SLZZYMYT@CAELT@291855 SLTJYGYZ@CAELT@SABO SLTJ 291900@CAELT@METAR SLTJ 291900Z 09007KT 9999 SCT040 32/13 Q1013 A2994 809.7 HR30=@CAELT@
ZPX0249 291855@CAELT@GG SLZZYMYT@CAELT@291855 SLRQYSYX@CAELT@SABO SLRQ 291900@CAELT@METAR SLRQ 291900Z 36008KT 9999 BKN020 FEW023TCU 36/27 Q1008 A2978@CAELT@HR62 TCU/W/E SH/E=@CAELT@
ZPX0250 291856@CAELT@GG SLZZYMYT@CAELT@291850 SLETYMYC@CAELT@SABO SLET 291900Z@CAELT@METAR SLET 291900Z 31015G25KT 9999 SCT020 36/21 Q1008 A2979 HR43@CAELT@NOSIG=@CAELT@
ZPX0251 291856@CAELT@GG SLZZYMYT@CAELT@291855 SLCBYGYZ@CAELT@SABO SLCB 291900@CAELT@METAR SLCB 291900Z 11010G20KT 9999 FEW036 FEW040CB 31/04 Q1020 A3012@CAELT@747.6 HR17 CB/SE/S/NW NOSIG=@CAELT@
ZPX0252 291856@CAELT@GG SLZZYMYT@CAELT@291855 SLLPYGYZ@CAELT@SABO SLLP 291900@CAELT@METAR SLLP 291900Z 10013G23KT 050V150 9999 SCT020 FEW023CB 18/03@CAELT@Q1036 A3060 626.8 HR35 P3483 CB/SH W/NW AC/CI NOSIG=@CAELT@
ZPX0254 291857@CAELT@GG SLZZYMYT@CAELT@291857 SLTRYGYZ@CAELT@SABO SLTR 291900@CAELT@METAR SLTR 291900Z 34004KT 9999 FEW020 35/22 Q1008 A2977 989.7 HR48@CAELT@NOSIG=@CAELT@
ZPX0256 291858@CAELT@GG SLZZYMYT@CAELT@291858 SLVRYFYC@CAELT@SABO SLVR 291900@CAELT@METAR SLVR 291900Z 33014G24KT 9999 SCT020 35/21 Q1009 A2982 HR45@CAELT@NOSIG=@CAELT@METAR SLET 291900Z 31015G25KT 9999 SCT020 36/21 Q1008 A2979 HR43@CAELT@METAR SLAS 291900Z 36008KT 9999 FEW020 35/22 Q1011 A2986 HR49 RWY NML@CAELT@METAR SLCP 291900Z 33005KT 9999 FEW017 33/22 Q1013 A2991 HR52 RWY NMLMETAR SLSI 291900Z 36006KT 9999 SCT017 35/22 Q1010 A2983 HR43 RWY NMLMETAR SLRB 291900Z 36010KT 9999 SCT020 38/22 Q1010 A2983 HR40 RWY NMLMETAR SLCA 291900Z 36006KT 9999 FEW036 35/16 Q1009 A2980 HR32 RWY NML
ZPX0257 291858@CAELT@GG SLZZYMYT@CAELT@291858 SLTRYGYS@CAELT@SABO SLTR 291900@CAELT@METAR SLTR 291900Z 34004KT 9999 FEW020 35/22 Q1008 A2977 989.7 HR48@CAELT@NOSIG=@CAELT@METAR SLGM 291900Z NIL=@CAELT@METAR SLRI 291900Z 32005KT 9999 BKN017 FEW020CB 33/23 Q1009 A2982@CAELT@HR55 CB NE/SE CI=METAR SLJO 291900Z NIL=METAR SLRA 291900Z 09003KT 8000 VCSH SCT020 FEW023CB SCT200 35/23Q1008 A2978 HR52 CB/SH SW/NW RWY NML=METAR SLMG 291900Z 32004KT 8000 VCSH SCT017 FEW023CB 34/23 Q1009A2980 HR53 CB/SH N/NE RWY NML=METAR SLBU 291900Z NIL=METAR SLSA 291900Z 34006KT 9999 BKN017 34/23 Q1008 A2977 HR51 FU=METAR SLSR 291900Z 34006KT 7000 VCSH SCT017 FEW023CB BKN200 31/25Q1007 A2976 HR72 CB/SH E/SE/SW RWY NML=METAR SLSM 291900Z 36008KT 9999 FEW017 FEW023CB 33/24 Q1008 A2978HR60 CB N/SW RWY NML=
ZPX0258 291859@CAELT@GG SLZZYMYT@CAELT@291859 SLCAYGYS@CAELT@SABO SLCA 291900@CAELT@METAR SLCA 291900Z 36006KT 9999 FEW036 35/16 Q1009 A2980 HR32 RWY NML@CAELT@
ZPX0259 291900@CAELT@GG SLZZYMYT@CAELT@291859 SLLPYFYA@CAELT@SABO SLRY 291900@CAELT@METAR SLRY 291900Z 00000KT 9999 SCT017 FEW023CB 31/24 Q1008 A2978@CAELT@HR67 RERASH CB/NW/W RWY HUM OPR=@CAELT@
ZPX0263 291902@CAELT@GG SLZZYMYT@CAELT@291901 SLLPYFYA@CAELT@SABO SLLP 291900@CAELT@METAR SLLP 291900Z 10013G23KT 050V150 9999 SCT020 FEW023CB 18/03@CAELT@Q1036 A3060 626.8 HR35 P3483 CB/SH W/NW AC/CI NOSIG=@CAELT@METAR SLRY 291900Z 00000KT 9999 SCT017 FEW023CB 31/24 Q1008 A2978@CAELT@HR67 RERASH CB/NW/W RWY HUM OPR=@CAELT@METAR SLRQ 291900Z 36008KT 9999 BKN020 FEW023TCU 36/27 Q1008 A2978HR62 TCU/W/E SH/E=METAR SLSB 291900Z 02006KT 9999 FEW020 34/25 Q1009 A2980 HR59 RWY NML
ZPX0267 291908@CAELT@GG SLZZYMYT@CAELT@291905 SLCBYGYS@CAELT@SABO SLCB 291900@CAELT@METAR SLCB 291900Z 11010G20KT 9999 FEW036 FEW040CB 31/04 Q1020 A3012@CAELT@747.6 HR17 CB/SE/S/NW NOSIG=@CAELT@METAR SLAL 291900Z 02006KT 9999 SCT023 FEW040CB 23/07 Q1027 A3035 702@CAELT@.7 HR36 CB/SW CI=@CAELT@METAR SLTJ 291900Z 09007KT 9999 SCT040 32/13 Q1013 A2994 809.7 HR30=
ZPX0286 291950@CAELT@GG SLZZYMYT@CAELT@291950 SLRBYGYS@CAELT@SABO SLRB 292000@CAELT@METAR SLRB 292000Z 36006KT 9999 SCT020 38/22 Q1009 A2980 HR39 RWY NML=@CAELT@
ZPX0287 291952@CAELT@GG SLZZYMYT@CAELT@291952 SLSAYGYS@CAELT@SABO SLSA 292000@CAELT@METAR SLSA 292000Z 34005KT 9999 SCT017 34/23 Q1007 A2975 HR53 FU=@CAELT@
ZPX0288 291953@CAELT@GG SLZZYMYT@CAELT@291953 SLCAYGYS@CAELT@SABO SLCA 292000@CAELT@METAR SLCA 292000Z 36007KT 9999 FEW036 36/16 Q1009 A2980 HR32 RWY NML@CAELT@
ZPX0289 291955@CAELT@GG SLZZYMYT@CAELT@291955 SLVRYGYZ@CAELT@SABO SLVR 292000@CAELT@METAR SLVR 292000Z 33011G22KT 9999 SCT020 34/21 Q1008 A2978 HR46@CAELT@NOSIG=@CAELT@
ZPX0290 291955@CAELT@GG SLZZYMYT@CAELT@291955 SLSBYSYX@CAELT@SABO SLSB 292000@CAELT@METAR SLSB 292000Z 35006KT 9999 FEW020 34/24 Q1007 A2974 HR57 RWY NML=@CAELT@
ZPX0294 291956@CAELT@GG SLZZYMYT@CAELT@291955 SLLPYGYZ@CAELT@SABO SLLP 292000@CAELT@METAR SLLP 292000Z 07008G18KT 010V160 9999 SCT020 FEW023CB 18/00@CAELT@Q1035 A3058 626.4 HR29 P3783 CB/SH SE/SW/W AC/CI NOSIG=@CAELT@
ZPX0296 291956@CAELT@GG SLZZYMYT@CAELT@291956 SLTRYGYZ@CAELT@SABO SLTR 292000@CAELT@METAR SLTR 292000Z 32006KT 9999 FEW020 36/22 Q1006 A2974 988.5 HR46@CAELT@NOSIG=@CAELT@
ZPX0297 291956@CAELT@GG SLZZYMYT@CAELT@291955 SLTJYGYZ@CAELT@SABO SLTJ 292000@CAELT@METAR SLTJ 292000Z 06007KT 99999 SCT040 FEW043CB 32/15 Q1013 A2992@CAELT@809.2 HR35 CB S CI=@CAELT@
ZPX0298 291957@CAELT@GG SLZZYMYT@CAELT@291956 SLCBYGYZ@CAELT@SABO SLCB 292000@CAELT@METAR SLCB 292000Z 13015KT 9999 FEW036 FEW040CB 31/03 Q1019 A3009 746@CAELT@.7 HR17 CB/S/W AC CI NOSIG=@CAELT@
ZPX0300 291958@CAELT@GG SLZZYMYT@CAELT@291957 SLLPYFYA@CAELT@SABO SLRY 292000@CAELT@METAR SLRY 292000Z 34006KT 9999 FEW017 SCT200 30/24 Q1007 A2976 HR70@CAELT@RWY HUM OPR=@CAELT@
ZPX0301 291958@CAELT@GG SLZZYMYT@CAELT@291957 SLETYMYC@CAELT@SABO SLET 292000Z@CAELT@METAR SLET 292000Z 33015KT 9999 SCT020 35/21 Q1007 A2976 HR44 NOSIG=@CAELT@
ZPX0302 291958@CAELT@GG SLZZYMYT@CAELT@291957 SLRQYSYX@CAELT@SABO SLRQ 292000@CAELT@METAR SLRQ 292000Z 36008KT 9999 SCT020 SCT200 36/26 Q1007 A2974 HR59=@CAELT@
ZPX0303 291959@CAELT@GG SLZZYMYT@CAELT@291959 SLVRYFYC@CAELT@SABO SLVR 292000@CAELT@METAR SLVR 292000Z 33011G22KT 9999 SCT020 34/21 Q1008 A2978 HR46@CAELT@NOSIG=@CAELT@METAR SLET 292000Z 33015KT 9999 SCT020 35/21 Q1007 A2976 HR44 NOSIG=@CAELT@METAR SLAS 292000Z 36006KT 9999 NSC 35/22 Q1009 A2980 HR44 RWY NML=@CAELT@METAR SLCP 292000Z 36005KT 9999 FEW017 32/22 Q1012 A2988 HR56 RWY NMLMETAR SLSI 292000Z 36005KT 9999 SCT017 34/22 Q1009 A2980 HR45 RWY NMLMETAR SLRB 292000Z 36006KT 9999 SCT020 38/22 Q1009 A2980 HR39 RWY NMLMETAR SLCA 292000Z 36007KT 9999 FEW036 36/16 Q1009 A2980 HR32 RWY NML
ZPX0304 291959@CAELT@GG SLZZYMYT@CAELT@291959 SLLPYFYA@CAELT@SABO SLLP 292000@CAELT@METAR SLLP 292000Z 07008G18KT 010V160 9999 SCT020 FEW023CB 18/00@CAELT@Q1035 A3058 626.4 HR29 P3783 CB/SH SE/SW/W AC/CI NOSIG=@CAELT@METAR SLRY 292000Z 34006KT 9999 FEW017 SCT200 30/24 Q1007 A2976 HR70@CAELT@RWY HUM OPR=@CAELT@METAR SLRQ 292000Z 36008KT 9999 SCT020 SCT200 36/26 Q1007 A2974 HR59=METAR SLSB 292000Z 35006KT 9999 FEW020 34/24 Q1007 A2974 HR57 RWY NML=
ZPX0305 291959@CAELT@GG SLZZYMYT@CAELT@291959 SLCBYGYS@CAELT@SABO SLCB 292000@CAELT@METAR SLCB 292000Z 13015KT 9999 FEW036 FEW040CB 31/03 Q1019 A3009@CAELT@746.7 HR17 CB/S/W AC CI NOSIG=@CAELT@METAR SLAL 292000Z 02014KT 9999 FEW023 FEW040CB SCT200 23/06 Q1026@CAELT@A3031 701.9 HR34 CB/DIST/W AC=@CAELT@METAR SLTJ 292000Z 06007KT 99999 SCT040 FEW043CB 32/15 Q1013 A2992809.2 HR35 CB S CI=
ZPX0325 292050@CAELT@GG SLZZYMYT@CAELT@292050 SLCAYGYS@CAELT@SABO SLCA 292100@CAELT@METAR SLCA 292100Z 36006KT 9999 NSC 35/16 Q1008 A2977 HR32 RWY NML=@CAELT@
ZPX0326 292051@CAELT@GG SLZZYMYT@CAELT@292050 SLRBYGYS@CAELT@SABO SLRB 292100@CAELT@METAR SLRB 292100Z 36004KT 9999 FEW020 37/22 Q1009 A2980 HR41 RWY NML=@CAELT@
ZPX0330 292054@CAELT@GG SLZZYMYT@CAELT@292054 SLVRYGYZ@CAELT@SABO SLVR 292100@CAELT@METAR SLVR 292100Z 34012KT 9999 SCT020 34/21 Q1007 A2976 HR48 NOSIG=@CAELT@
ZPX0331 292054@CAELT@GG SLZZYMYT@CAELT@292050 SLETYMYC@CAELT@SABO SLET 292100Z@CAELT@METAR SLET 292100Z 33015G25KT 9999 FEW017 34/20 Q1007 A2974 HR46@CAELT@NOSIG=@CAELT@
ZPX0332 292055@CAELT@GG SLZZYMYT@CAELT@292055 SLRQYSYX@CAELT@SABO SLRQ 292100@CAELT@METAR SLRQ 292100Z 36004KT 9999 FEW020 SCT200 32/27 Q1006 A2973 HR74=@CAELT@
ZPX0333 292055@CAELT@GG SLZZYMYT@CAELT@292054 SLSAYGYS@CAELT@SABO SLSA 292100@CAELT@METAR SLSA 292100Z 32004KT 9999 SCT017 34/24 Q1006 A2973 HR54 FU=@CAELT@
ZPX0334 292055@CAELT@GG SLZZYMYT@CAELT@292055 SLTJYGYZ@CAELT@SABO SLTJ 292100@CAELT@METAR SLTJ 292100Z 08007KT 9999 SCT040 FEW043CB BKN200 29/14 Q1013@CAELT@A2993 809.5 HR40 CB S/SW/W=@CAELT@
ZPX0337 292056@CAELT@GG SLZZYMYT@CAELT@292055 SLLPYGYZ@CAELT@SABO SLLP 292100@CAELT@METAR SLLP 292100Z 06008KT 360V110 9999 FEW020 FEW023CB SCT200 16/00@CAELT@Q1035 A3057 626.2 HR35 P3783 CB SE/S/SW AC NOSIG=@CAELT@
ZPX0339 292056@CAELT@GG SLZZYMYT@CAELT@292056 SLTRYGYZ@CAELT@SABO SLTR 292100@CAELT@METAR SLTR 292100Z 31006KT 9999 FEW020 35/23 Q1006 A2971 987.7 HR47@CAELT@NOSIG=@CAELT@
ZPX0340 292056@CAELT@GG SLZZYMYT@CAELT@292056 SLSBYSYX@CAELT@SABO SLSB 292100@CAELT@METAR SLSB 292100Z 32003KT 9999 NSC 33/24 Q1006 A2973 HR59 CI RWY NML=@CAELT@
ZPX0342 292057@CAELT@GG SLZZYMYT@CAELT@292057 SLVRYFYC@CAELT@SABO SLVR 292100@CAELT@METAR SLVR 292100Z 34012KT 9999 SCT020 34/21 Q1007 A2976 HR48 NOSIG=@CAELT@METAR SLET 292100Z 33015G25KT 9999 FEW017 34/20 Q1007 A2974 HR46@CAELT@NOSIG=@CAELT@METAR SLAS 292100Z 36005KT 9999 NSC 35/21 Q1008 A2977 HR45 RWY NML=@CAELT@METAR SLCP 292100Z 36006KT 9999 FEW017 32/22 Q1011 A2985 HR56 RWY NMLMETAR SLSI 292100Z 36005KT 9999 SCT017 34/21 Q1008 A2977 HR46 RWY NMLMETAR SLRB 292100Z 36004KT 9999 FEW020 37/22 Q1009 A2980 HR41 RWY NMLMETAR SLCA 292100Z 36006KT 9999 NSC 35/16 Q1008 A2977 HR32 RWY NML=
ZPX0343 292058@CAELT@GG SLZZYMYT@CAELT@292057 SLLPYFYA@CAELT@SABO SLRY 292100@CAELT@METAR SLRY 292100Z 00000KT 9999 FEW020 SCT200 33/24 Q1006 A2973 HR57@CAELT@RWY HUM OPR=@CAELT@
ZPX0344 292058@CAELT@GG SLZZYMYT@CAELT@292058 SLTRYGYS@CAELT@SABO SLTR 292100@CAELT@METAR SLTR 292100Z 31006KT 9999 FEW020 35/23 Q1006 A2971 987.7 HR47@CAELT@NOSIG=@CAELT@METAR SLGM 292100Z NIL=@CAELT@METAR SLRI 292100Z 36012KT 9999 SCT017 FEW020CB 30/24 Q1008 A2977@CAELT@HR72 CB N/E AC/CI=METAR SLJO 292100Z NIL=METAR SLRA 292100Z 09005KT 8000 VCSH FEW020 FEW023CB SCT200 32/25Q1007 A2974 HR64 CB/SH N/NE RWY NML=METAR SLMG 292100Z 09004KT 9999 FEW017 FEW023CB SCT080 30/23 Q1007A2976 HR69 CB W RWY NML=METAR SLBU 292100Z NIL=METAR SLSA 292100Z 32004KT 9999 SCT017 34/24 Q1006 A2973 HR54 FU=METAR SLSR 292100Z 32006KT 8000 VCSH FEW017 FEW023CB BKN200 33/23Q1005 A2969 HR55 CB/SH SE/W RWY NML=METAR SLSM 292100Z 33004KT 9999 FEW017 32/25 Q1006 A2972 HR68RWY NML=
ZPX0345 292059@CAELT@GG SLZZYMYT@CAELT@292058 SLCBYGYZ@CAELT@SABO SLCB 292100@CAELT@METAR SLCB 292100Z 11012G22KT 9999 FEW036 FEW040CB SCT100 28/06 Q1019@CAELT@A3009 746.7 HR24 CB/SW CI NOSIG=@CAELT@
ZPX0346 292059@CAELT@GG SLZZYMYT@CAELT@292059 SLLPYFYA@CAELT@SABO SLLP 292100@CAELT@METAR SLLP 292100Z 06008KT 360V110 9999 FEW020 FEW023CB SCT200 16/00@CAELT@Q1035 A3057 626.2 HR35 P3783 CB SE/S/SW AC NOSIG=@CAELT@METAR SLRY 292100Z 00000KT 9999 FEW020 SCT200 33/24 Q1006 A2973 HR57@CAELT@RWY HUM OPR=@CAELT@METAR SLRQ 292100Z 36004KT 9999 FEW020 SCT200 32/27 Q1006 A2973 HR74=METAR SLSB 292100Z 32003KT 9999 NSC 33/24 Q1006 A2973 HR59 CI RWY NML
ZPX0348 292100@CAELT@GG SLZZYMYT@CAELT@292100 SLCBYGYS@CAELT@SABO SLCB 292100@CAELT@METAR SLCB 292100Z 11012G22KT 9999 FEW036 FEW040CB SCT100 28/06 Q1019@CAELT@A3009 746.7 HR24 CB/SW CI NOSIG=@CAELT@METAR SLAL 292100Z 02010KT 9999 FEW023 SCT200 22/05 Q1026 A3030 701.6@CAELT@HR36=@CAELT@METAR SLTJ 292100Z 08007KT 9999 SCT040 FEW043CB BKN200 29/14 Q1013A2993 809.5 HR40 CB S/SW/W=
ZPX0367 292154@CAELT@GG SLZZYMYT@CAELT@292154 SLVRYGYZ@CAELT@SABO SLVR 292200@CAELT@METAR SLVR 292200Z 34010KT 9999 FEW017 33/21 Q1007 A2974 HR50 CI@CAELT@NOSIG=@CAELT@
ZPX0368 292154@CAELT@GG SLZZYMYT@CAELT@292152 SLETYMYC@CAELT@SABO SLET 292200Z@CAELT@METAR SLET 292200Z 34015G25KT 9999 NSC 33/21 Q1006 A2973 HR50 NOSIG=@CAELT@
ZPX0369 292155@CAELT@GG SLZZYMYT@CAELT@292154 SLSAYGYS@CAELT@SABO SLSA 292200@CAELT@METAR SLSA 292200Z 00000KT 9999 FEW017 33/23 Q1006 A2971 HR54 FU=@CAELT@
ZPX0370 292155@CAELT@GG SLZZYMYT@CAELT@292155 SLRQYSYX@CAELT@SABO SLRQ 292200@CAELT@METAR SLRQ 292200Z 00000KT 9999 FEW020 SCT200 30/28 Q1006 A2971 HR89=@CAELT@
ZPX0371 292155@CAELT@GG SLZZYMYT@CAELT@292155 SLTJYGYZ@CAELT@SABO SLTJ 292200@CAELT@METAR SLTJ 292200Z 10008KT 9999 TS SCT040 FEW043CB SCT100 BKN200 28/@CAELT@14 Q1014 A2996 810.5 HR42 CB S/SW/W TS SH SW=@CAELT@
ZPX0372 292155@CAELT@GG SLZZYMYT@CAELT@292155 SLSBYSYX@CAELT@SABO SLSB 292200@CAELT@METAR SLSB 292200Z 00000KT 9999 NSC 32/24 Q1006 A2973 HR62 CI RWY NML=@CAELT@
ZPX0373 292155@CAELT@GG SLZZYMYT@CAELT@292155 SLCAYGYS@CAELT@SABO SLCA 292200@CAELT@METAR SLCA 292200Z 36004KT 9999 NSC 34/17 Q1008 A2977 HR38 RWY NML=@CAELT@
ZPX0374 292156@CAELT@GG SLZZYMYT@CAELT@292155 SLLPYFYA@CAELT@SABO SLRY 292200@CAELT@METAR SLRY 292200Z 00000KT 9999 FEW020 SCT200 33/23 Q1006 A2971 HR56@CAELT@RWY HUM OPR=@CAELT@
ZPX0375 292156@CAELT@GG SLLPZRZX@CAELT@292155 SLLPYGYZ@CAELT@SABO SLLP 292200@CAELT@METAR SLLP 292200Z 05009KT 9999 FEW017 FEW020CB SCT200 13/00 Q1035@CAELT@A3058 626.4 HR41 P3483 CB S/SW/W AC NOSIG=@CAELT@
ZPX0376 292156@CAELT@GG SLZZYMYT@CAELT@292156 SLTRYGYZ@CAELT@SABO SLTR 292200@CAELT@METAR SLTR 292200Z 31006KT 9999 FEW020 34/23 Q1005 A2971 987.5 HR53@CAELT@NOSIG=@CAELT@
ZPX0378 292157@CAELT@GG SLZZYMYT@CAELT@292156 SLRBYGYS@CAELT@SABO SLRB 292200@CAELT@METAR SLRB 292200Z 00000KT 9999 NSC 36/22 Q1009 A2980 HR45 RWY NML=@CAELT@
ZPX0379 292157@CAELT@GG SLZZYMYT@CAELT@292157 SLLPYFYA@CAELT@SABO SLLP 292200@CAELT@METAR SLLP 292200Z 05009KT 9999 FEW017 FEW020CB SCT200 13/00 Q1035@CAELT@A3058 626.4 HR41 P3483 CB S/SW/W AC NOSIG=@CAELT@METAR SLRY 292200Z 00000KT 9999 FEW020 SCT200 33/23 Q1006 A2971 HR56@CAELT@RWY HUM OPR=@CAELT@METAR SLRQ 292200Z 00000KT 9999 FEW020 SCT200 30/28 Q1006 A2971 HR89=METAR SLSB 292200Z 00000KT 9999 NSC 32/24 Q1006 A2973 HR62 CI RWY NML
ZPX0380 292158@CAELT@GG SLZZYMYT@CAELT@292158 SLCBYGYZ@CAELT@SABO SLCB 292200@CAELT@METAR SLCB 292200Z 08016KT 9999 FEW036 SCT200 26/07 Q1019 A3009 746.8@CAELT@HR29 FU AC NOSIG=@CAELT@
ZPX0382 292158@CAELT@GG SLZZYMYT@CAELT@292158 SLTRYGYS@CAELT@SABO SLTR 292200@CAELT@METAR SLTR 292200Z 31006KT 9999 FEW020 34/23 Q1005 A2971 987.5 HR53@CAELT@NOSIG=@CAELT@METAR SLGM 292200Z NIL=@CAELT@METAR SLRI 292200Z 36008KT 9999 SCT017 FEW020CB BKN200 29/25 Q1007@CAELT@A2976 HR78 CB/SE AC=METAR SLJO 292200Z NIL=METAR SLRA 292200Z 06006KT 8000 VCSH FEW020 FEW023CB SCT200 32/24Q1007 A2974 HR65 CB/SH N/NW RWY NML=METAR SLMG 292200Z 00000KT 8000 VCSH FEW017 FEW023CB SCT080 30/25Q1007 A2976 HR75 CB/SH W CI RWY NML=METAR SLBU 292200Z NIL=METAR SLSA 292200Z 00000KT 9999 FEW017 33/23 Q1006 A2971 HR54 FU=METAR SLSR 292200Z 00000KT 9999 FEW017 FEW023CB BKN200 33/24 Q1004A2967 HR59 CB SE RWY NML=METAR SLSM 292200Z 00000KT 9999 NSC 32/24 Q1006 A2971 HR63 RWY NML=
ZPX0383 292158@CAELT@GG SLZZYMYT@CAELT@292158 SLVRYFYC@CAELT@SABO SLVR 292200@CAELT@METAR SLVR 292200Z 34010KT 9999 FEW017 33/21 Q1007 A2974 HR50 CI@CAELT@NOSIG=@CAELT@METAR SLET 292200Z 34015G25KT 9999 NSC 33/21 Q1006 A2973 HR50 NOSIG=@CAELT@METAR SLAS 292200Z 00000KT 9999 NSC 33/21 Q1008 A2977 HR48 RWY NML=@CAELT@METAR SLCP 292200Z 00000KT 9999 NSC 31/23 Q1011 A2985 HR62 RWY NML=METAR SLSI 292200Z 00000KT 9999 NSC 33/21 Q1007 A2974 HR49 RWY NML=METAR SLRB 292200Z 00000KT 9999 NSC 36/22 Q1009 A2980 HR45 RWY NML=METAR SLCA 292200Z 36004KT 9999 NSC 34/17 Q1008 A2977 HR38 RWY NML=
ZPX0384 292159@CAELT@GG SLZZYMYT@CAELT@292158 SLRBYGYS@CAELT@SABO SLRB 292200@CAELT@METAR SLRB 292200Z 00000KT 9999 NSC 36/22 Q1009 A2980 HR45 RWY NML=@CAELT@
ZPX0386 292201@CAELT@GG SLZZYMYT@CAELT@292200 SLCBYGYS@CAELT@SABO SLCB 292200@CAELT@METAR SLCB 292200Z 08016KT 9999 FEW036 SCT200 26/07 Q1019 A3009 746.8@CAELT@HR29 FU AC NOSIG=@CAELT@METAR SLAL 292200Z 03013KT 9999 FEW020 FEW033CB SCT200 20/06 Q1026@CAELT@A3031 701.8 HR40 CB/SW=@CAELT@METAR SLTJ 292200Z 10008KT 9999 TS SCT040 FEW043CB SCT100 BKN20028/14 Q1014 A2996 810.5 HR42 CB S/SW/W TS SH SW=
ZPX0413 292249@CAELT@GG SLZZYMYT@CAELT@292250 SLRBYGYS@CAELT@SABO SLRB 292300@CAELT@METAR SLRB 292300Z 00000KT 9999 NSC 34/23 Q1009 A2980 HR54 RWY NML=@CAELT@
ZPX0414 292250@CAELT@GG SLZZYMYT@CAELT@292250 SLCAYGYS@CAELT@SABO SLCA 292300@CAELT@METAR SLCA 292300Z 00000KT 9999 FEW070 33/16 Q1008 A2977 HR39 RWY NML@CAELT@
ZPX0415 292250@CAELT@GG SLZZYMYT@CAELT@292250 SLRBYGYS@CAELT@SABO SLRB 292300@CAELT@METAR SLRB 292300Z 00000KT 9999 NSC 34/23 Q1009 A2980 HR54 RWY NML=@CAELT@
ZPX0416 292252@CAELT@GG SLZZYMYT@CAELT@292252 SLSAYGYS@CAELT@SABO SLSA 292300@CAELT@METAR SLSA 292300Z 00000KT 9999 FEW017 32/24 Q1006 A2971 HR63 FU=@CAELT@
ZPX0417 292254@CAELT@GG SLZZYMYT@CAELT@292255 SLVRYGYZ@CAELT@SABO SLVR 292300@CAELT@METAR SLVR 292300Z 36005KT 9999 FEW015 SCT200 30/22 Q1007 A2974 HR61@CAELT@AC NOSIG=@CAELT@
ZPX0418 292255@CAELT@GG SLZZYMYT@CAELT@292255 SLSBYSYX@CAELT@SABO SLSB 292300@CAELT@METAR SLSB 292300Z 00000KT 9999 NSC 31/25 Q1006 A2973 HR70 CI RWY NML=@CAELT@
ZPX0420 292256@CAELT@GG SLZZYMYT@CAELT@292256 SLVRYFYC@CAELT@SABO SLVR 292300@CAELT@METAR SLVR 292300Z 36005KT 9999 FEW015 SCT200 30/22 Q1007 A2974 HR61@CAELT@AC NOSIG=@CAELT@METAR SLSI 292300Z 00000KT 9999 NSC 32/22 Q1007 A2974 HR57 RWY NML=@CAELT@METAR SLRB 292300Z 00000KT 9999 NSC 34/23 Q1009 A2980 HR54 RWY NML=@CAELT@METAR SLCA 292300Z 00000KT 9999 FEW070 33/16 Q1008 A2977 HR39 RWY NML
ZPX0421 292256@CAELT@GG SLZZYMYT@CAELT@292256 SLTRYGYZ@CAELT@SABO SLTR 292300@CAELT@METAR SLTR 292300Z 00000KT 9999 NSC 32/24 Q1006 A2972 988.0 HR61@CAELT@CI NOSIG=@CAELT@
ZPX0423 292256@CAELT@GG SLLPZRZX@CAELT@292255 SLLPYGYZ@CAELT@SABO SLLP 292300@CAELT@METAR SLLP 292300Z 06007KT 9999 FEW017 FEW020CB SCT200 11/M00 Q1036@CAELT@A3060 626.7 HR45 CB S/SW AC NOSIG=@CAELT@
ZPX0424 292258@CAELT@GG SLZZYMYT@CAELT@292258 SLCBYGYZ@CAELT@SABO SLCB 292300@CAELT@METAR SLCB 292300Z 11007KT 9999 FEW036 SCT200 25/06 Q1019 A3011 747.3@CAELT@HR28 AC FU NOSIG=@CAELT@
ZPX0425 292258@CAELT@GG SLZZYMYT@CAELT@292258 SLTRYGYS@CAELT@SABO SLTR 292300@CAELT@METAR SLTR 292300Z 00000KT 9999 NSC 32/24 Q1006 A2972 988.0 HR61@CAELT@CI NOSIG=@CAELT@METAR SLGM 292300Z NIL=@CAELT@METAR SLRI 292300Z 04005KT 9999 FEW017 BKN200 29/25 Q1008 A2978 HR78@CAELT@METAR SLSA 292300Z 00000KT 9999 FEW017 32/24 Q1006 A2971 HR63 FU=
ZPX0426 292259@CAELT@GG SLZZYMYT@CAELT@292258 SLCBYGYS@CAELT@SABO SLCB 292300@CAELT@METAR SLCB 292300Z 11007KT 9999 FEW036 SCT200 25/06 Q1019 A3011 747.3@CAELT@HR28 AC FU NOSIG=@CAELT@METAR SLAL 292300Z 04012KT 9999 FEW017 FEW033CB SCT200 19/05 Q1027@CAELT@A3033 702.4 HR42 CB/W AC=@CAELT@
ZPX0429 292302@CAELT@GG SLZZYMYT@CAELT@292301 SLLPYFYA@CAELT@SABO SLLP 292300@CAELT@METAR SLLP 292300Z 06007KT 9999 FEW017 FEW020CB SCT200 11/M00 Q1036@CAELT@A3060 626.7 HR45 CB S/SW AC NOSIG=@CAELT@METAR SLSB 292300Z 00000KT 9999 NSC 31/25 Q1006 A2973 HR70 CI RWY NML@CAELT@
ZPX0439 292353@CAELT@GG SLZZYMYT@CAELT@292354 SLVRYGYZ@CAELT@SABO SLVR 300000@CAELT@METAR SLVR 300000Z 35005KT 9999 NSC 29/22 Q1007 A2976 HR66 CI NOSIG=@CAELT@
