
ZPX0001 272321@CAELT@GG SLZZYMYT@CAELT@272225 SLETYMYC@CAELT@SABO SLET 272300@CAELT@METAR SLET 272300Z 14004KT 9999 SCT020 FEW030CB 30/20 Q1007 A2974@CAELT@HR57 CB DIST N AC/CI NOSIG=@CAELT@
ZPX0004 272321@CAELT@GG SLZZYMYT@CAELT@272256 SLVRYGYZ@CAELT@SABO SLVR 272300@CAELT@METAR SLVR 272300Z 20004KT 9999 BKN023 FEW027CB BKN200 29/21 Q1006@CAELT@A2973 HR62 CB SH N NOSIG=@CAELT@
ZPX0005 272321@CAELT@GG SLLPZRZX@CAELT@272255 SLLPYGYZ@CAELT@SABO SLLP 272300@CAELT@METAR SLLP 272300Z 04010KT 9999 FEW015 FEW017CB SCT200 10/02 Q1033@CAELT@A3051 624.7 HR60 CB/SH N/SE/SW AC NOSIG=@CAELT@
ZPX0007 272321@CAELT@GG SLZZYMYT@CAELT@272256 SLTRYGYZ@CAELT@SABO SLTR 272300@CAELT@METAR SLTR 272300Z 08017G30KT 0800 +TSRA BKN004 SCT020CB OVC070@CAELT@24/23 Q1007 A2975 989.1 HR98 CB ON STN/N/NE/E/SE/S TS N/NE/E TEMPO@CAELT@0200=@CAELT@
ZPX0009 272321@CAELT@GG SLZZYMYT@CAELT@272255 SLSBYSYX@CAELT@SABO SLSB 272300@CAELT@METAR SLSB 272300Z 00000KT 9999 SCT027 BKN080 25/24 Q1006 A2971 HR92@CAELT@RWY WET OPR C210=@CAELT@
ZPX0010 272321@CAELT@GG SLZZYMYT@CAELT@272257 SLTJYGYZ@CAELT@SABO SLTJ 272300@CAELT@METAR SLTJ 272300Z 13004KT 9999 SCT036 FEW040CB 22/14 Q1017 A3006 813@CAELT@.2 HR60 CB SH/SW=@CAELT@
ZPX0012 272321@CAELT@GG SLZZYMYT@CAELT@272258 SLTRYGYS@CAELT@SABO SLTR 272300@CAELT@METAR SLTR 272300Z 08017G30KT 0800 +TSRA BKN004 SCT020CB OVC070@CAELT@24/23 Q1007 A2975 989.1 HR98 CB ON STN/N/NE/E/SE/S TS N/NE/E TEMPO@CAELT@0200=@CAELT@METAR SLGM 262300Z NIL=@CAELT@METAR SLRI 262300Z 00000KT 8000 VCSH BKN015 FEW020CB OVC070 26/24Q1007 A2974 HR89 CB/SH N/NE/NW=METAR SLSA 272300Z 00000KT 5000 -RA BKN005 BKN015 OVC070 24/24Q1005 A2969 HR98=
ZPX0013 272321@CAELT@GG SLZZYMYT@CAELT@272259 SLVRYFYC@CAELT@SABO SLVR 272300@CAELT@METAR SLVR 272300Z 20004KT 9999 BKN023 FEW027CB BKN200 29/21 Q1006@CAELT@A2973 HR62 CB/SH N NOSIG=@CAELT@METAR SLET 272300Z 14004KT 9999 SCT020 FEW030CB 30/20 Q1007 A2974@CAELT@HR57 CB DIST N AC CI NOSIG=@CAELT@METAR SLSI 272300Z 00000KT 9999 SCT070 BKN200 25/24 Q1007 A2974 HR92RWY HUM OPR=METAR SLRB 272300Z 06019KT 9999 SCT020 FEW025CB SCT070 30/23 Q1009A2980 HR66 CB N/NE/NW RWY NML=METAR SLCA 272300Z 18006KT 8000 VCSH BKN036 FEW040CB BKN070 26/22Q1013 A2991 HR82 CB/SH S/SW/SE RWY WET INOP=
ZPX0014 272321@CAELT@GG SLZZYMYT@CAELT@272258 SLCBYGYZ@CAELT@SABO SLCB 272300@CAELT@METAR SLCB 272300Z 29003KT 9000 SCT025 FEW027CB BKN070 17/11 Q1021@CAELT@A3017 748.8 HR65 CB/SH/W/NW CI NOSIG=@CAELT@
ZPX0015 272321@CAELT@GG SLZZYMYT@CAELT@272300 SLLPYFYA@CAELT@SABO SLLP 272300@CAELT@METAR SLLP 272300Z 04010KT 9999 FEW015 FEW017CB SCT200 10/02@CAELT@Q1033 A3051 624.7 HR60 CB/SH N/SE/SW AC NOSIG=@CAELT@METAR SLSB 272300Z 00000KT 9999 SCT027 BKN080 25/24 Q1006@CAELT@A2971 HR92 RWY WET OPR C210=@CAELT@
ZPX0019 272321@CAELT@GG SLZZYMYT@CAELT@272303 SLCBYGYS@CAELT@SABO SLCB 272300@CAELT@METAR SLCB 272300Z 29003KT 9000 SCT025 FEW027CB BKN070 17/11 Q1021@CAELT@A3017 748.8 HR65 CB/SH/W/NW CI NOSIG=@CAELT@METAR SLAL 272300Z 06007KT 7000 VCSH BKN015 FEW030CB BKN070 13/10@CAELT@Q1027 A3034 702.6 HR86 CB/SH/N/NE/NW CI=@CAELT@METAR SLTJ 272300Z 13004KT 9999 SCT036 FEW040CB 22/14 Q1017 A3006 813.2 HR60 CB SH/SW=
ZPX0030 272356@CAELT@GG SLZZYMYT@CAELT@272356 SLVRYGYZ@CAELT@SABO SLVR 280000@CAELT@METAR SLVR 280000Z 15003KT 9999 BKN020 FEW030CB BKN200 28/20 Q1007@CAELT@A2974 HR62 CB N NOSIG=@CAELT@
ZPX0031 272356@CAELT@GG SLZZYMYT@CAELT@272356 SLTJYGYZ@CAELT@SABO SLTJ 280000@CAELT@METAR SLTJ 280000Z 13004KT 9999 SCT036 21/13 Q1019 A3011 814.5 HR61=@CAELT@
