
ZPX0009 290054@CAELT@GG SLZZYMYT@CAELT@290055 SLVRYGYZ@CAELT@SABO SLVR 290100@CAELT@METAR SLVR 290100Z 30005KT 9999 NSC 21/15 Q1013 A2991 HR66 CI NOSIG=@CAELT@
ZPX0010 290056@CAELT@GG SLZZYMYT@CAELT@290056 SLCBYGYZ@CAELT@SABO SLCB 290100@CAELT@METAR SLCB 290100Z 06004KT 9999 FEW036 BKN200 18/04 Q1023 A3021 749.8@CAELT@HR39 AC FU NOSIG=@CAELT@
ZPX0011 290057@CAELT@GG SLLPZRZX@CAELT@290055 SLLPYGYZ@CAELT@SABO SLLP 290100@CAELT@METAR SLLP 290100Z 16007KT 140V200 9999 FEW013 FEW017CB SCT070 BKN200@CAELT@06/03 Q1036 A3061 627.0 HR80 CB/LT S/SW NOSIG=@CAELT@
ZPX0014 290104@CAELT@GG SLZZYMYT@CAELT@290100 SLCBYGYS@CAELT@SABO SLCB 290100@CAELT@METAR SLCB 290100Z 06004KT 9999 FEW036 BKN200 18/04 Q1023 A3021 749.8@CAELT@HR39 AC FU NOSIG=@CAELT@
ZPX0021 290153@CAELT@GG SLZZYMYT@CAELT@290152 SLCBYGYZ@CAELT@SABO SLCB 290200@CAELT@METAR SLCB 290200Z 14006KT 9999 FEW036 SCT200 17/05 Q1024 A3025 750.9@CAELT@HR46 AC FU NOSIG=@CAELT@
ZPX0022 290155@CAELT@GG SLZZYMYT@CAELT@290156 SLVRYGYZ@CAELT@SABO SLVR 290200@CAELT@METAR SLVR 290200Z 31003KT 9999 SCT070 BKN200 20/15 Q1013 A2994 HR72@CAELT@NOSIG=@CAELT@
ZPX0023 290156@CAELT@GG SLLPZRZX@CAELT@290155 SLLPYGYZ@CAELT@SABO SLLP 290200@CAELT@METAR SLLP 290200Z 24009KT 8000 -RA SCT013 FEW017CB BKN070 04/03@CAELT@Q1038 A3067 628.3 HR92 CB N/NE/S/SW NOSIG=@CAELT@
ZPX0024 290157@CAELT@GG SLZZYMYT@CAELT@290157 SLCBYGYS@CAELT@SABO SLCB 290200@CAELT@METAR SLCB 290200Z 14006KT 9999 FEW036 SCT200 17/05 Q1024 A3025 750.9@CAELT@HR46 AC FU NOSIG=@CAELT@
ZPX0031 290256@CAELT@GG SLZZYMYT@CAELT@290255 SLVRYGYZ@CAELT@SABO SLVR 290300@CAELT@METAR SLVR 290300Z 32005KT 9999 FEW070 BKN200 20/15 Q1013 A2994 HR74@CAELT@NOSIG=@CAELT@
ZPX0032 290257@CAELT@GG SLZZYMYT@CAELT@290257 SLCBYGYZ@CAELT@SABO SLCB 290300@CAELT@METAR SLCB 290300Z 16006KT 9999 FEW036 SCT080 SCT200 16/04 Q1024@CAELT@A3026 751.2 HR45 FU NOSIG=@CAELT@
ZPX0033 290257@CAELT@GG SLZZYMYT@CAELT@290257 SLCBYGYS@CAELT@SABO SLCB 290300@CAELT@METAR SLCB 290300Z 16006KT 9999 FEW036 SCT080 SCT200 16/04 Q1024@CAELT@A3026 751.2 HR45 FU NOSIG=@CAELT@
ZPX0034 290258@CAELT@GG SLLPZRZX@CAELT@290255 SLLPYGYZ@CAELT@SABO SLLP 290300@CAELT@METAR SLLP 290300Z 16004KT 8000 -RA FEW004 SCT013 BKN070 03/02 Q1038@CAELT@A3066 628.2 HR93 BECMG 4000E VCFG=@CAELT@
ZPX0042 290355@CAELT@GG SLZZYMYT@CAELT@290355 SLCBYGYZ@CAELT@SABO SLCB 290400@CAELT@METAR SLCB 290400Z 17005KT 9999 FEW036 BKN080 15/05 Q1024 A3025 751.0@CAELT@HR50 FU CI NOSIG=@CAELT@
ZPX0043 290356@CAELT@GG SLLPZRZX@CAELT@290356 SLLPYGYZ@CAELT@SABO SLLP 290400@CAELT@METAR SLLP 290400Z 10008KT 4000E VCFG FEW003 SCT070 BKN200 04/03@CAELT@Q1037 A3064 627.7 HR93 VCFG NE/E/SE NOSIG=@CAELT@
ZPX0044 290356@CAELT@GG SLZZYMYT@CAELT@290356 SLCBYGYS@CAELT@SABO SLCB 290400@CAELT@METAR SLCB 290400Z 17005KT 9999 FEW036 BKN080 15/05 Q1024 A3025 751.0@CAELT@HR50 FU CI NOSIG=@CAELT@
ZPX0045 290357@CAELT@GG SLZZYMYT@CAELT@290357 SLVRYGYZ@CAELT@SABO SLVR 290400@CAELT@METAR SLVR 290400Z 31005KT 9999 FEW070 BKN200 19/15 Q1013 A2992 HR77@CAELT@NOSIG=@CAELT@
ZPX0052 290455@CAELT@GG SLZZYMYT@CAELT@290455 SLVRYGYZ@CAELT@SABO SLVR 290500@CAELT@METAR SLVR 290500Z 30004KT 9999 SCT070 BKN200 19/15 Q1012 A2989 HR78@CAELT@NOSIG=@CAELT@
ZPX0053 290457@CAELT@GG SLZZYMYT@CAELT@290457 SLCBYGYZ@CAELT@SABO SLCB 290500@CAELT@METAR SLCB 290500Z 18005KT 9999 FEW036 BKN080 15/05 Q1024 A3024 750.7@CAELT@HR50 FU CI NOSIG=@CAELT@
ZPX0055 290502@CAELT@GG SLLPZRZX@CAELT@290500 SLLPYGYZ@CAELT@SABO SLLP 290500@CAELT@METAR SLLP 290500Z 09005KT 4000E VCFG FEW003 SCT070 BKN200 04/03@CAELT@Q1036 A3062 627.2 HR93 VCFG NE/E/SE NOSIG=@CAELT@
ZPX0062 290555@CAELT@GG SLZZYMYT@CAELT@290555 SLVRYGYZ@CAELT@SABO SLVR 290600@CAELT@METAR SLVR 290600Z 31006KT 9999 FEW070 BKN200 19/16 Q1011 A2988 HR81@CAELT@NOSIG=@CAELT@
ZPX0063 290555@CAELT@GG SLLPZRZX@CAELT@290555 SLLPYGYZ@CAELT@SABO SLLP 290600@CAELT@METAR SLLP 290600Z 08005KT 050V120 4000E VCFG FEW003 SCT070 BKN200 04@CAELT@/03 Q1036 A3060 626.8 HR93 VCFG NE/E/SE NOSIG=@CAELT@
ZPX0064 290555@CAELT@GG SLZZYMYT@CAELT@290555 SLCBYGYZ@CAELT@SABO SLCB 290600@CAELT@METAR SLCB 290600Z 15006KT 9999 FEW036 BKN080 15/05 Q1023 A3022 750.2@CAELT@HR51 FU CI NOSIG=@CAELT@
ZPX0065 290558@CAELT@GG SLZZYMYT@CAELT@290558 SLCBYGYS@CAELT@SABO SLCB 290600@CAELT@METAR SLCB 290600Z 15006KT 9999 FEW036 BKN080 15/05 Q1023 A3022 750.2@CAELT@HR51 FU CI NOSIG=@CAELT@
ZPX0074 290653@CAELT@GG SLZZYMYT@CAELT@290655 SLVRYGYZ@CAELT@SABO SLVR 290700@CAELT@METAR SLVR 290700Z 31006KT 9999 FEW070 BKN200 19/16 Q1011 A2985 HR82@CAELT@NOSIG=@CAELT@
ZPX0075 290655@CAELT@GG SLZZYMYT@CAELT@290655 SLCBYGYZ@CAELT@SABO SLCB 290700@CAELT@METAR SLCB 290700Z 12005KT 9999 FEW036 BKN090 15/05 Q1023 A3022 750.2@CAELT@HR48 FU CI NOSIG=@CAELT@
ZPX0076 290656@CAELT@GG SLZZYMYT@CAELT@290655 SLCBYGYS@CAELT@SABO SLCB 290700@CAELT@METAR SLCB 290700Z 12005KT 9999 FEW036 BKN090 15/05 Q1023 A3022 750.2@CAELT@HR48 FU CI NOSIG=@CAELT@
ZPX0077 290656@CAELT@GG SLLPZRZX@CAELT@290657 SLLPYGYZ@CAELT@SABO SLLP 290700@CAELT@METAR SLLP 290700Z 07005KT 4000E VCFG FEW003 SCT070 BKN200@CAELT@04/03 Q1036 A3059 626.7 HR61 VCFG NE/E/SE NOSIG=@CAELT@
ZPX0084 290753@CAELT@GG SLZZYMYT@CAELT@290755 SLVRYGYZ@CAELT@SABO SLVR 290800@CAELT@METAR SLVR 290800Z 32006KT 9999 FEW070 BKN200 19/15 Q1010 A2984 HR77@CAELT@NOSIG=@CAELT@
ZPX0085 290756@CAELT@GG SLZZYMYT@CAELT@290756 SLCBYGYZ@CAELT@SABO SLCB 290800@CAELT@METAR SLCB 290800Z 13007KT 9999 FEW036 BKN090 15/04 Q1023 A3023 750.3@CAELT@HR48 FU CI NOSIG=@CAELT@
ZPX0086 290757@CAELT@GG SLLPZRZX@CAELT@290757 SLLPYGYZ@CAELT@SABO SLLP 290800@CAELT@METAR SLLP 290800Z 29006KT 4000E VCFG FEW003 SCT012 BKN200@CAELT@05/03 Q1036 A3059 626.6 HR90 VCFG NE/E/SE NOSIG=@CAELT@
ZPX0087 290757@CAELT@GG SLZZYMYT@CAELT@290756 SLCBYGYS@CAELT@SABO SLCB 290800@CAELT@METAR SLCB 290800Z 13007KT 9999 FEW036 BKN090 15/04 Q1023 A3023 750.3@CAELT@HR48 FU CI NOSIG=@CAELT@
ZPX0097 290855@CAELT@GG SLZZYMYT@CAELT@290855 SLVRYGYZ@CAELT@SABO SLVR 290900@CAELT@METAR SLVR 290900Z 32008KT 9999 FEW070 BKN200 19/16 Q1010 A2982 HR80@CAELT@NOSIG=@CAELT@
ZPX0098 290855@CAELT@GG SLZZYMYT@CAELT@290855 SLCBYGYZ@CAELT@SABO SLCB 290900@CAELT@METAR SLCB 290900Z 14003KT 9999 FEW036 SCT090 14/05 Q1024 A3024 750.6@CAELT@HR54 FU CI NOSIG=@CAELT@
ZPX0099 290856@CAELT@GG SLLPZRZX@CAELT@290855 SLLPYGYZ@CAELT@SABO SLLP 290900@CAELT@METAR SLLP 290900Z VRB02KT 4000E VCFG FEW003 SCT012 BKN200@CAELT@04/03 Q1036 A3060 626.8 HR91 VCFG NE/E/SE NOSIG=@CAELT@
ZPX0101 290856@CAELT@GG SLZZYMYT@CAELT@290856 SLCBYGYS@CAELT@SABO SLCB 290900@CAELT@METAR SLCB 290900Z 14003KT 9999 FEW036 SCT090 14/05 Q1024 A3024 750.6@CAELT@HR54 FU CI NOSIG=@CAELT@
ZPX0115 290952@CAELT@GG SLZZYMYT@CAELT@290952 SLPSYGYS@CAELT@SABO SLPS 291000@CAELT@METAR SLPS 291000Z 00000KT 9000 NSC 21/20 Q1011 A2986 HR91 FU=@CAELT@
ZPX0116 290953@CAELT@GG SLZZYMYT@CAELT@290953 SLRBYGYS@CAELT@SABO SLRB 291000@CAELT@METAR SLRB 291000Z 00000KT 9999 NSC 17/15 Q1014 A2994 HR91 FU RWY NML=@CAELT@
ZPX0118 290955@CAELT@GG SLZZYMYT@CAELT@290955 SLVRYGYZ@CAELT@SABO SLVR 291000@CAELT@METAR SLVR 291000Z 34008KT 9999 FEW070 BKN200 20/17 Q1010 A2985 HR82@CAELT@NOSIG=@CAELT@
ZPX0119 290955@CAELT@GG SLZZYMYT@CAELT@290955 SLCOYGYZ@CAELT@SABO SLCO 291000@CAELT@METAR SLCO 291000Z 17004KT 9999 FEW003 BKN080 23/21 Q1008 A2979 981.3@CAELT@HR92 FU CI=@CAELT@
ZPX0120 290955@CAELT@GG SLZZYMYT@CAELT@290953 SLSAYGYS@CAELT@SABO SLSA 291000@CAELT@METAR SLSA 291000Z 00000KT 8000 BKN070 OVC200 20/20 Q1009 A2981@CAELT@HR98 FU=@CAELT@
ZPX0121 290955@CAELT@GG SLZZYMYT@CAELT@290955 SLTRYGYZ@CAELT@SABO SLTR 291000@CAELT@METAR SLTR 291000Z 00000KT 8000 SCT020 BKN070 21/20 Q1011 A2986@CAELT@992.8 HR96 FU NOSIG=@CAELT@
ZPX0122 290956@CAELT@GG SLZZYMYT@CAELT@290957 SLLPYGYZ@CAELT@SABO SLLP 291000@CAELT@METAR SLLP 291000Z VRB02KT 4000E VCFG FEW003 SCT010 BKN200@CAELT@04/03 Q1036 A3060 626.9 HR90 P/INV VCFG N/NE/E/SE NOSIG=@CAELT@
ZPX0124 290957@CAELT@GG SLZZYMYT@CAELT@290956 SLCAYGYS@CAELT@SABO SLCA 291000@CAELT@METAR SLCA 291000Z 00000KT 9999 NSC 11/05 Q1012 A2988 HR66 FU RWY NML@CAELT@
ZPX0125 290957@CAELT@GG SLZZYMYT@CAELT@290957 SLCBYGYZ@CAELT@SABO SLCB 291000@CAELT@METAR SLCB 291000Z 12004KT 9999 FEW036 12/06 Q1024 A3025 750.8 HR66@CAELT@FU AC NOSIG=@CAELT@
ZPX0126 290959@CAELT@GG SLZZYMYT@CAELT@290958 SLSBYSYX@CAELT@SABO SLSB 291000@CAELT@METAR SLSB 291000Z 00000KT 3000 BR SCT005 SCT025 BKN080 20/20 Q1012@CAELT@A2989 HR100 RWY WET INOP=@CAELT@
ZPX0127 290959@CAELT@GG SLZZYMYT@CAELT@290957 SLRYYSYX@CAELT@SABO SLRY 291000@CAELT@METAR SLRY 291000Z 00000KT 9999 BKN030 OVC200 20/20 Q1007 A2976 HR100@CAELT@RWY WET INOP=@CAELT@
ZPX0129 291000@CAELT@GG SLZZYMYT@CAELT@291001 SLUYYGYS@CAELT@SABO SLUY 291000@CAELT@METAR SLUY 291000Z 36004KT 9999 NSC 01/M12 Q1032 A3048 657.0@CAELT@HR36 CI=@CAELT@
ZPX0130 291002@CAELT@GG SLZZYMYT@CAELT@291000 SLRQYSYX@CAELT@SABO SLRQ 291000@CAELT@METAR SLRQ 291000Z 00000KT 9999 BKN030 OVC200 20/20 Q1011 A2988 987.7@CAELT@HR100 AC=@CAELT@
ZPX0132 291003@CAELT@GG SLZZYMYT@CAELT@291000 SLLPYFYA@CAELT@SABO SLLP 291000@CAELT@METAR SLLP 291000Z VRB02KT 4000E VCFG FEW003 SCT010 BKN200@CAELT@04/03 Q1036 A3060 626.9 HR90 P/INV VCFG N/NE/E/SE NOSIG=@CAELT@METAR SLCO 291000Z 17004KT 9999 FEW003 BKN080 23/21 Q1008 A2979@CAELT@981.3 HR92 FU CI=@CAELT@METAR SLRY 291000Z 00000KT 9999 BKN030 OVC200 20/20 Q1007A2976 HR100 RWY WET INOP=METAR SLRQ 291000Z 00000KT 9999 BKN030 OVC200 20/20 Q1011A2988 987.7 HR100 AC=METAR SLSB 291000Z 00000KT 3000 BR SCT005 SCT025 BKN080 20/20Q1012A2989 HR100 RWY WET INOP=METAR SLUY 291000Z 36004KT 9999 NSC 01/M12 Q1032 A3048 657.0HR36 CI=
ZPX0133 291004@CAELT@GG SLZZYMYT@CAELT@291004 SLVRYGYS@CAELT@SABO SLVR 291000@CAELT@METAR SLVR 291000Z 34008KT 9999 FEW070 BKN200 20/17 Q1010 A2985 HR82@CAELT@NOSIG=@CAELT@METAR SLET 291000Z NIL=@CAELT@METAR SLAS 291000Z 00000KT 7000 SCT070 20/17 Q1013 A2991 HR83 FU RWY@CAELT@NML=METAR SLJV 291000Z 00000KT 9999 NSC 20/16 Q1012 A2988 HR63 RWY NML=METAR SLCP 291000Z 00000KT 9999 SCT015 OVC070 20/15 Q1015 A2997 HR75FU RWY NML=METAR SLSI 291000Z 00000KT 6000 NSC 20/15 Q1012 A2988 HR73 FU RWY NMLMETAR SLTI 291000Z 00000KT 9999 NSC 22/21 Q1015 A2997 HR93 FU RWY NMLMETAR SLJE 291000Z 00000KT 9999 SCT070 18/16 Q1015 A2997 HR88 FU RWYMETAR SLVG 291000Z 00000KT 9999 SCT070 11/09 Q1022 A3018 HR89 RWY NMLMETAR SLRB 291000Z 00000KT 9999 NSC 17/15 Q1014 A2994 HR91 FU RWY NMLMETAR SLPS 291000Z 00000KT 9000 NSC 21/20 Q1011 A2986 HR91 FU=METAR SLCA 291000Z 00000KT 9999 NSC 11/05 Q1012 A2988 HR66 FU RWY NML=
ZPX0134 291007@CAELT@GG SLZZYMYT@CAELT@291006 SLETYMYC@CAELT@SABO SLET 291000@CAELT@METAR SLET 291000Z 33012KT 9999 FEW070 SCT200 21/17 Q1010 A2982 HR78@CAELT@NOSIG=@CAELT@
ZPX0135 291008@CAELT@GG SLZZYMYT@CAELT@291003 SLTRYGYS@CAELT@SABO SLTR 291000@CAELT@METAR SLTR 291000Z 00000KT 8000 SCT020 BKN070 21/20 Q1011 A2986@CAELT@992.8 HR96 FU NOSIG=@CAELT@METAR SLGM 291000Z 00000KT 1600 FU FEW008 SCT080 22/22 Q1010 A2984@CAELT@HR98=@CAELT@METAR SLRI 291000Z 17006KT 8000 VCSH BKN004 FEW020CB OVC07021/21 Q1011 A2987 HR97 CB/SH NE/E/SW=METAR SLJO 291000Z 12003KT 8000 SCT020 OVC070 21/20 Q1009 A2982 HR96FU RWY HUM OPR=METAR SLRA 291000Z 14004KT 9999 SCT020 OVC070 22/21 Q1010 A2983 HR96RWY HUM OPR=METAR SLMG 291000Z 00000KT 8000 SCT080 OVC200 21/20 Q1009 A2982 HR95METAR SLBU 291000Z NIL=METAR SLSR 291000Z 00000KT 8000 BKN080 OVC200 20/20 Q1010 A2983 HR100FU RWY WET OPR C206=METAR SLSM 291000Z 00000KT 9999 SCT080 BKN200 20/20 Q1012 A2988 HR98RWY OPR C206=
ZPX0136 291008@CAELT@GG SLZZYMYT@CAELT@291003 SLTRYGYS@CAELT@SABO SLTR 291000@CAELT@METAR SLTR 291000Z 00000KT 8000 SCT020 BKN070 21/20 Q1011 A2986@CAELT@992.8 HR96 FU NOSIG=@CAELT@METAR SLGM 291000Z 00000KT 1600 FU FEW008 SCT080 22/22 Q1010 A2984@CAELT@HR98=@CAELT@METAR SLRI 291000Z 17006KT 8000 VCSH BKN004 FEW020CB OVC07021/21 Q1011 A2987 HR97 CB/SH NE/E/SW=METAR SLJO 291000Z 12003KT 8000 SCT020 OVC070 21/20 Q1009 A2982 HR96FU RWY HUM OPR=METAR SLRA 291000Z 14004KT 9999 SCT020 OVC070 22/21 Q1010 A2983 HR96RWY HUM OPR=METAR SLMG 291000Z 00000KT 8000 SCT080 OVC200 21/20 Q1009 A2982 HR95METAR SLBU 291000Z NIL=METAR SLSR 291000Z 00000KT 8000 BKN080 OVC200 20/20 Q1010 A2983 HR100FU RWY WET OPR C206=METAR SLSM 291000Z 00000KT 9999 SCT080 BKN200 20/20 Q1012 A2988 HR98RWY OPR C206=
ZPX0137 291009@CAELT@GG SLZZYMYT@CAELT@291003 SLTRYGYS@CAELT@SABO SLTR 291000@CAELT@METAR SLTR 291000Z 00000KT 8000 SCT020 BKN070 21/20 Q1011 A2986@CAELT@992.8 HR96 FU NOSIG=@CAELT@METAR SLGM 291000Z 00000KT 1600 FU FEW008 SCT080 22/22 Q1010 A2984@CAELT@HR98=@CAELT@METAR SLRI 291000Z 17006KT 8000 VCSH BKN004 FEW020CB OVC07021/21 Q1011 A2987 HR97 CB/SH NE/E/SW=METAR SLJO 291000Z 12003KT 8000 SCT020 OVC070 21/20 Q1009 A2982 HR96FU RWY HUM OPR=METAR SLRA 291000Z 14004KT 9999 SCT020 OVC070 22/21 Q1010 A2983 HR96RWY HUM OPR=METAR SLMG 291000Z 00000KT 8000 SCT080 OVC200 21/20 Q1009 A2982 HR95METAR SLBU 291000Z NIL=METAR SLSA 291000Z 00000KT 8000 BKN070 OVC200 20/20 Q1009 A2981HR98 FU=METAR SLSR 291000Z 00000KT 8000 BKN080 OVC200 20/20 Q1010 A2983 HR100FU RWY WET OPR C206=METAR SLSM 291000Z 00000KT 9999 SCT080 BKN200 20/20 Q1012 A2988 HR98RWY OPR C206=
ZPX0138 291010@CAELT@GG SLZZYMYT@CAELT@291010 SLVRYGYS@CAELT@SABO SLVR 291000 RRA@CAELT@METAR SLVR 291000Z 34008KT 9999 FEW070 BKN200 20/17 Q1010 A2985 HR82@CAELT@NOSIG=@CAELT@METAR RTD SLET 291000Z 33012KT 9999 FEW070 SCT200 21/17 Q1010 A2982@CAELT@HR78 NOSIG=@CAELT@METAR SLAS 291000Z 00000KT 7000 SCT070 20/17 Q1013 A2991 HR83 FU RWYNML=METAR SLJV 291000Z 00000KT 9999 NSC 20/16 Q1012 A2988 HR63 RWY NML=METAR SLCP 291000Z 00000KT 9999 SCT015 OVC070 20/15 Q1015 A2997 HR75FU RWY NML=METAR SLSI 291000Z 00000KT 6000 NSC 20/15 Q1012 A2988 HR73 FU RWY NMLMETAR SLTI 291000Z 00000KT 9999 NSC 22/21 Q1015 A2997 HR93 FU RWY NMLMETAR SLJE 291000Z 00000KT 9999 SCT070 18/16 Q1015 A2997 HR88 FU RWYMETAR SLVG 291000Z 00000KT 9999 SCT070 11/09 Q1022 A3018 HR89 RWY NMLMETAR SLRB 291000Z 00000KT 9999 NSC 17/15 Q1014 A2994 HR91 FU RWY NMLMETAR SLPS 291000Z 00000KT 9000 NSC 21/20 Q1011 A2986 HR91 FU=METAR SLCA 291000Z 00000KT 9999 NSC 11/05 Q1012 A2988 HR66 FU RWY NML=
ZPX0144 291034@CAELT@GG SLZZYMYT@CAELT@291032 SLLPYFYA@CAELT@SABO SLAP 291000 RRA@CAELT@METAR RTD SLAP 291000Z 00000KT 9999 BKN025 17/17 Q1018@CAELT@A3009 859.4 HR98 AC/CI=@CAELT@
ZPX0145 291039@CAELT@GG SLZZYMYT@CAELT@291038 SLLPYFYA@CAELT@SABO SLLP 291000 RRA@CAELT@METAR SLLP 291000Z VRB02KT 4000E VCFG FEW003 SCT010 BKN200@CAELT@04/03 Q1036 A3060 626.9 HR90 P/INV VCFG N/NE/E/SE NOSIG=@CAELT@METAR SLCO 291000Z 17004KT 9999 FEW003 BKN080 23/21 Q1008 A2979@CAELT@981.3 HR92 FU CI=@CAELT@METAR SLRY 291000Z 00000KT 9999 BKN030 OVC200 20/20 Q1007A2976 HR100 RWY WET INOP=METAR SLRQ 291000Z 00000KT 9999 BKN030 OVC200 20/20 Q1011A2988 987.7 HR100 AC=METAR RTD SLAP 291000Z 00000KT 9999 BKN025 17/17 Q1018A3009 859.4 HR98 AC/CI=METAR SLSB 291000Z 00000KT 3000 BR SCT005 SCT025 BKN080 20/20Q1012A2989 HR100 RWY WET INOP=METAR SLUY 291000Z 36004KT 9999 NSC 01/M12 Q1032 A3048 657.0HR36 CI=
ZPX0153 291052@CAELT@GG SLZZYMYT@CAELT@291050 SLCAYGYS@CAELT@SABO SLCA 291100@CAELT@METAR SLCA 291100Z 00000KT 9999 NSC 11/05 Q1012 A2988 HR66 FU RWY NML@CAELT@
ZPX0155 291053@CAELT@GG SLZZYMYT@CAELT@291053 SLSAYGYS@CAELT@SABO SLSA 291100@CAELT@METAR SLSA 291100Z 00000KT 8000 BKN070 BKN200 20/20 Q1009 A2981@CAELT@HR98 FU=@CAELT@
ZPX0156 291053@CAELT@GG SLZZYMYT@CAELT@291054 SLPSYGYS@CAELT@SABO SLPS 291100@CAELT@METAR SLPS 291100Z 00000KT 9000 NSC 21/20 Q1012 A2989 HR90 FU=@CAELT@
ZPX0157 291054@CAELT@GG SLZZYMYT@CAELT@291053 SLRBYGYS@CAELT@SABO SLRB 291100@CAELT@METAR SLRB 291100Z 00000KT 9999 NSC 19/17 Q1014 A2994 HR88 FU RWY NML=@CAELT@
ZPX0158 291054@CAELT@GG SLZZYMYT@CAELT@291055 SLVRYGYZ@CAELT@SABO SLVR 291100@CAELT@METAR SLVR 291100Z 34010KT 9999 FEW070 SCT200 20/18 Q1011 A2986 HR85@CAELT@NOSIG=@CAELT@
ZPX0159 291055@CAELT@GG SLZZYMYT@CAELT@291053 SLRYYSYX@CAELT@SABO SLRY 291100@CAELT@METAR SLRY 291100Z 00000KT 9999 SCT033 BKN080 BKN200 20/20 Q1008@CAELT@A2978 HR100 RWY WET INOP=@CAELT@
ZPX0160 291055@CAELT@GG SLZZYMYT@CAELT@291055 SLSBYSYX@CAELT@SABO SLSB 291100@CAELT@METAR SLSB 291100Z 00000KT 1500 BR BKN004 BKN080 20/20 Q1012 A2991@CAELT@HR100 RWY WET OPR C210=@CAELT@
ZPX0161 291055@CAELT@GG SLZZYMYT@CAELT@291055 SLTRYGYZ@CAELT@SABO SLTR 291100@CAELT@METAR SLTR 291100Z 00000KT 8000 SCT020 BKN070 20/19 Q1012 A2989@CAELT@993.6 HR95 FU NOSIG=@CAELT@
ZPX0162 291055@CAELT@GG SLZZYMYT@CAELT@291053 SLETYMYC@CAELT@SABO SLET 291100@CAELT@METAR SLET 291100Z 35010KT 9999 FEW070 SCT200 21/17 Q1010 A2984 HR82@CAELT@NOSIG=@CAELT@
ZPX0163 291056@CAELT@GG SLZZYMYT@CAELT@291055 SLCOYGYZ@CAELT@SABO SLCO 291100@CAELT@METAR SLCO 291100Z 19003KT 9999 BKN006 23/21 Q1012 A2991 985.5 HR91@CAELT@
ZPX0164 291056@CAELT@GG SLZZYMYT@CAELT@291055 SLLPYGYZ@CAELT@SABO SLLP 291100@CAELT@METAR SLLP 291100Z VRB02KT 4000E VCFG FEW003 SCT012 04/02@CAELT@Q1037 A3062 627.3 HR90 P/INV VCFG N/NE/E/SE BECMG 9999 NSW=@CAELT@
ZPX0165 291056@CAELT@GG SLZZYMYT@CAELT@291055 SLRQYSYX@CAELT@SABO SLRQ 291100@CAELT@METAR SLRQ 291100Z 00000KT 9999 BKN030 OVC200 20/20 Q1012 A2990 988.4@CAELT@HR98 AC=@CAELT@
ZPX0166 291056@CAELT@GG SLZZYMYT@CAELT@291057 SLUYYGYS@CAELT@SABO SLUY 291100@CAELT@METAR SLUY 291100Z 01003KT 9999 FEW080 BKN200 03/M13 Q1032 A3050@CAELT@657.5 HR30=@CAELT@
ZPX0167 291057@CAELT@GG SLZZYMYT@CAELT@291057 SLORYGYZ@CAELT@SABO SLOR 291100@CAELT@METAR SLOR 291100Z 00000KT 5000 BR FEW012 SCT070 04/03 Q1034 A3054@CAELT@655.3 HR93 VIS RED N/E/NE/NW CI=@CAELT@
ZPX0168 291057@CAELT@GG SLZZYMYT@CAELT@291057 SLCBYGYZ@CAELT@SABO SLCB 291100@CAELT@METAR SLCB 291100Z 00000KT 9999 FEW036 SCT080 14/06 Q1024 A3027 751.3@CAELT@HR58 FU CI NOSIG=@CAELT@
ZPX0169 291057@CAELT@GG SLZZYMYT@CAELT@291057 SLTRYGYS@CAELT@SABO SLTR 291100@CAELT@METAR SLTR 291100Z 00000KT 8000 SCT020 BKN070 20/19 Q1012 A2989@CAELT@993.6 HR95 FU NOSIG=@CAELT@METAR SLGM 291100Z 18006KT 1600 FU SCT008 BKN080 22/22 Q1011 A2985@CAELT@HR98=@CAELT@METAR SLRI 291100Z 18006KT 5000 FU BKN004 BKN080 22/22 Q1012A2989 HR97=METAR SLJO 291100Z 14003KT 8000 FEW020 BKN080 22/21 Q1010 A2983 HR96FU RWY HUM OPR=METAR SLRA 291100Z 14004KT 9999 SCT020 BKN080 22/21 Q1010 A2984 HR94RWY HUM OPR=METAR SLMG 291100Z 00000KT 8000 SCT080 OVC200 21/20 Q1010 A2982 HR95METAR SLBU 291100Z NIL=METAR SLSA 291100Z 00000KT 8000 BKN070 BKN200 20/20 Q1009 A2981HR98 FU=METAR SLSR 291100Z 16006KT 8000 BKN080 OVC200 20/20 Q1010 A2984 HR98FU RWY OPR C206=METAR SLSM 291100Z 00000KT 9999 SCT080 BKN200 20/20 Q1012 A2989 HR98RWY OPR C206=
ZPX0170 291058@CAELT@GG SLZZYMYT@CAELT@291058 SLVRYGYS@CAELT@SABO SLVR 291100@CAELT@METAR SLVR 291100Z 34010KT 9999 FEW070 SCT200 20/18 Q1011 A2986 HR85@CAELT@NOSIG=@CAELT@METAR SLET 291100Z 35010KT 9999 FEW070 SCT200 21/17 Q1010 A2984 HR82@CAELT@METAR SLAS 291100Z 00000KT 7000 SCT070 21/17 Q1014 A2994 HR75 FU RWY@CAELT@NML=METAR SLJV 291100Z 00000KT 9999 NSC 21/14 Q1012 A2988 HR61 RWY NML=METAR SLCP 291100Z 00000KT 9999 SCT015 OVC070 20/18 Q1016 A3000 HR83FU RWY NML=METAR SLSI 291100Z 00000KT 8000 NSC 21/15 Q1013 A2991 HR64 FU RWY NMLMETAR SLTI 291100Z 00000KT 9999 NSC 23/22 Q1015 A2997 HR90 FU RWY NMLMETAR SLJE 291100Z 00000KT 9999 NSC 20/17 Q1016 A3000 HR84 FU RWY NMLMETAR SLVG 291100Z 00000KT 9999 SCT070 12/10 Q1023 A3021 HR89 RWY NMLMETAR SLRB 291100Z 00000KT 9999 NSC 19/17 Q1014 A2994 HR88 FU RWY NMLMETAR SLPS 291100Z 00000KT 9000 NSC 21/20 Q1012 A2989 HR90 FU=METAR SLCA 291100Z 00000KT 9999 NSC 11/05 Q1012 A2988 HR66 FU RWY NML=
ZPX0173 291102@CAELT@GG SLZZYMYT@CAELT@291057 SLCBYGYZ@CAELT@SABO SLCB 291100@CAELT@METAR SLCB 291100Z 00000KT 9999 FEW036 SCT080 14/06 Q1024 A3027 751.3@CAELT@HR58 FU CI NOSIG=@CAELT@
ZPX0175 291103@CAELT@GG SLZZYMYT@CAELT@291100 SLCBYGYS@CAELT@SABO SLCB 291100@CAELT@METAR SLCB 291100Z 00000KT 9999 FEW036 SCT080 14/06 Q1024 A3027 751.3@CAELT@HR58 FU CI NOSIG=@CAELT@METAR SLAL 291100Z 00000KT 9999 FEW070 09/06 Q1027 A3035 702.5 HR81@CAELT@METAR SLVM 291100Z 00000KT 9999 NSC 13/09 Q1008 A2978 HR74 FU CI=@CAELT@METAR SLYA 291100Z 00000KT 9999 NSC 16/11 Q1009 A2980 934.0 HR72 CI=
ZPX0176 291104@CAELT@GG SLZZYMYT@CAELT@291103 SLLPYFYA@CAELT@SABO SLLP 291100@CAELT@METAR SLLP 291100Z VRB02KT 4000E VCFG FEW003 SCT012 04/02@CAELT@Q1037 A3062 627.3 HR90 P/INV VCFG N/NE/E/SE BECMG 9999 NSW=@CAELT@METAR SLCO 291100Z 19003KT 9999 BKN006 23/21 Q1012 A2991 985.5@CAELT@HR91 AC=@CAELT@METAR SLRY 291100Z 00000KT 9999 SCT033 BKN080 BKN200 20/20 Q1008A2978 HR100 RWY WET INOP=METAR SLRQ 291100Z 00000KT 9999 BKN030 OVC200 20/20 Q1012 A2990988.4 HR98 AC=METAR SLAP 291100Z 00000KT 9999 BKN025 17/17 Q1019 A3011 859.9HR98 AC/CI=METAR SLSB 291100Z 00000KT 1500 BR BKN004 BKN080 20/20 Q1012 A2991HR100 RWY WET OPR C210=METAR SLOR 291100Z 00000KT 5000 BR FEW012 SCT070 04/03 Q1034 A3054655.3 HR93 VIS RED N/E/NE/NW CI=METAR SLUY 291100Z 01003KT 9999 FEW080 BKN200 03/M13 Q1032 A3050657.5 HR30=
ZPX0201 291151@CAELT@GG SLZZYMYT@CAELT@291151 SLPSYGYS@CAELT@SABO SLPS 291200@CAELT@METAR SLPS 291200Z 00000KT 9000 NSC 23/20 Q1013 A2992 HR85 FU=@CAELT@
ZPX0202 291153@CAELT@GG SLZZYMYT@CAELT@291153 SLRBYGYS@CAELT@SABO SLRB 291200@CAELT@METAR SLRB 291200Z 00000KT 9999 NSC 23/19 Q1015 A2997 HR76 FU RWY NML=@CAELT@
ZPX0203 291154@CAELT@GG SLZZYMYT@CAELT@291154 SLSBYSYX@CAELT@SABO SLSB 291200@CAELT@METAR SLSB 291200Z 00000KT 3000 BR BKN004 BKN080 21/20 Q1013 A2992@CAELT@HR98 RWY WET OPR C210=@CAELT@
ZPX0204 291154@CAELT@GG SLZZYMYT@CAELT@291155 SLVRYGYZ@CAELT@SABO SLVR 291200@CAELT@METAR SLVR 291200Z 34010KT 9999 FEW070 SCT200 23/19 Q1011 A2988 HR75@CAELT@NOSIG=@CAELT@
ZPX0206 291155@CAELT@GG SLZZYMYT@CAELT@291153 SLRYYSYX@CAELT@SABO SLRY 291200@CAELT@METAR SLRY 291200Z 00000KT 9999 FEW006 BKN080 21/20 Q1009 A2980 HR98@CAELT@RWY WET INOP=@CAELT@
ZPX0207 291155@CAELT@GG SLZZYMYT@CAELT@291125 SLTRYGYZ@CAELT@SABO SLTR 291200@CAELT@METAR SLTR 291200Z 00000KT 8000 SCT020 BKN070 21/19 Q1012 A2991@CAELT@994.2 HR93 FU NOSIG=@CAELT@
ZPX0208 291155@CAELT@GG SLZZYMYT@CAELT@291123 SLETYMYC@CAELT@SABO SLET 291200@CAELT@METAR SLET 291200Z 33012KT 9999 FEW070 SCT200 23/18 Q1011 A2986 HR74@CAELT@NOSIG=@CAELT@
ZPX0209 291155@CAELT@GG SLZZYMYT@CAELT@291155 SLAGYSYX@CAELT@SABO SLAG 251200@CAELT@METAR SLAG 251200Z 00000KT 9999 FEW070 15/07 Q1012 A2990 885.0 HR62@CAELT@FU CI=@CAELT@
ZPX0210 291156@CAELT@GG SLZZYMYT@CAELT@291155 SLCBYGYZ@CAELT@SABO SLCB 291200@CAELT@METAR SLCB 291200Z 00000KT 9999 FEW036 17/06 Q1025 A3028 751.7 HR47@CAELT@FU AC NOSIG=@CAELT@
ZPX0211 291156@CAELT@GG SLZZYMYT@CAELT@291155 SLRQYSYX@CAELT@SABO SLRQ 291200@CAELT@METAR SLRQ 291200Z 00000KT 9999 FEW030 BKN080 OVC200 22/22 Q1013@CAELT@A2992 989.0 HR98=@CAELT@
ZPX0212 291156@CAELT@GG SLZZYMYT@CAELT@291156 SLORYGYZ@CAELT@SABO SLOR 291200@CAELT@METAR SLOR 291200Z 03006KT 9999 FEW015 08/03 Q1034 A3056 655.8 HR73@CAELT@AC/CI FU=@CAELT@
ZPX0213 291156@CAELT@GG SLZZYMYT@CAELT@291156 SLLPYGYZ@CAELT@SABO SLLP 291200@CAELT@METAR SLLP 291200Z VRB02KT 4000E VCFG FEW003 SCT012 05/03 Q1037@CAELT@A3065 627.9 HR88 PINV/ VCFG N/NE/E/SE CI NOSIG=@CAELT@
ZPX0214 291157@CAELT@GG SLZZYMYT@CAELT@291155 SLTJYGYZ@CAELT@SABO SLTJ 291200@CAELT@METAR SLTJ 291200Z 00000KT 9999 NSC 15/07 Q1016 A3002 812.2 HR60 FU@CAELT@AC/CI=@CAELT@
ZPX0215 291157@CAELT@GG SLZZYMYT@CAELT@291156 SLCAYGYS@CAELT@SABO SLCA 291200@CAELT@METAR SLCA 291200Z 00000KT 9999 NSC 15/06 Q1013 A2991 HR55 FU CS RWY@CAELT@NML=@CAELT@
ZPX0216 291157@CAELT@GG SLZZYMYT@CAELT@291156 SLCOYGYZ@CAELT@SABO SLCO 291200@CAELT@METAR SLCO 291200Z 19004KT 9999 BKN006 23/21 Q1013 A2994 986.4 HR89@CAELT@
ZPX0217 291157@CAELT@GG SLZZYMYT@CAELT@291154 SLSAYGYS@CAELT@SABO SLSA 291200@CAELT@METAR SLSA 291200Z 00000KT 8000 BKN070 BKN200 21/21 Q1010 A2985@CAELT@HR96 FU=@CAELT@
ZPX0219 291158@CAELT@GG SLZZYMYT@CAELT@291157 SLAGYSYX@CAELT@SABO SLAG 291200 CCA@CAELT@METAR COR SLAG 291200Z 00000KT 9999 FEW070 15/07 Q1012 A2990 885.0@CAELT@HR62 FU CI=@CAELT@
ZPX0220 291158@CAELT@GG SLZZYMYT@CAELT@291155 SLUYYGYS@CAELT@SABO SLUY 291200@CAELT@METAR SLUY 291200Z 01005KT 9999 FEW080 SCT200 07/M12 Q1033 A3052@CAELT@658.0 HR23 FU=@CAELT@
ZPX0223 291158@CAELT@GG SLZZYMYT@CAELT@291158 SLCBYGYS@CAELT@SABO SLCB 291200@CAELT@METAR SLCB 291200Z 00000KT 9999 FEW036 17/06 Q1025 A3028 751.7 HR47@CAELT@FU AC NOSIG=@CAELT@METAR SLAL 291200Z 00000KT 9999 FEW070 12/07 Q1028 A3037 703.3 HR69@CAELT@METAR SLAG 251200Z 00000KT 9999 FEW070 15/07 Q1012 A2990 885.0 HR62@CAELT@FU CI=METAR SLVM 291200Z 00000KT 9999 FEW070 20/11 Q1009 A2980 HR57 FU CI=METAR SLTJ 291200Z 00000KT 9999 NSC 15/07 Q1016 A3002 812.2 HR60 FUAC/CI=METAR SLYA 291200Z 00000KT 9999 NSC 21/11 Q1009 A2982 934.6 HR55 CI=
ZPX0225 291159@CAELT@GG SLZZYMYT@CAELT@291159 SLVRYGYS@CAELT@SABO SLVR 291200@CAELT@METAR SLVR 291200Z 34010KT 9999 FEW070 SCT200 23/19 Q1011 A2988 HR75@CAELT@NOSIG=@CAELT@METAR SLET 291200Z 33012KT 9999 FEW070 SCT200 23/18 Q1011 A2986 HR74@CAELT@METAR SLAS 291200Z 00000KT 7000 SCT070 22/16 Q1014 A2994 HR72 FU RWY@CAELT@NML=METAR SLJV 291200Z 00000KT 9999 NSC 22/14 Q1012 A2988 HR60 RWY NML=METAR SLCP 291200Z 00000KT 9999 SCT015 BKN070 OVC200 23/17 Q1016A3000 HR71 FU RWY NML=METAR SLSI 291200Z 00000KT 8000 NSC 25/16 Q1013 A2991 HR55 FU RWY NMLMETAR SLTI 291200Z 00000KT 9999 NSC 26/22 Q1016 A3000 HR75 FU RWY NMLMETAR SLJE 291200Z 00000KT 8000 NSC 24/16 Q1016 A3000 HR62 FU RWY NMLMETAR SLVG 291200Z 34005KT 9999 FEW070 16/11 Q1023 A3021 HR67 RWY NMLMETAR SLRB 291200Z 00000KT 9999 NSC 23/19 Q1015 A2997 HR76 FU RWY NMLMETAR SLPS 291200Z 00000KT 9000 NSC 23/20 Q1013 A2992 HR85 FU=METAR SLCA 291200Z 00000KT 9999 NSC 15/06 Q1013 A2991 HR55 FU CS RWY
ZPX0226 291159@CAELT@GG SLZZYMYT@CAELT@291159 SLCBYGYS@CAELT@SABO SLCB 291200 CCA@CAELT@METAR SLCB 291200Z 00000KT 9999 FEW036 17/06 Q1025 A3028 751.7 HR47@CAELT@FU AC NOSIG=@CAELT@METAR SLAL 291200Z 00000KT 9999 FEW070 12/07 Q1028 A3037 703.3 HR69@CAELT@METAR COR SLAG 291200Z 00000KT 9999 FEW070 15/07 Q1012 A2990 885.0@CAELT@HR62 FU CI=METAR SLVM 291200Z 00000KT 9999 FEW070 20/11 Q1009 A2980 HR57 FU CI=METAR SLTJ 291200Z 00000KT 9999 NSC 15/07 Q1016 A3002 812.2 HR60 FUAC/CI=METAR SLYA 291200Z 00000KT 9999 NSC 21/11 Q1009 A2982 934.6 HR55 CI=
ZPX0227 291159@CAELT@GG SLZZYMYT@CAELT@291159 SLLPYFYA@CAELT@SABO SLLP 291200@CAELT@METAR SLLP 291200Z VRB02KT 4000E VCFG FEW003 SCT012 05/03 Q1037@CAELT@A3065 627.9 HR88 PINV/ VCFG N/NE/E/SE CI NOSIG=@CAELT@METAR SLCO 291200Z 19004KT 9999 BKN006 23/21 Q1013 A2994 986.4 HR89@CAELT@METAR SLRY 291200Z 00000KT 9999 FEW006 BKN080 21/20 Q1009 A2980 HR98@CAELT@RWY WET INOP=METAR SLRQ 291200Z 00000KT 9999 FEW030 BKN080 OVC200 22/22 Q1013A2992 989.0 HR98=METAR SLSB 291200Z 00000KT 3000 BR BKN004 BKN080 21/20 Q1013 A2992HR98 RWY WET OPR C210=METAR SLOR 291200Z 03006KT 9999 FEW015 08/03 Q1034 A3056 655.8 HR73AC/CI FU=METAR SLUY 291200Z 01005KT 9999 FEW080 SCT200 07/M12 Q1033 A3052658.0 HR23 FU=
ZPX0229 291200@CAELT@GG SLZZYMYT@CAELT@291200 SLTRYGYS@CAELT@SABO SLTR 291200@CAELT@METAR SLTR 291200Z 00000KT 8000 SCT020 BKN070 21/19 Q1012 A2991@CAELT@994.2 HR93 FU NOSIG=@CAELT@METAR SLGM 291200Z 16006KT 3000 FU SCT012 SCT200 23/22 Q1011 A2988@CAELT@HR92=@CAELT@METAR SLJO 291200Z 00000KT 8000 FEW020 BKN080 23/21 Q1011 A2986 HR92FU RWY HUM OPR=METAR SLRA 291200Z 14003KT 9999 FEW008 BKN080 22/21 Q1011 A2986 HR94RWY HUM OPR=METAR SLMG 291200Z 00000KT 8000 BKN080 23/21 Q1010 A2985 HR92 FUMETAR SLBU 291200Z 00000KT 9999 BKN080 22/21 Q1011 A2988 HR94 RWYOPR C210=METAR SLSA 291200Z 00000KT 8000 BKN070 BKN200 21/21 Q1010 A2985HR96 FU=METAR SLSR 291200Z 16006KT 8000 SCT080 BKN200 21/21 Q1011 A2986 HR97FU RWY OPR C207=METAR SLSM 291200Z 00000KT 9999 SCT080 OVC200 20/20 Q1012 A2991 HR98RWY OPR C206=
ZPX0235 291205@CAELT@GG SLZZYMYT@CAELT@291205 SLLPYFYA@CAELT@SABO SLAP 291200 RRA@CAELT@METAR RTD SLAP 291200Z 00000KT 9999 SCT025 BKN070 18/17 Q1020 A3014@CAELT@860.8 HR95 CI=@CAELT@
ZPX0237 291206@CAELT@GG SLZZYMYT@CAELT@291205 SLLPYFYA@CAELT@SABO SLLP 291200 RRA@CAELT@METAR SLLP 291200Z VRB02KT 4000E VCFG FEW003 SCT012 05/03 Q1037@CAELT@A3065 627.9 HR88 PINV/ VCFG N/NE/E/SE CI NOSIG=@CAELT@METAR SLCO 291200Z 19004KT 9999 BKN006 23/21 Q1013 A2994 986.4 HR89@CAELT@METAR SLRY 291200Z 00000KT 9999 FEW006 BKN080 21/20 Q1009 A2980 HR98@CAELT@RWY WET INOP=METAR SLRQ 291200Z 00000KT 9999 FEW030 BKN080 OVC200 22/22 Q1013A2992 989.0 HR98=METAR RTD SLAP 291200Z 00000KT 9999 SCT025 BKN070 18/17 Q1020 A3014860.8 HR95 CI=METAR SLSB 291200Z 00000KT 3000 BR BKN004 BKN080 21/20 Q1013 A2992HR98 RWY WET OPR C210=METAR SLOR 291200Z 03006KT 9999 FEW015 08/03 Q1034 A3056 655.8 HR73AC/CI FU=METAR SLUY 291200Z 01005KT 9999 FEW080 SCT200 07/M12 Q1033 A3052658.0 HR23 FU=
ZPX0243 291218@CAELT@GG SLZZYMYT@CAELT@291200 SLTRYGYS@CAELT@SABO SLTR 291200@CAELT@METAR SLTR 291200Z 00000KT 8000 SCT020 BKN070 21/19 Q1012 A2991@CAELT@994.2 HR93 FU NOSIG=@CAELT@METAR SLGM 291200Z 16006KT 3000 FU SCT012 SCT200 23/22 Q1011 A2988@CAELT@HR92=@CAELT@METAR SLRI 291200Z 00000KT 5000 FU BKN007 BKN080 23/22 Q1013A2992 HR91=METAR SLJO 291200Z 00000KT 8000 FEW020 BKN080 23/21 Q1011 A2986 HR92FU RWY HUM OPR=METAR SLRA 291200Z 14003KT 9999 FEW008 BKN080 22/21 Q1011 A2986 HR94RWY HUM OPR=METAR SLMG 291200Z 00000KT 8000 BKN080 23/21 Q1010 A2985 HR92 FUMETAR SLBU 291200Z 00000KT 9999 BKN080 22/21 Q1011 A2988 HR94 RWYOPR C210=METAR SLSA 291200Z 00000KT 8000 BKN070 BKN200 21/21 Q1010 A2985HR96 FU=METAR SLSR 291200Z 16006KT 8000 SCT080 BKN200 21/21 Q1011 A2986 HR97FU RWY OPR C207=METAR SLSM 291200Z 00000KT 9999 SCT080 OVC200 20/20 Q1012 A2991 HR98RWY OPR C206=
ZPX0264 291251@CAELT@GG SLZZYMYT@CAELT@291251 SLCAYGYS@CAELT@SABO SLCA 291300@CAELT@METAR SLCA 291300Z 00000KT 9999 NSC 20/07 Q1012 A2988 HR43 CS RWY NML@CAELT@
ZPX0266 291252@CAELT@GG SLZZYMYT@CAELT@291253 SLPSYGYS@CAELT@SABO SLPS 291300@CAELT@METAR SLPS 291300Z 09004KT 7000 NSC 26/22 Q1013 A2992 HR80 FU=@CAELT@
ZPX0268 291253@CAELT@GG SLZZYMYT@CAELT@291253 SLRBYGYS@CAELT@SABO SLRB 291300@CAELT@METAR SLRB 291300Z 00000KT 9999 NSC 26/19 Q1015 A2997 HR67 FU RWY NML=@CAELT@
ZPX0269 291254@CAELT@GG SLZZYMYT@CAELT@291254 SLSBYSYX@CAELT@SABO SLSB 291300@CAELT@METAR SLSB 291300Z 27003KT 8000 SCT010 BKN080 22/21 Q1013 A2993 HR96@CAELT@BR RWY WET OPR C210=@CAELT@
ZPX0270 291255@CAELT@GG SLZZYMYT@CAELT@291253 SLRYYSYX@CAELT@SABO SLRY 291300@CAELT@METAR SLRY 291300Z 00000KT 9999 BKN080 23/22 Q1009 A2982 HR92 RWY WET@CAELT@INOP=@CAELT@
ZPX0271 291255@CAELT@GG SLZZYMYT@CAELT@291255 SLVRYGYZ@CAELT@SABO SLVR 291300@CAELT@METAR SLVR 291300Z 36012KT 9999 FEW070 26/18 Q1012 A2990 HR64 NOSIG=@CAELT@
ZPX0272 291255@CAELT@GG SLZZYMYT@CAELT@291255 SLTRYGYZ@CAELT@SABO SLTR 291300@CAELT@METAR SLTR 291300Z 00000KT 9999 SCT020 BKN070 22/20 Q1013 A2993@CAELT@994.9 HR91 FU NOSIG=@CAELT@
ZPX0273 291256@CAELT@GG SLZZYMYT@CAELT@291254 SLSAYGYS@CAELT@SABO SLSA 291300@CAELT@METAR SLSA 291300Z 00000KT 8000 FEW006 BKN080 23/21 Q1012 A2989@CAELT@HR91 FU=@CAELT@
ZPX0274 291256@CAELT@GG SLZZYMYT@CAELT@291256 SLLPYGYZ@CAELT@SABO SLLP 291300@CAELT@METAR SLLP 291300Z 08005KT 6000 FEW004 SCT200 07/04 Q1038 A3067@CAELT@628.4 HR80 P92// VIS/RED SC/BJOS NE/E/SE AC NOSIG=@CAELT@
ZPX0275 291256@CAELT@GG SLZZYMYT@CAELT@291256 SLCOYGYZ@CAELT@SABO SLCO 291300@CAELT@METAR SLCO 291300Z 15003KT 9999 BKN010 BKN080 24/22 Q1014 A2997 987.3@CAELT@HR87=@CAELT@
ZPX0276 291256@CAELT@GG SLZZYMYT@CAELT@291256 SLORYGYZ@CAELT@SABO SLOR 291300@CAELT@METAR SLOR 291300Z 36007KT 9999 FEW015 10/03 Q1035 A3057 656.1 HR65@CAELT@AC/CI=@CAELT@
ZPX0277 291257@CAELT@GG SLZZYMYT@CAELT@291255 SLCBYGYZ@CAELT@SABO SLCB 291300@CAELT@METAR SLCB 291300Z 00000KT 9999 FEW036 21/07 Q1025 A3030 752.1 HR40@CAELT@AC CI NOSIG=@CAELT@
ZPX0278 291257@CAELT@GG SLZZYMYT@CAELT@291256 SLTJYGYZ@CAELT@SABO SLTJ 291300@CAELT@METAR SLTJ 291300Z 00000KT 9999 NSC 16/06 Q1016 A3002 812.1 HR54 FU=@CAELT@
ZPX0279 291257@CAELT@GG SLZZYMYT@CAELT@291257 SLTRYGYS@CAELT@SABO SLTR 291300@CAELT@METAR SLTR 291300Z 00000KT 9999 SCT020 BKN070 22/20 Q1013 A2993@CAELT@994.9 HR91 FU NOSIG=@CAELT@METAR SLGM 291300Z 16006KT 5000 FU FEW015 BKN200 25/23 Q1012 A2991@CAELT@HR88=@CAELT@METAR SLRI 291300Z 15006KT 5000 FU SCT008 BKN015 BKN080 24/22Q1014 A2995 HR89=METAR SLJO 291300Z 16006KT 8000 SCT080 25/22 Q1012 A2989 HR85 FURWY HUM OPR=METAR SLRA 291300Z 14006KT 9999 BKN080 24/21 Q1012 A2991 HR84 RWYHUM OPR=METAR SLMG 291300Z 00000KT 9999 BKN080 24/21 Q1011 A2987 HR86 RWYMETAR SLBU 291300Z 00000KT 9999 BKN080 24/22 Q1012 A2990 HR85 RWYOPR C210=METAR SLSA 291300Z 00000KT 8000 FEW006 BKN080 23/21 Q1012 A2989HR91 FU=METAR SLSR 291300Z 16006KT 8000 BKN080 OVC200 22/21 Q1011 A2987HR95 FU RWY OPR C207=METAR SLSM 291300Z 00000KT 9999 BKN080 OVC200 21/21 Q1013 A2992HR97 RWY OPR C206=
ZPX0280 291257@CAELT@GG SLZZYMYT@CAELT@291256 SLAGYSYX@CAELT@SABO SLAG 291300@CAELT@METAR SLAG 291300Z 00000KT 9999 FEW070 SCT200 21/09 Q1012 A2990 885.1@CAELT@HR45 FU CC=@CAELT@
ZPX0281 291257@CAELT@GG SLZZYMYT@CAELT@291257 SLRQYSYX@CAELT@SABO SLRQ 291300@CAELT@METAR SLRQ 291300Z 00000KT 9999 BKN080 23/22 Q1013 A2992 989.2 HR92@CAELT@
ZPX0282 291258@CAELT@GG SLZZYMYT@CAELT@291257 SLETYMYC@CAELT@SABO SLET 291300@CAELT@METAR SLET 291300Z 35012KT 9999 FEW070 26/18 Q1012 A2989 HR63 NOSIG=@CAELT@
ZPX0284 291258@CAELT@GG SLZZYMYT@CAELT@291258 SLUYYGYS@CAELT@SABO SLUY 291300@CAELT@METAR SLUY 291300Z 33015KT 9999 FEW023 SCT200 10/M03 Q1034 A3054@CAELT@658.5 HR28 AC/LENT E FU=@CAELT@
ZPX0286 291258@CAELT@GG SLZZYMYT@CAELT@291258 SLCBYGYS@CAELT@SABO SLCB 291300@CAELT@METAR SLCB 291300Z 00000KT 9999 FEW036 21/07 Q1025 A3030 752.1 HR40@CAELT@AC CI NOSIG=@CAELT@METAR SLAL 291300Z 33007KT 9999 FEW070 SCT200 14/04 Q1029 A3039 703.6@CAELT@HR51=@CAELT@METAR SLAG 291300Z 00000KT 9999 FEW070 SCT200 21/09 Q1012 A2990 885.1HR45 FU CC=METAR SLVM 291300Z 00000KT 9999 FEW070 24/13 Q1009 A2980 HR51 FU CI=METAR SLTJ 291300Z 00000KT 9999 NSC 16/06 Q1016 A3002 812.1 HR54 FU=METAR SLYA 291300Z 00000KT 9999 BKN070 26/11 Q1009 A2981 934.4 HR40
ZPX0288 291259@CAELT@GG SLZZYMYT@CAELT@291258 SLPSYGYS@CAELT@SABO SLPS 291300 CCA@CAELT@METAR COR SLPS 291300Z 09004KT 3000 FU NSC 26/22 Q1013 A2992 HR80=@CAELT@
ZPX0291 291300@CAELT@GG SLZZYMYT@CAELT@291300 SLLPYFYA@CAELT@SABO SLLP 291300@CAELT@METAR SLLP 291300Z 08005KT 6000 FEW004 SCT200 07/04 Q1038 A3067@CAELT@628.4 HR80 P92// VIS/RED SC/BJOS NE/E/SE AC NOSIG=@CAELT@METAR SLCO 291300Z 15003KT 9999 BKN010 BKN080 24/22 Q1014 A2997@CAELT@987.3 HR87=@CAELT@METAR SLRY 291300Z 00000KT 9999 BKN080 23/22 Q1009 A2982 HR92RWY WET INOP=METAR SLRQ 291300Z 00000KT 9999 BKN080 23/22 Q1013 A2992 989.2 HR92METAR SLAP 291300Z 00000KT 9999 FEW020 SCT070 21/18 Q1021 A3016861.5 HR84 CI=METAR SLSB 291300Z 27003KT 8000 SCT010 BKN080 22/21 Q1013 A2993HR96 BR RWY WET OPR C210=METAR SLOR 291300Z 36007KT 9999 FEW015 10/03 Q1035 A3057 656.1 HR65AC/CI=METAR SLUY 291300Z 33015KT 9999 FEW023 SCT200 10/M03 Q1034 A3054658.5 HR28 AC/LENT E FU=
ZPX0292 291301@CAELT@GG SLZZYMYT@CAELT@291301 SLVRYGYS@CAELT@SABO SLVR 291300@CAELT@METAR SLVR 291300Z 36012KT 9999 FEW070 26/18 Q1012 A2990 HR64 NOSIG=@CAELT@METAR SLET 291300Z 35012KT 9999 FEW070 26/18 Q1012 A2989 HR63 NOSIG=@CAELT@METAR SLAS 291300Z 00000KT 7000 SCT070 27/17 Q1015 A2997 HR55@CAELT@FU RWY NML=@CAELT@METAR SLJV 291300Z 00000KT 9999 NSC 24/15 Q1013 A2991 HR59 RWY NML=METAR SLCP 291300Z 00000KT 9999 SCT070 27/19 Q1017 A3003 HR62METAR SLSI 291300Z 00000KT 8000 NSC 29/17 Q1014 A2994 HR48 FU RWY NMLMETAR SLTI 291300Z 00000KT 8000 NSC 30/22 Q1017 A3003 HR61 FU RWY NMLMETAR SLJE 291300Z 00000KT 8000 NSC 29/17 Q1017 A3003 HR51 FU RWY NMLMETAR SLVG 291300Z 34018KT 9999 NSC 21/10 Q1024 A3024 HR46 RWY NML=METAR SLRB 291300Z 00000KT 9999 NSC 26/19 Q1015 A2997 HR67 FU RWY NMLMETAR SLPS 291300Z 09004KT 7000 NSC 26/22 Q1013 A2992 HR80 FU=METAR SLCA 291300Z 00000KT 9999 NSC 20/07 Q1012 A2988 HR43 CS RWY NML
ZPX0319 291352@CAELT@GG SLZZYMYT@CAELT@291353 SLPSYGYS@CAELT@SABO SLPS 291400@CAELT@METAR SLPS 291400Z 09006KT 3000 FU NSC 29/24 Q1013 A2992 HR73=@CAELT@
ZPX0320 291353@CAELT@GG SLZZYMYT@CAELT@291353 SLRBYGYS@CAELT@SABO SLRB 291400@CAELT@METAR SLRB 291400Z 00000KT 9999 NSC 30/20 Q1015 A2997 HR56 FU RWY NML=@CAELT@
ZPX0322 291354@CAELT@GG SLZZYMYT@CAELT@291351 SLETYMYC@CAELT@SABO SLET 291400@CAELT@METAR SLET 291400Z 32014KT 9999 FEW070 28/18 Q1012 A2989 HR56 NOSIG=@CAELT@
ZPX0324 291354@CAELT@GG SLZZYMYT@CAELT@291355 SLRQYSYX@CAELT@SABO SLRQ 291400@CAELT@METAR SLRQ 291400Z 00000KT 9999 BKN080 29/24 Q1013 A2993 989.4 HR73@CAELT@
ZPX0325 291354@CAELT@GG SLZZYMYT@CAELT@291354 SLSAYGYS@CAELT@SABO SLSA 291400@CAELT@METAR SLSA 291400Z 27004KT 8000 BKN080 24/22 Q1012 A2991 HR87 FU=@CAELT@
ZPX0326 291355@CAELT@GG SLZZYMYT@CAELT@291357 SLUYYGYS@CAELT@SABO SLUY 291400@CAELT@METAR SLUY 291400Z 31013KT 9999 FEW025 BKN200 13/M05 Q1034 A3055@CAELT@658.7 HR28 AC/LENT E FU=@CAELT@
ZPX0327 291355@CAELT@GG SLZZYMYT@CAELT@291355 SLCAYGYS@CAELT@SABO SLCA 291400@CAELT@METAR SLCA 291400Z 00000KT 9999 NSC 26/09 Q1012 A2988 HR39 FU CS RWY@CAELT@NML=@CAELT@
ZPX0328 291355@CAELT@GG SLZZYMYT@CAELT@291355 SLTRYGYZ@CAELT@SABO SLTR 291400@CAELT@METAR SLTR 291400Z 00000KT 9999 FEW020 BKN080 23/20 Q1013 A2994@CAELT@995.2 HR84 FU NOSIG=@CAELT@
ZPX0329 291355@CAELT@GG SLZZYMYT@CAELT@291355 SLTJYGYZ@CAELT@SABO SLTJ 291400@CAELT@METAR SLTJ 291400Z 00000KT 9999 NSC 21/07 Q1015 A3000 811.5 HR39 AC@CAELT@
ZPX0331 291356@CAELT@GG SLZZYMYT@CAELT@291355 SLORYGYZ@CAELT@SABO SLOR 291400@CAELT@METAR SLOR 291400Z 32007KT 9999 SCT017 12/04 Q1035 A3057 656.1 HR56@CAELT@AC/CI=@CAELT@
ZPX0332 291356@CAELT@GG SLZZYMYT@CAELT@291355 SLAGYSYX@CAELT@SABO SLAG 291400@CAELT@METAR SLAG 291400Z 36009KT 9999 FEW070 BKN200 29/11 Q1011 A2987 884.3@CAELT@HR32 FU=@CAELT@
ZPX0333 291356@CAELT@GG SLZZYMYT@CAELT@291355 SLCBYGYZ@CAELT@SABO SLCB 291400@CAELT@METAR SLCB 291400Z 24004KT 9999 FEW036 22/06 Q1025 A3029 752.0 HR35@CAELT@AC CC NOSIG=@CAELT@
ZPX0334 291356@CAELT@GG SLZZYMYT@CAELT@291355 SLSBYSYX@CAELT@SABO SLSB 291400@CAELT@METAR SLSB 291400Z 00000KT 9999 SCT030 BKN080 24/22 Q1013 A2993 HR89@CAELT@RWY WET OPR C210=@CAELT@
ZPX0335 291356@CAELT@GG SLZZYMYT@CAELT@291356 SLLPYGYZ@CAELT@SABO SLLP 291400@CAELT@METAR SLLP 291400Z 08004KT 9999 FEW005 FEW017CB SCT200 10/03 Q1038@CAELT@A3068 628.5 HR65 P0783 CB N/NW AC NOSIG=@CAELT@
ZPX0337 291356@CAELT@GG SLZZYMYT@CAELT@291355 SLRYYSYX@CAELT@SABO SLRY 291400@CAELT@METAR SLRY 291400Z 00000KT 9999 BKN080 26/13 Q1009 A2982 HR83 RWY WET@CAELT@INOP=@CAELT@
ZPX0338 291357@CAELT@GG SLZZYMYT@CAELT@291356 SLTRYGYS@CAELT@SABO SLTR 291400@CAELT@METAR SLTR 291400Z 00000KT 9999 FEW020 BKN080 23/20 Q1013 A2994@CAELT@995.2 HR84 FU NOSIG=@CAELT@METAR SLGM 291400Z 16006KT 7000 SCT080 28/24 Q1013 A2991 HR81 FU=@CAELT@METAR SLRI 291400Z 16004KT 5000 FU SCT015 BKN200 26/22 Q1014 A2996@CAELT@HR78=METAR SLJO 291400Z 16006KT 8000 FEW080 26/21 Q1012 A2990 HR74 FURWY HUM OPR=METAR SLRA 291400Z 14004KT 9999 BKN080 26/20 Q1012 A2991 HR72METAR SLMG 291400Z 00000KT 9999 BKN080 26/21 Q1011 A2988 HR77METAR SLBU 291400Z 00000KT 9999 BKN080 26/22 Q1013 A2992 HR79RWY OPR C210=METAR SLSA 291400Z 27004KT 8000 BKN080 24/22 Q1012 A2991 HR87 FU=METAR SLSR 291400Z 00000KT 8000 BKN080 OVC200 24/22 Q1011 A2988HR90 FU RWY OPR C337=METAR SLSM 291400Z 00000KT 9999 OVC080 22/21 Q1013 A2994 HR92RWY OPR C206=
ZPX0339 291358@CAELT@GG SLZZYMYT@CAELT@291359 SLVRYGYZ@CAELT@SABO SLVR 291400@CAELT@METAR SLVR 291400Z 35014KT 9999 FEW070 29/19 Q1012 A2990 HR57 NOSIG=@CAELT@
ZPX0340 291359@CAELT@GG SLZZYMYT@CAELT@291359 SLCOYGYZ@CAELT@SABO SLCO 291400@CAELT@METAR SLCO 291400Z 12003KT 9999 SCT012 BKN080 26/22 Q1014 A2997 987.3@CAELT@HR82=@CAELT@
ZPX0341 291359@CAELT@GG SLZZYMYT@CAELT@291359 SLVRYGYS@CAELT@SABO SLVR 291400@CAELT@METAR SLVR 291400Z 35014KT 9999 FEW070 29/19 Q1012 A2990 HR57 NOSIG=@CAELT@METAR SLET 291400Z 32014KT 9999 FEW070 28/18 Q1012 A2989 HR56 NOSIG=@CAELT@METAR SLAS 291400Z 34005KT 8000 NSC 31/17 Q1015 A2997 HR47@CAELT@FU RWY NML=@CAELT@METAR SLJV 291400Z 00000KT 9999 NSC 27/16 Q1013 A2991 HR58 RWY NML=METAR SLCP 291400Z 00000KT 9999 SCT070 28/20 Q1017 A3003 HR62METAR SLSI 291400Z 33006KT 8000 SCT070 30/18 Q1014 A2994 HR47METAR SLTI 291400Z 00000KT 7000 NSC 33/22 Q1016 A3000 HR52METAR SLJE 291400Z 00000KT 7000 NSC 31/18 Q1016 A3000 HR45METAR SLVG 291400Z 35013KT 9999 NSC 23/10 Q1024 A3024 HR39 RWY NML=METAR SLRB 291400Z 00000KT 9999 NSC 30/20 Q1015 A2997 HR56METAR SLPS 291400Z 09006KT 3000 FU NSC 29/24 Q1013 A2992 HR73=METAR SLCA 291400Z 00000KT 9999 NSC 26/09 Q1012 A2988 HR39FU CS RWY NML=
ZPX0343 291402@CAELT@GG SLZZYMYT@CAELT@291357 SLLPYFYA@CAELT@SABO SLLP 291400@CAELT@METAR SLLP 291400Z 08004KT 9999 FEW005 FEW017CB SCT200 10/03 Q1038@CAELT@A3068 628.5 HR65 P0783 CB N/NW AC NOSIG=@CAELT@METAR SLCO 291400Z 12003KT 9999 SCT012 BKN080 26/22 Q1014 A2997@CAELT@987.3 HR82=@CAELT@METAR SLRY 291400Z 00000KT 9999 BKN080 26/13 Q1009 A2982 HR83RWY WET INOP=METAR SLRQ 291400Z 00000KT 9999 BKN080 29/24 Q1013 A2993 989.4 HR73METAR SLSB 291400Z 00000KT 9999 SCT030 BKN080 24/22 Q1013 A2993 HR89RWY WET OPR C210=METAR SLOR 291400Z 32007KT 9999 SCT017 12/04 Q1035 A3057 656.1 HR56AC/CI=METAR SLUY 291400Z 31013KT 9999 FEW025 BKN200 13/M05 Q1034 A3055658.7 HR28 AC/LENT E FU=
ZPX0348 291404@CAELT@GG SLZZYMYT@CAELT@291401 SLCBYGYS@CAELT@SABO SLCB 291400@CAELT@METAR SLCB 291400Z 24004KT 9999 FEW036 22/06 Q1025 A3029 752.0 HR35@CAELT@AC CC NOSIG=@CAELT@METAR SLAL 291400Z 01003KT 9999 FEW070 SCT200 16/06 Q1029 A3039 703.6@CAELT@HR50=@CAELT@METAR SLAG 291400Z 36009KT 9999 FEW070 BKN200 29/11 Q1011 A2987 884.3HR32 FU=METAR SLVM 291400Z 00000KT 9999 SCT070 26/15 Q1008 A2978 HR49 FU CI=METAR SLTJ 291400Z 00000KT 9999 NSC 21/07 Q1015 A3000 811.5 HR39 ACMETAR SLYA 291400Z 00000KT 9999 SCT080 BKN200 29/12 Q1009 A2980 934.0HR35=
ZPX0350 291407@CAELT@GG SLZZYMYT@CAELT@291406 SLLPYFYA@CAELT@SABO SLLP 291400 RRB@CAELT@METAR SLLP 291400Z 08004KT 9999 FEW005 FEW017CB SCT200 10/03 Q1038@CAELT@A3068 628.5 HR65 P0783 CB N/NW AC NOSIG=@CAELT@METAR SLCO 291400Z 12003KT 9999 SCT012 BKN080 26/22 Q1014 A2997@CAELT@987.3 HR82=@CAELT@METAR SLRY 291400Z 00000KT 9999 BKN080 26/13 Q1009 A2982 HR83RWY WET INOP=METAR SLRQ 291400Z 00000KT 9999 BKN080 29/24 Q1013 A2993 989.4 HR73METAR RTD SLAP 291400Z 00000KT 9999 FEW025 24/19 Q1021 A3016 861.5HR75 CI=METAR SLSB 291400Z 00000KT 9999 SCT030 BKN080 24/22 Q1013 A2993 HR89RWY WET OPR C210=METAR SLOR 291400Z 32007KT 9999 SCT017 12/04 Q1035 A3057 656.1 HR56AC/CI=METAR SLUY 291400Z 31013KT 9999 FEW025 BKN200 13/M05 Q1034 A3055658.7 HR28 AC/LENT E FU=
ZPX0386 291451@CAELT@GG SLZZYMYT@CAELT@291451 SLPSYGYS@CAELT@SABO SLPS 291500@CAELT@METAR SLPS 291500Z 09006KT 4000 FU NSC 31/24 Q1013 A2992 HR69=@CAELT@
ZPX0387 291451@CAELT@GG SLZZYMYT@CAELT@291451 SLCAYGYS@CAELT@SABO SLCA 291500@CAELT@METAR SLCA 291500Z 36010KT 9999 NSC 32/09 Q1010 A2983 HR26 FU CS RWY@CAELT@NML=@CAELT@
ZPX0388 291452@CAELT@GG SLZZYMYT@CAELT@291453 SLRBYGYS@CAELT@SABO SLRB 291500@CAELT@METAR SLRB 291500Z 00000KT 9999 NSC 32/21 Q1014 A2994 HR53 FU RWY NML=@CAELT@
ZPX0390 291455@CAELT@GG SLZZYMYT@CAELT@291453 SLRYYSYX@CAELT@SABO SLRY 291500@CAELT@METAR SLRY 291500Z 00000KT 9999 BKN080 29/23 Q1009 A2982 HR72 RWY WET@CAELT@OPR C206=@CAELT@
ZPX0391 291455@CAELT@GG SLZZYMYT@CAELT@291455 SLSAYGYS@CAELT@SABO SLSA 291500@CAELT@METAR SLSA 291500Z 00000KT 8000 BKN080 25/21 Q1012 A2991 HR79 FU=@CAELT@
ZPX0392 291455@CAELT@GG SLZZYMYT@CAELT@291455 SLTRYGYZ@CAELT@SABO SLTR 291500@CAELT@METAR SLTR 291500Z 00000KT 9999 BKN080 26/21 Q1013 A2994 995.3@CAELT@HR73 FU NOSIG=@CAELT@
ZPX0393 291456@CAELT@GG SLZZYMYT@CAELT@291418 SLETYMYC@CAELT@SABO SLET 291500@CAELT@METAR SLET 291500Z 32015G27KT 9999 FEW017 30/18 Q1012 A2989 HR51@CAELT@NOSIG=@CAELT@
ZPX0394 291456@CAELT@GG SLZZYMYT@CAELT@291455 SLRQYSYX@CAELT@SABO SLRQ 291500@CAELT@METAR SLRQ 291500Z 00000KT 9999 BKN080 30/24 Q1013 A2992 989.0 HR71@CAELT@
ZPX0395 291456@CAELT@GG SLZZYMYT@CAELT@291456 SLVRYGYZ@CAELT@SABO SLVR 291500@CAELT@METAR SLVR 291500Z 35013G23KT 9999 FEW013 31/20 Q1012 A2990 HR52 AC@CAELT@NOSIG=@CAELT@
ZPX0396 291456@CAELT@GG SLZZYMYT@CAELT@291456 SLLPYGYZ@CAELT@SABO SLLP 291500@CAELT@METAR SLLP 291500Z 12006KT 9999 SCT015 FEW017CB BKN200 09/05 Q1038@CAELT@A3068 628.6 HR75 P3487 CB/SH N/NE/E AC NOSIG=@CAELT@
ZPX0397 291456@CAELT@GG SLZZYMYT@CAELT@291455 SLUYYGYS@CAELT@SABO SLUY 291500@CAELT@METAR SLUY 291500Z 30017KT 9999 FEW027 BKN200 13/M04 Q1034@CAELT@A3054 658.4 HR29 AC FU=@CAELT@
ZPX0398 291456@CAELT@GG SLZZYMYT@CAELT@291456 SLVRYGYS@CAELT@SABO SLVR 291500@CAELT@METAR SLVR 291500Z 35013G23KT 9999 FEW013 31/20 Q1012 A2990 HR52 AC@CAELT@NOSIG=@CAELT@METAR SLET 291500Z 32015G27KT 9999 FEW017 30/18 Q1012 A2989 HR51@CAELT@METAR SLAS 291500Z 34005KT 9000 NSC 32/18 Q1015 A2997 HR43@CAELT@FU RWY NML=METAR SLJV 291500Z 00000KT 9999 NSC 31/19 Q1012 A2988 HR49 RWY NML=METAR SLCP 291500Z 00000KT 9999 SCT070 30/21 Q1016 A3000 HR57METAR SLSI 291500Z 36006KT 8000 SCT070 32/19 Q1013 A2991 HR42METAR SLTI 291500Z 00000KT 6000 NSC 35/21 Q1016 A3000 HR46METAR SLJE 291500Z 35008KT 5000 FU NSC 33/19 Q1016 A3000 HR44 RWY NMLMETAR SLVG 291500Z 35012G23KT 9999 NSC 25/09 Q1023 A3021 HR33 RWY NMLMETAR SLRB 291500Z 00000KT 9999 NSC 32/21 Q1014 A2994 HR53METAR SLPS 291500Z 09006KT 4000 FU NSC 31/24 Q1013 A2992 HR69=METAR SLCA 291500Z 36010KT 9999 NSC 32/09 Q1010 A2983 HR26FU CS RWY NML=
ZPX0400 291457@CAELT@GG SLZZYMYT@CAELT@291455 SLTJYGYZ@CAELT@SABO SLTJ 291500@CAELT@METAR SLTJ 291500Z 00000KT 9999 NSC 23/07 Q1014 A2997 810.6 HR35 AC@CAELT@
ZPX0401 291457@CAELT@GG SLZZYMYT@CAELT@291455 SLAGYSYX@CAELT@SABO SLAG 291500@CAELT@METAR SLAG 291500Z 02012KT 9999 FEW070 BKN200 33/11 Q1010 A2984 883.4@CAELT@HR27 FU=@CAELT@
ZPX0402 291457@CAELT@GG SLZZYMYT@CAELT@291457 SLCBYGYZ@CAELT@SABO SLCB 291500@CAELT@METAR SLCB 291500Z VRB02KT 9999 FEW040 24/04 Q1025 A3028 751.8 HR28@CAELT@AC NOSIG=@CAELT@
ZPX0404 291458@CAELT@GG SLZZYMYT@CAELT@291457 SLSBYSYX@CAELT@SABO SLSB 291500@CAELT@METAR SLSB 291500Z 00000KT 9999 BKN080 25/23 Q1013 A2993 HR87 RWY WET@CAELT@OPR C210=@CAELT@
ZPX0406 291458@CAELT@GG SLZZYMYT@CAELT@291458 SLCBYGYS@CAELT@SABO SLCB 291500@CAELT@METAR SLCB 291500Z VRB02KT 9999 FEW040 24/04 Q1025 A3028 751.8 HR28@CAELT@AC NOSIG=@CAELT@METAR SLAL 291500Z 29010KT 9999 FEW070 SCT200 17/06 Q1028 A3038 703.4@CAELT@HR48=@CAELT@METAR SLAG 291500Z 02012KT 9999 FEW070 BKN200 33/11 Q1010 A2984 883.4HR27 FU=METAR SLVM 291500Z 00000KT 9999 FEW070 29/16 Q1007 A2976 HR44 FU CI=METAR SLTJ 291500Z 00000KT 9999 NSC 23/07 Q1014 A2997 810.6 HR35 ACMETAR SLYA 291500Z 00000KT 9999 SCT080 30/12 Q1008 A2978 933.6 HR33=
ZPX0407 291458@CAELT@GG SLZZYMYT@CAELT@291459 SLCOYGYZ@CAELT@SABO SLCO 291500@CAELT@METAR SLCO 291500Z 18003KT 9999 FEW015 BKN080 26/22 Q1014 A2997 987.4@CAELT@HR80=@CAELT@
ZPX0408 291459@CAELT@GG SLZZYMYT@CAELT@291458 SLORYGYZ@CAELT@SABO SLOR 291500@CAELT@METAR SLOR 291500Z 35005KT 9999 SCT017 15/05 Q1034 A3055 655.7 HR51@CAELT@
ZPX0415 291502@CAELT@GG SLZZYMYT@CAELT@291502 SLLPYFYA@CAELT@SABO SLLP 291500@CAELT@METAR SLLP 291500Z 12006KT 9999 SCT015 FEW017CB BKN200 09/05 Q1038@CAELT@A3068 628.6 HR75 P3487 CB/SH N/NE/E AC NOSIG=@CAELT@METAR SLCO 291500Z 18003KT 9999 FEW015 BKN080 26/22 Q1014 A2997@CAELT@987.4 HR80=@CAELT@METAR SLRY 291500Z 00000KT 9999 BKN080 29/23 Q1009 A2982 HR72RWY WET OPR C206=METAR SLRQ 291500Z 00000KT 9999 BKN080 30/24 Q1013 A2992 989.0HR71 CI=METAR SLSB 291500Z 00000KT 9999 BKN080 25/23 Q1013 A2993 HR87RWY WET OPR C210=METAR SLOR 291500Z 35005KT 9999 SCT017 15/05 Q1034 A3055 655.7 HR51METAR SLUY 291500Z 30017KT 9999 FEW027 BKN200 13/M04 Q1034A3054 658.4 HR29 AC FU=
ZPX0418 291509@CAELT@GG SLZZYMYT@CAELT@291508 SLLPYFYA@CAELT@SABO SLLP 291500 RRC@CAELT@METAR SLLP 291500Z 12006KT 9999 SCT015 FEW017CB BKN200 09/05 Q1038@CAELT@A3068 628.6 HR75 P3487 CB/SH N/NE/E AC NOSIG=@CAELT@METAR SLCO 291500Z 18003KT 9999 FEW015 BKN080 26/22 Q1014 A2997@CAELT@987.4 HR80=@CAELT@METAR SLRY 291500Z 00000KT 9999 BKN080 29/23 Q1009 A2982 HR72RWY WET OPR C206=METAR SLRQ 291500Z 00000KT 9999 BKN080 30/24 Q1013 A2992 989.0HR71 CI=METAR RTD SLAP 291500Z 00000KT 9999 FEW025 26/20 Q1021 A3015 861.3HR67 AC/CI=METAR SLSB 291500Z 00000KT 9999 BKN080 25/23 Q1013 A2993 HR87RWY WET OPR C210=METAR SLOR 291500Z 35005KT 9999 SCT017 15/05 Q1034 A3055 655.7 HR51METAR SLUY 291500Z 30017KT 9999 FEW027 BKN200 13/M04 Q1034A3054 658.4 HR29 AC FU=
ZPX0419 291509@CAELT@GG SLZZYMYT@CAELT@291459 SLTRYGYS@CAELT@SABO SLTR 291500@CAELT@METAR SLTR 291500Z 00000KT 9999 BKN080 26/21 Q1013 A2994 995.3@CAELT@HR73 FU NOSIG=@CAELT@METAR SLGM 291500Z 16004KT 7000 FEW080 30/24 Q1013 A2992 HR73@CAELT@METAR SLRI 291500Z 00000KT 5000 FU NSC 28/22 Q1014 A2996 HR71 CI=@CAELT@METAR SLJO 291500Z 16004KT 8000 FEW080 29/22 Q1012 A2990 HR65FU RWY HUM OPR=METAR SLRA 291500Z 14004KT 9999 BKN080 28/22 Q1012 A2991 HR69RWY NML=METAR SLMG 291500Z 00000KT 9999 BKN080 27/21 Q1011 A2988 HR69RWY HUM OPR=METAR SLBU 291500Z 09004KT 8000 BKN080 27/21 Q1012 A2990 HR69FU RWY OPR C210=METAR SLSA 291500Z 00000KT 8000 BKN080 25/21 Q1012 A2991 HR79 FU=METAR SLSR 291500Z 00000KT 9999 SCT080 BKN200 25/22 Q1011 A2988HR83 RWY HUM OPR=METAR SLSM 291500Z 33004KT 9999 OVC080 24/22 Q1014 A2995 HR86RWY OPR C206=
ZPX0420 291509@CAELT@GG SLZZYMYT@CAELT@291459 SLTRYGYS@CAELT@SABO SLTR 291500@CAELT@METAR SLTR 291500Z 00000KT 9999 BKN080 26/21 Q1013 A2994 995.3@CAELT@HR73 FU NOSIG=@CAELT@METAR SLGM 291500Z 16004KT 7000 FEW080 30/24 Q1013 A2992 HR73@CAELT@METAR SLRI 291500Z 00000KT 5000 FU NSC 28/22 Q1014 A2996 HR71 CI=@CAELT@METAR SLJO 291500Z 16004KT 8000 FEW080 29/22 Q1012 A2990 HR65FU RWY HUM OPR=METAR SLRA 291500Z 14004KT 9999 BKN080 28/22 Q1012 A2991 HR69RWY NML=METAR SLMG 291500Z 00000KT 9999 BKN080 27/21 Q1011 A2988 HR69RWY HUM OPR=METAR SLBU 291500Z 09004KT 8000 BKN080 27/21 Q1012 A2990 HR69FU RWY OPR C210=METAR SLSA 291500Z 00000KT 8000 BKN080 25/21 Q1012 A2991 HR79 FU=METAR SLSR 291500Z 00000KT 9999 SCT080 BKN200 25/22 Q1011 A2988HR83 RWY HUM OPR=METAR SLSM 291500Z 33004KT 9999 OVC080 24/22 Q1014 A2995 HR86RWY OPR C206=
ZPX0456 291551@CAELT@GG SLZZYMYT@CAELT@291552 SLPSYGYS@CAELT@SABO SLPS 291600@CAELT@METAR SLPS 291600Z 09012KT 4000 FU NSC 34/24 Q1012 A2989 HR59=@CAELT@
ZPX0458 291553@CAELT@GG SLZZYMYT@CAELT@291553 SLRBYGYS@CAELT@SABO SLRB 291600@CAELT@METAR SLRB 291600Z 36008KT 9999 NSC 35/21 Q1013 A2991 HR45 FU RWY NML=@CAELT@
ZPX0459 291554@CAELT@GG SLZZYMYT@CAELT@291554 SLSAYGYS@CAELT@SABO SLSA 291600@CAELT@METAR SLSA 291600Z 00000KT 8000 BKN080 27/22 Q1012 A2989 HR74 FU=@CAELT@
ZPX0460 291554@CAELT@GG SLZZYMYT@CAELT@291554 SLSBYSYX@CAELT@SABO SLSB 291600@CAELT@METAR SLSB 291600Z 29004KT 9999 BKN080 29/24 Q1013 A2992 HR73 RWY WET@CAELT@OPR C210=@CAELT@
ZPX0462 291554@CAELT@GG SLZZYMYT@CAELT@291554 SLTJYGYZ@CAELT@SABO SLTJ 291600@CAELT@METAR SLTJ 291600Z 16004KT 9999 NSC 27/07 Q1013 A2993 809.4 HR29 AC@CAELT@
ZPX0464 291555@CAELT@GG SLZZYMYT@CAELT@291555 SLTRYGYZ@CAELT@SABO SLTR 291600@CAELT@METAR SLTR 291600Z 32006KT 9999 SCT080 29/22 Q1012 A2991 994.3 HR66@CAELT@FU NOSIG=@CAELT@
ZPX0465 291555@CAELT@GG SLZZYMYT@CAELT@291553 SLRYYSYX@CAELT@SABO SLRY 291600@CAELT@METAR SLRY 291600Z 00000KT 9999 BKN080 31/24 Q1009 A2982 HR66 RWY WET@CAELT@OPR C206=@CAELT@
ZPX0467 291555@CAELT@GG SLZZYMYT@CAELT@291551 SLETYMYC@CAELT@SABO SLET 291600@CAELT@METAR SLET 291600Z 33017G29KT 9999 FEW017 31/18 Q1011 A2987 HR47@CAELT@NOSIG=@CAELT@
ZPX0468 291556@CAELT@GG SLZZYMYT@CAELT@291556 SLCOYGYZ@CAELT@SABO SLCO 291600@CAELT@METAR SLCO 291600Z 30005KT 9999 FEW020 BKN080 28/24 Q1014 A2996 987.1@CAELT@HR76=@CAELT@
ZPX0469 291556@CAELT@GG SLZZYMYT@CAELT@291555 SLRQYSYX@CAELT@SABO SLRQ 291600@CAELT@METAR SLRQ 291600Z 00000KT 9999 BKN080 30/23 Q1012 A2990 988.4 HR66@CAELT@
ZPX0470 291556@CAELT@GG SLZZYMYT@CAELT@291555 SLAGYSYX@CAELT@SABO SLAG 291600@CAELT@METAR SLAG 291600Z 07010KT 9999 FEW070 SCT200 34/12 Q1009 A2982 882.6@CAELT@HR25 FU=@CAELT@
ZPX0471 291556@CAELT@GG SLZZYMYT@CAELT@291556 SLLPYGYZ@CAELT@SABO SLLP 291600@CAELT@METAR SLLP 291600Z 11006KT 9999 SCT015 FEW017CB BKN200 10/04 Q1038@CAELT@A3066 628.2 HR65 P0784 CB/SH N/NW AC NOSIG=@CAELT@
ZPX0472 291556@CAELT@GG SLZZYMYT@CAELT@291557 SLVRYGYZ@CAELT@SABO SLVR 291600@CAELT@METAR SLVR 291600Z 34015G25KT 9999 FEW015 32/19 Q1011 A2988 HR48@CAELT@NOSIG=@CAELT@
ZPX0473 291556@CAELT@GG SLZZYMYT@CAELT@291556 SLCAYGYS@CAELT@SABO SLCA 291600@CAELT@METAR SLCA 291600Z 36012KT 9999 NSC 35/10 Q1009 A2980 HR23 FU CS RWY@CAELT@NML=@CAELT@
ZPX0474 291557@CAELT@GG SLZZYMYT@CAELT@291556 SLUYYGYS@CAELT@SABO SLUY 291600@CAELT@METAR SLUY 291600Z 31015KT 9999 FEW030 BKN200 14/M05 Q1033 A3052@CAELT@657.9 HR27 FU AC=@CAELT@
ZPX0475 291558@CAELT@GG SLZZYMYT@CAELT@291556 SLCBYGYZ@CAELT@SABO SLCB 291600@CAELT@METAR SLCB 291600Z 32004KT 9999 FEW040 FEW042TCU 24/04 Q1024 A3025@CAELT@751.0 HR27 TCU/N AC NOSIG=@CAELT@
ZPX0476 291559@CAELT@GG SLZZYMYT@CAELT@291559 SLVRYGYS@CAELT@SABO SLVR 291600@CAELT@METAR SLVR 291600Z 34015G25KT 9999 FEW015 32/19 Q1011 A2988 HR48@CAELT@NOSIG=@CAELT@METAR SLET 291600Z 33017G29KT 9999 FEW017 31/18 Q1011 A2987 HR47@CAELT@METAR SLAS 291600Z 34005KT 9999 NSC 33/17 Q1014 A2994 HR39@CAELT@FU RWY NML=METAR SLJV 291600Z 36014KT 9999 NSC 32/20 Q1012 A2988 HR48 RWY NML=METAR SLCP 291600Z 31008KT 9999 FEW020 32/19 Q1016 A3000 HR53METAR SLSI 291600Z 33006KT 8000 SCT070 34/22 Q1012 A2988 HR45METAR SLTI 291600Z 00000KT 6000 NSC 37/22 Q1014 A2994 HR41METAR SLJE 291600Z 36008KT 4000 FU NSC 34/20 Q1015 A2997 HR43RWY NML=METAR SLVG 291600Z 34010G20KT 9999 NSC 26/09 Q1022 A3018 HR29METAR SLRB 291600Z 36008KT 9999 NSC 35/21 Q1013 A2991 HR45METAR SLPS 291600Z 09012KT 4000 FU NSC 34/24 Q1012 A2989 HR59=METAR SLCA 291600Z 36012KT 9999 NSC 35/10 Q1009 A2980 HR23FU CS RWY NML=
ZPX0480 291601@CAELT@GG SLZZYMYT@CAELT@291600 SLORYGYZ@CAELT@SABO SLOR 291600@CAELT@METAR SLOR 291600Z 03005KT 9999 SCT017 17/05 Q1034 A3054 655.5 HR41@CAELT@
ZPX0482 291602@CAELT@GG SLZZYMYT@CAELT@291601 SLCBYGYS@CAELT@SABO SLCB 291600@CAELT@METAR SLCB 291600Z 32004KT 9999 FEW040 FEW042TCU 24/04 Q1024 A3025@CAELT@751.0 HR27 TCU/N AC NOSIG=@CAELT@METAR SLAL 291600Z 34010KT 9999 FEW020 SCT200 19/07 Q1027 A3035 702.8@CAELT@HR45=@CAELT@METAR SLAG 291600Z 07010KT 9999 FEW070 SCT200 34/12 Q1009 A2982 882.6HR25 FU=METAR SLVM 291600Z 36010KT 9999 FEW070 32/17 Q1006 A2972 HR42 FU CI=METAR SLTJ 291600Z 16004KT 9999 NSC 27/07 Q1013 A2993 809.4 HR29 ACMETAR SLYA 291600Z 06008KT 9999 NSC 31/13 Q1006 A2973 932.0 HR33 CI=
ZPX0495 291611@CAELT@GG SLZZYMYT@CAELT@291610 SLLPYFYA@CAELT@SABO SLLP 291600@CAELT@METAR SLLP 291600Z 11006KT 9999 SCT015 FEW017CB BKN200 10/04 Q1038@CAELT@A3066 628.2 HR65 P0784 CB/SH N/NW AC NOSIG=@CAELT@METAR SLCO 291600Z 30005KT 9999 FEW020 BKN080 28/24 Q1014 A2996@CAELT@987.1 HR76=@CAELT@METAR SLRY 291600Z 00000KT 9999 BKN080 31/24 Q1009 A2982 HR66RWY WET OPR C206=METAR SLRQ 291600Z 00000KT 9999 BKN080 30/23 Q1012 A2990 988.4HR66 CI=METAR SLAP 291600Z 00000KT 9999 FEW025 SCT070 27/21 Q1019 A3011860.0 HR70 CI=METAR SLSB 291600Z 29004KT 9999 BKN080 29/24 Q1013 A2992 HR73RWY WET OPR C210=METAR SLOR 291600Z 03005KT 9999 SCT017 17/05 Q1034 A3054 655.5 HR41METAR SLUY 291600Z 31015KT 9999 FEW030 BKN200 14/M05 Q1033 A3052657.9 HR27 FU AC=
ZPX0496 291612@CAELT@GG SLZZYMYT@CAELT@291556 SLTRYGYS@CAELT@SABO SLTR 291600@CAELT@METAR SLTR 291600Z 32006KT 9999 SCT080 29/22 Q1012 A2991 994.3 HR66@CAELT@FU NOSIG=@CAELT@METAR SLGM 291600Z 00000KT 7000 FEW017 31/24 Q1012 A2989 HR67 FU=@CAELT@METAR SLRI 291600Z 00000KT 5000 FU NSC 30/24 Q1013 A2994 HR69 CI=@CAELT@METAR SLJO 291600Z 14005KT 8000 SCT080 31/23 Q1011 A2988 HR63 FURWY NML=METAR SLRA 291600Z 14004KT 9999 BKN080 30/22 Q1012 A2990 HR64METAR SLMG 291600Z 00000KT 9999 BKN080 30/21 Q1011 A2988 HR61METAR SLBU 291600Z 00000KT 8000 BKN080 30/22 Q1011 A2988 HR63FU RWY HUM OPR=METAR SLSA 291600Z 00000KT 8000 BKN080 27/22 Q1012 A2989 HR74 FU=METAR SLSR 291600Z 00000KT 9999 FEW015 SCT080 29/23 Q1011 A2987HR70 RWY HUM OPR=METAR SLSM 291600Z 33010KT 9999 BKN080 25/22 Q1013 A2993 HR83RWY OPR C206=
ZPX0497 291612@CAELT@GG SLZZYMYT@CAELT@291556 SLTRYGYS@CAELT@SABO SLTR 291600@CAELT@METAR SLTR 291600Z 32006KT 9999 SCT080 29/22 Q1012 A2991 994.3 HR66@CAELT@FU NOSIG=@CAELT@METAR SLGM 291600Z 00000KT 7000 FEW017 31/24 Q1012 A2989 HR67 FU=@CAELT@METAR SLRI 291600Z 00000KT 5000 FU NSC 30/24 Q1013 A2994 HR69 CI=@CAELT@METAR SLJO 291600Z 14005KT 8000 SCT080 31/23 Q1011 A2988 HR63 FURWY NML=METAR SLRA 291600Z 14004KT 9999 BKN080 30/22 Q1012 A2990 HR64METAR SLMG 291600Z 00000KT 9999 BKN080 30/21 Q1011 A2988 HR61METAR SLBU 291600Z 00000KT 8000 BKN080 30/22 Q1011 A2988 HR63FU RWY HUM OPR=METAR SLSA 291600Z 00000KT 8000 BKN080 27/22 Q1012 A2989 HR74 FU=METAR SLSR 291600Z 00000KT 9999 FEW015 SCT080 29/23 Q1011 A2987HR70 RWY HUM OPR=METAR SLSM 291600Z 33010KT 9999 BKN080 25/22 Q1013 A2993 HR83RWY OPR C206=
ZPX0498 291612@CAELT@GG SLZZYMYT@CAELT@291556 SLTRYGYS@CAELT@SABO SLTR 291600@CAELT@METAR SLTR 291600Z 32006KT 9999 SCT080 29/22 Q1012 A2991 994.3 HR66@CAELT@FU NOSIG=@CAELT@METAR SLGM 291600Z 00000KT 7000 FEW017 31/24 Q1012 A2989 HR67 FU=@CAELT@METAR SLRI 291600Z 00000KT 5000 FU NSC 30/24 Q1013 A2994 HR69 CI=@CAELT@METAR SLJO 291600Z 14005KT 8000 SCT080 31/23 Q1011 A2988 HR63 FURWY NML=METAR SLRA 291600Z 14004KT 9999 BKN080 30/22 Q1012 A2990 HR64METAR SLMG 291600Z 00000KT 9999 BKN080 30/21 Q1011 A2988 HR61METAR SLBU 291600Z 00000KT 8000 BKN080 30/22 Q1011 A2988 HR63FU RWY HUM OPR=METAR SLSA 291600Z 00000KT 8000 BKN080 27/22 Q1012 A2989 HR74 FU=METAR SLSR 291600Z 00000KT 9999 FEW015 SCT080 29/23 Q1011 A2987HR70 RWY HUM OPR=METAR SLSM 291600Z 33010KT 9999 BKN080 25/22 Q1013 A2993 HR83RWY OPR C206=
ZPX0521 291652@CAELT@GG SLZZYMYT@CAELT@291653 SLRBYGYS@CAELT@SABO SLRB 291700@CAELT@METAR SLRB 291700Z 36006KT 9999 NSC 37/22 Q1011 A2985 HR42 FU RWY NML=@CAELT@
ZPX0522 291652@CAELT@GG SLZZYMYT@CAELT@291653 SLPSYGYS@CAELT@SABO SLPS 291700@CAELT@METAR SLPS 291700Z 09013KT 3000 FU NSC 37/24 Q1010 A2983 HR49=@CAELT@
ZPX0523 291652@CAELT@GG SLZZYMYT@CAELT@291654 SLSAYGYS@CAELT@SABO SLSA 291700@CAELT@METAR SLSA 291700Z 00000KT 8000 BKN080 28/22 Q1011 A2987 HR71 FU=@CAELT@
ZPX0525 291655@CAELT@GG SLZZYMYT@CAELT@291655 SLCOYGYZ@CAELT@SABO SLCO 291700@CAELT@METAR SLCO 291700Z 31004KT 9999 FEW020 SCT090 30/24 Q1013 A2993 986.1@CAELT@HR70 CI=@CAELT@
ZPX0526 291655@CAELT@GG SLZZYMYT@CAELT@291655 SLTRYGYZ@CAELT@SABO SLTR 291700@CAELT@METAR SLTR 291700Z 31006KT 9999 SCT080 31/22 Q1012 A2989 993.7@CAELT@HR58 FU NOSIG=@CAELT@
ZPX0527 291655@CAELT@GG SLZZYMYT@CAELT@291655 SLCAYGYS@CAELT@SABO SLCA 291700@CAELT@METAR SLCA 291700Z 36015KT 9999 NSC 36/10 Q1007 A2974 HR22 FU CS RWY@CAELT@NML=@CAELT@
ZPX0528 291655@CAELT@GG SLZZYMYT@CAELT@291656 SLVRYGYZ@CAELT@SABO SLVR 291700@CAELT@METAR SLVR 291700Z 35018G28KT 9999 FEW015 33/19 Q1011 A2986 HR43@CAELT@NOSIG=@CAELT@
ZPX0529 291655@CAELT@GG SLZZYMYT@CAELT@291656 SLUYYGYS@CAELT@SABO SLUY 291700@CAELT@METAR SLUY 291700Z 31016KT 9999 FEW030 BKN200 15/M02 Q1032 A3049@CAELT@657.3 HR31 FU AC=@CAELT@
ZPX0530 291655@CAELT@GG SLZZYMYT@CAELT@291650 SLETYMYC@CAELT@SABO SLET 291700@CAELT@METAR SLET 291700Z 32022G34KT 9999 FEW017 32/17 Q1009 A2982 HR42 CI@CAELT@NOSIG=@CAELT@
ZPX0532 291656@CAELT@GG SLZZYMYT@CAELT@291655 SLCBYGYZ@CAELT@SABO SLCB 291700@CAELT@METAR SLCB 291700Z 25005KT 9999 SCT040 FEW042CB 26/05 Q1023 A3022 750@CAELT@.1 HR26 CB/N/SE SH/N AC NOSIG=@CAELT@
ZPX0533 291656@CAELT@GG SLZZYMYT@CAELT@291656 SLLPYGYZ@CAELT@SABO SLLP 291700@CAELT@METAR SLLP 291700Z 10008KT 8000 VCTSSH SCT017 FEW020CB SCT070 BKN200@CAELT@10/04 Q1037 A3064 627.7 HR64 P0784 CB/SH N/W/NW TS/NW NOSIG=@CAELT@
ZPX0534 291656@CAELT@GG SLZZYMYT@CAELT@291655 SLRQYSYX@CAELT@SABO SLRQ 291700@CAELT@METAR SLRQ 291700Z 00000KT 9999 SCT080 31/23 Q1012 A2989 988.0 HR61@CAELT@
ZPX0535 291656@CAELT@GG SLZZYMYT@CAELT@291656 SLORYGYZ@CAELT@SABO SLOR 291700@CAELT@METAR SLOR 291700Z 33010KT 9999 SCT020 18/05 Q1032 A3048 653.9 HR42@CAELT@
ZPX0536 291657@CAELT@GG SLZZYMYT@CAELT@291656 SLAGYSYX@CAELT@SABO SLAG 291700@CAELT@METAR SLAG 291700Z 07010KT 9999 FEW023 SCT200 36/12 Q1008 A2978 881.4@CAELT@HR23 FU=@CAELT@
ZPX0537 291657@CAELT@GG SLZZYMYT@CAELT@291655 SLTJYGYZ@CAELT@SABO SLTJ 291700@CAELT@METAR SLTJ 291700Z 12004KT 9999 NSC 36/05 Q1011 A2987 807.8 HR20 AC=@CAELT@
ZPX0538 291659@CAELT@GG SLZZYMYT@CAELT@291658 SLVRYGYS@CAELT@SABO SLVR 291700@CAELT@METAR SLVR 291700Z 35018G28KT 9999 FEW015 33/19 Q1011 A2986 HR43@CAELT@NOSIG=@CAELT@METAR SLET 291700Z 32022G34KT 9999 FEW017 32/17 Q1009 A2982@CAELT@HR42 CI NOSIG=@CAELT@METAR SLAS 291700Z 33005KT 9999 NSC 35/20 Q1013 A2991 HR40FU RWY NML=METAR SLJV 291700Z 36014KT 9999 NSC 35/19 Q1012 A2988 HR44 RWY NML=METAR SLCP 291700Z 30008KT 9999 SCT020 33/20 Q1015 A2997 HR48METAR SLSI 291700Z 33008KT 8000 FEW020 36/23 Q1011 A2985 HR50METAR SLTI 291700Z 00000KT 6000 NSC 39/21 Q1013 A2991 HR35 FU RWY NMLMETAR SLJE 291700Z 36010KT 4000 FU NSC 36/21 Q1013 A2991 HR42 RWY NMLMETAR SLVG 291700Z 34013KT 9999 NSC 26/11 Q1021 A3015 HR34 RWY NML=METAR SLRB 291700Z 36006KT 9999 NSC 37/22 Q1011 A2985 HR42METAR SLPS 291700Z 09013KT 3000 FU NSC 37/24 Q1010 A2983 HR49=METAR SLCA 291700Z 36015KT 9999 NSC 36/10 Q1007 A2974 HR22FU CS RWY NML=
ZPX0539 291659@CAELT@GG SLZZYMYT@CAELT@291657 SLRYYSYX@CAELT@SABO SLRY 291700@CAELT@METAR SLRY 291700Z 00000KT 9999 SCT080 32/23 Q1009 A2981 HR57 RWY WET@CAELT@OPR C206=@CAELT@
ZPX0540 291659@CAELT@GG SLZZYMYT@CAELT@291658 SLSBYSYX@CAELT@SABO SLSB 291700@CAELT@METAR SLSB 291700Z 30004KT 9999 SCT080 31/24 Q1012 A2989 HR66 RWY WET@CAELT@OPR C210=@CAELT@
ZPX0543 291700@CAELT@GG SLZZYMYT@CAELT@291659 SLLPYFYA@CAELT@SABO SLLP 291700@CAELT@METAR SLLP 291700Z 10008KT 8000 VCTSSH SCT017 FEW020CB SCT070 BKN200@CAELT@10/04 Q1037 A3064 627.7 HR64 P0784 CB/SH N/W/NW TS/NW NOSIG=@CAELT@METAR SLCO 291700Z 31004KT 9999 FEW020 SCT090 30/24 Q1013 A2993@CAELT@986.1 HR70 CI=@CAELT@METAR SLRY 291700Z 00000KT 9999 SCT080 32/23 Q1009 A2981 HR57RWY WET OPR C206=METAR SLRQ 291700Z 00000KT 9999 SCT080 31/23 Q1012 A2989 988.0 HR61METAR SLAP 291700Z 00000KT 9999 FEW025 SCT070 26/20 Q1018 A3009859.4 HR71 CI=METAR SLSB 291700Z 30004KT 9999 SCT080 31/24 Q1012 A2989 HR66 RWY WETOPR C210=METAR SLOR 291700Z 33010KT 9999 SCT020 18/05 Q1032 A3048 653.9 HR42METAR SLUY 291700Z 31016KT 9999 FEW030 BKN200 15/M02 Q1032 A3049657.3 HR31 FU AC=
ZPX0544 291700@CAELT@GG SLZZYMYT@CAELT@291700 SLCBYGYS@CAELT@SABO SLCB 291700@CAELT@METAR SLCB 291700Z 25005KT 9999 SCT040 FEW042CB 26/05 Q1023 A3022 750@CAELT@.1 HR26 CB/N/SE SH/N AC NOSIG=@CAELT@METAR SLAL 291700Z 30007KT 9999 FEW020 20/04 Q1026 A3031 701.8 HR34=@CAELT@METAR SLAG 291700Z 07010KT 9999 FEW023 SCT200 36/12 Q1008 A2978 881.4@CAELT@HR23 FU=METAR SLVM 291700Z 00000KT 9999 FEW070 34/19 Q1004 A2965 HR39 FU CI=METAR SLTJ 291700Z 12004KT 9999 NSC 36/05 Q1011 A2987 807.8 HR20 AC=METAR SLYA 291700Z 06008KT 9999 NSC 32/13 Q1005 A2970 931.0 HR32=
ZPX0545 291701@CAELT@GG SLZZYMYT@CAELT@291659 SLTRYGYS@CAELT@SABO SLTR 291700@CAELT@METAR SLTR 291700Z 31006KT 9999 SCT080 31/22 Q1012 A2989 993.7@CAELT@HR58 FU NOSIG=@CAELT@METAR SLGM 291700Z 00000KT 7000 SCT017 34/23 Q1011 A2988 HR56 FU=@CAELT@METAR SLRI 291700Z 00000KT 5000 FU FEW017 BKN200 32/23 Q1012 A2991@CAELT@HR62=METAR SLJO 291700Z 14005KT 8000 FEW080 32/23 Q1011 A2987 HR59 FURWY NML=METAR SLRA 291700Z 09004KT 9999 SCT080 32/23 Q1012 A2989 HR59 RWYNML=METAR SLMG 291700Z 00000KT 9999 SCT080 BKN200 31/22 Q1011 A2986 HR59METAR SLBU 291700Z 09004KT 8000 BKN080 31/22 Q1010 A2985 HR57 FURWY HUM OPR=METAR SLSA 291700Z 00000KT 8000 BKN080 28/22 Q1011 A2987 HR71 FU=METAR SLSR 291700Z 00000KT 9999 FEW015 SCT080 30/22 Q1010 A2985 HR64METAR SLSM 291700Z 33004KT 9999 BKN080 27/23 Q1012 A2988 HR77 RWYOPR C206=
ZPX0546 291701@CAELT@GG SLZZYMYT@CAELT@291659 SLTRYGYS@CAELT@SABO SLTR 291700@CAELT@METAR SLTR 291700Z 31006KT 9999 SCT080 31/22 Q1012 A2989 993.7@CAELT@HR58 FU NOSIG=@CAELT@METAR SLGM 291700Z 00000KT 7000 SCT017 34/23 Q1011 A2988 HR56 FU=@CAELT@METAR SLRI 291700Z 00000KT 5000 FU FEW017 BKN200 32/23 Q1012 A2991@CAELT@HR62=METAR SLJO 291700Z 14005KT 8000 FEW080 32/23 Q1011 A2987 HR59 FURWY NML=METAR SLRA 291700Z 09004KT 9999 SCT080 32/23 Q1012 A2989 HR59 RWYNML=METAR SLMG 291700Z 00000KT 9999 SCT080 BKN200 31/22 Q1011 A2986 HR59METAR SLBU 291700Z 09004KT 8000 BKN080 31/22 Q1010 A2985 HR57 FURWY HUM OPR=METAR SLSA 291700Z 00000KT 8000 BKN080 28/22 Q1011 A2987 HR71 FU=METAR SLSR 291700Z 00000KT 9999 FEW015 SCT080 30/22 Q1010 A2985 HR64METAR SLSM 291700Z 33004KT 9999 BKN080 27/23 Q1012 A2988 HR77 RWYOPR C206=
ZPX0547 291701@CAELT@GG SLZZYMYT@CAELT@291700 SLTJYGYZ@CAELT@SABO SLTJ 291700 CCA@CAELT@METAR COR SLTJ 291700Z 12004KT 9999 NSC 31/05 Q1011 A2987 807.8 HR20@CAELT@
ZPX0550 291704@CAELT@GG SLZZYMYT@CAELT@291703 SLCBYGYS@CAELT@SABO SLCB 291700 CCB@CAELT@METAR SLCB 291700Z 25005KT 9999 SCT040 FEW042CB 26/05 Q1023 A3022 750@CAELT@.1 HR26 CB/N/SE SH/N AC NOSIG=@CAELT@METAR SLAL 291700Z 30007KT 9999 FEW020 20/04 Q1026 A3031 701.8 HR34=@CAELT@METAR SLAG 291700Z 07010KT 9999 FEW023 SCT200 36/12 Q1008 A2978 881.4@CAELT@HR23 FU=METAR SLVM 291700Z 00000KT 9999 FEW070 34/19 Q1004 A2965 HR39 FU CI=METAR COR SLTJ 291700Z 12004KT 9999 NSC 31/05 Q1011 A2987 807.8 HR20METAR SLYA 291700Z 06008KT 9999 NSC 32/13 Q1005 A2970 931.0 HR32=
ZPX0576 291755@CAELT@GG SLZZYMYT@CAELT@291755 SLVRYGYZ@CAELT@SABO SLVR 291800@CAELT@METAR SLVR 291800Z 34018G28KT 9999 FEW015 SCT200 34/18 Q1009 A2982@CAELT@HR40 NOSIG=@CAELT@
ZPX0577 291755@CAELT@GG SLZZYMYT@CAELT@291755 SLTRYGYZ@CAELT@SABO SLTR 291800@CAELT@METAR SLTR 291800Z 32006KT 9999 BKN080 31/22 Q1011 A2987 993.0@CAELT@HR60 FU NOSIG=@CAELT@
ZPX0578 291755@CAELT@GG SLZZYMYT@CAELT@291755 SLSAYGYS@CAELT@SABO SLSA 291800@CAELT@METAR SLSA 291800Z 36005KT 8000 BKN080 30/22 Q1010 A2984 HR62 FU=@CAELT@
ZPX0579 291755@CAELT@GG SLZZYMYT@CAELT@291755 SLSAYGYS@CAELT@SABO SLSA 291800@CAELT@METAR SLSA 291800Z 36005KT 8000 BKN080 30/22 Q1010 A2984 HR62 FU=@CAELT@
ZPX0580 291755@CAELT@GG SLZZYMYT@CAELT@291755 SLORYGYZ@CAELT@SABO SLOR 291800@CAELT@METAR SLOR 291800Z 01010KT 9999 SCT020 FEW023CB 19/05 Q1031 A3047 653@CAELT@.8 HR40 CB/SH SE/NW AC/CI=@CAELT@
ZPX0581 291755@CAELT@GG SLZZYMYT@CAELT@291752 SLETYMYC@CAELT@SABO SLET 291800@CAELT@METAR SLET 291800Z 31023G34KT 9999 FEW017 SCT200 32/17 Q1008 A2979@CAELT@HR40 NOSIG=@CAELT@
ZPX0582 291756@CAELT@GG SLZZYMYT@CAELT@291755 SLSBYSYX@CAELT@SABO SLSB 291800@CAELT@METAR SLSB 291800Z 32004KT 9999 SCT080 32/24 Q1011 A2987 HR61 RWY WET@CAELT@OPR C210=@CAELT@
ZPX0585 291757@CAELT@GG SLZZYMYT@CAELT@291757 SLLPYGYZ@CAELT@SABO SLLP 291800@CAELT@METAR SLLP 291800Z 33009KT 300V030 6000 -TSRA SCT017 FEW020CB BKN070@CAELT@06/03 Q1037 A3063 627.5 HR81 P4754 CB/ON STN N/NE/W/NW CI TEMPO@CAELT@VCTSSH=@CAELT@
ZPX0586 291757@CAELT@GG SLZZYMYT@CAELT@291758 SLCOYGYZ@CAELT@SABO SLCO 291800@CAELT@METAR SLCO 291800Z 36004KT 9999 FEW020 SCT090 32/24 Q1012 A2989 984.7@CAELT@HR62 CI=@CAELT@
ZPX0588 291758@CAELT@GG SLZZYMYT@CAELT@291756 SLTJYGYZ@CAELT@SABO SLTJ 291800@CAELT@METAR SLTJ 291800Z 09007KT 9999 NSC 35/05 Q1009 A2981 806.1 HR15 AC@CAELT@
ZPX0589 291759@CAELT@GG SLZZYMYT@CAELT@291756 SLAGYSYX@CAELT@SABO SLAG 291800@CAELT@METAR SLAG 291800Z 04015KT 9999 FEW025 36/12 Q1006 A2973 880.0 HR23@CAELT@FU CI=@CAELT@
ZPX0590 291759@CAELT@GG SLZZYMYT@CAELT@291759 SLCBYGYZ@CAELT@SABO SLCB 291800@CAELT@METAR SLCB 291800Z 03008KT 330V080 9999 SCT040 FEW042CB 24/07 Q1021@CAELT@A3018 749.0 HR33 CB/NW/E/SE/S AC NOSIG=@CAELT@
ZPX0593 291801@CAELT@GG SLZZYMYT@CAELT@291800 SLVRYGYS@CAELT@SABO SLVR 291800@CAELT@METAR SLVR 291800Z 34018G28KT 9999 FEW015 SCT200 34/18 Q1009 A2982@CAELT@HR40 NOSIG=@CAELT@METAR SLET 291800Z 31023G34KT 9999 FEW017 SCT200 32/17 Q1008 A2979@CAELT@METAR SLAS 291800Z 33005KT 9999 NSC 37/19 Q1012 A2988 HR37@CAELT@FU RWY NML=METAR SLJV 291800Z NIL=METAR SLCP 291800Z 30008KT 9999 SCT020 34/19 Q1014 A2994 HR43METAR SLSI 291800Z 36006KT 8000 SCT020 37/25 Q1010 A2983 HR52METAR SLTI 291800Z NIL=METAR SLJE 291800Z NIL=METAR SLVG 291800Z NIL=METAR SLRB 291800Z NIL=METAR SLPS 291800Z NIL=METAR SLCA 291800Z NIL=
ZPX0594 291801@CAELT@GG SLZZYMYT@CAELT@291800 SLCBYGYS@CAELT@SABO SLCB 291800@CAELT@METAR SLCB 291800Z 03008KT 330V080 9999 SCT040 FEW042CB 24/07 Q1021@CAELT@A3018 749.0 HR33 CB/NW/E/SE/S AC NOSIG=@CAELT@METAR SLAL 291800Z 08003KT 9999 FEW023 21/06 Q1025 A3027 700.9 HR39=@CAELT@METAR SLAG 291800Z 04015KT 9999 FEW025 36/12 Q1006 A2973 880.0 HR23@CAELT@FU CI=METAR SLVM 291800Z 18007KT 9999 NSC 36/20 Q1002 A2959 HR39 FU CI=METAR SLTJ 291800Z 09007KT 9999 NSC 35/05 Q1009 A2981 806.1 HR15 ACMETAR SLYA 291800Z 06008KT 9999 NSC 32/13 Q1004 A2967 930.0 HR32 CI=
ZPX0595 291802@CAELT@GG SLZZYMYT@CAELT@291802 SLLPYFYA@CAELT@SABO SLLP 291800@CAELT@METAR SLLP 291800Z 33009KT 300V030 6000 -TSRA SCT017 FEW020CB BKN070@CAELT@06/03 Q1037 A3063 627.5 HR81 P4754 CB/ON STN N/NE/W/NW CI TEMPO@CAELT@VCTSSH=@CAELT@METAR SLCO 291800Z 36004KT 9999 FEW020 SCT090 32/24 Q1012 A2989@CAELT@984.7 HR62 CI=METAR SLSB 291800Z 32004KT 9999 SCT080 32/24 Q1011 A2987 HR61 RWY WETOPR C210=METAR SLOR 291800Z 01010KT 9999 SCT020 FEW023CB 19/05 Q1031 A3047653.8 HR40 CB/SH SE/NW AC/CI=
ZPX0597 291803@CAELT@GG SLZZYMYT@CAELT@291800 SLTRYGYS@CAELT@SABO SLTR 291800@CAELT@METAR SLTR 291800Z 32006KT 9999 BKN080 31/22 Q1011 A2987 993.0@CAELT@HR60 FU NOSIG=@CAELT@METAR SLGM 291800Z 36006KT 7000 BKN017 35/24 Q1010 A2984 HR56 FU=@CAELT@METAR SLRI 291800Z 17005KT 8000 FEW017 34/22 Q1011 A2986 HR48 FU CI=@CAELT@METAR SLSA 291800Z 36005KT 8000 BKN080 30/22 Q1010 A2984 HR62 FU=
ZPX0622 291854@CAELT@GG SLZZYMYT@CAELT@291855 SLORYGYZ@CAELT@SABO SLOR 291900@CAELT@METAR SLOR 291900Z 35011KT 9999 SCT020 FEW023CB BKN200 17/05 Q1031@CAELT@A3047 653.8 HR46 CB/SH N/E/NW AC=@CAELT@
ZPX0623 291854@CAELT@GG SLZZYMYT@CAELT@291849 SLETYMYC@CAELT@SABO SLET 291900@CAELT@METAR SLET 291900Z 32022G34KT 9999 FEW017 SCT200 32/18 Q1008 A2977@CAELT@HR43 NOSIG=@CAELT@
ZPX0624 291855@CAELT@GG SLZZYMYT@CAELT@291855 SLVRYGYZ@CAELT@SABO SLVR 291900@CAELT@METAR SLVR 291900Z 34020G30KT 9999 FEW015 SCT200 33/18 Q1009 A2981@CAELT@HR40 NOSIG=@CAELT@
ZPX0625 291855@CAELT@GG SLZZYMYT@CAELT@291855 SLTRYGYZ@CAELT@SABO SLTR 291900@CAELT@METAR SLTR 291900Z 33005KT 9999 BKN080 31/23 Q1010 A2984 992.1 HR61@CAELT@FU NOSIG=@CAELT@
ZPX0626 291855@CAELT@GG SLZZYMYT@CAELT@291855 SLCOYGYZ@CAELT@SABO SLCO 291900@CAELT@METAR SLCO 291900Z 29007KT 9999 FEW020 SCT200 33/25 Q1010 A2983 982.9@CAELT@HR63=@CAELT@
ZPX0627 291855@CAELT@GG SLZZYMYT@CAELT@291855 SLTJYGYZ@CAELT@SABO SLTJ 291900@CAELT@METAR SLTJ 291900Z 06007KT 9999 NSC 34/06 Q1007 A2977 804.9 HR17 AC=@CAELT@
ZPX0628 291855@CAELT@GG SLZZYMYT@CAELT@291856 SLSAYGYS@CAELT@SABO SLSA 291900@CAELT@METAR SLSA 291900Z 34005KT 8000 SCT080 30/23 Q1009 A2982 HR63 FU=@CAELT@
ZPX0629 291856@CAELT@GG SLZZYMYT@CAELT@291856 SLSAYGYS@CAELT@SABO SLSA 291900@CAELT@METAR SLSA 291900Z 34005KT 8000 SCT080 30/23 Q1009 A2982 HR63 FU=@CAELT@
ZPX0630 291856@CAELT@GG SLZZYMYT@CAELT@291856 SLLPYGYZ@CAELT@SABO SLLP 291900@CAELT@METAR SLLP 291900Z 04008KT 8000 -TSRA SCT017 FEW020CB BKN070 BKN200@CAELT@07/04 Q1035 A3059 626.6 HR81 P1784 CB/ON STN NE/S/W/NW NOSIG=@CAELT@
ZPX0631 291858@CAELT@GG SLZZYMYT@CAELT@291857 SLVRYGYS@CAELT@SABO SLVR 291900@CAELT@METAR SLVR 291900Z 34020G30KT 9999 FEW015 SCT200 33/18 Q1009 A2981@CAELT@HR40 NOSIG=@CAELT@METAR SLET 291900Z 32022G34KT 9999 FEW017 SCT200 32/18 Q1008 A2977@CAELT@HR43 NOSIG=@CAELT@METAR SLAS 291900Z 33005KT 9999 NSC 37/19 Q1011 A2985 HR35FU RWY NML=METAR SLJV 291900Z 36014KT 9999 NSC 36/19 Q1009 A2980 HR38 RWY NML=METAR SLCP 291900Z 33008KT 9999 BKN020 34/19 Q1013 A2991 HR43METAR SLSI 291900Z 33008KT 8000 SCT020 37/16 Q1009 A2980 HR53
ZPX0634 291859@CAELT@GG SLZZYMYT@CAELT@291857 SLCBYGYZ@CAELT@SABO SLCB 291900@CAELT@METAR SLCB 291900Z VRB02KT 9999 SCT040 FEW042CB 24/05 Q1021 A3015 748@CAELT@.3 HR29 CB/N/SW/ON STN AC NOSIG=@CAELT@
ZPX0636 291900@CAELT@GG SLZZYMYT@CAELT@291900 SLLPYFYA@CAELT@SABO SLLP 291900@CAELT@METAR SLLP 291900Z 04008KT 8000 -TSRA SCT017 FEW020CB BKN070 BKN200@CAELT@07/04 Q1035 A3059 626.6 HR81 P1784 CB/ON STN NE/S/W/NW NOSIG=@CAELT@METAR SLCO 291900Z 29007KT 9999 FEW020 SCT200 33/25 Q1010 A2983@CAELT@982.9 HR63=@CAELT@METAR SLOR 291900Z 35011KT 9999 SCT020 FEW023CB BKN200 17/05 Q1031A3047 653.8 HR46 CB/SH N/E/NW AC=
ZPX0638 291901@CAELT@GG SLZZYMYT@CAELT@291900 SLCBYGYS@CAELT@SABO SLCB 291900@CAELT@METAR SLCB 291900Z VRB02KT 9999 SCT040 FEW042CB 24/05 Q1021 A3015 748@CAELT@.3 HR29 CB/N/SW/ON STN AC NOSIG=@CAELT@METAR SLAL 291900Z 02009KT 9999 FEW023 FEW033CB 22/04 Q1023 A3023 699@CAELT@.9 HR31 CB/W=@CAELT@METAR SLTJ 291900Z 06007KT 9999 NSC 34/06 Q1007 A2977 804.9 HR17 AC=
ZPX0639 291902@CAELT@GG SLZZYMYT@CAELT@291900 SLTRYGYS@CAELT@SABO SLTR 291900@CAELT@METAR SLTR 291900Z 33005KT 9999 BKN080 31/23 Q1010 A2984 992.1 HR61@CAELT@FU NOSIG=@CAELT@METAR SLGM 291900Z 30010KT 8000 FEW017 FE0W20CB 35/24 Q1009 A2982@CAELT@HR54 FU CB NE/E=@CAELT@METAR SLRI 291900Z 36005KT 5000 TS VCSH FU FEW017 FEW020CB 34/21Q1009 A2981 HR47 CB/SH N/NE TS/N CI=METAR SLSA 291900Z 34005KT 8000 SCT080 30/23 Q1009 A2982 HR63 FU=METAR SLRA 291900Z 00000KT 9999 FEW020 34/24 Q1009 A2980 HR56 RWYNML=
ZPX0659 291954@CAELT@GG SLZZYMYT@CAELT@291955 SLSAYGYS@CAELT@SABO SLSA 292000@CAELT@METAR SLSA 292000Z 00000KT 8000 FEW020 32/23 Q1008 A2978 HR60 FU=@CAELT@
ZPX0660 291954@CAELT@GG SLZZYMYT@CAELT@291955 SLSAYGYS@CAELT@SABO SLSA 292000@CAELT@METAR SLSA 292000Z 00000KT 8000 FEW020 32/23 Q1008 A2978 HR60 FU=@CAELT@
ZPX0661 291955@CAELT@GG SLZZYMYT@CAELT@291955 SLCOYGYZ@CAELT@SABO SLCO 292000@CAELT@METAR SLCO 292000Z 36004KT 9999 SCT020 SCT200 33/25 Q1009 A2981 982.0@CAELT@HR61=@CAELT@
ZPX0662 291955@CAELT@GG SLZZYMYT@CAELT@291955 SLVRYGYZ@CAELT@SABO SLVR 292000@CAELT@METAR SLVR 292000Z 34020G31KT 9999 FEW015 SCT200 32/18 Q1008 A2979@CAELT@HR42 NOSIG=@CAELT@
ZPX0663 291955@CAELT@GG SLZZYMYT@CAELT@291955 SLTRYGYZ@CAELT@SABO SLTR 292000@CAELT@METAR SLTR 292000Z 32006KT 9999 FEW080 31/22 Q1009 A2981 991.0 HR58@CAELT@FU NOSIG=@CAELT@
ZPX0664 291955@CAELT@GG SLZZYMYT@CAELT@291955 SLTJYGYZ@CAELT@SABO SLTJ 292000@CAELT@METAR SLTJ 292000Z 06009KT 9999 NSC 32/06 Q1007 A2977 804.9 HR20 AC=@CAELT@
ZPX0665 291956@CAELT@GG SLZZYMYT@CAELT@291954 SLETYMYC@CAELT@SABO SLET 292000@CAELT@METAR SLET 292000Z 32016G28KT 9999 FEW017 SCT200 31/18 Q1007 A2975@CAELT@HR45 NOSIG=@CAELT@
ZPX0666 291956@CAELT@GG SLZZYMYT@CAELT@291956 SLLPYGYZ@CAELT@SABO SLLP 292000@CAELT@METAR SLLP 292000Z 12005KT 8000 -RA SCT017 FEW020CB BKN070 BKN200@CAELT@08/03 Q1035 A3059 626.5 HR73 P3784 CB SE/S/SW/W RETS NOSIG=@CAELT@
ZPX0667 291956@CAELT@GG SLZZYMYT@CAELT@291956 SLORYGYZ@CAELT@SABO SLOR 292000@CAELT@METAR SLOR 292000Z 01010G20KT 9999 SCT020 FEW023CB BKN200 14/05 Q1032@CAELT@A3049 654.1 HR52 CB/N/NE/E AC=@CAELT@
ZPX0669 291956@CAELT@GG SLZZYMYT@CAELT@291956 SLVRYGYS@CAELT@SABO SLVR 292000@CAELT@METAR SLVR 292000Z 34020G31KT 9999 FEW015 SCT200 32/18 Q1008@CAELT@A2979 HR42 NOSIG=@CAELT@METAR SLET 292000Z 32016G28KT 9999 FEW017 SCT200 31/18 Q1007@CAELT@A2975 HR45 NOSIG=@CAELT@METAR SLJV 292000Z 36014KT 9999 NSC 36/19 Q1008 A2977 HR37 RWY NML=METAR SLCP 292000Z 33008KT 9999 BKN020 35/19 Q1012 A2988 HR41FU RWY NML=METAR SLSI 292000Z 36006KT 8000 SCT020 37/25 Q1009 A2980 HR51
ZPX0670 291957@CAELT@GG SLZZYMYT@CAELT@291956 SLLPYFYA@CAELT@SABO SLLP 292000@CAELT@METAR SLLP 292000Z 12005KT 8000 -RA SCT017 FEW020CB BKN070 BKN200@CAELT@08/03 Q1035 A3059 626.5 HR73 P3784 CB SE/S/SW/W RETS NOSIG=@CAELT@METAR SLCO 292000Z 36004KT 9999 SCT020 SCT200 33/25 Q1009 A2981@CAELT@982.0 HR61=@CAELT@METAR SLOR 292000Z 01010G20KT 9999 SCT020 FEW023CB BKN200 14/05Q1032 A3049 654.1 HR52 CB/N/NE/E AC=
ZPX0671 291957@CAELT@GG SLZZYMYT@CAELT@291956 SLCBYGYZ@CAELT@SABO SLCB 292000@CAELT@METAR SLCB 292000Z 27007KT 180V340 9999 FEW040 FEW042CB SCT200 26/04@CAELT@Q1020 A3014 748.0 HR24 CB/SE AC NOSIG=@CAELT@
ZPX0672 291957@CAELT@GG SLZZYMYT@CAELT@291957 SLTRYGYS@CAELT@SABO SLTR 292000@CAELT@METAR SLTR 292000Z 32006KT 9999 FEW080 31/22 Q1009 A2981 991.0 HR58@CAELT@FU NOSIG=@CAELT@METAR SLGM 292000Z 00000KT 8000 SCT017 FEW020CB BKN200 35/24 Q1007@CAELT@A2974 HR54 FU CB N/NE=@CAELT@METAR SLRI 292000Z 00000KT 5000 VCSH FU FEW017 FEW020CB BKN200 27/21Q1008 A2979 HR71 CB/SH N/W/NW=METAR SLJO 292000Z 00000KT 9999 SCT020 35/23 Q1008 A2978 HR50 RWYNML=METAR SLSA 292000Z 00000KT 8000 FEW020 32/23 Q1008 A2978 HR60 FU=
ZPX0678 292004@CAELT@GG SLZZYMYT@CAELT@292000 SLCBYGYS@CAELT@SABO SLCB 292000@CAELT@METAR SLCB 292000Z 27007KT 180V340 9999 FEW040 FEW042CB SCT200 26/04@CAELT@Q1020 A3014 748.0 HR24 CB/SE AC NOSIG=@CAELT@METAR SLAL 292000Z 36012KT 9999 FEW023 FEW033CB SCT200 21/03 Q1023@CAELT@A3022 699.7 HR32 CB SW/W=@CAELT@METAR SLTJ 292000Z 06009KT 9999 NSC 32/06 Q1007 A2977 804.9 HR20 AC=
ZPX0682 292010@CAELT@GG SLZZYMYT@CAELT@292009 SLTRYGYS@CAELT@SABO SLTR 292000 CCA@CAELT@METAR SLTR 292000Z 32006KT 9999 FEW080 31/22 Q1009 A2981 991.0 HR58@CAELT@FU NOSIG=@CAELT@METAR SLGM 292000Z 00000KT 8000 SCT017 FEW020CB BKN200 35/24 Q1007@CAELT@A2974 HR54 FU CB N/NE=@CAELT@METAR COR SLRI 292000Z 00000KT 5000 VCSH FU FEW017 FEW020CB BKN200 27/21 Q1008 A2979 HR71 RETS CB/SH N/W/NW=METAR SLJO 292000Z 00000KT 9999 SCT020 35/23 Q1008 A2978 HR50 RWYNML=METAR SLSA 292000Z 00000KT 8000 FEW020 32/23 Q1008 A2978 HR60 FU=
ZPX0700 292053@CAELT@GG SLZZYMYT@CAELT@292054 SLSAYGYS@CAELT@SABO SLSA 292100@CAELT@METAR SLSA 292100Z 34006KT 8000 FEW020 32/22 Q1008 A2977 HR56 FU=@CAELT@
ZPX0701 292053@CAELT@GG SLZZYMYT@CAELT@292054 SLSAYGYS@CAELT@SABO SLSA 292100@CAELT@METAR SLSA 292100Z 34006KT 8000 FEW020 32/22 Q1008 A2977 HR56 FU=@CAELT@
ZPX0702 292055@CAELT@GG SLZZYMYT@CAELT@292056 SLCOYGYZ@CAELT@SABO SLCO 292100@CAELT@METAR SLCO 292100Z 22005KT 9999 SCT020 FEW023CB BKN200 33/24 Q1008@CAELT@A2979 981.3 HR60 CB/E=@CAELT@
ZPX0703 292055@CAELT@GG SLZZYMYT@CAELT@292055 SLTRYGYZ@CAELT@SABO SLTR 292100@CAELT@METAR SLTR 292100Z 32005KT 9999 FEW080 31/23 Q1008 A2979 990.2 HR63@CAELT@FU NOSIG=@CAELT@
ZPX0704 292056@CAELT@GG SLZZYMYT@CAELT@292054 SLETYMYC@CAELT@SABO SLET 292100@CAELT@METAR SLET 292100Z 31016G28KT 9999 NSC 30/19 Q1007 A2975 HR49 CI@CAELT@NOSIG=@CAELT@
ZPX0705 292056@CAELT@GG SLZZYMYT@CAELT@292056 SLORYGYZ@CAELT@SABO SLOR 292100@CAELT@METAR SLOR 292100Z 04014KT 9999 FEW017 FEW020CB SCT070 BKN200 11/M02@CAELT@Q1031 A3047 653.8 HR40 CB/E/SW SH/E=@CAELT@
ZPX0706 292056@CAELT@GG SLZZYMYT@CAELT@292056 SLLPYGYZ@CAELT@SABO SLLP 292100@CAELT@METAR SLLP 292100Z 16007KT 9999 -RA SCT017 FEW020CB BKN070 BKN200@CAELT@07/04 Q1035 A3058 626.4 HR78 P3784 CB SE/S/SW NOSIG=@CAELT@
ZPX0708 292057@CAELT@GG SLZZYMYT@CAELT@292056 SLCBYGYZ@CAELT@SABO SLCB 292100@CAELT@METAR SLCB 292100Z 36010KT 280V080 9999 FEW040 SCT200 24/04 Q1020@CAELT@A3014 747.9 HR28 NOSIG=@CAELT@
ZPX0710 292057@CAELT@GG SLZZYMYT@CAELT@292058 SLVRYGYZ@CAELT@SABO SLVR 292100@CAELT@METAR SLVR 292100Z 34017G27KT 9999 NSC 31/18 Q1008 A2979 HR48 CI@CAELT@NOSIG=@CAELT@
ZPX0711 292058@CAELT@GG SLZZYMYT@CAELT@292058 SLVRYGYS@CAELT@SABO SLVR 292100@CAELT@METAR SLVR 292100Z 34017G27KT 9999 NSC 31/18 Q1008 A2979 HR48 CI@CAELT@NOSIG=@CAELT@METAR SLET 292100Z 31016G28KT 9999 NSC 30/19 Q1007 A2975 HR49 CI@CAELT@METAR SLJV 292100Z NIL=@CAELT@METAR SLCP 292100Z NIL=METAR SLSI 292100Z NIL=
ZPX0715 292100@CAELT@GG SLZZYMYT@CAELT@292059 SLTRYGYS@CAELT@SABO SLTR 292100@CAELT@METAR SLTR 292100Z 32005KT 9999 FEW080 31/23 Q1008 A2979 990.2 HR63@CAELT@FU NOSIG=@CAELT@METAR SLGM 292100Z 25006KT 6000 TS VCSH SCT017 FEW020CB BKN200 34/24@CAELT@Q1006 A2973 HR57 FU CB/SH NE/E/SW TS SW=@CAELT@METAR SLRI 292100Z 32005KT 8000 FEW017 FEW020CB BKN200 26/23 Q1008A2977 HR79 CB/E AC FU=METAR SLSA 292100Z 34006KT 8000 FEW020 32/22 Q1008 A2977 HR56 FU=
ZPX0716 292100@CAELT@GG SLZZYMYT@CAELT@292100 SLCBYGYS@CAELT@SABO SLCB 292100@CAELT@METAR SLCB 292100Z 36010KT 280V080 9999 FEW040 SCT200 24/04 Q1020@CAELT@A3014 747.9 HR28 NOSIG=@CAELT@METAR SLAL 292100Z 26011KT 9999 FEW023 FEW033CB SCT200 19/05 Q1024@CAELT@A3025 700.4 HR40 CB S/SW/W=@CAELT@
ZPX0719 292104@CAELT@GG SLZZYMYT@CAELT@292104 SLLPYFYA@CAELT@SABO SLLP 292100@CAELT@METAR SLLP 292100Z 16007KT 9999 -RA SCT017 FEW020CB BKN070 BKN200@CAELT@07/04 Q1035 A3058 626.4 HR78 P3784 CB SE/S/SW NOSIG=@CAELT@METAR SLCO 292100Z 22005KT 9999 SCT020 FEW023CB BKN200 33/24 Q1008@CAELT@A2979 981.3 HR60 CB/E=@CAELT@METAR SLOR 292100Z 04014KT 9999 FEW017 FEW020CB SCT070 BKN200 11/M02Q1031 A3047 653.8 HR40 CB/E/SW SH/E=
ZPX0737 292153@CAELT@GG SLZZYMYT@CAELT@292148 SLETYMYC@CAELT@SABO SLET 292200@CAELT@METAR SLET 292200Z 32012KT 9999 NSC 29/19 Q1007 A2975 HR56 CI NOSIG=@CAELT@
ZPX0738 292153@CAELT@GG SLZZYMYT@CAELT@292154 SLSAYGYS@CAELT@SABO SLSA 292200@CAELT@METAR SLSA 292200Z 00000KT 8000 FEW020 SCT200 31/23 Q1007 A2975@CAELT@HR60 FU=@CAELT@
ZPX0739 292153@CAELT@GG SLZZYMYT@CAELT@292154 SLSAYGYS@CAELT@SABO SLSA 292200@CAELT@METAR SLSA 292200Z 00000KT 8000 FEW020 SCT200 31/23 Q1007 A2975@CAELT@HR60 FU=@CAELT@
ZPX0740 292153@CAELT@GG SLZZYMYT@CAELT@292155 SLCOYGYZ@CAELT@SABO SLCO 292200@CAELT@METAR SLCO 292200Z 24004KT 9999 SCT020 BKN200 32/25 Q1008 A2979 981.5@CAELT@HR66=@CAELT@
ZPX0741 292155@CAELT@GG SLZZYMYT@CAELT@292156 SLVRYGYZ@CAELT@SABO SLVR 292200@CAELT@METAR SLVR 292200Z 35010KT 9999 NSC 28/19 Q1008 A2978 HR56 CI NOSIG=@CAELT@
ZPX0742 292155@CAELT@GG SLZZYMYT@CAELT@292155 SLTRYGYZ@CAELT@SABO SLTR 292200@CAELT@METAR SLTR 292200Z 00000KT 9999 FEW080 30/23 Q1008 A2978 990.0 HR67@CAELT@FU NOSIG=@CAELT@
ZPX0743 292156@CAELT@GG SLZZYMYT@CAELT@292156 SLLPYGYZ@CAELT@SABO SLLP 292200@CAELT@METAR SLLP 292200Z 09010KT 9999 SCT017 FEW020CB SCT070 BKN200 07/04@CAELT@Q1035 A3058 626.4 HR78 P3783 CB/SH SE/NW NOSIG=@CAELT@
ZPX0744 292157@CAELT@GG SLZZYMYT@CAELT@292157 SLCBYGYZ@CAELT@SABO SLCB 292200@CAELT@METAR SLCB 292200Z 30007KT 9999 FEW040 SCT200 22/06 Q1020 A3015 748.2@CAELT@HR35 AC NOSIG=@CAELT@
ZPX0745 292158@CAELT@GG SLZZYMYT@CAELT@292157 SLTRYGYS@CAELT@SABO SLTR 292200@CAELT@METAR SLTR 292200Z 00000KT 9999 FEW080 30/23 Q1008 A2978 990.0 HR67@CAELT@FU NOSIG=@CAELT@METAR SLGM 292200Z 26008KT 5000 TS VCSH FU BKN017 FEW020CB BKN200@CAELT@30/23 Q1007 A2975 HR698 CB/SH N/NE/SE/SW TS SE/SW=@CAELT@METAR SLRI 292200Z 00000KT 9999 FEW017 SCT080 BKN200 27/23 Q1008A2979 HR78=METAR SLSA 292200Z 00000KT 8000 FEW020 SCT200 31/23 Q1007 A2975HR60 FU=
ZPX0746 292158@CAELT@GG SLZZYMYT@CAELT@292158 SLORYGYZ@CAELT@SABO SLOR 292200@CAELT@METAR SLOR 292200Z 36012KT 9999 FEW017 FEW020CB SCT070 BKN200 11/M00@CAELT@Q1032 A3048 653.9 HR47 CB/S=@CAELT@
ZPX0747 292159@CAELT@GG SLZZYMYT@CAELT@292159 SLLPYFYA@CAELT@SABO SLLP 292200@CAELT@METAR SLLP 292200Z 09010KT 9999 SCT017 FEW020CB SCT070 BKN200 07/04@CAELT@Q1035 A3058 626.4 HR78 P3783 CB/SH SE/NW NOSIG=@CAELT@METAR SLCO 292200Z 24004KT 9999 SCT020 BKN200 32/25 Q1008 A2979@CAELT@981.5 HR66=@CAELT@METAR SLOR 292200Z 36012KT 9999 FEW017 FEW020CB SCT070 BKN200 11/M00Q1032 A3048 653.9 HR47 CB/S=
ZPX0756 292255@CAELT@GG SLZZYMYT@CAELT@292255 SLCBYGYZ@CAELT@SABO SLCB 292300@CAELT@METAR SLCB 292300Z 24006KT 9999 FEW036 18/06 Q1021 A3017 748.7 HR44@CAELT@FU CI NOSIG=@CAELT@
ZPX0757 292255@CAELT@GG SLZZYMYT@CAELT@292256 SLVRYGYZ@CAELT@SABO SLVR 292300@CAELT@METAR SLVR 292300Z 35009KT 9999 NSC 26/18 Q1008 A2979 HR62 CI NOSIG=@CAELT@
ZPX0758 292256@CAELT@GG SLLPZRZX@CAELT@292256 SLLPYGYZ@CAELT@SABO SLLP 292300@CAELT@METAR SLLP 292300Z 08005KT 9999 FEW015 FEW017CB BKN200 06/04 Q1035@CAELT@A3059 626.5 HR85 CB/LT SE/SW AC NOSIG=@CAELT@
ZPX0759 292256@CAELT@GG SLZZYMYT@CAELT@292257 SLCOYGYZ@CAELT@SABO SLCO 292300@CAELT@METAR SLCO 292300Z 16009KT 7000 -RA SCT020 FEW023CB BKN200 29/26@CAELT@Q1009 A2982 982.4 HR80 CB/E/SE=@CAELT@
ZPX0760 292259@CAELT@GG SLZZYMYT@CAELT@292258 SLLPYFYA@CAELT@SABO SLLP 292300@CAELT@METAR SLLP 292300Z 08005KT 9999 FEW015 FEW017CB BKN200 06/04 Q1035@CAELT@A3059 626.5 HR85 CB/LT SE/SW AC NOSIG=@CAELT@METAR SLCO 292300Z 16009KT 7000 -RA SCT020 FEW023CB BKN200 29/26@CAELT@Q1009 A2982 982.4 HR80 CB/E/SE=@CAELT@
ZPX0773 292355@CAELT@GG SLZZYMYT@CAELT@292355 SLVRYGYZ@CAELT@SABO SLVR 300000@CAELT@METAR SLVR 300000Z 35009KT 9999 NSC 25/18 Q1009 A2980 HR65 CI NOSIG=@CAELT@
