
ZPX0002 160001@CAELT@GG SLZZYMYT@CAELT@160000 SLCBYGYS@CAELT@SABO SLCB 160000@CAELT@METAR SLCB 160000Z 15005KT 9999 FEW036 SCT200 23/04 Q1016 A3003 745.1@CAELT@HR29 FU NOSIG=@CAELT@METAR SLAL 160000Z 05010KT 9999 FEW015 17/08 Q1023 A3021 699.6 HR59@CAELT@METAR SLTJ 160000Z 12005KT 9999 BKN025 BKN200 21/14 Q1015 A2999 811.1@CAELT@HR66 AC=
ZPX0034 160055@CAELT@GG SLZZYMYT@CAELT@160055 SLVRYGYZ@CAELT@SABO SLVR 160100@CAELT@METAR SLVR 160100Z 36004KT 9999 SCT015 24/22 Q1008 A2978 HR92 CI@CAELT@NOSIG=@CAELT@
ZPX0035 160057@CAELT@GG SLZZYMYT@CAELT@160056 SLCBYGYZ@CAELT@SABO SLCB 160100@CAELT@METAR SLCB 160100Z 16008KT 9999 FEW036 21/05 Q1018 A3008 746.3 HR34@CAELT@FU CI NOSIG=@CAELT@
ZPX0038 160059@CAELT@GG SLLPZRZX@CAELT@160055 SLLPYGYZ@CAELT@SABO SLLP 160100@CAELT@METAR SLLP 160100Z 11006KT 9999 FEW013 BKN200 10/05 Q1033 A3052 625.0@CAELT@HR69 AC NOSIG=@CAELT@
ZPX0051 160154@CAELT@GG SLZZYMYT@CAELT@160154 SLVRYGYZ@CAELT@SABO SLVR 160200@CAELT@METAR SLVR 160200Z 35005KT 9999 FEW007 SCT015 24/23 Q1008 A2979 HR96@CAELT@CI NOSIG=@CAELT@
ZPX0053 160156@CAELT@GG SLZZYMYT@CAELT@160155 SLCBYGYZ@CAELT@SABO SLCB 160200@CAELT@METAR SLCB 160200Z 14010KT 9999 NSC 20/06 Q1019 A3011 747.1 HR39 FU@CAELT@NOSIG=@CAELT@
ZPX0054 160157@CAELT@GG SLZZYMYT@CAELT@160156 SLLPYGYZ@CAELT@SABO SLLP 160200@CAELT@METAR SLLP 160200Z 12007KT 100V160 9999 FEW013 BKN200 09/04 Q1034@CAELT@A3055 625.7 HR73 NOSIG=@CAELT@
ZPX0076 160253@CAELT@GG SLZZYMYT@CAELT@160254 SLVRYGYZ@CAELT@SABO SLVR 160300@CAELT@METAR SLVR 160300Z 35004KT 9999 FEW015 SCT200 23/23 Q1008 A2979 HR95@CAELT@AC NOSIG=@CAELT@
ZPX0081 160256@CAELT@GG SLLPZRZX@CAELT@160255 SLLPYGYZ@CAELT@SABO SLLP 160300@CAELT@METAR SLLP 160300Z 09009KT 9999 FEW010 BKN200 08/05 Q1035 A3057@CAELT@626.0 HR84 NOSIG=@CAELT@
ZPX0084 160257@CAELT@GG SLZZYMYT@CAELT@160257 SLCBYGYZ@CAELT@SABO SLCB 160300@CAELT@METAR SLCB 160300Z 12009KT 9999 NSC 20/06 Q1020 A3013 747.8 HR40 FU@CAELT@NOSIG=@CAELT@
ZPX0095 160353@CAELT@GG SLZZYMYT@CAELT@160354 SLVRYGYZ@CAELT@SABO SLVR 160400@CAELT@METAR SLVR 160400Z 02004KT 9999 FEW007 SCT200 23/22 Q1009 A2980 HR95@CAELT@AC NOSIG=@CAELT@
ZPX0096 160357@CAELT@GG SLLPZRZX@CAELT@160356 SLLPYGYZ@CAELT@SABO SLLP 160400@CAELT@METAR SLLP 160400Z 10009KT 9999 FEW010 BKN200 07/05 Q1034 A3056@CAELT@625.9 HR86 NOSIG=@CAELT@
ZPX0097 160358@CAELT@GG SLZZYMYT@CAELT@160358 SLCBYGYZ@CAELT@SABO SLCB 160400@CAELT@METAR SLCB 160400Z 12008KT 9999 FEW036CB 19/06 Q1020 A3014 748.1 HR42@CAELT@CB/LT DIST/NE FU NOSIG=@CAELT@
ZPX0105 160453@CAELT@GG SLZZYMYT@CAELT@160453 SLVRYGYZ@CAELT@SABO SLVR 160500@CAELT@METAR SLVR 160500Z 34007KT 9999 FEW007 SCT200 23/22 Q1009 A2980 HR95@CAELT@NOSIG=@CAELT@
ZPX0106 160456@CAELT@GG SLLPZRZX@CAELT@160455 SLLPYGYZ@CAELT@SABO SLLP 160500@CAELT@METAR SLLP 160500Z 07007KT 4000E VCFG FEW003 BKN200 06/05 Q1034 A3056@CAELT@625.9 HR93 VCFG NE/E/SE NOSIG=@CAELT@
ZPX0107 160457@CAELT@GG SLZZYMYT@CAELT@160457 SLCBYGYZ@CAELT@SABO SLCB 160500@CAELT@METAR SLCB 160500Z 13006KT 9999 FEW036CB 18/06 Q1020 A3015 748.2 HR43@CAELT@CB/LT DIST/E NOSIG=@CAELT@
ZPX0118 160556@CAELT@GG SLLPZRZX@CAELT@160555 SLLPYGYZ@CAELT@SABO SLLP 160600@CAELT@METAR SLLP 160600Z 11008KT 4000E VCFG FEW003 SCT010 FEW017CB BKN200@CAELT@06/05 Q1034 A3055 625.6 HR93 VCFG NE/E/SE CB/LT N AC NOSIG=@CAELT@
ZPX0119 160558@CAELT@GG SLZZYMYT@CAELT@160557 SLCBYGYZ@CAELT@SABO SLCB 160600@CAELT@METAR SLCB 160600Z 14008KT 9999 NSC 18/05 Q1020 A3014 748.0 HR43@CAELT@NOSIG=@CAELT@
ZPX0122 160608@CAELT@GG SLZZYMYT@CAELT@160607 SLVRYGYU@CAELT@SABO SLVR 160600@CAELT@METAR SLVR 160600Z 24004KT 9999 FEW007 SCT200 22/22 Q1009@CAELT@A2980 HR96 AC NOSIG=@CAELT@
ZPX0130 160656@CAELT@GG SLZZYMYT@CAELT@160656 SLVRYGYZ@CAELT@SABO SLVR 160700@CAELT@METAR SLVR 160700Z 35005KT 9999 FEW013 FEW030CB BKN200 22/22 Q1009@CAELT@A2980 HR97 CB/LT DIST W AC NOSIG=@CAELT@
ZPX0131 160658@CAELT@GG SLLPZRZX@CAELT@160656 SLLPYGYZ@CAELT@SABO SLLP 160700@CAELT@METAR SLLP 160700Z 09006KT 4000E VCFG FEW003 FEW017CB SCT200 06/05@CAELT@Q1034 A3054 625.4 HR94 VCFG NE/E/SE CB/LT N NOSIG=@CAELT@
ZPX0132 160658@CAELT@GG SLZZYMYT@CAELT@160658 SLCBYGYZ@CAELT@SABO SLCB 160700@CAELT@METAR SLCB 160700Z 13004KT 9999 FEW070 17/07 Q1020 A3014 747.9 HR48@CAELT@NOSIG=@CAELT@
ZPX0143 160753@CAELT@GG SLZZYMYT@CAELT@160753 SLVRYGYZ@CAELT@SABO SLVR 160800@CAELT@METAR SLVR 160800Z 35006KT 9999 BKN007 22/21 Q1009 A2980 HR94 NOSIG=@CAELT@
ZPX0144 160755@CAELT@GG SLZZYMYT@CAELT@160755 SLCBYGYZ@CAELT@SABO SLCB 160800@CAELT@METAR SLCB 160800Z 12005KT 9999 FEW036 SCT070 18/08 Q1021 A3015 748.4@CAELT@HR51 NOSIG=@CAELT@
ZPX0145 160757@CAELT@GG SLLPZRZX@CAELT@160756 SLLPYGYZ@CAELT@SABO SLLP 160800@CAELT@METAR SLLP 160800Z 11006KT 4000E VCFG FEW003 SCT010 BKN200 06/05@CAELT@Q1034 A3054 625.4 HR91 VCFG NE/E/SE/S NOSIG=@CAELT@
ZPX0158 160853@CAELT@GG SLZZYMYT@CAELT@160851 SLPSYGYS@CAELT@SABO SLPS 160900@CAELT@METAR SLPS 160900Z 00000KT 9999 NSC 24/23 Q1012 A2989 HR95=@CAELT@
ZPX0159 160853@CAELT@GG SLZZYMYT@CAELT@160853 SLVRYGYZ@CAELT@SABO SLVR 160900@CAELT@METAR SLVR 160900Z 35006KT 9999 BKN007 22/21 Q1009 A2980 HR95 NOSIG=@CAELT@
ZPX0160 160855@CAELT@GG SLZZYMYT@CAELT@160853 SLETYMYC@CAELT@SABO SLET 160900@CAELT@METAR SLET 160900Z 33012KT 9999 BKN007 BKN012 23/22 Q1009 A2981 HR95@CAELT@NOSIG=@CAELT@
ZPX0161 160855@CAELT@GG SLZZYMYT@CAELT@160855 SLTRYGYZ@CAELT@SABO SLTR 160900@CAELT@METAR SLTR 160900Z 00000KT 9999 SCT080 BKN200 24/23 Q1009 A2981@CAELT@990.9 HR98 NOSIG=@CAELT@
ZPX0162 160858@CAELT@GG SLZZYMYT@CAELT@160857 SLCBYGYZ@CAELT@SABO SLCB 160900@CAELT@METAR SLCB 160900Z 13006KT 9999 FEW036 SCT070 17/08 Q1021 A3018 749.0@CAELT@HR56 NOSIG=@CAELT@
ZPX0163 160858@CAELT@GG SLLPZRZX@CAELT@160856 SLLPYGYZ@CAELT@SABO SLLP 160900@CAELT@METAR SLLP 160900Z 14004KT 4000E VCFG FEW003 SCT010 BKN200 07/05@CAELT@Q1034 A3054 625.4 HR90 VCFG NE/E/SE/S NOSIG=@CAELT@
ZPX0164 160859@CAELT@GG SLZZYMYT@CAELT@160859 SLTRYGYS@CAELT@SABO SLTR 160900@CAELT@METAR SLTR 160900Z 00000KT 9999 SCT080 BKN200 24/23 Q1009 A2981@CAELT@990.9 HR98 NOSIG=@CAELT@METAR SLRI 160900Z 36010KT 9999 SCT005 FEW020CB BKN200 23/23@CAELT@Q1010 A2983 HR98 CB SW/NW=@CAELT@
ZPX0187 160951@CAELT@GG SLZZYMYT@CAELT@160952 SLETYMYC@CAELT@SABO SLET 151000@CAELT@METAR SLET 151000Z 33012KT 9999 BKN007 BKN012 23/22 Q1010 A2984 HR93@CAELT@NOSIG=@CAELT@
ZPX0188 160953@CAELT@GG SLZZYMYT@CAELT@160953 SLVRYGYZ@CAELT@SABO SLVR 161000@CAELT@METAR SLVR 161000Z 34007KT 9999 BKN007 BKN017 22/21 Q1010 A2983 HR95@CAELT@NOSIG=@CAELT@
ZPX0189 160954@CAELT@GG SLZZYMYT@CAELT@160953 SLPSYGYS@CAELT@SABO SLPS 161000@CAELT@METAR SLPS 161000Z 00000KT 9999 NSC 25/24 Q1012 A2989 HR92 CI=@CAELT@
ZPX0190 160954@CAELT@GG SLZZYMYT@CAELT@160954 SLCAYGYS@CAELT@SABO SLCA 161000@CAELT@METAR SLCA 161000Z 00000KT 9999 SCT070 21/19 Q1013 A2991 HR86 RWY NML@CAELT@
ZPX0192 160954@CAELT@GG SLZZYMYT@CAELT@160953 SLSAYGYS@CAELT@SABO SLSA 161000@CAELT@METAR SLSA 161000Z 00000KT 9999 BKN070 24/24 Q1008 A2979 HR98=@CAELT@
ZPX0193 160955@CAELT@GG SLZZYMYT@CAELT@160953 SLRBYGYS@CAELT@SABO SLRB 161000@CAELT@METAR SLRB 161000Z 00000KT 9999 FEW070 25/22 Q1012 A2988 HR88 RWY NML=@CAELT@
ZPX0194 160955@CAELT@GG SLZZYMYT@CAELT@160955 SLSBYSYX@CAELT@SABO SLSB 161000@CAELT@METAR SLSB 161000Z 00000KT 9999 BKN080 24/24 Q1009 A2982 HR98 RWY NML=@CAELT@
ZPX0195 160955@CAELT@GG SLZZYMYT@CAELT@160955 SLCBYGYZ@CAELT@SABO SLCB 161000@CAELT@METAR SLCB 161000Z 19003KT 9999 FEW036 SCT070 15/07 Q1022 A3020 749.5@CAELT@HR61 CI FU NOSIG=@CAELT@
ZPX0196 160956@CAELT@GG SLZZYMYT@CAELT@160955 SLVRYFYC@CAELT@SABO SLVR 161000@CAELT@METAR SLVR 161000Z 34007KT 9999 BKN007 BKN017 22/21 Q1010 A2983@CAELT@HR95 NOSIG=@CAELT@METAR SLET 151000Z 33012KT 9999 BKN007 BKN012 23/22 Q1010 A2984@CAELT@HR93 NOSIG=@CAELT@METAR SLCP 161000Z 00000KT 9999 NSC 22/21 Q1014 A2994 HR97 RWY NML=METAR SLSI 161000Z 00000KT 9999 NSC 22/22 Q1011 A2985 HR98CI RWY NML=METAR SLRB 161000Z 00000KT 9999 FEW070 25/22 Q1012 A2988 HR88RWY NML=METAR SLPS 161000Z 00000KT 9999 NSC 25/24 Q1012 A2989 HR92 CI=METAR SLCA 161000Z 00000KT 9999 SCT070 21/19 Q1013 A2991 HR86
ZPX0197 160956@CAELT@GG SLZZYMYT@CAELT@160956 SLLPYFYA@CAELT@SABO SLRY 161000@CAELT@METAR SLRY 161000Z 00000KT 9999 FEW015 BKN025 23/23 Q1007@CAELT@A2976 HR98 RWY HUM OPR=@CAELT@
ZPX0198 160957@CAELT@GG SLZZYMYT@CAELT@160955 SLUYYGYS@CAELT@SABO SLUY 161000@CAELT@METAR SLUY 161000Z 00000KT 9999 FEW070 M02/M09 Q1031 A3047@CAELT@656.7 HR60 CI=@CAELT@
ZPX0199 160957@CAELT@GG SLZZYMYT@CAELT@160956 SLLPYGYZ@CAELT@SABO SLLP 161000@CAELT@METAR SLLP 161000Z 10006KT 060V120 4000E VCFG FEW003 BKN012 BKN200 07@CAELT@/06 Q1035 A3058 626.3 HR92 P92// VCFG NE/E/SE NOSIG=@CAELT@
ZPX0201 160958@CAELT@GG SLZZYMYT@CAELT@160957 SLTRYGYZ@CAELT@SABO SLTR 161000@CAELT@METAR SLTR 161000Z 00000KT 9999 SCT080 BKN200 24/23 Q1010 A2983@CAELT@991.7 HR98 NOSIG=@CAELT@
ZPX0203 161000@CAELT@GG SLZZYMYT@CAELT@160959 SLCOYGYZ@CAELT@SABO SLCO 161000@CAELT@METAR SLCO 161000Z 05003KT 6000 -TSRA FEW017 FEW023CB OVC080 23/23@CAELT@Q1010 A2982 982.6 HR100 CB/TS/N/NE/S=@CAELT@
ZPX0204 161000@CAELT@GG SLZZYMYT@CAELT@160959 SLTRYGYS@CAELT@SABO SLTR 161000@CAELT@METAR SLTR 161000Z 00000KT 9999 SCT080 BKN200 24/23 Q1010 A2983@CAELT@991.7 HR98 NOSIG=@CAELT@METAR SLGM 161000Z 00000KT 9999 SCT008 FEW020CB BKN080 24/23@CAELT@Q1010 A2983 HR92 CB N=@CAELT@METAR SLRI 161000Z 36008KT 9999 SCT005 FEW020CB BKN200 23/23Q1011 A2986 HR98 CB SW/NW=METAR SLJO 161000Z NIL=METAR SLRA 161000Z 00000KT 9999 BKN080 24/23 Q1009 A2982 HR95RWY NML=METAR SLMG 161000Z 00000KT 9999 BKN080 24/23 Q1009 A2981 HR95METAR SLBU 161000Z NIL=METAR SLSA 161000Z 00000KT 9999 BKN070 24/24 Q1008 A2979 HR98=METAR SLSR 161000Z 00000KT 9999 FEW017 FEW023CB BKN080 24/23Q1008 A2977 HR95 CB SW/W RWY NML=METAR SLSM 161000Z 00000KT 9999 BKN080 23/22 Q1009 A2987 HR97
ZPX0205 161000@CAELT@GG SLZZYMYT@CAELT@161000 SLCBYGYS@CAELT@SABO SLCB 161000@CAELT@METAR SLCB 161000Z 19003KT 9999 FEW036 SCT070 15/07 Q1022 A3020 749.5@CAELT@HR61 CI FU NOSIG=@CAELT@METAR SLAL 161000Z 36004KT 9999 2000N VCFG FEW005 SCT070 11/10 Q1027@CAELT@A3033 702.3 HR94 VCFG N/NE/E=@CAELT@METAR SLPO 161000Z NIL=METAR SLAG 161000Z NIL=METAR SLVM 161000Z 00000KT 9999 FEW030 20/20 Q1008 A2978 HR98 CI=METAR SLTJ 161000Z NIL=METAR SLYA 161000Z NIL=METAR SLBJ 161000Z NIL=METAR SLHI 161000Z NIL=
ZPX0206 161001@CAELT@GG SLZZYMYT@CAELT@160959 SLLPYFYA@CAELT@SABO SLLP 161000@CAELT@METAR SLLP 161000Z 10006KT 060V120 4000E VCFG FEW003 BKN012@CAELT@BKN200 07/06 Q1035 A3058 626.3 HR92 P92// VCFG NE/E/SE NOSIG=@CAELT@METAR SLCO 161000Z 05003KT 6000 -TSRA FEW017 FEW023CB OVC080@CAELT@23/23 Q1010 A2982 982.6 HR100 CB/TS/N/NE/S=@CAELT@METAR SLRY 161000Z 00000KT 9999 FEW015 BKN025 23/23 Q1007A2976 HR98 RWY HUM OPR=METAR SLRQ 161000Z 00000KT 9999 BKN008 BKN070 24/24 Q1009A2980 985.2 HR98 REDZ=METAR SLAP 161000Z 00000KT 9999 FEW015 18/17 Q1016 A3001857.2 HR93 CI=METAR SLSB 161000Z 00000KT 9999 BKN080 24/24 Q1009 A2982 HR98RWY NML=METAR SLUY 161000Z 00000KT 9999 FEW070 M02/M09 Q1031 A3047656.7 HR60 CI=
ZPX0216 161027@CAELT@GG SLZZYMYT@CAELT@161025 SLTRYGYS@CAELT@SABO SLTR 161000 RRA@CAELT@METAR SLTR 161000Z 00000KT 9999 SCT080 BKN200 24/23 Q1010 A2983@CAELT@991.7 HR98 NOSIG=@CAELT@METAR SLGM 161000Z 00000KT 9999 SCT008 FEW020CB BKN080 24/23@CAELT@Q1010 A2983 HR92 CB N=@CAELT@METAR SLRI 161000Z 36008KT 9999 SCT005 FEW020CB BKN200 23/23Q1011 A2986 HR98 CB SW/NW=METAR RTD SLJO 161000Z 00000KT 9999 FEW017 FEW023CB BKN08024/23 Q1009 A2981 HR95 CB NW RWY NML=METAR SLRA 161000Z 00000KT 9999 BKN080 24/23 Q1009 A2982 HR95RWY NML=METAR SLMG 161000Z 00000KT 9999 BKN080 24/23 Q1009 A2981 HR95METAR SLBU 161000Z NIL=METAR SLSA 161000Z 00000KT 9999 BKN070 24/24 Q1008 A2979 HR98=METAR SLSR 161000Z 00000KT 9999 FEW017 FEW023CB BKN080 24/23Q1008 A2977 HR95 CB SW/W RWY NML=METAR SLSM 161000Z 00000KT 9999 BKN080 23/22 Q1009 A2987 HR97
ZPX0225 161051@CAELT@GG SLZZYMYT@CAELT@161045 SLETYMYC@CAELT@SABO SLET 161100@CAELT@METAR SLET 161100Z 33015KT 9999 BKN007 BKN012 24/22 Q1010 A2985 HR92@CAELT@NOSIG=@CAELT@
ZPX0226 161051@CAELT@GG SLZZYMYT@CAELT@161050 SLPSYGYS@CAELT@SABO SLPS 161100@CAELT@METAR SLPS 161100Z 00000KT 9999 NSC 27/24 Q1012 A2989 HR87 CI=@CAELT@
ZPX0227 161051@CAELT@GG SLZZYMYT@CAELT@161051 SLCAYGYS@CAELT@SABO SLCA 161100@CAELT@METAR SLCA 161100Z 00000KT 9999 FEW070 22/18 Q1014 A2994 HR80 RWY NML@CAELT@
ZPX0228 161054@CAELT@GG SLZZYMYT@CAELT@161054 SLORYGYZ@CAELT@SABO SLOR 161100@CAELT@METAR SLOR 161100Z 09003KT 9999 FEW017 09/00 Q1033 A3051 654.7 HR54@CAELT@FU E/S/SW/NW CI=@CAELT@
ZPX0229 161054@CAELT@GG SLZZYMYT@CAELT@161053 SLRBYGYS@CAELT@SABO SLRB 161100@CAELT@METAR SLRB 161100Z 00000KT 9999 FEW070 25/23 Q1012 A2988 HR86 RWY NML=@CAELT@
ZPX0232 161055@CAELT@GG SLZZYMYT@CAELT@161048 SLUYYGYS@CAELT@SABO SLUY 161100@CAELT@METAR SLUY 161100Z 00000KT 9999 4000SE HZ FEW070 03/M10 Q1032@CAELT@A3049 657.3 HR38 HZ SE/S/SW=@CAELT@
ZPX0233 161055@CAELT@GG SLZZYMYT@CAELT@161056 SLVRYGYZ@CAELT@SABO SLVR 161100@CAELT@METAR SLVR 161100Z 34009KT 9999 BKN007 BKN017 23/22 Q1010 A2984 HR92@CAELT@NOSIG=@CAELT@
ZPX0234 161056@CAELT@GG SLZZYMYT@CAELT@161055 SLSAYGYS@CAELT@SABO SLSA 161100@CAELT@METAR SLSA 161100Z 33006KT 9999 SCT070 25/24 Q1009 A2980 HR94=@CAELT@
ZPX0235 161056@CAELT@GG SLZZYMYT@CAELT@161055 SLSBYSYX@CAELT@SABO SLSB 161100@CAELT@METAR SLSB 161100Z 00000KT 9999 SCT080 25/23 Q1010 A2985 HR92 RWY NML=@CAELT@
ZPX0236 161056@CAELT@GG SLZZYMYT@CAELT@161055 SLCOYGYZ@CAELT@SABO SLCO 161100@CAELT@METAR SLCO 161100Z 08005KT 5000 -TSRA FEW003 SCT017 FEW023CB OVC080@CAELT@23/23 Q1012 A2989 984.7 HR100 CB/TS/N/NE=@CAELT@
ZPX0237 161057@CAELT@GG SLZZYMYT@CAELT@161056 SLLPYGYZ@CAELT@SABO SLLP 161100@CAELT@METAR SLLP 161100Z 12007KT 4000E VCFG FEW003 SCT012 BKN200 08/06@CAELT@Q1036 A3060 626.8 HR88 P92// VCFG N/NE/E/SE AC NOSIG=@CAELT@
ZPX0238 161057@CAELT@GG SLZZYMYT@CAELT@161056 SLCBYGYZ@CAELT@SABO SLCB 161100@CAELT@METAR SLCB 161100Z 00000KT 9999 FEW036 17/08 Q1023 A3022 750.1 HR55@CAELT@FU AC CI NOSIG=@CAELT@
ZPX0239 161057@CAELT@GG SLZZYMYT@CAELT@161056 SLVRYFYC@CAELT@SABO SLVR 161100@CAELT@METAR SLVR 161100Z 34009KT 9999 BKN007 BKN017 23/22 Q1010 A2984@CAELT@HR92 NOSIG=@CAELT@METAR SLET 161100Z 33015KT 9999 BKN007 BKN012 24/22 Q1010 A2985@CAELT@METAR SLAS 161100Z 00000KT 9999 NSC 23/22 Q1013 A2991 HR91@CAELT@RWY WET OPR=METAR SLJV 161100Z 36005KT 9999 NSC 23/22 Q1011 A2985 HR97RWY NML=METAR SLCP 161100Z 00000KT 9999 NSC 23/22 Q1015 A2997 HR92CI RWY NML=METAR SLSI 161100Z 00000KT 9999 NSC 24/23 Q1013 A2991 HR92METAR SLTI 161100Z 00000KT 9999 NSC 24/24 Q1015 A2997 HR95 RWY NML=METAR SLJE 161100Z 00000KT 9999 NSC 26/23 Q1014 A2994 HR86 RWY NML=METAR SLVG 161100Z 36004KT 9999 OVC013 16/15 Q1022 A3018 HR95RWY HUM OPR=METAR SLRB 161100Z 00000KT 9999 FEW070 25/23 Q1012 A2988 HR86METAR SLPS 161100Z 00000KT 9999 NSC 27/24 Q1012 A2989 HR87 CI=METAR SLCA 161100Z 00000KT 9999 FEW070 22/18 Q1014 A2994 HR80
ZPX0240 161057@CAELT@GG SLZZYMYT@CAELT@161057 SLTRYGYZ@CAELT@SABO SLTR 161100@CAELT@METAR SLTR 161100Z 36004KT 9999 FEW080 SCT200 25/24 Q1010 A2985@CAELT@992.2 HR94 NOSIG=@CAELT@
ZPX0241 161058@CAELT@GG SLZZYMYT@CAELT@161057 SLTJYGYZ@CAELT@SABO SLTJ 161100@CAELT@METAR SLTJ 161100Z 00000KT 9999 FEW023 BKN070 18/14 Q1019 A3011 814.5@CAELT@HR81=@CAELT@
ZPX0242 161058@CAELT@GG SLZZYMYT@CAELT@161056 SLAGYSYX@CAELT@SABO SLAG 161100@CAELT@METAR SLAG 161100Z 00000KT 9999 FEW070 23/19 Q1015 A2999 887.9 HR78@CAELT@CI FU=@CAELT@
ZPX0244 161100@CAELT@GG SLZZYMYT@CAELT@161059 SLLPYFYA@CAELT@SABO SLLP 161100@CAELT@METAR SLLP 161100Z 12007KT 4000E VCFG FEW003 SCT012 BKN200 08/06@CAELT@Q1036 A3060 626.8 HR88 P92// VCFG N/NE/E/SE AC NOSIG=@CAELT@METAR SLCO 161100Z 08005KT 5000 -TSRA FEW003 SCT017 FEW023CB@CAELT@OVC080 23/23 Q1012 A2989 984.7 HR100 CB/TS/N/NE=@CAELT@METAR SLRY 161100Z 00000KT 9999 SCT016 BKN079 23/23 Q1008 A2979HR98 RWY HUM OPR=METAR SLRQ 161100Z 00000KT 9999 SCT008 BKN025 24/24 Q1010 A2984986.4 HR97=METAR SLSB 161100Z 00000KT 9999 SCT080 25/23 Q1010 A2985 HR92RWY NML=METAR SLAP 161100Z 36005KT 9999 FEW015 20/17 Q1016 A3001 857.2HR86 CI=METAR SLOR 161100Z 09003KT 9999 FEW017 09/00 Q1033 A3051 654.7HR54 FU E/S/SW/NW CI=METAR SLUY 161100Z 00000KT 9999 4000SE HZ FEW070 03/M10 Q1032A3049 657.3 HR38 HZ SE/S/SW=
ZPX0246 161100@CAELT@GG SLZZYMYT@CAELT@161100 SLTRYGYS@CAELT@SABO SLTR 161100@CAELT@METAR SLTR 161100Z 36004KT 9999 FEW080 SCT200 25/24 Q1010 A2985@CAELT@992.2 HR94 NOSIG=@CAELT@METAR SLGM 161100Z 00000KT 9999 SCT008 FEW020CB BKN080 24/23 Q1010@CAELT@A2985 HR91 CB N=@CAELT@METAR SLRI 161100Z NIL=METAR SLJO 161100Z 34004KT 9999 FEW017 BKN080 24/23 Q1010 A2984 HR92RWY NML=METAR SLRA 161100Z 36004KT 9999 BKN080 25/23 Q1010 A2983 HR88METAR SLMG 161100Z 00000KT 9999 SCT080 24/23 Q1010 A2984 HR94METAR SLBU 161100Z NIL=METAR SLSA 161100Z 33006KT 9999 SCT070 25/24 Q1009 A2980 HR94=METAR SLSR 161100Z 00000KT 9999 FEW017 FEW023CB BKN080 24/23 Q1009A2980 HR94 CB S/W/NW RWY NML=METAR SLSM 161100Z 00000KT 9999 BKN080 23/23 Q1010 A2984 HR97
ZPX0247 161101@CAELT@GG SLZZYMYT@CAELT@161100 SLTRYGYS@CAELT@SABO SLTR 161100@CAELT@METAR SLTR 161100Z 36004KT 9999 FEW080 SCT200 25/24 Q1010 A2985@CAELT@992.2 HR94 NOSIG=@CAELT@METAR SLGM 161100Z 00000KT 9999 SCT008 FEW020CB BKN080 24/23 Q1010@CAELT@A2985 HR91 CB N=@CAELT@METAR SLRI 161100Z NIL=METAR SLJO 161100Z 34004KT 9999 FEW017 BKN080 24/23 Q1010 A2984 HR92RWY NML=METAR SLRA 161100Z 36004KT 9999 BKN080 25/23 Q1010 A2983 HR88METAR SLMG 161100Z 00000KT 9999 SCT080 24/23 Q1010 A2984 HR94METAR SLBU 161100Z NIL=METAR SLSA 161100Z 33006KT 9999 SCT070 25/24 Q1009 A2980 HR94=METAR SLSR 161100Z 00000KT 9999 FEW017 FEW023CB BKN080 24/23 Q1009A2980 HR94 CB S/W/NW RWY NML=METAR SLSM 161100Z 00000KT 9999 BKN080 23/23 Q1010 A2984 HR97
ZPX0248 161101@CAELT@GG SLZZYMYT@CAELT@161100 SLTRYGYS@CAELT@SABO SLTR 161100@CAELT@METAR SLTR 161100Z 36004KT 9999 FEW080 SCT200 25/24 Q1010 A2985@CAELT@992.2 HR94 NOSIG=@CAELT@METAR SLGM 161100Z 00000KT 9999 SCT008 FEW020CB BKN080 24/23 Q1010@CAELT@A2985 HR91 CB N=@CAELT@METAR SLRI 161100Z NIL=METAR SLJO 161100Z 34004KT 9999 FEW017 BKN080 24/23 Q1010 A2984 HR92RWY NML=METAR SLRA 161100Z 36004KT 9999 BKN080 25/23 Q1010 A2983 HR88METAR SLMG 161100Z 00000KT 9999 SCT080 24/23 Q1010 A2984 HR94METAR SLBU 161100Z NIL=METAR SLSA 161100Z 33006KT 9999 SCT070 25/24 Q1009 A2980 HR94=METAR SLSR 161100Z 00000KT 9999 FEW017 FEW023CB BKN080 24/23 Q1009A2980 HR94 CB S/W/NW RWY NML=METAR SLSM 161100Z 00000KT 9999 BKN080 23/23 Q1010 A2984 HR97
ZPX0249 161102@CAELT@GG SLZZYMYT@CAELT@161102 SLTRYGYS@CAELT@SABO SLTR 161100 RRA@CAELT@METAR SLTR 161100Z 36004KT 9999 FEW080 SCT200 25/24 Q1010 A2985@CAELT@992.2 HR94 NOSIG=@CAELT@METAR SLGM 161100Z 00000KT 9999 SCT008 FEW020CB BKN080 24/23 Q1010@CAELT@A2985 HR91 CB N=@CAELT@METAR RTD SLRI 161100Z 36008KT 9999 SCT006 BKN080 24/23 Q1012 A2989HR98=METAR SLJO 161100Z 34004KT 9999 FEW017 BKN080 24/23 Q1010 A2984 HR92RWY NML=METAR SLRA 161100Z 36004KT 9999 BKN080 25/23 Q1010 A2983 HR88METAR SLMG 161100Z 00000KT 9999 SCT080 24/23 Q1010 A2984 HR94METAR SLBU 161100Z NIL=METAR SLSA 161100Z 33006KT 9999 SCT070 25/24 Q1009 A2980 HR94=METAR SLSR 161100Z 00000KT 9999 FEW017 FEW023CB BKN080 24/23 Q1009A2980 HR94 CB S/W/NW RWY NML=METAR SLSM 161100Z 00000KT 9999 BKN080 23/23 Q1010 A2984 HR97
ZPX0250 161103@CAELT@GG SLZZYMYT@CAELT@161102 SLCBYGYS@CAELT@SABO SLCB 161100@CAELT@METAR SLCB 161100Z 00000KT 9999 FEW036 17/08 Q1023 A3022 750.1 HR55@CAELT@FU AC CI NOSIG=@CAELT@METAR SLAL 161100Z 35006KT 9999 FEW008 SCT070 12/10 Q1028 A3036 703.1@CAELT@HR90=@CAELT@METAR SLPO 161100Z 00000KT 9999 FEW013 09/06 Q1035 A3056 636.1 HR83=METAR SLAG 161100Z 00000KT 9999 FEW070 23/19 Q1015 A2999 887.9 HR78CI FU=METAR SLVM 161100Z 00000KT 9999 FEW030 22/21 Q1009 A2982 HR95 CI=METAR SLTJ 161100Z 00000KT 9999 FEW023 BKN070 18/14 Q1019 A3011 814.5HR81=METAR SLYA 161100Z 00000KT 9999 BKN070 19/19 Q1010 A2985 935.7 HR97=METAR SLBJ 161100Z NIL=METAR SLHI 161100Z NIL=
ZPX0283 161151@CAELT@GG SLZZYMYT@CAELT@161151 SLVRYGYZ@CAELT@SABO SLVR 161200@CAELT@METAR SLVR 161200Z 34012KT 9999 BKN009 BKN017 25/23 Q1011 A2986 HR87@CAELT@NOSIG=@CAELT@
ZPX0287 161154@CAELT@GG SLZZYMYT@CAELT@161152 SLPSYGYS@CAELT@SABO SLPS 161200@CAELT@METAR SLPS 161200Z 00000KT 9999 NSC 29/25 Q1010 A2983 HR80 CI=@CAELT@
ZPX0288 161154@CAELT@GG SLZZYMYT@CAELT@161154 SLCAYGYS@CAELT@SABO SLCA 161200@CAELT@METAR SLCA 161200Z 00000KT 9999 NSC 25/19 Q1014 A2994 HR70 RWY NML=@CAELT@
ZPX0290 161155@CAELT@GG SLZZYMYT@CAELT@161154 SLRBYGYS@CAELT@SABO SLRB 161200@CAELT@METAR SLRB 161200Z 00000KT 9999 FEW070 29/24 Q1013 A2991 HR72 RWY NML=@CAELT@
ZPX0291 161155@CAELT@GG SLZZYMYT@CAELT@161155 SLORYGYZ@CAELT@SABO SLOR 161200@CAELT@METAR SLOR 161200Z 19003KT 9999 FEW017 12/01 Q1033 A3053 655.1 HR48@CAELT@FU S/SW CI=@CAELT@
ZPX0293 161156@CAELT@GG SLZZYMYT@CAELT@161116 SLETYMYC@CAELT@SABO SLET 161200@CAELT@METAR SLET 161200Z 32014KT 9999 SCT010 BKN015 25/22 Q1011 A2987 HR88@CAELT@NOSIG=@CAELT@
ZPX0294 161156@CAELT@GG SLZZYMYT@CAELT@161155 SLAGYSYX@CAELT@SABO SLAG 161200@CAELT@METAR SLAG 161200Z 00000KT 9999 FEW015 SCT070 26/19 Q1016 A3002 888.7@CAELT@HR69 CI FU=@CAELT@
ZPX0297 161157@CAELT@GG SLZZYMYT@CAELT@161155 SLTJYGYZ@CAELT@SABO SLTJ 161200@CAELT@METAR SLTJ 161200Z 00000KT 9999 FEW023 BKN070 19/14 Q1020 A3013 815.2@CAELT@HR74=@CAELT@
ZPX0298 161157@CAELT@GG SLZZYMYT@CAELT@161155 SLSAYGYS@CAELT@SABO SLSA 161200@CAELT@METAR SLSA 161200Z 33006KT 9999 FEW080 BKN200 26/24 Q1010 A2983 HR85=@CAELT@
ZPX0299 161157@CAELT@GG SLZZYMYT@CAELT@161152 SLUYYGYS@CAELT@SABO SLUY 161200@CAELT@METAR SLUY 161200Z 00000KT 9999 FEW070 10/M16 Q1033 A3052@CAELT@658.1 HR14=@CAELT@
ZPX0304 161158@CAELT@GG SLZZYMYT@CAELT@161157 SLTRYGYZ@CAELT@SABO SLTR 161200@CAELT@METAR SLTR 161200Z 34007KT 9999 NSC 27/24 Q1011 A2986 992.6@CAELT@HR84 CI NOSIG=@CAELT@
ZPX0305 161158@CAELT@GG SLZZYMYT@CAELT@161157 SLCBYGYZ@CAELT@SABO SLCB 161200@CAELT@METAR SLCB 161200Z 00000KT 9999 FEW036 21/08 Q1023 A3023 750.5 HR41@CAELT@FU AC CI NOSIG=@CAELT@
ZPX0307 161158@CAELT@GG SLZZYMYT@CAELT@161157 SLVRYFYC@CAELT@SABO SLVR 161200@CAELT@METAR SLVR 161200Z 34012KT 9999 BKN009 BKN017 25/23 Q1011@CAELT@A2986 HR87@CAELT@NOSIG=@CAELT@METAR SLET 161200Z 32014KT 9999 SCT010 BKN015 25/22 Q1011@CAELT@A2987 HR88METAR SLAS 161200Z 00000KT 9999 NSC 27/24 Q1013 A2992 HR85RWY WET OPR=METAR SLJV 161200Z 36005KT 9999 NSC 25/23 Q1011 A2985 HR92 RWY NML=METAR SLCP 161200Z 35006KT 9999 NSC 25/22 Q1015 A2997 HR88CI RWY NML=METAR SLSI 161200Z 33006KT 9999 NSC 26/23 Q1013 A2991 HR81RWY NML=METAR SLTI 161200Z 00000KT 9999 NSC 28/24 Q1015 A2997 HR79METAR SLJE 161200Z 00000KT 9999 NSC 28/23 Q1014 A2994 HR78METAR SLVG 161200Z 00000KT 9999 BKN015 BKN070 16/15 Q1023 A3021HR90 RWY HUM OPR=METAR SLRB 161200Z 00000KT 9999 FEW070 29/24 Q1013 A2991 HR72METAR SLPS 161200Z 00000KT 9999 NSC 29/25 Q1010 A2983 HR80 CI=METAR SLCA 161200Z 00000KT 9999 NSC 25/19 Q1014 A2994 HR70
ZPX0309 161158@CAELT@GG SLZZYMYT@CAELT@161158 SLCOYGYZ@CAELT@SABO SLCO 161200@CAELT@METAR SLCO 161200Z 04008KT 3000 -RA BKN004 FEW023CB OVC080 23/23@CAELT@Q1013 2992 985.8 HR100 CB/N/NW RETS=@CAELT@
ZPX0310 161158@CAELT@GG SLZZYMYT@CAELT@161156 SLLPYGYZ@CAELT@SABO SLLP 161200@CAELT@METAR SLLP 161200Z 11007KT 4000E VCFG FEW003 SCT012 BKN200 09/05@CAELT@Q1037 A3063 627.5 HR79 P92// VCFG N/NE/E/SE AC NOSIG=@CAELT@
ZPX0313 161200@CAELT@GG SLZZYMYT@CAELT@161159 SLCBYGYS@CAELT@SABO SLCB 161200@CAELT@METAR SLCB 161200Z 00000KT 9999 FEW036 21/08 Q1023 A3023 750.5 HR41@CAELT@FU AC CI NOSIG=@CAELT@METAR SLAL 161200Z 01005KT 9999 SCT012 14/10 Q1029 A3038 703.5 HR76=@CAELT@METAR SLPO 161200Z 00000KT 9999 FEW015 11/06 Q1035 A3058 636.4 HR72=@CAELT@METAR SLAG 161200Z 00000KT 9999 FEW015 SCT070 26/19 Q1016 A3002 888.7HR69 CI FU=METAR SLVM 161200Z 00000KT 9999 SCT070 24/22 Q1010 A2985 HR90 CI=METAR SLTJ 161200Z 00000KT 9999 FEW023 BKN070 19/14 Q1020 A3013 815.2HR74=METAR SLYA 161200Z 00000KT 9999 SCT025 BKN070 21/19 Q1012 A2989 936.8HR92=METAR SLBJ 161200Z NIL=METAR SLHI 161200Z NIL=
ZPX0314 161200@CAELT@GG SLZZYMYT@CAELT@161159 SLTRYGYS@CAELT@SABO SLTR 161200@CAELT@METAR SLTR 161200Z 34007KT 9999 NSC 27/24 Q1011 A2986 992.6 HR84 CI@CAELT@NOSIG=@CAELT@METAR SLGM 161200Z 36005KT 9999 FEW008 SCT020 FEW023CB BKN080 25/23@CAELT@Q1011 A2987 HR89 CB N=@CAELT@METAR SLRI 161200Z 36006KT 9999 SCT006 BKN080 BKN200 25/24 Q1013A2992 HR94=METAR SLJO 161200Z 32010KT 9999 FEW017 SCT080 27/23 Q1010 A2985 HR82RWY NML=METAR SLRA 161200Z 35006KT 9999 SCT080 27/23 Q1010 A2984 HR78METAR SLMG 161200Z 32006KT 9999 NSC 26/23 Q1011 A2987 HR84 CIMETAR SLBU 161200Z 32004KT 9999 SCT080 26/24 Q1010 A2984 HR90METAR SLSA 161200Z 33006KT 9999 FEW080 BKN200 26/24 Q1010 A2983 HR85=METAR SLSR 161200Z 32006KT 9999 FEW017 FEW023CB BKN080 25/24 Q1010A2983 HR92 CB W/NW RWY NML=METAR SLSM 161200Z 36004KT 9999 FEW080 25/24 Q1011 A2986 HR93
ZPX0316 161201@CAELT@GG SLZZYMYT@CAELT@161201 SLSBYSYX@CAELT@SABO SLSB 161200@CAELT@METAR SLSB 161200Z 36003KT 9999 SCT015 SCT080 26/D24 Q1011 A2987 HR87@CAELT@RWY NML=@CAELT@
ZPX0318 161203@CAELT@GG SLZZYMYT@CAELT@161203 SLSBYSYX@CAELT@SABO SLSB 161200@CAELT@METAR SLSB 161200Z 36003KT 9999 SCT015 SCT080 26/D24 Q1011 A2987 HR87@CAELT@RWY NML=@CAELT@
ZPX0319 161204@CAELT@GG SLZZYMYT@CAELT@161203 SLLPYFYA@CAELT@SABO SLRY 161200@CAELT@METAR SLRY 161200Z 00000KT 50000 VCSH SCT016 BKN070 24/24 Q1009 A2982@CAELT@HR87 SH N/NW RWY HUM OPR=@CAELT@
ZPX0322 161208@CAELT@GG SLZZYMYT@CAELT@161204 SLLPYFYA@CAELT@SABO SLLP 161200@CAELT@METAR SLLP 161200Z 11007KT 4000E VCFG FEW003 SCT012 BKN200 09/05@CAELT@Q1037 A3063 627.5 HR79 P92// VCFG N/NE/E/SE AC NOSIG=@CAELT@METAR SLCO 161200Z 04008KT 3000 -RA BKN004 FEW023CB OVC080 23/23@CAELT@Q1013 2992 985.8 HR100 CB/N/NW RETS=@CAELT@METAR SLRY 161200Z 00000KT 50000 VCSH SCT016 BKN070 24/24 Q1009A2982 HR87 SH N/NW RWY HUM OPR=METAR SLRQ 161200Z 00000KT 9999 BKN008 26/25 Q1011 A2986 987.2 HR95=METAR SLSB 161200Z 36003KT 9999 SCT015 SCT080 26/D24 Q1011 A2987 HR87RWY NML=METAR SLOR 161200Z 19003KT 9999 FEW017 12/01 Q1033 A3053 655.1 HR48FU S/SW CI=METAR SLUY 161200Z 00000KT 9999 FEW070 10/M16 Q1033 A3052658.1 HR14=
ZPX0324 161211@CAELT@GG SLZZYMYT@CAELT@161205 SLLPYFYA@CAELT@SABO SLLP 161200 RRA@CAELT@METAR SLLP 161200Z 11007KT 4000E VCFG FEW003 SCT012 BKN200 09/05@CAELT@Q1037 A3063 627.5 HR79 P92// VCFG N/NE/E/SE AC NOSIG=@CAELT@METAR SLCO 161200Z 04008KT 3000 -RA BKN004 FEW023CB OVC080 23/23@CAELT@Q1013 2992 985.8 HR100 CB/N/NW RETS=@CAELT@METAR SLRY 161200Z 00000KT 50000 VCSH SCT016 BKN070 24/24 Q1009A2982 HR87 SH N/NW RWY HUM OPR=METAR SLRQ 161200Z 00000KT 9999 BKN008 26/25 Q1011 A2986 987.2 HR95=METAR RTD SLAP 161200Z 36010KT 9999 SCT020 20/17 Q1017 A3003 857.7HR81CI=METAR SLSB 161200Z 36003KT 9999 SCT015 SCT080 26/D24 Q1011 A2987 HR87RWY NML=METAR SLOR 161200Z 19003KT 9999 FEW017 12/01 Q1033 A3053 655.1 HR48FU S/SW CI=METAR SLUY 161200Z 00000KT 9999 FEW070 10/M16 Q1033 A3052658.1 HR14=
ZPX0328 161215@CAELT@GG SLZZYMYT@CAELT@161210 SLLPYFYA@CAELT@SABO SLLP 161200 CCA@CAELT@METAR SLLP 161200Z 11007KT 4000E VCFG FEW003 SCT012 BKN200 09/05@CAELT@Q1037 A3063 627.5 HR79 P92// VCFG N/NE/E/SE AC NOSIG=@CAELT@METAR SLCO 161200Z 04008KT 3000 -RA BKN004 FEW023CB OVC080 23/23@CAELT@Q1013 2992 985.8 HR100 CB/N/NW RETS=@CAELT@METAR COR SLRY 161200Z 00000KT 5000 VCSH SCT016 BKN070 24/24 Q1009A2982 HR87 SH N/NW RWY HUM OPR=METAR SLRQ 161200Z 00000KT 9999 BKN008 26/25 Q1011 A2986 987.2 HR95=METAR RTD SLAP 161200Z 36010KT 9999 SCT020 20/17 Q1017 A3003 857.7HR81CI=METAR SLSB 161200Z 36003KT 9999 SCT015 SCT080 26/D24 Q1011 A2987 HR87RWY NML=METAR SLOR 161200Z 19003KT 9999 FEW017 12/01 Q1033 A3053 655.1 HR48FU S/SW CI=METAR SLUY 161200Z 00000KT 9999 FEW070 10/M16 Q1033 A3052658.1 HR14=
ZPX0340 161224@CAELT@GG SLZZYMYT@CAELT@161212 SLLPYFYA@CAELT@SABO SLRY 161200 CCA@CAELT@METAR SLRY 161200Z 00000KT 5000 VCSH SCT016 BKN070 24/24 Q1009 A2982@CAELT@HR97 SH N/NW RWY HUM OPR=@CAELT@
ZPX0342 161226@CAELT@GG SLZZYMYT@CAELT@161224 SLLPYFYA@CAELT@SABO SLLP 161200 CCB@CAELT@METAR SLLP 161200Z 11007KT 4000E VCFG FEW003 SCT012 BKN200 09/05@CAELT@Q1037 A3063 627.5 HR79 P92// VCFG N/NE/E/SE AC NOSIG=@CAELT@METAR SLCO 161200Z 04008KT 3000 -RA BKN004 FEW023CB OVC080 23/23@CAELT@Q1013 2992 985.8 HR100 CB/N/NW RETS=@CAELT@METAR COR SLRY 161200Z 00000KT 5000 VCSH SCT016 BKN070 24/24 Q1009A2982 HR97 SH N/NW RWY HUM OPR=METAR SLRQ 161200Z 00000KT 9999 BKN008 26/25 Q1011 A2986 987.2 HR95=METAR RTD SLAP 161200Z 36010KT 9999 SCT020 20/17 Q1017 A3003 857.7HR81CI=METAR SLSB 161200Z 36003KT 9999 SCT015 SCT080 26/D24 Q1011 A2987 HR87RWY NML=METAR SLOR 161200Z 19003KT 9999 FEW017 12/01 Q1033 A3053 655.1 HR48FU S/SW CI=METAR SLUY 161200Z 00000KT 9999 FEW070 10/M16 Q1033 A3052658.1 HR14=
ZPX0347 161233@CAELT@GG SLZZYMYT@CAELT@161232 SLLPYFYA@CAELT@SABO SLLP 161200 CCC@CAELT@METAR SLLP 161200Z 11007KT 4000E VCFG FEW003 SCT012 BKN200 09/05@CAELT@Q1037 A3063 627.5 HR79 P92// VCFG N/NE/E/SE AC NOSIG=@CAELT@METAR SLCO 161200Z 04008KT 3000 -RA BKN004 FEW023CB OVC080 23/23@CAELT@Q1013 2992 985.8 HR100 CB/N/NW RETS=@CAELT@METAR SLRY 161200Z 00000KT 5000 VCSH SCT016 BKN070 24/24 Q1009A2982 HR97 SH N/NW RWY HUM OPR=METAR SLRQ 161200Z 00000KT 9999 BKN008 26/25 Q1011 A2986 987.2HR95=METAR SLAP 161200Z 36010KT 9999 SCT020 20/17 Q1017 A3003 857.7HR81 CI=METAR COR SLSB 161200Z 36003KT 9999 SCT015 SCT080 26/24 Q1011A2987 HR87 RWY NML=METAR SLOR 161200Z 19003KT 9999 FEW017 12/01 Q1033 A3053 655.1HR48 FU S/SW CI=METAR SLUY 161200Z 00000KT 9999 FEW070 10/M16 Q1033 A3052 658.1HR14=
ZPX0352 161245@CAELT@GG SLZZYMYT@CAELT@161244 SLSBYSYX@CAELT@SABO SLSB 161200 CCA@CAELT@METAR COR SLSB 161200Z 36003KT 9999 SCT015 SCT080 26/24 Q1011 A2987@CAELT@HR87 RWY NML=@CAELT@
ZPX0355 161251@CAELT@GG SLZZYMYT@CAELT@161251 SLCAYGYS@CAELT@SABO SLCA 161300@CAELT@METAR SLCA 161300Z 00000KT 9999 FEW036 28/19 Q1015 A2997 HR58 RWY NML@CAELT@
ZPX0356 161252@CAELT@GG SLZZYMYT@CAELT@161251 SLPSYGYS@CAELT@SABO SLPS 161300@CAELT@METAR SLPS 161300Z 00000KT 9999 NSC 32/25 Q1011 A2986 HR70=@CAELT@
ZPX0358 161255@CAELT@GG SLZZYMYT@CAELT@161255 SLVRYGYZ@CAELT@SABO SLVR 161300@CAELT@METAR SLVR 161300Z 32012G22KT 9999 SCT012 BKN015 27/23 Q1012 A2989@CAELT@HR83 NOSIG=@CAELT@
ZPX0359 161255@CAELT@GG SLZZYMYT@CAELT@161254 SLSAYGYS@CAELT@SABO SLSA 161300@CAELT@METAR SLSA 161300Z 34008KT 9999 FEW015 BKN200 29/24 Q1011 A2988 HR75=@CAELT@
ZPX0360 161255@CAELT@GG SLZZYMYT@CAELT@161255 SLORYGYZ@CAELT@SABO SLOR 161300@CAELT@METAR SLOR 161300Z 05004KT 9999 FEW017 14/01 Q1034 A3054 655.3 HR41@CAELT@
ZPX0361 161255@CAELT@GG SLZZYMYT@CAELT@161253 SLRBYGYS@CAELT@SABO SLRB 161300@CAELT@METAR SLRB 161300Z 00000KT 9999 NSC 29/24 Q1014 A2994 HR72 RWY NML=@CAELT@
ZPX0363 161255@CAELT@GG SLZZYMYT@CAELT@161248 SLETYMYC@CAELT@SABO SLET 161300@CAELT@METAR SLET 161300Z 31014KT 9999 SCT010 BKN017 26/23 Q1011 A2988 HR83@CAELT@NOSIG=@CAELT@
ZPX0364 161256@CAELT@GG SLZZYMYT@CAELT@161255 SLSBYSYX@CAELT@SABO SLSB 161300@CAELT@METAR SLSB 161300Z 00000KT 8000 VCSH BKN015 SCT080 27/24 Q1012 A2991@CAELT@HR86 SH N NE RWY NML=@CAELT@
ZPX0368 161256@CAELT@GG SLZZYMYT@CAELT@161255 SLAGYSYX@CAELT@SABO SLAG 161300@CAELT@METAR SLAG 161300Z 00000KT 9999 FEW017 BKN070 27/19 Q1016 A3003 889.0@CAELT@HR61 CI FU=@CAELT@
ZPX0369 161256@CAELT@GG SLZZYMYT@CAELT@161255 SLLPYGYZ@CAELT@SABO SLLP 161300@CAELT@METAR SLLP 161300Z 10006KT 6000 FEW004 SCT012 FEW017CB BKN200 09/05@CAELT@Q1038 A3066 628.0 HR74 P0784 VIS/RED/SC NE/E/SE CB/N AC NOSIG=@CAELT@
ZPX0370 161257@CAELT@GG SLZZYMYT@CAELT@161257 SLUYYGYS@CAELT@SABO SLUY 161300@CAELT@METAR SLUY 161300Z 33009KT 9999 FEW070 13/M06 Q1033 A3052@CAELT@658.1 HR27=@CAELT@
ZPX0371 161257@CAELT@GG SLZZYMYT@CAELT@161256 SLCBYGYZ@CAELT@SABO SLCB 161300@CAELT@METAR SLCB 161300Z 00000KT 9999 FEW040 23/08 Q1024 A3025 750.8 HR37@CAELT@FU CI NOSIG=@CAELT@
ZPX0375 161258@CAELT@GG SLZZYMYT@CAELT@161256 SLTJYGYZ@CAELT@SABO SLTJ 161300@CAELT@METAR SLTJ 161300Z 00000KT 9999 FEW027 BKN070 21/15 Q1020 A3013 815.3@CAELT@HR67=@CAELT@
ZPX0376 161258@CAELT@GG SLZZYMYT@CAELT@161258 SLCOYGYZ@CAELT@SABO SLCO 161300@CAELT@METAR SLCO 161300Z 06005KT 4000 -RA BKN003 OVC080 23/23 Q1014 A2995@CAELT@986.6 HR100=@CAELT@
ZPX0377 161258@CAELT@GG SLZZYMYT@CAELT@161258 SLVRYFYC@CAELT@SABO SLVR 161300@CAELT@METAR SLVR 161300Z 32012G22KT 9999 SCT012 BKN015 27/23 Q1012 A2989@CAELT@HR83 NOSIG=@CAELT@METAR SLET 161300Z 31014KT 9999 SCT010 BKN017 26/23 Q1011 A2988 HR83@CAELT@NOSIG=@CAELT@METAR SLAS 161300Z 36006KT 9999 NSC 29/25 Q1013 A2992 HR79 RWY WETOPR=METAR SLJV 161300Z 36005KT 9999 FEW017 28/24 Q1012 A2988 HR82 RWY NMLMETAR SLCP 161300Z 36008KT 9999 SCT020 27/23 Q1016 A3000 HR80 RWY NMLMETAR SLSI 161300Z 33008KT 9999 NSC 28/23 Q1013 A2991 HR74 RWY NML=METAR SLTI 161300Z 00000KT 9999 NSC 32/23 Q1016 A3000 HR62 CI RWY NMLMETAR SLJE 161300Z 00000KT 9999 NSC 29/24 Q1015 A2997 HR73 RWY NML=METAR SLVG 161300Z 36004KT 9999 BKN015 OVC070 18/15 Q1024 A3024 HR82RWY HUM OPR=METAR SLRB 161300Z 00000KT 9999 NSC 29/24 Q1014 A2994 HR72 RWY NML=METAR SLPS 161300Z 00000KT 9999 NSC 32/25 Q1011 A2986 HR70=METAR SLCA 161300Z 00000KT 9999 FEW036 28/19 Q1015 A2997 HR58 RWY NML
ZPX0379 161259@CAELT@GG SLZZYMYT@CAELT@161258 SLTRYGYZ@CAELT@SABO SLTR 161300@CAELT@METAR SLTR 161300Z 33009KT 9999 FEW020 SCT200 29/23 Q1011 A2988@CAELT@993.4 HR70 NOSIG=@CAELT@
ZPX0382 161300@CAELT@GG SLZZYMYT@CAELT@161259 SLTRYGYS@CAELT@SABO SLTR 161300@CAELT@METAR SLTR 161300Z 33009KT 9999 FEW020 SCT200 29/23 Q1011 A2988 993.4@CAELT@HR70 NOSIG=@CAELT@METAR SLGM 161300Z 34006KT 9999 FEW008 SCT020 BKN080 26/23 Q1012@CAELT@A2988 HR84=@CAELT@METAR SLRI 161300Z 36010KT 9999 SCT007 BKN080 BKN200 25/23 Q1013A2993 HR89=METAR SLJO 161300Z 32010KT 9999 FEW017 SCT200 28/24 Q1011 A2987 HR78RWY NML=METAR SLRA 161300Z 35008KT 9999 FEW017 SCT200 29/24 Q1011 A2986 HR75METAR SLMG 161300Z 32006KT 9999 NSC 28/24 Q1011 A2988 HR75 CIMETAR SLBU 161300Z 32004KT 9999 FEW015 29/25 Q1010 A2985 HR80 ACMETAR SLSA 161300Z 34008KT 9999 FEW015 BKN200 29/24 Q1011 A2988 HR75=METAR SLSR 161300Z 32015G25KT 9999 FEW017 FEW023CB SCT080 28/23 Q1010A2985 HR76 CB W/NW RWY NML=METAR SLSM 161300Z 36010KT 9999 FEW017 28/24 Q1011 A2987 HR82
ZPX0384 161302@CAELT@GG SLZZYMYT@CAELT@161258 SLLPYFYA@CAELT@SABO SLRY 161300@CAELT@METAR SLRY 161300Z 32004KT 2000 -RA BKN015 OVC070 23/23 Q1011 A2986@CAELT@HR98 RWY WET OPR C206=@CAELT@
ZPX0386 161303@CAELT@GG SLZZYMYT@CAELT@161302 SLCBYGYS@CAELT@SABO SLCB 161300@CAELT@METAR SLCB 161300Z 00000KT 9999 FEW040 23/08 Q1024 A3025 750.8 HR37@CAELT@FU CI NOSIG=@CAELT@METAR SLAL 161300Z 01006KT 9999 BKN015 16/09 Q1029 A3039 703.7 HR66=@CAELT@METAR SLPO 161300Z 00000KT 9999 FEW015 13/06 Q1035 A3058 636.6 HR62=@CAELT@METAR SLAG 161300Z 00000KT 9999 FEW017 BKN070 27/19 Q1016 A3003 889.0HR61 CI FU=METAR SLVM 161300Z 00000KT 9999 NSC 29/23 Q1011 A2986 HR70 CI=METAR SLTJ 161300Z 00000KT 9999 FEW027 BKN070 21/15 Q1020 A3013 815.3HR67=METAR SLYA 161300Z 00000KT 9999 SCT025 BKN070 22/19 Q1012 A2990 937.2HR85=METAR SLBJ 161300Z NIL=METAR SLHI 161300Z NIL=
ZPX0389 161305@CAELT@GG SLZZYMYT@CAELT@161302 SLLPYFYA@CAELT@SABO SLLP 161300@CAELT@METAR SLLP 161300Z 10006KT 6000 FEW004 SCT012 FEW017CB BKN200 09/05@CAELT@Q1038 A3066 628.0 HR74 P0784 VIS/RED/SC NE/E/SE CB/N AC NOSIG=@CAELT@METAR SLCO 161300Z 06005KT 4000 -RA BKN003 OVC080 23/23 Q1014 A2995@CAELT@986.6 HR100=@CAELT@METAR SLRY 161300Z 32004KT 2000 -RA BKN015 OVC070 23/23 Q1011 A2986HR98 RWY WET OPR C206=METAR SLRQ 161300Z 00000KT 8000 -DZ OVC007 26/25 Q1012 A2990 988.5HR95=METAR SLAP 161300Z 36005KT 9999 SCT020 21/17 Q1017 A3006 858.5 HR78AC/CI=METAR SLSB 161300Z 00000KT 8000 VCSH BKN015 SCT080 27/24 Q1012 A2991HR86 SH N/NE RWY NML=METAR SLOR 161300Z 05004KT 9999 FEW017 14/01 Q1034 A3054 655.3 HR41METAR SLUY 161300Z 33009KT 9999 FEW070 13/M06 Q1033 A3052658.1 HR27=
ZPX0430 161352@CAELT@GG SLZZYMYT@CAELT@161352 SLETYMYC@CAELT@SABO SLET 161400@CAELT@METAR SLET 161400Z 33015G25KT 9999 SCT012 BKN017 28/23 Q1011 A2987@CAELT@HR74 NOSIG=@CAELT@
ZPX0431 161353@CAELT@GG SLZZYMYT@CAELT@161351 SLPSYGYS@CAELT@SABO SLPS 161400@CAELT@METAR SLPS 161400Z 09004KT 9999 FEW020 34/25 Q1011 A2986 HR60=@CAELT@
ZPX0433 161354@CAELT@GG SLZZYMYT@CAELT@161355 SLSBYSYX@CAELT@SABO SLSB 161400@CAELT@METAR SLSB 161400Z 30004KT 8000 VCSH BKN015 BKN080 27/24 Q1012 A2989@CAELT@HR83 RESH SH N S W RWY NML=@CAELT@
ZPX0434 161354@CAELT@GG SLZZYMYT@CAELT@161353 SLRBYGYS@CAELT@SABO SLRB 161400@CAELT@METAR SLRB 161400Z 36006KT 9999 NSC 31/23 Q1014 A2994 HR63 RWY NML=@CAELT@
ZPX0435 161355@CAELT@GG SLZZYMYT@CAELT@161355 SLVRYGYZ@CAELT@SABO SLVR 161400@CAELT@METAR SLVR 161400Z 33013G25KT 9999 FEW015 BKN017 29/24 Q1012 A2990@CAELT@HR76 NOSIG=@CAELT@
ZPX0436 161355@CAELT@GG SLZZYMYT@CAELT@161354 SLSAYGYS@CAELT@SABO SLSA 161400@CAELT@METAR SLSA 161400Z 33010KT 9999 SCT017 BKN200 30/24 Q1012 A2989 HR71=@CAELT@
ZPX0437 161355@CAELT@GG SLZZYMYT@CAELT@161355 SLCOYGYZ@CAELT@SABO SLCO 161400@CAELT@METAR SLCO 161400Z 33008KT 9999 SCT003 OVC080 23/23 Q1014 A2995 986.7@CAELT@HR98=@CAELT@
ZPX0438 161355@CAELT@GG SLZZYMYT@CAELT@161347 SLUYYGYS@CAELT@SABO SLUY 161400@CAELT@METAR SLUY 161400Z 34009KT 9999 FEW012 14/M05 Q1033 A3053@CAELT@658.2 HR26=@CAELT@
ZPX0439 161355@CAELT@GG SLZZYMYT@CAELT@161355 SLCBYGYZ@CAELT@SABO SLCB 161400@CAELT@METAR SLCB 161400Z 19004KT 9999 FEW040 25/08 Q1024 A3024 750.6 HR34@CAELT@FU CI NOSIG=@CAELT@
ZPX0440 161356@CAELT@GG SLZZYMYT@CAELT@161355 SLTJYGYZ@CAELT@SABO SLTJ 161400@CAELT@METAR SLTJ 161400Z 00000KT 9999 SCT027 BKN070 23/15 Q1020 A3013 815.3@CAELT@HR60=@CAELT@
ZPX0443 161356@CAELT@GG SLZZYMYT@CAELT@161355 SLLPYGYZ@CAELT@SABO SLLP 161400@CAELT@METAR SLLP 161400Z 33004KT 9999 SCT013 FEW017CB BKN200 11/04 Q1038@CAELT@A3066 628.1 HR63 P4354 CB/NW AC NOSIG=@CAELT@
ZPX0445 161356@CAELT@GG SLZZYMYT@CAELT@161355 SLAGYSYX@CAELT@SABO SLAG 161400@CAELT@METAR SLAG 161400Z 16004KT 9999 FEW017 BKN070 30/18 Q1016 A3002 888.9@CAELT@HR50 CI FU=@CAELT@
ZPX0446 161356@CAELT@GG SLZZYMYT@CAELT@161356 SLORYGYZ@CAELT@SABO SLOR 161400@CAELT@METAR SLOR 161400Z 33003KT 9999 FEW020 17/02 Q1034 A3054 655.4 HR36@CAELT@
ZPX0447 161357@CAELT@GG SLZZYMYT@CAELT@161357 SLTRYGYZ@CAELT@SABO SLTR 161400@CAELT@METAR SLTR 161400Z 32010KT 9999 SCT020 SCT200 31/24 Q1012 A2989@CAELT@993.8 HR70 NOSIG=@CAELT@
ZPX0449 161358@CAELT@GG SLZZYMYT@CAELT@161358 SLVRYFYC@CAELT@SABO SLVR 161400@CAELT@METAR SLVR 161400Z 33013G25KT 9999 FEW015 BKN017 29/24 Q1012 A2990@CAELT@HR76 NOSIG=@CAELT@METAR SLET 161400Z 33015G25KT 9999 SCT012 BKN017 28/23 Q1011 A2987@CAELT@HR74 NOSIG=@CAELT@METAR SLAS 161400Z 36006KT 9999 FEW017 31/25 Q1014 A2994 HR70 RWY HUMOPR=METAR SLJV 161400Z 36006KT 9999 SCT017 29/24 Q1012 A2988 HR77 RWY NMLMETAR SLCP 161400Z 33006KT 9999 SCT020 28/23 Q1015 A2997 HR72 RWY NMLMETAR SLSI 161400Z 33008KT 9999 NSC 29/22 Q1013 A2991 HR65 RWY NML=METAR SLTI 161400Z 00000KT 9999 FEW017 BKN200 33/24 Q1016 A3000 HR56RWY NML=METAR SLJE 161400Z 32005KT 9999 FEW015 30/23 Q1015 A2997 HR67 RWY NMLMETAR SLVG 161400Z 00000KT 9999 BKN017 BKN070 19/15 Q1024 A3024 HR82METAR SLRB 161400Z 36006KT 9999 NSC 31/23 Q1014 A2994 HR63 RWY NML=METAR SLPS 161400Z 09004KT 9999 FEW020 34/25 Q1011 A2986 HR60=
ZPX0450 161358@CAELT@GG SLZZYMYT@CAELT@161358 SLTRYGYS@CAELT@SABO SLTR 161400@CAELT@METAR SLTR 161400Z 32010KT 9999 SCT020 SCT200 31/24 Q1012 A2989@CAELT@993.8 HR70 NOSIG=@CAELT@METAR SLGM 161400Z 34004KT 9999 FEW008 SCT020 FEW023CB BKN080 27/24@CAELT@Q1012 A2991 HR82 CB NE=@CAELT@METAR SLRI 161400Z 36008KT 5000 VCSH SCT010 FEW020CB BKN080 25/23Q1014 A2995 HR89 RESHRA CB/SH N/NE/NW=METAR SLJO 161400Z 34010KT 9999 FEW017 BKN200 30/24 Q1012 A2989 HR72RWY NML=METAR SLRA 161400Z 35008KT 9999 FEW017 SCT200 30/23 Q1011 A2988 HR68METAR SLMG 161400Z 32006KT 9999 NSC 29/24 Q1012 A2991 HR72 CIMETAR SLBU 161400Z 32006KT 9999 SCT017 31/25 Q1011 A2986 HR70METAR SLSA 161400Z 33010KT 9999 SCT017 BKN200 30/24 Q1012 A2989 HR71=METAR SLSR 161400Z 32015G25KT 9999 SCT017 FEW023CB BKN200 29/24Q1011 A2987 HR72 CB SE/S/NW RWY NML=METAR SLSM 161400Z 33010KT 9999 FEW017 30/25 Q1012 A2988 HR74
ZPX0451 161358@CAELT@GG SLZZYMYT@CAELT@161358 SLCBYGYS@CAELT@SABO SLCB 161400@CAELT@METAR SLCB 161400Z 19004KT 9999 FEW040 25/08 Q1024 A3024 750.6 HR34@CAELT@FU CI NOSIG=@CAELT@METAR SLAL 161400Z 03009KT 9999 BKN017 18/09 Q1029 A3040 703.9 HR53=@CAELT@METAR SLPO 161400Z 01004KT 9999 FEW017 15/05 Q1036 A3059 636.7 HR50=@CAELT@METAR SLAG 161400Z 16004KT 9999 FEW017 BKN070 30/18 Q1016 A3002 888.9HR50 CI FU=METAR SLVM 161400Z 00000KT 9999 FEW025 30/23 Q1011 A2988 HR68 CI=METAR SLTJ 161400Z 00000KT 9999 SCT027 BKN070 23/15 Q1020 A3013 815.3HR60=METAR SLYA 161400Z 00000KT 9999 FEW023 SCT070 29/22 Q1031 A2992 937.8HR67=METAR SLBJ 161400Z NIL=METAR SLHI 161400Z NIL=
ZPX0452 161359@CAELT@GG SLZZYMYT@CAELT@161359 SLCAYGYS@CAELT@SABO SLCA 161400@CAELT@METAR SLCA 161400Z 00000KT 9999 FEW036 30/19 Q1015 A2997 HR51 RWY NML@CAELT@
ZPX0458 161402@CAELT@GG SLZZYMYT@CAELT@161401 SLVRYGYU@CAELT@SABO SLVR 161400 RRA@CAELT@METAR SLVR 161400Z 33013G25KT 9999 FEW015 BKN017 29/24 Q1012 A2990@CAELT@HR76 NOSIG=@CAELT@METAR SLET 161400Z 33015G25KT 9999 SCT012 BKN017 28/23 Q1011 A2987@CAELT@HR74 NOSIG=@CAELT@METAR SLAS 161400Z 36006KT 9999 FEW017 31/25 Q1014 A2994 HR70 RWY HUMOPR=METAR SLJV 161400Z 36006KT 9999 SCT017 29/24 Q1012 A2988 HR77 RWY NMLMETAR SLCP 161400Z 33006KT 9999 SCT020 28/23 Q1015 A2997 HR72 RWY NMLMETAR SLSI 161400Z 33008KT 9999 NSC 29/22 Q1013 A2991 HR65 RWY NML=METAR SLTI 161400Z 00000KT 9999 FEW017 BKN200 33/24 Q1016 A3000 HR56RWY NML=METAR SLJE 161400Z 32005KT 9999 FEW015 30/23 Q1015 A2997 HR67 RWY NMLMETAR SLVG 161400Z 00000KT 9999 BKN017 BKN070 19/15 Q1024 A3024 HR82METAR SLRB 161400Z 36006KT 9999 NSC 31/23 Q1014 A2994 HR63 RWY NML=METAR SLPS 161400Z 09004KT 9999 FEW020 34/25 Q1011 A2986 HR60=METAR RTD SLCA 161400Z 00000KT 9999 FEW036 30/19 Q1015 A2997 HR51 RWYNML=
ZPX0462 161409@CAELT@GG SLZZYMYT@CAELT@161407 SLLPYFYA@CAELT@SABO SLRY 161400@CAELT@METAR SLRY 161400Z 00000KT 7000 VCSH FEW006 BKN015 BKN070 24/23@CAELT@Q1011 A2988 HR94 SH S SE RERA RWY WET OPR C206=@CAELT@
ZPX0464 161411@CAELT@GG SLZZYMYT@CAELT@161400 SLLPYFYA@CAELT@SABO SLLP 161400@CAELT@METAR SLLP 161400Z 33004KT 9999 SCT013 FEW017CB BKN200 11/04 Q1038@CAELT@A3066 628.1 HR63 P4354 CB/NW AC NOSIG=@CAELT@METAR SLCO 161400Z 33008KT 9999 SCT003 OVC080 23/23 Q1014 A2995@CAELT@986.7 HR98=@CAELT@METAR SLRY 161400Z 00000KT 7000 VCSH FEW006 BKN015 BKN070 24/23Q1011 A2988 HR94 SH S SE RERA RWY WET OPR C206=METAR SLRQ 161400Z 36004KT 5000 -DZ BKN005 OVC070 25/25 Q1013A2992 989.0 HR100=METAR SLAP 161400Z 36010KT 9999 SCT020 21/18 Q1017 A3005 858.4HR78 AC/CI=METAR SLSB 161400Z 30004KT 8000 VCSH BKN015 BKN080 27/24 Q1012A2989 HR83 RESH SH N S W RWY NML=METAR SLOR 161400Z 33003KT 9999 FEW020 17/02 Q1034 A3054 655.4HR36 CI=METAR SLUY 161400Z 34009KT 9999 FEW012 14/M05 Q1033 A3053 658.2HR26=
ZPX0486 161450@CAELT@GG SLZZYMYT@CAELT@161450 SLCAYGYS@CAELT@SABO SLCA 161400@CAELT@METAR SLCA 161400Z 00000KT 9999 FEW036 30/19 Q1015 A2997 HR51 RWY NML@CAELT@
ZPX0491 161452@CAELT@GG SLZZYMYT@CAELT@161450 SLPSYGYS@CAELT@SABO SLPS 161500@CAELT@METAR SLPS 161500Z 36008KT 9999 SCT020 36/25 Q1010 A2983 HR55=@CAELT@
ZPX0492 161452@CAELT@GG SLZZYMYT@CAELT@161452 SLETYMYC@CAELT@SABO SLET 161500@CAELT@METAR SLET 161500Z 33017G27KT 9999 BKN017 BKN200 29/22 Q1012 A2989@CAELT@HR66 NOSIG=@CAELT@
ZPX0494 161453@CAELT@GG SLZZYMYT@CAELT@161453 SLVRYGYZ@CAELT@SABO SLVR 161500@CAELT@METAR SLVR 161500Z 33014G25KT 9999 BKN017 30/23 Q1013 A2992 HR66@CAELT@NOSIG=@CAELT@
ZPX0495 161454@CAELT@GG SLZZYMYT@CAELT@161453 SLRBYGYS@CAELT@SABO SLRB 061500@CAELT@METAR SLRB 061500Z 36006KT 9999 FEW020 32/22 Q1014 A2994 HR57 RWY NML=@CAELT@
ZPX0496 161454@CAELT@GG SLZZYMYT@CAELT@161455 SLSBYSYX@CAELT@SABO SLSB 161500@CAELT@METAR SLSB 161500Z 30010KT 8000 VCSH SCT010 BKN015 OVC080 26/24 Q1012@CAELT@A2991 HR91 SH NW SE S SW RWY NML=@CAELT@
ZPX0498 161455@CAELT@GG SLZZYMYT@CAELT@161455 SLCOYGYZ@CAELT@SABO SLCO 161500@CAELT@METAR SLCO 161500Z 35008KT 9999 BKN005 OVC080 25/24 Q1014 A2995 986.8@CAELT@HR96=@CAELT@
ZPX0499 161455@CAELT@GG SLZZYMYT@CAELT@161455 SLORYGYZ@CAELT@SABO SLOR 161500@CAELT@METAR SLOR 161500Z 36003KT 9999 FEW020 19/02 Q1033 A3053 655.1 HR31@CAELT@
ZPX0500 161455@CAELT@GG SLZZYMYT@CAELT@161454 SLSAYGYS@CAELT@SABO SLSA 161500@CAELT@METAR SLSA 161500Z 33010KT 9999 SCT017 BKN200 31/24 Q1012 A2989 HR66=@CAELT@
ZPX0501 161455@CAELT@GG SLZZYMYT@CAELT@161449 SLUYYGYS@CAELT@SABO SLUY 161500@CAELT@METAR SLUY 161500Z 31010KT 9999 FEW012 16/M06 Q1033 A3052@CAELT@658.1 HR22 CI/CC=@CAELT@
ZPX0502 161456@CAELT@GG SLZZYMYT@CAELT@161456 SLTRYGYZ@CAELT@SABO SLTR 161500@CAELT@METAR SLTR 161500Z 32012KT 9999 SCT020 SCT200 31/24 Q1012 A2989@CAELT@993.8 HR68 AC NOSIG=@CAELT@
ZPX0503 161456@CAELT@GG SLZZYMYT@CAELT@161455 SLCBYGYZ@CAELT@SABO SLCB 161500@CAELT@METAR SLCB 161500Z 12003KT 9999 FEW042 SCT200 26/05 Q1023 A3022 750.2@CAELT@HR27 FU NOSIG=@CAELT@
ZPX0506 161457@CAELT@GG SLZZYMYT@CAELT@161456 SLLPYGYZ@CAELT@SABO SLLP 161500@CAELT@METAR SLLP 161500Z 27005KT 9999 SCT014 FEW017CB BKN200 12/03 Q1038@CAELT@A3066 628.2 HR53 P4354 CB/W/NW AC NOSIG=@CAELT@
ZPX0507 161457@CAELT@GG SLZZYMYT@CAELT@161456 SLAGYSYX@CAELT@SABO SLAG 161500@CAELT@METAR SLAG 161500Z 14007KT 9999 FEW020 SCT070 31/18 Q1016 A3001 888.4@CAELT@HR46 CI FU=@CAELT@
ZPX0508 161458@CAELT@GG SLZZYMYT@CAELT@161457 SLTJYGYZ@CAELT@SABO SLTJ 161500@CAELT@METAR SLTJ 161500Z 13006KT 9999 SCT030 BKN070 24/14 Q1020 A3014 815.4@CAELT@HR54=@CAELT@
ZPX0509 161459@CAELT@GG SLZZYMYT@CAELT@161458 SLVRYFYC@CAELT@SABO SLVR 161500@CAELT@METAR SLVR 161500Z 33014G25KT 9999 BKN017 30/23 Q1013 A2992 HR66@CAELT@NOSIG=@CAELT@METAR SLET 161500Z 33017G27KT 9999 BKN017 BKN200 29/22 Q1012 A2989@CAELT@HR66 NOSIG=@CAELT@METAR SLAS 161500Z 34005KT 9999 BKN017 31/24 Q1014 A2994 HR66 RWY HUMOPR=METAR SLJV 161500Z 36005KT 9999 BKN020 30/24 Q1012 A2988 HR71 RWY NMLMETAR SLCP 161500Z 36005KT 9999 SCT020 30/23 Q1015 A2997 HR70 RWY NMLMETAR SLSI 161500Z 33008KT 9999 SCT017 31 / 22 Q1013 A2991 HR60 RWYNML=METAR SLTI 161500Z 00000KT 9999 SCT017 BKN200 34/23 Q1015 A2997 HR54RWY NML=METAR SLJE 161500Z 32005KT 9999 SCT017 32/23 Q1015 A2997 HR62 RWY NMLMETAR SLVG 161500Z 00000KT 9999 SCT020 BKN070 21/16 Q1024 A3024 HR71METAR SLRB 061500Z 36006KT 9999 FEW020 32/22 Q1014 A2994 HR57 RWY NMLMETAR SLPS 161500Z 36008KT 9999 SCT020 36/25 Q1010 A2983 HR55=METAR SLCA 161400Z 00000KT 9999 FEW036 30/19 Q1015 A2997 HR51 RWY NML
ZPX0512 161501@CAELT@GG SLZZYMYT@CAELT@161459 SLTRYGYS@CAELT@SABO SLTR 161500@CAELT@METAR SLTR 161500Z 32012KT 9999 SCT020 SCT200 31/24 Q1012 A2989 993.8@CAELT@HR68 AC NOSIG=@CAELT@METAR SLGM 161500Z 36006KT 8000 VCSH SCT008 SCT020 FEW023CB BKN080@CAELT@28/24 Q1013 A2992 HR79 CB/SH N/NW=@CAELT@METAR SLRI 161500Z 32006KT 8000 VCSH SCT013 FEW020CB BKN080 26/23Q1014 A2995 HR84 CB/SH N/NE/E=METAR SLJO 161500Z 34010KT 9999 FEW017 BKN200 31/24 Q1012 A2990 HR67RWY NML=METAR SLRA 161500Z 35008KT 9999 FEW017 SCT080 31/24 Q1012 A2989 HR65METAR SLMG 161500Z 32008KT 9999 FEW017 BKN200 30/25 Q1012 A2991 HR72METAR SLBU 161500Z 32006KT 9999 SCT017 32/26 Q1010 A2985 HR69METAR SLSA 161500Z 33010KT 9999 SCT017 BKN200 31/24 Q1012 A2989 HR66=METAR SLSR 161500Z 32015G25KT 9999 SCT017 FEW023CB BKN200 31/24Q1011 A2988 HR67 CB SE/S/SW RWY NML=METAR SLSM 161500Z 33010KT 9999 SCT017 31/24 Q1012 A2989 HR70
ZPX0514 161501@CAELT@GG SLZZYMYT@CAELT@161501 SLCBYGYS@CAELT@SABO SLCB 161500@CAELT@METAR SLCB 161500Z 12003KT 9999 FEW042 SCT200 26/05 Q1023 A3022 750.2@CAELT@HR27 FU NOSIG=@CAELT@METAR SLAL 161500Z 01005KT 9999 BKN020 19/09 Q1029 A3039 703.6 HR52=@CAELT@METAR SLPO 161500Z 00000KT 9999 FEW017 17/04 Q1035 A3058 635.5 HR45=@CAELT@METAR SLAG 161500Z 14007KT 9999 FEW020 SCT070 31/18 Q1016 A3001 888.4HR46 CI FU=METAR SLVM 161500Z 18005KT 9999 SCT025 32/25 Q1011 A2987 HR65 CI=METAR SLTJ 161500Z 13006KT 9999 SCT030 BKN070 24/14 Q1020 A3014 815.4HR54=METAR SLYA 161500Z 21010KT 9999 SCT023 BKN070 29/22 Q1013 A2993 938.3HR67=METAR SLBJ 161500Z NIL=METAR SLHI 161500Z NIL=
ZPX0516 161503@CAELT@GG SLZZYMYT@CAELT@161503 SLLPYFYA@CAELT@SABO SLLP 161500@CAELT@METAR SLLP 161500Z 27005KT 9999 SCT014 FEW017CB BKN200 12/03 Q1038@CAELT@A3066 628.2 HR53 P4354 CB/W/NW AC NOSIG=@CAELT@METAR SLCO 161500Z 35008KT 9999 BKN005 OVC080 25/24 Q1014 A2995@CAELT@986.8 HR96=@CAELT@METAR SLRY 161500Z 32003KT 9999 SCT010 BKN015 BKN070 26/24 Q1011A2988 HR88 SH S SW W RWY WET OPR C206=METAR SLRQ 161500Z 35004KT 3000 -RA SCT005 BKN010 OVC070 24/24Q1013 A2992 989.1 HR100=METAR SLAP 161500Z 36015KT 9999 SCT020 BKN070 23/17 Q1018 A3008859.1 HR69 CI=METAR SLSB 161500Z 30010KT 8000 VCSH SCT010 BKN015 OVC080 26/24Q1012 A2991 HR91 SH NW SE S SW RWY NML=METAR SLOR 161500Z 36003KT 9999 FEW020 19/02 Q1033 A3053 655.1HR31 CI=METAR SLUY 161500Z 31010KT 9999 FEW012 16/M06 Q1033 A3052 658.1HR22 CI/CC=
ZPX0549 161550@CAELT@GG SLZZYMYT@CAELT@161550 SLCAYGYS@CAELT@SABO SLCA 161600@CAELT@METAR SLCA 161600Z 21005KT 9999 BKN036 34/17 Q1014 A2994 HR37 RWY@CAELT@NML=@CAELT@
ZPX0551 161552@CAELT@GG SLZZYMYT@CAELT@161551 SLPSYGYS@CAELT@SABO SLPS 161600@CAELT@METAR SLPS 161600Z 36006KT 9999 SCT020 36/26 Q1010 A2983 HR56=@CAELT@
ZPX0554 161554@CAELT@GG SLZZYMYT@CAELT@161554 SLVRYGYZ@CAELT@SABO SLVR 161600@CAELT@METAR SLVR 161600Z 32015G26KT 9999 SCT017 31/23 Q1012 A2990 HR60 CI@CAELT@NOSIG=@CAELT@
ZPX0555 161554@CAELT@GG SLZZYMYT@CAELT@161552 SLETYMYC@CAELT@SABO SLET 161600@CAELT@METAR SLET 161600Z 32016G27KT 9999 SCT017 SCT200 30/23 Q1011 A2988@CAELT@HR64 NOSIG=@CAELT@
ZPX0556 161555@CAELT@GG SLZZYMYT@CAELT@161555 SLCOYGYZ@CAELT@SABO SLCO 161600@CAELT@METAR SLCO 161600Z 34008KT 9999 BKN008 OVC080 25/24 Q1013 A2993 986.2@CAELT@HR90=@CAELT@
ZPX0557 161555@CAELT@GG SLZZYMYT@CAELT@161554 SLSAYGYS@CAELT@SABO SLSA 161600@CAELT@METAR SLSA 161600Z 34010KT 9999 BKN017 BKN200 31/24 Q1012 A2989 HR66=@CAELT@
ZPX0558 161555@CAELT@GG SLZZYMYT@CAELT@161555 SLSBYSYX@CAELT@SABO SLSB 161600@CAELT@METAR SLSB 161600Z 31010KT 9999 SCT017 BKN080 29/24 Q1011 A2988 HR73@CAELT@SH DIST SE SW W RWY NML=@CAELT@
ZPX0559 161555@CAELT@GG SLZZYMYT@CAELT@161553 SLUYYGYS@CAELT@SABO SLUY 161600@CAELT@METAR SLUY 161600Z 31010KT 9999 FEW015 SCT200 17/M05 Q1032@CAELT@A3050 657.5 HR22=@CAELT@
ZPX0560 161555@CAELT@GG SLZZYMYT@CAELT@161555 SLORYGYZ@CAELT@SABO SLOR 161600@CAELT@METAR SLOR 161600Z 35004KT 9999 FEW020 20/01 Q1033 A3052 654.9 HR29@CAELT@
ZPX0564 161556@CAELT@GG SLZZYMYT@CAELT@161555 SLLPYGYZ@CAELT@SABO SLLP 161600@CAELT@METAR SLLP 161600Z 14006KT 9999 SCT015 FEW017CB BKN200 14/03 Q1037@CAELT@A3064 627.7 HR47 P0384 CB/W/NW AC NOSIG=@CAELT@
ZPX0566 161556@CAELT@GG SLZZYMYT@CAELT@161555 SLTJYGYZ@CAELT@SABO SLTJ 161600@CAELT@METAR SLTJ 161600Z 13008KT 9999 SCT030 BKN070 23/14 Q1020 A3013 815.2@CAELT@HR56=@CAELT@
ZPX0568 161557@CAELT@GG SLZZYMYT@CAELT@161557 SLTRYGYZ@CAELT@SABO SLTR 161600@CAELT@METAR SLTR 161600Z 33010KT 7000 VCSH SCT020 31/24 Q1011 A2988@CAELT@993.3 HR68 AC/CI SH N/S TEMPO SHRA=@CAELT@
ZPX0569 161558@CAELT@GG SLZZYMYT@CAELT@161558 SLTRYGYS@CAELT@SABO SLTR 161600@CAELT@METAR SLTR 161600Z 33010KT 7000 VCSH SCT020 31/24 Q1011 A2988 993.3@CAELT@HR68 AC/CI SH N/S TEMPO SHRA=@CAELT@METAR SLGM 161600Z 36005KT 9999 SCT015 FEW020CB BKN080 29/24 Q1012@CAELT@A2991 HR74 CB W=@CAELT@METAR SLRI 161600Z 32006KT 8000 VCSH SCT013 FEW020CB BKN080 26/23Q1014 A2295 HR83 CB/SH NE/E/SW/W=METAR SLJO 161600Z 34010KT 9999 FEW017 SCT080 BKN200 32/23 Q1012A2989 HR62 RWY NML=METAR SLRA 161600Z 35010KT 9999 FEW017 BKN080 33/23 Q1011 A2988 HR58RWY NML=METAR SLMG 161600Z 32010KT 9999 FEW017 BKN200 32/25 Q1012 A2990 HR68METAR SLBU 161600Z 32004KT 9999 SCT017 32/25 Q1009 A2982 HR67 ACMETAR SLSA 161600Z 34010KT 9999 BKN017 BKN200 31/24 Q1012 A2989 HR66=METAR SLSR 161600Z 32015G25KT 8000 VCSH SCT017 FEW023CB BKN200 31/24Q1010 A2984 HR66 CB/SH SE/S/NW RWY NML=METAR SLSM 161600Z 33010KT 9999 SCT017 FEW020CB 30/24 Q1011 A2987HR71 CB N/NE/E RWY NML=
ZPX0570 161558@CAELT@GG SLZZYMYT@CAELT@161558 SLCBYGYZ@CAELT@SABO SLCB 161600@CAELT@METAR SLCB 161600Z 15005KT 9999 SCT042 SCT200 27/06 Q1022 A3020 749.7@CAELT@HR26 FU NOSIG=@CAELT@
ZPX0571 161559@CAELT@GG SLZZYMYT@CAELT@161558 SLRBYGYS@CAELT@SABO SLRB 161600@CAELT@METAR SLRB 161600Z 36008KT 9999 FEW020 33/23 Q1013 A2991 HR54 RWY NML=@CAELT@
ZPX0572 161559@CAELT@GG SLZZYMYT@CAELT@161555 SLAGYSYX@CAELT@SABO SLAG 161600@CAELT@METAR SLAG 161600Z 23005KT 9999 SCT020 31/18 Q1015 A2999 887.9 HR45 A@CAELT@CI FU=@CAELT@
ZPX0575 161600@CAELT@GG SLZZYMYT@CAELT@161558 SLLPYFYA@CAELT@SABO SLRY 161600@CAELT@METAR SLRY 161600Z 32003KT 9999 SCT015 BKN080 BKN080 28/25@CAELT@Q1011 A2987 HR82 RWY WET OPR C206=@CAELT@
ZPX0576 161600@CAELT@GG SLZZYMYT@CAELT@161600 SLVRYFYC@CAELT@SABO SLVR 161600@CAELT@METAR SLVR 161600Z 32015G26KT 9999 SCT017 31/23 Q1012 A2990 HR60 CI@CAELT@NOSIG=@CAELT@METAR SLET 161600Z 32016G27KT 9999 SCT017 SCT200 30/23 Q1011 A2988@CAELT@HR64 NOSIG=@CAELT@METAR SLAS 161600Z 34003KT 9999 BKN020 32/24 Q1014 A2994 HR62 RWY HUMOPR=METAR SLCP 161600Z 00000KT 9999 BKN020 30/23 Q1015 A2997 HR66 RWY NMLMETAR SLSI 161600Z 32008KT 9999 SCT017 32/22 Q1012 A2988 HR55 RWY NMLMETAR SLRB 161600Z 36008KT 9999 FEW020 33/23 Q1013 A2991 HR54 RWY NMLMETAR SLPS 161600Z 36006KT 9999 SCT020 36/26 Q1010 A2983 HR56=METAR SLCA 161600Z 21005KT 9999 BKN036 34/17 Q1014 A2994 HR37 RWY NML
ZPX0577 161600@CAELT@GG SLZZYMYT@CAELT@161600 SLCBYGYS@CAELT@SABO SLCB 161600@CAELT@METAR SLCB 161600Z 15005KT 9999 SCT042 SCT200 27/06 Q1022 A3020 749.7@CAELT@HR26 FU NOSIG=@CAELT@METAR SLAL 161600Z 04016KT 9999 BKN020 20/08 Q1029 A3038 703.5 HR45=@CAELT@METAR SLPO 161600Z 01005KT 9999 FEW020 19/05 Q1035 A3056 636.1 HR41=@CAELT@METAR SLAG 161600Z 23005KT 9999 SCT020 31/18 Q1015 A2999 887.9 HR45 ACI FU=METAR SLVM 161600Z 00000KT 9999 SCT025 BKN070 31/24 Q1011 A2987 HR67METAR SLTJ 161600Z 13008KT 9999 SCT030 BKN070 23/14 Q1020 A3013 815.2HR56=METAR SLYA 161600Z 21010KT 9999 SCT023 BKN070 29/22 Q1013 A2992 938.0HR65=METAR SLBJ 161600Z NIL=METAR SLHI 161600Z NIL=
ZPX0582 161604@CAELT@GG SLZZYMYT@CAELT@161601 SLLPYFYA@CAELT@SABO SLLP 161600@CAELT@METAR SLLP 161600Z 14006KT 9999 SCT015 FEW017CB BKN200 14/03 Q1037@CAELT@A3064 627.7 HR47 P0384 CB/W/NW AC NOSIG=@CAELT@METAR SLCO 161600Z 34008KT 9999 BKN008 OVC080 25/24 Q1013 A2993@CAELT@986.2 HR90=@CAELT@METAR SLRY 161600Z 32003KT 9999 SCT015 BKN080 BKN080 28/25Q1011 A2987 HR82 RWY WET OPR C206=METAR SLRQ 161600Z 36004KT 9999 SCT005 BKN010 BKN070 25/25 Q1012A2989 988.0 HR98 RERA=METAR SLAP 161600Z 36015G25KT 9999 SCT020 BKN200 26/18 Q1017 A3005858.3 HR62 AC=METAR SLSB 161600Z 31010KT 9999 SCT017 BKN080 29/24 Q1011 A2988 HR73SH DIST SE SW W RWY NML=METAR SLOR 161600Z 35004KT 9999 FEW020 20/01 Q1033 A3052 654.9 HR29METAR SLUY 161600Z 31010KT 9999 FEW015 SCT200 17/M05 Q1032A3050 657.5 HR22=
ZPX0586 161606@CAELT@GG SLZZYMYT@CAELT@161558 SLLPYFYA@CAELT@SABO SLRY 161600@CAELT@METAR SLRY 161600Z 32003KT 9999 SCT015 BKN080 28/25@CAELT@Q1011 A2987 HR82 RWY WET OPR C206=@CAELT@
ZPX0588 161607@CAELT@GG SLZZYMYT@CAELT@161603 SLLPYFYA@CAELT@SABO SLLP 161600 CCA@CAELT@METAR SLLP 161600Z 14006KT 9999 SCT015 FEW017CB BKN200 14/03 Q1037@CAELT@A3064 627.7 HR47 P0384 CB/W/NW AC NOSIG=@CAELT@METAR SLCO 161600Z 34008KT 9999 BKN008 OVC080 25/24 Q1013 A2993@CAELT@986.2 HR90=@CAELT@METAR SLRY 161600Z 32003KT 9999 SCT015 BKN080 28/25 Q1011 A2987HR82 RWY WET OPR C206=METAR SLRQ 161600Z 36004KT 9999 SCT005 BKN010 BKN070 25/25 Q1012A2989 988.0 HR98 RERA=METAR SLAP 161600Z 36015G25KT 9999 SCT020 BKN200 26/18 Q1017 A3005858.3 HR62 AC=METAR SLSB 161600Z 31010KT 9999 SCT017 BKN080 29/24 Q1011 A2988 HR73SH DIST SE SW W RWY NML=METAR SLOR 161600Z 35004KT 9999 FEW020 20/01 Q1033 A3052 654.9 HR29METAR SLUY 161600Z 31010KT 9999 FEW015 SCT200 17/M05 Q1032A3050 657.5 HR22=
ZPX0621 161652@CAELT@GG SLZZYMYT@CAELT@161648 SLETYMYC@CAELT@SABO SLET 161700@CAELT@METAR SLET 161700Z 32016G29KT 9999 BKN017 FEW025TCU 30/22 Q1011 A2986@CAELT@HR63 TCU S AC/CI NOSIG=@CAELT@
ZPX0622 161653@CAELT@GG SLZZYMYT@CAELT@161653 SLCAYGYS@CAELT@SABO SLCA 161700@CAELT@METAR SLCA 161700Z 21006KT 9999 BKN036 33/16 Q1013 A2991 HR37 RWY NML@CAELT@
ZPX0623 161653@CAELT@GG SLZZYMYT@CAELT@161652 SLPSYGYS@CAELT@SABO SLPS 161700@CAELT@METAR SLPS 161700Z 36012KT 9999 SCT020 36/25 Q1009 A2980 HR54=@CAELT@
ZPX0624 161654@CAELT@GG SLZZYMYT@CAELT@161655 SLSBYSYX@CAELT@SABO SLSB 161700@CAELT@METAR SLSB 161700Z 30012KT 9999 BKN017 SCT080 31/24 Q1010 A2985 HR67@CAELT@SH DIST SW RWY NML=@CAELT@
ZPX0625 161654@CAELT@GG SLZZYMYT@CAELT@161654 SLRBYGYS@CAELT@SABO SLRB 161700@CAELT@METAR SLRB 161700Z 36006KT 9999 SCT020 33/23 Q1013 A2991 HR54 RWY NML=@CAELT@
ZPX0626 161655@CAELT@GG SLZZYMYT@CAELT@161655 SLVRYGYZ@CAELT@SABO SLVR 161700@CAELT@METAR SLVR 161700Z 32015G26KT 9999 SCT017 33/23 Q1011 A2988 HR56 CI@CAELT@NOSIG=@CAELT@
ZPX0628 161656@CAELT@GG SLZZYMYT@CAELT@161655 SLLPYGYZ@CAELT@SABO SLLP 161700@CAELT@METAR SLLP 161700Z 20007KT 9999 SCT017 FEW020CB BKN200 17/01 Q1036@CAELT@A3062 627.2 HR36 P4354 CB/SH SW AC NOSIG=@CAELT@
ZPX0629 161656@CAELT@GG SLZZYMYT@CAELT@161655 SLTRYGYZ@CAELT@SABO SLTR 161700@CAELT@METAR SLTR 161700Z 36006KT 7000 VCSH FEW020 FEW023CB 30/26@CAELT@Q1010 A2985 992.4 HR80 RESHRA CB NW SH E/NW TEMPO SHRA=@CAELT@
ZPX0630 161656@CAELT@GG SLZZYMYT@CAELT@161655 SLCOYGYZ@CAELT@SABO SLCO 161700@CAELT@METAR SLCO 161700Z 35006KT 9999 BKN012 BKN080 27/24 Q1013 A2992 985.8@CAELT@HR82=@CAELT@
ZPX0631 161656@CAELT@GG SLZZYMYT@CAELT@161646 SLUYYGYS@CAELT@SABO SLUY 161700@CAELT@METAR SLUY 161700Z 33014KT 9999 FEW020 SCT200 18/M05 Q1032@CAELT@A3049 657.2 HR20=@CAELT@
ZPX0633 161657@CAELT@GG SLZZYMYT@CAELT@161656 SLAGYSYX@CAELT@SABO SLAG 161700@CAELT@METAR SLAG 161700Z 20006KT 9999 SCT023 FEW030TCU 33/17 Q1014 A2996@CAELT@887.0 HR40 TCU/SW CI FU=@CAELT@
ZPX0634 161657@CAELT@GG SLZZYMYT@CAELT@161654 SLSAYGYS@CAELT@SABO SLSA 161700@CAELT@METAR SLSA 161700Z 32010KT 8000 VCSH BKN017 FEW023CB BKN200 32/24@CAELT@Q1011 A2987 HR64 CB/SH NE/SE=@CAELT@
ZPX0635 161657@CAELT@GG SLZZYMYT@CAELT@161655 SLCBYGYZ@CAELT@SABO SLCB 161700@CAELT@METAR SLCB 161700Z 34005KT 9999 SCT042 FEW045TCU 29/06 Q1021 A3017@CAELT@748.7 HR23 TCU/NW FU NOSIG=@CAELT@
ZPX0636 161658@CAELT@GG SLZZYMYT@CAELT@161658 SLTRYGYS@CAELT@SABO SLTR 161700@CAELT@METAR SLTR 161700Z 36006KT 7000 VCSH FEW020 FEW023CB 30/26 Q1010@CAELT@A2985 992.4 HR80 RESHRA CB NW SH E/NW TEMPO SHRA=@CAELT@METAR SLGM 161700Z 36004KT 9999 FEW017 FEW020CB BKN080 29/24 Q1012@CAELT@A2990 HR74 CB SW/W=@CAELT@METAR SLRI 161700Z 36004KT 8000 VCSH SCT015 FEW020CB BKN080 28/23Q1013 A2994 HR77 CB/SH S/SW/W=METAR SLJO 161700Z 34010KT 9999 SCT017 SCT080 BKN200 32/24 Q1011A2988 HR60 RWY NML=METAR SLRA 161700Z 35010KT 9999 SCT017 34/23 Q1011 A2988 HR53RWY NML=METAR SLMG 161700Z 32010KT 9999 SCT017 BKN200 33/24 Q1011 A2988 HR60METAR SLBU 161700Z 32004KT 9999 SCT017 33/25 Q1008 A2979 HR60METAR SLSA 161700Z 32010KT 8000 VCSH BKN017 FEW023CB BKN200 32/24Q1011 A2987 HR64 CB/SH NE/SE=METAR SLSR 161700Z 32015G25KT 8000 VCSH SCT017 FEW020CB BKN200 31/24Q1010 A2983 HR66 CB/SH SE/SW/NW RWY NML=METAR SLSM 161700Z 33008KT 7000 VCSH BKN017 FEW020CB 29/25 Q1010A2985 HR80 CB/SH NE/E/W/NW RWY NML=
ZPX0637 161658@CAELT@GG SLZZYMYT@CAELT@161656 SLTJYGYZ@CAELT@SABO SLTJ 161700@CAELT@METAR SLTJ 161700Z 14008KT 9999 SCT030 BKN070 24/14 Q1019 A3012 814.9@CAELT@HR54=@CAELT@
ZPX0639 161658@CAELT@GG SLZZYMYT@CAELT@161658 SLVRYFYC@CAELT@SABO SLVR 161600@CAELT@METAR SLVR 161700Z 32015G26KT 9999 SCT017 33/23 Q1011 A2988 HR56 CI@CAELT@NOSIG=@CAELT@METAR SLET 161700Z 32016G29KT 9999 BKN017 FEW025TCU 30/22 Q1011 A2986@CAELT@HR63 TCU S AC/CI NOSIG=@CAELT@METAR SLAS 161600Z 34010KT 8000 VCSH BKN020 FEW030CB 31/24 Q1013A2992 HR67 CB/SH/NW/NE RWY NML=METAR SLCP 161600Z 36006KT 9999 BKN017 32/23 Q1015 A2997 HR60 RWY NMLMETAR SLSI 161600Z 36006KT 9999 SCT017 32/21 Q1012 A2988 HR52 RWYNML=METAR SLRB 161700Z 36006KT 9999 SCT020 33/23 Q1013 A2991 HR54 RWY NMLMETAR SLPS 161700Z 36012KT 9999 SCT020 36/25 Q1009 A2980 HR54=METAR SLCA 161700Z 21006KT 9999 BKN036 33/16 Q1013 A2991 HR37 RWY NML
ZPX0641 161700@CAELT@GG SLZZYMYT@CAELT@161659 SLCBYGYS@CAELT@SABO SLCB 161700@CAELT@METAR SLCB 161700Z 34005KT 9999 SCT042 FEW045TCU 29/06 Q1021 A3017@CAELT@748.7 HR23 TCU/NW FU NOSIG=@CAELT@METAR SLAL 161700Z 02009KT 9999 SCT023 FEW033CB 21/07 Q1028 A3036@CAELT@703.0 HR42 CB SE/W=@CAELT@METAR SLPO 161700Z 06004KT 9999 FEW020 20/05 Q1034 A3053 635.4 HR38=METAR SLAG 161700Z 20006KT 9999 SCT023 FEW030TCU 33/17 Q1014 A2996887.0 HR40 TCU/SW CI FU=METAR SLVM 161700Z 18012KT 9999 SCT025 BKN070 31/24 Q1011 A2986 HR66METAR SLTJ 161700Z 14008KT 9999 SCT030 BKN070 24/14 Q1019 A3012 814.9HR54=METAR SLYA 161700Z 21010KT 9999 SCT023 BKN070 30/22 Q1014 A2995 939.0HR63=METAR SLBJ 161700Z NIL=METAR SLHI 161700Z NIL=
ZPX0643 161701@CAELT@GG SLZZYMYT@CAELT@161700 SLLPYFYA@CAELT@SABO SLLP 161700@CAELT@METAR SLLP 161700Z 20007KT 9999 SCT017 FEW020CB BKN200 17/01 Q1036@CAELT@A3062 627.2 HR36 P4354 CB/SH SW AC NOSIG=@CAELT@METAR SLCO 161700Z 35006KT 9999 BKN012 BKN080 27/24 Q1013 A2992@CAELT@985.8 HR82=@CAELT@METAR SLRY 161700Z 32004KT 9999 SCT015 SCT080 29/24 Q1010A2985 HR76 RWY WET OPR C206=METAR SLRQ 161700Z 00000KT 9999 FEW006 BKN012 BKN070 28/25 Q1011A2986 986.9 HR86=METAR SLAP 161700Z 36015G25KT 9999 SCT025 FEW027CB BKN200 27/17Q1016 A3003 857.6 HR57 CB/SE/S AC=METAR SLSB 161700Z 30012KT 9999 BKN017 SCT080 31/24 Q1010 A2985HR67 SH DIST SW RWY NML=METAR SLOR 161700Z NIL=METAR SLUY 161700Z 33014KT 9999 FEW020 SCT200 18/M05 Q1032 A3049657.2 HR20=
ZPX0652 161722@CAELT@GG SLZZYMYT@CAELT@161720 SLORYGYZ@CAELT@SABO SLOR 161700 RRA@CAELT@METAR RTD SLOR 161700Z 33007KT 9999 FEW023 FEW025CB 23/00 Q1033 A3051@CAELT@654.7 HR22 CB/E/SE AC/CI=@CAELT@
ZPX0672 161748@CAELT@GG SLZZYMYT@CAELT@161740 SLLPYFYA@CAELT@SABO SLLP 161700 RRA@CAELT@METAR SLLP 161700Z 20007KT 9999 SCT017 FEW020CB BKN200 17/01 Q1036@CAELT@A3062 627.2 HR36 P4354 CB/SH SW AC NOSIG=@CAELT@METAR SLCO 161700Z 35006KT 9999 BKN012 BKN080 27/24 Q1013 A2992@CAELT@985.8 HR82=@CAELT@METAR SLRY 161700Z 32004KT 9999 SCT015 SCT080 29/24 Q1010A2985 HR76 RWY WET OPR C206=METAR SLRQ 161700Z 00000KT 9999 FEW006 BKN012 BKN070 28/25 Q1011A2986 986.9 HR86=METAR SLAP 161700Z 36015G25KT 9999 SCT025 FEW027CB BKN200 27/17Q1016 A3003 857.6 HR57 CB/SE/S AC=METAR SLSB 161700Z 30012KT 9999 BKN017 SCT080 31/24 Q1010 A2985HR67 SH DIST SW RWY NML=METAR RTD SLOR 161700Z 33007KT 9999 FEW023 FEW025CB 23/00 Q1033A3051 654.7 HR22 CB/E/SE AC/CI=METAR SLUY 161700Z 33014KT 9999 FEW020 SCT200 18/M05 Q1032 A3049657.2 HR20=
ZPX0678 161752@CAELT@GG SLZZYMYT@CAELT@161751 SLPSYGYS@CAELT@SABO SLPS 161800@CAELT@METAR SLPS 161800Z 00000KT 9999 SCT020 37/25 Q1008 A2977 HR51=@CAELT@
ZPX0679 161753@CAELT@GG SLZZYMYT@CAELT@161752 SLETYMYC@CAELT@SABO SLET 161800@CAELT@METAR SLET 161800Z 31016G29KT 9999 SCT020 BKN200 32/23 Q1010 A2982@CAELT@HR59 NOSIG=@CAELT@
ZPX0681 161754@CAELT@GG SLZZYMYT@CAELT@161753 SLCAYGYS@CAELT@SABO SLCA 161800@CAELT@METAR SLCA 161800Z 21006KT 9999 BKN036 FEW040CB 33/17 Q1013 A2991@CAELT@HR39 CB/SH W RWY NML=@CAELT@
ZPX0682 161754@CAELT@GG SLZZYMYT@CAELT@161753 SLRBYGYS@CAELT@SABO SLRB 161800@CAELT@METAR SLRB 161800Z 36004KT 9999 SCT020 34/23 Q1012 A2988 HR52 RWY NML=@CAELT@
ZPX0683 161754@CAELT@GG SLZZYMYT@CAELT@161754 SLVRYGYZ@CAELT@SABO SLVR 161800@CAELT@METAR SLVR 161800Z 34012G25KT 9999 SCT020 FEW030CB 33/23 Q1010 A2984@CAELT@HR58 CB DIST N CI NOSIG=@CAELT@
ZPX0684 161755@CAELT@GG SLZZYMYT@CAELT@161755 SLORYGYZ@CAELT@SABO SLOR 161800@CAELT@METAR SLOR 161800Z 36008KT 9999 FEW023 FEW027CB 24/02 Q1031 A3047 653@CAELT@.7 HR24 CB/SH E/SE AC/CI=@CAELT@
ZPX0685 161755@CAELT@GG SLZZYMYT@CAELT@161755 SLCOYGYZ@CAELT@SABO SLCO 161800@CAELT@METAR SLCO 161800Z 33007KT 9999 BKN015 BKN200 28/24 Q1011 A2987 987.2@CAELT@HR79 AC=@CAELT@
ZPX0686 161755@CAELT@GG SLZZYMYT@CAELT@161754 SLORYGYZ@CAELT@SABO SLOR 161800@CAELT@METAR SLOR 161800Z 36008KT 9999 FEW023 FEW027CB 24/02 Q1031 A3047 653@CAELT@.7 HR24 CB/SH E/SE AC/CI=@CAELT@
ZPX0687 161755@CAELT@GG SLZZYMYT@CAELT@161755 SLORYGYZ@CAELT@SABO SLOR 161800@CAELT@METAR SLOR 161800Z 36008KT 9999 FEW023 FEW027CB 24/02 Q1031 A3047 653@CAELT@.7 HR24 CB/SH E/SE AC/CI=@CAELT@
ZPX0689 161756@CAELT@GG SLZZYMYT@CAELT@161755 SLTJYGYZ@CAELT@SABO SLTJ 161800@CAELT@METAR SLTJ 161800Z 14008KT 9999 SCT030 BKN070 24/14 Q1019 A3010 814.4@CAELT@HR55=@CAELT@
ZPX0690 161756@CAELT@GG SLZZYMYT@CAELT@161755 SLSBYSYX@CAELT@SABO SLSB 161800@CAELT@METAR SLSB 161800Z 29010G20KT 9999 BKN017 SCT080 BKN200 31/24 Q1010@CAELT@A2983 HR67 RWY NML=@CAELT@
ZPX0691 161756@CAELT@GG SLZZYMYT@CAELT@161755 SLCBYGYZ@CAELT@SABO SLCB 161800@CAELT@METAR SLCB 161800Z 03005KT 9999 FEW042 FEW045CB SCT200 30/06 Q1020@CAELT@A3012 747.6 HR22 CB/W/NW FU AC NOSIG=@CAELT@
ZPX0692 161756@CAELT@GG SLZZYMYT@CAELT@161755 SLLPYGYZ@CAELT@SABO SLLP 161800@CAELT@METAR SLLP 161800Z 11009G19KT 050V170 9999 SCT017 FEW020CB BKN200@CAELT@18/01 Q1035 A3058 626.3 HR32 P3784 CB/SH SE/SW/NW AC NOSIG=@CAELT@
ZPX0694 161757@CAELT@GG SLZZYMYT@CAELT@161755 SLAGYSYX@CAELT@SABO SLAG 161800@CAELT@METAR SLAG 161800Z 12005KT 7000 VCSH BKN025 FEW033CB 32/17 Q1013@CAELT@A2994 886.4 HR40 CB NE/E/SW SH/NE/E=@CAELT@
ZPX0695 161757@CAELT@GG SLZZYMYT@CAELT@161756 SLSAYGYS@CAELT@SABO SLSA 161800@CAELT@METAR SLSA 161800Z 36015KT 6000 TS VCSH BKN017 FEW023CB BKN200 32/24@CAELT@Q1009 A2982 HR64 CB/SH N/NE/E/SE TS N/NE=@CAELT@
ZPX0696 161757@CAELT@GG SLZZYMYT@CAELT@161756 SLTRYGYZ@CAELT@SABO SLTR 161800@CAELT@METAR SLTR 161800Z 30004KT 9999 FEW020 FEW023CB SCT200 30/25 Q1009@CAELT@A2982 991.3 HR73 CB NE/E/SE/SW TEMPO SHRA=@CAELT@
ZPX0699 161759@CAELT@GG SLZZYMYT@CAELT@161758 SLTRYGYS@CAELT@SABO SLTR 161800@CAELT@METAR SLTR 161800Z 30004KT 9999 FEW020 FEW023CB SCT200 30/25 Q1009@CAELT@A2982 991.3 HR73 CB NE/E/SE/SW TEMPO SHRA=@CAELT@METAR SLGM 161800Z 02006KT 9999 SCT017 FEW020CB BKN080 31/24 Q1011@CAELT@A2987 HR67 CB E/SW=@CAELT@METAR SLRI 161800Z 35008KT 9999 SCT017 FEW020CB BKN080 29/24 Q1012A2991 HR72 CB SE/W/NW CI=METAR SLJO 161800Z NIL=METAR SLRA 161800Z 35010KT 7000 VCSH SCT017 FEW023CB 33/23 Q1010A2985 HR55 CB/SH N/NW RWY NML=METAR SLMG 161800Z 34006KT 8000 VCSH SCT017 FEW023CB 33/24 Q1011A285 HR58 CB/SH SE/S RWY NML=METAR SLBU 161800Z 32004KT 9999 SCT017 34/25 Q1007 A2976 HR59RWY NML=METAR SLSA 161800Z 36015KT 6000 TS VCSH BKN017 FEW023CB BKN200 32/24Q1009 A2982 HR64 CB/SH N/NE/E/SE TS N/NE=METAR SLSR 161800Z 32015G25KT 6000 VCSH SCT017 FEW020CB BKN200 31/23Q1009 A2980 HR64 CB/SH E/SE/SW/W RWY NML=METAR SLSM 161800Z 33012KT 6000 VCSH BKN017 FEW020B BKN200 30/25Q1009 A2982 HR77 CB/SH N/E/SW/W RWY NML=
ZPX0700 161759@CAELT@GG SLZZYMYT@CAELT@161758 SLCBYGYS@CAELT@SABO SLCB 161800@CAELT@METAR SLCB 161800Z 03005KT 9999 FEW042 FEW045CB SCT200 30/06 Q1020@CAELT@A3012 747.6 HR22 CB/W/NW FU AC NOSIG=@CAELT@METAR SLAL 161800Z 01018KT 9999 SCT023 FEW033CB 22/04 Q1027 A3033@CAELT@702.2 HR34 CB/NE/SE/SW/W CI=@CAELT@METAR SLPO 161800Z NIL=METAR SLAG 161800Z 12005KT 7000 VCSH BKN025 FEW033CB 32/17 Q1013A2994 886.4 HR40 CB NE/E/SW SH/NE/E=METAR SLVM 161800Z NIL=METAR SLTJ 161800Z 14008KT 9999 SCT030 BKN070 24/14 Q1019 A3010 814.4HR55=METAR SLYA 161800Z 21010KT 9999 SCT020 OVC070 28/22 Q1013 A2994 938.5HR68=METAR SLBJ 161800Z NIL=METAR SLHI 161800Z NIL=
ZPX0703 161800@CAELT@GG SLZZYMYT@CAELT@161758 SLVRYFYC@CAELT@SABO SLVR 161800@CAELT@METAR SLVR 161800Z 34012G25KT 9999 SCT020 FEW030CB 33/23 Q1010 A2984@CAELT@HR58 CB DIST N CI NOSIG=@CAELT@METAR SLET 161800Z 31016G29KT 9999 SCT020 BKN200 32/23 Q1010 A2982@CAELT@HR59 NOSIG=@CAELT@METAR SLAS 161800Z 34010KT 8000 TS VCSH BKN020 FEW030CB 29/24 Q1014A2994 HR73 CB/TS/SH/S/SW/W RWY NML=METAR SLJV 161800Z 00000KT 9999 BKN020 33/25 Q1010 A2983 HR63 RWY NMLMETAR SLCP 161800Z 34006KT 9999 BKN017 32/22 Q1014 A2994 HR58 RWY NMLMETAR SLSI 161800Z 33006KT 9999 SCT017 34/21 Q1011 A2985 HR47 RWY NMLMETAR SLTI 161800Z 00000KT 9999 BKN017 37/21 Q1013 A2991 HR40 RWY NMLMETAR SLJE 161800Z 32008KT 9999 SCT017 34/22 Q1013 A2991 HR52 RWY NMLMETAR SLVG 161800Z 00000KT 9999 SCT027 FEW030CB 26/16 Q1022 A3018HR51 CB/SE/S/SW RWY NML=METAR SLRB 161800Z 36004KT 9999 SCT020 34/23 Q1012 A2988 HR52 RWY NMLMETAR SLPS 161800Z 00000KT 9999 SCT020 37/25 Q1008 A2977 HR51=METAR SLCA 161800Z 21006KT 9999 BKN036 FEW040CB 33/17 Q1013 A2991HR39 CB/SH W RWY NML=
ZPX0704 161800@CAELT@GG SLZZYMYT@CAELT@161756 SLLPYFYA@CAELT@SABO SLRY 161800@CAELT@METAR SLRY 161800Z 35003KT 2000 -TSRA BKN012 FEW023CB OVC070 25/25@CAELT@Q1010 A2984 HR97 CB TS W/SW RWY WET INOP=@CAELT@
ZPX0705 161802@CAELT@GG SLZZYMYT@CAELT@161801 SLLPYFYA@CAELT@SABO SLLP 161800@CAELT@METAR SLLP 161800Z 11009G19KT 050V170 9999 SCT017 FEW020CB BKN200@CAELT@18/01 Q1035 A3058 626.3 HR32 P3784 CB/SH SE/SW/NW AC NOSIG=@CAELT@METAR SLCO 161800Z 33007KT 9999 BKN015 BKN200 28/24 Q1011 A2987 987.2@CAELT@HR79 AC=@CAELT@METAR SLRY 161800Z 35003KT 2000 -TSRA BKN012 FEW023CB OVC070 25/25Q1010 A2984 HR97 CB TS W/SW RWY WET INOP=METAR SLRQ 161800Z 00000KT 6000 -SHRA BKN012 FEW017CB OVC070 28/26Q1010 A2983 986.2 HR86 CB N/NE=METAR SLSB 161800Z 29010G20KT 9999 BKN017 SCT080 BKN200 31/24 Q1010A2983 HR67 RWY NML=METAR SLOR 161800Z 36008KT 9999 FEW023 FEW027CB 24/02 Q1031 A3047 653.7 HR24 CB/SH E/SE AC/CI=
ZPX0711 161810@CAELT@GG SLZZYMYT@CAELT@161801 SLLPYFYA@CAELT@SABO SLLP 161800@CAELT@METAR SLLP 161800Z 11009G19KT 050V170 9999 SCT017 FEW020CB BKN200@CAELT@18/01 Q1035 A3058 626.3 HR32 P3784 CB/SH SE/SW/NW AC NOSIG=@CAELT@METAR SLCO 161800Z 33007KT 9999 BKN015 BKN200 28/24 Q1011 A2987 987.2@CAELT@HR79 AC=@CAELT@METAR SLRY 161800Z 35003KT 2000 -TSRA BKN012 FEW023CB OVC070 25/25Q1010 A2984 HR97 CB TS W/SW RWY WET INOP=METAR SLRQ 161800Z 00000KT 6000 -SHRA BKN012 FEW017CB OVC070 28/26Q1010 A2983 986.2 HR86 CB N/NE=METAR SLAP 161800Z 36015G25KT 9999 SCT025 FEW027CB BKN200 28/19 Q1015A2998 856.3 HR56 CB/SH SE/S AC=METAR SLSB 161800Z 29010G20KT 9999 BKN017 SCT080 BKN200 31/24 Q1010A2983 HR67 RWY NML=METAR SLOR 161800Z 36008KT 9999 FEW023 FEW027CB 24/02 Q1031 A3047 653.7 HR24 CB/SH E/SE AC/CI=
ZPX0735 161852@CAELT@GG SLZZYMYT@CAELT@161852 SLETYMYC@CAELT@SABO SLET 161900@CAELT@METAR SLET 161900Z 31015G25KT 9999 SCT020 FEW025CB BKN200 31/24 Q1009@CAELT@A2981 HR66 CB NW/N/S/SW NOSIG=@CAELT@
ZPX0736 161852@CAELT@GG SLZZYMYT@CAELT@161851 SLPSYGYS@CAELT@SABO SLPS 161900@CAELT@METAR SLPS 161900Z 36004KT 9999 SCT020 FEW030CB 37/25 Q1007 A2974@CAELT@HR52 CB/SW/E=@CAELT@
ZPX0737 161853@CAELT@GG SLZZYMYT@CAELT@161853 SLCAYGYS@CAELT@SABO SLCA 161900@CAELT@METAR SLCA 161900Z 21005KT 9999 BKN036 FEW040CB 33/17 Q1012 A2988@CAELT@HR36 CB/SH W/NW RWY NML=@CAELT@
ZPX0738 161855@CAELT@GG SLZZYMYT@CAELT@161853 SLRBYGYS@CAELT@SABO SLRB 161900@CAELT@METAR SLRB 161900Z 36006KT 9999 SCT020 35/23 Q1010 A2983 HR49 RWY NML=@CAELT@
ZPX0740 161855@CAELT@GG SLZZYMYT@CAELT@161855 SLSBYSYX@CAELT@SABO SLSB 161900@CAELT@METAR SLSB 161900Z 30010KT 8000 VCSH SCT020 FEW025CB BKN200 32/24@CAELT@Q1008 A2979 HR63 CB SH NW NE RWY NML=@CAELT@
ZPX0741 161855@CAELT@GG SLZZYMYT@CAELT@161854 SLSAYGYS@CAELT@SABO SLSA 161900@CAELT@METAR SLSA 161900Z 36008KT 7000 TS VCSH SCT017 FEW023CB BKN200 27/24@CAELT@Q1009 A2980 HR85 RESHRA CB/SH NE/E/SE TS NE=@CAELT@
ZPX0742 161855@CAELT@GG SLZZYMYT@CAELT@161856 SLVRYGYZ@CAELT@SABO SLVR 161900@CAELT@METAR SLVR 161900Z 34013G23KT 9999 SCT020 FEW030CB 33/23 Q1009 A2982@CAELT@HR57 CB DIST N CI NOSIG=@CAELT@
ZPX0743 161856@CAELT@GG SLZZYMYT@CAELT@161855 SLLPYGYZ@CAELT@SABO SLLP 161900@CAELT@METAR SLLP 161900Z 06011G21KT 030V090 8000 -TSRA SCT017 FEW020CB@CAELT@BKN200 13/02 Q1035 A3057 626.2 HR45 P2784 CB/ON/STN E/S/SW/NW AC@CAELT@NOSIG=@CAELT@
ZPX0744 161856@CAELT@GG SLZZYMYT@CAELT@161855 SLTJYGYZ@CAELT@SABO SLTJ 161900@CAELT@METAR SLTJ 161900Z 17008KT 9999 SCT030 BKN070 23/14 Q1018 A3007 813.6@CAELT@HR57=@CAELT@
ZPX0747 161856@CAELT@GG SLZZYMYT@CAELT@161855 SLTRYGYZ@CAELT@SABO SLTR 161900@CAELT@METAR SLTR 161900Z 26008KT 8000 TS VCSH SCT020 FEW023CB BKN200 30/25@CAELT@Q1009 A2980 990.5 HR76 CB/SH NE/SE/SW/W/NW TS NE/NW TEMPO TSRA=@CAELT@
ZPX0748 161857@CAELT@GG SLZZYMYT@CAELT@161856 SLCOYGYZ@CAELT@SABO SLCO 161900@CAELT@METAR SLCO 161900Z 34008KT 9999 SCT017 BKN200 29/24 Q1011 A2987 983.8@CAELT@HR71 AC=@CAELT@
ZPX0749 161857@CAELT@GG SLZZYMYT@CAELT@161855 SLCBYGYZ@CAELT@SABO SLCB 161900@CAELT@METAR SLCB 161900Z 02008KT 290V050 9999 FEW042 FEW045CB SCT200 29/05@CAELT@Q1019 A3010 746.9 HR20 CB/SE/SW/W FU AC NOSIG=@CAELT@
ZPX0751 161857@CAELT@GG SLZZYMYT@CAELT@161855 SLORYGYZ@CAELT@SABO SLOR 161900@CAELT@METAR SLOR 161900Z 03012KT 9999 FEW025 FEW027CB SCT200 24/03 Q1031@CAELT@A3046 653.5 HR25 CB/SH N/NE/E/SE AC=@CAELT@
ZPX0752 161858@CAELT@GG SLZZYMYT@CAELT@161858 SLTRYGYS@CAELT@SABO SLTR 161900@CAELT@METAR SLTR 161900Z 26008KT 8000 TS VCSH SCT020 FEW023CB BKN200 30/25@CAELT@Q1009 A2980 990.5 HR76 CB/SH NE/SE/SW/W/NW TS NE/NW TEMPO TSRA=@CAELT@METAR SLGM 161900Z 35008KT 9999 SCT017 FEW020CB 31/24 Q1010 A2983@CAELT@HR65 AC CB E/SE=@CAELT@METAR SLRI 161900Z 34008KT 9999 SCT017 FEW020CB BKN080 30/24 Q1011A2987 HR71 CB SE/NW CI=METAR SLJO 161900Z NIL=METAR SLRA 161900Z 35006KT 7000 VCSH SCT017 FEW023CB 29/23 Q1009A2982 HR73 CB/SH S/W RWY NML=METAR SLMG 161900Z 34006KT 8000 VCSH SCT017 FEW023CB 32/24 Q1010A2982 HR63 CI CB/SH N/NE RWY NML=METAR SLBU 161900Z 32004KT 9999 SCT017 35/25 Q1006 A2973 HR56RWY NML=METAR SLSA 161900Z 36008KT 7000 TS VCSH SCT017 FEW023CB BKN200 27/24Q1009 A2980 HR85 RESHRA CB/SH NE/E/SE TS NE=METAR SLSR 161900Z 32010KT 8000 VCSH SCT017 FEW020CB BKN200 27/26Q1008 A2979 HR94 RERA CB/SH N/NE/E/SE RWY WET OPR C210=METAR SLSM 161900Z 00000KT 9999 TS SCT017 FEW020CB BKN200 26/24Q1009 A2980 HR83 CB N/SE/S/W/NW TS SE/S/NW RWY NML=
ZPX0753 161859@CAELT@GG SLZZYMYT@CAELT@161858 SLVRYFYC@CAELT@SABO SLVR 161900@CAELT@METAR SLVR 161900Z 34013G23KT 9999 SCT020 FEW030CB 33/23 Q1009 A2982@CAELT@HR57 CB DIST N CI NOSIG=@CAELT@METAR SLET 161900Z 31015G25KT 9999 SCT020 FEW025CB BKN200 31/24 Q1009@CAELT@A2981 HR66 CB NW/N/S/SW NOSIG=@CAELT@METAR SLAS 161900Z 00000KT 9999 SCT020 FEW030CB BKN200 27/24 Q1012A2989 HR83 CB/SH/N/NE/SE RETS RWY NML=METAR SLJV 161900Z 36005KT 9999 BKN020 FEW030CB 32/24 Q1009 A2980HR63 CB NW/W RWY NML=METAR SLCP 161900Z 31005KT 9999 BKN017 30/23 Q1013 A2991 HR66 RWY NMLMETAR SLSI 161900Z 36006KT 9999 SCT017 34/22 Q1010 A2983 HR48 RWY NMLMETAR SLTI 161900Z 00000KT 9999 SCT020 37/21 Q1011 A2985 HR40 RWY NMLMETAR SLJE 161900Z 32008KT 9999 FEW017 FEW027CB 34/23 Q1012 A2988HR52 CB/E/NW RWY NML=METAR SLVG 161900Z 18008KT 9999 SCT027 FEW030CB 23/17 Q1021 A3015HR65 CB/ON STN/E/SE/S RWY NML=METAR SLRB 161900Z 36006KT 9999 SCT020 35/23 Q1010 A2983 HR49 RWY NMLMETAR SLPS 161900Z 36004KT 9999 SCT020 FEW030CB 37/25 Q1007 A2974HR52 CB/SW/E=METAR SLCA 161900Z 21005KT 9999 BKN036 FEW040CB 33/17 Q1012 A2988HR36 CB/SH W/NW RWY NML=
ZPX0757 161900@CAELT@GG SLZZYMYT@CAELT@161857 SLLPYFYA@CAELT@SABO SLRY 161900@CAELT@METAR SLRY 161900Z 00000KT 5000 TS VCSH SCT012 BKN015 OVC070 24/23@CAELT@Q1010 A2983 HR96 CB TS S/SE SH SE/SW RWY WET INOP=@CAELT@
ZPX0759 161902@CAELT@GG SLZZYMYT@CAELT@161901 SLLPYFYA@CAELT@SABO SLLP 161900@CAELT@METAR SLLP 161900Z 06011G21KT 030V090 8000 -TSRA SCT017 FEW020CB@CAELT@BKN200 13/02 Q1035 A3057 626.2 HR45 P2784 CB/ON/STN E/S/SW/NW AC@CAELT@NOSIG=@CAELT@METAR SLCO 161900Z 34008KT 9999 SCT017 BKN200 29/24 Q1011 A2987 983.8@CAELT@HR71 AC=METAR SLRY 161900Z 00000KT 5000 TS VCSH SCT012 BKN015 OVC070 24/23Q1010 A2983 HR96 CB TS S/SE SH SE/SW RWY WET INOP=METAR SLRQ 161900Z 32005KT 7000 -TSRA BKN010 FEW017CB OVC070 25/25Q1010 A2984 986.3 HR98 TS/CB N/NE/NW=METAR SLSB 161900Z 30010KT 8000 VCSH SCT020 FEW025CB BKN200 32/24Q1008 A2979 HR63 CB SH NW NE RWY NML=METAR SLOR 161900Z 03012KT 9999 FEW025 FEW027CB SCT200 24/03 Q1031A3046 653.5 HR25 CB/SH N/NE/E/SE AC=
ZPX0762 161904@CAELT@GG SLZZYMYT@CAELT@161903 SLCBYGYS@CAELT@SABO SLCB 161900@CAELT@METAR SLCB 161900Z 02008KT 290V050 9999 FEW042 FEW045CB SCT200 29/05@CAELT@Q1019 A3010 746.9 HR20 CB/SE/SW/W FU AC NOSIG=@CAELT@METAR SLAL 161900Z 04018KT 9999 SCT023 FEW033CB BKN200 21/07 Q1025@CAELT@A3029 701.4 HR43 CB/SE/S/SW=@CAELT@METAR SLPO 161900Z NIL=METAR SLAG 161900Z NIL=METAR SLVM 161900Z NIL=METAR SLTJ 161900Z 17008KT 9999 SCT030 BKN070 23/14 Q1018 A3007 813.6HR57=METAR SLYA 161900Z NIL=METAR SLBJ 161900Z NIL=METAR SLHI 161900Z NIL=
ZPX0791 161953@CAELT@GG SLZZYMYT@CAELT@161952 SLPSYGYS@CAELT@SABO SLPS 192000@CAELT@METAR SLPS 192000Z 09005KT 9999 SCT020 FEW030CB 37/25 Q1006 A2971@CAELT@HR51 CB/S=@CAELT@
ZPX0792 161955@CAELT@GG SLZZYMYT@CAELT@161954 SLRBYGYS@CAELT@SABO SLRB 162000@CAELT@METAR SLRB 162000Z 36004KT 9999 FEW020 35/23 Q1010 A2983 HR49 RWY NML=@CAELT@
ZPX0793 161955@CAELT@GG SLZZYMYT@CAELT@161956 SLVRYGYZ@CAELT@SABO SLVR 162000@CAELT@METAR SLVR 162000Z 35013KT 9999 SCT020 33/23 Q1008 A2979 HR57 CI@CAELT@NOSIG=@CAELT@
ZPX0794 161955@CAELT@GG SLZZYMYT@CAELT@161955 SLSBYSYX@CAELT@SABO SLSB 162000@CAELT@METAR SLSB 162000Z 29005KT 5000 -TSRA SCT010 FEW025CB BKN200 24/24@CAELT@Q1008 A2977 HR97 TS CB S RWY WET OPR C210=@CAELT@
ZPX0795 161955@CAELT@GG SLZZYMYT@CAELT@161949 SLETYMYC@CAELT@SABO SLET 162000@CAELT@METAR SLET 162000Z 32012G23KT 9999 SCT020 FEW030CB SCT200 30/23 Q1008@CAELT@A2978 HR64 CB N/S/SW NOSIG=@CAELT@
ZPX0796 161956@CAELT@GG SLZZYMYT@CAELT@161955 SLCOYGYZ@CAELT@SABO SLCO 162000@CAELT@METAR SLCO 162000Z 33006KT 9999 FEW017 SCT080 BKN200 30/24 Q1009@CAELT@A2979 981.6 HR70=@CAELT@
ZPX0797 161956@CAELT@GG SLZZYMYT@CAELT@161955 SLTJYGYZ@CAELT@SABO SLTJ 162000@CAELT@METAR SLTJ 162000Z 13004KT 9999 BKN030 OVC070 23/14 Q1017 A3006 813.2@CAELT@HR59=@CAELT@
ZPX0798 161956@CAELT@GG SLZZYMYT@CAELT@161955 SLORYGYZ@CAELT@SABO SLOR 162000@CAELT@METAR SLOR 162000Z 02015KT 9999 VCTS SCT025 FEW027CB BKN200 19/07@CAELT@Q1031 A3045 653.3 HR45 CB/SH N/NE/E TS/NE AC=@CAELT@
ZPX0800 161956@CAELT@GG SLZZYMYT@CAELT@161955 SLLPYGYZ@CAELT@SABO SLLP 162000@CAELT@METAR SLLP 162000Z 04009KT 010V070 9999 FEW017 FEW020CB SCT070 BKN200@CAELT@14/01 Q1034 A3054 625.4 HR42 P3483 CB/SH S/SW/W/NW NOSIG=@CAELT@
ZPX0801 161957@CAELT@GG SLZZYMYT@CAELT@161957 SLCAYGYS@CAELT@SABO SLCA 162000@CAELT@METAR SLCA 162000Z 21004KT 9999 TS BKN036 FEW040CB 32/17 Q1011 A2985@CAELT@HR41 RWY NML=@CAELT@
ZPX0802 161958@CAELT@GG SLZZYMYT@CAELT@161957 SLCBYGYZ@CAELT@SABO SLCB 162000@CAELT@METAR SLCB 162000Z 34008KT 250V060 9999 FEW042 FEW045CB BKN200 28/05@CAELT@Q1018 A3007 746.2 HR22 CB/NW/NE/SW FU AC NOSIG=@CAELT@
ZPX0803 161958@CAELT@GG SLZZYMYT@CAELT@161958 SLVRYFYC@CAELT@SABO SLVR 162000@CAELT@METAR SLVR 162000Z 35013KT 9999 SCT020 33/23 Q1008 A2979 HR57 CI@CAELT@NOSIG=@CAELT@METAR SLET 162000Z 32012G23KT 9999 SCT020 FEW030CB SCT200 30/23 Q1008@CAELT@A2978 HR64 CB N/S/SW NOSIG=@CAELT@METAR SLAS 162000Z 00000KT 9999 FEW030CB OVC200 27/25 Q1011 A2986HR85 CB/SH/E/SE RWY NML=METAR SLJV 162000Z 36010KT 9999 TS BKN020 FEW027CB OVC200 27/22 Q1009A2980 HR75 CB/TS N/NE/E/S/SW RWY NML=METAR SLCP 162000Z 29006KT 9999 BKN017 30/24 Q1012 A2988 HR73 RWY NMLMETAR SLSI 162000Z 33005KT 9999 SCT017 34/22 Q1008 A2977 HR50 RWY NMLMETAR SLTI 162000Z 00000KT 9999 FEW020 37/21 Q1010 A2983 HR40 RWY NMLMETAR SLJE 162000Z 32008KT 9999 FEW017 FEW027CB 34/23 Q1011 A2985HR53 CB/E RWY NML=METAR SLVG 162000Z 18007KT 9999 BKN027 FEW030CB BKN200 21/15 Q1021A3015 HR67 CB/ON STN/E/S/SW RWY NML=METAR SLRB 162000Z 36004KT 9999 FEW020 35/23 Q1010 A2983 HR49 RWY NMLMETAR SLPS 192000Z 09005KT 9999 SCT020 FEW030CB 37/25 Q1006 A2971HR51 CB/S=METAR SLCA 161900Z 21005KT 9999 BKN036 FEW040CB 33/17 Q1012 A2988HR36 CB/SH W/NW RWY NML=
ZPX0807 162001@CAELT@GG SLZZYMYT@CAELT@161958 SLLPYFYA@CAELT@SABO SLRY 162000@CAELT@METAR SLRY 162000Z 00000KT 9999 FEW010 BKN025 BKN200 24/24@CAELT@Q1008 A2979 HR92 RETS RWY WET INOP=@CAELT@
ZPX0808 162001@CAELT@GG SLZZYMYT@CAELT@162001 SLVRYFYC@CAELT@SABO SLVR 162000 CCA@CAELT@METAR SLVR 162000Z 35013KT 9999 SCT020 33/23 Q1008 A2979 HR57 CI@CAELT@NOSIG=@CAELT@METAR SLET 162000Z 32012G23KT 9999 SCT020 FEW030CB SCT200 30/23 Q1008@CAELT@A2978 HR64 CB N/S/SW NOSIG=@CAELT@METAR SLAS 162000Z 00000KT 9999 FEW030CB OVC200 27/25 Q1011 A2986HR85 CB/SH/E/SE RWY NML=METAR SLJV 162000Z 36010KT 9999 TS BKN020 FEW027CB OVC200 27/22 Q1009A2980 HR75 CB/TS N/NE/E/S/SW RWY NML=METAR SLCP 162000Z 29006KT 9999 BKN017 30/24 Q1012 A2988 HR73 RWY NMLMETAR SLSI 162000Z 33005KT 9999 SCT017 34/22 Q1008 A2977 HR50 RWY NMLMETAR SLTI 162000Z 00000KT 9999 FEW020 37/21 Q1010 A2983 HR40 RWY NMLMETAR SLJE 162000Z 32008KT 9999 FEW017 FEW027CB 34/23 Q1011 A2985HR53 CB/E RWY NML=METAR SLVG 162000Z 18007KT 9999 BKN027 FEW030CB BKN200 21/15 Q1021A3015 HR67 CB/ON STN/E/S/SW RWY NML=METAR SLRB 162000Z 36004KT 9999 FEW020 35/23 Q1010 A2983 HR49 RWY NMLMETAR COR SLPS 162000Z 09005KT 9999 SCT020 FEW030CB 37/25 Q1006 A2971HR51 CB/S=METAR COR SLCA 162000Z 21004KT 9999 TS BKN036 FEW040CB 32/17 Q1011A2985HR41 RWY NML=
ZPX0809 162002@CAELT@GG SLZZYMYT@CAELT@161958 SLTRYGYS@CAELT@SABO SLTR 162000@CAELT@METAR SLTR 162000Z 23004KT 6000 TS VCSH SCT020 FEW023CB BKN200 27/25@CAELT@Q1009 A2981 990.9 HR80 RESHRA CB/SH N/SE/S/W/NW TS SE/NW TEMP TSRA=@CAELT@METAR SLGM 162000Z 30006KT 9999 SCT017 FEW020CB 31/24 Q1009 A2980@CAELT@HR65 CB N/NE=@CAELT@METAR SLRI 162000Z 34008KT 9999 SCT017 30/24 Q1010 A2984 HR73 AC/CI=METAR SLJO 162000Z NIL=METAR SLRA 162000Z 35012KT 7000 VCSH SCT017 FEW023CB BKN200 30/23Q1008 A2979 HR66 CB/SH E/S/SW RWY NML=METAR SLMG 162000Z 34004KT 8000 VCSH FEW017 FEW023CB SCT080 BKN20031/24 1009 A2980 HR67 CB N/SE/W SH SE RWY NML=METAR SLBU 162000Z 32006KT 9999 FEW017 BKN200 34/25 Q1005 A2970HR61 RWY NML=METAR SLSA 162000Z 36004KT 8000 VCSH SCT017 FEW023CB BKN200 27/24Q1007 A2976 HR84 RETS CB/SH NE/E/S=METAR SLSR 162000Z 32010KT 8000 VCSH SCT017 FEW020CB BKN070 27/25Q1008 A2977 HR89 CB/SH N/NE/E/SE RWY WET OPR C210=METAR SLSM 162000Z 00000KT 9999 TS SCT017 FEW020CB BKN200 26/24Q1008 A2989 HR91 RERA CB N/SE/S/NW TS N/SE/NW RWY NML=
ZPX0810 162002@CAELT@GG SLZZYMYT@CAELT@161955 SLTRYGYZ@CAELT@SABO SLTR 162000@CAELT@METAR SLTR 162000Z 23004KT 6000 TS VCSH SCT020 FEW023CB BKN200 27/25@CAELT@Q1009 A2981 990.9 HR89 RESHRA CB/SH N/SE/S/W/NW TS SE/NW TEMPO TSRA=@CAELT@
ZPX0812 162002@CAELT@GG SLZZYMYT@CAELT@162002 SLCBYGYS@CAELT@SABO SLCB 162000@CAELT@METAR SLCB 162000Z 34008KT 250V060 9999 FEW042 FEW045CB BKN200 28/05@CAELT@Q1018 A3007 746.2 HR22 CB/NW/NE/SW FU AC NOSIG=@CAELT@METAR SLAL 162000Z 04015KT 9999 SCT023 FEW033CB BKN200 20/09 Q1025@CAELT@A3028 701.0 HR49 CB/N/E/S/SW=@CAELT@METAR SLPO 162000Z NIL=METAR SLAG 162000Z NIL=METAR SLVM 162000Z NIL=METAR SLTJ 162000Z 13004KT 9999 BKN030 OVC070 23/14 Q1017 A3006 813.2HR59=METAR SLYA 162000Z NIL=METAR SLBJ 162000Z NIL=METAR SLHI 162000Z NIL=
ZPX0814 162003@CAELT@GG SLZZYMYT@CAELT@161958 SLTRYGYS@CAELT@SABO SLTR 162000@CAELT@METAR SLTR 162000Z 23004KT 6000 TS VCSH SCT020 FEW023CB BKN200 27/25@CAELT@Q1009 A2981 990.9 HR80 RESHRA CB/SH N/SE/S/W/NW TS SE/NW TEMPO TSRA=@CAELT@METAR SLGM 162000Z 30006KT 9999 SCT017 FEW020CB 31/24 Q1009 A2980@CAELT@HR65 CB N/NE=@CAELT@METAR SLRI 162000Z 34008KT 9999 SCT017 30/24 Q1010 A2984 HR73 AC/CI=METAR SLJO 162000Z NIL=METAR SLRA 162000Z 35012KT 7000 VCSH SCT017 FEW023CB BKN200 30/23Q1008 A2979 HR66 CB/SH E/S/SW RWY NML=METAR SLMG 162000Z 34004KT 8000 VCSH FEW017 FEW023CB SCT080 BKN20031/24 1009 A2980 HR67 CB N/SE/W SH SE RWY NML=METAR SLBU 162000Z 32006KT 9999 FEW017 BKN200 34/25 Q1005 A2970HR61 RWY NML=METAR SLSA 162000Z 36004KT 8000 VCSH SCT017 FEW023CB BKN200 27/24Q1007 A2976 HR84 RETS CB/SH NE/E/S=METAR SLSR 162000Z 32010KT 8000 VCSH SCT017 FEW020CB BKN070 27/25Q1008 A2977 HR89 CB/SH N/NE/E/SE RWY WET OPR C210=METAR SLSM 162000Z 00000KT 9999 TS SCT017 FEW020CB BKN200 26/24Q1008 A2989 HR91 RERA CB N/SE/S/NW TS N/SE/NW RWY NML=
ZPX0815 162003@CAELT@GG SLZZYMYT@CAELT@162000 SLLPYFYA@CAELT@SABO SLLP 162000@CAELT@METAR SLLP 162000Z 04009KT 010V070 9999 FEW017 FEW020CB SCT070 BKN200@CAELT@14/01 Q1034 A3054 625.4 HR42 P3483 CB/SH S/SW/W/NW NOSIG=@CAELT@METAR SLCO 162000Z 33006KT 9999 FEW017 SCT080 BKN200 30/24 Q1009@CAELT@A2979 981.6 HR70=@CAELT@METAR SLRY 162000Z 00000KT 9999 FEW010 BKN025 BKN200 24/24Q1008 A2979 HR92 RETS RWY WET INOP=METAR SLRQ 162000Z 00000KT 9999 FEW010 SCT023 BKN200 25/23 Q1008A2978 HR87 RETS=METAR SLSB 162000Z 29005KT 5000 -TSRA SCT010 FEW025CB BKN200 24/24Q1008 A2977 HR97 TS CB S RWY WET OPR C210=METAR SLOR 162000Z 02015KT 9999 VCTS SCT025 FEW027CB BKN200 19/07Q1031 A3045 653.3 HR45 CB/SH N/NE/E TS/NE AC=
ZPX0816 162003@CAELT@GG SLZZYMYT@CAELT@161958 SLTRYGYS@CAELT@SABO SLTR 162000@CAELT@METAR SLTR 162000Z 23004KT 6000 TS VCSH SCT020 FEW023CB BKN200 27/25@CAELT@Q1009 A2981 990.9 HR80 RESHRA CB/SH N/SE/S/W/NW TS SE/NW TEMPO TSRA=@CAELT@METAR SLGM 162000Z 30006KT 9999 SCT017 FEW020CB 31/24 Q1009 A2980@CAELT@HR65 CB N/NE=@CAELT@METAR SLRI 162000Z 34008KT 9999 SCT017 30/24 Q1010 A2984 HR73 AC/CI=METAR SLJO 162000Z NIL=METAR SLRA 162000Z 35012KT 7000 VCSH SCT017 FEW023CB BKN200 30/23Q1008 A2979 HR66 CB/SH E/S/SW RWY NML=METAR SLMG 162000Z 34004KT 8000 VCSH FEW017 FEW023CB SCT080 BKN20031/24 1009 A2980 HR67 CB N/SE/W SH SE RWY NML=METAR SLBU 162000Z 32006KT 9999 FEW017 BKN200 34/25 Q1005 A2970HR61 RWY NML=METAR SLSA 162000Z 36004KT 8000 VCSH SCT017 FEW023CB BKN200 27/24Q1007 A2976 HR84 RETS CB/SH NE/E/S=METAR SLSR 162000Z 32010KT 8000 VCSH SCT017 FEW020CB BKN070 27/25Q1008 A2977 HR89 CB/SH N/NE/E/SE RWY WET OPR C210=METAR SLSM 162000Z 00000KT 9999 TS SCT017 FEW020CB BKN200 26/24Q1008 A2989 HR91 RERA CB N/SE/S/NW TS N/SE/NW RWY NML=
ZPX0842 162051@CAELT@GG SLZZYMYT@CAELT@162050 SLCAYGYS@CAELT@SABO SLCA 162100@CAELT@METAR SLCA 162100Z 15006KT 9999 TS BKN036 FEW040CB OVC070 29/19 Q1011@CAELT@A2985 HR55 CB/TS/SH SE/N/NE/NW RWY NML=@CAELT@
ZPX0843 162054@CAELT@GG SLZZYMYT@CAELT@162055 SLSBYSYX@CAELT@SABO SLSB 162100@CAELT@METAR SLSB 162100Z 30004KT 8000 VCSH SCT013 FEW030CB SCT080 OVC200 26@CAELT@/24 Q1007 A2976 HR90 RETSRA CB SH NE E SE RWY WET OPR C210=@CAELT@
ZPX0844 162054@CAELT@GG SLZZYMYT@CAELT@162053 SLPSYGYS@CAELT@SABO SLPS 152100@CAELT@METAR SLPS 152100Z 00000KT 9999 FEW020 36/26 Q1006 A2971 HR56=@CAELT@
ZPX0845 162054@CAELT@GG SLZZYMYT@CAELT@162055 SLVRYGYZ@CAELT@SABO SLVR 162100@CAELT@METAR SLVR 162100Z 34011KT 9999 SCT020 FEW030CB 32/23 Q1008 A2977@CAELT@HR59 CB DIST NE/SW/W CI NOSIG=@CAELT@
ZPX0848 162055@CAELT@GG SLZZYMYT@CAELT@162055 SLCOYGYZ@CAELT@SABO SLCO 162100@CAELT@METAR SLCO 162100Z 34005KT 9999 FEW017 SCT080 BKN200 29/24 Q1008@CAELT@A2979 981.3 HR73=@CAELT@
ZPX0849 162055@CAELT@GG SLZZYMYT@CAELT@162022 SLETYMYC@CAELT@SABO SLET 162100@CAELT@METAR SLET 162100Z 31012KT 9999 FEW020 FEW030CB SCT200 31/22 Q1007@CAELT@A2975 HR60 CB NE/S/SW/NW NOSIG=@CAELT@
ZPX0850 162055@CAELT@GG SLZZYMYT@CAELT@162054 SLRBYGYS@CAELT@SABO SLRB 162100@CAELT@METAR SLRB 162100Z 36004KT 9999 FEW020 34/22 Q1009 A2980 HR48 RWY NML=@CAELT@
ZPX0851 162055@CAELT@GG SLZZYMYT@CAELT@162054 SLTJYGYZ@CAELT@SABO SLTJ 162100@CAELT@METAR SLTJ 162100Z 14006KT 9999 BKN030 BKN070 21/15 Q1017 A3005 812.8@CAELT@HR65=@CAELT@
ZPX0852 162056@CAELT@GG SLZZYMYT@CAELT@162055 SLTRYGYZ@CAELT@SABO SLTR 162100@CAELT@METAR SLTR 162100Z 29008KT 6000 TS VCSH SCT020 FEW023CB BKN200 24/24@CAELT@Q1009 A2980 990.5 HR98 RERA CB/SH SE/S/SW/W/NW TS SW/W TEMPO TSRA=@CAELT@
ZPX0853 162056@CAELT@GG SLZZYMYT@CAELT@162055 SLSAYGYS@CAELT@SABO SLSA 162100@CAELT@METAR SLSA 162100Z 03005KT 6000 VCSH SCT017 FEW023CB BKN200 27/24@CAELT@Q1007 A2976 HR85 CB/SH E/SW/W/NW=@CAELT@
ZPX0854 162056@CAELT@GG SLZZYMYT@CAELT@162055 SLLPYGYZ@CAELT@SABO SLLP 162100@CAELT@METAR SLLP 162100Z 04011KT 030V090 9999 FEW017 FEW020CB BKN200 14/01@CAELT@Q1033 A3053 625.1 HR39 P3483 CB/SH SE/S/SW/NW AC NOSIG=@CAELT@
ZPX0856 162057@CAELT@GG SLZZYMYT@CAELT@162056 SLCBYGYZ@CAELT@SABO SLCB 162100@CAELT@METAR SLCB 162100Z 02010KT 320V090 9999 FEW040 FEW042CB BKN200 27/05@CAELT@Q1018 A3006 746.0 HR24 CB/SE FU AC NOSIG=@CAELT@
ZPX0857 162058@CAELT@GG SLZZYMYT@CAELT@162057 SLORYGYZ@CAELT@SABO SLOR 162100@CAELT@METAR SLOR 162100Z 02014G25KT 8000 FEW023 FEW027CB BKN200 16/06 Q1031@CAELT@A3046 653.6 HR51 CB/SH N/NE/E/NW DU RETS AC=@CAELT@
ZPX0858 162058@CAELT@GG SLZZYMYT@CAELT@162058 SLTRYGYS@CAELT@SABO SLTR 162100@CAELT@METAR SLTR 162100Z 29008KT 6000 TS VCSH SCT020 FEW023CB BKN200 24/24@CAELT@Q1009 A2980 990.5 HR98 RERA CB/SH SE/S/SW/W/NW TS SW/W TEMPO TSRA=@CAELT@METAR SLGM 162100Z 29006KT 9999 SCT017 FEW020CB BKN200 31/23 Q1008@CAELT@A2977 HR66 CB N/E=@CAELT@METAR SLRI 162100Z 36005KT 9999 SCT017 30/24 Q1009 A2981 HR73 AC/CI=METAR SLJO 162100Z NIL=METAR SLRA 162100Z 35006KT 7000 VCSH SCT017 FEW023CB BKN200 27/23Q1008 A2977 HR78 CB/SH SE/SW RWY NML=METAR SLMG 162100Z 00000KT 6000 VCSH FEW017 FEW023CB BKN200 30/25Q1008 A2979 HR74 CB/SH S/SW/W RWY NML=METAR SLBU 162100Z 32004KT 9999 FEW017 BKN200 33/25 Q1005 A2968 HR63RWY NML=METAR SLSA 162100Z 03005KT 6000 VCSH SCT017 FEW023CB BKN200 27/24Q1007 A2976 HR85 CB/SH E/SW/W/NW=METAR SLSR 162100Z 32015KT 8000 VCSH FEW017 FEW020CB SCT080 BKN20028/25 Q1007 A2972 HR85 CB/SH N/NE/E/SE RWY WET OPR C210=METAR SLSM 162100Z 00000KT 8000 -TSRA FEW017 FEW020CB BKN200 25/24Q1008 A2978 HR97 CB N/NW/S TS NW/S RWY HUM OPR
ZPX0859 162059@CAELT@GG SLZZYMYT@CAELT@162059 SLVRYFYC@CAELT@SABO SLVR 162100@CAELT@METAR SLVR 162100Z 34011KT 9999 SCT020 FEW030CB 32/23 Q1008 A2977@CAELT@HR59 CB DIST NE/SW/W CI NOSIG=@CAELT@METAR SLET 162100Z 31012KT 9999 FEW020 FEW030CB SCT200 31/22 Q1007@CAELT@A2975 HR60 CB NE/S/SW/NW NOSIG=@CAELT@METAR SLAS 162100Z 00000KT 9999 NSC 28/25 Q1010 A2983 HR80 RWY NML=METAR SLJV 162100Z 36005KT 9999 SCT020 FEW027CB BKN200 27/22 Q1008A2977 HR73 CB NE/E RETS RWY NML=METAR SLCP 162100Z 00000KT 9999 BKN017 FEW030 CB 27/24 Q1011 A2985HR84 CB/S RWY NML=METAR SLSI 162100Z 36005KT 9999 SCT017 33/21 Q1007 A2974 HR49 RWY NMLMETAR SLTI 162100Z 00000KT 9999 FEW020 37/21 Q1009 A2980 HR41 RWY NMLMETAR SLJE 162100Z 32006KT 9999 FEW017 33/23 Q1010 A2983 HR56 RWY NMLMETAR SLVG 162100Z 18005KT 9999 SCT027 FEW030CB BKN200 21/15 Q1021A3015 HR67 CB/ON STN/E/SW RWY NML=METAR SLRB 162100Z 36004KT 9999 FEW020 34/22 Q1009 A2980 HR48 RWY NMLMETAR SLPS 162100Z 00000KT 9999 FEW020 36/26 Q1006 A2971 HR56=METAR SLCA 162100Z 15006KT 9999 TS BKN036 FEW040CB OVC070 29/19 Q1011A2985 HR55 CB/TS/SH SE/N/NE/NW RWY NML=
ZPX0862 162102@CAELT@GG SLZZYMYT@CAELT@162101 SLCBYGYS@CAELT@SABO SLCB 162100@CAELT@METAR SLCB 162100Z 02010KT 320V090 9999 FEW040 FEW042CB BKN200 27/05@CAELT@Q1018 A3006 746.0 HR24 CB/SE FU AC NOSIG=@CAELT@METAR SLAL 162100Z 05014KT 9999 FEW020 FEW033CB BKN200 19/08 Q1025@CAELT@A3027 700.9 HR50 CB/N/S/SW/W AC=@CAELT@METAR SLPO 162100Z NIL=METAR SLAG 162100Z NIL=METAR SLVM 162100Z NIL=METAR SLTJ 162100Z 14006KT 9999 BKN030 BKN070 21/15 Q1017 A3005 812.8HR65=METAR SLYA 162100Z NIL=METAR SLBJ 162100Z NIL=METAR SLHI 162100Z NIL=
ZPX0864 162103@CAELT@GG SLZZYMYT@CAELT@162103 SLLPYFYA@CAELT@SABO SLLP 162100@CAELT@METAR SLLP 162100Z 04011KT 030V090 9999 FEW017 FEW020CB BKN200 14/01@CAELT@Q1033 A3053 625.1 HR39 P3483 CB/SH SE/S/SW/NW AC NOSIG=@CAELT@METAR SLCO 162100Z 34005KT 9999 FEW017 SCT080 BKN200 29/24 Q1008@CAELT@A2979 981.3 HR73=@CAELT@METAR SLRY 162100Z 00000KT 9999 FEW010 BKN070 BKN200 25/24 Q1008A2977 HR92 RWY WET INOP=METAR SLRQ 162100Z 00000KT 9999 SCT004 SCT023 BKN200 26/25 Q1007A2975 HR94=METAR SLSB 162100Z 30004KT 8000 VCSH SCT013 FEW030CB SCT080 OVC20026/24 Q1007 A2976 HR90 RETSRA CB SH NE E SE RWY WET OPR C210=METAR SLOR 162100Z 02014G25KT 8000 FEW023 FEW027CB BKN200 16/06Q1031 A3046 653.6 HR51 CB/SH N/NE/E/NW DU RETS AC=
ZPX0880 162152@CAELT@GG SLZZYMYT@CAELT@162152 SLCAYGYS@CAELT@SABO SLCA 162200@CAELT@METAR SLCA 162200Z 18006KT 9999 BKN036 FEW040CB OVC070 27/18 Q1013@CAELT@A2991 HR58 CB/SH SW/W/ RETS RWY NML=@CAELT@
ZPX0881 162153@CAELT@GG SLZZYMYT@CAELT@162152 SLPSYGYS@CAELT@SABO SLPS 162200@CAELT@METAR SLPS 162200Z 00000KT 9999 FEW020 34/25 Q1006 A2971 HR60=@CAELT@
ZPX0882 162154@CAELT@GG SLZZYMYT@CAELT@162153 SLETYMYC@CAELT@SABO SLET 162200@CAELT@METAR SLET 162200Z 33010KT 9999 FEW017 FEW027CB BKN200 29/22 Q1008@CAELT@A2977 HR64 CB NE/S/SW/NW NOSIG=@CAELT@
ZPX0883 162154@CAELT@GG SLZZYMYT@CAELT@162153 SLRBYGYS@CAELT@SABO SLRB 162200@CAELT@METAR SLRB 162200Z 00000KT 9999 FEW020 32/22 Q1009 A2980 HR57 RWY NML=@CAELT@
ZPX0884 162155@CAELT@GG SLZZYMYT@CAELT@162155 SLCOYGYZ@CAELT@SABO SLCO 162200@CAELT@METAR SLCO 162200Z 23004KT 9999 SCT012 BKN080 28/24 Q1008 A2978 981.1@CAELT@HR82 CI=@CAELT@
ZPX0885 162156@CAELT@GG SLZZYMYT@CAELT@162155 SLSBYSYX@CAELT@SABO SLSB 162200@CAELT@METAR SLSB 162200Z 00000KT 9999 FEW013 SCT080 OVC200 26/23 Q1008@CAELT@A2977 HR87 SH DIST NE E SE RWY WET OPR C210=@CAELT@
ZPX0886 162156@CAELT@GG SLZZYMYT@CAELT@162156 SLVRYGYZ@CAELT@SABO SLVR 162200@CAELT@METAR SLVR 162200Z 34008KT 9999 FEW020 FEW030CB SCT200 30/24 Q1008@CAELT@A2979 HR70 CB NE/S/NW NOSIG=@CAELT@
ZPX0887 162156@CAELT@GG SLZZYMYT@CAELT@162155 SLLPYGYZ@CAELT@SABO SLLP 162200@CAELT@METAR SLLP 162200Z 06007KT 040V100 9999 FEW017 FEW020CB BKN200 14/M01@CAELT@Q1034 A3054 625.4 HR37 P1784 CB/SH NE/S/SW/W AC NOSIG=@CAELT@
ZPX0888 162156@CAELT@GG SLZZYMYT@CAELT@162155 SLCBYGYZ@CAELT@SABO SLCB 162200@CAELT@METAR SLCB 162200Z 35008KT 300V050 9999 FEW040 FEW042CB BKN200 25/04@CAELT@Q1017 A3005 745.6 HR25 CB/SE/SW FU AC NOSIG=@CAELT@
ZPX0889 162156@CAELT@GG SLZZYMYT@CAELT@162155 SLORYGYZ@CAELT@SABO SLOR 162200@CAELT@METAR SLOR 162200Z 07014G25KT 9999 FEW023 FEW025CB BKN200 13/06 Q1031@CAELT@A3045 653.3 HR61 CB/N/NE/E/NW AC=@CAELT@
ZPX0890 162157@CAELT@GG SLZZYMYT@CAELT@162156 SLORYGYZ@CAELT@SABO SLOR 162200@CAELT@METAR SLOR 162200Z 07014G25KT 9999 FEW023 FEW025CB BKN200 13/06 Q1031@CAELT@A3045 653.3 HR61 CB/N/NE/E/NW AC=@CAELT@
ZPX0891 162157@CAELT@GG SLZZYMYT@CAELT@162155 SLTRYGYZ@CAELT@SABO SLTR 162200@CAELT@METAR SLTR 162200Z 31005KT 9999 VCTS FEW020 FEW023CB BKN070 24/24@CAELT@Q1007 A2976 989.2 HR98 CB/TS/SH W/NW=@CAELT@
ZPX0892 162158@CAELT@GG SLZZYMYT@CAELT@162156 SLSAYGYS@CAELT@SABO SLSA 162200@CAELT@METAR SLSA 162200Z 30006KT 7000 VCSH SCT017 FEW023CB BKN200 25/23@CAELT@Q1008 A2977 HR86 CB/SH SE/S/SW=@CAELT@
ZPX0893 162158@CAELT@GG SLZZYMYT@CAELT@162157 SLLPYFYA@CAELT@SABO SLRY 162200@CAELT@METAR SLRY 162200Z 00000KT 9999 FEW010 BKN070 BKN200 25/24 Q1007@CAELT@A2976 HR94 RWY WET INOP=@CAELT@
ZPX0894 162159@CAELT@GG SLZZYMYT@CAELT@162157 SLTJYGYZ@CAELT@SABO SLTJ 162200@CAELT@METAR SLTJ 162200Z 13010KT 9999 BKN027 FEW036CB BKN070 20/15 Q1017@CAELT@A3006 813.1 HR70 CB/N/NW CI=@CAELT@
ZPX0895 162159@CAELT@GG SLZZYMYT@CAELT@162200 SLVRYFYC@CAELT@SABO 162200@CAELT@METAR SLVR 162200Z 34008KT 9999 FEW020 FEW030CB SCT200 30/24 Q1008@CAELT@A2979 HR70 CB NE/S/NW NOSIG=@CAELT@METAR SLET 162200Z 33010KT 9999 FEW017 FEW027CB BKN200 29/22 Q1008@CAELT@A2977 HR64 CB NE/S/SW/NW NOSIG=@CAELT@METAR SLAS 162200Z 00000KT 9999 FEW030CB OVC200 29/24 Q1010 A2983HR73 CB/N RWY NML=METAR SLJV 162200Z 00000KT 9999 FEW020 BKN200 25/22 Q1008 A2977 HR82RWY NML=METAR SLCP 162200Z 00000KT 9999 BKN017 26/23 Q1011 A2985 HR84 RWY NMLMETAR SLSI 162200Z 00000KT 9999 SCT017 31 / 22 Q1008 A2977 HR59 RWYNML=METAR SLTI 162200Z 00000KT 9999 NSC 35/21 Q1009 A2980 HR45 RWY NML=METAR SLJE 162200Z 00000KT 9999 NSC 33/23 Q1010 A2983 HR57 RWY NML=METAR SLRB 162200Z 00000KT 9999 FEW020 32/22 Q1009 A2980 HR57 RWY NMLMETAR SLPS 162200Z 00000KT 9999 FEW020 34/25 Q1006 A2971 HR60=METAR SLCA 162200Z 18006KT 9999 BKN036 FEW040CB OVC070 27/18 Q1013A2991 HR58 CB/SH SW/W/ RETS RWY NML=
ZPX0896 162159@CAELT@GG SLZZYMYT@CAELT@162158 SLTRYGYS@CAELT@SABO SLTR 162200@CAELT@METAR SLTR 162200Z 31005KT 9999 VCTS FEW020 FEW023CB BKN070 24/24@CAELT@Q1007 A2976 989.2 HR98 CB/TS/SH W/NW=@CAELT@METAR SLGM 162200Z 06010KT 9999 FEW017 FEW020CB BKN200 29/24 Q1008@CAELT@A2978 HR74 CB N/SE=@CAELT@ETAR SLRI 162200Z 34005KT 9999 FEW017 SCT200 28/25 Q1009 A2980 HR81METAR SLJO 162200Z NIL=METAR SLRA 162200Z 35004KT 8000 VCSH FEW017 FEW023CB BKN200 27/23Q1008 A2977 HR79 CB/SH E/SE RWY NML=METAR SLMG 162200Z 32008KT 8000 -RA SCT020 FEW023CB BKN070 BKN20026/24 Q1009 A2981 HR88 CB N/SW/W/NW RWY HUM OPR=METAR SLBU 162200Z NIL=METAR SLSR 162200Z 32015KT 8000 VCSH FEW017 FEW020CB SCT080 BKN20027/24 Q1005 A2970 HR84 CB/SH N/NE/E RWY WET OPR C210=METAR SLSM 162200Z 33004KT 6000 -TSRA SCT017 FEW020CB BKN200 23/23Q1008 A2978 HR97 CB/TS N/SW RWY WET OPR C210=
ZPX0898 162200@CAELT@GG SLZZYMYT@CAELT@162200 SLCBYGYS@CAELT@SABO SLCB 162200@CAELT@METAR SLCB 162200Z 35008KT 300V050 9999 FEW040 FEW042CB BKN200 25/04@CAELT@Q1017 A3005 745.6 HR25 CB/SE/SW FU AC NOSIG=@CAELT@METAR SLAL 162200Z 05015KT 9999 SCT017 SCT033CB BKN200 16/10 Q1026@CAELT@A3029 701.5 HR66 CB/N/S/SW/W/NW AC=@CAELT@METAR SLPO 162200Z NIL=METAR SLAG 162200Z NIL=METAR SLVM 162200Z NIL=METAR SLTJ 162200Z 13010KT 9999 BKN027 FEW036CB BKN070 20/15 Q1017A3006 813.1 HR70 CB/N/NW CI=METAR SLYA 162200Z NIL=METAR SLBJ 162200Z NIL=METAR SLHI 162200Z NIL=
ZPX0899 162201@CAELT@GG SLZZYMYT@CAELT@162200 SLLPYFYA@CAELT@SABO SLLP 162200@CAELT@METAR SLLP 162200Z 06007KT 040V100 9999 FEW017 FEW020CB BKN200@CAELT@14/M01 Q1034 A3054 625.4 HR37 P1784 CB/SH NE/S/SW/W AC NOSIG=@CAELT@METAR SLCO 162200Z 23004KT 9999 SCT012 BKN080 28/24 Q1008 A2978@CAELT@981.1 HR82 CI=@CAELT@METAR SLRY 162200Z 00000KT 9999 FEW010 BKN070 BKN200 25/24 Q1007A2976 HR94 RWY WET INOP=METAR SLRQ 162200Z 00000KT 9999 SCT010 BKN200 25/25 Q1008 A2977HR98=METAR SLSB 162200Z 00000KT 9999 FEW013 SCT080 OVC200 26/23 Q1008A2977 HR87 SH DIST NE E SE RWY WET OPR C210=METAR SLOR 162200Z 07014G25KT 9999 FEW023 FEW025CB BKN200 13/06Q1031 A3045 653.3 HR61 CB/N/NE/E/NW AC=
ZPX0918 162252@CAELT@GG SLZZYMYT@CAELT@162252 SLETYMYC@CAELT@SABO SLET 162300@CAELT@METAR SLET 162300Z 31010KT 9999 FEW017 FEW027CB BKN200 28/22 Q1009@CAELT@A2980 HR69 CB SW/W/N/NE NOSIG=@CAELT@
ZPX0920 162254@CAELT@GG SLZZYMYT@CAELT@162253 SLRBYGYS@CAELT@SABO SLRB 162300@CAELT@METAR SLRB 162300Z 00000KT 9999 FEW020 30/23 Q1010 A2983 HR68 RWY NML=@CAELT@
ZPX0921 162254@CAELT@GG SLZZYMYT@CAELT@162254 SLCAYGYS@CAELT@SABO SLCA 162300@CAELT@METAR SLCA 162300Z 18004KT 9999 BKN036 FEW040CB OVC070 26/19 Q1014@CAELT@A2994 HR65 CB/SH W/NW RWY NML=@CAELT@
ZPX0922 162254@CAELT@GG SLZZYMYT@CAELT@162255 SLVRYGYZ@CAELT@SABO SLVR 162300@CAELT@METAR SLVR 162300Z 34008KT 9999 FEW023 FEW027TCU FEW030CB BKN200 27/@CAELT@23 Q1009 A2982 HR78 CB S/NW TCU/SH N NOSIG=@CAELT@
ZPX0923 162255@CAELT@GG SLZZYMYT@CAELT@162255 SLSBYSYX@CAELT@SABO SLSB 162300@CAELT@METAR SLSB 162300Z 00000KT 9999 SCT080 OVC200 25/24 Q1008 A2979 HR91@CAELT@SH DIST NE E SE RWY WET OPR C210=@CAELT@
ZPX0924 162255@CAELT@GG SLZZYMYT@CAELT@162254 SLSAYGYS@CAELT@SABO SLSA 162300@CAELT@METAR SLSA 162300Z 00000KT 8000 VCSH SCT015 FEW023CB BKN200 25/24@CAELT@Q1008 A2978 HR92 CB/SH S/SW=@CAELT@
ZPX0925 162255@CAELT@GG SLZZYMYT@CAELT@162254 SLSAYGYS@CAELT@SABO SLSA 162300@CAELT@METAR SLSA 162300Z 00000KT 8000 VCSH SCT015 FEW023CB BKN200 25/24@CAELT@Q1008 A2978 HR92 CB/SH S/SW=@CAELT@
ZPX0926 162255@CAELT@GG SLZZYMYT@CAELT@162255 SLTJYGYZ@CAELT@SABO SLTJ 162300@CAELT@METAR SLTJ 162300Z 13006KT 9999 BKN025 FEW036CB OVC070 19/14 Q1018@CAELT@A3009 814.0 HR72 CB/N/SW SH/SW=@CAELT@
ZPX0927 162256@CAELT@GG SLLPZRZX@CAELT@162255 SLLPYGYZ@CAELT@SABO SLLP 162300@CAELT@METAR SLLP 162300Z 22009KT 180V250 9999 FEW015 FEW017CB BKN200 10/01@CAELT@Q1035 A3058 626.4 HR54 CB/SH NE/S/SW AC NOSIG=@CAELT@
ZPX0928 162257@CAELT@GG SLZZYMYT@CAELT@162256 SLTRYGYZ@CAELT@SABO SLTR 162300@CAELT@METAR SLTR 162300Z 29009KT 9999 VCTS FEW020 FEW023CB OVC070 24/23@CAELT@Q1008 A2979 990.4 HR95 CB/TS N/NW NOSIG=@CAELT@
ZPX0929 162258@CAELT@GG SLZZYMYT@CAELT@162257 SLCBYGYZ@CAELT@SABO SLCB 162300@CAELT@METAR SLCB 162300Z 07006KT 9999 FEW036 FEW040CB SCT070 BKN200 24/06@CAELT@Q1019 A3010 746.9 HR32 CB E/S/SW SH S/SW NOSIG=@CAELT@
ZPX0930 162258@CAELT@GG SLZZYMYT@CAELT@162257 SLCOYGYZ@CAELT@SABO SLCO 162300@CAELT@METAR SLCO 162300Z 00000KT 9999 FEW012 SCT080 27/24 Q1008 A2978 981.2@CAELT@HR86 CI=@CAELT@
ZPX0931 162258@CAELT@GG SLZZYMYT@CAELT@162258 SLCBYGYS@CAELT@SABO SLCB 162300@CAELT@METAR SLCB 162300Z 07006KT 9999 FEW036 FEW040CB SCT070 BKN200 24/06@CAELT@Q1019 A3010 746.9 HR32 CB E/S/SW SH S/SW NOSIG=@CAELT@METAR SLAL 162300Z 05013KT 9999 FEW015 FEW033CB BKN200 15/09 Q1025@CAELT@A3029 701.4 HR65 CB/N/S/SW/NW LT/SW AC=@CAELT@METAR SLTJ 162300Z 13006KT 9999 BKN025 FEW036CB OVC070 19/14 Q1018A3009 814.0 HR72 CB/N/SW SH/SW=
ZPX0932 162259@CAELT@GG SLZZYMYT@CAELT@162258 SLTRYGYS@CAELT@SABO SLTR 162300@CAELT@METAR SLTR 162300Z 29009KT 9999 VCTS FEW020 FEW023CB OVC070 24/23@CAELT@Q1008 A2979 990.4 HR95 CB/TS N/NW NOSIG=@CAELT@METAR SLGM 162300Z@CAELT@METAR SLRI 162300Z 00000KT 9999 FEW015 BKN200 28/24 Q1009 A2980 HR78@CAELT@METAR SLMG 162300Z 32008KT 0500 +TSRA BKN015 FEW020CB OVC070 24/23Q1010 A2983 HR98 CB/TS N/NE/S RWY WET OPR C210=METAR SLSA 162300Z 00000KT 8000 VCSH SCT015 FEW023CB BKN200 25/24Q1008 A2978 HR92 CB/SH S/SW=
ZPX0933 162259@CAELT@GG SLZZYMYT@CAELT@162300 SLVRYFYC@CAELT@SABO SLVR 162300@CAELT@METAR SLVR 162300Z 34008KT 9999 FEW023 FEW027TCU FEW030CB BKN200 27/@CAELT@23 Q1009 A2982 HR78 CB S/NW TCU/SH N NOSIG=@CAELT@METAR SLET 162300Z 31010KT 9999 FEW017 FEW027CB BKN200 28/22 Q1009@CAELT@A2980 HR69 CB SW/W/N/NE NOSIG=@CAELT@METAR SLSI 162300Z 00000KT 9999 SCT017 30/23 Q1008 A2977 HR64 RWY NMLMETAR SLRB 162300Z 00000KT 9999 FEW020 30/23 Q1010 A2983 HR68 RWY NMLMETAR SLCA 162300Z 18004KT 9999 BKN036 FEW040CB OVC070 26/19 Q1014A2994 HR65 CB/SH W/NW RWY NML=
ZPX0935 162300@CAELT@GG SLZZYMYT@CAELT@162259 SLLPYFYA@CAELT@SABO SLLP 162300@CAELT@METAR SLLP 162300Z 22009KT 180V250 9999 FEW015 FEW017CB BKN200@CAELT@10/01 Q1035 A3058 626.4 HR54 CB/SH NE/S/SW AC NOSIG=@CAELT@METAR SLCO 162300Z 00000KT 9999 FEW012 SCT080 27/24 Q1008 A2978@CAELT@981.2 HR86 CI=@CAELT@METAR SLSB 162300Z 00000KT 9999 SCT080 OVC200 25/24 Q1008 A2979HR91 SH DIST NE E SE RWY WET OPR C210=
ZPX0949 162353@CAELT@GG SLZZYMYT@CAELT@162353 SLVRYGYZ@CAELT@SABO SLVR 170000@CAELT@METAR SLVR 170000Z 35008KT 9999 FEW017 FEW025TCU FEW030CB BKN200 25/@CAELT@22 Q1010 A2983 HR87 CB/LT W/NW TCU N NOSIG=@CAELT@
ZPX0952 162356@CAELT@GG SLLPZRZX@CAELT@162357 SLLPYGYZ@CAELT@SABO SLLP 170000@CAELT@METAR SLLP 170000Z 28004KT 9999 FEW015 FEW017CB BKN200 10/00@CAELT@Q1036 A3060 626.9 HR53 CB/SH E/SW AC NOSIG=@CAELT@
ZPX0953 162357@CAELT@GG SLZZYMYT@CAELT@162356 SLTJYGYZ@CAELT@SABO SLTJ 170000@CAELT@METAR SLTJ 170000Z 13006KT 9999 BKN025 FEW036CB OVC0070 18/15 Q1020@CAELT@A3012 814.9 HR81 CB/LT/SW SH/TODAS DIRECC=@CAELT@
ZPX0954 162358@CAELT@GG SLZZYMYT@CAELT@162357 SLCBYGYZ@CAELT@SABO SLCB 170000@CAELT@METAR SLCB 170000Z 18010G22KT 9999 SCT033 FEW036CB BKN070 22/07 Q1021@CAELT@A3016 748.6 HR38 CB N/S/SW/W/NW TS S/SW/W CI NOSIG=@CAELT@
ZPX0956 162358@CAELT@GG SLZZYMYT@CAELT@162357 SLCBYGYZ@CAELT@SABO SLCB 170000 CCA@CAELT@METAR COR SLCB 170000Z 18010G22KT 9999 SCT033 FEW036CB BKN070 22/07@CAELT@Q1021 A3016 748.6 HR38 CB N/S/SW/W/NW TS S/SW/W CI NOSIG=@CAELT@
