
ZPX0002 100000@CAELT@GG SLZZYMYT@CAELT@100000 SLCBYGYS@CAELT@SABO SLCB 100000@CAELT@METAR SLCB 100000Z 15011G22KT 9999 FEW030 FEW033CB SCT070 BKN200 18/@CAELT@10 Q1024 A3025 750.9 HR62 CB SE/S/SW/W NOSIG=@CAELT@METAR SLAL 100000Z 09009KT 9999 FEW013 BKN070 10/06 Q1032 A3046 705.8@CAELT@HR76=@CAELT@METAR SLTJ 100000Z 00000KT 9999 FEW033 FEW036CB 19/13 Q1023 A3022 817.8 HR70 CB LT E CI=
ZPX0003 100001@CAELT@GG SLZZYMYT@CAELT@100000 SLCBYGYS@CAELT@SABO SLCB 100000@CAELT@METAR SLCB 100000Z 15011G22KT 9999 FEW030 FEW033CB SCT070 BKN200 18/@CAELT@10 Q1024 A3025 750.9 HR62 CB SE/S/SW/W NOSIG=@CAELT@METAR SLAL 100000Z 09009KT 9999 FEW013 BKN070 10/06 Q1032 A3046 705.8@CAELT@HR76=@CAELT@METAR SLTJ 100000Z 00000KT 9999 FEW033 FEW036CB 19/13 Q1023 A3022 817.8 HR70 CB LT E CI=
ZPX0004 100001@CAELT@GG SLZZYMYT@CAELT@100001 SLCBYGYS@CAELT@SABO SLCB 100000@CAELT@METAR SLCB 100000Z 15011G22KT 9999 FEW030 FEW033CB SCT070 BKN200 18/@CAELT@10 Q1024 A3025 750.9 HR62 CB SE/S/SW/W NOSIG=@CAELT@METAR SLAL 100000Z 09009KT 9999 FEW013 BKN070 10/06 Q1032 A3046 705.8@CAELT@HR76=@CAELT@METAR SLTJ 100000Z 00000KT 9999 FEW033 FEW036CB 19/13 Q1023 A3022 817.8 HR70 CB LT E CI=
ZPX0024 100054@CAELT@GG SLZZYMYT@CAELT@100055 SLVRYGYZ@CAELT@SABO SLVR 100100@CAELT@METAR SLVR 100100Z 26005KT 9999 SCT017 BKN070 20/19 Q1016 A3000 HR97@CAELT@NOSIG=@CAELT@
ZPX0025 100056@CAELT@GG SLLPZRZX@CAELT@100055 SLLPYGYZ@CAELT@SABO SLLP 100100@CAELT@METAR SLLP 100100Z 08007KT 9999 FEW004 FEW017CB BKN200 08/06 Q1036@CAELT@A3061 627.0 HR90 CB/LT SE/NW AC NOSIG=@CAELT@
ZPX0026 100056@CAELT@GG SLZZYMYT@CAELT@100056 SLCBYGYZ@CAELT@SABO SLCB 100100@CAELT@METAR SLCB 100100Z 13014G25KT 9999 SCT030 FEW033CB BKN070 17/09 Q1025@CAELT@A3029 752.0 HR60 CB/LT SE/S/SW/W NOSIG=@CAELT@
ZPX0036 100154@CAELT@GG SLZZYMYT@CAELT@100154 SLVRYGYZ@CAELT@SABO SLVR 100200@CAELT@METAR SLVR 100200Z 24009KT 9999 FEW017 SCT070 20/19 Q1015 A2998 HR97@CAELT@NOSIG=@CAELT@
ZPX0037 100154@CAELT@GG SLZZYMYT@CAELT@100154 SLCBYGYZ@CAELT@SABO SLCB 100200@CAELT@METAR SLCB 100200Z 13010G20KT 9999 SCT030 FEW033CB BKN070 16/09 Q1027@CAELT@A3034 753.2 HR60 CB W/NW/N/NE NOSIG=@CAELT@
ZPX0039 100159@CAELT@GG SLLPZRZX@CAELT@100155 SLLPYGYZ@CAELT@SABO SLLP 100200@CAELT@METAR SLLP 100200Z 08008KT 9999 FEW010 FEW017CB BKN200 08/05 Q1037@CAELT@A3062 627.3 HR84 CB/LT SE/S AC NOSIG=@CAELT@
ZPX0056 100254@CAELT@GG SLZZYMYT@CAELT@100254 SLVRYGYZ@CAELT@SABO SLVR 100300@CAELT@METAR SLVR 100300Z 23008KT 9999 SCT017 BKN070 20/20 Q1015 A2998 HR95@CAELT@NOSIG=@CAELT@
ZPX0057 100256@CAELT@GG SLLPZRZX@CAELT@100255 SLLPYGYZ@CAELT@SABO SLLP 100300@CAELT@METAR SLLP 100300Z 08005KT 9999 FEW006 FEW017CB BKN200 07/04 Q1037@CAELT@A3063 627.4 HR82 CB/LT S/SE AC NOSIG=@CAELT@
ZPX0058 100258@CAELT@GG SLZZYMYT@CAELT@100257 SLCBYGYZ@CAELT@SABO SLCB 100300@CAELT@METAR SLCB 100300Z 12015KT 9999 SCT030 BKN070 15/09 Q1028 A3038 754.2@CAELT@HR71 BECMG 13008KT=@CAELT@
ZPX0060 100301@CAELT@GG SLZZYMYT@CAELT@100300 SLCBYGYZ@CAELT@SABO SLCB 100300 CCA@CAELT@METAR COR SLCB 100300Z 12015KT 8000 -RA SCT030 BKN070 15/09 Q1028@CAELT@A3038 754.2 HR71 BECMG 13008KT=@CAELT@
ZPX0069 100354@CAELT@GG SLZZYMYT@CAELT@100354 SLVRYGYZ@CAELT@SABO SLVR 100400@CAELT@METAR SLVR 100400Z 18003KT 9999 SCT017 BKN070 21/20 Q1015 A2997 HR94@CAELT@NOSIG=@CAELT@
ZPX0070 100355@CAELT@GG SLZZYMYT@CAELT@100354 SLCBYGYZ@CAELT@SABO SLCB 100400@CAELT@METAR SLCB 100400Z 14008KT 9999 FEW013 SCT027 BKN070 14/10 Q1028@CAELT@A3038 754.4 HR73 NOSIG=@CAELT@
ZPX0071 100358@CAELT@GG SLLPZRZX@CAELT@100355 SLLPYGYZ@CAELT@SABO SLLP 100400@CAELT@METAR SLLP 100400Z 10007KT 4000E VCFG FEW003 FEW017CB SCT070 BKN200@CAELT@07/06 Q1037 A3064 627.6 HR92 VCFG N/NE/E CB/LT SE/S NOSIG=@CAELT@
ZPX0079 100453@CAELT@GG SLZZYMYT@CAELT@100453 SLVRYGYZ@CAELT@SABO SLVR 100500@CAELT@METAR SLVR 100500Z 17004KT 9999 FEW015 BKN070 21/20 Q1014 A2995 HR91@CAELT@NOSIG=@CAELT@
ZPX0081 100454@CAELT@GG SLZZYMYT@CAELT@100454 SLCBYGYZ@CAELT@SABO SLCB 100500@CAELT@METAR SLCB 100500Z 16007KT 9000 -RA FEW013 SCT027 BKN070 13/10 Q1028@CAELT@A3038 754.2 HR80 NOSIG=@CAELT@
ZPX0083 100457@CAELT@GG SLLPZRZX@CAELT@100457 SLLPYGYZ@CAELT@SABO SLLP 100500@CAELT@METAR SLLP 100500Z VRB02KT 4000E VCFG FEW003 BKN200 06/05 Q1036 A3061@CAELT@627.1 HR92 VCFG NE/E/SE AC NOSIG=@CAELT@
ZPX0090 100556@CAELT@GG SLZZYMYT@CAELT@100556 SLVRYGYZ@CAELT@SABO SLVR 100600@CAELT@METAR SLVR 100600Z 25004KT 9999 FEW017 SCT070 20/20 Q1012 A2990 HR98@CAELT@NOSIG=@CAELT@
ZPX0091 100557@CAELT@GG SLZZYMYT@CAELT@100556 SLCBYGYZ@CAELT@SABO SLCB 100600@CAELT@METAR SLCB 100600Z 29005KT 8000 -RA FEW013 SCT027 OVC070 12/11 Q1028@CAELT@A3036 753.9 HR89 NOSIG=@CAELT@
ZPX0092 100557@CAELT@GG SLLPZRZX@CAELT@100557 SLLPYGYZ@CAELT@SABO SLLP 100600@CAELT@METAR SLLP 100600Z VRB02KT 9999 FEW004 FEW017CB SCT070 BKN200 06/05@CAELT@Q1036 A3061 627.0 HR90 CB/LT SW NOSIG=@CAELT@
ZPX0099 100653@CAELT@GG SLZZYMYT@CAELT@100654 SLVRYGYZ@CAELT@SABO SLVR 100700@CAELT@METAR SLVR 100700Z 24003KT 9999 FEW017 20/19 Q1011 A2986 HR96 AC@CAELT@NOSIG=@CAELT@
ZPX0100 100655@CAELT@GG SLZZYMYT@CAELT@100654 SLCBYGYZ@CAELT@SABO SLCB 100700@CAELT@METAR SLCB 100700Z 31004KT 9999 FEW010 SCT027 OVC070 12/11 Q1027@CAELT@A3035 753.5 HR94 NOSIG=@CAELT@
ZPX0101 100658@CAELT@GG SLLPZRZX@CAELT@100656 SLLPYGYZ@CAELT@SABO SLLP 100700@CAELT@METAR SLLP 100700Z VRB02KT 4000E VCFG FEW004 SCT070 BKN200 07/06@CAELT@Q1036 A3059 626.6 HR94 VCFG NE/E/SE NOSIG=@CAELT@
ZPX0110 100753@CAELT@GG SLZZYMYT@CAELT@100753 SLCBYGYZ@CAELT@SABO SLCB 100800@CAELT@METAR SLCB 100800Z 29005KT 9999 FEW010 SCT027 OVC070 12/12 Q1027@CAELT@A3035 753.5 HR95 NOSIG=@CAELT@
ZPX0112 100754@CAELT@GG SLZZYMYT@CAELT@100754 SLVRYGYZ@CAELT@SABO SLVR 100800@CAELT@METAR SLVR 100800Z VRB02KT 9999 FEW070 20/19 Q1010 A2984 HR94 NOSIG=@CAELT@
ZPX0113 100757@CAELT@GG SLLPZRZX@CAELT@100756 SLLPYGYZ@CAELT@SABO SLLP 100800@CAELT@METAR SLLP 100800Z VRB02KT 4000E VCFG FEW003 SCT012 BKN070 07/06@CAELT@Q1035 A3058 626.2 HR95 VCFG NE/E/SE/S CI NOSIG=@CAELT@
ZPX0127 100854@CAELT@GG SLZZYMYT@CAELT@100851 SLPSYGYS@CAELT@SABO SLPS 100900@CAELT@METAR SLPS 100900Z 00000KT 9999 NSC 20/18 Q1010 A2983 HR90=@CAELT@
ZPX0128 100855@CAELT@GG SLZZYMYT@CAELT@100856 SLVRYGYZ@CAELT@SABO SLVR 100900@CAELT@METAR SLVR 100900Z 30003KT 9999 NSC 20/19 Q1010 A2984 HR94 NOSIG=@CAELT@
ZPX0129 100856@CAELT@GG SLZZYMYT@CAELT@100855 SLTRYGYZ@CAELT@SABO SLTR 100900@CAELT@METAR SLTR 100900Z 15005KT 5000 -RA BKN005 FEW020CB OVC070 22/21@CAELT@Q1010 A2985 992.2 HR97 CB SW/W/NW NOSIG=@CAELT@
ZPX0130 100856@CAELT@GG SLZZYMYT@CAELT@100853 SLCBYGYZ@CAELT@SABO SLCB 100900@CAELT@METAR SLCB 100900Z 27003KT 9999 FEW010 SCT027 OVC070 12/11 Q1027@CAELT@A3035 753.6 HR93 NOSIG=@CAELT@
ZPX0131 100857@CAELT@GG SLZZYMYT@CAELT@100857 SLTRYGYS@CAELT@SABO SLTR 100900@CAELT@METAR SLTR 100900Z 15005KT 5000 -RA BKN005 FEW020CB OVC070 22/21@CAELT@Q1010 A2985 992.2 HR97 CB SW/W/NW NOSIG=@CAELT@METAR SLRI 100900Z 36006KT 2000 TSRA BKN004 FEW020CB OVC070 23/23@CAELT@Q1010 A2983 HR98 CB/TS N/NE/SW/W=@CAELT@
ZPX0132 100859@CAELT@GG SLLPZRZX@CAELT@100857 SLLPYGYZ@CAELT@SABO SLLP 100900@CAELT@METAR SLLP 100900Z 07003KT 4000E VCFG FEW003 SCT012 BKN070 07/06@CAELT@Q1035 A3058 626.3 HR96 VCFG NE/E/SE/S CI NOSIG=@CAELT@
ZPX0154 100951@CAELT@GG SLZZYMYT@CAELT@100950 SLPSYGYS@CAELT@SABO SLPS 101000@CAELT@METAR SLPS 101000Z 00000KT 9999 NSC 22/20 Q1010 A2983 HR90=@CAELT@
ZPX0155 100952@CAELT@GG SLZZYMYT@CAELT@100951 SLCAYGYS@CAELT@SABO SLCA 101000@CAELT@METAR SLCA 101000Z 00000KT 0100 FG VV/// 18/18 Q1016 A3000 HR99 RWY@CAELT@HUM OPR=@CAELT@
ZPX0156 100953@CAELT@GG SLZZYMYT@CAELT@100952 SLETYMYC@CAELT@SABO SLET 101000@CAELT@METAR SLET 101000Z 29003KT 9999 FEW070 SCT200 20/18 Q1010 A2985 HR88@CAELT@NOSIG=@CAELT@
ZPX0157 100953@CAELT@GG SLZZYMYT@CAELT@100954 SLVRYGYZ@CAELT@SABO SLVR 101000@CAELT@METAR SLVR 101000Z 32003KT 9999 FEW080 19/18 Q1011 A2987 HR95 NOSIG=@CAELT@
ZPX0160 100954@CAELT@GG SLZZYMYT@CAELT@100954 SLSBYSYX@CAELT@SABO SLSB 101000@CAELT@METAR SLSB 101000Z 00000KT 9999 SCT025 BKN080 BKN200 21/21 Q1011@CAELT@A2987 HR98 SH/N RWY WET OPR C210=@CAELT@
ZPX0161 100954@CAELT@GG SLZZYMYT@CAELT@100954 SLCBYGYZ@CAELT@SABO SLCB 101000@CAELT@METAR SLCB 101000Z 31004KT 8000 SCT025 FEW027CB BKN070 13/10 Q1028@CAELT@A3037 754.0 HR83 CB NW/N VIS RED FU E/SE/S CI NOSIG=@CAELT@
ZPX0162 100956@CAELT@GG SLZZYMYT@CAELT@100956 SLRBYGYS@CAELT@SABO SLRB 101000@CAELT@METAR SLRB 101000Z 00000KT 9999 FEW070 19/19 Q1014 A2994 HR100 RWY@CAELT@NML=@CAELT@
ZPX0163 100956@CAELT@GG SLZZYMYT@CAELT@100955 SLUYYGYS@CAELT@SABO SLUY 101000@CAELT@METAR SLUY 101000Z 34005KT 9999 FEW015 04/M01 Q1033 A3053@CAELT@658.1 HR73 FU=@CAELT@
ZPX0164 100956@CAELT@GG SLZZYMYT@CAELT@100956 SLTRYGYZ@CAELT@SABO SLTR 101000@CAELT@METAR SLTR 101000Z 14004KT 5000 -RA BKN005 FEW020CB OVC070 22/21@CAELT@Q1011 A2987 993.0 HR98 CB SW/W/NW TEMPO 3000=@CAELT@
ZPX0165 100957@CAELT@GG SLZZYMYT@CAELT@100956 SLRQYSYX@CAELT@SABO SLRQ 101000@CAELT@METAR SLRQ 101000Z 18015KT 9999 BKN023 OVC070 21/20 Q1011 A2986 HR97=@CAELT@
ZPX0166 100957@CAELT@GG SLZZYMYT@CAELT@100957 SLCOYGYZ@CAELT@SABO SLCO 101000@CAELT@METAR SLCO 101000Z VRB02KT 9999 FEW040 BKN080 25/24 Q1009 A2980 981.7@CAELT@HR93=@CAELT@
ZPX0167 100958@CAELT@GG SLZZYMYT@CAELT@100957 SLVRYFYC@CAELT@SABO SLVR 101000@CAELT@METAR SLVR 101000Z 32003KT 9999 FEW080 19/18 Q1011 A2987 HR95 NOSIG=@CAELT@METAR SLET 101000Z 29003KT 9999 FEW070 SCT200 20/18 Q1010 A2985 HR88@CAELT@NOSIG=@CAELT@METAR SLCP 101000Z 00000KT 9999 NSC 18/18 Q1014 A2994 HR98@CAELT@RWY HUM OPR=METAR SLSI 101000Z 00000KT 9999 OVC008 19/18 Q1012 A2988 HR95RWY WET OPR=METAR SLRB 101000Z 00000KT 9999 FEW070 19/19 Q1014 A2994 HR100RWY NML=METAR SLPS 101000Z 00000KT 9999 NSC 22/20 Q1010 A2983 HR90=METAR SLCA 101000Z 00000KT 0100 FG VV/// 18/18 Q1016 A3000HR99 RWY HUM OPR=
ZPX0168 100959@CAELT@GG SLZZYMYT@CAELT@100956 SLSAYGYS@CAELT@SABO SLSA 101000@CAELT@METAR SLSA 101000Z 16005KT 6000 -RA BKN005 BKN015 FEW023CB OVC070 22/@CAELT@22 Q1010 A2983 HR98 CB N/NE=@CAELT@
ZPX0170 101000@CAELT@GG SLZZYMYT@CAELT@100957 SLLPYGYZ@CAELT@SABO SLLP 101000@CAELT@METAR SLLP 101000Z 11007KT 2000E VCFG SCT003 BKN010 BKN070 06/06@CAELT@Q1036 A3060 626.6 HR96 P/INV VCFG N/NE/E/SE/S CI NOSIG=@CAELT@
ZPX0171 101001@CAELT@GG SLZZYMYT@CAELT@101000 SLTRYGYS@CAELT@SABO SLTR 101000@CAELT@METAR SLTR 101000Z 14004KT 5000 -RA BKN005 FEW020CB OVC070 22/21@CAELT@Q1011 A2987 993.0 HR98 CB SW/W/NW TEMPO 3000=@CAELT@METAR SLGM 101000Z 00000KT 5000 -RA SCT005 BKN015 FEW020CB OVC070@CAELT@24/23 Q1010 A2982 HR94 CB E/SE/SW=@CAELT@METAR SLRI 101000Z 36004KT 2000 TSRA BKN004 FEW020CB OVC070 23/23Q1011 A2986 HR98 CB N/NE/SWMETAR SLJO 101000Z 00000KT 5000 -RA SCT008 OVC070 22/22 Q1010 A2983HR98 RWY WET OPR C206=METAR SLRA 101000Z 00000KT 9999 -RA FEW020 FEW023CB OVC070 23/23Q1010 A2984 HR97 CB W/NW RWY OPR C206=METAR SLMG 101000Z 00000KT 8000 -RA BKN007 OVC070 24/23 Q1010 A2982HR98 RWY OPR C210=METAR SLBU 101000Z NIL=METAR SLSA 101000Z 16005KT 6000 -RA BKN005 BKN015 FEW023CB OVC07022/22 Q1010 A2983 HR98 CB N/NE=METAR SLSR 101000Z 12008KT 9999 SCT015 OVC070 22/21 Q1011 A2986 HR96RWY NML=METAR SLSM 101000Z NIL=
ZPX0172 101001@CAELT@GG SLZZYMYT@CAELT@101001 SLCBYGYS@CAELT@SABO SLCB 101000@CAELT@METAR SLCB 101000Z 31004KT 8000 SCT025 FEW027CB BKN070 13/10 Q1028@CAELT@A3037 754.0 HR83 CB NW/N VIS RED FU E/SE/S CI NOSIG=@CAELT@METAR SLAL 101000Z 00000KT 9999 FEW070 07/05 Q1032 A3048 705.7 HR88=@CAELT@METAR SLVM 101000Z 00000KT 9999 NSC 19/19 Q1010 A2985 HR97 CI=@CAELT@
ZPX0174 101003@CAELT@GG SLZZYMYT@CAELT@101001 SLLPYFYA@CAELT@SABO SLRY 091000@CAELT@METAR SLRY 091000Z 18003KT 9999 BKM016 OVC070 22/19 Q1010 A2982 HR85@CAELT@RWY NML=@CAELT@
ZPX0175 101004@CAELT@GG SLZZYMYT@CAELT@101004 SLLPYFYA@CAELT@SABO SLLP 101000@CAELT@METAR SLLP 101000Z 11007KT 2000E VCFG SCT003 BKN010 BKN070 06/06@CAELT@Q1036 A3060 626.6 HR96 P/INV VCFG N/NE/E/SE/S CI NOSIG=@CAELT@SABO SLCO 101000@CAELT@METAR SLCO 101000Z VRB02KT 9999 FEW040 BKN080 25/24 Q1009 A2980@CAELT@981.7 HR93=METAR SLRY 091000Z 18003KT 9999 BKM016 OVC070 22/19 Q1010 A2982 HR85RWY NML=METAR SLRQ 101000Z 18015KT 9999 BKN023 OVC070 21/20 Q1011 A2986 HR97=METAR SLAP 101000Z 18018KT 9999 FEW020 OVC070 16/14 Q1019 A3012860.3 HR89=METAR SLSB 101000Z 00000KT 9999 SCT025 BKN080 BKN200 21/21 Q1011A2987 HR98 SH/N RWY WET OPR C210=METAR SLUY 101000Z 34005KT 9999 FEW015 04/M01 Q1033 A3053658.1 HR73 FU=
ZPX0180 101012@CAELT@GG SLZZYMYT@CAELT@101012 SLLPYFYA@CAELT@SABO SLLP 101000@CAELT@METAR SLLP 101000Z 11007KT 2000E VCFG SCT003 BKN010 BKN070 06/06@CAELT@Q1036 A3060 626.6 HR96 P/INV VCFG N/NE/E/SE/S CI NOSIG=@CAELT@METAR SLCO 101000Z VRB02KT 9999 FEW040 BKN080 25/24 Q1009 A2980@CAELT@981.7 HR93=@CAELT@METAR SLRY 101000Z 18003KT 9999 BKM016 OVC070 22/19 Q1010 A2982HR85 RWY NML=METAR SLRQ 101000Z 18015KT 9999 BKN023 OVC070 21/20 Q1011 A2986 HR97=METAR SLAP 101000Z 18018KT 9999 FEW020 OVC070 16/14 Q1019 A3012860.3 HR89=METAR SLSB 101000Z 00000KT 9999 SCT025 BKN080 BKN200 21/21 Q1011A2987 HR98 SH/N RWY WET OPR C210=METAR SLUY 101000Z 34005KT 9999 FEW015 04/M01 Q1033 A3053658.1 HR73 FU=
ZPX0181 101012@CAELT@GG SLZZYMYT@CAELT@101012 SLTRYGYS@CAELT@SABO SLTR 101000 RRA@CAELT@METAR SLTR 101000Z 14004KT 5000 -RA BKN005 FEW020CB OVC070 22/21@CAELT@Q1011 A2987 993.0 HR98 CB SW/W/NW TEMPO 3000=@CAELT@METAR SLGM 101000Z 00000KT 5000 -RA SCT005 BKN015 FEW020CB OVC070@CAELT@24/23 Q1010 A2982 HR94 CB E/SE/SW=@CAELT@METAR SLRI 101000Z 36004KT 2000 TSRA BKN004 FEW020CB OVC070 23/23Q1011 A2986 HR98 CB N/NE/SWMETAR SLJO 101000Z 00000KT 5000 -RA SCT008 OVC070 22/22 Q1010 A2983HR98 RWY WET OPR C206=METAR SLRA 101000Z 00000KT 9999 -RA FEW020 FEW023CB OVC070 23/23Q1010 A2984 HR97 CB W/NW RWY OPR C206=METAR SLMG 101000Z 00000KT 8000 -RA BKN007 OVC070 24/23 Q1010 A2982HR98 RWY OPR C210=METAR SLBU 101000Z NIL=METAR SLSA 101000Z 16005KT 6000 -RA BKN005 BKN015 FEW023CB OVC07022/22 Q1010 A2983 HR98 CB N/NE=METAR SLSR 101000Z 12008KT 9999 SCT015 OVC070 22/21 Q1011 A2986 HR96RWY NML=METAR RTD SLSM 101000Z 00000KT 9999 -RA BKN017 OVC070 21/21 Q1010A2983 HR99 RWY WET INOP=
ZPX0185 101020@CAELT@GG SLZZYMYT@CAELT@101020 SLTRYGYS@CAELT@SABO SLTR 101000 CCA@CAELT@METAR SLTR 101000Z 14004KT 5000 -RA BKN005 FEW020CB OVC070 22/21@CAELT@Q1011 A2987 993.0 HR98 CB SW/W/NW TEMPO 3000=@CAELT@METAR SLGM 101000Z 00000KT 5000 -RA SCT005 BKN015 FEW020CB OVC070@CAELT@24/23 Q1010 A2982 HR94 CB E/SE/SW=@CAELT@METAR COR SLRI 101000Z 36004KT 2000 TSRA BKN004 FEW020CB OVC07023/23 Q1011 A2986 HR98 CB/TS N/NE/SW=METAR SLJO 101000Z 00000KT 5000 -RA SCT008 OVC070 22/22 Q1010 A2983HR98 RWY WET OPR C206=METAR SLRA 101000Z 00000KT 9999 -RA FEW020 FEW023CB OVC070 23/23Q1010 A2984 HR97 CB W/NW RWY OPR C206=METAR SLMG 101000Z 00000KT 8000 -RA BKN007 OVC070 24/23 Q1010 A2982HR98 RWY OPR C210=METAR SLBU 101000Z NIL=METAR SLSA 101000Z 16005KT 6000 -RA BKN005 BKN015 FEW023CB OVC07022/22 Q1010 A2983 HR98 CB N/NE=METAR SLSR 101000Z 12008KT 9999 SCT015 OVC070 22/21 Q1011 A2986 HR96RWY NML=METAR SLSM 101000Z 00000KT 9999 -RA BKN017 OVC070 21/21 Q1010 A2983HR99 RWY WET INOP=
ZPX0202 101048@CAELT@GG SLZZYMYT@CAELT@101050 SLRBYGYS@CAELT@SABO SLRB 101100@CAELT@METAR SLRB 101100Z 00000KT 9999 SCT070 21/20 Q1015 A2997 HR95 RWY NML=@CAELT@
ZPX0203 101050@CAELT@GG SLZZYMYT@CAELT@101050 SLPSYGYS@CAELT@SABO SLPS 101100@CAELT@METAR SLPS 101100Z 18004KT 9999 NSC 23/20 Q1011 A2986 HR84=@CAELT@
ZPX0204 101051@CAELT@GG SLZZYMYT@CAELT@101051 SLCAYGYS@CAELT@SABO SLCA 101100@CAELT@METAR SLCA 101100Z 00000KT 9999 FEW005 18/18 Q1017 A3003 HR97 REFG@CAELT@RWY HUM OPR=@CAELT@
ZPX0205 101053@CAELT@GG SLZZYMYT@CAELT@101052 SLETYMYC@CAELT@SABO SLET 101100@CAELT@METAR SLET 10110Z 28003KT 9999 SCT070 21/18 Q011 A2987 HR83 NOSIG=@CAELT@
ZPX0206 101054@CAELT@GG SLZZYMYT@CAELT@101054 SLVRYGYZ@CAELT@SABO SLVR 101100@CAELT@METAR SLVR 101100Z 32003KT 9999 BKN080 21/19 Q1012 A2990 HR88 NOSIG=@CAELT@
ZPX0210 101054@CAELT@GG SLZZYMYT@CAELT@101055 SLLPYFYA@CAELT@SABO SLRY 101100Z@CAELT@METAR SLRY 101100Z 00000KT 9999 BKN017 OVC070 21/20 Q1010 A2985@CAELT@HR92 RWY NML=@CAELT@
ZPX0212 101055@CAELT@GG SLZZYMYT@CAELT@101054 SLSAYGYS@CAELT@SABO SLSA 101100@CAELT@METAR SLSA 101100Z 16006KT 5000 -RA BKN005 BKN015 FEW023CB OVC070 22/@CAELT@22 Q1010 A2985 HR98 CB N/NE=@CAELT@
ZPX0214 101055@CAELT@GG SLZZYMYT@CAELT@101055 SLCOYGYZ@CAELT@SABO SLCO 101100@CAELT@METAR SLCO 101100Z 00000KT 9999 FEW040 BKN080 25/24 Q1010 A2982 982.6@CAELT@HR95 CI=@CAELT@
ZPX0215 101055@CAELT@GG SLZZYMYT@CAELT@101055 SLCOYGYZ@CAELT@SABO SLCO 101100@CAELT@METAR SLCO 101100Z 00000KT 9999 FEW040 BKN080 25/24 Q1010 A2982 982.6@CAELT@HR95 CI=@CAELT@
ZPX0216 101055@CAELT@GG SLZZYMYT@CAELT@101055 SLTRYGYZ@CAELT@SABO SLTR 101100@CAELT@METAR SLTR 101100Z 14004KT 8000 -RA SCT005 FEW020CB OVC070 22/21@CAELT@Q1011 A2988 993.2 HR97 CB W/NW NOSIG=@CAELT@
ZPX0218 101056@CAELT@GG SLZZYMYT@CAELT@101055 SLSBYSYX@CAELT@SABO SLSB 101100@CAELT@METAR SLSB 101100Z 00000KT 9999 SCT030 BKN080 BKN200 21/21 Q1012@CAELT@A2990 HR98 RWY WET OPR C210=@CAELT@
ZPX0219 101056@CAELT@GG SLZZYMYT@CAELT@101055 SLRQYSYX@CAELT@SABO SLRQ 101100@CAELT@METAR SLRQ 101100Z 18013KT 9999 BKN025 OVC070 21/20 Q1012 A2989 987.9@CAELT@HR97=@CAELT@
ZPX0221 101056@CAELT@GG SLZZYMYT@CAELT@101055 SLORYGYZ@CAELT@SABO SLOR 101100@CAELT@METAR SLOR 101100Z 09010KT 9999 FEW015 09/02 Q1034 A3054 655.4 HR61@CAELT@
ZPX0222 101056@CAELT@GG SLZZYMYT@CAELT@101055 SLCBYGYZ@CAELT@SABO SLCB 101100@CAELT@METAR SLCB 101100Z 30006KT 9000 FEW025 BKN070 BKN200 13/10 Q1028@CAELT@A3038 754.2 HR82 FU NOSIG=@CAELT@
ZPX0224 101057@CAELT@GG SLZZYMYT@CAELT@101055 SLTJYGYZ@CAELT@SABO SLTJ 101100@CAELT@METAR SLTJ 101100Z 00000KT 9999 NSC 16/13 Q1022 A3019 816.9 HR83 FU=@CAELT@
ZPX0225 101057@CAELT@GG SLZZYMYT@CAELT@101057 SLVRYFYC@CAELT@SABO SLVR 101100@CAELT@METAR SLVR 101100Z 32003KT 9999 BKN080 21/19 Q1012 A2990 HR88 NOSIG=@CAELT@METAR SLET 10110Z 28003KT 9999 SCT070 21/18 Q011 A2987 HR83 NOSIG=@CAELT@METAR SLAS 101100Z 00000KT 9999 SCT010 21/20 Q1014 A2994@CAELT@HR95 RWY WET OPR=@CAELT@METAR SLJV 101100Z 00000KT 9999 NSC 19/19 Q1011 A2985 HR97RWY WET OPR=METAR SLCP 101100Z 00000KT 9999 BKN070 19/19 Q1015 A2997 HR98RWY HUM OPR=METAR SLSI 101100Z 00000KT 9999 OVC008 19/18 Q1013 A2991 HR92METAR SLTI 101100Z 00000KT 9999 FEW070 22/21 Q1016 A3000 HR94 RWY NMLMETAR SLJE 101100Z 00000KT 9999 SCT070 22/21Q 1015 A2997 HR91METAR SLVG 101100Z 00000KT 9999 NSC 12/10 Q1025 A3027 HR84 RWY NML=METAR SLRB 101100Z 00000KT 9999 SCT070 21/20 Q1015 A2997 HR95 RWY NMLMETAR SLPS 101100Z 18004KT 9999 NSC 23/20 Q1011 A2986 HR84=METAR SLCA 101100Z 00000KT 9999 FEW005 18/18 Q1017 A3003 HR97REFG RWY HUM OPR=
ZPX0226 101057@CAELT@GG SLZZYMYT@CAELT@101056 SLAGYSYX@CAELT@SABO SLAG 101100@CAELT@METAR SLAG 101100Z 00000KT 4000S VCFG NSC 18/16 Q1018 A3008 890.5@CAELT@HR89 VCFG SE/S RESTO 9999=@CAELT@
ZPX0229 101057@CAELT@GG SLZZYMYT@CAELT@101056 SLUYYGYS@CAELT@SABO SLUY 101100@CAELT@METAR SLUY 101100Z 00000KT 9999 FEW017 03/M03 Q1034 A3055@CAELT@658.7 HR55 FU=@CAELT@
ZPX0231 101058@CAELT@GG SLZZYMYT@CAELT@101058 SLVRYFYC@CAELT@SABO SLVR 101100@CAELT@METAR SLVR 101100Z 32003KT 9999 BKN080 21/19 Q1012 A2990 HR88 NOSIG=@CAELT@METAR SLET 101100Z 28003KT 9999 SCT070 21/18 Q1011 A2987 HR83 NOSIG=@CAELT@METAR SLAS 101100Z 00000KT 9999 SCT010 21/20 Q1014 A2994@CAELT@HR95 RWY WET OPR=@CAELT@METAR SLJV 101100Z 00000KT 9999 NSC 19/19 Q1011 A2985 HR97RWY WET OPR=METAR SLCP 101100Z 00000KT 9999 BKN070 19/19 Q1015 A2997 HR98RWY HUM OPR=METAR SLSI 101100Z 00000KT 9999 OVC008 19/18 Q1013 A2991 HR92METAR SLTI 101100Z 00000KT 9999 FEW070 22/21 Q1016 A3000 HR94 RWY NMLMETAR SLJE 101100Z 00000KT 9999 SCT070 22/21Q 1015 A2997 HR91METAR SLVG 101100Z 00000KT 9999 NSC 12/10 Q1025 A3027 HR84 RWY NML=METAR SLRB 101100Z 00000KT 9999 SCT070 21/20 Q1015 A2997 HR95 RWY NMLMETAR SLPS 101100Z 18004KT 9999 NSC 23/20 Q1011 A2986 HR84=METAR SLCA 101100Z 00000KT 9999 FEW005 18/18 Q1017 A3003 HR97REFG RWY HUM OPR=
ZPX0232 101059@CAELT@GG SLZZYMYT@CAELT@101056 SLLPYGYZ@CAELT@SABO SLLP 101100@CAELT@METAR SLLP 101100Z 11008KT 050V160 4000E VCFG FEW003 SCT012 BKN200 07@CAELT@/06 Q1037 A3062 627.2 HR95 P92// VCFG N/NE/E/SE/NW AC BECMG 9999 NSW=@CAELT@
ZPX0234 101100@CAELT@GG SLZZYMYT@CAELT@101100 SLTRYGYS@CAELT@SABO SLTR 101100@CAELT@METAR SLTR 101100Z 14004KT 8000 -RA SCT005 FEW020CB OVC070 22/21@CAELT@Q1011 A2988 993.2 HR97 CB W/NW NOSIG=@CAELT@METAR SLGM 101100Z 14004KT 3000 -RA BKN004 FEW020CB OVC070 24/24@CAELT@Q1011 A2986 HR98 CB N/S/SW/NW=@CAELT@METAR SLRI 101100Z 00000KT 3000 -RA BKN004 FEW020CB OVC07023/23 Q1012 A2989 HR98 RETS CB N/NE/W/NW=METAR SLJO 101100Z 12003KT 8000 -RA SCT008 OVC070 22/22 Q1011 A2986HR98 RWY OPR C206=METAR SLRA 101100Z 12003KT 9999 -RA FEW007 SCT020 OVC070 23/22 Q1011A2986 HR97 RWY OPR C206=METAR SLMG 101100Z 00000KT 9999 FEW007 SCT020 OVC070 23/23 Q1010A2984 HR97 RERA RWY OPR C210=METAR SLBU 101100Z NIL=METAR SLSA 101100Z 16006KT 5000 -RA BKN005 BKN015 FEW023CB OVC07022/22 Q1010 A2985 HR98 CB N/NE=METAR SLSR 101100Z 12008KT 9999 SCT015 OVC070 22/21 Q1011 A2986 HR96RWY NML=METAR SLSM 101100Z 00000KT 8000 -RA SCT017 FEW023CB BKN070 21/21Q1011 A2988 HR99 CB N RWY WET INOP=
ZPX0235 101100@CAELT@GG SLZZYMYT@CAELT@101059 SLCBYGYS@CAELT@SABO SLCB 101100@CAELT@METAR SLCB 101100Z 30006KT 9000 FEW025 BKN070 BKN200 13/10 Q1028@CAELT@A3038 754.2 HR82 FU NOSIG=@CAELT@METAR SLAL 101100Z 00000KT 9999 FEW070 10/06 Q1032 A3048 705.7 HR77=@CAELT@METAR SLPO 101100Z 00000KT 9999 FEW005 SCT013 06/04 Q1040 A3071@CAELT@639.4 HR89 ST BAJOS N/NE/E=METAR SLAG 101100Z 00000KT 4000S VCFG NSC 18/16 Q1018 A3008 890.5HR89 VCFG SE/S RESTO 9999=METAR SLVM 101100Z 00000KT 9999 NSC 23/21 Q1011 A2986 HR87 CI=METAR SLTJ 101100Z 00000KT 9999 NSC 16/13 Q1022 A3019 816.9 HR83 FU=METAR SLYA 101100Z 00000KT 9999 NSC 25/20 Q1011 A2986 935.9 HR82=
ZPX0236 101102@CAELT@GG SLZZYMYT@CAELT@101102 SLLPYFYA@CAELT@SABO SLLP 101100@CAELT@METAR SLLP 101100Z 11008KT 050V160 4000E VCFG FEW003 SCT012@CAELT@BKN200 07/06 Q1037 A3062 627.2 HR95 P92// VCFG N/NE/E/SE/NW@CAELT@AC BECMG 9999 NSW=@CAELT@METAR SLCO 101100Z 00000KT 9999 FEW040 BKN080 25/24 Q1010 A2982@CAELT@982.6 HR95 CI=METAR SLRY 101100Z 00000KT 9999 BKN017 OVC070 21/20 Q1010 A2985HR92 RWY NML=METAR SLRQ 101100Z 18013KT 9999 BKN025 OVC070 21/20 Q1012 A2989987.9 HR97=METAR SLAP 101100Z 00000KT 5000 VCSH FEW020 OVC070 16/14 Q1021A3015 861.2 HR90 SH E/SE/S/SW=METAR SLSB 101100Z 00000KT 9999 SCT030 BKN080 BKN200 21/21Q1012 A2990 HR98 RWY WET OPR C210=METAR SLOR 101100Z 09010KT 9999 FEW015 09/02 Q1034 A3054 655.4HR61 CI=METAR SLUY 101100Z 00000KT 9999 FEW017 03/M03 Q1034 A3055658.7 HR55 FU=
ZPX0259 101149@CAELT@GG SLZZYMYT@CAELT@101150 SLLPYFYA@CAELT@SABO SLRY 101200Z@CAELT@METAR SLRY 101200Z 18003KT 9999 BKN023 BKN070 22/20 Q1010 A2985@CAELT@HR87 RWY NML=@CAELT@
ZPX0261 101152@CAELT@GG SLZZYMYT@CAELT@101151 SLPSYGYS@CAELT@SABO SLPS 101200@CAELT@METAR SLPS 101200Z 18005KT 9999 NSC 25/22 Q1012 A2989 HR81=@CAELT@
ZPX0263 101155@CAELT@GG SLZZYMYT@CAELT@101106 SLETYMYC@CAELT@SABO SLET 101200@CAELT@METAR SLET 101200Z 32006KT 9999 BKN070 23/19 Q1013 A2993 HR76 NOSIG=@CAELT@
ZPX0264 101155@CAELT@GG SLZZYMYT@CAELT@101155 SLVRYGYZ@CAELT@SABO SLVR 101200@CAELT@METAR SLVR 101200Z 33007KT 9999 FEW004 BKN080 22/20 Q1013 A2992 HR86@CAELT@NOSIG=@CAELT@
ZPX0265 101155@CAELT@GG SLZZYMYT@CAELT@101154 SLSAYGYS@CAELT@SABO SLSA 101200@CAELT@METAR SLSA 101200Z 00000KT 8000 VCSH BKN005 BKN015 OVC070 22/22@CAELT@Q1011 A2988 HR98 RERA SH SE/S/SW/W=@CAELT@
ZPX0266 101156@CAELT@GG SLZZYMYT@CAELT@101155 SLTJYGYZ@CAELT@SABO SLTJ 101200@CAELT@METAR SLTJ 101200Z 00000KT 9999 NSC 18/14 Q1022 A3019 816.8 HR73=@CAELT@
ZPX0267 101156@CAELT@GG SLZZYMYT@CAELT@101156 SLAGYSYX@CAELT@SABO SLAG 101200@CAELT@METAR SLAG 101200Z 00000KT 9999 NSC 21/16 Q1018 A3007 890.4 HR73=@CAELT@
ZPX0268 101156@CAELT@GG SLZZYMYT@CAELT@101155 SLORYGYZ@CAELT@SABO SLOR 101200@CAELT@METAR SLOR 101200Z 09014KT 9999 FEW015 12/02 Q1034 A3055 655.6 HR50@CAELT@
ZPX0269 101157@CAELT@GG SLZZYMYT@CAELT@101156 SLSBYSYX@CAELT@SABO SLSB 101200@CAELT@METAR SLSB 101200Z 00000KT 9999 SCT030 BKN080 BKN200 22/21 Q1012@CAELT@A2991 HR94 RWY WET OPR C210=@CAELT@
ZPX0271 101157@CAELT@GG SLZZYMYT@CAELT@101156 SLCBYGYZ@CAELT@SABO SLCB 101200@CAELT@METAR SLCB 101200Z 00000KT 9999 FEW025 SCT200 16/10 Q1029 A3039 754.5@CAELT@HR68 FU AC NOSIG=@CAELT@
ZPX0272 101157@CAELT@GG SLZZYMYT@CAELT@101156 SLCAYGYS@CAELT@SABO SLCA 101200@CAELT@METAR SLCA 101200Z 00000KT 9999 NSC 21/18 Q1017 A3003 HR80 RWY HUM@CAELT@OPR=@CAELT@
ZPX0273 101157@CAELT@GG SLZZYMYT@CAELT@101156 SLRQYSYX@CAELT@SABO SLRQ 101200@CAELT@METAR SLRQ 101200Z 18015KT 9999 BKN025 BKN070 24/20 Q1012 A2989 988.0@CAELT@HR77=@CAELT@
ZPX0274 101157@CAELT@GG SLZZYMYT@CAELT@101151 SLUYYGYS@CAELT@SABO SLUY 101200@CAELT@METAR SLUY 101200Z 00000KT 9999 FEW017 11/02 Q1034 A3056@CAELT@658.8 HR54 FU=@CAELT@
ZPX0275 101157@CAELT@GG SLZZYMYT@CAELT@101156 SLCOYGYZ@CAELT@SABO SLCO 101200@CAELT@METAR SLCO 101200Z 00000KT 9999 SCT040 OVC080 26/24 Q1011 A2987 984.0@CAELT@HR88=@CAELT@
ZPX0277 101158@CAELT@GG SLZZYMYT@CAELT@101156 SLLPYGYZ@CAELT@SABO SLLP 101200@CAELT@METAR SLLP 101200Z 09006KT 060V120 6000 FEW005 SCT013 BKN200 10/06@CAELT@Q1037 A3064 627.7 HR77 P92// VIS/RED/SC/BJOS NE/E/SE NOSIG=@CAELT@
ZPX0278 101158@CAELT@GG SLZZYMYT@CAELT@101157 SLRBYGYS@CAELT@SABO SLRB 101200@CAELT@METAR SLRB 101200Z 00000KT 9999 FEW070 25/21 Q1015 A2997 HR77 RWY NML=@CAELT@
ZPX0280 101158@CAELT@GG SLZZYMYT@CAELT@101157 SLLPYGYZ@CAELT@SABO SLLP 101200@CAELT@METAR SLLP 101200Z 09006KT 060V120 6000 FEW005 SCT013 BKN200 10/06@CAELT@Q1037 A3064 627.7 HR77 P92// VIS/RED/SC/BJOS NE/E/SE NOSIG=@CAELT@
ZPX0281 101158@CAELT@GG SLZZYMYT@CAELT@101157 SLTRYGYZ@CAELT@SABO SLTR 101200@CAELT@METAR SLTR 101200Z 12004KT 8000 VCSH FEW005 SCT017 FEW020CB OVC070 23@CAELT@/22 Q1012 A2989 993.8 HR93 RERA CB/SH W/NW NOSIG=@CAELT@
ZPX0282 101158@CAELT@GG SLZZYMYT@CAELT@101158 SLLPYGYZ@CAELT@SABO SLLP 101200@CAELT@METAR SLLP 101200Z 09006KT 060V120 6000 FEW005 SCT013 BKN200 10/06@CAELT@Q1037 A3064 627.7 HR77 P92// VIS/RED/SC/BJOS NE/E/SE NOSIG=@CAELT@
ZPX0283 101158@CAELT@GG SLZZYMYT@CAELT@101157 SLTRYGYZ@CAELT@SABO SLTR 101200@CAELT@METAR SLTR 101200Z 12004KT 8000 VCSH FEW005 SCT017 FEW020CB OVC070 23@CAELT@/22 Q1012 A2989 993.8 HR93 RERA CB/SH W/NW NOSIG=@CAELT@
ZPX0288 101200@CAELT@GG SLZZYMYT@CAELT@101200 SLVRYFYC@CAELT@SABO SLVR 101200@CAELT@METAR SLVR 101200Z 33007KT 9999 FEW004 BKN080 22/20 Q1013 A2992@CAELT@HR86 NOSIG=@CAELT@METAR SLET 101200Z 32006KT 9999 BKN070 23/19 Q1013 A2993 HR76 NOSIG=@CAELT@METAR SLAS 101200Z 00000KT 9999 BKN012 23/20 Q1014 A2994 HR87@CAELT@RWY WET OPR=METAR SLJV 101200Z 19005KT 9999 NSC 21/20 Q1012 A2988 HR92METAR SLCP 101200Z 00000KT 9999 SCT070 21/20 Q1016 A3000 HR91RWY HUM OPR=METAR SLSI 101200Z 00000KT 9999 BKN010 22/21 Q1013 A2991 HR90METAR SLTI 101200Z 00000KT 9999 NSC 23/21 Q1016 A3000 HR87 RWY NML=METAR SLJE 101200Z 00000KT 9999 FEW015 SCT070 23/21 Q1016 A3000HR86 RWY HUM OPR=METAR SLVG 101200Z 00000KT 9999 NSC 16/12 Q1025 A3027 HR71 RWY NML=METAR SLRB 101200Z 00000KT 9999 FEW070 25/21 Q1015 A2997 HR77 RWY NMLMETAR SLPS 101200Z 18005KT 9999 NSC 25/22 Q1012 A2989 HR81=METAR SLCA 101200Z 00000KT 9999 NSC 21/18 Q1017 A3003 HR80
ZPX0289 101200@CAELT@GG SLZZYMYT@CAELT@101200 SLLPYFYA@CAELT@SABO SLLP 101200@CAELT@METAR SLLP 101200Z 09006KT 060V120 6000 FEW005 SCT013 BKN200 10/06@CAELT@Q1037 A3064 627.7 HR77 P92// VIS/RED/SC/BJOS NE/E/SE NOSIG=@CAELT@METAR SLCO 101200Z 00000KT 9999 SCT040 OVC080 26/24 Q1011 A2987@CAELT@984.0 HR88=@CAELT@METAR SLRY 101200Z 18003KT 9999 BKN023 BKN070 22/20 Q1010 A2985HR87 RWY NML=METAR SLRQ 101200Z 18015KT 9999 BKN025 BKN070 24/20 Q1012 A2989988.0 HR77=METAR SLSB 101200Z 00000KT 9999 SCT030 BKN080 BKN200 22/21 Q1012A2991 HR94 RWY WET OPR C210=METAR SLAP 101200Z 18005KT 5000 VCSH SCT020 OVC070 15/14 Q1021A3018 862.0 HR91 SH E/SE/S/SW=METAR SLOR 101200Z 09014KT 9999 FEW015 12/02 Q1034 A3055 655.6HR50 CI=METAR SLUY 101200Z 00000KT 9999 FEW017 11/02 Q1034 A3056658.8 HR54 FU=
ZPX0290 101201@CAELT@GG SLZZYMYT@CAELT@101201 SLVRYFYC@CAELT@SABO SLVR 101200@CAELT@METAR SLVR 101200Z 33007KT 9999 FEW004 BKN080 22/20 Q1013 A2992@CAELT@HR86 NOSIG=@CAELT@METAR SLET 101200Z 32006KT 9999 BKN070 23/19 Q1013 A2993 HR76 NOSIG=@CAELT@METAR SLAS 101200Z 00000KT 9999 BKN012 23/20 Q1014 A2994 HR87@CAELT@RWY WET OPR=METAR SLJV 101200Z 19005KT 9999 NSC 21/20 Q1012 A2988 HR92METAR SLCP 101200Z 00000KT 9999 SCT070 21/20 Q1016 A3000 HR91RWY HUM OPR=METAR SLSI 101200Z 00000KT 9999 BKN010 22/21 Q1013 A2991 HR90METAR SLTI 101200Z 00000KT 9999 NSC 23/21 Q1016 A3000 HR87 RWY NML=METAR SLJE 101200Z 00000KT 9999 FEW015 SCT070 23/21 Q1016 A3000HR86 RWY HUM OPR=METAR SLVG 101200Z 00000KT 9999 NSC 16/12 Q1025 A3027 HR71 RWY NML=METAR SLRB 101200Z 00000KT 9999 FEW070 25/21 Q1015 A2997 HR77 RWY NMLMETAR SLPS 101200Z 18005KT 9999 NSC 25/22 Q1012 A2989 HR81=METAR SLCA 101200Z 00000KT 9999 NSC 21/18 Q1017 A3003 HR80
ZPX0291 101201@CAELT@GG SLZZYMYT@CAELT@101200 SLTRYGYS@CAELT@SABO SLTR 101200@CAELT@METAR SLTR 101200Z 12004KT 8000 VCSH FEW005 SCT017 FEW020CB OVC070@CAELT@23/22 Q1012 A2989 993.8 HR93 RERA CB/SH W/NW NOSIG=@CAELT@METAR SLGM 101200Z 18010KT 3000 -RA BKN004 FEW020CB OVC070 23/23@CAELT@Q1012 A2991 HR98 CB N/S/SW/NW=@CAELT@METAR SLRI 101200Z 17008KT 2000 RA BKN004 FEW020CB OVCC07023/23 Q1013 A2994 HR98 CB NE/SE/S/SW=METAR SLJO 101200Z 00000KT 8000 -RA SCT008 OVC070 23/22 Q1011 A2986HR98 RWY OPR C206=METAR SLRA 101200Z 12003KT 9999 -RA FEW007 SCT020 OVC070 23/22 Q1011A2988 HR97 RWY OPR C206=METAR SLMG 101200Z 00000KT 8000 VCSH FEW007 BKN015 OVC070 23/23Q1011 A2987 HR97 SH SW RWY OPR C210=METAR SLBU 101200Z 00000KT 9999 BKN008 OVC070 24/23 Q1011 A2987 HR91RWY HUM OPR=METAR SLSA 101200Z 00000KT 8000 VCSH BKN005 BKN015 OVC070 22/22Q1011 A2988 HR98 RERA SH SE/S/SW/W=METAR SLSR 101200Z 12006KT 9999 BKN015 OVC070 22/21 Q1011 A2987 HR94RWY NML=METAR SLSM 101200Z 00000KT 9999 SCT017 BKN070 22/22 Q1012 A2989 HR98RERA RWY WET INOP=
ZPX0292 101202@CAELT@GG SLZZYMYT@CAELT@101200 SLCBYGYS@CAELT@SABO SLCB 101200@CAELT@METAR SLCB 101200Z 00000KT 9999 FEW025 SCT200 16/10 Q1029 A3039 754.5@CAELT@HR68 FU AC NOSIG=@CAELT@METAR SLAL 101200Z 19005KT 9999 FEW012 12/06 Q1032 A3048 705.7 HR69=@CAELT@METAR SLPO 101200Z 06004KT 9999 SCT013 08/04 Q1040 A3071 639.5 HR78@CAELT@METAR SLAG 101200Z 00000KT 9999 NSC 21/16 Q1018 A3007 890.4 HR73=METAR SLVM 101200Z 00000KT 9999 NSC 26/23 Q1011 A2986 HR81=METAR SLTJ 101200Z 00000KT 9999 NSC 18/14 Q1022 A3019 816.8 HR73=METAR SLYA 101200Z 00000KT 9999 NSC 29/22 Q1011 A2988 936.5 HR68=METAR SLBJ 101200Z NIL=METAR SLHI 101200Z NIL=
ZPX0296 101203@CAELT@GG SLZZYMYT@CAELT@101203 SLTRYGYS@CAELT@SABO SLTR 101200 CCA@CAELT@METAR SLTR 101200Z 12004KT 8000 VCSH FEW005 SCT017 FEW020CB OVC070@CAELT@23/22 Q1012 A2989 993.8 HR93 RERA CB/SH W/NW NOSIG=@CAELT@METAR SLGM 101200Z 18010KT 3000 -RA BKN004 FEW020CB OVC070 23/23@CAELT@Q1012 A2991 HR98 CB N/S/SW/NW=@CAELT@METAR COR SLRI 101200Z 17008KT 2000 RA BKN004 FEW020CB OVC070 23/23Q1013 A2994 HR98 CB NE/SE/S/SW=METAR SLJO 101200Z 00000KT 8000 -RA SCT008 OVC070 23/22 Q1011 A2986HR98 RWY OPR C206=METAR SLRA 101200Z 12003KT 9999 -RA FEW007 SCT020 OVC070 23/22 Q1011A2988 HR97 RWY OPR C206=METAR SLMG 101200Z 00000KT 8000 VCSH FEW007 BKN015 OVC070 23/23Q1011 A2987 HR97 SH SW RWY OPR C210=METAR SLBU 101200Z 00000KT 9999 BKN008 OVC070 24/23 Q1011 A2987 HR91RWY HUM OPR=METAR SLSA 101200Z 00000KT 8000 VCSH BKN005 BKN015 OVC070 22/22Q1011 A2988 HR98 RERA SH SE/S/SW/W=METAR SLSR 101200Z 12006KT 9999 BKN015 OVC070 22/21 Q1011 A2987 HR94RWY NML=METAR SLSM 101200Z 00000KT 9999 SCT017 BKN070 22/22 Q1012 A2989 HR98RERA RWY WET INOP=
ZPX0300 101207@CAELT@GG SLZZYMYT@CAELT@101205 SLTRYGYZ@CAELT@SABO SLTR 101200@CAELT@METAR SLTR 101200Z 12004KT 8000 VCSH FEW005 SCT017 FEW020CB OVC070 23@CAELT@/22 Q1012 A2989 993.8 HR93 RERA CB/SH W/NW NOSIG=@CAELT@
ZPX0324 101254@CAELT@GG SLZZYMYT@CAELT@101254 SLSBYSYX@CAELT@SABO SLSB 101300@CAELT@METAR SLSB 101300Z 00000KT 9999 SCT030 BKN080 23/21 Q1013 A2994 HR89@CAELT@RWY WET OPR C210=@CAELT@
ZPX0325 101254@CAELT@GG SLZZYMYT@CAELT@101251 SLETYMYC@CAELT@SABO SLET 101300@CAELT@METAR SLET 101300Z 31008KT 9999 FEW070 25/20 Q1013 A2991 HR74 NOSIG=@CAELT@
ZPX0326 101255@CAELT@GG SLZZYMYT@CAELT@101255 SLRQYSYX@CAELT@SABO SLRQ 101300@CAELT@METAR SLRQ 101300Z 18015KT 9999 BKN025 BKN070 25/20 Q1012 A2991 988.6@CAELT@HR73=@CAELT@
ZPX0327 101255@CAELT@GG SLZZYMYT@CAELT@101255 SLCAYGYS@CAELT@SABO SLCA 101300@CAELT@METAR SLCA 101300Z 00000KT 9999 NSC 24/18 Q1017 A3003 HR67 RWY HUM@CAELT@OPR=@CAELT@
ZPX0328 101255@CAELT@GG SLZZYMYT@CAELT@101254 SLSAYGYS@CAELT@SABO SLSA 101300@CAELT@METAR SLSA 101300Z 00000KT 8000 VCSH SCT006 BKN015 OVC070 23/22@CAELT@Q1012 A2989 HR96 SH SE/S/SW=@CAELT@
ZPX0329 101255@CAELT@GG SLZZYMYT@CAELT@101248 SLPSYGYS@CAELT@SABO SLPS 101300@CAELT@METAR SLPS 101300Z 18005KT 9999 NSC 29/22 Q1012 A2989 HR70=@CAELT@
ZPX0330 101255@CAELT@GG SLZZYMYT@CAELT@101255 SLCOYGYZ@CAELT@SABO SLCO 101300@CAELT@METAR SLCO 101300Z 18008KT 9999 FEW010 OVC080 25/24 Q1012 A2991 985.5@CAELT@HR93=@CAELT@
ZPX0331 101255@CAELT@GG SLZZYMYT@CAELT@101255 SLTRYGYZ@CAELT@SABO SLTR 101300@CAELT@METAR SLTR 101300Z 13004KT 9999 FEW005 SCT017 OVC070 24/22@CAELT@Q1013 A2992 994.7 HR89 NOSIG=@CAELT@
ZPX0332 101256@CAELT@GG SLZZYMYT@CAELT@101255 SLUYYGYS@CAELT@SABO SLUY 101300@CAELT@METAR SLUY 101300Z 02003KT 9999 FEW017 13/01 Q1034 A3056@CAELT@658.9 HR46=@CAELT@
ZPX0333 101256@CAELT@GG SLZZYMYT@CAELT@101255 SLLPYGYZ@CAELT@SABO SLLP 101300@CAELT@METAR SLLP 101300Z 14009KT 100V170 6000 FEW006 SCT015 BKN200 11/06@CAELT@Q1037 A3065 627.9 HR73 P92// VIS/RED/SC/BJOS NE/E/SE NOSIG=@CAELT@
ZPX0334 101256@CAELT@GG SLZZYMYT@CAELT@101257 SLVRYGYZ@CAELT@SABO SLVR 101300@CAELT@METAR SLVR 101300Z 34009KT 9999 FEW010 SCT070 25/22 Q1013 A2993 HR79@CAELT@NOSIG=@CAELT@
ZPX0335 101256@CAELT@GG SLZZYMYT@CAELT@101255 SLAGYSYX@CAELT@SABO SLAG 101300@CAELT@METAR SLAG 101300Z 00000KT 9999 NSC 25/18 Q1018 A3008 890.5 HR65=@CAELT@
ZPX0336 101257@CAELT@GG SLZZYMYT@CAELT@101255 SLORYGYZ@CAELT@SABO SLOR 101300@CAELT@METAR SLOR 101300Z 07011KT 9999 FEW017 14/02 Q1034 A3056 655.8 HR42@CAELT@
ZPX0338 101257@CAELT@GG SLZZYMYT@CAELT@101258 SLTRYGYS@CAELT@SABO SLTR 101300@CAELT@METAR SLTR 101300Z 13004KT 9999 FEW005 SCT017 OVC070 24/22@CAELT@Q1013 A2992 994.7 HR89 NOSIG=@CAELT@METAR SLGM 101300Z 18012KT 4000 -RA BKN005 FEW020CB OVC070 23/23@CAELT@Q1013 A2992 HR98 CB S/SW/W=@CAELT@METAR SLRI 101300Z 17008KT 2000 RA BKN004 FEW020CB OVC070 23/23Q1014 A2996 HR98 CB SE/S/SW=METAR SLJO 101300Z 09003KT 8000 -RA SCT010 OVC070 23/22 Q1011 A2987HR98 RWY OPR C206=METAR SLRA 101300Z 00000KT 9999 -RA FEW008 SCT020 OVC070 23/22 Q1012A2991 HR97 RWY OPR C206=METAR SLMG 101300Z 00000KT 6000 VCSH BKN015 OVC070 24/23 Q1011 A2988HR96 SH SW/W RWY OPR C210=METAR SLBU 101300Z 03004KT 9999 BKN010 OVC070 24/23 Q1012 A2989 HR93RWY HUM OPR=METAR SLSA 101300Z 00000KT 8000 VCSH SCT006 BKN015 OVC070 23/22Q1012 A2989 HR96 SH SE/S/SW=METAR SLSR 101300Z 12006KT 9999 BKN010 FEW023CB OVC070 23/21 Q1012A2990 HR91 CB E/SE RWY NML=METAR SLSM 101300Z 00000KT 9999 SCT017 BKN070 24/22 Q1012 A2991 HR90RWY WET INOP=
ZPX0340 101257@CAELT@GG SLZZYMYT@CAELT@101256 SLCBYGYZ@CAELT@SABO SLCB 101300@CAELT@METAR SLCB 101300Z 28005KT 9999 FEW027 18/09 Q1029 A3039 754.5 HR54@CAELT@FU CI NOSIG=@CAELT@
ZPX0342 101257@CAELT@GG SLZZYMYT@CAELT@101257 SLRBYGYS@CAELT@SABO SLRB 101300@CAELT@METAR SLRB 101300Z 00000KT 9999 NSC 27/22 Q1015 A2997 HR74 RWY NML=@CAELT@
ZPX0344 101258@CAELT@GG SLZZYMYT@CAELT@101257 SLTJYGYZ@CAELT@SABO SLTJ 101300@CAELT@METAR SLTJ 101300Z 00000KT 9999 FEW027 21/12 Q1022 A3018 816.6 HR56=@CAELT@
ZPX0345 101259@CAELT@GG SLZZYMYT@CAELT@101259 SLVRYFYC@CAELT@SABO SLVR 101300@CAELT@METAR SLVR 101300Z 34009KT 9999 FEW010 SCT070 25/22 Q1013 A2993 HR79@CAELT@NOSIG=@CAELT@METAR SLET 101300Z 31008KT 9999 FEW070 25/20 Q1013 A2991 HR74 NOSIG=@CAELT@METAR SLAS 101300Z 00000KT 9999 SCT070 26/22 Q1015 A2997 HR80 RWY WET@CAELT@OPR=METAR SLJV 101300Z 09005KT 9999 NSC 24/19 Q1012 A2988 HR75 RWY HUMMETAR SLCP 101300Z 00000KT 9999 NSC 22/20 Q1016 A3000 HR89 RWY HUMMETAR SLSI 101300Z 00000KT 9999 SCT015 24/20 Q1013 A2991 HR82 RWY HUMMETAR SLTI 101300Z 00000KT 9999 FEW070 27/21 Q1017 A3003 HR70 RWY NMLMETAR SLJE 101300Z 00000KT 9999 FEW015 SCT070 25/21 Q1016 A3000 HR81RWY HUM OPR=METAR SLVG 101300Z 00000KT 9999 FEW020 20/10 Q1026 A3030 HR49 RWY NMLMETAR SLRB 101300Z 00000KT 9999 NSC 27/22 Q1015 A2997 HR74 RWY NML=METAR SLPS 101300Z 18005KT 9999 NSC 29/22 Q1012 A2989 HR70=METAR SLCA 101300Z 00000KT 9999 NSC 24/18 Q1017 A3003 HR67 RWY HUM
ZPX0346 101259@CAELT@GG SLZZYMYT@CAELT@101258 SLLPYFYA@CAELT@SABO SLRY 101300@CAELT@METAR SLRY 101300Z 00000KT 9999 BKN023 BKN070 23/21 Q1011 A2987@CAELT@HR89 RWY NML=@CAELT@
ZPX0349 101301@CAELT@GG SLZZYMYT@CAELT@101300 SLLPYFYA@CAELT@SABO SLLP 101300@CAELT@METAR SLLP 101300Z 14009KT 100V170 6000 FEW006 SCT015 BKN200 11/06@CAELT@Q1037 A3065 627.9 HR73 P92// VIS/RED/SC/BJOS NE/E/SE NOSIG=@CAELT@METAR SLCO 101300Z 18008KT 9999 FEW010 OVC080 25/24 Q1012 A2991@CAELT@985.5 HR93=@CAELT@METAR SLRY 101300Z 00000KT 9999 BKN023 BKN070 23/21 Q1011 A2987HR89 RWY NML=METAR SLRQ 101300Z 18015KT 9999 BKN025 BKN070 25/20 Q1012 A2991988.6 HR73=METAR SLSB 101300Z 00000KT 9999 SCT030 BKN080 23/21 Q1013 A2994HR89 RWY WET OPR C210=METAR SLAP 101300Z 18005KT 9999 SCT020 OVC070 16/14 Q1022 A3020862.6 HR91=METAR SLOR 101300Z 07011KT 9999 FEW017 14/02 Q1034 A3056 655.8HR42 CI=METAR SLUY 101300Z 02003KT 9999 FEW017 13/01 Q1034 A3056658.9 HR46=
ZPX0353 101307@CAELT@GG SLZZYMYT@CAELT@101306 SLCBYGYH@CAELT@SABO SLCB 101300@CAELT@METAR SLCB 101300Z 28005KT 9999 FEW027 18/09 Q1029 A3039 754.5 HR54@CAELT@FU CI NOSIG=@CAELT@METAR SLAL 101300Z 18003KT 9999 SCT015 15/07 Q1032 A3048 705.7 HR58=@CAELT@METAR SLAG 101300Z 00000KT 9999 NSC 25/18 Q1018 A3008 890.5 HR65=@CAELT@METAR SLPO 101300Z 00000KT 9999 SCT015 10/05 Q1040 A3072 639.7 HR72=METAR SLTJ 101300Z 00000KT 9999 FEW027 21/12 Q1022 A3018 816.6 HR56=METAR SLYA 101300Z 00000KT 9999 NSC 31/22 Q1011 A2987 936.4 HR60=
ZPX0382 101352@CAELT@GG SLZZYMYT@CAELT@101353 SLRBYGYS@CAELT@SABO SLRB 101400@CAELT@METAR SLRB 101400Z 00000KT 9999 NSC 29/22 Q1015 A2997 HR68 RWY NML=@CAELT@
ZPX0383 101352@CAELT@GG SLZZYMYT@CAELT@101352 SLETYMYC@CAELT@SABO SLET 101400@CAELT@METAR SLET 101400Z 32012KT 9999 FEW017 27/21 Q1013 A2992 HR70 NOSIG=@CAELT@
ZPX0386 101355@CAELT@GG SLZZYMYT@CAELT@101352 SLPSYGYS@CAELT@SABO SLPS 101400@CAELT@METAR SLPS 101400Z 00000KT 9999 NSC 29/22 Q1012 A2989 HR68=@CAELT@
ZPX0387 101355@CAELT@GG SLZZYMYT@CAELT@101355 SLCOYGYZ@CAELT@SABO SLCO 101400@CAELT@METAR SLCO 101400Z 19006KT 9999 FEW010 OVC080 26/24 Q1013 A2992 985.8@CAELT@HR88=@CAELT@
ZPX0388 101355@CAELT@GG SLZZYMYT@CAELT@101354 SLSAYGYS@CAELT@SABO SLSA 101400@CAELT@METAR SLSA 101400Z 00000KT 6000 -RA BKN006 BKN015 OVC070 23/23@CAELT@Q1013 A2992 HR96=@CAELT@
ZPX0389 101355@CAELT@GG SLZZYMYT@CAELT@101355 SLLPYGYZ@CAELT@SABO SLLP 101400@CAELT@METAR SLLP 101400Z 10009KT 080V150 7000 FEW006 SCT017 BKN200 12/05@CAELT@Q1038 A3066 628.1 HR65 P93// VIS/RED/SC/BJOS NE/E/SE NOSIG=@CAELT@
ZPX0390 101356@CAELT@GG SLZZYMYT@CAELT@101355 SLRQYSYX@CAELT@SABO SLRQ 101400@CAELT@METAR SLRQ 101400Z 18006KT 9999 BKN030 BKN080 25/21 Q1013 A2993 989.4@CAELT@HR79=@CAELT@
ZPX0391 101356@CAELT@GG SLZZYMYT@CAELT@101355 SLTJYGYZ@CAELT@SABO SLTJ 101400@CAELT@METAR SLTJ 101400Z 21005KT 9999 FEW030 23/12 Q1021 A3016 816.1 HR52=@CAELT@
ZPX0392 101356@CAELT@GG SLZZYMYT@CAELT@101355 SLAGYSYX@CAELT@SABO SLAG 101400@CAELT@METAR SLAG 101400Z 36003KT 9999 FEW015 27/16 Q1018 A3007 890.3 HR51=@CAELT@
ZPX0393 101356@CAELT@GG SLZZYMYT@CAELT@101356 SLTRYGYZ@CAELT@SABO SLTR 101400@CAELT@METAR SLTR 101400Z 10004KT 9999 SCT012 BKN070 25/22 Q1013 A2994@CAELT@995.2 HR84 NOSIG=@CAELT@
ZPX0394 101356@CAELT@GG SLZZYMYT@CAELT@101356 SLTRYGYZ@CAELT@SABO SLTR 101400@CAELT@METAR SLTR 101400Z 10004KT 9999 SCT012 BKN070 25/22 Q1013 A2994@CAELT@995.2 HR84 NOSIG=@CAELT@
ZPX0395 101356@CAELT@GG SLZZYMYT@CAELT@101356 SLORYGYZ@CAELT@SABO SLOR 101400@CAELT@METAR SLOR 101400Z 07014KT 9999 FEW017 16/02 Q1035 A3057 656.1 HR41@CAELT@
ZPX0396 101357@CAELT@GG SLZZYMYT@CAELT@101350 SLUYYGYS@CAELT@SABO SLUY 101400@CAELT@METAR SLUY 101400Z 14006KT 9999 FEW020 14/M00 Q1034 A3056@CAELT@658.9 HR39=@CAELT@
ZPX0397 101357@CAELT@GG SLZZYMYT@CAELT@101356 SLCBYGYZ@CAELT@SABO SLCB 101400@CAELT@METAR SLCB 101400Z 16003KT 9999 SCT030 20/05 Q1028 A3037 754.1 HR37@CAELT@FU CI NOSIG=@CAELT@
ZPX0398 101357@CAELT@GG SLZZYMYT@CAELT@101358 SLVRYGYZ@CAELT@SABO SLVR 101400@CAELT@METAR SLVR 101400Z 33009KT 9999 FEW017 27/21 Q1013 A2994 HR68 NOSIG=@CAELT@
ZPX0399 101357@CAELT@GG SLZZYMYT@CAELT@101356 SLCAYGYS@CAELT@SABO SLCA 101400@CAELT@METAR SLCA 101400Z 00000KT 9999 NSC 26/18 Q1016 A3000 HR62 RWY NML=@CAELT@
ZPX0400 101357@CAELT@GG SLZZYMYT@CAELT@101356 SLSBYSYX@CAELT@SABO SLSB 101400@CAELT@METAR SLSB 101400Z 00000KT 9999 BKN080 27/23 Q1014 A2996 HR82 RWY WET@CAELT@OPR C210=@CAELT@
ZPX0401 101358@CAELT@GG SLZZYMYT@CAELT@101358 SLVRYFYC@CAELT@SABO SLVR 101400@CAELT@METAR SLVR 101400Z 33009KT 9999 FEW017 27/21 Q1013 A2994 HR68 NOSIG=@CAELT@METAR SLET 101400Z 32012KT 9999 FEW017 27/21 Q1013 A2992 HR70 NOSIG=@CAELT@METAR SLAS 101400Z 00000KT 9999 NSC 28/22 Q1015 A2997 HR69 AC RWY WET@CAELT@OPR=@CAELT@METAR SLJV 101400Z 03005KT 9999 NSC 27/21 Q1013 A2991 HR72 CI RWY HUMMETAR SLCP 101400Z 00000KT 9999 NSC 25/21 Q1017 A3003 HR78 RWY HUMMETAR SLSI 101400Z 00000KT 9999 FEW017 28/21 Q1013 A2991 HR68 RWY HUMMETAR SLTI 101400Z 00000KT 9999 FEW070 29/22 Q1016 A3000 HR64 RWY NMLMETAR SLJE 101400Z 00000KT 9999 NSC 27/22 Q1016 A3000 HR75 RWY NML=METAR SLVG 101400Z 00000KT 9999 SCT023 22/10 Q1026 A3030 HR42 RWY NMLMETAR SLRB 101400Z 00000KT 9999 NSC 29/22 Q1015 A2997 HR68 RWY NML=METAR SLPS 101400Z 00000KT 9999 NSC 29/22 Q1012 A2989 HR68=METAR SLCA 101400Z 00000KT 9999 NSC 26/18 Q1016 A3000 HR62 RWY NML=
ZPX0402 101358@CAELT@GG SLZZYMYT@CAELT@101358 SLTRYGYS@CAELT@SABO SLTR 101400@CAELT@METAR SLTR 101400Z 10004KT 9999 SCT012 BKN070 25/22 Q1013 A2994@CAELT@995.2 HR84 NOSIG=@CAELT@METAR SLGM 101400Z 15006KT 4000 -RA SCT004 BKN012 FEW020CB OVC070@CAELT@24/24 Q1013 A2993 HR98 CB N/NW=@CAELT@METAR SLRI 101400Z 18006KT 2000 RA BKN004 FEW020CB OVC070 24/24Q1014 A2996 HR98 CB SE/S/SW=METAR SLJO 101400Z 09003KT 9999 SCT012 OVC070 23/23 Q1011 A2988 HR98RERA RWY OPR C206=METAR SLRA 101400Z 00000KT 9999 SCT008 OVC070 24/23 Q1012 A2991 HR97METAR SLMG 101400Z 34004KT 9999 BKN015 OVC070 25/23 Q1012 A2988 HR92RWY OPR C210=METAR SLBU 101400Z 03004KT 9999 BKN010 OVC070 25/24 Q1012 A2989 HR92RWY HUM OPR=METAR SLSA 101400Z 00000KT 6000 -RA BKN006 BKN015 OVC070 23/23Q1013 A2992 HR96=METAR SLSR 101400Z 12006KT 9999 BKN010 FEW023CB OVC070 23/20 Q1014A2994 HR80 CB NE/E RWY NML=METAR SLSM 101400Z 00000KT 9999 BKN017 OVC070 24/22 Q1014 A2995 HR89RWY WET INOP=
ZPX0406 101401@CAELT@GG SLZZYMYT@CAELT@101355 SLLPYFYA@CAELT@SABO SLRY 101400@CAELT@METAR SLRY 101400Z 00000KT 9999 BKN023 OVC070 25/22 Q1012 A2990@CAELT@HR83 RWY NML=@CAELT@
ZPX0407 101402@CAELT@GG SLZZYMYT@CAELT@101357 SLLPYFZA@CAELT@SABO SLAP 101400@CAELT@METAR SLAP 101400Z 00000KT 9999 SCT025 OVC070 17/15 Q1022 A3018 HR86=@CAELT@
ZPX0411 101403@CAELT@GG SLZZYMYT@CAELT@101402 SLLPYFYA@CAELT@SABO SLLP 101400@CAELT@METAR SLLP 101400Z 10009KT 080V150 7000 FEW006 SCT017 BKN200 12/05@CAELT@Q1038 A3066 628.1 HR65 P93// VIS/RED/SC/BJOS NE/E/SE NOSIG=@CAELT@METAR SLCO 101400Z 19006KT 9999 FEW010 OVC080 26/24 Q1013 A2992@CAELT@985.8 HR88=@CAELT@METAR SLRY 101400Z 00000KT 9999 BKN023 OVC070 25/22 Q1012 A2990HR83 RWY NML=METAR SLRQ 101400Z 18006KT 9999 BKN030 BKN080 25/21 Q1013 A2993989.4 HR79=METAR SLSB 101400Z 00000KT 9999 BKN080 27/23 Q1014 A2996 HR82RWY WET OPR C210=METAR SLAP 101400Z 00000KT 9999 SCT025 OVC070 17/15 Q1022 A3018HR86=METAR SLOR 101400Z 07014KT 9999 FEW017 16/02 Q1035 A3057 656.1HR41 CI=METAR SLUY 101400Z 14006KT 9999 FEW020 14/M00 Q1034 A3056658.9 HR39=
ZPX0417 101406@CAELT@GG SLZZYMYT@CAELT@101403 SLCBYGYS@CAELT@SABO SLCB 101400@CAELT@METAR SLCB 101400Z 16003KT 9999 SCT030 20/05 Q1028 A3037 754.1 HR37@CAELT@FU CI NOSIG=@CAELT@METAR SLAL 101400Z 00000KT 9999 SCT017 16/06 Q1033 A3051 706.5 HR52=@CAELT@METAR SLPO 101400Z 00000KT 9999 SCT015 11/05 Q1039 A3070 639.3 HR65=@CAELT@METAR SLAG 101400Z 36003KT 9999 FEW015 27/16 Q1018 A3007 890.3 HR51=METAR SLVM 101400Z 00000KT 9999 NSC 32/24 Q1010 A2985 HR63=METAR SLTJ 101400Z 21005KT 9999 FEW030 23/12 Q1021 A3016 816.1 HR52=METAR SLYA 101400Z 00000KT 9999 NSC 34/22 Q1011 A2987 936.2 HR51=METAR SLBJ 101400Z NIL=METAR SLHI 101400Z NIL=
ZPX0439 101452@CAELT@GG SLZZYMYT@CAELT@101450 SLPSYGYS@CAELT@SABO SLPS 101500@CAELT@METAR SLPS 101500Z 00000KT 9999 NSC 32/24 Q1012 A2989 HR65=@CAELT@
ZPX0442 101453@CAELT@GG SLZZYMYT@CAELT@101453 SLSBYSYX@CAELT@SABO SLSB 101500@CAELT@METAR SLSB 101500Z 00000KT 9999 BKN080 27/21 Q1014 A2995 HR72 RWY WET@CAELT@OPR C210=@CAELT@
ZPX0443 101453@CAELT@GG SLZZYMYT@CAELT@101453 SLETYMYC@CAELT@SABO SLET 101500@CAELT@METAR SLET 101500Z 31012KT 9999 FEW017 29/21 Q1012 A2991 HR60 NOSIG=@CAELT@
ZPX0445 101453@CAELT@GG SLZZYMYT@CAELT@101453 SLLPYFYA@CAELT@SABO SLRY 101500@CAELT@METAR SLRY 101500Z 00000KT 9999 BKN027 OVC070 26/22 Q1012 A2991@CAELT@HR78 RWY NML=@CAELT@
ZPX0446 101454@CAELT@GG SLZZYMYT@CAELT@101454 SLRBYGYS@CAELT@SABO SLRB 101500@CAELT@METAR SLRB 101500Z 00000KT 9999 NSC 30/23 Q1014 A2994 HR66 RWY NML=@CAELT@
ZPX0448 101455@CAELT@GG SLZZYMYT@CAELT@101455 SLCOYGYZ@CAELT@SABO SLCO 101500@CAELT@METAR SLCO 101500Z 19012KT 9999 BKN010 OVC080 27/24 Q1013 A2993 986.2@CAELT@HR86=@CAELT@
ZPX0449 101455@CAELT@GG SLZZYMYT@CAELT@101454 SLSAYGYS@CAELT@SABO SLSA 101500@CAELT@METAR SLSA 101500Z 00000KT 8000 VCSH SCT006 BKN015 OVC070 24/23@CAELT@Q1013 A2992 HR93 RERA SH SW/W/NW=@CAELT@
ZPX0451 101455@CAELT@GG SLZZYMYT@CAELT@101455 SLRQYSYX@CAELT@SABO SLRQ 101500@CAELT@METAR SLRQ 101500Z 18004KT 9999 BKN030 BKN080 27/22 Q1013 A2993 989.4@CAELT@HR73=@CAELT@
ZPX0452 101455@CAELT@GG SLZZYMYT@CAELT@101455 SLLPYGYZ@CAELT@SABO SLLP 101500@CAELT@METAR SLLP 101500Z 11008KT 060V150 9999 SCT017 BKN200 13/05 Q1037@CAELT@A3064 627.7 HR57 P94// NOSIG=@CAELT@
ZPX0453 101456@CAELT@GG SLZZYMYT@CAELT@101455 SLCBYGYZ@CAELT@SABO SLCB 101500@CAELT@METAR SLCB 101500Z 30004KT 9999 SCT033 21/05 Q1027 A3034 753.2 HR34@CAELT@FU CI NOSIG=@CAELT@
ZPX0454 101457@CAELT@GG SLZZYMYT@CAELT@101456 SLTRYGYZ@CAELT@SABO SLTR 101500@CAELT@METAR SLTR 101500Z 06004KT 7000 VCSH SCT012 BKN070 26/23 Q1013 A2992@CAELT@994.8 HR83 SH NE TEMPO RA=@CAELT@
ZPX0455 101457@CAELT@GG SLZZYMYT@CAELT@101456 SLTRYGYZ@CAELT@SABO SLTR 101500@CAELT@METAR SLTR 101500Z 06004KT 7000 VCSH SCT012 BKN070 26/23 Q1013 A2992@CAELT@994.8 HR83 SH NE TEMPO RA=@CAELT@
ZPX0456 101457@CAELT@GG SLZZYMYT@CAELT@101457 SLVRYGYZ@CAELT@SABO SLVR 101500@CAELT@METAR SLVR 101500Z 35009KT 9999 FEW017 30/22 Q1013 A2992 HR62 NOSIG=@CAELT@
ZPX0458 101457@CAELT@GG SLZZYMYT@CAELT@101457 SLCAYGYS@CAELT@SABO SLCA 101500@CAELT@METAR SLCA 101500Z 00000KT 9999 FEW036 29/17 Q1016 A3000 HR49 RWY NML@CAELT@
ZPX0459 101457@CAELT@GG SLZZYMYT@CAELT@101457 SLUYYGYS@CAELT@SABO SLUY 101500@CAELT@METAR SLUY 101500Z VRB02KT 9999 FEW023 17/M01 Q1033 A3053@CAELT@658.2 HR31=@CAELT@
ZPX0460 101457@CAELT@GG SLZZYMYT@CAELT@101457 SLUYYGYS@CAELT@SABO SLUY 101500@CAELT@METAR SLUY 101500Z VRB02KT 9999 FEW023 17/M01 Q1033 A3053@CAELT@658.2 HR31=@CAELT@
ZPX0462 101458@CAELT@GG SLZZYMYT@CAELT@101456 SLAGYSYX@CAELT@SABO SLAG 101500@CAELT@METAR SLAG 101500Z 36003KT 9999 FEW015 30/14 Q1017 A3004 889.5 HR39=@CAELT@
ZPX0463 101458@CAELT@GG SLZZYMYT@CAELT@101457 SLORYGYZ@CAELT@SABO SLOR 101500@CAELT@METAR SLOR 101500Z 06013KT 9999 SCT017 17/02 Q1034 A3055 655.7 HR38@CAELT@
ZPX0464 101458@CAELT@GG SLZZYMYT@CAELT@101457 SLORYGYZ@CAELT@SABO SLOR 101500@CAELT@METAR SLOR 101500Z 06013KT 9999 SCT017 17/02 Q1034 A3055 655.7 HR38@CAELT@
ZPX0465 101458@CAELT@GG SLZZYMYT@CAELT@101456 SLTJYGYZ@CAELT@SABO SLTJ 101500@CAELT@METAR SLTJ 101500Z 18004KT 9999 FEW030 25/11 Q1020 A3013 815.1 HR42=@CAELT@
ZPX0466 101458@CAELT@GG SLZZYMYT@CAELT@101458 SLUYYGYS@CAELT@SABO SLUY 101500@CAELT@METAR SLUY 101500Z VRB02KT 9999 FEW023 17/M01 Q1033 A3053@CAELT@658.2 HR31=@CAELT@
ZPX0468 101459@CAELT@GG SLZZYMYT@CAELT@101459 SLLPYFYA@CAELT@SABO SLLP 101500@CAELT@METAR SLLP 101500Z 11008KT 060V150 9999 SCT017 BKN200 13/05 Q1037@CAELT@A3064 627.7 HR57 P94// NOSIG=@CAELT@METAR SLCO 101500Z 19012KT 9999 BKN010 OVC080 27/24 Q1013 A2993@CAELT@986.2 HR86=@CAELT@METAR SLRY 101500Z 00000KT 9999 BKN027 OVC070 26/22 Q1012 A2991HR78 RWY NML=METAR SLRQ 101500Z 18004KT 9999 BKN030 BKN080 27/22 Q1013 A2993989.4 HR73=METAR SLAP 101500Z 00000KT 9999 SCT025 OVC070 17/14 Q1021 A3017861.9 HR82=METAR SLSB 101500Z 00000KT 9999 BKN080 27/21 Q1014 A2995 HR72RWY WET OPR C210=METAR SLOR 101500Z 06013KT 9999 SCT017 17/02 Q1034 A3055 655.7HR38 CI=METAR SLUY 101500Z VRB02KT 9999 FEW023 17/M01 Q1033 A3053658.2 HR31=
ZPX0470 101500@CAELT@GG SLZZYMYT@CAELT@101459 SLCBYGYS@CAELT@SABO SLCB 101500@CAELT@METAR SLCB 101500Z 30004KT 9999 SCT033 21/05 Q1027 A3034 753.2 HR34@CAELT@FU CI NOSIG=@CAELT@METAR SLAL 101500Z 00000KT 9999 SCT017 17/05 Q1031 A3046 705.1 HR44=@CAELT@METAR SLPO 101500Z 06005KT 9999 SCT017 13/06 Q1039 A3068 638.7 HR61=@CAELT@METAR SLAG 101500Z 36003KT 9999 FEW015 30/14 Q1017 A3004 889.5 HR39=METAR SLVM 101500Z 00000KT 9999 NSC 33/23 Q1010 A2982 HR56=METAR SLTJ 101500Z 18004KT 9999 FEW030 25/11 Q1020 A3013 815.1 HR42=METAR SLYA 101500Z 00000KT 9999 NSC 35/22 Q1010 A2985 935.7 HR46=METAR SLBJ 101500Z NIL=METAR SLHI 101500Z NIL=
ZPX0472 101501@CAELT@GG SLZZYMYT@CAELT@101501 SLVRYFYC@CAELT@SABO SLVR 101500@CAELT@METAR SLVR 101500Z 35009KT 9999 FEW017 30/22 Q1013 A2992 HR62 NOSIG=@CAELT@METAR SLET 101500Z 31012KT 9999 FEW017 29/21 Q1012 A2991 HR60 NOSIG=@CAELT@METAR SLAS 101500Z 00000KT 9999 NSC 29/22 Q1015 A2997 HR68 RWY HUM@CAELT@OPR=@CAELT@METAR SLJV 101500Z 03005KT 9999 NSC 28/21 Q1013 A2991 HR67 CI RWY NMLMETAR SLCP 101500Z 00000KT 9999 NSC 27/22 Q1017 A3003 HR75 RWY HUMMETAR SLSI 101500Z 00000KT 9999 FEW017 29/20 Q1012 A2988 HR62 RWY HUMMETAR SLTI 101500Z 00000KT 9999 SCT070 30/22 Q1016 A3000 HR61 RWY NMLMETAR SLJE 101500Z 00000KT 9999 NSC 29/22 Q1015 A2997 HR68 RWY NML=METAR SLVG 101500Z 35006KT 9999 SCT025 22/10 Q1026 A3030 HR40 RWY NMLMETAR SLRB 101500Z 00000KT 9999 NSC 30/23 Q1014 A2994 HR66 RWY NML=METAR SLPS 101500Z 00000KT 9999 NSC 32/24 Q1012 A2989 HR65=METAR SLCA 101500Z 00000KT 9999 FEW036 29/17 Q1016 A3000 HR49 RWY NML
ZPX0473 101501@CAELT@GG SLZZYMYT@CAELT@101501 SLTRYGYS@CAELT@SABO SLTR 101500@CAELT@METAR SLTR 101500Z 06004KT 7000 VCSH SCT012 BKN070 26/23 Q1013 A2992@CAELT@994.8 HR83 SH NE TEMPO RA=@CAELT@METAR SLGM 101500Z 16004KT 4000 -RA SCT004 BKN012 FEW020CB OVC070@CAELT@24/23 Q1013 A2993 HR97 CB S/SW=@CAELT@METAR SLRI 101500Z 17006KT 3000 -RA BKN004 FEW020CB OVC070 24/23Q1014 A2996 HR98 CB SW/W/NW=METAR SLJO 101500Z 34004KT 9999 FEW015 BKN070 24/23 Q1011 A2988 HR92RWY OPR C206=METAR SLRA 101500Z 03005KT 9999 FEW012 SCT080 BKN200 25/23 Q1012A2990 HR88 RWY OPR C206=METAR SLMG 101500Z 34006KT 9999 BKN015 OVC070 26/24 Q1012 A2988 HR88RWY OPR C210=METAR SLBU 101500Z 03004KT 9999 BKN012 OVC070 26/24 Q1011 A2988 HR88RWY HUM OPR=METAR SLSA 101500Z 00000KT 8000 VCSH SCT006 BKN015 OVC070 24/23Q1013 A2992 HR93 RERA SH SW/W/NW=METAR SLSR 101500Z 12006KT 9999 BKN010 FEW023CB OVC070 25/22 Q1013A2992 HR86 CB N/NE RWY NML=METAR SLSM 101500Z 00000KT 9999 SCT015 BKN070 25/23 Q1013 A2994 HR86RWY WET INOP=
ZPX0476 101503@CAELT@GG SLZZYMYT@CAELT@101503 SLTRYGYS@CAELT@SABO SLTR 101500 CCA@CAELT@METAR SLTR 101500Z 06004KT 7000 VCSH SCT012 BKN070 26/23 Q1013 A2992@CAELT@994.8 HR83 SH NE TEMPO RA=@CAELT@METAR SLGM 101500Z 16004KT 4000 -RA SCT004 BKN012 FEW020CB OVC070@CAELT@24/23 Q1013 A2993 HR97 CB S/SW=@CAELT@METAR COR SLRI 101500Z 17006KT 3000 -RA BKN004 FEW020CB OVC070 24/24Q1014 A2996 HR98 CB SW/W/NW=METAR SLJO 101500Z 34004KT 9999 FEW015 BKN070 24/23 Q1011 A2988 HR92RWY OPR C206=METAR SLRA 101500Z 03005KT 9999 FEW012 SCT080 BKN200 25/23 Q1012A2990 HR88 RWY OPR C206=METAR SLMG 101500Z 34006KT 9999 BKN015 OVC070 26/24 Q1012 A2988 HR88RWY OPR C210=METAR SLBU 101500Z 03004KT 9999 BKN012 OVC070 26/24 Q1011 A2988 HR88RWY HUM OPR=METAR SLSA 101500Z 00000KT 8000 VCSH SCT006 BKN015 OVC070 24/23Q1013 A2992 HR93 RERA SH SW/W/NW=METAR SLSR 101500Z 12006KT 9999 BKN010 FEW023CB OVC070 25/22 Q1013A2992 HR86 CB N/NE RWY NML=METAR SLSM 101500Z 00000KT 9999 SCT015 BKN070 25/23 Q1013 A2994 HR86RWY WET INOP=
ZPX0492 101553@CAELT@GG SLZZYMYT@CAELT@101553 SLRBYGYS@CAELT@SABO SLRB 101600@CAELT@METAR SLRB 101600Z 00000KT 9999 NSC 32/22 Q1013 A2991 HR57 RWY NML=@CAELT@
ZPX0493 101554@CAELT@GG SLZZYMYT@CAELT@101554 SLSBYSYX@CAELT@SABO SLSB 101600@CAELT@METAR SLSB 101600Z 00000KT 9999 FEW017 BKN080 28/22 Q1013 A2992 HR68@CAELT@RWY WET OPR C210=@CAELT@
ZPX0494 101554@CAELT@GG SLZZYMYT@CAELT@101551 SLPSYGYS@CAELT@SABO SLPS 101600@CAELT@METAR SLPS 101600Z 00000KT 9999 NSC 34/25 Q1010 A2983 HR61=@CAELT@
ZPX0496 101554@CAELT@GG SLZZYMYT@CAELT@101554 SLCAYGYS@CAELT@SABO SLCA 101600@CAELT@METAR SLCA 101600Z 00000KT 9999 SCT036 32/17 Q1014 A2994 HR43 RWY NML@CAELT@
ZPX0497 101554@CAELT@GG SLZZYMYT@CAELT@101554 SLSAYGYS@CAELT@SABO SLSA 101600@CAELT@METAR SLSA 101600Z 32004KT 9999 BKN015 BKN080 26/23 Q1012 A2989 HR84=@CAELT@
ZPX0498 101555@CAELT@GG SLZZYMYT@CAELT@101555 SLORYGYZ@CAELT@SABO SLOR 101600@CAELT@METAR SLOR 101600Z 07013KT 9999 SCT020 18/03 Q1034 A3053 655.2 HR39@CAELT@
ZPX0499 101555@CAELT@GG SLZZYMYT@CAELT@101555 SLCOYGYZ@CAELT@SABO SLCO 101600@CAELT@METAR SLCO 101600Z 18008KT 9999 BKN006 SCT010 OVC080 25/24 Q1013@CAELT@A2993 986.0 HR89=@CAELT@
ZPX0500 101555@CAELT@GG SLZZYMYT@CAELT@101554 SLORYGYZ@CAELT@SABO SLOR 101600@CAELT@METAR SLOR 101600Z 07013KT 9999 SCT020 18/03 Q1034 A3053 655.2 HR39@CAELT@
ZPX0501 101555@CAELT@GG SLZZYMYT@CAELT@101555 SLTRYGYZ@CAELT@SABO SLTR 101600@CAELT@METAR SLTR 101600Z 04004KT 8000 -RA SCT012 BKN070 25/24 Q1012 A2991@CAELT@994.3 HR94 NOSIG=@CAELT@
ZPX0502 101555@CAELT@GG SLZZYMYT@CAELT@101555 SLCOYGYZ@CAELT@SABO SLCO 101600@CAELT@METAR SLCO 101600Z 18008KT 9999 BKN006 SCT010 OVC080 25/24 Q1013@CAELT@A2993 986.0 HR89=@CAELT@
ZPX0503 101555@CAELT@GG SLZZYMYT@CAELT@101555 SLTJYGYZ@CAELT@SABO SLTJ 101600@CAELT@METAR SLTJ 101600Z 18005KT 9999 FEW030 26/11 Q1018 A3009 814.0 HR39=@CAELT@
ZPX0504 101555@CAELT@GG SLZZYMYT@CAELT@101555 SLLPYGYZ@CAELT@SABO SLLP 101600@CAELT@METAR SLLP 101600Z 11011KT 080V140 9999 SCT020 FEW023CB BKN200 14/05@CAELT@Q1036 A3061 627.0 HR53 P94// CB/SH SW/NW NOSIG=@CAELT@
ZPX0505 101555@CAELT@GG SLZZYMYT@CAELT@101553 SLETYMYC@CAELT@SABO SLET 101600@CAELT@METAR SLET 101600Z 31010KT 9999 FEW020 31/20 Q1011 A2988 HR53 NOSIG=@CAELT@
ZPX0506 101555@CAELT@GG SLZZYMYT@CAELT@101555 SLRQYSYX@CAELT@SABO SLRQ 101600@CAELT@METAR SLRQ 101600Z 12004KT 9999 SCT030 BKN080 29/23 Q1012 A2991 988.6@CAELT@HR70=@CAELT@
ZPX0507 101556@CAELT@GG SLZZYMYT@CAELT@101554 SLLPYFYA@CAELT@SABO SLRY 101600@CAELT@METAR SLRY 101600Z 00000KT 9999 BKN070 28/22 Q1012 A2990@CAELT@HR66 RWY NML=@CAELT@
ZPX0508 101556@CAELT@GG SLZZYMYT@CAELT@101556 SLAGYSYX@CAELT@SABO SLAG 101600@CAELT@METAR SLAG 101600Z 09007KT 9999 FEW017 31/15 Q1016 A3001 888.5 HR37=@CAELT@
ZPX0509 101556@CAELT@GG SLZZYMYT@CAELT@101549 SLUYYGYS@CAELT@SABO SLUY 101600@CAELT@METAR SLUY 101600Z VRB02KT 9999 SCT025 18/00 Q1033 A3051@CAELT@657.7 HR31=@CAELT@
ZPX0510 101556@CAELT@GG SLZZYMYT@CAELT@101556 SLCBYGYZ@CAELT@SABO SLCB 101600@CAELT@METAR SLCB 101600Z 25005KT 9999 FEW036 23/05 Q1026 A3030 752.3 HR31@CAELT@FU CI NOSIG=@CAELT@
ZPX0512 101557@CAELT@GG SLZZYMYT@CAELT@101557 SLVRYGYZ@CAELT@SABO SLVR 101600@CAELT@METAR SLVR 101600Z 35010KT 9999 FEW020 31/21 Q1012 A2989 HR57 NOSIG=@CAELT@
ZPX0513 101558@CAELT@GG SLZZYMYT@CAELT@101559 SLLPYFYA@CAELT@SABO SLLP 101600@CAELT@METAR SLLP 101600Z 11011KT 080V140 9999 SCT020 FEW023CB BKN200@CAELT@14/05 Q1036 A3061 627.0 HR53 P94// CB/SH SW/NW NOSIG=@CAELT@METAR SLCO 101600Z 18008KT 9999 BKN006 SCT010 OVC080 25/24 Q1013@CAELT@A2993 986.0 HR89=@CAELT@METAR SLRY 101600Z 00000KT 9999 BKN070 28/22 Q1012 A2990HR66 RWY NML=METAR SLRQ 101600Z 12004KT 9999 SCT030 BKN080 29/23 Q1012 A2991988.6 HR70=METAR SLSB 101600Z 00000KT 9999 FEW017 BKN080 28/22 Q1013 A2992HR68 RWY WET OPR C210=METAR SLAP 101600Z 00000KT 9999 FEW025 BKN070 21/16 Q1020 A3015861.1 HR74=METAR SLOR 101600Z 07013KT 9999 SCT020 18/03 Q1034 A3053 655.2HR39 CI=METAR SLUY 101600Z VRB02KT 9999 SCT025 18/00 Q1033 A3051657.7 HR31=
ZPX0515 101559@CAELT@GG SLZZYMYT@CAELT@101559 SLVRYFYC@CAELT@SABO SLVR 101600@CAELT@METAR SLVR 101600Z 35010KT 9999 FEW020 31/21 Q1012 A2989 HR57 NOSIG=@CAELT@METAR SLET 101600Z 31010KT 9999 FEW020 31/20 Q1011 A2988 HR53 NOSIG=@CAELT@METAR SLAS 101600Z 36010KT 9999 SCT070 30/23 Q1015 A2997 HR69 RWY@CAELT@HUM OPR=@CAELT@METAR SLJV 101600Z 00000KT 9999 NSC 30/21 Q1012 A2988 HR61 RWY NML=METAR SLCP 101600Z 00000KT 9999 FEW020 28/20 Q1016 A3000 HR63 RWY NMLMETAR SLSI 101600Z 00000KT 9999 FEW017 30/22 Q1012 A2988 HR58 RWY NMLMETAR SLRB 101600Z 00000KT 9999 NSC 32/22 Q1013 A2991 HR57 RWY NML=METAR SLPS 101600Z 00000KT 9999 NSC 34/25 Q1010 A2983 HR61=METAR SLCA 101600Z 00000KT 9999 SCT036 32/17 Q1014 A2994 HR43 RWY NML
ZPX0518 101600@CAELT@GG SLZZYMYT@CAELT@101600 SLTRYGYS@CAELT@SABO SLTR 101600@CAELT@METAR SLTR 101600Z 04004KT 8000 -RA SCT012 BKN070 25/24 Q1012 A2991@CAELT@994.3 HR94 NOSIG=@CAELT@METAR SLGM 101600Z 02008KT 4000 -RA SCT004 BKN012 FEW020CB OVC070@CAELT@25/24 Q1012 A2990 HR94 CB N/NW=@CAELT@METAR SLRI 101600Z 00000KT 5000 -RA SCT004 BKN015 FEW020CB OVC07024/24 Q1013 A2994 HR98 CB N/NE=METAR SLJO 101600Z 34005KT 9999 FEW015 BKN080 27/23 Q1011 A2987 HR82RWY OPR C206=METAR SLRA 101600Z 36006KT 9999 SCT015 SCT080 BKN200 27/23 Q1012A2989 HR79 RWY OPR C206=METAR SLMG 101600Z 32006KT 9999 BKN015 BKN080 27/24 Q1011 A2988 HR84RWY HUM OPR=METAR SLBU 101600Z 00000KT 9999 BKN015 BKN070 27/24 Q1011 A2986 HR85RWY NML=METAR SLSA 101600Z 32004KT 9999 BKN015 BKN080 26/23 Q1012 A2989 HR84=METAR SLSR 101600Z 12006KT 9999 BKN012 FEW023CB OVC070 25/22 Q1012A2990 HR83 CB NE/E RWY NML=METAR SLSM 101600Z 00000KT 9999 SCT015 BKN200 27/23 Q1012 A2991 HR82AS RWY WET INOP=
ZPX0521 101602@CAELT@GG SLZZYMYT@CAELT@101600 SLCBYGYS@CAELT@SABO SLCB 101600@CAELT@METAR SLCB 101600Z 25005KT 9999 FEW036 23/05 Q1026 A3030 752.3 HR31@CAELT@FU CI NOSIG=@CAELT@METAR SLAL 101600Z 00000KT 9999 SCT020 18/04 Q1031 A3044 704.8 HR41=@CAELT@METAR SLPO 101600Z 06008KT 9999 SCT017 14/04 Q1037 A3063 637.6 HR52=@CAELT@METAR SLAG 101600Z 09007KT 9999 FEW017 31/15 Q1016 A3001 888.5 HR37=METAR SLVM 101600Z 00000KT 9999 FEW030 36/23 Q1008 A2978 HR47=METAR SLTJ 101600Z 18005KT 9999 FEW030 26/11 Q1018 A3009 814.0 HR39=METAR SLYA 101600Z 00000KT 9999 NSC 36/21 Q1009 A2982 934.6 HR43=METAR SLBJ 101600Z NIL=METAR SLHI 101600Z NIL=
ZPX0547 101650@CAELT@GG SLZZYMYT@CAELT@101650 SLCAYGYS@CAELT@SABO SLCA 101700@CAELT@METAR SLCA 101700Z 36004KT 9999 SCT036 33/20 Q1013 A2991 HR28 RWY NML@CAELT@
ZPX0548 101651@CAELT@GG SLZZYMYT@CAELT@101651 SLLPYFYA@CAELT@SABO SLRY 101700@CAELT@METAR SLRY 101700Z 00000KT 9999 BKN080 31/22 Q1011 A2988@CAELT@HR59 RWY NML=@CAELT@
ZPX0550 101654@CAELT@GG SLZZYMYT@CAELT@101654 SLRBYGYS@CAELT@SABO SLRB 101700@CAELT@METAR SLRB 101700Z 00000KT 9999 NSC 32/22 Q1012 A2988 HR55 RWY NML=@CAELT@
ZPX0551 101654@CAELT@GG SLZZYMYT@CAELT@101653 SLPSYGYS@CAELT@SABO SLPS 101700@CAELT@METAR SLPS 101700Z 00000KT 9999 FEW020 35/25 Q1009 A2980 HR59=@CAELT@
ZPX0553 101654@CAELT@GG SLZZYMYT@CAELT@101654 SLSAYGYS@CAELT@SABO SLSA 101700@CAELT@METAR SLSA 101700Z 34005KT 9999 BKN015 BKN080 27/23 Q1011 A2988 HR80=@CAELT@
ZPX0554 101654@CAELT@GG SLZZYMYT@CAELT@101654 SLSBYSYX@CAELT@SABO SLSB 101700@CAELT@METAR SLSB 101700Z 00000KT 9999 FEW020 BKN080 30/22 Q1012 A2989 HR64@CAELT@RWY WET OPR C210=@CAELT@
ZPX0555 101655@CAELT@GG SLZZYMYT@CAELT@101655 SLVRYGYZ@CAELT@SABO SLVR 101700@CAELT@METAR SLVR 101700Z 35012KT 9999 FEW020 32/22 Q1011 A2988 HR55 NOSIG=@CAELT@
ZPX0556 101655@CAELT@GG SLZZYMYT@CAELT@101655 SLCOYGYZ@CAELT@SABO SLCO 101700@CAELT@METAR SLCO 101700Z 18010KT 8000 -DZ BKN004 OVC080 24/22 Q1012 A2991@CAELT@985.5 HR90=@CAELT@
ZPX0557 101656@CAELT@GG SLZZYMYT@CAELT@101655 SLRQYSYX@CAELT@SABO SLRQ 101700@CAELT@METAR SLRQ 101700Z 35005KT 9999 FEW017 SCT080 30/24 Q1011 A2988 987.6@CAELT@HR70 CI=@CAELT@
ZPX0558 101656@CAELT@GG SLZZYMYT@CAELT@101655 SLTRYGYZ@CAELT@SABO SLTR 101700@CAELT@METAR SLTR 101700Z 03003KT 6000 VCSH SCT006 BKN070 24/23 Q1012@CAELT@A2989 993.8 HR95 RERA SH N/NE TEMPO RA=@CAELT@
ZPX0559 101656@CAELT@GG SLZZYMYT@CAELT@101655 SLTJYGYZ@CAELT@SABO SLTJ 101700@CAELT@METAR SLTJ 101700Z 09004KT 9999 FEW030 28/12 Q1017 A3005 813.0 HR37=@CAELT@
ZPX0560 101656@CAELT@GG SLZZYMYT@CAELT@101655 SLLPYGYZ@CAELT@SABO SLLP 101700@CAELT@METAR SLLP 101700Z 16010KT 120V190 9999 SCT020 FEW023CB SCT070 BKN200@CAELT@14/03 Q1036 A3060 626.7 HR45 P94// CB/SH S/NW NOSIG=@CAELT@
ZPX0561 101656@CAELT@GG SLZZYMYT@CAELT@101644 SLUYYGYS@CAELT@SABO SLUY 101700@CAELT@METAR SLUY 101700Z 11004KT 9999 SCT027 18/M01 Q1031 A3047@CAELT@656.8 HR28=@CAELT@
ZPX0562 101657@CAELT@GG SLZZYMYT@CAELT@101651 SLETYMYC@CAELT@SABO SLET 101700@CAELT@METAR SLET 101700Z 31012KT 9999 FEW020 32/20 Q1011 A2986 HR50 NOSIG=@CAELT@
ZPX0563 101657@CAELT@GG SLZZYMYT@CAELT@101656 SLCBYGYZ@CAELT@SABO SLCB 101700@CAELT@METAR SLCB 101700Z 26003KT 9999 SCT036 25/04 Q1024 A3025 751.0 HR26@CAELT@FU CI NOSIG=@CAELT@
ZPX0564 101657@CAELT@GG SLZZYMYT@CAELT@101657 SLORYGYZ@CAELT@SABO SLOR 101700@CAELT@METAR SLOR 101700Z 07010KT 9999 SCT023 FEW025CB 20/03 Q1033 A3052 654@CAELT@.8 HR34 CB/SW AC/CI=@CAELT@
ZPX0565 101658@CAELT@GG SLZZYMYT@CAELT@101657 SLAGYSYX@CAELT@SABO SLAG 101700@CAELT@METAR SLAG 101700Z 07005KT 9999 FEW020 31/14 Q1014 A2997 887.3 HR36=@CAELT@
ZPX0566 101658@CAELT@GG SLZZYMYT@CAELT@101658 SLVRYFYC@CAELT@SABO SLVR 101700@CAELT@METAR SLVR 101700Z 35012KT 9999 FEW020 32/22 Q1011 A2988 HR55 NOSIG=@CAELT@METAR SLET 101700Z 31012KT 9999 FEW020 32/20 Q1011 A2986 HR50 NOSIG=@CAELT@METAR SLAS 101700Z 36010KT 9999 FEW020 30/23 Q1013 A2992 HR66 RWY HUM@CAELT@OPR=@CAELT@METAR SLJV 101700Z 03005KT 9999 NSC 30/21 Q1011 A2985 HR59 RWY NML=METAR SLCP 101700Z 00000KT 9999 SCT020 29/21 Q1015 A2997 HR61 RWY NMLMETAR SLSI 101700Z 00000KT 9999 FEW017 30/22 Q1012 A2988 HR58 RWY NMLMETAR SLRB 101700Z 00000KT 9999 NSC 32/22 Q1012 A2988 HR55 RWY NML=METAR SLPS 101700Z 00000KT 9999 FEW020 35/25 Q1009 A2980 HR59=METAR SLCA 101700Z 36004KT 9999 SCT036 33/20 Q1013 A2991 HR28 RWY NML
ZPX0567 101700@CAELT@GG SLZZYMYT@CAELT@101659 SLTRYGYS@CAELT@SABO SLTR 101700@CAELT@METAR SLTR 101700Z 03003KT 6000 VCSH SCT006 BKN070 24/23 Q1012@CAELT@A2989 993.8 HR95 RERA SH N/NE TEMPO RA=@CAELT@METAR SLGM 101700Z 02010KT 6000 -RA BKN006 FEW020CB OVC070 25/24@CAELT@Q1012 A2989 HR92 CB NE/W=@CAELT@METAR SLRI 101700Z 32006KT 3000 -RA SCT004 FEW020CB OVC070 24/24Q1013 A2994 HR96 CB N/NE=METAR SLJO 101700Z 34008KT 9999 FEW015 BKN080 27/23 Q1011 A2986 HR78RWY OPR C206=METAR SLRA 101700Z 33006KT 9999 SCT015 SCT080 BKN200 28/23 Q1012A2989 HR76 RWY HUM OPR=METAR SLMG 101700Z 32004KT 9999 BKN015 BKN080 27/24 Q1011 A2987 HR82RWY HUM OPR=METAR SLBU 101700Z 00000KT 8000 VCSH BKN015 BKN070 26/24 Q1010 A2987HR87 SH NE/E RWY NML=METAR SLSA 101700Z 34005KT 9999 BKN015 BKN080 27/23 Q1011 A2988 HR80=METAR SLSR 101700Z 12004KT 9999 BKN012 FEW023CB OVC070 27/22 Q1011A22987 HR76 CB NE RWY NML=METAR SLSM 101700Z 31004KT 9999 BKN017 27/23 Q1012 A2989 HR78 AS/CIRWY WET INOP=
ZPX0569 101701@CAELT@GG SLZZYMYT@CAELT@101700 SLLPYFYA@CAELT@SABO SLLP 101700@CAELT@METAR SLLP 101700Z 16010KT 120V190 9999 SCT020 FEW023CB SCT070@CAELT@BKN200 14/03 Q1036 A3060 626.7 HR45 P94// CB/SH S/NW NOSIG=@CAELT@METAR SLCO 101700Z 18010KT 8000 -DZ BKN004 OVC080 24/22 Q1012@CAELT@A2991 985.5 HR90=@CAELT@METAR SLRY 101700Z 00000KT 9999 BKN080 31/22 Q1011 A2988HR59 RWY NML=METAR SLRQ 101700Z 35005KT 9999 FEW017 SCT080 30/24 Q1011 A2988987.6 HR70 CI=METAR SLSB 101700Z 00000KT 9999 FEW020 BKN080 30/22 Q1012 A2989HR64 RWY WET OPR C210=METAR SLAP 101700Z 00000KT 9999 FEW025 BKN070 23/15 Q1019 A3010859.6 HR60=METAR SLOR 101700Z 07010KT 9999 SCT023 FEW025CB 20/03 Q1033 A3052654.8 HR34 CB/SW AC/CI=METAR SLUY 101700Z 11004KT 9999 SCT027 18/M01 Q1031 A3047656.8 HR28=
ZPX0570 101702@CAELT@GG SLZZYMYT@CAELT@101701 SLCBYGYS@CAELT@SABO SLCB 101700@CAELT@METAR SLCB 101700Z 26003KT 9999 SCT036 25/04 Q1024 A3025 751.0 HR26@CAELT@FU CI NOSIG=@CAELT@METAR SLAL 101700Z 35006KT 9999 SCT020 17/05 Q1029 A3041 704.0 HR45=@CAELT@METAR SLPO 101700Z 07015KT 9999 SCT020 16/04 Q1036 A3059 636.7 HR46=@CAELT@METAR SLAG 101700Z 07005KT 9999 FEW020 31/14 Q1014 A2997 887.3 HR36=METAR SLVM 101700Z 36007KT 9999 FEW030 37/20 Q1007 A2974 HR36=METAR SLTJ 101700Z 09004KT 9999 FEW030 28/12 Q1017 A3005 813.0 HR37=METAR SLYA 101700Z 06008KT 9999 FEW023 37/21 Q1008 A2979 933.8 HR41=METAR SLBJ 101700Z NIL=METAR SLHI 101700Z NIL=
ZPX0602 101753@CAELT@GG SLZZYMYT@CAELT@101742 SLETYMYC@CAELT@SABO SLET 101800@CAELT@METAR SLET 101800Z 31010KT 9999 FEW020 32/20 Q1010 A2983 HR49 NOSIG=@CAELT@
ZPX0603 101753@CAELT@GG SLZZYMYT@CAELT@101752 SLLPYFYA@CAELT@SABO SLRY 101800@CAELT@METAR SLRY 101800Z 00000KT 9999 FEW016 32/23 Q1010 A2985@CAELT@HR58 RWY NML=@CAELT@
ZPX0605 101754@CAELT@GG SLZZYMYT@CAELT@101754 SLVRYGYZ@CAELT@SABO SLVR 101800@CAELT@METAR SLVR 101800Z 36011KT 9999 FEW020 32/21 Q1010 A2985 HR51 NOSIG=@CAELT@
ZPX0606 101754@CAELT@GG SLZZYMYT@CAELT@101755 SLSBYSYX@CAELT@SABO SLSB 101800@CAELT@METAR SLSB 101800Z 36004KT 8000 VCSH SCT020 FEW030CB BKN080 30/22@CAELT@Q1010 A2984 HR62 CB SH W RWY NML=@CAELT@
ZPX0607 101754@CAELT@GG SLZZYMYT@CAELT@101753 SLPSYGYS@CAELT@SABO SLPS 101800@CAELT@METAR SLPS 101800Z 36004KT 9999 FEW020 35/25 Q1008 A2977 HR57=@CAELT@
ZPX0608 101755@CAELT@GG SLZZYMYT@CAELT@101755 SLAGYSYX@CAELT@SABO SLAG 101800@CAELT@METAR SLAG 101800Z 02003KT 9999 FEW020 32/13 Q1013 A2992 885.8 HR31=@CAELT@
ZPX0609 101755@CAELT@GG SLZZYMYT@CAELT@101755 SLCOYGYZ@CAELT@SABO SLCO 101800@CAELT@METAR SLCO 101800Z 18006KT 9999 SCT006 OVC080 24/22 Q1011 A2987 984.1@CAELT@HR89 REDZ=@CAELT@
ZPX0610 101755@CAELT@GG SLZZYMYT@CAELT@101754 SLSAYGYS@CAELT@SABO SLSA 101800@CAELT@METAR SLSA 101800Z 31008KT 9999 SCT017 BKN080 28/23 Q1010 A2984 HR72=@CAELT@
ZPX0611 101755@CAELT@GG SLZZYMYT@CAELT@101756 SLRBYGYS@CAELT@SABO SLRB 101800@CAELT@METAR SLRB 101800Z 00000KT 9999 FEW020 34/23 Q1011 A2985 HR52 RWY NML=@CAELT@
ZPX0612 101755@CAELT@GG SLZZYMYT@CAELT@101755 SLORYGYZ@CAELT@SABO SLOR 101800@CAELT@METAR SLOR 101800Z 03010KT 9999 SCT023 FEW025 19/04 Q1032 A3049 654.1@CAELT@HR36 CB/SH S AC/CI=@CAELT@
ZPX0613 101756@CAELT@GG SLZZYMYT@CAELT@101755 SLRQYSYX@CAELT@SABO SLRQ 101800@CAELT@METAR SLRQ 101800Z 30005KT 9999 FEW020SCT200 31/23 Q1010 A2984 986.3@CAELT@HR64 AC=@CAELT@
ZPX0614 101756@CAELT@GG SLZZYMYT@CAELT@101755 SLCAYGYS@CAELT@SABO SLCA 101800@CAELT@METAR SLCA 101800Z 36004KT 9999 SCT036 34/12 Q1012 A2988 HR27 RWY NML@CAELT@
ZPX0615 101756@CAELT@GG SLZZYMYT@CAELT@101755 SLCBYGYZ@CAELT@SABO SLCB 101800@CAELT@METAR SLCB 101800Z 24007KT 150300 9999 SCT040 26/04 Q1022 A3020 749.6@CAELT@HR23 FU CI NOSIG=@CAELT@
ZPX0617 101757@CAELT@GG SLZZYMYT@CAELT@101755 SLTJYGYZ@CAELT@SABO SLTJ 101800@CAELT@METAR SLTJ 101800Z 13008KT 9999 FEW030 29/06 Q1016 A3001 811.8 HR24=@CAELT@
ZPX0618 101757@CAELT@GG SLZZYMYT@CAELT@101756 SLVRYFYC@CAELT@SABO SLVR 101800@CAELT@METAR SLVR 101800Z 36011KT 9999 FEW020 32/21 Q1010 A2985 HR51 NOSIG=@CAELT@METAR SLET 101800Z 31010KT 9999 FEW020 32/20 Q1010 A2983 HR49 NOSIG=@CAELT@METAR SLAS 101800Z 36010KT 9999 SCT020 31/24 Q1013 A2992 HR65 RWY HUM@CAELT@OPR=@CAELT@METAR SLJV 101800Z 03005KT 9999 NSC 31/21 Q1010 A2983 HR57 RWY NML=METAR SLCP 101800Z 00000KT 9999 SCT020 29/21 Q1014 A2994 HR61 RWY NMLMETAR SLSI 101800Z 36006KT 9999 SCT017 32/22 Q1010 A2983 HR55 RWY NMLMETAR SLTI 101800Z 00000KT 9999 FEW020 35/21 Q1012 A2988 HR45 RWY NMLMETAR SLJE 101800Z 00000KT 9999 FEW020 34/22 Q1013 A2991 HR51 RWY NMLMETAR SLVG 101800Z 36007KT 9999 SCT027 25/10 Q1023 A3021 HR36 RWY NMLMETAR SLRB 101800Z 00000KT 9999 FEW020 34/23 Q1011 A2985 HR52 RWY NMLMETAR SLPS 101800Z 36004KT 9999 FEW020 35/25 Q1008 A2977 HR57=METAR SLCA 101800Z 36004KT 9999 SCT036 34/12 Q1012 A2988 HR27 RWY NML
ZPX0619 101757@CAELT@GG SLZZYMYT@CAELT@101756 SLLPYGYZ@CAELT@SABO SLLP 101800@CAELT@METAR SLLP 101800Z 13011KT 090V160 9999 SCT020 FEW023CB BKN200 15/M01@CAELT@Q1035 A3057 626.0 HR34 P3387 CB/SH N/NE/E/W/NW AC NOSIG=@CAELT@
ZPX0620 101758@CAELT@GG SLZZYMYT@CAELT@101756 SLTRYGYZ@CAELT@SABO SLTR 101800@CAELT@METAR SLTR 101800Z 31003KT 8000 -RA SCT006 BKN070 25/24 Q1011 A2986@CAELT@992.6 HR93 TEMPO BKN006=@CAELT@
ZPX0622 101758@CAELT@GG SLZZYMYT@CAELT@101757 SLCBYGYZ@CAELT@SABO SLCB 101800@CAELT@METAR SLCB 101800Z 24007KT 150V300 9999 SCT040 26/04 Q1022 A3020 749.@CAELT@6 HR23 FU CI NOSIG=@CAELT@
ZPX0625 101800@CAELT@GG SLZZYMYT@CAELT@101800 SLTRYGYS@CAELT@SABO SLTR 101800@CAELT@METAR SLTR 101800Z 31003KT 8000 -RA SCT006 BKN070 25/24 Q1011 A2986@CAELT@992.6 HR93 TEMPO BKN006=@CAELT@METAR SLGM 101800Z 36012KT 5000 VCSH BKN006 FEW020CB OVC070 25/24@CAELT@Q1012 A2988 HR97 RERA CB/SH N/NE/S/SW=@CAELT@METAR SLRI 101800Z 03005KT 5000 -RA SCT004 BKN015 FEW020CB OVC07024/24 Q1013 A2992 HR97 CB N/NE/S/SW=METAR SLJO 101800Z NIL=METAR SLRA 101800Z 35006KT 9999 FEW015 SCT080 BKN200 29/22 Q1011A2986 HR68 RWY HUM OPR=METAR SLMG 101800Z 32004KT 9999 SCT015 BKN080 27/23 Q1010 A2985HR78 RWY HUM OPR=METAR SLBU 101800Z 03004KT 8000 VCSH BKN015 OVC070 25/24 Q1009A2980 HR98 RESHRA SH SW RWY HUM OPR=METAR SLSA 101800Z 31008KT 9999 SCT017 BKN080 28/23 Q1010 A2984HR72=METAR SLSR 101800Z 12004KT 9999 SCT015 BKN080 28/23 Q1010 A2984HR74 RWY NML=METAR SLSM 101800Z 00000KT 9999 -RA SCT017 BKN070 27/24 Q1011A2987 HR82 RWY WET INOP=
ZPX0626 101800@CAELT@GG SLZZYMYT@CAELT@101800 SLLPYFYA@CAELT@SABO SLLP 101800@CAELT@METAR SLLP 101800Z 13011KT 090V160 9999 SCT020 FEW023CB BKN200@CAELT@15/M01 Q1035 A3057 626.0 HR34 P3387 CB/SH N/NE/E/W/NW AC NOSIG=@CAELT@METAR SLCO 101800Z 18006KT 9999 SCT006 OVC080 24/22 Q1011 A2987@CAELT@984.1 HR89 REDZ=@CAELT@METAR SLRY 101800Z 00000KT 9999 FEW016 32/23 Q1010 A2985HR58 RWY NML=METAR SLRQ 101800Z 30005KT 9999 FEW020SCT200 31/23 Q1010 A2984986.3 HR64 AC=METAR SLSB 101800Z 36004KT 8000 VCSH SCT020 FEW030CB BKN080 30/22Q1010 A2984 HR62 CB SH W RWY NML=METAR SLAP 101800Z 00000KT 9999 FEW025 BKN070 24/15 Q1017 A3005858.4 HR55=METAR SLOR 101800Z 03010KT 9999 SCT023 FEW025 19/04 Q1032 A3049654.1 HR36 CB/SH S AC/CI=
ZPX0627 101800@CAELT@GG SLZZYMYT@CAELT@101759 SLCBYGYS@CAELT@SABO SLCB 101800@CAELT@METAR SLCB 101800Z 24007KT 150V300 9999 SCT040 26/04 Q1022 A3020@CAELT@749.6 HR23 FU CI NOSIG=@CAELT@METAR SLAL 101800Z 03010KT 9999 BKN023 18/03 Q1029 A3049 703.7 HR39=@CAELT@METAR SLPO 101800Z NIL=@CAELT@METAR SLAG 101800Z 02003KT 9999 FEW020 32/13 Q1013 A2992 885.8 HR31=METAR SLVM 101800Z 36012G25KT 9999 FEW030 37/20 Q1006 A2972 HR36=METAR SLTJ 101800Z 13008KT 9999 FEW030 29/06 Q1016 A3001 811.8 HR24=METAR SLYA 101800Z 06010KT 9999 NSC 37/21 Q1008 A2977 933.0 HR40=METAR SLBJ 101800Z NIL=METAR SLHI 101800Z NIL=
ZPX0644 101849@CAELT@GG SLZZYMYT@CAELT@101850 SLRBYGYS@CAELT@SABO SLRB 101900@CAELT@METAR SLRB 101900Z 00000KT 9999 FEW020 34/22 Q1010 A2983 HR50 RWY NML=@CAELT@
ZPX0645 101851@CAELT@GG SLZZYMYT@CAELT@101852 SLLPYFYA@CAELT@SABO SLRY 101900@CAELT@METAR SLRY 101900Z 00000KT 9999 FEW016 32/22 Q1009 A2982@CAELT@HR55 RWY NML=@CAELT@
ZPX0649 101853@CAELT@GG SLZZYMYT@CAELT@101852 SLETYMYC@CAELT@SABO SLET 101900@CAELT@METAR SLET 101900Z 31010KT 9999 FEW020 33/21 Q1009 A2980 HR50 NOSIG=@CAELT@
ZPX0650 101855@CAELT@GG SLZZYMYT@CAELT@101855 SLCOYGYZ@CAELT@SABO SLCO 101900@CAELT@METAR SLCO 101900Z 18003KT 9999 SCT006 OVC080 24/22 Q1010 A2984 983.0@CAELT@HR90=@CAELT@
ZPX0651 101855@CAELT@GG SLZZYMYT@CAELT@101855 SLSBYSYX@CAELT@SABO SLSB 101900@CAELT@METAR SLSB 101900Z 00000KT 9999 SCT020 SCT080 31/23 Q1009 A2980 HR62@CAELT@RWY NML=@CAELT@
ZPX0652 101855@CAELT@GG SLZZYMYT@CAELT@101855 SLVRYGYZ@CAELT@SABO SLVR 101900@CAELT@METAR SLVR 101900Z 35011KT 9999 FEW020 33/21 Q1009 A2982 HR49 NOSIG=@CAELT@
ZPX0653 101855@CAELT@GG SLZZYMYT@CAELT@101855 SLLPYGYZ@CAELT@SABO SLLP 101900@CAELT@METAR SLLP 101900Z 12007KT 040V190 9999 FEW020 FEW023CB BKN200 17/M00@CAELT@Q1033 A3053 625.2 HR32 P4357 CB/SH E/SE/S/NW AC NOSIG=@CAELT@
ZPX0654 101855@CAELT@GG SLZZYMYT@CAELT@101855 SLRQYSYX@CAELT@SABO SLRQ 101900@CAELT@METAR SLRQ 101900Z 30005KT 9999 FEW020 SCT200 31/23 Q1009 A2980 985.0@CAELT@HR61 AC=@CAELT@
ZPX0655 101856@CAELT@GG SLZZYMYT@CAELT@101854 SLSAYGYS@CAELT@SABO SLSA 101900@CAELT@METAR SLSA 101900Z 31008KT 9999 SCT017 FEW023CB SCT080 BKN200 28/22@CAELT@Q1009 A2982 HR71 CB SE=@CAELT@
ZPX0656 101856@CAELT@GG SLZZYMYT@CAELT@101855 SLTJYGYZ@CAELT@SABO SLTJ 101900@CAELT@METAR SLTJ 101900Z 18004KT 9999 FEW030 30/06 Q1015 A2998 810.9 HR23=@CAELT@
ZPX0657 101857@CAELT@GG SLZZYMYT@CAELT@101856 SLAGYSYX@CAELT@SABO SLAG 101900@CAELT@METAR SLAG 101900Z 06004KT 9999 FEW023 32/11 Q1011 A2988 884.5 HR27=@CAELT@
ZPX0658 101857@CAELT@GG SLZZYMYT@CAELT@101856 SLCBYGYZ@CAELT@SABO SLCB 101900@CAELT@METAR SLCB 101900Z 28006KT 9999 FEW040 27/03 Q1021 A3015 748.3 HR21@CAELT@FU NOSIG=@CAELT@
ZPX0659 101857@CAELT@GG SLZZYMYT@CAELT@101856 SLTRYGYZ@CAELT@SABO SLTR 101900@CAELT@METAR SLTR 101900Z 33005KT 9999 SCT006 BKN015 27/24 Q1009 A2981@CAELT@991.1 HR86 AC NOSIG=@CAELT@
ZPX0660 101857@CAELT@GG SLZZYMYT@CAELT@101854 SLPSYGYS@CAELT@SABO SLPS 101900@CAELT@METAR SLPS 101900Z 00000KT 9999 FEW020 36/25 Q1007 A2974 HR54=@CAELT@
ZPX0661 101858@CAELT@GG SLZZYMYT@CAELT@101857 SLTRYGYZ@CAELT@SABO SLTR 101900 CCA@CAELT@METAR COR SLTR 101900Z 33005KT 9999 SCT006 BKN015 27/24 Q1009 A2981@CAELT@991.1 HR86 RERA AC NOSIG=@CAELT@
ZPX0662 101858@CAELT@GG SLZZYMYT@CAELT@101858 SLTRYGYS@CAELT@SABO SLTR 101900@CAELT@METAR SLTR 101900Z 33005KT 9999 SCT006 BKN015 27/24 Q1009 A2981@CAELT@991.1 HR86 AC NOSIG=@CAELT@METAR SLGM 101900Z 35015KT 5000 VCSH BKN006 FEW020CB OVC070 25/24@CAELT@Q1011 A2986 HR96 CB/SH N/NE/S/SW=@CAELT@METAR SLRI 101900Z 01007KT 5000 -RA BKN005 FEW020CB OVC070 24/24Q1012 A2989 HR97 CB NE/S=METAR SLJO 101900Z NIL=METAR SLRA 101900Z 34008KT 9999 SCT015 SCT080 BKN200 29/22 Q1010A2984 HR66 RWY HUM OPR=METAR SLMG 101900Z 32004KT 9999 SCT017 BKN080 27/24 Q1009 A2982HR77 RWY HUM OPR=METAR SLBU 101900Z 00000KT 9999 BKN015 BKN070 26/24 Q1008 A2978HR93 RWY HUM OPR=METAR SLSA 101900Z 31008KT 9999 SCT017 FEW023CB SCT080 BKN200 28/22Q1009 A2982 HR71 CB SE=METAR SLSR 101900Z 00000KT 9999 SCT015 BKN080 29/22 Q1008 A2978HR67 RWY NML=METAR SLSM 101900Z 00000KT 9999 SCT017 BKN070 28/24 Q1009 A2982HR77 RERA RWY WET INOP=
ZPX0664 101859@CAELT@GG SLZZYMYT@CAELT@101859 SLTRYGYS@CAELT@SABO SLTR 101900 CCA@CAELT@METAR COR SLTR 101900Z 33005KT 9999 SCT006 BKN015 27/24 Q1009 A2981@CAELT@991.1 HR86 RERA AC NOSIG=@CAELT@METAR SLGM 101900Z 35015KT 5000 VCSH BKN006 FEW020CB OVC070 25/24@CAELT@Q1011 A2986 HR96 CB/SH N/NE/S/SW=@CAELT@METAR SLRI 101900Z 01007KT 5000 -RA BKN005 FEW020CB OVC070 24/24Q1012 A2989 HR97 CB NE/S=METAR SLJO 101900Z NIL=METAR SLRA 101900Z 34008KT 9999 SCT015 SCT080 BKN200 29/22 Q1010A2984 HR66 RWY HUM OPR=METAR SLMG 101900Z 32004KT 9999 SCT017 BKN080 27/24 Q1009 A2982HR77 RWY HUM OPR=METAR SLBU 101900Z 00000KT 9999 BKN015 BKN070 26/24 Q1008 A2978HR93 RWY HUM OPR=METAR SLSA 101900Z 31008KT 9999 SCT017 FEW023CB SCT080 BKN200 28/22Q1009 A2982 HR71 CB SE=METAR SLSR 101900Z 00000KT 9999 SCT015 BKN080 29/22 Q1008 A2978HR67 RWY NML=METAR SLSM 101900Z 00000KT 9999 SCT017 BKN070 28/24 Q1009 A2982HR77 RERA RWY WET INOP=
ZPX0666 101901@CAELT@GG SLZZYMYT@CAELT@101901 SLVRYFYC@CAELT@SABO SLVR 101900@CAELT@METAR SLVR 101900Z 35011KT 9999 FEW020 33/21 Q1009 A2982 HR49 NOSIG=@CAELT@METAR SLET 101900Z 31010KT 9999 FEW020 33/21 Q1009 A29.80 HR50 NOSIG=@CAELT@METAR SLAS 101900Z 36012KT 9999 SCT020 30/24 Q1012 A2989 HR71 RWY NML@CAELT@METAR SLJV 101900Z 03005KT 9999 SCT020 31/23 Q1009 A2980 HR62 RWY NML@CAELT@METAR SLCP 101900Z 00000KT 9999 SCT020 30/20 Q1013 A2991 HR59 RWY NMLMETAR SLSI 101900Z 33005KT 9999 SCT017 32/21 Q1010 A2983 HR53 RWY NMLMETAR SLTI 101900Z 00000KT 9999 FEW020 35/22 Q1011 A2985 HR45 RWY NMLMETAR SLJE 101900Z 00000KT 9999 FEW020 35/22 Q1011 A2985 HR48 RWY NMLMETAR SLVG 101900Z 35005KT 9999 SCT027 25/09 Q1021 A3015 HR30 RWY NMLMETAR SLRB 101900Z 00000KT 9999 FEW020 34/22 Q1010 A2983 HR50 RWY NMLMETAR SLPS 101900Z 00000KT 9999 FEW020 36/25 Q1007 A2974 HR54=METAR SLCA 101900Z NIL=
ZPX0667 101901@CAELT@GG SLZZYMYT@CAELT@101901 SLLPYFYA@CAELT@SABO SLLP 101900@CAELT@METAR SLLP 101900Z 12007KT 040V190 9999 FEW020 FEW023CB BKN200@CAELT@17/M00 Q1033 A3053 625.2 HR32 P4357 CB/SH E/SE/S/NW AC NOSIG=@CAELT@METAR SLCO 101900Z 18003KT 9999 SCT006 OVC080 24/22 Q1010 A2984@CAELT@983.0 HR90=@CAELT@METAR SLRY 101900Z 00000KT 9999 FEW016 32/22 Q1009 A2982HR55 RWY NML=METAR SLRQ 101900Z 30005KT 9999 FEW020 SCT200 31/23 Q1009 A2980985.0 HR61 AC=METAR SLSB 101900Z 00000KT 9999 SCT020 SCT080 31/23 Q1009 A2980HR62 RWY NML=
ZPX0668 101901@CAELT@GG SLZZYMYT@CAELT@101900 SLCBYGYS@CAELT@SABO SLCB 101900@CAELT@METAR SLCB 101900Z 28006KT 9999 FEW040 27/03 Q1021 A3015 748.3 HR21@CAELT@FU NOSIG=@CAELT@METAR SLAL 102000Z 04014KT 9999 SCT023 20/04 Q1026 A3032 702.0 HR36=@CAELT@METAR SLPO 102000Z NIL=@CAELT@METAR SLAG 101900Z 06004KT 9999 FEW023 32/11 Q1011 A2988 884.5 HR27=METAR SLVM 101900Z 36015G25KT 9999 FEW030 38/19 Q1004 A2968 HR34=METAR SLTJ 101900Z 18004KT 9999 FEW030 30/06 Q1015 A2998 810.9 HR23=METAR SLYA 101900Z NIL=METAR SLBJ 101900Z NIL=METAR SLHI 101900Z NIL=
ZPX0670 101903@CAELT@GG SLZZYMYT@CAELT@101902 SLCAYGYS@CAELT@SABO SLCA 101900 RRA@CAELT@METAR RTD SLCA 101900Z 36004KT 9999 SCT036 34/12 Q1010 A2983 HR26 RWY@CAELT@NML=@CAELT@
ZPX0697 101949@CAELT@GG SLZZYMYT@CAELT@101950 SLRBYGYS@CAELT@SABO SLRB 102000@CAELT@METAR SLRB 102000Z 00000KT 9999 FEW020 35/22 Q1009 A2980 HR49 RWY NML=@CAELT@
ZPX0698 101951@CAELT@GG SLZZYMYT@CAELT@101952 SLLPYFYA@CAELT@SABO SLRY 102000@CAELT@METAR SLRY 102000Z 00000KT 9999 FEW017 32/22 Q1008 A2979@CAELT@HR55 RWY NML=@CAELT@
ZPX0700 101952@CAELT@GG SLZZYMYT@CAELT@101950 SLPSYGYS@CAELT@SABO SLPS 102000@CAELT@METAR SLPS 102000Z 00000KT 9999 FEW020 36/25 Q1006 A2971 HR61=@CAELT@
ZPX0701 101954@CAELT@GG SLZZYMYT@CAELT@101955 SLCOYGYZ@CAELT@SABO SLCO 102000@CAELT@METAR SLCO 102000Z 21005KT 9999 BKN006 OVC080 24/23 Q1010 A2983 982.8@CAELT@HR93=@CAELT@
ZPX0702 101954@CAELT@GG SLZZYMYT@CAELT@101955 SLRQYSYX@CAELT@SABO SLRQ 102000@CAELT@METAR SLRQ 102000Z 04005KT 9999 FEW020 SCT200 31/24 Q1008 A2977 984.2@CAELT@HR65 AC=@CAELT@
ZPX0703 101955@CAELT@GG SLZZYMYT@CAELT@101955 SLSBYSYX@CAELT@SABO SLSB 102000@CAELT@METAR SLSB 102000Z 00000KT 9999 SCT020 32/S22 Q1008 A2977 HR58 RWY@CAELT@NML=@CAELT@
ZPX0704 101955@CAELT@GG SLZZYMYT@CAELT@101951 SLETYMYC@CAELT@SABO SLET 102000@CAELT@METAR SLET 102000Z 32013KT 9999 FEW020 32/21 Q1008 A2977 HR53 NOSIG=@CAELT@
ZPX0705 101955@CAELT@GG SLZZYMYT@CAELT@101955 SLTJYGYZ@CAELT@SABO SLTJ 102000@CAELT@METAR SLTJ 102000Z 09005KT 9999 FEW030 29/03 Q1014 A2994 809.9 HR19=@CAELT@
ZPX0706 101956@CAELT@GG SLZZYMYT@CAELT@101954 SLSAYGYS@CAELT@SABO SLSA 102000@CAELT@METAR SLSA 102000Z 32008KT 9999 SCT017 FEW023CB BKN080 BKN200 28/22@CAELT@Q1008 A2979 HR69 CB SE=@CAELT@
ZPX0707 101956@CAELT@GG SLZZYMYT@CAELT@101955 SLLPYGYZ@CAELT@SABO SLLP 102000@CAELT@METAR SLLP 102000Z 12020KT 9999 VCTS FEW020 FEW023CB SCT070 BKN200 11@CAELT@/04 Q1033 A3051 624.8 HR61 P94// CB/SH SW/W/NW TS SW/NW NOSIG=@CAELT@
ZPX0708 101956@CAELT@GG SLZZYMYT@CAELT@101956 SLTRYGYZ@CAELT@SABO SLTR 102000@CAELT@METAR SLTR 102000Z 32008KT 9999 SCT006 BKN015 26/24 Q1009 A2980@CAELT@990.6 HR88 CI NOSIG=@CAELT@
ZPX0709 101957@CAELT@GG SLZZYMYT@CAELT@101957 SLVRYGYZ@CAELT@SABO SLVR 102000@CAELT@METAR SLVR 102000Z 34010KT 9999 FEW020 33/20 Q1009 A2980 HR49 NOSIG=@CAELT@
ZPX0710 101958@CAELT@GG SLZZYMYT@CAELT@101958 SLTRYGYS@CAELT@SABO SLTR 102000@CAELT@METAR SLTR 102000Z 32008KT 9999 SCT006 BKN015 26/24 Q1009 A2980@CAELT@990.6 HR88 CI NOSIG=@CAELT@METAR SLGM 102000Z 32010KT 7000 VCSH BKN006 FEW020CB OVC070 24/23@CAELT@Q1009 A2982 HR96 CB/SH N/NE/SW/W=@CAELT@METAR SLRI 102000Z 01008KT 6000 -RA BKN005 FEW020CB OVC070 24/23Q1010 A2984 HR95 CB/N=METAR SLJO 102000Z NIL=METAR SLRA 102000Z 33008KT 9999 SCT015 SCT080 29/23 Q1009 A2981HR71 CI RWY NML=METAR SLMG 102000Z 31006KT 8000 VCSH SCT017 FEW023CB BKN080 28/23Q1009 A2980 HR74 CB E/SE/S SH SE/S RWY HUM OPR=METAR SLBU 102000Z 00000KT 9999 BKN015 BKN070 25/24 Q1008 A2977HR94 RWY HUM OPR=METAR SLSA 102000Z 32008KT 9999 SCT017 FEW023CB BKN080 BKN200 28/22Q1008 A2979 HR69 CB SE=METAR SLSR 102000Z 00000KT 9999 SCT015 SCT080 BKN200 30/23 Q1007A2976 HR64 RWY NML=METAR SLSM 102000Z 31004KT 9999 SCT017 SCT080 29/25 Q1008 A2979HR75 RWY WET OPR C210=
ZPX0711 101958@CAELT@GG SLZZYMYT@CAELT@101958 SLCBYGYZ@CAELT@SABO SLCB 102000@CAELT@METAR SLCB 102000Z 30004KT 9999 FEW040 25/02 Q1019 A3011 747.3 HR21@CAELT@FU CI NOSIG=@CAELT@
ZPX0713 101959@CAELT@GG SLZZYMYT@CAELT@101959 SLCBYGYS@CAELT@SABO SLCB 102000@CAELT@METAR SLCB 102000Z 30004KT 9999 FEW040 25/02 Q1019 A3011 747.3 HR21@CAELT@FU CI NOSIG=@CAELT@METAR SLAL 102000Z 04013KT 9999 SCT023 20/04 Q1026 A3029 701.5 HR35=@CAELT@METAR SLPO 102000Z NIL=@CAELT@METAR SLAG 102000Z NIL=METAR SLVM 102000Z NIL=METAR SLTJ 102000Z 09005KT 9999 FEW030 29/03 Q1014 A2994 809.9 HR19=METAR SLYA 102000Z NIL=METAR SLBJ 102000Z NIL=METAR SLHI 102000Z NIL=
ZPX0715 102001@CAELT@GG SLZZYMYT@CAELT@102001 SLLPYFYA@CAELT@SABO SLLP 102000@CAELT@METAR SLLP 102000Z 12020KT 9999 VCTS FEW020 FEW023CB SCT070 BKN200@CAELT@11/04 Q1033 A3051 624.8 HR61 P94// CB/SH SW/W/NW TS SW/NW NOSIG=@CAELT@METAR SLCO 102000Z 21005KT 9999 BKN006 OVC080 24/23 Q1010 A2983@CAELT@982.8 HR93=@CAELT@METAR SLRY 102000Z 00000KT 9999 FEW017 32/22 Q1008 A2979HR55 RWY NML=METAR SLRQ 102000Z 04005KT 9999 FEW020 SCT200 31/24 Q1008 A2977984.2 HR65 AC=METAR SLSB 102000Z 00000KT 9999 SCT020 32/S22 Q1008 A2977 HR58RWY NML=
ZPX0717 102002@CAELT@GG SLZZYMYT@CAELT@102002 SLVRYFYC@CAELT@SABO SLVR 102000@CAELT@METAR SLVR 102000Z 34010KT 9999 FEW020 33/20 Q1009 A2980 HR49 NOSIG=@CAELT@METAR SLET 102000Z 32013KT 9999 FEW020 32/21 Q1008 A2977 HR53 NOSIG=@CAELT@METAR SLAS 102000Z 36006KT 9999 FEW020 31/24 Q1010 A2983 HR67 RWY NML@CAELT@METAR SLJV 102000Z 03005KT 9999 SCT020 31/22 Q1008 A2977 HR61 RWY NML@CAELT@METAR SLCP 102000Z 00000KT 9999 SCT020 29/21 Q1011 A2985 HR62 RWY NMLMETAR SLSI 102000Z 33005KT 9999 SCT017 31/21 Q1008 A2977 HR55 RWY NMLMETAR SLTI 102000Z 00000KT 9999 SCT020 FEW030CB 36/21 Q1010 A2983HR43 CB/NW RWY NML=METAR SLJE 102000Z 00000KT 9999 FEW020 34/21 Q1011 A2985 HR47 RWY NMLMETAR SLVG 102000Z 36005KT 9999 SCT027 24/09 Q1021 A3015 HR34 RWY NMLMETAR SLRB 102000Z 00000KT 9999 FEW020 35/22 Q1009 A2980 HR49 RWY NMLMETAR SLPS 102000Z 00000KT 9999 FEW020 36/25 Q1006 A2971 HR61=METAR SLCA 102000Z 36006KT 9999 SCT036 34/11 Q1009 A2980 HR26 RWY NML
ZPX0745 102052@CAELT@GG SLZZYMYT@CAELT@102050 SLPSYGYS@CAELT@SABO SLPS 102100@CAELT@METAR SLPS 102100Z 00000KT 9999 FEW020 35/24 Q1006 A2971 HR55=@CAELT@
ZPX0746 102054@CAELT@GG SLZZYMYT@CAELT@102055 SLRBYGYS@CAELT@SABO SLRB 102100@CAELT@METAR SLRB 102100Z 00000KT 9999 NSC 35/22 Q1009 A2980 HR49 RWY NML=@CAELT@
ZPX0747 102054@CAELT@GG SLZZYMYT@CAELT@102055 SLSBYSYX@CAELT@SABO SLSB 102100@CAELT@METAR SLSB 102100Z 33003KT 9999 FEW020 SCT080 32/22 Q1007 A2975 HR58@CAELT@RWY NML=@CAELT@
ZPX0748 102055@CAELT@GG SLZZYMYT@CAELT@102054 SLSAYGYS@CAELT@SABO SLSA 102100@CAELT@METAR SLSA 102100Z 33006KT 9999 SCT017 FEW023CB SCT080 BKN200 28/23@CAELT@Q1008 A2978 HR72 CB S=@CAELT@
ZPX0749 102055@CAELT@GG SLZZYMYT@CAELT@101958 SLETYMYC@CAELT@SABO SLET 102100@CAELT@METAR SLET 102100Z 31010KT 9999 FEW020 31/21 Q1007 A2976 HR56 NOSIG=@CAELT@
ZPX0750 102055@CAELT@GG SLZZYMYT@CAELT@102055 SLCOYGYZ@CAELT@SABO SLCO 102100@CAELT@METAR SLCO 102100Z 20003KT 9999 BKN006 OVC080 23/23 Q1009 A2981 982.1@CAELT@HR95=@CAELT@
ZPX0751 102055@CAELT@GG SLZZYMYT@CAELT@102055 SLCAYGYS@CAELT@SABO SLCA 102100@CAELT@METAR SLCA 102100Z 36004KT 9999 FEW036 34/11 Q1009 A2980 HR26 RWY NML@CAELT@
ZPX0753 102056@CAELT@GG SLZZYMYT@CAELT@102055 SLRQYSYX@CAELT@SABO SLRQ 102100@CAELT@METAR SLRQ 102100Z 08005KT 9999 FEW020 SCT080 BKN200 31/24 Q1007@CAELT@A2975 983.4 HR64=@CAELT@
ZPX0755 102057@CAELT@GG SLZZYMYT@CAELT@102056 SLCBYGYZ@CAELT@SABO SLCB 102100@CAELT@METAR SLCB 102100Z 31007KT 9999 FEW040 SCT200 27/02 Q1019 A3010 746.9@CAELT@HR21 FU AC NOSIG=@CAELT@
ZPX0756 102057@CAELT@GG SLZZYMYT@CAELT@102058 SLVRYGYZ@CAELT@SABO SLVR 102100@CAELT@METAR SLVR 102100Z 33011KT 9999 FEW020 32/20 Q1008 A2977 HR51 NOSIG=@CAELT@
ZPX0757 102057@CAELT@GG SLZZYMYT@CAELT@102056 SLTRYGYZ@CAELT@SABO SLTR 102100@CAELT@METAR SLTR 102100Z 33005KT 9999 FEW006 SCT080 BKN200 26/24 Q1008@CAELT@A2978 990.1 HR86 NOSIG=@CAELT@
ZPX0758 102057@CAELT@GG SLZZYMYT@CAELT@102056 SLTRYGYZ@CAELT@SABO SLTR 102100@CAELT@METAR SLTR 102100Z 33005KT 9999 FEW006 SCT080 BKN200 26/24 Q1008@CAELT@A2978 990.1 HR86 NOSIG=@CAELT@
ZPX0759 102058@CAELT@GG SLZZYMYT@CAELT@102058 SLLPYGYZ@CAELT@SABO SLLP 102100@CAELT@METAR SLLP 102100Z 06004KT 360V100 9999 FEW020 FEW023CB BKN200 12/03@CAELT@Q1034 A3054 625.4 HR56 P93// CB/SH NW RETS AC NOSIG=@CAELT@
ZPX0760 102058@CAELT@GG SLZZYMYT@CAELT@102058 SLTRYGYS@CAELT@SABO SLTR 102100@CAELT@METAR SLTR 102100Z 33005KT 9999 FEW006 SCT080 BKN200 26/24 Q1008@CAELT@A2978 990.1 HR86 NOSIG=@CAELT@METAR SLGM 102100Z 36008KT 8000 VCSH BKN006 FEW020CB OVC070 24/23@CAELT@Q1008 A2978 HR96 CB/SH N/NE/SW/W=@CAELT@METAR SLRI 102100Z 02008KT 9999 BKN005 BKN070 24/23 Q1008 A2978 HR94METAR SLJO 102100Z NIL=METAR SLRA 102100Z 36007KT 9999 FEW015 BKN080 29/22 Q1009 A2980HR66 CI RWY NML=METAR SLMG 102100Z 32004KT 8000 VCSH FEW017 FEW023CB BKN080 28/22Q1008 A2979 HR74 CB N/NE/SE SH SE RWY HUM OPR=METAR SLBU 102100Z NIL=METAR SLSA 102100Z 33006KT 9999 SCT017 FEW023CB SCT080 BKN200 28/23Q1008 A2978 HR72 CB S=METAR SLSR 102100Z 00000KT 9999 FEW015 BKN080 30/23 Q1007 A2974HR64 RWY NML=METAR SLSM 102100Z 31003KT 9999 FEW017 BKN080 28/24 Q1008 A2977HR76 RWY HUM OPR=
ZPX0761 102059@CAELT@GG SLZZYMYT@CAELT@102058 SLTJYGYZ@CAELT@SABO SLTJ 102100@CAELT@METAR SLTJ 102100Z 07006KT 9999 FEW033 28/05 Q1013 A2993 809.6 HR24=@CAELT@
ZPX0764 102100@CAELT@GG SLZZYMYT@CAELT@102059 SLCBYGYS@CAELT@SABO SLCB 102100@CAELT@METAR SLCB 102100Z 31007KT 9999 FEW040 SCT200 27/02 Q1019 A3010@CAELT@746.9 HR21 FU AC NOSIG=@CAELT@METAR SLAL 102100Z 05014KT 9999 SCT023 19/05 Q1025 A3028 701.3 HR41=@CAELT@METAR SLPO 102100Z NIL=@CAELT@METAR SLAG 102100Z NIL=METAR SLVM 102100Z NIL=METAR SLTJ 102100Z 07006KT 9999 FEW033 28/05 Q1013 A2993 809.6 HR24=METAR SLYA 102100Z NIL=METAR SLBJ 102100Z NIL=METAR SLHI 102100Z NIL=
ZPX0765 102100@CAELT@GG SLZZYMYT@CAELT@102055 SLLPYFYA@CAELT@SABO SLRY 102100@CAELT@METAR SLRY 102100Z 00000KT 9999 FEW017 BKN080 31/23 Q1008 A2977@CAELT@HR62 RWY NML=@CAELT@
ZPX0767 102101@CAELT@GG SLZZYMYT@CAELT@102101 SLVRYFYC@CAELT@SABO SLVR 102100@CAELT@METAR SLVR 102100Z 33011KT 9999 FEW020 32/20 Q1008 A2977 HR51 NOSIG=@CAELT@METAR SLET 102100Z 31010KT 9999 FEW020 31/21 Q1007 A2976 HR56 NOSIG=@CAELT@METAR SLAS 102100Z 00000KT 9999 NSC 31/23 Q1009 A2980 HR64 RWY NML=@CAELT@METAR SLJV 102100Z 03005KT 9999 SCT020 31/22 Q1008 A2977 HR63 RWY NML@CAELT@METAR SLCP 102100Z 00000KT 9999 SCT020 30/22 Q1011 A2985 HR64 RWY NMLMETAR SLSI 102100Z 00000KT 9999 NSC 30/22 Q1008 A2977 HR59 RWY NML=METAR SLTI 102100Z 34013KT 9999 SCT020 FEW030CB 31/22 Q1010 A2983HR58 CB/W/NW RWY NML=METAR SLJE 102100Z 00000KT 9999 NSC 34/21 Q1010 A2983 HR47 RWY NML=METAR SLVG 102100Z 36007KT 9999 SCT027 FEW030CB 23/12 Q1021 A3015HR45 CB/NW RWY NML=METAR SLRB 102100Z 00000KT 9999 NSC 35/22 Q1009 A2980 HR49 RWY NML=METAR SLPS 102100Z 00000KT 9999 FEW020 35/24 Q1006 A2971 HR55=METAR SLCA 102100Z 36004KT 9999 FEW036 34/11 Q1009 A2980 HR26 RWY NML
ZPX0768 102102@CAELT@GG SLZZYMYT@CAELT@102101 SLLPYFYA@CAELT@SABO SLLP 102100@CAELT@METAR SLLP 102100Z 06004KT 360V100 9999 FEW020 FEW023CB BKN200@CAELT@12/03 Q1034 A3054 625.4 HR56 P93// CB/SH NW RETS AC NOSIG=@CAELT@METAR SLCO 102100Z 20003KT 9999 BKN006 OVC080 23/23 Q1009 A2981@CAELT@982.1 HR95=@CAELT@METAR SLRY 102100Z 00000KT 9999 FEW017 BKN080 31/23 Q1008 A2977HR62 RWY NML=METAR SLRQ 102100Z 08005KT 9999 FEW020 SCT080 BKN200 31/24 Q1007A2975 983.4 HR64=METAR SLSB 102100Z 33003KT 9999 FEW020 SCT080 32/22 Q1007 A2975HR58 RWY NML=
ZPX0787 102152@CAELT@GG SLZZYMYT@CAELT@102152 SLETYMYC@CAELT@SABO SLET 102200@CAELT@METAR SLET 102200Z 32008KT 9999 FEW020 30/20 Q1007 A2974 HR55 NOSIG=@CAELT@
ZPX0788 102154@CAELT@GG SLZZYMYT@CAELT@102154 SLCAYGYS@CAELT@SABO SLCA 102200@CAELT@METAR SLCA 102200Z 00000KT 9999 FEW036 33/10 Q1008 A2977 HR25 RWY NML@CAELT@
ZPX0789 102154@CAELT@GG SLZZYMYT@CAELT@102154 SLPSYGYS@CAELT@SABO SLPS 102200@CAELT@METAR SLPS 102200Z 00000KT 9999 FEW020 34/25 Q1006 A2971 HR59=@CAELT@
ZPX0791 102155@CAELT@GG SLZZYMYT@CAELT@102155 SLRBYGYS@CAELT@SABO SLRB 102200@CAELT@METAR SLRB 102200Z 00000KT 9999 NSC 33/22 Q1009 A2980 HR54 RWY NML=@CAELT@
ZPX0792 102155@CAELT@GG SLZZYMYT@CAELT@102155 SLSBYSYX@CAELT@SABO SLSB 102200@CAELT@METAR SLSB 102200Z 00000KT 9999 SCT080 30/23 Q1007 A2974 HR67 RWY NML=@CAELT@
ZPX0793 102155@CAELT@GG SLZZYMYT@CAELT@102155 SLCOYGYZ@CAELT@SABO SLCO 102200@CAELT@METAR SLCO 102200Z 31003KT 9999 BKN006 OVC080 23/23 Q1009 A2981 982.0@CAELT@HR95=@CAELT@
ZPX0794 102155@CAELT@GG SLZZYMYT@CAELT@102156 SLVRYGYZ@CAELT@SABO SLVR 102200@CAELT@METAR SLVR 102200Z 33008KT 9999 FEW020 30/20 Q1007 A2976 HR54 NOSIG=@CAELT@
ZPX0795 102156@CAELT@GG SLZZYMYT@CAELT@102155 SLSAYGYS@CAELT@SABO SLSA 102200@CAELT@METAR SLSA 102200Z 34005KT 9999 FEW017 SCT080 BKN200 28/23 Q1008@CAELT@A2977 HR74=@CAELT@
ZPX0797 102156@CAELT@GG SLZZYMYT@CAELT@102156 SLVRYFYC@CAELT@SABO SLVR 102200@CAELT@METAR SLVR 102200Z 33008KT 9999 FEW020 30/20 Q1007 A2976 HR54 NOSIG=@CAELT@METAR SLET 102200Z 32008KT 9999 FEW020 30/20 Q1007 A2974 HR55 NOSIG=@CAELT@METAR SLAS 102200Z 00000KT 9999 NSC 29/24 Q1009 A2980 HR73 RWY NML=@CAELT@METAR SLJV 102200Z 36005KT 9999 NSC 29/22 Q1007 A2974 HR67 RWY NML=@CAELT@METAR SLCP 102200Z 00000KT 9999 NSC 29/22 Q1011 A2985 HR68 RWY NML=METAR SLSI 102200Z 00000KT 9999 NSC 29/21 Q1008 A2977 HR61 RWY NML=METAR SLTI 102200Z 00000KT 9999 SCT020 BKN200 29/21 Q1011 A2985 HR61RWY NML=METAR SLJE 102200Z 00000KT 9999 NSC 33/21 Q1010 A2983 HR48 RWY NML=METAR SLRB 102200Z 00000KT 9999 NSC 33/22 Q1009 A2980 HR54 RWY NML=METAR SLPS 102200Z 00000KT 9999 FEW020 34/25 Q1006 A2971 HR59=METAR SLCA 102200Z 00000KT 9999 FEW036 33/10 Q1008 A2977 HR25 RWY NML
ZPX0798 102157@CAELT@GG SLZZYMYT@CAELT@102155 SLLPYGYZ@CAELT@SABO SLLP 102200@CAELT@METAR SLLP 102200Z 33008KT 300V010 9999 FEW017 BKN200 11/03 Q1033@CAELT@A3053 625.1 HR54 P4053 AC NOSIG=@CAELT@
ZPX0800 102157@CAELT@GG SLZZYMYT@CAELT@102156 SLTRYGYZ@CAELT@SABO SLTR 102200@CAELT@METAR SLTR 102200Z 33005KT 9999 FEW012 SCT080 BKN200 26/24 Q1008@CAELT@A2977 989.6 HR86 NOSIG=@CAELT@
ZPX0801 102158@CAELT@GG SLZZYMYT@CAELT@102158 SLTRYGYS@CAELT@SABO SLTR 102200@CAELT@METAR SLTR 102200Z 33005KT 9999 FEW012 SCT080 BKN200 26/24 Q1008@CAELT@A2977 989.6 HR86 NOSIG=@CAELT@METAR SLGM 102200Z 15005KT 8000 VCSH SCT006 FEW020CB BKN070 24/24@CAELT@Q1007 A2976 HR97 CB/SH N/NE/W=@CAELT@METAR SLRI 102200Z 00000KT 9999 BKN005 BKN070 24/23 Q1008 A2979 HR93METAR SLJO 102200Z NIL=METAR SLRA 102200Z 35006KT 9999 FEW015 BKN080 28/22 Q1008 A2979HR73 RWY NML=METAR SLMG 102200Z 32004KT 9999 FEW020 FEW023CB BKN080 27/23 Q1008A2978 HR75 RWY HUM OPR=METAR SLBU 102200Z NIL=METAR SLSA 102200Z 34005KT 9999 FEW017 SCT080 BKN200 28/23 Q1008A2977 HR74=METAR SLSR 102200Z 00000KT 9999 FEW015 BKN080 29/23 Q1006 A2972HR70 RWY NML=METAR SLSM 102200Z 33004KT 9999 FEW017 28/24 Q1007 A2976 HR78 ACRWY HUM OPR=
ZPX0802 102158@CAELT@GG SLZZYMYT@CAELT@102158 SLCBYGYZ@CAELT@SABO SLCB 102200@CAELT@METAR SLCB 102200Z 08008KT 9999 FEW040 SCT200 24/02 Q1019 A3011 747.1@CAELT@HR24 FU AC NOSIG=@CAELT@
ZPX0803 102158@CAELT@GG SLZZYMYT@CAELT@102155 SLLPYFYA@CAELT@SABO SLRY 102200@CAELT@METAR SLRY 102200Z 00000KT 9999 SCT080 SCT200 30/23 Q1007 A2975@CAELT@HR67 RWY NML=@CAELT@
ZPX0805 102159@CAELT@GG SLZZYMYT@CAELT@102159 SLTJYGYZ@CAELT@SABO SLTJ 102200@CAELT@METAR SLTJ 102200Z 08005KT 9999 FEW033 27/07 Q1013 A2993 809.6 HR28=@CAELT@
ZPX0807 102201@CAELT@GG SLZZYMYT@CAELT@102200 SLCBYGYS@CAELT@SABO SLCB 102200@CAELT@METAR SLCB 102200Z 08008KT 9999 FEW040 SCT200 24/02 Q1019 A3011@CAELT@747.1 HR24 FU AC NOSIG=@CAELT@METAR SLAL 102200Z 01015KT 9999 FEW020 18/03 Q1025 A3027 701.0 HR39=@CAELT@METAR SLTJ 102200Z 08005KT 9999 FEW033 27/07 Q1013 A2993 809.6 HR28=@CAELT@
ZPX0809 102204@CAELT@GG SLZZYMYT@CAELT@102203 SLLPYFYA@CAELT@SABO SLLP 102200@CAELT@METAR SLLP 102200Z 33008KT 300V010 9999 FEW017 BKN200 11/03 Q1033@CAELT@A3053 625.1 HR54 P4053 AC NOSIG=@CAELT@METAR SLCO 102200Z 31003KT 9999 BKN006 OVC080 23/23 Q1009 A2981@CAELT@982.0 HR95=@CAELT@METAR SLRY 102200Z 00000KT 9999 SCT080 SCT200 30/23 Q1007 A2975HR67 RWY NML=METAR SLRQ 102200Z 00000KT 9999 FEW080 BKN200 29/24 Q1007 A2975983.3 HR74=METAR SLSB 102200Z 00000KT 9999 SCT080 30/23 Q1007 A2974 HR67RWY NML=
ZPX0831 102251@CAELT@GG SLZZYMYT@CAELT@102252 SLRBYGYS@CAELT@SABO SLRB 102300@CAELT@METAR SLRB 102300Z 00000KT 9-@CAELT@999 NSC 31/23 Q1009 A2980 HR62 RWY NML=@CAELT@
ZPX0834 102254@CAELT@GG SLZZYMYT@CAELT@102254 SLCBYGYZ@CAELT@SABO SLCB 102300@CAELT@METAR SLCB 102300Z 10008KT 9999 FEW036 SCT200 22/04 Q1020 A3013 747.8@CAELT@HR30 AC FU NOSIG=@CAELT@
ZPX0835 102255@CAELT@GG SLZZYMYT@CAELT@102254 SLCAYGYS@CAELT@SABO SLCA 102300@CAELT@METAR SLCA 102300Z 00000KT 9999 NSC 32/11 Q1008 A2977 HR28 RWY NML=@CAELT@
ZPX0836 102255@CAELT@GG SLZZYMYT@CAELT@102255 SLRBYGYS@CAELT@SABO SLRB 102300@CAELT@METAR SLRB 102300Z 00000KT 9999 NSC 31/23 Q1009 A2980 HR62 RWY NML=@CAELT@
ZPX0837 102255@CAELT@GG SLZZYMYT@CAELT@102255 SLCOYGYZ@CAELT@SABO SLCO 102300@CAELT@METAR SLCO 102300Z 27003KT 9999 SCT006 BKN080 23/22 Q1008 A2979 981.5@CAELT@HR95=@CAELT@
ZPX0839 102255@CAELT@GG SLZZYMYT@CAELT@102255 SLSBYSYX@CAELT@SABO SLSB 102300@CAELT@METAR SLSB 101300Z 00000KT 9999 NSC 27/23 Q1007 A2976 HR77 CI RWY NML=@CAELT@
ZPX0840 102256@CAELT@GG SLZZYMYT@CAELT@102255 SLSAYGYS@CAELT@SABO SLSA 102300@CAELT@METAR SLSA 102300Z 00000KT 9999 FEW020 BKN200 26/23 Q1008 A2977 HR82=@CAELT@
ZPX0841 102256@CAELT@GG SLZZYMYT@CAELT@102255 SLSAYGYS@CAELT@SABO SLSA 102300@CAELT@METAR SLSA 102300Z 00000KT 9999 FEW020 BKN200 26/23 Q1008 A2977 HR82=@CAELT@
ZPX0842 102256@CAELT@GG SLZZYMYT@CAELT@102255 SLLPYGYZ@CAELT@SABO SLLP 102300@CAELT@METAR SLLP 102300Z 10008KT 060V130 9999 FEW015 FEW017CB BKN200 10/02@CAELT@Q1034 A3054 625.4 HR58 CB/LT SW/W AC NOSIG=@CAELT@
ZPX0843 102256@CAELT@GG SLZZYMYT@CAELT@102256 SLVRYGYZ@CAELT@SABO SLVR 102300@CAELT@METAR SLVR 102300Z 33006KT 9999 NSC 28/21 Q1007 A2976 HR68 NOSIG=@CAELT@
ZPX0844 102256@CAELT@GG SLZZYMYT@CAELT@102255 SLTJYGYZ@CAELT@SABO SLTJ 102300@CAELT@METAR SLTJ 102300Z 07006KT 9999 FEW033 25/10 Q1013 A2994 809.7 HR39=@CAELT@
ZPX0845 102256@CAELT@GG SLZZYMYT@CAELT@102256 SLLPYGYZ@CAELT@SABO SLLP 102300@CAELT@METAR SLLP 102300Z 10008KT 060V130 9999 FEW015 FEW017CB BKN200 10/02@CAELT@Q1034 A3054 625.4 HR58 CB/LT SW/W AC NOSIG=@CAELT@
ZPX0847 102257@CAELT@GG SLZZYMYT@CAELT@102256 SLTRYGYZ@CAELT@SABO SLTR 102300@CAELT@METAR SLTR 102300Z 33003KT 9999 FEW012 BKN200 25/23 Q1008 A2977@CAELT@989.8 HR90 AC NOSIG=@CAELT@
ZPX0848 102257@CAELT@GG SLZZYMYT@CAELT@102257 SLCBYGYS@CAELT@SABO SLCB 102300@CAELT@METAR SLCB 102300Z 10008KT 9999 FEW036 SCT200 22/04 Q1020 A3013 747.8@CAELT@HR30 AC FU NOSIG=@CAELT@METAR SLAL 102300Z 03014KT 9999 FEW015 16/03 Q1025 A3028 701.3 HR44=@CAELT@METAR SLTJ 102300Z 07006KT 9999 FEW033 25/10 Q1013 A2994 809.7 HR39=@CAELT@
ZPX0849 102258@CAELT@GG SLZZYMYT@CAELT@102258 SLVRYFYC@CAELT@SABO SLVR 102300@CAELT@METAR SLVR 102300Z 33006KT 9999 NSC 28/21 Q1007 A2976 HR68 NOSIG=@CAELT@METAR SLSI 102300Z 00000KT 9999 NSC 28/21 Q1008 A2977 HR66 RWY NML=@CAELT@METAR SLRB 102300Z 00000KT 9999 NSC 31/23 Q1009 A2980 HR62 RWY NML=@CAELT@METAR SLCA 102300Z 00000KT 9999 NSC 32/11 Q1008 A2977 HR28 RWY NML=@CAELT@
ZPX0850 102258@CAELT@GG SLZZYMYT@CAELT@102258 SLTRYGYS@CAELT@SABO SLTR 102300@CAELT@METAR SLTR 102300Z 33003KT 9999 FEW012 BKN200 25/23 Q1008 A2977@CAELT@989.8 HR90 AC NOSIG=@CAELT@METAR SLGM NIL=@CAELT@METAR SLMG 102300Z 32004KT 9999 FEW020 BKN080 26/22 Q1008 A2978@CAELT@HR79 RWY HUM OPR=METAR SLSA 102300Z 00000KT 9999 FEW020 BKN200 26/23 Q1008 A2977 HR82=METAR SLRI 102300Z 00000KT 9999 SCT008 BKN070 24/23 Q1009 A2981 HR95
ZPX0851 102258@CAELT@GG SLZZYMYT@CAELT@102258 SLTRYGYS@CAELT@SABO SLTR 102300 CCA@CAELT@METAR SLTR 102300Z 33003KT 9999 FEW012 BKN200 25/23 Q1008 A2977@CAELT@989.8 HR90 AC NOSIG=@CAELT@METAR SLGM NIL=@CAELT@METAR SLMG 102300Z 32004KT 9999 FEW020 BKN080 26/22 Q1008 A2978@CAELT@HR79 RWY HUM OPR=METAR SLRI 102300Z 00000KT 9999 SCT008 BKN070 24/23 Q1009 A2981 HR95METAR SLSA 102300Z 00000KT 9999 FEW020 BKN200 26/23 Q1008 A2977 HR82=
ZPX0856 102306@CAELT@GG SLZZYMYT@CAELT@102306 SLLPYFYA@CAELT@SABO SLLP 102300@CAELT@METAR SLLP 102300Z 10008KT 060V130 9999 FEW015 FEW017CB BKN200@CAELT@10/02 Q1034 A3054 625.4 HR58 CB/LT SW/W AC NOSIG=@CAELT@METAR SLCO 102300Z 27003KT 9999 SCT006 BKN080 23/22 Q1008 A2979@CAELT@981.5 HR95=@CAELT@METAR SLSB 101300Z 00000KT 9999 NSC 27/23 Q1007 A2976 HR77 CIRWY NML=
ZPX0870 102353@CAELT@GG SLZZYMYT@CAELT@102353 SLVRYGYZ@CAELT@SABO SLVR 110000@CAELT@METAR SLVR 110000Z 33005KT 9999 NSC 27/21 Q1008 A2977 HR73 NOSIG=@CAELT@
ZPX0872 102356@CAELT@GG SLZZYMYT@CAELT@102355 SLCBYGYZ@CAELT@SABO SLCB 110000@CAELT@METAR SLCB 110000Z 11005KT 9999 FEW033 SCT200 21/04 Q1020 A3014 748.0@CAELT@HR31 FU AC NOSIG=@CAELT@
