
ZPX0017 150055@CAELT@GG SLZZYMYT@CAELT@150055 SLVRYGYZ@CAELT@SABO SLVR 150100@CAELT@METAR SLVR 150100Z 34009KT 4000 FU NSC 29/21 Q1008 A2977 HR60 CI@CAELT@NOSIG=@CAELT@
ZPX0020 150056@CAELT@GG SLZZYMYT@CAELT@150056 SLCBYGYZ@CAELT@SABO SLCB 150100@CAELT@METAR SLCB 150100Z 05004KT 9999 FEW030 BKN200 15/07 Q1024 A3026 751.1@CAELT@HR60 AC NOSIG=@CAELT@
ZPX0023 150058@CAELT@GG SLZZYMYT@CAELT@150057 SLCBYGYS@CAELT@SABO SLCB 150100@CAELT@METAR SLCB 150100Z 05004KT 9999 FEW030 BKN200 15/07 Q1024 A3026 751.1@CAELT@HR60 AC NOSIG=@CAELT@
ZPX0031 150155@CAELT@GG SLZZYMYT@CAELT@150155 SLVRYGYZ@CAELT@SABO SLVR 150200@CAELT@METAR SLVR 150200Z 34007KT 4000 FU NSC 28/21 Q1009 A2980 HR64 CI@CAELT@NOSIG=@CAELT@
ZPX0032 150156@CAELT@GG SLZZYMYT@CAELT@150155 SLCBYGYZ@CAELT@SABO SLCB 150200@CAELT@METAR SLCB 150200Z 09004KT 9999 NSC 15/06 Q1025 A3030 752.1 HR54 CI@CAELT@NOSIG=@CAELT@
ZPX0033 150156@CAELT@GG SLLPZRZX@CAELT@150156 SLLPYGYZ@CAELT@SABO SLLP 150200@CAELT@METAR SLLP 150200Z 01004KT 9999 FEW010 BKN200 05/01 Q1039 A3069@CAELT@628.8 HR77 AC NOSIG=@CAELT@
ZPX0034 150157@CAELT@GG SLZZYMYT@CAELT@150157 SLCBYGYS@CAELT@SABO SLCB 150200@CAELT@METAR SLCB 150200Z 09004KT 9999 NSC 15/06 Q1025 A3030 752.1 HR54 CI@CAELT@NOSIG=@CAELT@
ZPX0045 150255@CAELT@GG SLZZYMYT@CAELT@150256 SLVRYGYZ@CAELT@SABO SLVR 150300@CAELT@METAR SLVR 150300Z 33008KT 4000 FU NSC 28/21 Q1009 A2981 HR66 CI@CAELT@NOSIG=@CAELT@
ZPX0046 150256@CAELT@GG SLLPZRZX@CAELT@150256 SLLPYGYZ@CAELT@SABO SLLP 150300@CAELT@METAR SLLP 150300Z VRB02KT 9999 FEW010 BKN200 05/01 Q1039 A3070@CAELT@629.0 HR76 AC NOSIG=@CAELT@
ZPX0047 150256@CAELT@GG SLZZYMYT@CAELT@150255 SLCBYGYZ@CAELT@SABO SLCB 150300@CAELT@METAR SLCB 150300Z VRB02KT 9999 FEW080 BKN200 14/08 Q1026 A3031 752.5@CAELT@HR65 FU NOSIG=@CAELT@
ZPX0048 150258@CAELT@GG SLZZYMYT@CAELT@150257 SLCBYGYS@CAELT@SABO SLCB 150300@CAELT@METAR SLCB 150300Z VRB02KT 9999 FEW080 BKN200 14/08 Q1026 A3031 752.5@CAELT@HR65 FU NOSIG=@CAELT@
ZPX0055 150355@CAELT@GG SLZZYMYT@CAELT@150356 SLVRYGYZ@CAELT@SABO SLVR 150400@CAELT@METAR SLVR 150400Z 32010KT 4000 FU NSC 27/21 Q1009 A2981 HR70 CI@CAELT@NOSIG=@CAELT@
ZPX0056 150356@CAELT@GG SLLPZRZX@CAELT@150356 SLLPYGYZ@CAELT@SABO SLLP 150400@CAELT@METAR SLLP 150400Z 36003KT 9999 FEW013 BKN200 05/01 Q1039 A3069@CAELT@628.9 HR75 NOSIG=@CAELT@
ZPX0057 150357@CAELT@GG SLZZYMYT@CAELT@150357 SLCBYGYZ@CAELT@SABO SLCB 150400@CAELT@METAR SLCB 150400Z 00000KT 9999 FEW080 BKN200 13/09 Q1025 A3030 752.1@CAELT@HR72 FU NOSIG=@CAELT@
ZPX0058 150358@CAELT@GG SLZZYMYT@CAELT@150358 SLCBYGYS@CAELT@SABO SLCB 150400@CAELT@METAR SLCB 150400Z 00000KT 9999 FEW080 BKN200 13/09 Q1025 A3030 752.1@CAELT@HR72 FU NOSIG=@CAELT@
ZPX0065 150455@CAELT@GG SLZZYMYT@CAELT@150456 SLVRYGYZ@CAELT@SABO SLVR 150500@CAELT@METAR SLVR 150500Z 32009KT 4000 FU NSC 27/21 Q1009 A2980 HR72 CI@CAELT@NOSIG=@CAELT@
ZPX0066 150456@CAELT@GG SLLPZRZX@CAELT@150456 SLLPYGYZ@CAELT@SABO SLLP 150500@CAELT@METAR SLLP 150500Z 36003KT 9999 FEW013 BKN200 04/M00 Q1038 A3066@CAELT@628.2 HR75 FU NOSIG=@CAELT@
ZPX0067 150458@CAELT@GG SLZZYMYT@CAELT@150457 SLCBYGYZ@CAELT@SABO SLCB 150500@CAELT@METAR SLCB 150500Z 00000KT 8000 FEW080 BKN200 13/09 Q1025 A3027 751.4@CAELT@HR79 FU NOSIG=@CAELT@
ZPX0068 150459@CAELT@GG SLZZYMYT@CAELT@150459 SLCBYGYS@CAELT@SABO SLCB 150500@CAELT@METAR SLCB 150500Z 00000KT 8000 FEW080 BKN200 13/09 Q1025 A3027 751.4@CAELT@HR79 FU NOSIG=@CAELT@
ZPX0077 150555@CAELT@GG SLZZYMYT@CAELT@150556 SLVRYGYZ@CAELT@SABO SLVR 150600@CAELT@METAR SLVR 150600Z 33007KT 4000 FU NSC 26/21 Q1008 A2979 HR73 CI@CAELT@NOSIG=@CAELT@
ZPX0078 150556@CAELT@GG SLZZYMYT@CAELT@150555 SLCBYGYZ@CAELT@SABO SLCB 150600@CAELT@METAR SLCB 150600Z 00000KT 9999 NSC 12/08 Q1024 A3027 751.3 HR79 FU@CAELT@CI NOSIG=@CAELT@
ZPX0079 150556@CAELT@GG SLLPZRZX@CAELT@150556 SLLPYGYZ@CAELT@SABO SLLP 150600@CAELT@METAR SLLP 150600Z 36004KT 9999 FEW013 BKN200 03/M01 Q1037 A3065@CAELT@627.8 HR75 FU NOSIG=@CAELT@
ZPX0080 150558@CAELT@GG SLZZYMYT@CAELT@150558 SLCBYGYS@CAELT@SABO SLCB 150600@CAELT@METAR SLCB 150600Z 00000KT 9999 NSC 12/08 Q1024 A3027 751.3 HR79 FU@CAELT@CI NOSIG=@CAELT@
ZPX0087 150654@CAELT@GG SLZZYMYT@CAELT@150655 SLVRYGYZ@CAELT@SABO SLVR 150700@CAELT@METAR SLVR 150700Z 34005KT 4000 FU NSC 25/21 Q1008 A2979 HR78 NOSIG=@CAELT@
ZPX0088 150656@CAELT@GG SLZZYMYT@CAELT@150655 SLCBYGYZ@CAELT@SABO SLCB 150700@CAELT@METAR SLCB 150700Z 00000KT 9999 NSC 11/09 Q1024 A3026 751.2 HR84 FU@CAELT@CI NOSIG=@CAELT@
ZPX0089 150657@CAELT@GG SLZZYMYT@CAELT@150657 SLCBYGYS@CAELT@SABO SLCB 150700@CAELT@METAR SLCB 150700Z 00000KT 9999 NSC 11/09 Q1024 A3026 751.2 HR84 FU@CAELT@CI NOSIG=@CAELT@
ZPX0090 150657@CAELT@GG SLLPZRZX@CAELT@150657 SLLPYGYZ@CAELT@SABO SLLP 150700@CAELT@METAR SLLP 150700Z 00000KT 9999 FEW004 BKN200 01/M00 Q1037@CAELT@A3063 627.4 HR90 FU NOSIG=@CAELT@
ZPX0097 150755@CAELT@GG SLZZYMYT@CAELT@150755 SLVRYGYZ@CAELT@SABO SLVR 150800@CAELT@METAR SLVR 150800Z 34005KT 4000 FU NSC 24/22 Q1008 A2979 HR84 CI@CAELT@NOSIG=@CAELT@
ZPX0098 150755@CAELT@GG SLZZYMYT@CAELT@150757 SLLPYGYZ@CAELT@SABO SLLP 150800@CAELT@METAR SLLP 150800Z VRB02KT 9999 FEW004 BKN200 02/M00 Q1036@CAELT@A3062 627.2 HR87 FU NOSIG=@CAELT@
ZPX0100 150757@CAELT@GG SLZZYMYT@CAELT@150755 SLCBYGYZ@CAELT@SABO SLCB 150800@CAELT@METAR SLCB 150800Z 30004KT 9999 NSC 11/09 Q1025 A3027 751.5 HR83 FU@CAELT@CI NOSIG=@CAELT@
ZPX0101 150758@CAELT@GG SLZZYMYT@CAELT@150758 SLCBYGYS@CAELT@SABO SLCB 150800@CAELT@METAR SLCB 150800Z 30004KT 9999 NSC 11/09 Q1025 A3027 751.5 HR83 FU@CAELT@CI NOSIG=@CAELT@
ZPX0105 150813@CAELT@GG SLLPZRZX@CAELT@150811 SLLPYFYA@CAELT@RETRANSMITO NXT MSG:@CAELT@ZPA0142 150755@CAELT@GG SLZZYMYX@CAELT@150755 SLVRYGYZ@CAELT@SABO SLVR 150800@CAELT@METAR SLVR 150800Z 34005KT 4000 FU NSC 24/22 Q1008 A2979 HR84 CINOSIG=
ZPX0106 150813@CAELT@GG SLLPZRZX@CAELT@150811 SLLPYFYA@CAELT@RETRANSMITO NXT MSG:@CAELT@ZPA0142 150755@CAELT@GG SLZZYMYX@CAELT@150755 SLVRYGYZ@CAELT@SABO SLVR 150800@CAELT@METAR SLVR 150800Z 34005KT 4000 FU NSC 24/22 Q1008 A2979 HR84 CINOSIG=
ZPX0107 150813@CAELT@GG SLLPZRZX@CAELT@150811 SLLPYFYA@CAELT@RETRANSMITO NXT MSG:@CAELT@ZPA0142 150755@CAELT@GG SLZZYMYX@CAELT@150755 SLVRYGYZ@CAELT@SABO SLVR 150800@CAELT@METAR SLVR 150800Z 34005KT 4000 FU NSC 24/22 Q1008 A2979 HR84 CINOSIG=
ZPX0108 150813@CAELT@GG SLLPZRZX@CAELT@150811 SLLPYFYA@CAELT@RETRANSMITO NXT MSG:@CAELT@ZPA0142 150755@CAELT@GG SLZZYMYX@CAELT@150755 SLVRYGYZ@CAELT@SABO SLVR 150800@CAELT@METAR SLVR 150800Z 34005KT 4000 FU NSC 24/22 Q1008 A2979 HR84 CINOSIG=
ZPX0115 150854@CAELT@GG SLZZYMYT@CAELT@150855 SLVRYGYZ@CAELT@SABO SLVR 150900@CAELT@METAR SLVR 150900Z 34003KT 4000 FU NSC 24/22 Q1010 A2983 HR85 CI@CAELT@NOSIG=@CAELT@
ZPX0116 150856@CAELT@GG SLZZYMYT@CAELT@150855 SLCBYGYZ@CAELT@SABO SLCB 150900@CAELT@METAR SLCB 150900Z 00000KT 9999 NSC 10/08 Q1025 A3029 752.0 HR87 FU@CAELT@CI NOSIG=@CAELT@
ZPX0117 150856@CAELT@GG SLLPZRZX@CAELT@150857 SLLPYGYZ@CAELT@SABO SLLP 150900@CAELT@METAR SLLP 150900Z 36003KT 9999 NSC 03/M02 Q1037 A3063@CAELT@627.4 HR74 FU NOSIG=@CAELT@
ZPX0123 150916@CAELT@GG SLZZYMYT@CAELT@150915 SLCBYGYS@CAELT@SABO SLCB 150900@CAELT@METAR SLCB 150900Z 00000KT 9999 NSC 10/08 Q1025 A3029 752.0 HR87 FU@CAELT@CI NOSIG=@CAELT@
ZPX0141 150950@CAELT@GG SLZZYMYT@CAELT@150950 SLCAYGYS@CAELT@SABO SLCA 151000@CAELT@METAR SLCA 151000Z 18006KT 9999 BKN040 OVC070 24/15 Q1018 A3006 HR58@CAELT@FU RWY NML=@CAELT@
ZPX0142 150953@CAELT@GG SLZZYMYT@CAELT@150953 SLPSYGYS@CAELT@SABO SLPS 151000@CAELT@METAR SLPS 151000Z 09006KT 3000 FU SCT017 FEW030CB BKN200 25/24 Q1011@CAELT@A2986 HR92 CB/N/NW RESH=@CAELT@
ZPX0143 150953@CAELT@GG SLZZYMYT@CAELT@150955 SLVRYGYZ@CAELT@SABO SLVR 151000@CAELT@METAR SLVR 151000Z 27003KT 4000 FU FEW070 BKN200 22/20 Q1012 A2989@CAELT@HR88 NOSIG=@CAELT@
ZPX0144 150953@CAELT@GG SLZZYMYT@CAELT@150953 SLSAYGYS@CAELT@SABO SLSA 151000@CAELT@METAR SLSA 151000Z 00000KT 5000 FU SCT080 BKN200 25/23 Q1010 A2983@CAELT@HR92=@CAELT@
ZPX0145 150954@CAELT@GG SLZZYMYT@CAELT@150955 SLCOYGYZ@CAELT@SABO SLCO 151000@CAELT@METAR SLCO 151000Z 00000KT 6000 OVC080 23/22 Q1011 A2987 984.0 HR95@CAELT@
ZPX0146 150955@CAELT@GG SLZZYMYT@CAELT@150955 SLRQYSYX@CAELT@SABO SLRQ 151000@CAELT@METAR SLRQ 151000Z 00000KT 5000 FU SCT080 BKN200 22/22 Q1009 A2982@CAELT@985.7 HR98=@CAELT@
ZPX0147 150955@CAELT@GG SLZZYMYT@CAELT@150955 SLSBYSYX@CAELT@SABO SLSB 151000@CAELT@METAR SLSB 151000Z 00000KT 5000 FU NSC 22/22 Q1008 A2979 HR97 RWY NML=@CAELT@
ZPX0148 150956@CAELT@GG SLZZYMYT@CAELT@150955 SLLPYFYA@CAELT@SABO SLRY 151000@CAELT@METAR SLRY 151000Z 00000KT 7000 SCT080 BKN200 22/22 Q1007 A2976@CAELT@HR97 FU RWY NML=@CAELT@
ZPX0149 150956@CAELT@GG SLZZYMYT@CAELT@150956 SLTRYGYZ@CAELT@SABO SLTR 151000@CAELT@METAR SLTR 151000Z 00000KT 5000 FU BKN080 24/23 Q1010 A2984@CAELT@992.0 HR90 TEMPO 3000=@CAELT@
ZPX0150 150956@CAELT@GG SLZZYMYT@CAELT@150957 SLUYYGYS@CAELT@SABO SLUY 151000@CAELT@METAR SLUY 151000Z 00000KT 9999 FEW018 BKN200 04/M01 Q1033 A3053@CAELT@658.1 HR71 FU AC=@CAELT@
ZPX0151 150956@CAELT@GG SLZZYMYT@CAELT@150957 SLLPYGYZ@CAELT@SABO SLLP 151000@CAELT@METAR SLLP 151000Z 02004KT 9999 FEW070 BKN200 01/M02 Q1037@CAELT@A3064 627.7 HR79 P3180 FU NOSIG=@CAELT@
ZPX0152 150958@CAELT@GG SLZZYMYT@CAELT@150955 SLCBYGYZ@CAELT@SABO SLCB 151000@CAELT@METAR SLCB 151000Z 00000KT 5000 FU NSC 10/08 Q1025 A3030 752.1 HR87@CAELT@CI NOSIG=@CAELT@
ZPX0153 150958@CAELT@GG SLZZYMYT@CAELT@150958 SLCBYGYS@CAELT@SABO SLCB 151000@CAELT@METAR SLCB 151000Z 00000KT 5000 FU NSC 10/08 Q1025 A3030 752.1 HR87@CAELT@CI NOSIG=@CAELT@
ZPX0154 150959@CAELT@GG SLZZYMYT@CAELT@150958 SLLPYFYA@CAELT@SABO SLLP 151000@CAELT@METAR SLLP 151000Z 02004KT 9999 FEW070 BKN200 01/M02 Q1037@CAELT@A3064 627.7 HR79 P3180 FU NOSIG=@CAELT@METAR SLCO 151000Z 00000KT 6000 OVC080 23/22 Q1011 A2987 984.0@CAELT@HR95 FU=@CAELT@METAR SLRY 151000Z 00000KT 7000 SCT080 BKN200 22/22 Q1007 A2976HR97 FU RWY NML=METAR SLRQ 151000Z 00000KT 5000 FU SCT080 BKN200 22/22 Q1009A2982 985.7 HR98=METAR SLSB 151000Z 00000KT 5000 FU NSC 22/22 Q1008 A2979 HR97RWY NML=METAR SLUY 151000Z 00000KT 9999 FEW018 BKN200 04/M01 Q1033 A3053658.1 HR71 FU AC=
ZPX0156 151001@CAELT@GG SLZZYMYT@CAELT@151000 SLTRYGYS@CAELT@SABO SLTR 151000@CAELT@METAR SLTR 151000Z 00000KT 5000 FU BKN080 24/23 Q1010 A2984@CAELT@992.0 HR90 TEMPO 3000=@CAELT@METAR SLGM 151000Z 00000KT 5000 FU BKN080 24/24 Q1011 A2985 HR98=@CAELT@METAR SLRI 151000Z 36006KT 5000 FU BKN080 BKN200 25/23 Q1011@CAELT@A2988 HR88=METAR SLJO 151000Z NIL=METAR SLRA 151000Z NIL=METAR SLMG 151000Z NIL=METAR SLBU 151000Z NIL=METAR SLSA 151000Z 00000KT 5000 FU SCT080 BKN200 25/23 Q1010 A2983HR92=METAR SLSR 151000Z 00000KT 5000 FU NSC 24/23 Q1008 A2978 HR93 CIRWY NML=METAR SLSM 151000Z 00000KR 2000 FU NSC 22/22 Q1010 A2983 HR96
ZPX0157 151002@CAELT@GG SLZZYMYT@CAELT@151002 SLVRYGYS@CAELT@SABO SLVR 151000@CAELT@METAR SLVR 151000Z 27003KT 4000 FU FEW070 BKN200 22/20 Q1012@CAELT@A2989 HR88 NOSIG=@CAELT@METAR SLCP 151000Z 00000KT 0300 FU FEW070 23/20 Q1015 A2997@CAELT@HR84 RWY NML=@CAELT@METAR SLSI 151000Z 00000KT 2000 FU NSC 24/21 Q1012 A2988 HR82RWY NML=METAR SLRB 151000Z 36006KT 3000 FU FEW070 26/22 Q1013 A2991HR76 RWY NML=METAR SLPS 151000Z 09006KT 3000 FU SCT017 FEW030CB BKN200 25/24Q1011 A2986 HR92 CB/N/NW RESH=METAR SLCA 151000Z 18006KT 9999 BKN040 OVC070 24/15 Q1018 A3006HR58 FU RWY NML=
ZPX0159 151007@CAELT@GG SLZZYMYT@CAELT@151006 SLLPYFYA@CAELT@SABO SLLP 151000 RRA@CAELT@METAR SLLP 151000Z 02004KT 9999 FEW070 BKN200 01/M02 Q1037@CAELT@A3064 627.7 HR79 P3180 FU NOSIG=@CAELT@METAR SLCO 151000Z 00000KT 6000 OVC080 23/22 Q1011 A2987 984.0@CAELT@HR95 FU=@CAELT@METAR SLRY 151000Z 00000KT 7000 SCT080 BKN200 22/22 Q1007 A2976HR97 FU RWY NML=METAR SLRQ 151000Z 00000KT 5000 FU SCT080 BKN200 22/22 Q1009A2982 985.7 HR98=METAR RTD SLAP 151000Z 00000KT 3000 FU FEW030 SCT070 15/13 Q1018A3008 859.2 HR90=METAR SLSB 151000Z 00000KT 5000 FU NSC 22/22 Q1008 A2979 HR97RWY NML=METAR SLUY 151000Z 00000KT 9999 FEW018 BKN200 04/M01 Q1033 A3053658.1 HR71 FU AC=
ZPX0160 151007@CAELT@GG SLZZYMYT@CAELT@151007 SLETYMYC@CAELT@SABO SLET 151000@CAELT@METAR SLET 151000Z 21005KT 2500 FU FEW070 BKN200 23/19 Q1012 A2991@CAELT@HR79 NOSIG=@CAELT@
ZPX0180 151051@CAELT@GG SLZZYMYT@CAELT@151051 SLTRYGYS@CAELT@SABO SLTR 151000 RRA@CAELT@METAR SLTR 151000Z 00000KT 5000 FU BKN080 24/23 Q1010 A2984@CAELT@992.0 HR90 TEMPO 3000=@CAELT@METAR SLGM 151000Z 00000KT 5000 FU BKN080 24/24 Q1011 A2985 HR98=@CAELT@METAR SLRI 151000Z 36006KT 5000 FU BKN080 BKN200 25/23 Q1011@CAELT@A2988 HR88=METAR SLJO 151000Z NIL=METAR RTD SLRA 151000Z 36003KT 5000 FU SCT020 BKN080 25/23 Q1009A2982 HR89 RWY NML=METAR SLMG 151000Z NIL=METAR SLBU 151000Z NIL=METAR SLSA 151000Z 00000KT 5000 FU SCT080 BKN200 25/23 Q1010 A2983HR92=METAR SLSR 151000Z 00000KT 5000 FU NSC 24/23 Q1008 A2978 HR93 CIRWY NML=METAR SLSM 151000Z 00000KR 2000 FU NSC 22/22 Q1010 A2983 HR96
ZPX0182 151053@CAELT@GG SLZZYMYT@CAELT@151054 SLPSYGYS@CAELT@SABO SLPS 151100@CAELT@METAR SLPS 151100Z 09004KT 4000 FU SCT017 FEW030CB OVC200 27/24 Q1011@CAELT@A2986 HR87 CB/SE/E=@CAELT@
ZPX0183 151054@CAELT@GG SLZZYMYT@CAELT@151055 SLVRYGYZ@CAELT@SABO SLVR 151100@CAELT@METAR SLVR 151100Z 23009KT 4000 FU SCT020 BKN200 25/21 Q1013 A2994@CAELT@HR78 NOSIG=@CAELT@
ZPX0184 151054@CAELT@GG SLZZYMYT@CAELT@151055 SLCOYGYZ@CAELT@SABO SLCO 151100@CAELT@METAR SLCO 151100Z 00000KT 2000 FU OVC080 23/23 Q1011 A2988 984.5@CAELT@HR97=@CAELT@
ZPX0185 151054@CAELT@GG SLZZYMYT@CAELT@151055 SLRQYSYX@CAELT@SABO SLRQ 151100@CAELT@METAR SLRQ 151100Z 00000KT 5000 FU SCT080 BKN200 23/22 Q1010 A2984@CAELT@986.5 HR98=@CAELT@
ZPX0187 151055@CAELT@GG SLZZYMYT@CAELT@151055 SLSAYGYS@CAELT@SABO SLSA 151100@CAELT@METAR SLSA 151100Z 00000KT 5000 FU SCT080 BKN200 24/23 Q1010 A2985@CAELT@HR92=@CAELT@
ZPX0189 151055@CAELT@GG SLZZYMYT@CAELT@151055 SLCBYGYZ@CAELT@SABO SLCB 151100@CAELT@METAR SLCB 151100Z 00000KT 5000 FU NSC 12/09 Q1026 A3031 752.6 HR84@CAELT@FU CI NOSIG=@CAELT@
ZPX0190 151055@CAELT@GG SLZZYMYT@CAELT@151055 SLORYGYZ@CAELT@SABO SLOR 151100@CAELT@METAR SLOR 151100Z 36003KT 3000E FU NSC 05/01 Q1035 A3058 656.2 HR78@CAELT@VIS RED NE/E/SE RESTO 8000 CI=@CAELT@
ZPX0191 151055@CAELT@GG SLZZYMYT@CAELT@151056 SLUYYGYS@CAELT@SABO SLUY 151100@CAELT@METAR SLUY 151100Z 00000KT 9999 FEW020 BKN200 03/M01 Q1034 A3055@CAELT@658.6 HR73 FU AC=@CAELT@
ZPX0192 151056@CAELT@GG SLZZYMYT@CAELT@151055 SLLPYFYA@CAELT@SABO SLRY 1511100@CAELT@METAR SLRY 151100Z 00000T 7000 FEW080 SCT200 22/22 Q1007@CAELT@A2976 HR97 FU RWY NML=@CAELT@
ZPX0193 151056@CAELT@GG SLZZYMYT@CAELT@151055 SLETYMYC@CAELT@SABO SLET 151100@CAELT@METAR SLET 151100Z 18015KT 3500 FU BKN017 BKN200 27/19 Q1014 A2985@CAELT@HR61 AC NOSIG=@CAELT@
ZPX0194 151057@CAELT@GG SLZZYMYT@CAELT@151056 SLTRYGYZ@CAELT@SABO SLTR 151100@CAELT@METAR SLTR 151100Z 00000KT 5000 FU FEW080 SCT200 25/23 Q1011 A2986@CAELT@992.8 HR89 TEMPO 3000=@CAELT@
ZPX0195 151057@CAELT@GG SLZZYMYT@CAELT@151057 SLLPYGYZ@CAELT@SABO SLLP 151100@CAELT@METAR SLLP 151100Z 02004KT 9999 FEW013 BKN200 03/M01 Q1038@CAELT@A3066 628.2 HR71 P4350 FU NOSIG=@CAELT@
ZPX0196 151058@CAELT@GG SLZZYMYT@CAELT@151058 SLCAYGYS@CAELT@SABO SLCA 151100@CAELT@METAR SLCA 151100Z 18004KT 9999 BKN036 OVC070 23/15 Q1020 A3012 HR63@CAELT@FU RWY NML=@CAELT@
ZPX0197 151059@CAELT@GG SLZZYMYT@CAELT@151058 SLSBYSYX@CAELT@SABO SLSB 151100@CAELT@METAR SLSB 151100Z 00000KT 5000 FU NSC 23/22 Q1009 A2981 HR95 RWY NML=@CAELT@
ZPX0201 151100@CAELT@GG SLZZYMYT@CAELT@151100 SLTRYGYS@CAELT@SABO SLTR 151100@CAELT@METAR SLTR 151100Z 00000KT 5000 FU FEW080 SCT200 25/23 Q1011 A2986@CAELT@992.8 HR89 TEMPO 3000=@CAELT@METAR SLGM 151100Z 02006KT 4000 FU BKN080 24/24 Q1012 A2988 HR98=@CAELT@METAR SLRI 151100Z 36006KT 5000 FU BKN080 BKN200 25/23 Q1012@CAELT@A2990 HR87=METAR SLJO 151100Z NIL=METAR SLRA 151100Z 36004KT 5000 FU SCT020 BKN080 25/22 Q1010 A2983HR82 RWY NML=METAR SLMG 151100Z NIL=METAR SLBU 151100Z NIL=METAR SLSA 151100Z 00000KT 5000 FU SCT080 BKN200 24/23 Q1010 A2985HR92=METAR SLSR 151100Z 00000KT 8000 FU NSC 24/23 Q1009 A2980 HR93 CIRWY NML=METAR SLSM 151100Z 00000KT 3000 FU NSC 24/23 Q1010 A2984 HR92 CI
ZPX0202 151100@CAELT@GG SLZZYMYT@CAELT@151100 SLCBYGYS@CAELT@SABO SLCB 151100@CAELT@METAR SLCB 151100Z 00000KT 5000 FU NSC 12/09 Q1026 A3031 752.6 HR84@CAELT@FU CI NOSIG=@CAELT@METAR SLAL 151100Z 13009KT 9999 FEW005 OVC070 09/07 Q1032 A3049 705.8@CAELT@HR87=@CAELT@METAR SLVM 151100Z 18006KT 7000 FEW023 BKN070 20/19 Q1019 A3009 HR94FU CI=
ZPX0203 151100@CAELT@GG SLZZYMYT@CAELT@151100 SLYAYGYS@CAELT@SABO SLYA 151100@CAELT@METAR SLYA 151100Z 21012KT 9999 SCT020 BKN070 18/15 Q1019 A3011 944.0@CAELT@HR78 FU=@CAELT@
ZPX0205 151101@CAELT@GG SLZZYMYT@CAELT@151100 SLVRYGYS@CAELT@SABO SLVR 151100@CAELT@METAR SLVR 151100Z 23009KT 4000 FU SCT020 BKN200 25/21 Q1013 A2994@CAELT@HR78 NOSIG=@CAELT@METAR SLET 151100Z 18015KT 3500 FU BKN017 BKN200 27/19 Q1014 A2985@CAELT@HR61 AC NOSIG=@CAELT@METAR SLAS 151100Z 00000KT 0200 FU NSC 26/23 Q1014 A2994 HR85RWY NML=METAR SLJV 151100Z 00000KT 0100 FU NSC 20/19.Q1013 A2991 HR79METAR SLCP 151100Z 00000KT 0500 FU SCT070 23/21 Q1016 A3000HR84 RWY NML=METAR SLSI 151100Z 00000KT 1000 FU NSC 26/21 Q1013 A2991 HR73METAR SLTI 151100Z 36008KT 7000 NSC 27/20 Q1016 A3000 HR69FU RWY NML=METAR SLJE 151100Z 00000KT 0500 FU NSC 26/23 Q1015 A2997 HR85METAR SLVG 151100Z 18004KT 4000 FU BKN020 16/12 Q1026 A3030 HR76METAR SLRB 151100Z 36004KT 3000 FU FEW070 27/23 Q1013 A2991 HR73METAR SLPS 151100Z 09004KT 4000 FU SCT017 FEW030CB OVC200 27/24Q1011 A2986 HR87 CB/SE/E=METAR SLCA 151100Z 18004KT 9999 BKN036 OVC070 23/15 Q1020 A3012HR63 FU RWY NML=
ZPX0206 151102@CAELT@GG SLZZYMYT@CAELT@151102 SLCBYGYS@CAELT@SABO SLCB 151100@CAELT@METAR SLCB 151100Z 00000KT 5000 FU NSC 12/09 Q1026 A3031 752.6 HR84@CAELT@FU CI NOSIG=@CAELT@METAR SLAL 151100Z 13009KT 9999 FEW005 OVC070 09/07 Q1032 A3049 705.8@CAELT@HR87=@CAELT@METAR SLVM 151100Z 18006KT 7000 FEW023 BKN070 20/19 Q1019 A3009 HR94FU CI=METAR SLYA 151100Z 21012KT 9999 SCT020 BKN070 18/15 Q1019 A3011 944.0HR78 FU=
ZPX0209 151103@CAELT@GG SLZZYMYT@CAELT@151100 SLLPYFYA@CAELT@SABO SLLP 151100@CAELT@METAR SLLP 151100Z 02004KT 9999 FEW013 BKN200 03/M01 Q1038@CAELT@A3066 628.2 HR71 P4350 FU NOSIG=@CAELT@METAR SLCO 151100Z 00000KT 2000 FU OVC080 23/23 Q1011 A2988@CAELT@984.5 HR97=@CAELT@METAR SLRY 151100Z 00000KT 7000 FEW080 SCT200 22/22 Q1007A2976 HR97 FU RWY NML=METAR SLRQ 151100Z 00000KT 5000 FU SCT080 BKN200 23/22 Q1010A2984 986.5 HR98=METAR SLAP 151100Z 00000KT 5000 FU FEW030 SCT200 16/14 Q1019A3010 859.8 HR90 AC=METAR SLSB 151100Z 00000KT 5000 FU NSC 23/22 Q1009 A2981HR95 RWY NML=METAR SLOR 151100Z 36003KT 3000E FU NSC 05/01 Q1035 A3058656.2 HR78 VIS RED NE/E/SE RESTO 8000 CI=METAR SLUY 151100Z 00000KT 9999 FEW020 BKN200 03/M01 Q1034A3055 658.6 HR73 FU AC=
ZPX0210 151103@CAELT@GG SLZZYMYT@CAELT@151101 SLLPYFYA@CAELT@SABO SLRY 151100 CCA@CAELT@METAR COR SLRY 151100Z 00000KT 7000 FEW080 SCT200 22/22 Q1007@CAELT@A2976 HR97 FU RWY NML=@CAELT@
ZPX0214 151110@CAELT@GG SLZZYMYT@CAELT@151110 SLCBYGYS@CAELT@SABO SLCB 151100@CAELT@METAR SLCB 151100Z 00000KT 5000 FU NSC 12/09 Q1026 A3031 752.6 HR84@CAELT@FU CI NOSIG=@CAELT@METAR SLAL 151100Z 13009KT 9999 FEW005 OVC070 09/07 Q1032 A3049 705.8@CAELT@HR87=@CAELT@METAR SLVM 151100Z 18006KT 7000 FEW023 BKN070 20/19 Q1019 A3009 HR94FU CI=METAR SLBJ 151100Z 00000KT 8000 NSC 18/17 Q1012 A2988 HR80 FU=METAR SLYA 151100Z 21012KT 9999 SCT020 BKN070 18/15 Q1019 A3011 944.0HR78 FU=
ZPX0221 151114@CAELT@GG SLZZYMYT@CAELT@151112 SLTRYGYS@CAELT@SABO SLTR 151100 RRA@CAELT@METAR SLTR 151100Z 00000KT 5000 FU FEW080 SCT200 25/23 Q1011 A2986@CAELT@992.8 HR89 TEMPO 3000=@CAELT@METAR SLGM 151100Z 02006KT 4000 FU BKN080 24/24 Q1012 A2988 HR98=@CAELT@METAR SLRI 151100Z 36006KT 5000 FU BKN080 BKN200 25/23 Q1012@CAELT@A2990 HR87=METAR SLJO 151100Z NIL=METAR SLRA 151100Z 36004KT 5000 FU SCT020 BKN080 25/22 Q1010 A2983HR82 RWY NML=METAR RTD SLMG 151100Z 00000KT 6000 BKN080 24/23 Q1010 A2983 HR93FU RWY NML=METAR SLBU 151100Z NIL=METAR SLSA 151100Z 00000KT 5000 FU SCT080 BKN200 24/23 Q1010 A2985HR92=METAR SLSR 151100Z 00000KT 8000 FU NSC 24/23 Q1009 A2980 HR93 CIRWY NML=METAR SLSM 151100Z 00000KT 3000 FU NSC 24/23 Q1010 A2984 HR92 CI
ZPX0251 151152@CAELT@GG SLZZYMYT@CAELT@151152 SLPSYGYS@CAELT@SABO SLPS 151200@CAELT@METAR SLPS 151200Z 09004KT 5000 FU BKN017 FEW030CB OVC200 28/24 Q1012@CAELT@A2989 HR80 CB/S=@CAELT@
ZPX0252 151153@CAELT@GG SLZZYMYT@CAELT@151153 SLSBYSYX@CAELT@SABO SLSB 151200@CAELT@METAR SLSB 151200Z 00000KT 5000 FU NSC 25/24 Q1010 A2984 HR91 RWY NML=@CAELT@
ZPX0253 151154@CAELT@GG SLZZYMYT@CAELT@151155 SLVRYGYZ@CAELT@SABO SLVR 151200@CAELT@METAR SLVR 151200Z 20011KT 4000 FU SCT020 BKN200 28/18 Q1014 A2996@CAELT@HR57 NOSIG=@CAELT@
ZPX0254 151154@CAELT@GG SLZZYMYT@CAELT@151154 SLRBYGYS@CAELT@SABO SLRB 151200@CAELT@METAR SLRB 151200Z 36006KT 2500 FU SCT070 29/24 Q1014 A2994 HR72 RWY@CAELT@NML=@CAELT@
ZPX0255 151154@CAELT@GG SLZZYMYT@CAELT@151154 SLETYMYC@CAELT@SABO SLET 151200@CAELT@METAR SLET 151200Z 17015KT 4000 FU SCT017 BKN200 29/17 Q1015 A2997@CAELT@HR48 AC NOSIG=@CAELT@
ZPX0256 151155@CAELT@GG SLZZYMYT@CAELT@151155 SLCOYGYZ@CAELT@SABO SLCO 151200@CAELT@METAR SLCO 151200Z 00000KT 3000 FU BKN080 24/23 Q1013 A2992 985.9@CAELT@HR92=@CAELT@
ZPX0257 151155@CAELT@GG SLZZYMYT@CAELT@151155 SLCAYGYS@CAELT@SABO SLCA 151200@CAELT@METAR SLCA 151200Z 18004KT 8000 BKN036 OVC070 23/16 Q1021 A3015 HR65@CAELT@FU RWY NML=@CAELT@
ZPX0258 151155@CAELT@GG SLZZYMYT@CAELT@151155 SLSAYGYS@CAELT@SABO SLSA 151200@CAELT@METAR SLSA 151200Z 32005KT 5000 FU BKN080 26/23 Q1012 A2989 HR84=@CAELT@
ZPX0259 151155@CAELT@GG SLZZYMYT@CAELT@151157 SLLPYGYZ@CAELT@SABO SLLP 151200@CAELT@METAR SLLP 151200Z VRB02KT 9999 FEW015 BKN200 07/01 Q1039@CAELT@A3069 628.7 HR65 P4350 FU NOSIG=@CAELT@
ZPX0260 151156@CAELT@GG SLZZYMYT@CAELT@151155 SLORYGYZ@CAELT@SABO SLOR 151200@CAELT@METAR SLOR 151200Z 36006KT 9999 NSC 08/00 Q1036 A3061 656.9 HR56 FU=@CAELT@
ZPX0261 151156@CAELT@GG SLZZYMYT@CAELT@151155 SLRQYSYX@CAELT@SABO SLRQ 151200@CAELT@METAR SLRQ 151200Z 00000KT 5000 FU NSC 25/24 Q1012 A2989 988.0 HR92@CAELT@
ZPX0262 151157@CAELT@GG SLZZYMYT@CAELT@151156 SLUYYGYS@CAELT@SABO SLUY 151200@CAELT@METAR SLUY 151200Z 00000KT 9999 FEW020 BKN200 07/M02 Q1035 A3057@CAELT@659.2 HR52 FU AC=@CAELT@
ZPX0263 151157@CAELT@GG SLZZYMYT@CAELT@151156 SLTRYGYZ@CAELT@SABO SLTR 151200@CAELT@METAR SLTR 151200Z 32004KT 5000 FU FEW080 SCT200 27/24 Q1012@CAELT@A2990 994.0 HR82 NOSIG=@CAELT@
ZPX0264 151157@CAELT@GG SLZZYMYT@CAELT@151156 SLTJYGYZ@CAELT@SABO SLTJ 151200@CAELT@METAR SLTJ 151200Z 00000KT 7000 BKN023 OVC070 15/12 Q1024 A3026 818.8@CAELT@HR82 FU=@CAELT@
ZPX0266 151157@CAELT@GG SLZZYMYT@CAELT@151155 SLAGYSYX@CAELT@SABO SLAG 151200@CAELT@METAR SLAG 151200Z 20005KT 4000 FU FEW015 FEW030CB BKN070 BKN200 21/@CAELT@13 Q1022 A3018 893.6 HR60 CB/E=@CAELT@
ZPX0268 151158@CAELT@GG SLZZYMYT@CAELT@151157 SLVRYGYS@CAELT@SABO SLVR 151200@CAELT@METAR SLVR 151200Z 20011KT 4000 FU SCT020 BKN200 28/18 Q1014 A2996@CAELT@HR57 NOSIG=@CAELT@METAR SLET 151200Z 17015KT 4000 FU SCT017 BKN200 29/17 Q1015 A2997@CAELT@HR48 AC NOSIG=@CAELT@METAR SLAS 151200Z 00000KT 0200 FU NSC 28/23 Q1014 A2994 HR72RWY NML=METAR SLJV 151200Z 00000KT 0100 FU NSC 24/20 Q1013 A2991 HR77METAR SLCP 151200Z 00000KT 0300 FU SCT070 25/22 Q1016 A3000HR81 RWY NML=METAR SLSI 151200Z 00000KT 1000 FU NSC 28/21 Q1013 A2991 HR65 RWY NMLMETAR SLTI 151200Z 36010KT 7000 NSC 29/21 Q1017 A3003 HR62 FU RWY NMLMETAR SLJE 151200Z 00000KT 0500 FU NSC 27/23 Q1016 A3000 HR78 RWY NMLMETAR SLVG 151200Z 18004KT 3000 FU OVC017 17/13 Q1027 A3033HR76 RWY NML=METAR SLRB 151200Z 36006KT 2500 FU SCT070 29/24 Q1014 A2994 HR72METAR SLPS 151200Z 09004KT 5000 FU BKN017 FEW030CB OVC200 28/24Q1012 A2989 HR80 CB/S=METAR SLCA 151200Z 18004KT 8000 BKN036 OVC070 23/16 Q1021 A3015HR65 FU RWY NML=
ZPX0270 151158@CAELT@GG SLZZYMYT@CAELT@151157 SLCBYGYZ@CAELT@SABO SLCB 151200@CAELT@METAR SLCB 151200Z 29004KT 8000 FEW033 16/09 Q1027 A3035 753.5 HR63@CAELT@AC FU CI NOSIG=@CAELT@
ZPX0271 151158@CAELT@GG SLZZYMYT@CAELT@151157 SLLPYFYA@CAELT@SABO SLRY 151200@CAELT@METAR SLRY 151200Z 00000T 7000 NSC 25/23 Q1008@CAELT@A2979 HR90 FU CI RWY NML=@CAELT@
ZPX0274 151201@CAELT@GG SLZZYMYT@CAELT@151200 SLTRYGYS@CAELT@SABO SLTR 151200@CAELT@METAR SLTR 151200Z 32004KT 5000 FU FEW080 SCT200 27/24 Q1012 A2990@CAELT@994.0 HR82 NOSIG=@CAELT@METAR SLGM 151200Z 02006KT 5000 FU BKN080 25/24 Q1012 A2990 HR93=@CAELT@METAR SLRI 151200Z 36006KT 5000 FU SCT020 BKN080 BKN200 26/23 Q1013@CAELT@A2993 HR85=METAR SLJO 151200Z NIL=METAR SLRA 151200Z 36006KT 5000 FU BKN080 26/24 Q1011 A2986 HR92RWY NML=METAR SLMG 151200Z 00000KT 5000 FU BKN080 26/23 Q1011 A2987 HR81METAR SLBU 151200Z 00000KT 6000 BKN080 25/22 Q1011 A2988 HR82 FUMETAR SLSA 151200Z 32005KT 5000 FU BKN080 26/23 Q1012 A2989 HR84=METAR SLSR 151200Z 00000KT 8000 FU NSC 26/23 Q1010 A2984 HR88 CIMETAR SLSM 151200Z 00000KT 3000 FU SCT080 SC200 26/23 Q1012 A2989HR85 RWY NML=
ZPX0277 151201@CAELT@GG SLZZYMYT@CAELT@151201 SLCBYGYS@CAELT@SABO SLCB 151200@CAELT@METAR SLCB 151200Z 29004KT 8000 FEW033 16/09 Q1027 A3035 753.5 HR63@CAELT@AC FU CI NOSIG=@CAELT@METAR SLAL 151200Z 23006KT 9999 FEW005 OVC070 09/06 Q1033 A3051 706.4@CAELT@HR79=@CAELT@METAR SLAG 151200Z 20005KT 4000 FU FEW015 FEW030CB BKN070 BKN200 21/13 Q1022 A3018 893.6 HR60 CB/E=METAR SLVM 151200Z 00000KT 6000 OVC070 20/19 Q1019 A3011 HR93 FU=METAR SLTJ 151200Z 00000KT 7000 BKN023 OVC070 15/12 Q1024 A3026 818.8HR82 FU=METAR SLYA 151200Z 21015KT 9999 SCT023 BKN070 19/14 Q1019 A3012 944.2HR71=METAR SLBJ 151200Z NIL=
ZPX0279 151204@CAELT@GG SLZZYMYT@CAELT@151200 SLLPYFYA@CAELT@SABO SLLP 151200@CAELT@METAR SLLP 151200Z VRB02KT 9999 FEW015 BKN200 07/01 Q1039@CAELT@A3069 628.7 HR65 P4350 FU NOSIG=@CAELT@METAR SLCO 151200Z 00000KT 3000 FU BKN080 24/23 Q1013 A2992 985.9@CAELT@HR92=@CAELT@METAR SLRY 151200Z 00000T 7000 NSC 25/23 Q1008A2979 HR90 FU CI RWY NML=METAR SLRQ 151200Z 00000KT 5000 FU NSC 25/24 Q1012 A2989 988.0 HR92METAR SLAP 151200Z 00000KT 3000 FU FEW025 SCT200 18/15 Q1020 A3012860.4 HR85=METAR SLSB 151200Z 00000KT 5000 FU NSC 25/24 Q1010 A2984 HR91 RWY NMLMETAR SLUY 151200Z 00000KT 9999 FEW020 BKN200 07/M02 Q1035 A3057659.2 HR52 FU AC=
ZPX0280 151204@CAELT@GG SLZZYMYT@CAELT@151204 SLCBYGYS@CAELT@SABO SLCB RTD 151200@CAELT@METAR SLCB 151200Z 29004KT 8000 FEW033 16/09 Q1027 A3035 753.5 HR63@CAELT@AC FU CI NOSIG=@CAELT@METAR SLAL 151200Z 23006KT 9999 FEW005 OVC070 09/06 Q1033 A3051 706.4@CAELT@HR79=@CAELT@METAR SLAG 151200Z 20005KT 4000 FU FEW015 FEW030CB BKN070 BKN200 21/13 Q1022 A3018 893.6 HR60 CB/E=METAR SLVM 151200Z 00000KT 6000 OVC070 20/19 Q1019 A3011 HR93 FU=METAR SLTJ 151200Z 00000KT 7000 BKN023 OVC070 15/12 Q1024 A3026 818.8HR82 FU=METAR SLYA 151200Z 21015KT 9999 SCT023 BKN070 19/14 Q1019 A3012 944.2HR71=METAR SLBJ RTD 151200Z 00000KT 8000 NSC 21/19 Q1018 A3006 HR90=
ZPX0283 151207@CAELT@GG SLZZYMYT@CAELT@151203 SLLPYFYA@CAELT@SABO SLLP 151200@CAELT@METAR SLLP 151200Z VRB02KT 9999 FEW015 BKN200 07/01 Q1039@CAELT@A3069 628.7 HR65 P4350 FU NOSIG=@CAELT@METAR SLCO 151200Z 00000KT 3000 FU BKN080 24/23 Q1013 A2992 985.9@CAELT@HR92=@CAELT@METAR SLRY 151200Z 00000KT 7000 NSC 25/23 Q1008A2979 HR90 FU CI RWY NML=METAR SLRQ 151200Z 00000KT 5000 FU NSC 25/24 Q1012 A2989 988.0 HR92METAR SLAP 151200Z 00000KT 3000 FU FEW025 SCT200 18/15 Q1020 A3012860.4 HR85=METAR SLSB 151200Z 00000KT 5000 FU NSC 25/24 Q1010 A2984 HR91 RWY NMLMETAR SLOR 151200Z 36006KT 9999 NSC 08/00 Q1036 A3061 656.9 HR56 FU=METAR SLUY 151200Z 00000KT 9999 FEW020 BKN200 07/M02 Q1035 A3057659.2 HR52 FU AC=
ZPX0316 151253@CAELT@GG SLZZYMYT@CAELT@151255 SLUYYGYS@CAELT@SABO SLUY 151300@CAELT@METAR SLUY 151300Z 00000KT 9999 SCT023 SCT200 10/01 Q1035 A3059@CAELT@659.5 HR53 FU AC=@CAELT@
ZPX0317 151254@CAELT@GG SLZZYMYT@CAELT@151254 SLPSYGYS@CAELT@SABO SLPS 151300@CAELT@METAR SLPS 151300Z 18010KT 5000 FU SCT017 FEW030CB OVC200 26/21 Q1013@CAELT@A2992 HR73 CB/S=@CAELT@
ZPX0318 151254@CAELT@GG SLZZYMYT@CAELT@151254 SLSAYGYS@CAELT@SABO SLSA 151300@CAELT@METAR SLSA 151300Z 32005KT 5000 FU BKN080 27/23 Q1012 A2990 HR80=@CAELT@
ZPX0320 151254@CAELT@GG SLZZYMYT@CAELT@151253 SLRBYGYS@CAELT@SABO SLRB 151300@CAELT@METAR SLRB 151300Z 36006KT 2500 FU SCT020 BKN070 30/23 Q1015 A2997@CAELT@HR71 RWY NML=@CAELT@
ZPX0321 151255@CAELT@GG SLZZYMYT@CAELT@151255 SLCOYGYZ@CAELT@SABO SLCO 151300@CAELT@METAR SLCO 151300Z 26004KT 5000 FU BKN080 26/23 Q1014 A2995 986.7@CAELT@HR87=@CAELT@
ZPX0322 151255@CAELT@GG SLZZYMYT@CAELT@151254 SLCAYGYS@CAELT@SABO SLCA 151300@CAELT@METAR SLCA 151300Z 18004KT 8000 BKN033 OVC070 21/16 Q1021 A3015 HR73@CAELT@FU RWY NML=@CAELT@
ZPX0323 151255@CAELT@GG SLZZYMYT@CAELT@151255 SLRQYSYX@CAELT@SABO SLRQ 151300@CAELT@METAR SLRQ 151300Z 36004KT 5000 FU NSC 28/24 Q1013 A2992 989.0 HR80@CAELT@
ZPX0324 151255@CAELT@GG SLZZYMYT@CAELT@151255 SLLPYGYZ@CAELT@SABO SLLP 151300@CAELT@METAR SLLP 151300Z 12008KT 9999 FEW015 SCT200 09/01 Q1039@CAELT@A3069 628.9 HR57 P93// HZ SW/W/NW FU AC NOSIG=@CAELT@
ZPX0325 151256@CAELT@GG SLZZYMYT@CAELT@151255 SLETYMYC@CAELT@SABO SLET 151300@CAELT@METAR SLET 151300Z 17014G25KT 4000 FU SCT023 BKN200 30/16 Q1015 A2999@CAELT@HR43 AC NOSIG=@CAELT@
ZPX0326 151256@CAELT@GG SLZZYMYT@CAELT@151255 SLAGYSYX@CAELT@SABO SLAG 151300@CAELT@METAR SLAG 151300Z 18007KT 4000 FU FEW015 FEW030CB BKN070 BKN200 22/@CAELT@13 Q1022 A3018 893.7 HR58 CB E/SE=@CAELT@
ZPX0327 151256@CAELT@GG SLZZYMYT@CAELT@151256 SLCBYGYZ@CAELT@SABO SLCB 151300@CAELT@METAR SLCB 151300Z 30003KT 9999 FEW033 SCT090 18/08 Q1028 A3036 753.8@CAELT@HR51 FU CI NOSIG=@CAELT@
ZPX0328 151257@CAELT@GG SLZZYMYT@CAELT@151256 SLTRYGYZ@CAELT@SABO SLTR 151300@CAELT@METAR SLTR 151300Z 33004KT 5000 FU SCT080 BKN200 29/24 Q1013@CAELT@A2993 995.0 HR75 TEMPO 3000=@CAELT@
ZPX0329 151258@CAELT@GG SLZZYMYT@CAELT@151258 SLVRYGYZ@CAELT@SABO SLVR 151300@CAELT@METAR SLVR 151300Z 18010G21KT 4000 FU SCT020 BKN200 29/18 Q1015 A2998@CAELT@HR52 AC NOSIG=@CAELT@
ZPX0330 151258@CAELT@GG SLZZYMYT@CAELT@151257 SLORYGYZ@CAELT@SABO SLOR 151300@CAELT@METAR SLOR 151300Z 35004KT 9999 FEW017 11/02 Q1036 A3061 657.0 HR52@CAELT@AC FU=@CAELT@
ZPX0331 151258@CAELT@GG SLZZYMYT@CAELT@151257 SLTJYGYZ@CAELT@SABO SLTJ 151300@CAELT@METAR SLTJ 151300Z 15004KT 7000 BKN023 BKN070 15/12 Q1024 A3026 818.8@CAELT@HR82 FU CI=@CAELT@
ZPX0332 151258@CAELT@GG SLZZYMYT@CAELT@151258 SLVRYGYS@CAELT@SABO SLVR 151300@CAELT@METAR SLVR 151300Z 18010G21KT 4000 FU SCT020 BKN200 29/18 Q1015 A2998@CAELT@HR52 AC NOSIG=@CAELT@METAR SLET 151300Z 17014G25KT 4000 FU SCT023 BKN200 30/16 Q1015 A2999@CAELT@HR43 AC NOSIG=@CAELT@METAR SLAS 151300Z 36003KT 0400 FU NSC 31/23 Q1014 A2994 HR65 RWY NMLMETAR SLJV 151300Z 00000KT 0200 FU NSC 26/21 Q1014 A2994 HR72 RWY NMLMETAR SLCP 151300Z 00000KT 0300 FU FEW070 29/22 Q1017 A3003 HR67 RWYNML=METAR SLSI 151300Z 33006KT 1000 FU NSC 30/23 Q1014 A2994 HR62 RWY NMLMETAR SLTI 151300Z 36010KT 7000 NSC 32/21 Q1017 A3003 HR52 FU RWY NMLMETAR SLJE 151300Z 00000KT 0500 FU SCT070 30/22 Q1016 A3000 HR64 RWYMETAR SLVG 151300Z 18005KT 3000 FU OVC017 17/13 Q1027 A3033 HR76 RWYMETAR SLRB 151300Z 36006KT 2500 FU SCT020 BKN070 30/23 Q1015 A2997HR71 RWY NML=METAR SLPS 151300Z 18010KT 5000 FU SCT017 FEW030CB OVC200 26/21 Q1013A2992 HR73 CB/S=METAR SLCA 151300Z 18004KT 8000 BKN033 OVC070 21/16 Q1021 A3015 HR73FU RWY NML=
ZPX0333 151259@CAELT@GG SLZZYMYT@CAELT@151258 SLSBYSYX@CAELT@SABO SLSB 151300@CAELT@METAR SLSB 151300Z 00000KT 5000 FU SCT080 28/24 Q1010 A2985 HR85@CAELT@RWY NML=@CAELT@
ZPX0336 151300@CAELT@GG SLZZYMYT@CAELT@151300 SLCBYGYS@CAELT@SABO SLCB 151300@CAELT@METAR SLCB 151300Z 30003KT 9999 FEW033 SCT090 18/08 Q1028 A3036 753.8@CAELT@HR51 FU CI NOSIG=@CAELT@METAR SLAL 151300Z 24008KT 9999 FEW007 BKN070 10/09 Q1034 A3053 706.9@CAELT@HR93=@CAELT@METAR SLAG 151300Z 18007KT 4000 FU FEW015 FEW030CB BKN070 BKN200 22/13 Q1022 A3018 893.7 HR58 CB E/SE=METAR SLVM 151300Z 18008KT 8000 OVC070 21/19 Q1020 A3012 HR85 FU=METAR SLTJ 151300Z 15004KT 7000 BKN023 BKN070 15/12 Q1024 A3026 818.8HR82 FU CI=METAR SLYA 151300Z 21015KT 9999 SCT023 21/15 Q1020 A3013 944.5 HR69AC CI=METAR SLBJ 151300Z 17015KT 8000 NSC 23/19 Q1018 A3006 HR88=
ZPX0337 151300@CAELT@GG SLZZYMYT@CAELT@151300 SLTRYGYS@CAELT@SABO SLTR 151300@CAELT@METAR SLTR 151300Z 33004KT 5000 FU SCT080 BKN200 29/24 Q1013@CAELT@A2993 995.0 HR75 TEMPO 3000=@CAELT@METAR SLGM 151300Z 36006KT 5000 FU FEW020 BKN080 27/24 Q1013 A2992@CAELT@HR86=@CAELT@METAR SLRI 151300Z 09006KT 5000 FU SCT020 BKN080 BKN200 26/23Q1014 A2996 HR79=METAR SLJO 151300Z NIL=METAR SLRA 151300Z 36006KT 5000 FU BKN080 28/23 Q1012 A2990 HR75RWY NML=METAR SLMG 151300Z 32006KT 5000 FU BKN080 29/24 Q1012 A2989 HR76METAR SLBU 151300Z 00000KT 6000 BKN080 27/23 Q1012 A2989 HR78 FUMETAR SLSA 151300Z 32005KT 5000 FU BKN080 27/23 Q1012 A2990 HR80=METAR SLSR 151300Z 32006KT 8000 BKN200 29/23 Q1011 A2986 HR72 FU CIMETAR SLSM 151300Z 35004KT 5000 FU SCT080 BKN200 28/24 Q1013 A2992HR81 RWY NML=
ZPX0342 151309@CAELT@GG SLZZYMYT@CAELT@151300 SLLPYFYA@CAELT@SABO SLRY 151300@CAELT@METAR SLRY 151300Z 00000KT 7000 NSC 28/24 Q1009@CAELT@A2982 HR79 FU CI RWY NML=@CAELT@
ZPX0343 151311@CAELT@GG SLZZYMYT@CAELT@151301 SLLPYFYA@CAELT@SABO SLLP 151300@CAELT@METAR SLLP 151300Z 12008KT 9999 FEW015 SCT200 09/01 Q1039@CAELT@A3069 628.9 HR57 P93// HZ SW/W/NW FU AC NOSIG=@CAELT@METAR SLCO 151300Z 26004KT 5000 FU BKN080 26/23 Q1014 A2995 986.7@CAELT@HR87=@CAELT@METAR SLRY 151300Z 00000KT 7000 NSC 28/24 Q1009A2982 HR79 FU CI RWY NML=METAR SLRQ 151300Z 36004KT 5000 FU NSC 28/24 Q1013 A2992 989.0 HR80METAR SLAP 151300Z 00000KT 5000 FU NSC 23/15 Q1020 A3014 860.9 HR64CI=METAR SLSB 151300Z 00000KT 5000 FU SCT080 28/24 Q1010 A2985 HR85RWY NML=METAR SLOR 151300Z 35004KT 9999 FEW017 11/02 Q1036 A3061 657.0 HR52AC FU=METAR SLUY 151300Z 00000KT 9999 SCT023 SCT200 10/01 Q1035 A3059659.5 HR53 FU AC=
ZPX0374 151354@CAELT@GG SLZZYMYT@CAELT@151355 SLORYGYZ@CAELT@SABO SLOR 151400@CAELT@METAR SLOR 151400Z 34005KT 9999 FEW020 14/04 Q1036 A3060 656.8 HR50@CAELT@
ZPX0375 151354@CAELT@GG SLZZYMYT@CAELT@151354 SLSAYGYS@CAELT@SABO SLSA 151400@CAELT@METAR SLSA 151400Z 32005KT 5000 FU FEW020 BKN080 29/24 Q1012 A2990@CAELT@HR76=@CAELT@
ZPX0377 151354@CAELT@GG SLZZYMYT@CAELT@151355 SLRQYSYX@CAELT@SABO SLRQ 151400@CAELT@METAR SLRQ 151400Z 00000KT 5000 FU SCT080 SCT200 30/25 Q1013 A2992@CAELT@989.0 HR76=@CAELT@
ZPX0378 151354@CAELT@GG SLZZYMYT@CAELT@151355 SLUYYGYS@CAELT@SABO SLUY 151400@CAELT@METAR SLUY 151400Z 31009KT 9999 FEW025 12/01 Q1035 A3057 659.2@CAELT@HR47 FU AC/CI=@CAELT@
ZPX0379 151354@CAELT@GG SLZZYMYT@CAELT@151354 SLCAYGYS@CAELT@SABO SLCA 151400@CAELT@METAR SLCA 151400Z 00000KT 8000 BKN033 OVC070 22/16 Q1021 A3015 HR69@CAELT@FU RWY NML=@CAELT@
ZPX0380 151355@CAELT@GG SLZZYMYT@CAELT@151353 SLETYMYC@CAELT@SABO SLET 151400@CAELT@METAR SLET 151400Z 17013G25KT 4000 FU SCT023 BKN070 30/17 Q1015 A3000@CAELT@HR47 CI NOSIG=@CAELT@
ZPX0382 151356@CAELT@GG SLZZYMYT@CAELT@151355 SLSBYSYX@CAELT@SABO SLSB 151400@CAELT@METAR SLSB 151400Z 00000KT 5000 FU BKN080 31/24 Q1011 A2986 HR68@CAELT@RWY NML=@CAELT@
ZPX0383 151356@CAELT@GG SLZZYMYT@CAELT@151355 SLAGYSYX@CAELT@SABO SLAG 151400@CAELT@METAR SLAG 151400Z 18004KT 4000 FU FEW017 FEW030CB BKN070 BKN200 24/@CAELT@14 Q1021 A3017 893.3 HR53 CB/SE=@CAELT@
ZPX0384 151357@CAELT@GG SLZZYMYT@CAELT@151356 SLTRYGYZ@CAELT@SABO SLTR 151400@CAELT@METAR SLTR 151400Z 33008KT 5000 FU SCT080 BKN200 31/23 Q1013@CAELT@A2993 995.0 HR61 NOSIG=@CAELT@
ZPX0385 151357@CAELT@GG SLZZYMYT@CAELT@151355 SLLPYGYZ@CAELT@SABO SLLP 151400@CAELT@METAR SLLP 151400Z 08017KT 9999 FEW017 FEW020CB SCT200 12/00@CAELT@Q1039 A3069 628.8 HR46 P1483 CB/NE HZ SW/NW FU AC NOSIG=@CAELT@
ZPX0386 151358@CAELT@GG SLZZYMYT@CAELT@151357 SLTJYGYZ@CAELT@SABO SLTJ 151400@CAELT@METAR SLTJ 151400Z 00000KT 5000 FU BKN023 BKN070 17/12 Q1024 A3025@CAELT@818.5 HR71 CI=@CAELT@
ZPX0390 151358@CAELT@GG SLZZYMYT@CAELT@151358 SLVRYGYZ@CAELT@SABO SLVR 151400@CAELT@METAR SLVR 151400Z 17010G21KT 4000 FU SCT020 BKN200 31/19 Q1015 A2999@CAELT@HR48 AC NOSIG=@CAELT@
ZPX0391 151359@CAELT@GG SLZZYMYT@CAELT@151358 SLCBYGYZ@CAELT@SABO SLCB 151400@CAELT@METAR SLCB 151400Z 30005KT 9999 FEW036 SCT080 19/07 Q1028 A3036 753.8@CAELT@HR45 FU CI NOSIG=@CAELT@
ZPX0392 151359@CAELT@GG SLZZYMYT@CAELT@151359 SLVRYGYS@CAELT@SABO SLVR 151400@CAELT@METAR SLVR 151400Z 17010G21KT 4000 FU SCT020 BKN200 31/19 Q1015 A2999@CAELT@HR48 AC NOSIG=@CAELT@METAR SLET 151400Z 17013G25KT 4000 FU SCT023 BKN070 30/17 Q1015 A3000@CAELT@HR47 CI NOSIG=@CAELT@METAR SLAS 151400Z 36006KT 0500 FU NSC 33/24 Q1015 A2997 HR59 RWY NMLMETAR SLJV 151400Z 00000KT 0500 FU NSC 27/21 Q1014 A2994 HR70 RWY NMLMETAR SLCP 151400Z 30010KT 0500 FU SCT070 31/21 Q1017 A3003 HR57 RWYNML=METAR SLSI 151400Z 36006KT 1000 FU NSC 33/23 Q1015 A2997 HR55 RWY NMLMETAR SLTI 151400Z 36012KT 7000 FEW070 35/21 Q1016 A3000 HR43 FU RWYMETAR SLJE 151400Z 00000KT 0500 FU SCT070 30/22 Q1017 A3003 HR63 RWYMETAR SLVG 151400Z 18005KT 3000 FU BKN017 OVC070 17/13 Q1028 A3036HR72 RWY NML=METAR SLRB 151400Z 00000KT 2500 FU SCT020 BKN070 30/23 Q1016 A3000HR67 RWY NML=METAR SLPS 151400Z 18008KT 5000 FU SCT017 OVC200 25/21 Q1013 A2992HR75=METAR SLCA 151400Z 00000KT 8000 BKN033 OVC070 22/16 Q1021 A3015 HR69FU RWY NML=
ZPX0393 151359@CAELT@GG SLZZYMYT@CAELT@151358 SLLPYFYA@CAELT@SABO SLRY 151400@CAELT@METAR SLRY 151400Z 00000KT 7000 BKN080 BKN200 31/24 Q1010@CAELT@A2985 HR69 FU RWY NML=@CAELT@
ZPX0394 151400@CAELT@GG SLZZYMYT@CAELT@151359 SLCOYGYZ@CAELT@SABO SLCO 151400@CAELT@METAR SLCO 151400Z 23008KT 7000 FEW023 BKN080 28/24 Q1014 A2996 987.2@CAELT@HR80 FU=@CAELT@
ZPX0396 151401@CAELT@GG SLZZYMYT@CAELT@151359 SLTRYGYS@CAELT@SABO SLTR 151400@CAELT@METAR SLTR 151400Z 33008KT 5000 FU SCT080 BKN200 31/23 Q1013@CAELT@A2993 995.0 HR61 NOSIG=@CAELT@METAR SLGM 151400Z 36010KT 7000 FEW017 BKN080 29/25 Q1014 A2994@CAELT@HR79 FU=@CAELT@METAR SLRI 151400Z 00000KT 5000 FU SCT020 BKN080 BKN200 28/23Q1015 A2997 HR76=METAR SLJO 151400Z NIL=METAR SLRA 151400Z 36008KT 5000 FU BKN080 31/22 Q1012 A2990 HR61RWY NML=METAR SLMG 151400Z 32004KT 5000 FU BKN080 31/23 Q1012 A2990 HR60METAR SLBU 151400Z 00000KT 6000 BKN080 30/24 Q1012 A2991 HR71 FUMETAR SLSA 151400Z 32005KT 5000 FU FEW020 BKN080 29/24 Q1012 A2990HR76=METAR SLSR 151400Z 32006KT 8000 NSC 30/23 Q1011 A2987 HR66 FU CIMETAR SLSM 151400Z 35004KT 5000 FU SCT080 BKN200 28/24 Q1013 A2993HR78 RWY NML=
ZPX0397 151401@CAELT@GG SLZZYMYT@CAELT@151400 SLLPYFYA@CAELT@SABO SLLP 151400@CAELT@METAR SLLP 151400Z 08017KT 9999 FEW017 FEW020CB SCT200 12/00@CAELT@Q1039 A3069 628.8 HR46 P1483 CB/NE HZ SW/NW FU AC NOSIG=@CAELT@METAR SLCO 151400Z 23008KT 7000 FEW023 BKN080 28/24 Q1014 A2996 987.2@CAELT@HR80 FU=@CAELT@METAR SLRY 151400Z 00000KT 7000 BKN080 BKN200 31/24 Q1010A2985 HR69 FU RWY NML=METAR SLRQ 151400Z 00000KT 5000 FU SCT080 SCT200 30/25 Q1013 A2992989.0 HR76=METAR SLAP 151400Z 00000KT 5000 FU NSC 27/14 Q1021 A3016 861.4 HR46CI=METAR SLSB 151400Z 00000KT 5000 FU BKN080 31/24 Q1011 A2986 HR68RWY NML=METAR SLOR 151400Z 34005KT 9999 FEW020 14/04 Q1036 A3060 656.8 HR50METAR SLUY 151400Z 31009KT 9999 FEW025 12/01 Q1035 A3057 659.2HR47 FU AC/CI=
ZPX0401 151405@CAELT@GG SLZZYMYT@CAELT@151402 SLCBYGYS@CAELT@SABO SLCB 151400@CAELT@METAR SLCB 151400Z 30005KT 9999 FEW036 SCT080 19/07 Q1028 A3036 753.8@CAELT@HR45 FU CI NOSIG=@CAELT@METAR SLAL 151400Z 21006KT 9999 SCT010 BKN070 11/08 Q1033 A3052 706.7@CAELT@HR82=@CAELT@METAR SLAG 151400Z 18004KT 4000 FU FEW017 FEW030CB BKN070 BKN200 24/14 Q1021 A3017 893.3 HR53 CB/SE=METAR SLVM 151400Z 18005KT 8000 OVC070 22/18 Q1019 A3012 HR78 FU=METAR SLTJ 151400Z 00000KT 5000 FU BKN023 BKN070 17/12 Q1024 A3025818.5 HR71 CI=METAR SLYA 151400Z 21012KT 9999 SCT023 22/15 Q1020 A3013 944.6 HR66AC CI=METAR SLBJ 151400Z 17010KT 9999 NSC 26/20 Q1018 A3009 HR77 FU CI=
ZPX0433 151452@CAELT@GG SLZZYMYT@CAELT@151452 SLPSYGYS@CAELT@SABO SLPS 151500@CAELT@METAR SLPS 151500Z 18010KT 5000 FU SCT017 OVC200 27/22 Q1014 A2995@CAELT@HR73=@CAELT@
ZPX0436 151455@CAELT@GG SLZZYMYT@CAELT@151455 SLVRYGYZ@CAELT@SABO SLVR 151500@CAELT@METAR SLVR 151500Z 20010G20KT 4000 FU SCT023 BKN070 30/18 Q1015 A2999@CAELT@HR48 CI NOSIG=@CAELT@
ZPX0437 151455@CAELT@GG SLZZYMYT@CAELT@151455 SLORYGYZ@CAELT@SABO SLOR 151500@CAELT@METAR SLOR 151500Z 01010KT 9999 SCT020 14/04 Q1035 A3058 656.3 HR49@CAELT@
ZPX0438 151455@CAELT@GG SLZZYMYT@CAELT@151455 SLRQYSYX@CAELT@SABO SLRQ 151500@CAELT@METAR SLRQ 151500Z 00000KT 5000 FU BKN080 BKN200 31/25 Q1013 A2991@CAELT@988.8 HR70=@CAELT@
ZPX0439 151455@CAELT@GG SLZZYMYT@CAELT@151455 SLSAYGYS@CAELT@SABO SLSA 151500@CAELT@METAR SLSA 151500Z 32005KT 5000 FU FEW020 BKN080 29/24 Q1013 A2992@CAELT@HR73=@CAELT@
ZPX0440 151455@CAELT@GG SLZZYMYT@CAELT@151455 SLCAYGYS@CAELT@SABO SLCA 151500@CAELT@METAR SLCA 151500Z 00000KT 9999 BKN033 OVC070 22/16 Q1021 A3015 HR68@CAELT@FU RWY NML=@CAELT@
ZPX0441 151456@CAELT@GG SLZZYMYT@CAELT@151456 SLETYMYC@CAELT@SABO SLET 151500@CAELT@METAR SLET 151500Z 17015G26KT 4000 FU SCT023 BKN070 31/17 Q1015 A3000@CAELT@HR43 CI NOSIG=@CAELT@
ZPX0442 151456@CAELT@GG SLZZYMYT@CAELT@151455 SLLPYGYZ@CAELT@SABO SLLP 151500@CAELT@METAR SLLP 151500Z 05015G25KT 9999 SCT017 FEW020CB BKN200@CAELT@11/00 Q1039 A3069 628.9 HR46 P2483 CB/E/SW FU AC NOSIG=@CAELT@
ZPX0443 151456@CAELT@GG SLZZYMYT@CAELT@151456 SLCBYGYZ@CAELT@SABO SLCB 151500@CAELT@METAR SLCB 151500Z 29006KT 9999 FEW036 SCT080 22/08 Q1027 A3033 753.1@CAELT@HR39 FU CI NOSIG=@CAELT@
ZPX0444 151457@CAELT@GG SLZZYMYT@CAELT@151456 SLSBYSYX@CAELT@SABO SLSB 151500@CAELT@METAR SLSB 151500Z 34004KT 5000 FU BKN080 31/25 Q1011 A2986 HR70@CAELT@RWY NML=@CAELT@
ZPX0445 151457@CAELT@GG SLZZYMYT@CAELT@151456 SLCOYGYZ@CAELT@SABO SLCO 151500@CAELT@METAR SLCO 151500Z 32004KT 9999 FEW023 BKN090 29/24 Q1014 A2996 987.2@CAELT@HR77 FU=@CAELT@
ZPX0446 151457@CAELT@GG SLZZYMYT@CAELT@151456 SLTRYGYZ@CAELT@SABO SLTR 151500@CAELT@METAR SLTR 151500Z 34010KT 5000 FU SCT080 BKN200 32/23 Q1013@CAELT@A2993 995.0 HR58 NOSIG=@CAELT@
ZPX0448 151458@CAELT@GG SLZZYMYT@CAELT@151500 SLUYYGYS@CAELT@SABO SLUY 151500@CAELT@METAR SLUY 151500Z 30009KT 9999 FEW027 FEW033CB 15/M01 Q1034 A3056@CAELT@658.8 HR33 CB/SH E FU AC/CI=@CAELT@
ZPX0449 151458@CAELT@GG SLZZYMYT@CAELT@151457 SLAGYSYX@CAELT@SABO SLAG 151500@CAELT@METAR SLAG 151500Z 17005KT 4000 FU FEW017 BKN070 BKN200 24/14 Q1021@CAELT@A3017 893.2 HR54=@CAELT@
ZPX0451 151459@CAELT@GG SLZZYMYT@CAELT@151459 SLTRYGYS@CAELT@SABO SLTR 151500@CAELT@METAR SLTR 151500Z 34010KT 5000 FU SCT080 BKN200 32/23 Q1013@CAELT@A2993 995.0 HR58 NOSIG=@CAELT@METAR SLGM 151500Z 36010KT 7000 SCT017 FEW020CB BKN080 31/25 Q1014@CAELT@A2994 HR71 CB NE FU=@CAELT@METAR SLRI 151500Z 00000KT 5000 FU BKN080 30/23 Q1014 A2997 HR68=METAR SLJO 151500Z NIL=METAR SLRA 151500Z 36008KT 5000 FU SCT080 BKN200 32/22 Q1012 A2990HR57 RWY NML=METAR SLMG 151500Z 03004KT 6000 FEW017 BKN080 33/23 Q1012 A2991 HR56RWY NML=METAR SLBU 151500Z 00000KT 6000 SCT080 BKN200 33/24 Q1012 A2989 HR59FU RWY NML=METAR SLSA 151500Z 32005KT 5000 FU FEW020 BKN080 29/24 Q1013 A2992HR73=METAR SLSR 151500Z 32008KT 8000 NSC 33/23 Q1011 A2988 HR56 FU CIMETAR SLSM 151500Z 00000KT 5000 SCT080 BKN200 30/24 Q1013 A2993HR73 RWY NML=
ZPX0454 151459@CAELT@GG SLZZYMYT@CAELT@151459 SLVRYGYS@CAELT@SABO SLVR 151500@CAELT@METAR SLVR 151500Z 20010G20KT 4000 FU SCT023 BKN070 30/18 Q1015 A2999@CAELT@HR48 CI NOSIG=@CAELT@METAR SLET 151500Z 17015G26KT 4000 FU SCT023 BKN070 31/17 Q1015 A3000@CAELT@HR43 CI NOSIG=@CAELT@METAR SLAS 151500Z 00000KT 0800 FU NSC 33/24 Q1015 A2997 HR57 RWY NMLMETAR SLJV 151500Z 00000KT 0500 FU NSC 31/21 Q1014 A2994 HR57 RWY NMLMETAR SLCP 151500Z 30012KT 0500 FU SCT020 32/21 Q1017 A3003 HR55 RWYNML=METAR SLSI 151500Z 33006KT 1000 FU FEW020 33/23 Q1014 A2994 HR52 RWYMETAR SLTI 151500Z 36010KT 7000 BKN070 34/21 Q1016 A3000 HR46 FU RWYMETAR SLJE 151500Z 00000KT 0500 FU SCT070 32/23 Q1016 A3000 HR57 RWYMETAR SLVG 151500Z 19004KT 3000 FU BKN020 OVC070 17/13 Q1027 A3033HR72 RWY NML=METAR SLRB 151500Z 00000KT 2500 FU BKN020 30/23 Q1016 A3000 HR67 RWYMETAR SLPS 151500Z 18010KT 5000 FU SCT017 OVC200 27/22 Q1014 A2995HR73=METAR SLCA 151500Z 00000KT 9999 BKN033 OVC070 22/16 Q1021 A3015 HR68FU RWY NML=
ZPX0456 151500@CAELT@GG SLZZYMYT@CAELT@151457 SLTJYGYZ@CAELT@SABO SLTJ 151500@CAELT@METAR SLTJ 151500Z 00000KT 5000 FU BKN023 BKN070 19/12 Q1023 A3022@CAELT@817.7 HR63 CI=@CAELT@
ZPX0459 151502@CAELT@GG SLZZYMYT@CAELT@151500 SLCBYGYS@CAELT@SABO SLCB 151500@CAELT@METAR SLCB 151500Z 29006KT 9999 FEW036 SCT080 22/08 Q1027 A3033 753.1@CAELT@HR39 FU CI NOSIG=@CAELT@METAR SLAL 151500Z 22003KT 9999 SCT013 SCT070 13/09 Q1032 A3050 706.2@CAELT@HR74 FU=@CAELT@METAR SLAG 151500Z 17005KT 4000 FU FEW017 BKN070 BKN200 24/14 Q1021A3017 893.2 HR54=METAR SLVM 151500Z 18012KT 9999 OVC070 23/18 Q1019 A3010 HR75 FU=METAR SLTJ 151500Z 00000KT 5000 FU BKN023 BKN070 19/12 Q1023 A3022817.7 HR63 CI=METAR SLYA 151500Z 21010KT 9999 SCT023 BKN070 24/16 Q1019 A3011 943.8HR63 FU=METAR SLBJ 151500Z 00000KT 9999 NSC 28/21 Q1018 A3006 HR77 FU CI=
ZPX0466 151506@CAELT@GG SLZZYMYT@CAELT@151500 SLLPYFYA@CAELT@SABO SLRY 151500@CAELT@METAR SLRY 151500Z 32003KT 7000 BKN080 BKN200 32/25 Q1010 A2985@CAELT@HR66 FU RWY NML=@CAELT@
ZPX0467 151506@CAELT@GG SLZZYMYT@CAELT@151506 SLTRYGYS@CAELT@SABO SLTR 151500 CCA@CAELT@METAR SLTR 151500Z 34010KT 5000 FU SCT080 BKN200 32/23 Q1013@CAELT@A2993 995.0 HR58 NOSIG=@CAELT@METAR SLGM 151500Z 36010KT 7000 SCT017 FEW020CB BKN080 31/25 Q1014@CAELT@A2994 HR71 CB NE FU=@CAELT@METAR SLRI 151500Z 00000KT 5000 FU BKN080 30/23 Q1014 A2997 HR68=METAR SLJO 151500Z NIL=METAR SLRA 151500Z 36008KT 5000 FU SCT080 BKN200 32/22 Q1012 A2990HR57 RWY NML=METAR SLMG 151500Z 03004KT 6000 FEW017 BKN080 33/23 Q1012 A2991 HR56RWY NML=METAR SLBU 151500Z 00000KT 6000 SCT080 BKN200 33/24 Q1012 A2989 HR59FU RWY NML=METAR SLSA 151500Z 32005KT 5000 FU FEW020 BKN080 29/24 Q1013 A2992HR73=METAR SLSR 151500Z 32008KT 8000 NSC 33/23 Q1011 A2988 HR56 FU CIMETAR COR SLSM 151500Z 00000KT 5000 FU SCT080 BKN200 30/24 Q1013A2993HR73 RWY NML=
ZPX0470 151510@CAELT@GG SLZZYMYT@CAELT@151503 SLLPYFYA@CAELT@SABO SLLP 151500@CAELT@METAR SLLP 151500Z 05015G25KT 9999 SCT017 FEW020CB BKN200@CAELT@11/00 Q1039 A3069 628.9 HR46 P2483 CB/E/SW FU AC NOSIG=@CAELT@METAR SLCO 151500Z 32004KT 9999 FEW023 BKN090 29/24 Q1014 A2996 987.2@CAELT@HR77 FU=@CAELT@METAR SLRY 151500Z 32003KT 7000 BKN080 BKN200 32/25 Q1010 A2985HR66 FU RWY NMLMETAR SLRQ 151500Z 00000KT 5000 FU BKN080 BKN200 31/25 Q1013 A2991988.8 HR70=METAR SLSB 151500Z 34004KT 5000 FU BKN080 31/25 Q1011 A2986 HR70RWY NML=METAR SLOR 151500Z 01010KT 9999 SCT020 14/04 Q1035 A3058 656.3 HR49METAR SLUY 151500Z 30009KT 9999 FEW027 FEW033CB 15/M01 Q1034 A3056658.8 HR33 CB/SH E FU AC/CI=
ZPX0479 151518@CAELT@GG SLZZYMYT@CAELT@151509 SLLPYFYA@CAELT@SABO SLLP 151500 RRA@CAELT@METAR SLLP 151500Z 05015G25KT 9999 SCT017 FEW020CB BKN200@CAELT@11/00 Q1039 A3069 628.9 HR46 P2483 CB/E/SW FU AC NOSIG=@CAELT@METAR SLCO 151500Z 32004KT 9999 FEW023 BKN090 29/24 Q1014 A2996 987.2@CAELT@HR77 FU=@CAELT@METAR SLRY 151500Z 32003KT 7000 BKN080 BKN200 32/25 Q1010 A2985HR66 FU RWY NMLMETAR SLRQ 151500Z 00000KT 5000 FU BKN080 BKN200 31/25 Q1013 A2991988.8 HR70=METAR RTD SLAP 151500Z 36010KT 5000 FU FEW025 28/15 Q1020 A3014860.9 HR43 CI=METAR SLSB 151500Z 34004KT 5000 FU BKN080 31/25 Q1011 A2986 HR70RWY NML=METAR SLOR 151500Z 01010KT 9999 SCT020 14/04 Q1035 A3058 656.3 HR49METAR SLUY 151500Z 30009KT 9999 FEW027 FEW033CB 15/M01 Q1034 A3056658.8 HR33 CB/SH E FU AC/CI=
ZPX0502 151553@CAELT@GG SLZZYMYT@CAELT@151553 SLPSYGYS@CAELT@SABO SLPS 151600@CAELT@METAR SLPS 151600Z 18015KT 5000 FU SCT017 OVC070 27/22 Q1014 A2995@CAELT@HR71=@CAELT@
ZPX0506 151555@CAELT@GG SLZZYMYT@CAELT@151555 SLAGYSYX@CAELT@SABO SLAG 151600@CAELT@METAR SLAG 151600Z 15007KT 4000 FU FEW017 BKN070 BKN200 26/13 Q1020@CAELT@A3014 892.5 HR44=@CAELT@
ZPX0507 151555@CAELT@GG SLZZYMYT@CAELT@151555 SLSBYSYX@CAELT@SABO SLSB 151600@CAELT@METAR SLSB 151600Z 32004KT 5000 FU BKN080 32/25 Q1011 A2986 HR69@CAELT@RWY NML=@CAELT@
ZPX0508 151555@CAELT@GG SLZZYMYT@CAELT@151555 SLLPYGYZ@CAELT@SABO SLLP 151600@CAELT@METAR SLLP 151600Z 07017G28KT 9999 SCT017 FEW020CB BKN200 12/M01@CAELT@Q1039 A3069 628.8 HR43 P4754 CB/SH N/NE/SW AC NOSIG=@CAELT@
ZPX0509 151555@CAELT@GG SLZZYMYT@CAELT@151556 SLVRYGYZ@CAELT@SABO SLVR 151600@CAELT@METAR SLVR 151600Z 22010G21KT 4000 FU SCT023 BKN070 31/18 Q1015 A2998@CAELT@HR47 CI NOSIG=@CAELT@
ZPX0511 151555@CAELT@GG SLZZYMYT@CAELT@151555 SLRQYSYX@CAELT@SABO SLRQ 151600@CAELT@METAR SLRQ 151600Z 00000KT 5000 FU BKN080 33/25 Q1012 A2991 988.7@CAELT@HR63 CI=@CAELT@
ZPX0512 151555@CAELT@GG SLZZYMYT@CAELT@151555 SLORYGYZ@CAELT@SABO SLOR 151600@CAELT@METAR SLOR 151600Z 02010KT 9999 SCT020 FEW023CB 18/05 Q1035 A3056 655@CAELT@.9 HR43 CB/DIST/E AC/CI=@CAELT@
ZPX0513 151556@CAELT@GG SLZZYMYT@CAELT@151554 SLSAYGYS@CAELT@SABO SLSA 151600@CAELT@METAR SLSA 151600Z 34005KT 5000 FU FEW020 BKN080 29/23 Q1012 A2991@CAELT@HR72=@CAELT@
ZPX0514 151556@CAELT@GG SLZZYMYT@CAELT@151555 SLCBYGYZ@CAELT@SABO SLCB 151600@CAELT@METAR SLCB 151600Z 23007KT 9999 FEW036 SCT080 23/08 Q1026 A3030 752.3@CAELT@HR38 FU CI NOSIG=@CAELT@
ZPX0516 151556@CAELT@GG SLZZYMYT@CAELT@151555 SLETYMYC@CAELT@SABO SLET 151600@CAELT@METAR SLET 151600Z 16012G22KT 5000 FU SCT023 BKN070 31/17 Q1015 A2998@CAELT@HR44 CI NOSIG=@CAELT@
ZPX0517 151556@CAELT@GG SLZZYMYT@CAELT@151556 SLUYYGYS@CAELT@SABO SLUY 151600@CAELT@METAR SLUY 151600Z 29009KT 9999 FEW030 FEW035CB 17/M00 Q1034@CAELT@A3054 658.4 HR31 CB/SH NE/E FU AC/CI=@CAELT@
ZPX0519 151557@CAELT@GG SLZZYMYT@CAELT@151556 SLTRYGYZ@CAELT@SABO SLTR 151600@CAELT@METAR SLTR 151600Z 35008KT 5000 FU FEW017 SCT080 BKN200 32/23 Q1013@CAELT@A2992 994.8 HR58 TEMPO 3000=@CAELT@
ZPX0521 151558@CAELT@GG SLZZYMYT@CAELT@151557 SLCOYGYZ@CAELT@SABO SLCO 151600@CAELT@METAR SLCO 151600Z 28004KT 9999 FEW023 BKN090 31/25 Q1014 A2994 986.5@CAELT@HR70 FU=@CAELT@
ZPX0522 151558@CAELT@GG SLZZYMYT@CAELT@151557 SLTJYGYZ@CAELT@SABO SLTJ 151600@CAELT@METAR SLTJ 151600Z 21006KT 5000 FU SCT027 SCT070 BKN200 21/13 Q1022@CAELT@A3019 816.8 HR62=@CAELT@
ZPX0523 151558@CAELT@GG SLZZYMYT@CAELT@151557 SLVRYGYS@CAELT@SABO SLVR 151600@CAELT@METAR SLVR 151600Z 22010G21KT 4000 FU SCT023 BKN070 31/18 Q1015 A2998@CAELT@HR47 CI NOSIG=@CAELT@METAR SLET 151600Z 16012G22KT 5000 FU SCT023 BKN070 31/17 Q1015 A2998@CAELT@HR44 CI NOSIG=@CAELT@METAR SLAS 151600Z 34004KT 1200 FU SCTO20 34/23 Q1014 A2994 HR53 RWYNML=METAR SLCP 151600Z 03018KT 0500 TS FU BKN020 FEW030CB 29/24 Q1016A3000 HR72 CB/TS N/NE/E RWY NML=METAR SLSI 151600Z 36006KT 1000 FU SCT020 34/23 Q1013 A2991 HR52 RWYMETAR SLRB 151600Z 18006KT 2500 FU BKN020 30/23 Q1015 A2997 HR67 RWYMETAR SLPS 151600Z 18015KT 5000 FU SCT017 OVC070 27/22 Q1014 A2995HR71=METAR SLCA 151600Z 18003KT 9999 SCT036 OVC070 24/15 Q1021 A3015 HR59FU RWY NML=
ZPX0525 151601@CAELT@GG SLZZYMYT@CAELT@151600 SLTRYGYS@CAELT@SABO SLTR 151600@CAELT@METAR SLTR 151600Z 35008KT 5000 FU FEW017 SCT080 BKN200 32/23 Q1013@CAELT@A2992 994.8 HR58 TEMPO 3000=@CAELT@METAR SLGM 151600Z 32006KT 7000 TS VCSH SCT017 FEW020CB BKN080 32/24@CAELT@Q1013 A2991 HR63 CB/SH N/NE/NW TS NW FU=@CAELT@METAR SLRI 151600Z 36008KT 8000 SCT017 BKN080 32/23 Q1014 A2996 HR60METAR SLJO 151600Z NIL=METAR SLRA 151600Z 36010KT 5000 FU FEW020 BKN080 33/23 Q1012 A2990HR54 RWY NML=METAR SLMG 151600Z 32006KT 6000 SCT017 FEW020CB BKN080 35/22 Q1012A2988 HR47 CB NE/E FU RWY NML=METAR SLBU 151600Z 03006KT 6000 SCT017 BKN200 35/23 Q1011 A2986 HR51AC FU RWY NML=METAR SLSA 151600Z 34005KT 5000 FU FEW020 BKN080 29/23 Q1012 A2991HR72=METAR SLSR 151600Z 32008KT 8000 FEW017 BKN200 34/24 Q1011 A2986 HR57FU RWY NML=METAR SLSM 151600Z 00000KT 5000 FU FEW080 BKN200 33/24 Q1013 A2991HR58 RWY NML=
ZPX0526 151602@CAELT@GG SLZZYMYT@CAELT@151600 SLCBYGYS@CAELT@SABO SLCB 151600@CAELT@METAR SLCB 151600Z 23007KT 9999 FEW036 SCT080 23/08 Q1026 A3030 752.3@CAELT@HR38 FU CI NOSIG=@CAELT@METAR SLAL 151600Z 27006KT 9999 BKN015 SCT070 15/08 Q1032 A3048 705.7@CAELT@HR64 FU=@CAELT@METAR SLAG 151600Z 15007KT 4000 FU FEW017 BKN070 BKN200 26/13 Q1020A3014 892.5 HR44=METAR SLTJ 151600Z 21006KT 5000 FU SCT027 SCT070 BKN200 21/13 Q1022A3019 816.8 HR62=METAR SLVM 151600Z 18008KT 9999 OVC070 24/18 Q1018 A3008 HR72 FU=METAR SLYA 151600Z 21010KT 9999 FEW023 BKN200 26/17 Q1018 A3008 942.9HR59 FU AC=METAR SLBJ 151600Z 15005KT 9999 FEW025 BKN200 30/22 Q1017 A3003HR67 FU=
ZPX0529 151603@CAELT@GG SLZZYMYT@CAELT@151600 SLCBYGYS@CAELT@SABO SLCB 151600@CAELT@METAR SLCB 151600Z 23007KT 9999 FEW036 SCT080 23/08 Q1026 A3030 752.3@CAELT@HR38 FU CI NOSIG=@CAELT@METAR SLAL 151600Z 27006KT 9999 BKN015 SCT070 15/08 Q1032 A3048 705.7@CAELT@HR64 FU=@CAELT@METAR SLAG 151600Z 15007KT 4000 FU FEW017 BKN070 BKN200 26/13 Q1020A3014 892.5 HR44=METAR SLVM 151600Z 18008KT 9999 OVC070 24/18 Q1018 A3008 HR72 FU=METAR SLTJ 151600Z 21006KT 5000 FU SCT027 SCT070 BKN200 21/13 Q1022A3019 816.8 HR62=METAR SLYA 151600Z 21010KT 9999 FEW023 BKN200 26/17 Q1018 A3008 942.9HR59 FU AC=METAR SLBJ 151600Z 15005KT 9999 FEW025 BKN200 30/22 Q1017 A3003HR67 FU=DUPE
ZPX0532 151609@CAELT@GG SLZZYMYT@CAELT@151601 SLLPYFYA@CAELT@SABO SLRY 151600@CAELT@METAR SLRY 151600Z 31003KT 7000 FEW017 SCT080 BKN200 32/25 Q1010@CAELT@A2985 HR64 FU RWY NML=@CAELT@
ZPX0536 151611@CAELT@GG SLZZYMYT@CAELT@151601 SLLPYFYA@CAELT@SABO SLLP 151600@CAELT@METAR SLLP 151600Z 07017G28KT 9999 SCT017 FEW020CB BKN200 12/M01@CAELT@Q1039 A3069 628.8 HR43 P4754 CB/SH N/NE/SW AC NOSIG=@CAELT@METAR SLCO 151600Z 28004KT 9999 FEW023 BKN090 31/25 Q1014 A2994 986.5@CAELT@HR70 FU=@CAELT@METAR SLRY 151600Z 31003KT 7000 FEW017 SCT080 BKN200 32/25 Q1010A2985 HR64 FU RWY NML=METAR SLRQ 151600Z 00000KT 5000 FU BKN080 33/25 Q1012 A2991 988.7HR63 CI=METAR SLAP 151600Z 36008KT 5000 VCSH FU SCT025 FEW027CB 25/15 Q1020A3014 860.8 HR54 CB/SH N/NE/E/SE CI=METAR SLSB 151600Z 32004KT 5000 FU BKN080 32/25 Q1011 A2986 HR69RWY NML=METAR SLOR 151600Z 02010KT 9999 SCT020 FEW023CB 18/05 Q1035 A3056 655.9 HR43 CB/DIST/E AC/CI=METAR SLUY 151600Z 29009KT 9999 FEW030 FEW035CB 17/M00 Q1034A3054 658.4 HR31 CB/SH NE/E FU AC/CI=
ZPX0562 151651@CAELT@GG SLZZYMYT@CAELT@151651 SLPSYGYS@CAELT@SABO SLPS 151700@CAELT@METAR SLPS 151700Z 18016G26KT 5000 FU BKN015 OVC070 25/21 Q1014 A2995@CAELT@HR79=@CAELT@
ZPX0565 151654@CAELT@GG SLZZYMYT@CAELT@151655 SLAGYSYX@CAELT@SABO SLAG 151700@CAELT@METAR SLAG 151700Z 18005KT 5000 FU FEW017 SCT070 BKN200 27/13 Q1019@CAELT@A3011 891.4 HR42=@CAELT@
ZPX0566 151654@CAELT@GG SLZZYMYT@CAELT@151655 SLCOYGYZ@CAELT@SABO SLCO 151700@CAELT@METAR SLCO 151700Z 29006KT 9999 SCT023 32/25 Q1012 A2991 985.4 HR65@CAELT@FU AC=@CAELT@
ZPX0567 151654@CAELT@GG SLZZYMYT@CAELT@151657 SLUYYGYS@CAELT@SABO SLUY 151700@CAELT@METAR SLUY 151700Z 30006KT 9999 VCTS FEW030 FEW035CB BKN200 17/03@CAELT@Q1033 A3051 657.8 HR39 CB/SH NE/E TS E AC=@CAELT@
ZPX0568 151655@CAELT@GG SLZZYMYT@CAELT@151654 SLSAYGYS@CAELT@SABO SLSA 151700@CAELT@METAR SLSA 151700Z 34005KT 5000 FU BKN080 29/24 Q1011 A2988 HR71=@CAELT@
ZPX0569 151655@CAELT@GG SLZZYMYT@CAELT@151655 SLORYGYZ@CAELT@SABO SLOR 151700@CAELT@METAR SLOR 151700Z 36012KT 9999 SCT020 18/03 Q1034 A3055 655.6 HR37=@CAELT@
ZPX0570 151655@CAELT@GG SLZZYMYT@CAELT@151655 SLCAYGYS@CAELT@SABO SLCA 151700@CAELT@METAR SLCA 151700Z 18003KT 9999 SCT036 OVC070 25/15 Q1020 A3012 HR57@CAELT@FU RWY NML=@CAELT@
ZPX0572 151655@CAELT@GG SLZZYMYT@CAELT@151655 SLLPYGYZ@CAELT@SABO SLLP 151700@CAELT@METAR SLLP 151700Z 07017KT 9999 SCT017 FEW020CB BKN200 11/00 Q1038@CAELT@A3067 628.3 HR49 P1784 CB/SH NE/SW AC NOSIG=@CAELT@
ZPX0573 151655@CAELT@GG SLZZYMYT@CAELT@151655 SLCBYGYZ@CAELT@SABO SLCB 151700@CAELT@METAR SLCB 151700Z 24006KT 9999 FEW036 BKN080 24/07 Q1025 A3027 751.4@CAELT@HR34 FU CI NOSIG=@CAELT@
ZPX0574 151655@CAELT@GG SLZZYMYT@CAELT@151655 SLRQYSYX@CAELT@SABO SLRQ 151700@CAELT@METAR SLRQ 151700Z 36004KT 5000 FU SCT020 SCT080 34/26 Q1012 A2990@CAELT@988.3 HR64 CI=@CAELT@
ZPX0575 151656@CAELT@GG SLZZYMYT@CAELT@151656 SLVRYGYZ@CAELT@SABO SLVR 151700@CAELT@METAR SLVR 151700Z 23010G20KT 4000 FU SCT023 BKN070 32/18 Q1013 A2994@CAELT@HR45 CI NOSIG=@CAELT@
ZPX0576 151656@CAELT@GG SLZZYMYT@CAELT@151656 SLTRYGYZ@CAELT@SABO SLTR 151700@CAELT@METAR SLTR 151700Z 34008KT 3000 FU FEW017 SCT080 BKN200 31/24@CAELT@Q1012 A2989 993.5 HR68 NOSIG=@CAELT@
ZPX0577 151657@CAELT@GG SLZZYMYT@CAELT@151650 SLETYMYC@CAELT@SABO SLET 151700@CAELT@METAR SLET 151700Z 18013G25KT 5000 FU SCT023 FEW030CB BKN070 32/16@CAELT@Q1013 A2994 HR40 CB NE CI NOSIG=@CAELT@
ZPX0579 151658@CAELT@GG SLZZYMYT@CAELT@151658 SLTJYGYZ@CAELT@SABO SLTJ 151700@CAELT@METAR SLTJ 151700Z 21008KT 5000 FU SCT030 SCT070 BKN200 22/13 Q1021@CAELT@A3016 815.9 HR56=@CAELT@
ZPX0581 151659@CAELT@GG SLZZYMYT@CAELT@151659 SLCBYGYS@CAELT@SABO SLCB 151700@CAELT@METAR SLCB 151700Z 24006KT 9999 FEW036 BKN080 24/07 Q1025 A3027 751.4@CAELT@HR34 FU CI NOSIG=@CAELT@METAR SLAL 151700Z 02010KT 9999 SCT017 17/09 Q1031 A3044 704.8 HR61@CAELT@FU AC CI=@CAELT@METAR SLAG 151700Z 18005KT 5000 FU FEW017 SCT070 BKN200 27/13 Q1019A3011 891.4 HR42=METAR SLVM 151700Z 09003KT 9999 OVC070 24/18 Q1017 A3005 HR67 FU=METAR SLTJ 151700Z 21008KT 5000 FU SCT030 SCT070 BKN200 22/13 Q1021A3016 815.9 HR56=METAR SLYA 151700Z 21012KT 9999 FEW023 BKN200 26/16 Q1017 A3005 942.0HR53 FU=METAR SLBJ 151700Z NIL=
ZPX0582 151659@CAELT@GG SLZZYMYT@CAELT@151658 SLSBYSYX@CAELT@SABO SLSB 151700@CAELT@METAR SLSB 151700Z 32006KT 5000 FU SCT020 FEW023CB 34/24 Q1010 A2985@CAELT@HR54 CB/NE RWY NML=@CAELT@
ZPX0583 151700@CAELT@GG SLZZYMYT@CAELT@151658 SLLPYFYA@CAELT@SABO SLRY 151700@CAELT@METAR SLRY 151700Z 32005KT 7000 FEW020 SCT080 BKN200 33/24 Q1010@CAELT@A2983 HR58 FU RWY NML=@CAELT@
ZPX0584 151700@CAELT@GG SLZZYMYT@CAELT@151659 SLVRYGYS@CAELT@SABO SLVR 151700@CAELT@METAR SLVR 151700Z 23010G20KT 4000 FU SCT023 BKN070 32/18 Q1013 A2994@CAELT@HR45 CI NOSIG=@CAELT@METAR SLET 151700Z 18013G25KT 5000 FU SCT023 FEW030CB BKN070 32/16@CAELT@Q1013 A2994 HR40 CB NE CI NOSIG=@CAELT@METAR SLAS 151700Z 31006KT 1500 FU TS FU SCT020 FEW030CB BKN200 34/23Q1013 A2991 HR53 CB/TS/W RWY NML=METAR SLCP 151700Z 35015KT 2000 TSRAFU BKN020 FEW027CB OVC070 22/21Q1016 A3000 HR92 CB/TS NE/E/NW/N RWY WET OPR=METAR SLSI 151700Z 33008KT 1000 FU SCT020 34/22 Q1012 A2988 HR47 RWYNML=METAR SLRB 151700Z 16006KT 2500 FU BKN020 29/23 Q1015 A2997 HR70 RWYMETAR SLPS 151700Z 18016G26KT 5000 FU BKN015 OVC070 25/21 Q1014 A2995HR79=METAR SLCA 151700Z 18003KT 9999 SCT036 OVC070 25/15 Q1020 A3012 HR57FU RWY NML=
ZPX0588 151702@CAELT@GG SLZZYMYT@CAELT@151700 SLLPYFYA@CAELT@SABO SLLP 151700@CAELT@METAR SLLP 151700Z 07017KT 9999 SCT017 FEW020CB BKN200 11/00 Q1038@CAELT@A3067 628.3 HR49 P1784 CB/SH NE/SW AC NOSIG=@CAELT@METAR SLCO 151700Z 29006KT 9999 SCT023 32/25 Q1012 A2991 985.4 HR65@CAELT@FU AC=@CAELT@METAR SLRY 151700Z 32005KT 7000 FEW020 SCT080 BKN200 33/24 Q1010A2983 HR58 FU RWY NML=METAR SLRQ 151700Z 36004KT 5000 FU SCT020 SCT080 34/26 Q1012 A2990988.3 HR64 CI=METAR SLAP 151700Z 00000KT 5000 -RA BKN025 FEW027CB 20/18 Q1019 A3012860.2 HR87 CB N/NE/E AC/CI=METAR SLSB 151700Z 32006KT 5000 FU SCT020 FEW023CB 34/24 Q1010 A2985HR54 CB/NE RWY NML=METAR SLOR 151700Z 36012KT 9999 SCT020 18/03 Q1034 A3055 655.6 HR37=METAR SLUY 151700Z 30006KT 9999 VCTS FEW030 FEW035CB BKN200 17/03Q1033 A3051 657.8 HR39 CB/SH NE/E TS E AC=
ZPX0589 151703@CAELT@GG SLZZYMYT@CAELT@151700 SLTRYGYS@CAELT@SABO SLTR 151700@CAELT@METAR SLTR 151700Z 34008KT 3000 FU FEW017 SCT080 BKN200 31/24@CAELT@Q1012 A2989 993.5 HR68 NOSIG=@CAELT@METAR SLGM 151700Z 32015KT 6000 -TSRA SCT007 BKN015 FEW020CB BKN200@CAELT@26/25 Q1012 A2988 HR96 CB N/NE/SW/W TS NE/NW=@CAELT@METAR SLRI 151700Z 36010KT 8000 SCT017 FEW020CB BKN200 32/23Q1013 A2992 HR59 FU CB S=METAR SLJO 151700Z NIL=METAR SLRA 151700Z 32012KT 7000 TS VCSH SCT017 FEW020CB BKN080 35/23Q1010 A2985 HR49 FU CB/TS/SH E RWY NML=METAR SLMG 151700Z 32006KT 6000 SCT017 FEW023CB BKN080 35/22 Q1011A2985 HR46 FU CB NW RWY NML=METAR SLBU 151700Z 03008KT 6000 SCT017 BKN200 36/23 Q1010 A2984 HR47FU RWY NML=METAR SLSA 151700Z 34005KT 5000 FU BKN080 29/24 Q1011 A2988 HR71=METAR SLSR 151700Z 32008KT 8000 FEW017 FEW023CB BKN200 34/22 Q1010A2984 HR49 CB N/NE FU RWY NML=METAR SLSM 151700Z 35006KT 8000 SCT017 FEW020CB SCT200 35/24 Q1011A2986 HR53 FU CB N RWY NML=
ZPX0609 151750@CAELT@GG SLZZYMYT@CAELT@151750 SLPSYGYS@CAELT@SABO SLPS 151800@CAELT@METAR SLPS 151800Z 18015KT 4000 -RA FU BKN015 OVC070 24/23 Q1014@CAELT@A2995 HR90=@CAELT@
ZPX0612 151754@CAELT@GG SLZZYMYT@CAELT@151754 SLSAYGYS@CAELT@SABO SLSA 151800@CAELT@METAR SLSA 151800Z 33007KT 5000 FU SCT080 31/25 Q1010 A2983 HR67=@CAELT@
ZPX0613 151754@CAELT@GG SLZZYMYT@CAELT@151754 SLSAYGYS@CAELT@SABO SLSA 151800@CAELT@METAR SLSA 151800Z 33007KT 5000 FU SCT080 31/25 Q1010 A2983 HR67=@CAELT@
ZPX0614 151754@CAELT@GG SLZZYMYT@CAELT@151755 SLORYGYZ@CAELT@SABO SLOR 151800@CAELT@METAR SLOR 151800Z 03012KT 9999 SCT020 17/01 Q1034 A3055 655.5 HR35@CAELT@AC/CI=@CAELT@
ZPX0615 151754@CAELT@GG SLZZYMYT@CAELT@151755 SLCOYGYZ@CAELT@SABO SLCO 151800@CAELT@METAR SLCO 151800Z 29008KT 7000 TS VCSH SCT023 FEW025CB SCT080 BKN200@CAELT@34/25 Q1010 A2985 983.4 HR57 TS/N CB/SH N/NE/NW=@CAELT@
ZPX0616 151754@CAELT@GG SLZZYMYT@CAELT@151755 SLSBYSYX@CAELT@SABO SLSB 151800@CAELT@METAR SLSB 151800Z 35010G20KT 2000 -TSRA SCT013 FEW023CB BKN080 32/25@CAELT@Q1008 A2979 HR68 TS CB ON STN N NE RWY WET OPR C210=@CAELT@
ZPX0618 151755@CAELT@GG SLZZYMYT@CAELT@151754 SLCBYGYZ@CAELT@SABO SLCB 151800@CAELT@METAR SLCB 151800Z 26006KT 9999 SCT036 SCT080 24/06 Q1023 A3024 750.5@CAELT@HR31 FU CI NOSIG=@CAELT@
ZPX0619 151755@CAELT@GG SLZZYMYT@CAELT@151755 SLTRYGYZ@CAELT@SABO SLTR 151800@CAELT@METAR SLTR 151800Z 33008KT 5000 FU SCT080 BKN200 32/24 Q1009 A2981@CAELT@991.0 HR63 NOSIG=@CAELT@
ZPX0620 151755@CAELT@GG SLZZYMYT@CAELT@151755 SLRQYSYX@CAELT@SABO SLRQ 151800@CAELT@METAR SLRQ 151800Z 36004KT 5000 FU SCT020 SCT080 35/26 Q1009 A2980@CAELT@HR58=@CAELT@
ZPX0621 151756@CAELT@GG SLZZYMYT@CAELT@151755 SLRBYGYS@CAELT@SABO SLRB 151800@CAELT@METAR SLRB 151800Z 16006KT 2500 FU BKN020 29/23 Q1015 A2997 HR70 RWY@CAELT@NML=@CAELT@
ZPX0623 151756@CAELT@GG SLZZYMYT@CAELT@151755 SLAGYSYX@CAELT@SABO SLAG 151800@CAELT@METAR SLAG 151800Z 15007KT 5000 FU FEW020 SCT070 BKN200 27/14 Q1018@CAELT@A3006 890.1 HR47=@CAELT@
ZPX0624 151756@CAELT@GG SLZZYMYT@CAELT@151755 SLLPYGYZ@CAELT@SABO SLLP 151800@CAELT@METAR SLLP 151800Z 05015G25KT 9999 SCT017 FEW020CB BKN200 12/01@CAELT@Q1037 A3063 627.3 HR46 P0784 CB/SH N/SW AC NOSIG=@CAELT@
ZPX0625 151756@CAELT@GG SLZZYMYT@CAELT@151756 SLTJYGYZ@CAELT@SABO SLTJ 151800@CAELT@METAR SLTJ 151800Z 15008KT 5000 FU BKN030 BKN070 20/13 Q1021 A3015@CAELT@815.8 HR63 CI=@CAELT@
ZPX0627 151757@CAELT@GG SLZZYMYT@CAELT@151757 SLCAYGYS@CAELT@SABO SLCA 151800@CAELT@METAR SLCA 151800Z 18004KT 9999 SCT036 OVC070 25/13 Q1019 A3009 HR48@CAELT@FU RWY NML=@CAELT@
ZPX0628 151757@CAELT@GG SLZZYMYT@CAELT@151755 SLETYMYC@CAELT@SABO SLET 151800@CAELT@METAR SLET 151800Z 16016G27KT 5000 FU SCT023 FEW030CB BKN070 32/17@CAELT@Q1011 A2988 HR41 CB NE CI NOSIG=@CAELT@
ZPX0629 151758@CAELT@GG SLZZYMYT@CAELT@151758 SLVRYGYZ@CAELT@SABO SLVR 151800@CAELT@METAR SLVR 151800Z 19010G21KT 4000 FU FEW023 SCT070 32/18 Q1011 A2988@CAELT@HR42 CI NOSIG=@CAELT@
ZPX0630 151758@CAELT@GG SLZZYMYT@CAELT@151757 SLVRYGYS@CAELT@SABO SLVR 151800@CAELT@METAR SLVR 151800Z 19010G21KT 4000 FU FEW023 SCT070 32/18 Q1011 A2988@CAELT@HR42 CI NOSIG=@CAELT@METAR SLET 151800Z 16016G27KT 5000 FU SCT023 FEW030CB BKN070 32/17@CAELT@Q1011 A2988 HR41 CB NE CI NOSIG=@CAELT@METAR SLAS 151800Z 27012KT 2000 TS FU BKN020 FEW030CB OVC200 31/24Q1011 A2985 HR67 CB/TS/SH/E/SW/W RWY NML=METAR SLJV 151800Z 18012KT 0500 TSFU SCT015 FEW023CB OVX070 25/22Q1012 A2988 HR86 CB/TS/N/NW/W/SW RWY NML=METAR SLCP 151800Z 21006KT 2000 TSRAFU BKN020 FEW027CB OVC070 22/21Q1015 A2997 HR96 CB/TS E/NW/N RWY WET OPR=METAR SLSI 151800Z 19017KT 1000 FU BKN020 FEW025CB 27/21 Q1011 A2985HR68 CB/N/NW/W RWY NML=METAR SLTI 151800Z 35015KT 9999 TS BKN020 FEW030CB BKN070 33/21 Q1013A2991 HR48 CB/TS/SW/W RWY NML=METAR SLJE 151800Z 17008KT 1500 FU OVC070 30/22 Q1014 A2994 HR61 RWYNML=METAR SLVG 151800Z 18005KT 4000 FU OVC020 16/14 Q1025 A3027 HR90 RWYHUM OPR=METAR SLRB 151800Z 16006KT 2500 FU BKN020 29/23 Q1015 A2997 HR70 RWYMETAR SLPS 151800Z 18015KT 4000 -RA FU BKN015 OVC070 24/23 Q1014A2995 HR90=METAR SLCA 151800Z 18004KT 9999 SCT036 OVC070 25/13 Q1019 A3009 HR48FU RWY NML=
ZPX0631 151759@CAELT@GG SLZZYMYT@CAELT@151758 SLTRYGYS@CAELT@SABO SLTR 151800@CAELT@METAR SLTR 151800Z 33008KT 5000 FU SCT080 BKN200 32/24 Q1009 A2981@CAELT@991.0 HR63 NOSIG=@CAELT@METAR SLGM 151800Z 23006KT 6000 TS VCSH FEW007 SCT015 FEW020CB BKN070@CAELT@27/25 Q1010 A2985 HR93 FU RERA CB/SH N/NE/SE/SW/NW TS NE=@CAELT@METAR SLRI 151800Z 02008KT 8000 SCT017 FEW020CB BKN200 33/23 Q1011A2988 HR56 CB/SE FU=METAR SLJO 151800Z NIL=METAR SLRA 151800Z NIL=METAR SLMG 151800Z NIL=METAR SLBU 151800Z NIL=METAR SLSA 151800Z 33007KT 5000 FU SCT080 31/25 Q1010 A2983 HR67=METAR SLSR 151800Z NIL=METAR SLSM 151800Z NIL=
ZPX0636 151803@CAELT@GG SLZZYMYT@CAELT@151800 SLCBYGYS@CAELT@SABO SLCB 151800@CAELT@METAR SLCB 151800Z 26006KT 9999 SCT036 SCT080 24/06 Q1023 A3024 750.5@CAELT@HR31 FU CI NOSIG=@CAELT@METAR SLAL 151800Z 33003KT 9999 SCT020 17/08 Q1029 A3040 703.9 HR54@CAELT@METAR SLAG 151800Z 15007KT 5000 FU FEW020 SCT070 BKN200 27/14 Q1018@CAELT@A3006 890.1 HR47=METAR SLVM 151800Z 18007KT 9999 OVC070 25/18 Q1016 A3002 HR66 FU=METAR SLTJ 151800Z 15008KT 5000 FU BKN030 BKN070 20/13 Q1021 A3015815.8 HR63 CI=METAR SLYA 151800Z 21010KT 9999 FEW023 BKN200 27/17 Q1016 A3003 941.4HR53 FU=METAR SLBJ 151800Z NIL=
ZPX0638 151806@CAELT@GG SLZZYMYT@CAELT@151800 SLLPYFYA@CAELT@SABO SLRY 151800@CAELT@METAR SLRY 151800Z 32004KT 7000 FEW020 BKN200 33/24 Q1008 A2979@CAELT@HR56 FU RWY NML=@CAELT@
ZPX0639 151808@CAELT@GG SLZZYMYT@CAELT@151803 SLLPYFYA@CAELT@SABO SLLP 151800@CAELT@METAR SLLP 151800Z 05015G25KT 9999 SCT017 FEW020CB BKN200 12/01@CAELT@Q1037 A3063 627.3 HR46 P0784 CB/SH N/SW AC NOSIG=@CAELT@METAR SLCO 151800Z 29008KT 7000 TS VCSH SCT023 FEW025CB SCT080 BKN200@CAELT@34/25 Q1010 A2985 983.4 HR57 TS/N CB/SH N/NE/NW=@CAELT@METAR SLRY 151800Z 32004KT 7000 FEW020 BKN200 33/24 Q1008 A2979HR56 FU RWY NML=METAR SLRQ 151800Z 36004KT 5000 FU SCT020 SCT080 35/26 Q1009 A2980HR58=METAR SLAP 151800Z 05006KT 5000 -TSRA BKN025 FEW027CB 20/18 Q1019A3012 860.2 HR88 CB/TS N/NE/E AC/CI=METAR SLSB 151800Z 35010G20KT 2000 -TSRA SCT013 FEW023CB BKN080 32/25Q1008 A2979 HR68 TS CB ON STN N NE RWY WET OPR C210=METAR SLOR 151800Z 03012KT 9999 SCT020 17/01 Q1034 A3055 655.5 HR35AC/CI=
ZPX0660 151851@CAELT@GG SLZZYMYT@CAELT@151852 SLPSYGYS@CAELT@SABO SLPS 151900@CAELT@METAR SLPS 151900Z 18005KT 5000 FU SCT015 OVC070 23/22 Q1013 A2992@CAELT@HR94 RERA=@CAELT@
ZPX0661 151854@CAELT@GG SLZZYMYT@CAELT@151855 SLSAYGYS@CAELT@SABO SLSA 151900@CAELT@METAR SLSA 151900Z 31008KT 5000 FU FEW020 32/23 Q1010 A2983 HR56=@CAELT@
ZPX0662 151854@CAELT@GG SLZZYMYT@CAELT@151855 SLSAYGYS@CAELT@SABO SLSA 151900@CAELT@METAR SLSA 151900Z 31008KT 5000 FU FEW020 32/23 Q1010 A2983 HR56=@CAELT@
ZPX0663 151854@CAELT@GG SLZZYMYT@CAELT@151854 SLCAYGYS@CAELT@SABO SLCA 151900@CAELT@METAR SLCA 151900Z 18004KT 9999 BKN036 OVC070 25/13 Q1018 A3006 HR49@CAELT@FU RWY NML=@CAELT@
ZPX0664 151854@CAELT@GG SLZZYMYT@CAELT@151855 SLCOYGYZ@CAELT@SABO SLCO 151900@CAELT@METAR SLCO 151900Z 03017KT 1000 +TSRA SCT023 FEW025CB SCT080@CAELT@BKN200 24/24 Q1012 A2989 984.8 HR99 TS/N/NE CB/N/NE/E/NW=@CAELT@
ZPX0665 151855@CAELT@GG SLZZYMYT@CAELT@151854 SLRBYGYS@CAELT@SABO SLRB 151900@CAELT@METAR SLRB 151900Z 18004KT 2500 FU BKN020 29/23 Q1015 A2997 HR71 RWY@CAELT@NML=@CAELT@
ZPX0666 151855@CAELT@GG SLZZYMYT@CAELT@151855 SLSBYSYX@CAELT@SABO SLSB 151900@CAELT@METAR SLSB 151900Z 33008KT 3500 -TSRA BKN010 FEW023CB OVC070 22/22@CAELT@Q1009 A2980 HR96 TS CB ON STN SW NW RWY WET OPR C210=@CAELT@
ZPX0667 151855@CAELT@GG SLZZYMYT@CAELT@151855 SLTRYGYZ@CAELT@SABO SLTR 151900@CAELT@METAR SLTR 151900Z 30008KT 5000 FU FEW020 SCT200 33/23 Q1008 A2977@CAELT@989.6 HR57 NOSIG=@CAELT@
ZPX0668 151855@CAELT@GG SLZZYMYT@CAELT@151854 SLETYMYC@CAELT@SABO SLET 151900@CAELT@METAR SLET 151900Z 15016G26KT 6000 FEW023 FEW030CB BKN070 31/17 Q1011@CAELT@A2987 HR43 CB N FU CI NOSIG=@CAELT@
ZPX0669 151855@CAELT@GG SLZZYMYT@CAELT@151855 SLRQYSYX@CAELT@SABO SLRQ 151900@CAELT@METAR SLRQ 151900Z 36008KT 6000 FEW020 FEW023CB BKN200 37/24 Q1008@CAELT@A2977 HR47 CB/SE/S/SW/W/NW FU=@CAELT@
ZPX0670 151856@CAELT@GG SLZZYMYT@CAELT@151855 SLAGYSYX@CAELT@SABO SLAG 151900@CAELT@METAR SLAG 151900Z 12005KT 7000 FEW020 SCT070 BKN200 28/15 Q1016@CAELT@A3002 888.9 HR46 FU=@CAELT@
ZPX0671 151856@CAELT@GG SLZZYMYT@CAELT@151855 SLLPYGYZ@CAELT@SABO SLLP 151900@CAELT@METAR SLLP 151900Z 05014KT 9999 SCT017 FEW020CB BKN200 12/00@CAELT@Q1036 A3060 626.8 HR44 P94// CB/SH SW AC NOSIG=@CAELT@
ZPX0672 151856@CAELT@GG SLZZYMYT@CAELT@151856 SLVRYGYZ@CAELT@SABO SLVR 151900@CAELT@METAR SLVR 151900Z 18010G22KT 5000 FU FEW023 SCT070 31/18 Q1011 A2987@CAELT@HR45 CI NOSIG=@CAELT@
ZPX0673 151857@CAELT@GG SLZZYMYT@CAELT@151857 SLCBYGYZ@CAELT@SABO SLCB 151900@CAELT@METAR SLCB 151900Z 34013KT 9999 SCT036 FEW040CB SCT080 BKN200 23/05@CAELT@Q1022 A3020 749.6 HR30 CB S/SW FU NOSIG=@CAELT@
ZPX0674 151857@CAELT@GG SLZZYMYT@CAELT@151857 SLVRYGYS@CAELT@SABO SLVR 151900@CAELT@METAR SLVR 151900Z 18010G22KT 5000 FU FEW023 SCT070 31/18 Q1011 A2987@CAELT@HR45 CI NOSIG=@CAELT@METAR SLET 151900Z 15016G26KT 6000 FEW023 FEW030CB BKN070 31/17 Q1011@CAELT@A2987 HR43 CB N FU CI NOSIG=@CAELT@METAR SLAS 151900Z 27012KT 0400 +TSRA BKN015 FEW030CB OVC200 26/25Q1011 A2985 HR90 CB/TS ON STN/E/NW/N RWY WET OPR=METAR SLJV 151900Z 18010KT 5000 TS FU SCT015 FEW023CV OVC070 24/22Q1012 A2988 HR88 RESH CB/TS/N/NW/W /SW RWY HUM OP=METAR SLCP 151900Z 00000KT 3000 TSFU BKN023 FEW030CB OVC070 22/21Q1014 A2994 HR96 CB/TS NW/N/NE RERA RWY WET OPR=METAR SLSI 151900Z 19010KT 1500 FU BKN020 FEW025CB BKN070 25/19 Q1012A2988 HR75 CB/NW/W/SW RWY NML=METAR SLTI 151900Z 34006KT 9999 BKN020 FEW030CB BKN070 28/21 Q1012A2988 HR64 CB/SW RETS RWY NML=METAR SLJE 151900Z 17006KT 1500 TSDZFU SCT015 FEW030CB OVC070 26/23Q1015 A2997 HR85 CB/TS/N/NE/NW RWY NML=METAR SLVG 151900Z 18009KT 7000 BKN020 BKN070 17/13 Q1024 A3024 HR76FU RWY HUM OPR=METAR SLRB 151900Z 18004KT 2500 FU BKN020 29/23 Q1015 A2997 HR71 RWYNML=METAR SLPS 151900Z 18005KT 5000 FU SCT015 OVC070 23/22 Q1013 A2992HR94 RERA=METAR SLCA 151900Z 18004KT 9999 BKN036 OVC070 25/13 Q1018 A3006 HR49FU RWY NML=
ZPX0675 151858@CAELT@GG SLZZYMYT@CAELT@151858 SLTRYGYS@CAELT@SABO SLTR 151900@CAELT@METAR SLTR 151900Z 30008KT 5000 FU FEW020 SCT200 33/23 Q1008 A2977@CAELT@989.6 HR57 NOSIG=@CAELT@METAR SLGM 151900Z 19005KT 6000 TS VCSH SCT017 FEW020CB BKN070 29/26@CAELT@Q1009 A2980 HR82 FU CB/SH NE/E/SE/SW TS SE=@CAELT@METAR SLRI 151900Z 36010KT 7000 SCT017 FEW020CB BKN200 33/24 Q1010A2983 HR59 CB/SE FU=METAR SLJO 151900Z NIL=METAR SLRA 151900Z NIL=METAR SLMG 151900Z NIL=METAR SLBU 151900Z NIL=METAR SLSA 151900Z 31008KT 5000 FU FEW020 32/23 Q1010 A2983 HR56=METAR SLSR 151900Z NIL=METAR SLSM 151900Z NIL=
ZPX0676 151858@CAELT@GG SLZZYMYT@CAELT@151857 SLTJYGYZ@CAELT@SABO SLTJ 151900@CAELT@METAR SLTJ 151900Z 18008KT 5000 FU BKN030 OVC070 18/12 Q1020 A3013@CAELT@815.3 HR59=@CAELT@
ZPX0678 151859@CAELT@GG SLZZYMYT@CAELT@151859 SLCBYGYS@CAELT@SABO SLCB 151900@CAELT@METAR SLCB 151900Z 34013KT 9999 SCT036 FEW040CB SCT080 BKN200 23/05@CAELT@Q1022 A3020 749.6 HR30 CB S/SW FU NOSIG=@CAELT@METAR SLAL 151900Z 33006KT 9999 SCT020 FEW030CB 17/07 Q1028 A3036 703@CAELT@.1 HR51 CB SE/SW FU=@CAELT@METAR SLAG 151900Z 12005KT 7000 FEW020 SCT070 BKN200 28/15 Q1016A3002 888.9 HR46 FU=METAR SLVM 151900Z NIL=METAR SLTJ 151900Z 18008KT 5000 FU BKN030 OVC070 18/12 Q1020 A3013815.3 HR59=METAR SLYA 151900Z 21010KT 9999 FEW023 BKN070 26/16 Q1016 A3003 940.5HR52 FU=METAR SLBJ 151900Z NIL=
ZPX0681 151901@CAELT@GG SLZZYMYT@CAELT@151859 SLLPYFYA@CAELT@SABO SLRY 151900@CAELT@METAR SLRY 151900Z 30006KT 7000 FEW020 BKN200 32/24 Q1007 A2974@CAELT@HR64 FU RWY NML=@CAELT@
ZPX0685 151903@CAELT@GG SLZZYMYT@CAELT@151900 SLLPYFYA@CAELT@SABO SLLP 151900@CAELT@METAR SLLP 151900Z 05014KT 9999 SCT017 FEW020CB BKN200 12/00@CAELT@Q1036 A3060 626.8 HR44 P94// CB/SH SW AC NOSIG=@CAELT@METAR SLCO 151900Z 03017KT 1000 +TSRA SCT023 FEW025CB SCT080@CAELT@BKN200 24/24 Q1012 A2989 984.8 HR99 TS/N/NE CB/N/NE/E/NW=@CAELT@METAR SLRY 151900Z 30006KT 7000 FEW020 BKN200 32/24 Q1007 A2974HR64 FU RWY NML=METAR SLRQ 151900Z 36008KT 6000 FEW020 FEW023CB BKN200 37/24 Q1008A2977 HR47 CB/SE/S/SW/W/NW FU=METAR SLSB 151900Z 33008KT 3500 -TSRA BKN010 FEW023CB OVC070 22/22Q1009 A2980 HR96 TS CB ON STN SW NW RWY WET OPR C210=
ZPX0692 151908@CAELT@GG SLZZYMYT@CAELT@151907 SLVRYGYS@CAELT@SABO SLVR 151900@CAELT@METAR SLVR 151900Z 18010G22KT 5000 FU FEW023 SCT070 31/18 Q1011 A2987@CAELT@HR45 CI NOSIG=@CAELT@METAR SLET 151900Z 15016G26KT 6000 FEW023 FEW030CB BKN070 31/17 Q1011@CAELT@A2987 HR43 CB N FU CI NOSIG=@CAELT@METAR SLAS 151900Z 27012KT 0400 +TSRA BKN015 FEW030CB OVC200 26/25Q1011 A2985 HR90 CB/TS ON STN/E/NW/N RWY WET OPR=METAR SLJV 151900Z 18010KT 5000 TS FU SCT015 FEW023CV OVC070 24/22Q1012 A2988 HR88 RESH CB/TS/N/NW/W /SW RWY HUM OP=METAR SLCP 151900Z 00000KT 3000 TSFU BKN023 FEW030CB OVC070 22/21Q1014 A2994 HR96 CB/TS NW/N/NE RERA RWY WET OPR=METAR SLSI 151900Z 19010KT 1500 FU BKN020 FEW025CB BKN070 25/19 Q1012A2988 HR75 CB/NW/W/SW RWY NML=METAR SLTI 151900Z 34006KT 9999 BKN020 FEW030CB BKN070 28/21 Q1012A2988 HR64 CB/SW RETS RWY NML=METAR SLJE 151900Z 17006KT 1500 TSDZFU SCT015 FEW030CB OVC070 26/23Q1015 A2997 HR85 CB/TS/N/NE/NW RWY NML=METAR SLVG 151900Z 18009KT 7000 BKN020 BKN070 17/13 Q1024 A3024 HR76FU RWY HUM OPR=METAR SLRB 151900Z 18004KT 2500 FU BKN020 29/23 Q1015 A2997 HR71 RWYNML=METAR SLPS 151900Z 18005KT 5000 FU SCT015 OVC070 23/22 Q1013 A2992HR94 RERA=METAR SLCA 151900Z 18004KT 9999 BKN036 OVC070 25/13 Q1018 A3006 HR49FU RWY NML=
ZPX0728 151952@CAELT@GG SLZZYMYT@CAELT@151952 SLPSYGYS@CAELT@SABO SLPS 152000@CAELT@METAR SLPS 152000Z 18006KT 5000 FU SCT017 BKN070 OVC200 24/23 Q1012@CAELT@A2989 HR90=@CAELT@
ZPX0733 151954@CAELT@GG SLZZYMYT@CAELT@151954 SLSAYGYS@CAELT@SABO SLSA 152000@CAELT@METAR SLSA 152000Z 31007KT 5000 FU FEW020 FEW023CB 33/22 Q1008 A2977@CAELT@HR53 CB NE=@CAELT@
ZPX0734 151954@CAELT@GG SLZZYMYT@CAELT@151954 SLSAYGYS@CAELT@SABO SLSA 152000@CAELT@METAR SLSA 152000Z 31007KT 5000 FU FEW020 FEW023CB 33/22 Q1008 A2977@CAELT@HR53 CB NE=@CAELT@
ZPX0736 151955@CAELT@GG SLZZYMYT@CAELT@151954 SLRBYGYS@CAELT@SABO SLRB 152000@CAELT@METAR SLRB 152000Z 00000KT 5000 TSFU BKN020 FEW025CB 26/22 Q1013@CAELT@A2991 HR77 CB/TS/N/NW RWY NML=@CAELT@
ZPX0737 151955@CAELT@GG SLZZYMYT@CAELT@151955 SLSBYSYX@CAELT@SABO SLSB 152000@CAELT@METAR SLSB 152000Z 00000KT 7000 VCSH SCT013 FEW025CB OVC070 23/22@CAELT@Q1007 A2976 HR93 CB SH SE SW W NW RWY WET OPR C210=@CAELT@
ZPX0738 151955@CAELT@GG SLZZYMYT@CAELT@151955 SLVRYGYZ@CAELT@SABO SLVR 152000@CAELT@METAR SLVR 152000Z 17010G20KT 5000 FU SCT023 BKN070 30/17 Q1011 A2987@CAELT@HR45 CI NOSIG=@CAELT@
ZPX0739 151955@CAELT@GG SLZZYMYT@CAELT@151955 SLCAYGYS@CAELT@SABO SLCA 152000@CAELT@METAR SLCA 152000Z 18004KT 9999 SCT036 BKN070 25/13 Q1017 A3003 HR48@CAELT@FU RWY NML=@CAELT@
ZPX0741 151956@CAELT@GG SLZZYMYT@CAELT@151955 SLRQYSYX@CAELT@SABO SLRQ 152000@CAELT@METAR SLRQ 152000Z 36005KT 6000 FEW020 FEW023CB BKN200 33/24 Q1008@CAELT@A2977 984.1 HR60 CB S/SW/W/NW FU=@CAELT@
ZPX0743 151956@CAELT@GG SLZZYMYT@CAELT@151956 SLCOYGYZ@CAELT@SABO SLCO 152000@CAELT@METAR SLCO 152000Z 36004KT 7000 -TSRA SCT023 FEW025CB SCT080@CAELT@BKN200 25/25 Q1010 A2985 983.5 HR98 TS/W CB/NE/E/W=@CAELT@
ZPX0744 151956@CAELT@GG SLZZYMYT@CAELT@151956 SLTRYGYZ@CAELT@SABO SLTR 152000@CAELT@METAR SLTR 152000Z 29008KT 5000 FU FEW020 SCT200 34/23 Q1007@CAELT@A2976 989.4 HR54 NOSIG=@CAELT@
ZPX0745 151957@CAELT@GG SLZZYMYT@CAELT@151955 SLLPYGYZ@CAELT@SABO SLLP 152000@CAELT@METAR SLLP 152000Z 09011KT 9999 FEW017 FEW020CB SCT200 14/M01@CAELT@Q1035 A3058 626.3 HR37 P1483 CB/NE AC NOSIG=@CAELT@
ZPX0746 151957@CAELT@GG SLZZYMYT@CAELT@151957 SLTJYGYZ@CAELT@SABO SLTJ 152000@CAELT@METAR SLTJ 152000Z 18006KT 5000 FU BKN030 OVC070 17/12 Q1020 A3013@CAELT@815.1 HR71=@CAELT@
ZPX0747 151957@CAELT@GG SLZZYMYT@CAELT@151957 SLCBYGYZ@CAELT@SABO SLCB 152000@CAELT@METAR SLCB 152000Z 21009KT 9999 FEW036 FEW040CB SCT200 24/04 Q1021@CAELT@A3017 748.9 HR28 CB SE/S AC FU NOSIG=@CAELT@
ZPX0749 151958@CAELT@GG SLZZYMYT@CAELT@151957 SLETYMYC@CAELT@SABO SLET 152000@CAELT@METAR SLET 152000Z 16012G22KT 6000 FEW023 BKN070 31/17 Q1011 A2987@CAELT@HR44 FU CI NOSIG=@CAELT@
ZPX0751 152000@CAELT@GG SLZZYMYT@CAELT@151959 SLVRYGYS@CAELT@SABO SLVR 152000@CAELT@METAR SLVR 152000Z 17010G20KT 5000 FU SCT023 BKN070 30/17 Q1011 A2987@CAELT@HR45 CI NOSIG=@CAELT@METAR SLET 152000Z 16012G22KT 6000 FEW023 BKN070 31/17 Q1011 A2987@CAELT@HR44 FU CI NOSIG=@CAELT@METAR SLAS 152000Z 27006KT 5000 -TSRA BKN020 FEW030CB OVC200 26/24Q1014 A2994 HR91 CB/TS/ON STN/E/SW/W RWY WET OPR=METAR SLJV 152000Z 18010KT 5000 TSFU SCT015 FEW023CB OVX070 20/20Q1012 A2988 HR98 CB/ON STN RWY HUM OP=METAR SLCP 152000Z 00000KT 4000 -TSRA FU BKN025 FEW030CB OVC070 22/21Q1014 A2994 HR96 CB/TS NW/N/NE RWY WET OPR=METAR SLSI 152000Z 19008KT 2000 FU BKN020 FEW025CB OVC070 24/20 Q1011A2985 HR82 CB/W/SW RWY NML=METAR SLTI 152000Z 00000KT 9999 SCT020 BKN070 OVC200 30/21 Q1012A2988 HR64 RWY NML=METAR SLJE 152000Z 17005KT 1500 TSFU SCT015 FEW030CB OVC070 25/23Q1014 A2994 HR88 CB/TS/N/NE/SW/W REDZ RWY NML=METAR SLVG 152000Z 18007KT 7000 SCT020 BKN070 18/14 Q1023 A3021 HR73FU RWY HUM OPR=METAR SLRB 152000Z 00000KT 5000 TSFU BKN020 FEW025CB 26/22 Q1013A2991 HR77 CB/TS/N/NW RWY NML=METAR SLPS 152000Z 18006KT 5000 FU SCT017 BKN070 OVC200 24/23 Q1012A2989 HR90=METAR SLCA 152000Z 18004KT 9999 SCT036 BKN070 25/13 Q1017 A3003 HR48FU RWY NML=
ZPX0752 152001@CAELT@GG SLZZYMYT@CAELT@151959 SLLPYFYA@CAELT@SABO SLRY 152000@CAELT@METAR SLRY 152000Z 36006KT 6000 FEW020 FEW025CB BKN200 26/21 Q1007@CAELT@A2974 HR74 CB/E FU RWY NML=@CAELT@
ZPX0754 152002@CAELT@GG SLZZYMYT@CAELT@152000 SLTRYGYS@CAELT@SABO SLTR 152000@CAELT@METAR SLTR 152000Z 29008KT 5000 FU FEW020 SCT200 34/23 Q1007@CAELT@A2976 989.4 HR54 NOSIG=@CAELT@METAR SLGM 151000Z 00000KT 8000 VCSH SCT017 FEW020CB BKN080 32/26@CAELT@Q1008 A2977 HR70 FU RETS CB NE/E/NW SH NE=@CAELT@METAR SLRI 152000Z 03010KT 7000 SCT017 FEW020CB BKN200 32/23 Q1008A2979 HR59 CB S/SW FU=METAR SLJO 152000Z NIL=METAR SLRA 152000Z NIL=METAR SLMG 152000Z NIL=METAR SLBU 152000Z NIL=METAR SLSA 152000Z 31007KT 5000 FU FEW020 FEW023CB 33/22 Q1008 A2977HR53 CB NE=METAR SLSR 152000Z NIL=METAR SLSM 152000Z NIL=
ZPX0756 152003@CAELT@GG SLZZYMYT@CAELT@152000 SLCBYGYS@CAELT@SABO SLCB 152000@CAELT@METAR SLCB 152000Z 21009KT 9999 FEW036 FEW040CB SCT200 24/04 Q1021@CAELT@A3017 748.9 HR28 CB SE/S AC FU NOSIG=@CAELT@METAR SLAL 152000Z 02014KT 9999 SCT020 FEW030CB 15/09 Q1027 A3034 702@CAELT@.3 HR66 CB/S FU=@CAELT@METAR SLAG 152000Z NIL=METAR SLVM 152000Z NIL=METAR SLTJ 152000Z 18006KT 5000 FU BKN030 OVC070 17/12 Q1020 A3013815.1 HR71=METAR SLYA 152000Z NIL=METAR SLBJ 152000Z NIL=
ZPX0757 152003@CAELT@GG SLZZYMYT@CAELT@152000 SLLPYFYA@CAELT@SABO SLLP 152000@CAELT@METAR SLLP 152000Z 09011KT 9999 FEW017 FEW020CB SCT200 14/M01@CAELT@Q1035 A3058 626.3 HR37 P1483 CB/NE AC NOSIG=@CAELT@METAR SLCO 152000Z 36004KT 7000 -TSRA SCT023 FEW025CB SCT080@CAELT@BKN200 25/25 Q1010 A2985 983.5 HR98 TS/W CB/NE/E/W=@CAELT@METAR SLRY 152000Z 36006KT 6000 FEW020 FEW025CB BKN200 26/21 Q1007A2974 HR74 CB/E FU RWY NML=METAR SLRQ 152000Z 36005KT 6000 FEW020 FEW023CB BKN200 33/24 Q1008A2977 984.1 HR60 CB S/SW/W/NW FU=METAR SLSB 152000Z 00000KT 7000 VCSH SCT013 FEW025CB OVC070 23/22Q1007 A2976 HR93 CB SH SE SW W NW RWY WET OPR C210=
ZPX0788 152052@CAELT@GG SLZZYMYT@CAELT@152052 SLPSYGYS@CAELT@SABO SLPS 152100@CAELT@METAR SLPS 152100Z 18006KT 5000 FU BKN070 OVC200 24/23 Q1012 A2989@CAELT@HR92=@CAELT@
ZPX0790 152054@CAELT@GG SLZZYMYT@CAELT@152054 SLSAYGYS@CAELT@SABO SLSA 152100@CAELT@METAR SLSA 152100Z 36015KT 5000 VCSH FU SCT020 FEW023CB BKN200 30/22@CAELT@Q1008 A2977 HR59 CB/SH N/NE/NW=@CAELT@
ZPX0791 152056@CAELT@GG SLZZYMYT@CAELT@152055 SLLPYGYZ@CAELT@SABO SLLP 152100@CAELT@METAR SLLP 152100Z 10009KT 9999 FEW017 FEW020CB SCT200 11/00@CAELT@Q1034 A3056 625.9 HR47 P1483 CB/NE/NW AC NOSIG=@CAELT@
ZPX0792 152056@CAELT@GG SLZZYMYT@CAELT@152056 SLCAYGYS@CAELT@SABO SLCA 152100@CAELT@METAR SLCA 152100Z 18004KT 9999 OVC070 24/12 Q1017 A3003 HR49 FU RWY@CAELT@NML=@CAELT@
ZPX0793 152056@CAELT@GG SLZZYMYT@CAELT@152056 SLTRYGYZ@CAELT@SABO SLTR 152100@CAELT@METAR SLTR 152100Z 30007KT 5000 FU FEW023CB SCT200 33/23 Q1007@CAELT@A2976 989.4 HR57 CB NE NOSIG=@CAELT@
ZPX0794 152056@CAELT@GG SLZZYMYT@CAELT@152055 SLRQYSYX@CAELT@SABO SLRQ 152100@CAELT@METAR SLRQ 152100Z 04006KT 6000 FEW020 FEW023CB BKN200 30/23 Q1008@CAELT@A2978 984.3 HR67 CB N/NE/E/NW FU=@CAELT@
ZPX0795 152056@CAELT@GG SLZZYMYT@CAELT@152055 SLETYMYC@CAELT@SABO SLET 152100@CAELT@METAR SLET 152100Z 15014KT 6000 SCT023 BKN070 BKN200 29/16 Q1011@CAELT@A2988 HR46 FU NOSIG=@CAELT@
ZPX0796 152056@CAELT@GG SLZZYMYT@CAELT@152057 SLVRYGYZ@CAELT@SABO SLVR 152100@CAELT@METAR SLVR 152100Z 16010KT 5000 FU SCT023 BKN070 29/17 Q1011 A2988@CAELT@HR49 CI NOSIG=@CAELT@
ZPX0798 152057@CAELT@GG SLZZYMYT@CAELT@152057 SLCOYGYZ@CAELT@SABO SLCO 152100@CAELT@METAR SLCO 152100Z 00000KT 8000 -RA SCT023 FEW025CB SCT080@CAELT@BKN200 25/25 Q1009 A2981 982.1 HR97 CB/E/SE/S RETS=@CAELT@
ZPX0800 152058@CAELT@GG SLZZYMYT@CAELT@152058 SLCBYGYZ@CAELT@SABO SLCB 152100@CAELT@METAR SLCB 152100Z 17007KT 9999 FEW036 FEW040CB SCT080 BKN200 23/08@CAELT@Q1022 A3018 749.0 HR37 CB NW/N/NE FU NOSIG=@CAELT@
ZPX0801 152059@CAELT@GG SLZZYMYT@CAELT@152058 SLTRYGYS@CAELT@SABO SLTR 152100@CAELT@METAR SLTR 152100Z 30007KT 5000 FU FEW023CB SCT200 33/23 Q1007@CAELT@A2976 989.4 HR57 CB NE NOSIG=@CAELT@METAR SLGM 152100Z 00000KT 8000 SCT017 FEW020CB BKN20033/26 Q1007@CAELT@A2974 HR65 FU AC CB NE=@CAELT@METAR SLRI 152100Z 36010KT 7000 FEW017 BKN200 32/23 Q1008 A2977 HR60FU AC=METAR SLJO 152100Z NIL=METAR SLRA 152100Z NIL=METAR SLMG 152100Z NIL=METAR SLBU 152100Z NIL=METAR SLSA 152100Z 36015KT 5000 VCSH FU SCT020 FEW023CB BKN200 30/22Q1008 A2977 HR59 CB/SH N/NE/NW=METAR SLSR 152100Z NIL=METAR SLSM 152100Z NIL=
ZPX0802 152059@CAELT@GG SLZZYMYT@CAELT@152057 SLRBYGYS@CAELT@SABO SLRB 152100@CAELT@METAR SLRB 152100Z 00000KT 5000 FU BKN020 26/22 Q1013 A2991 HR77 RETS@CAELT@RWY NML=@CAELT@
ZPX0805 152100@CAELT@GG SLZZYMYT@CAELT@152059 SLSBYSYX@CAELT@SABO SLSB 152100@CAELT@METAR SLSB 152100Z 33006KT 7000 TS VCSH SCT015 FEW025CB OVC070 25/23@CAELT@Q1009 A2982 HR92 TS CB SH NW N RWY WET OPR C210=@CAELT@
ZPX0806 152101@CAELT@GG SLZZYMYT@CAELT@152100 SLVRYGYS@CAELT@SABO SLVR 152100@CAELT@METAR SLVR 152100Z 16010KT 5000 FU SCT023 BKN070 29/17 Q1011 A2988@CAELT@HR49 CI NOSIG=@CAELT@METAR SLET 152100Z 15014KT 6000 SCT023 BKN070 BKN200 29/16 Q1011@CAELT@A2988 HR46 FU NOSIG=@CAELT@METAR SLAS 152100Z 18005KT 8000 -TSRA BKN020 FEW030CB OVC200 26/24Q1013 A2991 HR91 CB/TS/W/SW RWY WET OPR=METAR SLJV 152100Z 18006KT 5000 TSFU SCT015 FEW023CB OVX070 21/20Q1011 A2985 HR94 REY HUM OP=METAR SLCP 152100Z 21010KT 7000 BKN025 FEW030CB OVC070 22/21 Q1014A2994 HR96 CB N/NE FU RETSRA RWY WET OPR=METAR SLSI 152100Z 21005KT 3000 TSRAFU BKN020 FEW025CB OVC070 23/22Q1012 A2988 HR92 CB/TS ON STN/NW/W/SW RWY WET OPR=METAR SLTI 152100Z 17015KT 6000 BKN020 OVC070 29/21 Q1014 A2994 HR64FU RWY NML=METAR SLJE 152100Z 00000KT 1500 DZFU SCT015 FEW030CB OVC070 25/23Q1014 A2994 HR91 CB/SE/S/W RETS RWY HUM OPR=METAR SLVG 152100Z 18005KT 7000 SCT020 OVC070 18/14 Q1024 A3024 HR77FU RWY HUM OPR=METAR SLRB 152100Z 00000KT 5000 FU BKN020 26/22 Q1013 A2991 HR77 RETSRWY NML=METAR SLPS 152100Z 18006KT 5000 FU BKN070 OVC200 24/23 Q1012 A2989HR92=METAR SLCA 152100Z 18004KT 9999 OVC070 24/12 Q1017 A3003 HR49 FU RWYNML=
ZPX0809 152106@CAELT@GG SLZZYMYT@CAELT@152100 SLLPYFYA@CAELT@SABO SLRY 152100@CAELT@METAR SLRY 152100Z 09004KT 6000 TS VCSH FEW020 FEW023CB BKN200 26/22@CAELT@Q1006 A2073 HR75 CB/TS/SH E/SE FU RWY NML=@CAELT@
ZPX0819 152154@CAELT@GG SLZZYMYT@CAELT@152154 SLSAYGYS@CAELT@SABO SLSA 152200@CAELT@METAR SLSA 152200Z 34007KT 5000 FU SCT020 FEW023CB BKN200 29/22@CAELT@Q1008 A2977 HR66 CB N/NW=@CAELT@
ZPX0820 152154@CAELT@GG SLZZYMYT@CAELT@152154 SLSAYGYS@CAELT@SABO SLSA 152200@CAELT@METAR SLSA 152200Z 34007KT 5000 FU SCT020 FEW023CB BKN200 29/22@CAELT@Q1008 A2977 HR66 CB N/NW=@CAELT@
ZPX0821 152154@CAELT@GG SLZZYMYT@CAELT@152154 SLPSYGYS@CAELT@SABO SLPS 152200@CAELT@METAR SLPS 152200Z 18006KT 5000 FU BKN070 OVC200 24/23 Q1012 A2989@CAELT@HR92=@CAELT@
ZPX0822 152155@CAELT@GG SLZZYMYT@CAELT@152154 SLCBYGYZ@CAELT@SABO SLCB 152200@CAELT@METAR SLCB 152200Z 23007KT 9999 FEW036 FEW040CB BKN080 BKN200 20/05@CAELT@Q1022 A3020 749.5 HR36 CB W/N/NE FU NOSIG=@CAELT@
ZPX0823 152155@CAELT@GG SLZZYMYT@CAELT@152155 SLTRYGYZ@CAELT@SABO SLTR 152200@CAELT@METAR SLTR 152200Z 00000KT 5000 FU FEW023CB BKN200 32/24 Q1008 A2978@CAELT@990.1 HR61 CB NE NOSIG=@CAELT@
ZPX0824 152155@CAELT@GG SLZZYMYT@CAELT@152155 SLSBYSYX@CAELT@SABO SLSB 152200@CAELT@METAR SLSB 152200Z 20004KT 8000 VCSH SCT015 OVC070 25/23 Q1007 A2976@CAELT@HR89 SH SW W NW RWY WET OPR C210=@CAELT@
ZPX0825 152156@CAELT@GG SLZZYMYT@CAELT@152155 SLLPYGYZ@CAELT@SABO SLLP 152200@CAELT@METAR SLLP 152200Z 13010G20KT 9999 FEW017 FEW020CB SCT200@CAELT@11/01 Q1035 A3057 626.0 HR49 P1483 CB/NE/S AC NOSIG=@CAELT@
ZPX0826 152156@CAELT@GG SLZZYMYT@CAELT@152156 SLVRYGYZ@CAELT@SABO SLVR 152200@CAELT@METAR SLVR 152200Z 17010KT 5000 FU SCT023 BKN070 28/18 Q1012 A2991@CAELT@HR53 CI NOSIG=@CAELT@
ZPX0827 152156@CAELT@GG SLZZYMYT@CAELT@152155 SLCAYGYS@CAELT@SABO SLCA 152200@CAELT@METAR SLCA 152200Z 18005KT 9999 SCT036 OVC070 23/13 Q1019 A3009 HR53@CAELT@FU RWY NML=@CAELT@
ZPX0828 152156@CAELT@GG SLZZYMYT@CAELT@152155 SLRQYSYX@CAELT@SABO SLRQ 152200@CAELT@METAR SLRQ 152200Z 00000KT 6000 FEW020 SCT080 BKN200 28/22 Q1008@CAELT@A2977 984.2 HR72 FU=@CAELT@
ZPX0829 152156@CAELT@GG SLZZYMYT@CAELT@152157 SLCOYGYZ@CAELT@SABO SLCO 152200@CAELT@METAR SLCO 152200Z 00000KT 9999 FEW023 FEW025CB SCT080@CAELT@BKN200 24/23 Q1009 A2980 981.9 HR95 CB/SH/E/SE/S RERA=@CAELT@
ZPX0830 152156@CAELT@GG SLZZYMYT@CAELT@152155 SLRBYGYS@CAELT@SABO SLRB 152200@CAELT@METAR SLRB 152200Z 00000KT 5000 FU OVC015 24/23 Q1016 A3000 HR90 RWY@CAELT@NML=@CAELT@
ZPX0833 152157@CAELT@GG SLZZYMYT@CAELT@152156 SLETYMYC@CAELT@SABO SLET 152200@CAELT@METAR SLET 152200Z 15013KT 5000 FU SCT023 BKN070 BKN200 28/16 Q1012@CAELT@A2991 HR50 NOSIG=@CAELT@
ZPX0834 152158@CAELT@GG SLZZYMYT@CAELT@152157 SLVRYGYS@CAELT@SABO SLVR 152200@CAELT@METAR SLVR 152200Z 17010KT 5000 FU SCT023 BKN070 28/18 Q1012 A2991@CAELT@HR53 CI NOSIG=@CAELT@METAR SLET 152200Z 15013KT 5000 FU SCT023 BKN070 BKN200 28/16 Q1012@CAELT@A2991 HR50 NOSIG=@CAELT@METAR SLAS 152200Z 00000KT 8000 -RA BKN020 FEWO30CB OVC200 26/24Q1014 A2994 HR91 CB/W RETS RWY WET OPR=METAR SLJV 152200Z 00000KT 5000 FU SCT017 OVC070 20/20 Q1011 A2985HR92 RWY REST RWY HUM OP=METAR SLCP 152200Z 00000KT 7000 BKN025 FEW030CB OVC070 22/21 Q1015A2997 HR96 CB N/NE FU RWY WET OPR=METAR SLSI 152200Z 18005KT 3000 TSRAFU BKN017 FEW025CB OVC070 23/22Q1013 A2991 HR95 CB/TS SW/W RWY WET OPR=METAR SLTI 152200Z 16010KT 6000 BKN020 OVC070 26/22 Q1016 A3000 HR79FU RWY NML=METAR SLJE 152200Z 00000KT 1500 FU SCT015 OVC070 24/23 Q1015 A2997HR93 REDZ RWY HUM OPR=METAR SLRB 152200Z 00000KT 5000 FU OVC015 24/23 Q1016 A3000 HR90 RWYNML=METAR SLPS 152200Z 18006KT 5000 FU BKN070 OVC200 24/23 Q1012 A2989HR92=METAR SLCA 152200Z 18005KT 9999 SCT036 OVC070 23/13 Q1019 A3009 HR53
ZPX0835 152159@CAELT@GG SLZZYMYT@CAELT@152158 SLTRYGYS@CAELT@SABO SLTR 152200@CAELT@METAR SLTR 152200Z 00000KT 5000 FU FEW023CB BKN200 32/24 Q1008 A2978@CAELT@990.1 HR61 CB NE NOSIG=@CAELT@METAR SLGM 152200Z 29005KT 8000 FEW017 FEW020CB BKN200 31/25 Q1008@CAELT@A2977 HR71 FU CB NE/E=@CAELT@METAR SLRI 152200Z 34008KT 7000 FEW017 BKN200 31/22 Q1008 A2979 HR59FU AC=METAR SLJO 152200Z NIL=METAR SLRA 152200Z NIL=METAR SLMG 152200Z NIL=METAR SLBU 152200Z NIL=METAR SLSA 152200Z 34007KT 5000 FU SCT020 FEW023CB BKN200 29/22Q1008 A2977 HR66 CB N/NW=METAR SLSR 152200Z NIL=METAR SLSM 152200Z NIL=
ZPX0841 152209@CAELT@GG SLZZYMYT@CAELT@152200 SLLPYFYA@CAELT@SABO SLRY 152200@CAELT@METAR SLRY 152200Z 00000T 7000 FEW020 BKN080 BKN200 26/22 Q1006@CAELT@A2972 HR78 FU RETS RWY NML=@CAELT@
ZPX0842 152211@CAELT@GG SLZZYMYT@CAELT@152202 SLLPYFYA@CAELT@SABO SLLP 152200@CAELT@METAR SLLP 152200Z 13010G20KT 9999 FEW017 FEW020CB SCT200@CAELT@11/01 Q1035 A3057 626.0 HR49 P1483 CB/NE/S AC NOSIG=@CAELT@METAR SLCO 152200Z 00000KT 9999 FEW023 FEW025CB SCT080@CAELT@BKN200 24/23 Q1009 A2980 981.9 HR95 CB/SH/E/SE/S RERA=@CAELT@METAR SLRY 152200Z 00000T 7000 FEW020 BKN080 BKN200 26/22 Q1006A2972 HR78 FU RETS RWY NML=METAR SLRQ 152200Z 00000KT 6000 FEW020 SCT080 BKN200 28/22 Q1008A2977 984.2 HR72 FU=METAR SLSB 152200Z 20004KT 8000 VCSH SCT015 OVC070 25/23 Q1007 A2976HR89 SH SW W NW RWY WET OPR C210=
ZPX0849 152254@CAELT@GG SLZZYMYT@CAELT@152255 SLSBYSYX@CAELT@SABO SLSB 152300@CAELT@METAR SLSB 152300Z 00000KT 8000 BKN070 BKN200 25/23 Q1008 A2978 HR91@CAELT@FU RWY WET OPR C210=@CAELT@
ZPX0850 152254@CAELT@GG SLZZYMYT@CAELT@152255 SLCOYGYZ@CAELT@SABO SLCO 152300@CAELT@METAR SLCO 152300Z 36003KT 9999 FEW023 FEW025CB SCT080@CAELT@BKN200 23/23 Q1009 A2981 982.2 HR97 CB/SH/E/SE=@CAELT@
ZPX0851 152254@CAELT@GG SLZZYMYT@CAELT@152253 SLRBYGYS@CAELT@SABO SLRB 152300@CAELT@METAR SLRB 152300Z 00000KT 5000 FU OVC015 24/23 Q1016 A3000 HR90 RWY@CAELT@NML=@CAELT@
ZPX0852 152255@CAELT@GG SLZZYMYT@CAELT@152255 SLVRYGYZ@CAELT@SABO SLVR 152300@CAELT@METAR SLVR 152300Z 15007KT 5000 FU SCT023 BKN070 27/18 Q1013 A2993@CAELT@HR58 CI NOSIG=@CAELT@
ZPX0853 152255@CAELT@GG SLZZYMYT@CAELT@152255 SLCAYGYS@CAELT@SABO SLCA 152300@CAELT@METAR SLCA 152300Z 18004KT 9999 FEW036 BKN070 22/13 Q1019 A3009 HR57@CAELT@FU RWY NML=@CAELT@
ZPX0854 152256@CAELT@GG SLLPZRZX@CAELT@152255 SLLPYGYZ@CAELT@SABO SLLP 152300@CAELT@METAR SLLP 152300Z 12008KT 9999 FEW017 FEW020CB SCT200 09/02@CAELT@Q1036 A3060 626.9 HR60 CB/LT SW AC NOSIG=@CAELT@
ZPX0855 152257@CAELT@GG SLZZYMYT@CAELT@152257 SLCBYGYZ@CAELT@SABO SLCB 152300@CAELT@METAR SLCB 152300Z 21006KT 9999 FEW036 FEW040CB BKN080 BKN200 20/06@CAELT@Q1023 A3022 750.1 HR40 CB/W/NE/E FU NOSIG=@CAELT@
ZPX0857 152300@CAELT@GG SLZZYMYT@CAELT@152257 SLLPYFYA@CAELT@SABO SLLP 152300@CAELT@METAR SLLP 152300Z 12008KT 9999 FEW017 FEW020CB SCT200 09/02@CAELT@Q1036 A3060 626.9 HR60 CB/LT SW AC NOSIG=@CAELT@METAR SLCO 152300Z 36003KT 9999 FEW023 FEW025CB SCT080@CAELT@BKN200 23/23 Q1009 A2981 982.2 HR97 CB/SH/E/SE=@CAELT@METAR SLSB 152300Z 00000KT 8000 BKN070 BKN200 25/23 Q1008A2978 HR91 FU RWY WET OPR C210=
ZPX0858 152301@CAELT@GG SLZZYMYT@CAELT@152301 SLVRYGYS@CAELT@SABO SLVR 152300@CAELT@METAR SLVR 152300Z 15007KT 5000 FU SCT023 BKN070 27/18 Q1013 A2993@CAELT@HR58 CI NOSIG=@CAELT@METAR SLSI 15200Z 00000KT 2000 -RA FU BKN017 OVC070 22/21 Q1014 A2994@CAELT@HR96 RETS RWY WET OPR@CAELT@METAR SLRB 152300Z 00000KT 5000 FU OVC015 24/23 Q1016 A3000 HR90 RWYNML=METAR SLCA 152300Z 18004KT 9999 FEW036 BKN070 22/13 Q1019 A3009 HR57FU RWY NML=
ZPX0869 152356@CAELT@GG SLLPZRZX@CAELT@152355 SLLPYGYZ@CAELT@SABO SLLP 160000@CAELT@METAR SLLP 160000Z 11010KT 9999 FEW015 FEW017CB BKN200 08/02@CAELT@Q1037 A3065 627.8 HR67 CB/LT NE/SW AC NOSIG=@CAELT@
ZPX0870 152357@CAELT@GG SLZZYMYT@CAELT@152358 SLVRYGYZ@CAELT@SABO SLVR 160000@CAELT@METAR SLVR 160000Z 18009KT 9999 SCT023 BKN070 26/17 Q1014 A2996 HR58@CAELT@FU NOSIG=@CAELT@
