
ZPX0027 130054@CAELT@GG SLZZYMYT@CAELT@130054 SLCBYGYZ@CAELT@SABO SLCB 130100@CAELT@METAR SLCB 130100Z 25003KT 9999 FEW033 BKN200 17/05 Q1026 A3031 752.4@CAELT@HR47 AC FU NOSIG=@CAELT@
ZPX0028 130054@CAELT@GG SLZZYMYT@CAELT@130055 SLVRYGYZ@CAELT@SABO SLVR 130100@CAELT@METAR SLVR 130100Z 30007KT 5000 FU NSC 28/22 Q1011 A2986 HR71 NOSIG=@CAELT@
ZPX0030 130056@CAELT@GG SLLPZRZX@CAELT@130056 SLLPYGYZ@CAELT@SABO SLLP 130100@CAELT@METAR SLLP 130100Z 05009KT 9999 FEW015 FEW017CB BKN200 06/M04 Q1038@CAELT@A3068 628.5 HR48 CB/LT/DIST S/SW AC NOSIG=@CAELT@
ZPX0046 130153@CAELT@GG SLZZYMYT@CAELT@130154 SLVRYGYZ@CAELT@SABO SLVR 130200@CAELT@METAR SLVR 130200Z 29009KT 6000 NSC 27/22 Q1011 A2987 HR73 FU NOSIG=@CAELT@
ZPX0047 130154@CAELT@GG SLZZYMYT@CAELT@130154 SLCBYGYZ@CAELT@SABO SLCB 130200@CAELT@METAR SLCB 130200Z 32004KT 9999 FEW033 SCT080 BKN200 17/05 Q1027@CAELT@A3034 753.3 HR46 FU NOSIG=@CAELT@
ZPX0050 130211@CAELT@GG SLLPZRZX@CAELT@130211 SLLPYGYZ@CAELT@SABO SLLP 130200@CAELT@METAR SLLP 130200Z 07009KT 9999 FEW013 BKN200 05/M05 Q1040 A3071 629.@CAELT@3 HR50 NOSIG=@CAELT@
ZPX0059 130254@CAELT@GG SLZZYMYT@CAELT@130254 SLCBYGYZ@CAELT@SABO SLCB 130300@CAELT@METAR SLCB 130300Z 20003KT 9999 FEW033 SCT080 BKN200 15/05 Q1027@CAELT@A3034 753.3 HR51 FU NOSIG=@CAELT@
ZPX0060 130254@CAELT@GG SLZZYMYT@CAELT@130255 SLVRYGYZ@CAELT@SABO SLVR 130300@CAELT@METAR SLVR 130300Z 29006KT 6000 NSC 26/22 Q1011 A2987 HR75 FU NOSIG=@CAELT@
ZPX0061 130255@CAELT@GG SLLPZRZX@CAELT@130256 SLLPYGYZ@CAELT@SABO SLLP 130300@CAELT@METAR SLLP 130300Z 07003KT 9999 FEW013 BKN200 03/M03 Q1040 A3072@CAELT@629.5 HR65 NOSIG=@CAELT@
ZPX0070 130354@CAELT@GG SLZZYMYT@CAELT@130354 SLCBYGYZ@CAELT@SABO SLCB 130400@CAELT@METAR SLCB 130400Z 28003KT 9999 FEW033 BKN200 14/06 Q1026 A3032 752.8@CAELT@HR58 AC FU NOSIG=@CAELT@
ZPX0071 130355@CAELT@GG SLZZYMYT@CAELT@130355 SLVRYGYZ@CAELT@SABO SLVR 130400@CAELT@METAR SLVR 130400Z 35004KT 5000 FU NSC 26/22 Q1011 A2986 HR76 NOSIG=@CAELT@
ZPX0072 130356@CAELT@GG SLLPZRZX@CAELT@130356 SLLPYGYZ@CAELT@SABO SLLP 130400@CAELT@METAR SLLP 130400Z 06004KT 9999 FEW006 BKN200 02/00 Q1039 A3070 629.1@CAELT@HR89 NOSIG=@CAELT@
ZPX0079 130454@CAELT@GG SLZZYMYT@CAELT@130454 SLCBYGYZ@CAELT@SABO SLCB 130500@CAELT@METAR SLCB 130500Z 09003KT 9999 FEW033 BKN200 14/05 Q1026 A3032 752.8@CAELT@HR55 AC FU NOSIG=@CAELT@
ZPX0080 130454@CAELT@GG SLZZYMYT@CAELT@130455 SLVRYGYZ@CAELT@SABO SLVR 130500@CAELT@METAR SLVR 130500Z 29003KT 5000 FU NSC 26/22 Q1010 A2985 HR81 NOSIG=@CAELT@
ZPX0081 130455@CAELT@GG SLZZYMYT@CAELT@130455 SLLPYGYZ@CAELT@SABO SLLP 130500@CAELT@METAR SLLP 130500Z 06004KT 9999 FEW006 BKN200 02/00 Q1038 A3068@CAELT@628.6 HR89 NOSIG=@CAELT@
ZPX0088 130554@CAELT@GG SLZZYMYT@CAELT@130554 SLCBYGYZ@CAELT@SABO SLCB 130600@CAELT@METAR SLCB 130600Z 22003KT 9999 FEW033 SCT200 12/06 Q1026 A3032 752.6@CAELT@HR70 AC FU NOSIG=@CAELT@
ZPX0090 130555@CAELT@GG SLZZYMYT@CAELT@130556 SLVRYGYZ@CAELT@SABO SLVR 130600@CAELT@METAR SLVR 130600Z VRB02KT 4000 FU NSC 23/22 Q1010 A2984 HR90 NOSIG=@CAELT@
ZPX0091 130555@CAELT@GG SLLPZRZX@CAELT@130555 SLLPYGYZ@CAELT@SABO SLLP 130600@CAELT@METAR SLLP 130600Z 07003KT 9999 FEW004 BKN200 02/00 Q1038 A3067 628.3@CAELT@HR90 BECMG 4000E VCFG=@CAELT@
ZPX0098 130653@CAELT@GG SLZZYMYT@CAELT@130654 SLCBYGYZ@CAELT@SABO SLCB 130700@CAELT@METAR SLCB 130700Z 00000KT 9999 FEW033 SCT200 12/06 Q1026 A3031 752.5@CAELT@HR68 AC FU NOSIG=@CAELT@
ZPX0099 130655@CAELT@GG SLZZYMYT@CAELT@130656 SLVRYGYZ@CAELT@SABO SLVR 130700@CAELT@METAR SLVR 130700Z VRB02KT 4000 FU FEW070 23/21 Q1010 A2984 HR91@CAELT@NOSIG=@CAELT@
ZPX0100 130656@CAELT@GG SLLPZRZX@CAELT@130655 SLLPYGYZ@CAELT@SABO SLLP 130700@CAELT@METAR SLLP 130700Z 01003KT 9999 FEW004 SCT200 03/M03 Q1037 A3065 627.@CAELT@9 HR66 NOSIG=@CAELT@
ZPX0107 130754@CAELT@GG SLZZYMYT@CAELT@130754 SLCBYGYZ@CAELT@SABO SLCB 130800@CAELT@METAR SLCB 130800Z 00000KT 9999 FEW033 SCT200 11/06 Q1026 A3032 752.7@CAELT@HR67 AC FU NOSIG=@CAELT@
ZPX0108 130754@CAELT@GG SLZZYMYT@CAELT@130755 SLVRYGYZ@CAELT@SABO SLVR 130800@CAELT@METAR SLVR 130800Z VRB02KT 4000 FU FEW070 23/21 Q1010 A2984 HR88@CAELT@NOSIG=@CAELT@
ZPX0109 130755@CAELT@GG SLLPZRZX@CAELT@130755 SLLPYGYZ@CAELT@SABO SLLP 130800@CAELT@METAR SLLP 130800Z 01003KT 9999 FEW004 SCT200 00/M04 Q1037 A3064 627.@CAELT@7 HR73 NOSIG=@CAELT@
ZPX0122 130855@CAELT@GG SLZZYMYT@CAELT@130854 SLCBYGYZ@CAELT@SABO SLCB 130900@CAELT@METAR SLCB 130900Z 31004KT 9999 FEW033 SCT200 10/05 Q1027 A3034 753.3@CAELT@HR70 AC FU NOSIG=@CAELT@
ZPX0123 130855@CAELT@GG SLZZYMYT@CAELT@130856 SLVRYGYZ@CAELT@SABO SLVR 130900@CAELT@METAR SLVR 130900Z 35004KT 4000 FU FEW070 23/21 Q1011 A2986 HR89@CAELT@NOSIG=@CAELT@
ZPX0124 130856@CAELT@GG SLLPZRZX@CAELT@130855 SLLPYGYZ@CAELT@SABO SLLP 130900@CAELT@METAR SLLP 130900Z 08004KT 9999 FEW003 SCT200 M01/M02 Q1037 A3065 627@CAELT@.9 HR90 NOSIG=@CAELT@
ZPX0141 130952@CAELT@GG SLZZYMYT@CAELT@130952 SLPSYGYS@CAELT@SABO SLPS 131000@CAELT@METAR SLPS 131000Z 00000KT 0800 FU NSC 26/23 Q1010 A2983 HR85=@CAELT@
ZPX0142 130953@CAELT@GG SLZZYMYT@CAELT@130952 SLRBYGYS@CAELT@SABO SLRB 131000@CAELT@METAR SLRB 131000Z 00000KT 3000 FU NSC 24/20 Q1014 A2994 HR76 RWY NML=@CAELT@
ZPX0143 130953@CAELT@GG SLZZYMYT@CAELT@130954 SLSBYSYX@CAELT@SABO SLSB 131000@CAELT@METAR SLSB 131000Z 00000KT 4000 FU BKN080 24/24 Q1009 A2982 HR97@CAELT@RWY NML=@CAELT@
ZPX0144 130954@CAELT@GG SLZZYMYT@CAELT@130957 SLUYYGYS@CAELT@SABO SLUY 131000@CAELT@METAR SLUY 131000Z 00000KT 9999 FEW070 BKN200 06/00 Q1034 A3056@CAELT@658.9 HR65 FU=@CAELT@
ZPX0145 130954@CAELT@GG SLZZYMYT@CAELT@130954 SLSAYGYS@CAELT@SABO SLSA 131000@CAELT@METAR SLSA 131000Z 00000KT 3000 FU NSC 24/22 Q1010 A2983 HR91 CI=@CAELT@
ZPX0146 130954@CAELT@GG SLZZYMYT@CAELT@130954 SLCBYGYZ@CAELT@SABO SLCB 131000@CAELT@METAR SLCB 131000Z 00000KT 8000 FEW030 SCT200 10/04 Q1028 A3037 754.0@CAELT@HR69 AC FU NOSIG=@CAELT@
ZPX0147 130954@CAELT@GG SLZZYMYT@CAELT@130955 SLRQYSYX@CAELT@SABO SLRQ 131000@CAELT@METAR SLRQ 131000Z 00000KT 4000 FU BKN080 24/24 Q1011 A2986 987.0@CAELT@HR98=@CAELT@
ZPX0148 130954@CAELT@GG SLZZYMYT@CAELT@130955 SLVRYGYZ@CAELT@SABO SLVR 131000@CAELT@METAR SLVR 131000Z 24004KT 3000 FU FEW070 SCT200 22/21 Q1012 A2990@CAELT@HR92 NOSIG=@CAELT@
ZPX0149 130955@CAELT@GG SLZZYMYT@CAELT@130955 SLCOYGYZ@CAELT@SABO SLCO 131000@CAELT@METAR SLCO 131000Z 00000KT 1000 FU BKN080 OVC200 24/22 Q1011 A2986@CAELT@983.9 HR89=@CAELT@
ZPX0150 130956@CAELT@GG SLZZYMYT@CAELT@130956 SLCAYGYS@CAELT@SABO SLCA 131000@CAELT@METAR SLCA 131000Z 00000KT 8000 SCT033 20/11 Q1017 A3003 HR57 FU RWY@CAELT@NML=@CAELT@
ZPX0151 130956@CAELT@GG SLZZYMYT@CAELT@130955 SLLPYGYZ@CAELT@SABO SLLP 131000@CAELT@METAR SLLP 131000Z 08005KT 4000E VCFG FEW003 SCT200 M01/M02 Q1038@CAELT@A3067 628.3 HR94 P3281 VCFG E/SE/S AC FU NOSIG=@CAELT@
ZPX0152 130958@CAELT@GG SLZZYMYT@CAELT@130958 SLTRYGYZ@CAELT@SABO SLTR 131000@CAELT@METAR SLTR 131000Z 00000KT 3000 FU NSC 26/23 Q1011 A2987 993.0 HR85@CAELT@CI NOSIG=@CAELT@
ZPX0154 131001@CAELT@GG SLZZYMYT@CAELT@131000 SLVRYGYS@CAELT@SABO SLVR 131000@CAELT@METAR SLVR 131000Z 24004KT 3000 FU FEW070 SCT200 22/21 Q1012 A2990@CAELT@HR92 NOSIG=@CAELT@METAR SLET 131000Z NIL=@CAELT@METAR SLCP 131000Z 00000KT 0500 FU OVC070 23/21 Q1016 A3000 HR88 RWY@CAELT@NML=METAR SLSI 131000Z 00000KT 3000 FU NSC 22/19 Q1013 A2991 HR 82 RWYMETAR SLRB 131000Z 00000KT 3000 FU NSC 24/20 Q1014 A2994 HR76 RWY NMLMETAR SLPS 131000Z 00000KT 0800 FU NSC 26/23 Q1010 A2983 HR85=METAR SLCA 131000Z 00000KT 8000 SCT033 20/11 Q1017 A3003 HR57 FU RWY
ZPX0156 131003@CAELT@GG SLZZYMYT@CAELT@131000 SLTRYGYS@CAELT@SABO SLTR 131000@CAELT@METAR SLTR 131000Z 00000KT 3000 FU NSC 26/23 Q1011 A2987 HR993.0@CAELT@HR85 CI NOSIG=@CAELT@METAR SLGM 131000Z 00000KT 3000 FU FEW080 SCT200 23/22 Q1010 A2983@CAELT@HR96=@CAELT@METAR SLRI 131000Z 00000KT 3000 FU NSC 22/22 Q1011 A2986 HR95=METAR SLJO 131000Z 00000KT 5000 FU NSC 22/21 Q1009 A2982 HR96 CIRWY NML=METAR SLRA 131000Z 00000KT 4000 FU SCT080 BKN200 24/23 Q1010 A2983HR97 RWY NML=METAR SLMG 131000Z NIL=METAR SLBU 131000Z NIL=METAR SLSA 131000Z 00000KT 3000 FU NSC 24/22 Q1010 A2983 HR91 CI=METAR SLSR 131000Z 00000KT 3000 FU NSC 24/23 Q1009 A2979 HR91 CIMETAR SLSM 131000Z 00000KT 2000 FU SCT080 23/22 Q1010 A2984 HR95
ZPX0157 131003@CAELT@GG SLZZYMYT@CAELT@131000 SLLPYFYA@CAELT@SABO SLRY 131000@CAELT@METAR SLRY 131000Z 00000KT 5000 FU BKN080 24/23 Q1008 A2978@CAELT@HR98 RWY NML=@CAELT@
ZPX0158 131005@CAELT@GG SLZZYMYT@CAELT@131004 SLLPYFYA@CAELT@SABO SLLP 131000@CAELT@METAR SLLP 131000Z 08005KT 4000E VCFG FEW003 SCT200 M01/M02@CAELT@Q1038 A3067 628.3 HR94 P3281 VCFG E/SE/S AC FU NOSIG=@CAELT@METAR SLCO 131000Z 00000KT 1000 FU BKN080 OVC200 24/22 Q1011@CAELT@A2986 983.9 HR89=@CAELT@METAR SLRY 131000Z 00000KT 5000 FU BKN080 24/23 Q1008 A2978HR98 RWY NML=METAR SLRQ 131000Z 00000KT 4000 FU BKN080 24/24 Q1011 A2986987.0 HR98=METAR SLAP 131000Z 00000KT 3000 FU FEW020 OVC070 18/16 Q1019A3011 860.0 HR89=METAR SLSB 131000Z 00000KT 4000 FU BKN080 24/24 Q1009 A2982HR97 RWY NML=METAR SLUY 131000Z 00000KT 9999 FEW070 BKN200 06/00 Q1034A3056 658.9 HR65 FU=
ZPX0159 131008@CAELT@GG SLZZYMYT@CAELT@131006 SLETYMYC@CAELT@SABO SLET 131000@CAELT@METAR SLET 131000Z 27004KT 3500 FU FEW070 23/20 Q1012 A2990 HR82 CI@CAELT@NOSIG=@CAELT@
ZPX0160 131013@CAELT@GG SLZZYMYT@CAELT@131010 SLTRYGYS@CAELT@SABO SLTR 131000 RRA@CAELT@METAR SLTR 131000Z 00000KT 3000 FU NSC 26/23 Q1011 A2987 HR993.0@CAELT@HR85 CI NOSIG=@CAELT@METAR SLGM 131000Z 00000KT 3000 FU FEW080 SCT200 23/22 Q1010 A2983@CAELT@HR96=@CAELT@METAR SLRI 131000Z 00000KT 3000 FU NSC 22/22 Q1011 A2986 HR95=METAR SLJO 131000Z 00000KT 5000 FU NSC 22/21 Q1009 A2982 HR96 CIRWY NML=METAR SLRA 131000Z 00000KT 4000 FU SCT080 BKN200 24/23 Q1010 A2983HR97 RWY NML=METAR RTD SLMG 131000Z 00000KT 5000 FU SCT080 BKN200 25/24 Q1010A2983 HR94 RWY NML=METAR SLBU 131000Z NIL=METAR SLSA 131000Z 00000KT 3000 FU NSC 24/22 Q1010 A2983 HR91 CI=METAR SLSR 131000Z 00000KT 3000 FU NSC 24/23 Q1009 A2979 HR91 CIMETAR SLSM 131000Z 00000KT 2000 FU SCT080 23/22 Q1010 A2984 HR95
ZPX0162 131022@CAELT@GG SLZZYMYT@CAELT@131021 SLVRYGYU@CAELT@SABO SLVR 131000 RRA@CAELT@METAR SLVR 131000Z 24004KT 3000 FU FEW070 SCT200 22/21 Q1012 A2990@CAELT@HR92 NOSIG=@CAELT@METAR RTD SLET 131000Z 27004KT 3500 FU FEW070 23/20 Q1012 A29.90 HR82@CAELT@CI NOSIG=@CAELT@METAR SLCP 131000Z 00000KT 0500 FU OVC070 23/21 Q1016 A3000 HR88 RWYNML=METAR SLSI 131000Z 00000KT 3000 FU NSC 22/19 Q1013 A2991 HR 82 RWYMETAR SLRB 131000Z 00000KT 3000 FU NSC 24/20 Q1014 A2994 HR76 RWY NMLMETAR SLPS 131000Z 00000KT 0800 FU NSC 26/23 Q1010 A2983 HR85=METAR SLCA 131000Z 00000KT 8000 SCT033 20/11 Q1017 A3003 HR57 FU RWY
ZPX0170 131051@CAELT@GG SLZZYMYT@CAELT@131052 SLPSYGYS@CAELT@SABO SLPS 131100@CAELT@METAR SLPS 131100Z 00000KT 1000 FU BKN020 27/23 Q1011 A2986 HR79=@CAELT@
ZPX0171 131054@CAELT@GG SLZZYMYT@CAELT@131055 SLCOYGYZ@CAELT@SABO SLCO 131100@CAELT@METAR SLCO 131100Z 00000KT 1000 FU OVC080 24/22 Q1011 A2988 984.5@CAELT@HR88=@CAELT@
ZPX0172 131055@CAELT@GG SLZZYMYT@CAELT@131055 SLVRYGYZ@CAELT@SABO SLVR 131100@CAELT@METAR SLVR 131100Z 31003KT 3000 FU FEW070 BKN200 25/21 Q1013 A2994@CAELT@HR79 NOSIG=@CAELT@
ZPX0173 131055@CAELT@GG SLZZYMYT@CAELT@131054 SLCAYGYS@CAELT@SABO SLCA 131100@CAELT@METAR SLCA 131100Z 00000KT 8000 FEW033 20/11 Q1018 A3006 HR56 FU RWY@CAELT@NML=@CAELT@
ZPX0174 131055@CAELT@GG SLZZYMYT@CAELT@131055 SLTRYGYZ@CAELT@SABO SLTR 131100@CAELT@METAR SLTR 131100Z 00000KT 5000 FU BKN080 26/23 Q1011 A2988@CAELT@993.4 HR83 CI TEMPO 3000=@CAELT@
ZPX0175 131056@CAELT@GG SLZZYMYT@CAELT@131057 SLUYYGYS@CAELT@SABO SLUY 131100@CAELT@METAR SLUY 131100Z 00000KT 9999 FEW070 BKN200 07/02 Q1035 A3057@CAELT@659.2 HR70 FU=@CAELT@
ZPX0176 131056@CAELT@GG SLZZYMYT@CAELT@131055 SLSBYSYX@CAELT@SABO SLSB 131100@CAELT@METAR SLSB 131100Z 00000KT 4000 FU BKN080 25/24 Q1010 A2983 HR93@CAELT@RWY NML=@CAELT@
ZPX0177 131056@CAELT@GG SLZZYMYT@CAELT@131055 SLLPYFYA@CAELT@SABO SLRY 131100@CAELT@METAR SLRY 131100Z 00000KT 4000 FU BKN080 24/23 Q1008 A2979@CAELT@HR98 RWY NML=@CAELT@
ZPX0178 131056@CAELT@GG SLZZYMYT@CAELT@131055 SLLPYGYZ@CAELT@SABO SLLP 131100@CAELT@METAR SLLP 131100Z 10007KT 4000E VCFG FEW003 SCT070 BKN200 04/03@CAELT@Q1039 A3069 628.8 HR95 P92// VCFG NE/E/SE/S FU NOSIG=@CAELT@
ZPX0179 131056@CAELT@GG SLZZYMYT@CAELT@131056 SLRBYGYS@CAELT@SABO SLRB 131100@CAELT@METAR SLRB 131100Z 00000KT 3000 FU NSC 26/21 Q1015 A2997 HR74 RWY NML=@CAELT@
ZPX0180 131057@CAELT@GG SLZZYMYT@CAELT@131056 SLCBYGYZ@CAELT@SABO SLCB 131100@CAELT@METAR SLCB 131100Z 00000KT 9000 FEW030 15/09 Q1029 A3039 754.5 HR66@CAELT@AC CI FU NOSIG=@CAELT@
ZPX0181 131057@CAELT@GG SLZZYMYT@CAELT@131057 SLORYGYZ@CAELT@SABO SLOR 131100@CAELT@METAR SLOR 131100Z 05010KT 9999 FEW015 08/03 Q1036 A3061 656.9 HR70@CAELT@AC/CI FU=@CAELT@
ZPX0182 131057@CAELT@GG SLZZYMYT@CAELT@131057 SLRQYSYX@CAELT@SABO SLRQ 131100@CAELT@METAR SLRQ 131100Z 00000KT 4000 FU BKN080 24/24 Q1011 A2988 987.6@CAELT@HR98=@CAELT@
ZPX0184 131059@CAELT@GG SLZZYMYT@CAELT@131058 SLETYMYC@CAELT@SABO SLET 131100@CAELT@METAR SLET 131100Z 27003KT 3500 FU NSC 26/20 Q1013 A2993 HR69 CI@CAELT@NOSIG=@CAELT@
ZPX0185 131059@CAELT@GG SLZZYMYT@CAELT@131059 SLLPYFYA@CAELT@SABO SLLP 131100@CAELT@METAR SLLP 131100Z 10007KT 4000E VCFG FEW003 SCT070 BKN200 04/03@CAELT@Q1039 A3069 628.8 HR95 P92// VCFG NE/E/SE/S FU NOSIG=@CAELT@METAR SLCO 131100Z 00000KT 1000 FU OVC080 24/22 Q1011 A2988@CAELT@984.5 HR88=@CAELT@METAR SLRY 131100Z 00000KT 4000 FU BKN080 24/23 Q1008 A2979HR98 RWY NML=METAR SLRQ 131100Z 00000KT 4000 FU BKN080 24/24 Q1011 A2988987.6 HR98=METAR SLAP 131100Z 00000KT 3000 FU FEW020 OVC070 18/16 Q1020 A3013860.5 HR89=METAR SLSB 131100Z 00000KT 4000 FU BKN080 25/24 Q1010 A2983 HR93RWY NML=METAR SLOR 131100Z 05010KT 9999 FEW015 08/03 Q1036 A3061 656.9HR70 AC/CI FU=METAR SLUY 131100Z 00000KT 9999 FEW070 BKN200 07/02 Q1035 A3057659.2 HR70 FU=
ZPX0187 131100@CAELT@GG SLZZYMYT@CAELT@131100 SLCBYGYS@CAELT@SABO SLCB 131100@CAELT@METAR SLCB 131100Z 00000KT 9000 FEW030 15/09 Q1029 A3039 754.5 HR66@CAELT@AC CI FU NOSIG=@CAELT@METAR SLAL 131100Z 00000KT 9999 FEW005 SCT070 BKN200 09/07 Q1033@CAELT@A3052 706.7 HR89=@CAELT@METAR SLVM 131100Z OOOOOKT 5000 FU SCT070 24/16 Q1014 A2996 HR63 CI=
ZPX0188 131100@CAELT@GG SLZZYMYT@CAELT@131059 SLTRYGYS@CAELT@SABO SLTR 131100@CAELT@METAR SLTR 131100Z 00000KT 5000 FU BKN080 26/23 Q1011 A2988@CAELT@993.4 HR83 CI TEMPO 3000=@CAELT@METAR SLGM 131100Z 02006KT 3000 FU SCT080 BKN200 23/22 Q1011 A2988@CAELT@HR94=@CAELT@METAR SLRI 131100Z 00000KT 3000 FU NSC 23/22 Q1012 A2989 HR91=METAR SLJO 131100Z 00000KT 5000 FU NSC 23/22 Q1010 A2983 HR96 CIRWY NML=METAR SLRA 131100Z 00000KT 5000 FU SCT080 BKN200 24/23 Q1010 A2985HR91 RWY NML=METAR SLMG 131100Z 00000KT 5000 FU BKN080 25/24 Q1010 A2985 HR94METAR SLBU 131100Z NIL=METAR SLSA 131100Z NIL=METAR SLSR 131100Z 00000KT 3000 FU BKN080 24/23 Q1009 A2981 HR90METAR SLSM 131100Z 00000KT 2000 FU NSC 23/23 Q1011 A2987 HR95 CI
ZPX0189 131101@CAELT@GG SLZZYMYT@CAELT@131100 SLVRYGYS@CAELT@SABO SLVR 131100@CAELT@METAR SLVR 131100Z 31003KT 3000 FU FEW070 BKN200 25/21 Q1013 A2994@CAELT@HR79 NOSIG=@CAELT@METAR SLET 131100Z 27003KT 3500 FU NSC 26/20 Q1013 A2993 HR69 CI@CAELT@NOSIG=@CAELT@METAR SLAS 131100Z 00000KT 0200 FU NSC 25/21 Q1014 A2994 HR80 RWY NMLMETAR SLJV 131100Z 00000KT 0200 FU NSC 22/20 Q1012 A2988 HR87 RWY NMLMETAR SLCP 131100Z 00000KT 0500 FU OVC070 24/21 Q1016 A3000 HR85 RWYNML=METAR SLSI 131100Z 00000KT 3000 FU NSC 23/20 Q1013 A2991 HR78 RWY NMLMETAR SLTI 131100Z 00000KT 5000 FU NSC 25/21 Q1016 A3000 HR77 RWY NMLMETAR SLJE 131100Z 00000KT 1500 FU BKN070 25/22 Q1016 A3000 HR84 RWYMETAR SLVG 131100Z 00000KT 4000 FU NSC 16/12 Q1026 A3030 HR76 CI RWYMETAR SLRB 131100Z 00000KT 3000 FU NSC 26/21 Q1015 A2997 HR74 RWY NMLMETAR SLPS 131100Z 00000KT 1000 FU BKN020 27/23 Q1011 A2986 HR79=METAR SLCA 131100Z 00000KT 8000 FEW033 20/11 Q1018 A3006 HR56 FU RWY
ZPX0190 131101@CAELT@GG SLZZYMYT@CAELT@131101 SLCBYGYS@CAELT@SABO SLCB 131100@CAELT@METAR SLCB 131100Z 00000KT 9000 FEW030 15/09 Q1029 A3039 754.5 HR66@CAELT@AC CI FU NOSIG=@CAELT@METAR SLAL 131100Z 00000KT 9999 FEW005 SCT070 BKN200 09/07 Q1033@CAELT@A3052 706.7 HR89=@CAELT@METAR SLVM 131100Z 00000KT 5000 FU SCT070 24/16 Q1014 A2996 HR63 CI=
ZPX0191 131101@CAELT@GG SLZZYMYT@CAELT@131101 SLSAYGYS@CAELT@SABO SLSA 131100@CAELT@METAR SLSA 131100Z 00000KT 3000 FU NSC 24/22 Q1010 A2985 HR88 CI=@CAELT@
ZPX0196 131109@CAELT@GG SLZZYMYT@CAELT@131108 SLCBYGYS@CAELT@METAR SLCB 131100@CAELT@METAR SLCB 131100Z 00000KT 9000 FEW030 15/09 Q1029 A3039 754.5 HR66@CAELT@AC CI FU NOSIG=@CAELT@METAR SLAL 131100Z 00000KT 9999 FEW005 SCT070 BKN200 09/07 Q1033@CAELT@A3052 706.7 HR89=@CAELT@METAR SLVM 131100Z 00000KT 5000 FU SCT070 24/16 Q1014 A2996 HR63 CI=METAR SLYA 131100Z 00000KT 8000 BKN070 23/13 Q1015 A3000 940.3 HR52
ZPX0202 131119@CAELT@GG SLZZYMYT@CAELT@131110 SLTRYGYS@CAELT@SABO SLTR 131100 RRA@CAELT@METAR SLTR 131100Z 00000KT 5000 FU BKN080 26/23 Q1011 A2988@CAELT@993.4 HR83 CI TEMPO 3000=@CAELT@METAR SLGM 131100Z 02006KT 3000 FU SCT080 BKN200 23/22 Q1011 A2988@CAELT@HR94=@CAELT@METAR SLRI 131100Z 00000KT 3000 FU NSC 23/22 Q1012 A2989 HR91=METAR SLJO 131100Z 00000KT 5000 FU NSC 23/22 Q1010 A2983 HR96 CIRWY NML=METAR SLRA 131100Z 00000KT 5000 FU SCT080 BKN200 24/23 Q1010 A2985HR91 RWY NML=METAR SLMG 131100Z 00000KT 5000 FU BKN080 25/24 Q1010 A2985 HR94METAR SLBU 131100Z NIL=METAR RTD SLSA 131100Z 00000KT 3000 FU NSC 24/22 Q1010 A2985 HR88METAR SLSR 131100Z 00000KT 3000 FU BKN080 24/23 Q1009 A2981 HR90METAR SLSM 131100Z 00000KT 2000 FU NSC 23/23 Q1011 A2987 HR95 CI
ZPX0217 131150@CAELT@GG SLZZYMYT@CAELT@131151 SLPSYGYS@CAELT@SABO SLPS 131200@CAELT@METAR SLPS 131200Z 00000KT 1500 FU SCT070 29/24 Q1011 A2986 HR73=@CAELT@
ZPX0221 131153@CAELT@GG SLZZYMYT@CAELT@131154 SLRBYGYS@CAELT@SABO SLRB 131200@CAELT@METAR SLRB 131200Z 00000KT 3000 FU NSC 29/21 Q1015 A2997 HR60 RWY NML@CAELT@
ZPX0222 131154@CAELT@GG SLZZYMYT@CAELT@131154 SLSBYSYX@CAELT@SABO SLSB 131200@CAELT@METAR SLSB 131200Z 00000KT 5000 FU BKN080 26/25 Q1011 A2986 HR92@CAELT@RWY NML=@CAELT@
ZPX0223 131154@CAELT@GG SLZZYMYT@CAELT@131154 SLSAYGYS@CAELT@SABO SLSA 131200@CAELT@METAR SLSA 131200Z 00000KT 5000 FU FEW080 BKN200 26/23 Q1011 A2987@CAELT@HR85=@CAELT@
ZPX0225 131155@CAELT@GG SLZZYMYT@CAELT@131155 SLORYGYZ@CAELT@SABO SLOR 131200@CAELT@METAR SLOR 131200Z 05012KT 9999 FEW015 11/05 Q1037 A3062 657.3 HR65@CAELT@AC/CI=@CAELT@
ZPX0226 131155@CAELT@GG SLZZYMYT@CAELT@131156 SLVRYGYZ@CAELT@SABO SLVR 131200@CAELT@METAR SLVR 131200Z 31005KT 3000 FU SCT070 BKN200 27/23 Q1014 A2996@CAELT@HR80 NOSIG=@CAELT@
ZPX0227 131156@CAELT@GG SLZZYMYT@CAELT@131155 SLRQYSYX@CAELT@SABO SLRQ 131200@CAELT@METAR SLRQ 131200Z 00000KT 3000 FU BKN080 26/25 Q1012 A2989 988.1@CAELT@HR92=@CAELT@
ZPX0228 131156@CAELT@GG SLZZYMYT@CAELT@131155 SLETYMYC@CAELT@SABO SLET 131200@CAELT@METAR SLET 131200Z 27004KT 3500 FU NSC 29/18 Q1014 A2995 HR49 CI@CAELT@NOSGI=@CAELT@
ZPX0229 131156@CAELT@GG SLZZYMYT@CAELT@131156 SLCOYGYZ@CAELT@SABO SLCO 131200@CAELT@METAR SLCO 131200Z VRB02KT 1000 FU OVC080 25/22 Q1013 A2992 985.8@CAELT@HR86=@CAELT@
ZPX0230 131156@CAELT@GG SLZZYMYT@CAELT@131156 SLTRYGYZ@CAELT@SABO SLTR 131200@CAELT@METAR SLTR 131200Z 00000KT 5000 FU BKN080 28/23 Q1012 A2990@CAELT@994.0 HR75 CI NOSIG=@CAELT@
ZPX0232 131156@CAELT@GG SLZZYMYT@CAELT@131155 SLCBYGYZ@CAELT@SABO SLCB 131200@CAELT@METAR SLCB 131200Z 00000KT 9999 FEW033 17/08 Q1029 A3040 754.9 HR52@CAELT@CI FU NOSIG=@CAELT@
ZPX0234 131156@CAELT@GG SLZZYMYT@CAELT@131156 SLUYYGYS@CAELT@SABO SLUY 131200@CAELT@METAR SLUY 131200Z 18004KT 9999 FEW070 BKN200 10/02 Q1035 A3059@CAELT@659.6 HR58 FU=@CAELT@
ZPX0236 131157@CAELT@GG SLZZYMYT@CAELT@131155 SLLPYGYZ@CAELT@SABO SLLP 131200@CAELT@METAR SLLP 131200Z 09009KT 9999 FEW005 SCT070 BKN200 07/03 Q1039@CAELT@A3070 629.1 HR78 P4153 HZ SW/W FU NOSIG=@CAELT@
ZPX0237 131157@CAELT@GG SLZZYMYT@CAELT@131157 SLCAYGYS@CAELT@SABO SLCA 131200@CAELT@METAR SLCA 131200Z 00000KT 8000 NSC 23/13 Q1019 A3009 HR55 FU RWY NML@CAELT@
ZPX0239 131159@CAELT@GG SLZZYMYT@CAELT@131158 SLTRYGYS@CAELT@SABO SLTR 131200@CAELT@METAR SLTR 131200Z 00000KT 5000 FU BKN080 28/23 Q1012 A2990@CAELT@994.0 HR75 CI NOSIG=@CAELT@METAR SLGM 131200Z 02006KT 5000 FU BKN080 25/22 Q1012 A2989 HR85=@CAELT@METAR SLRI 131200Z 00000KT 2000 FU NSC 25/23 Q1013 A2992 HR90=@CAELT@METAR SLJO 131200Z 36004KT 5000 FU NSC 26/21 Q1011 A2986 HR77 CIRWY NML=METAR SLRA 131200Z 36006KT 5000 FU BKN080 27/23 Q1011 A2986 HR79METAR SLMG 131200Z 00000KT 5000 FU SCT080 BKN200 27/24 Q1011 A2986HR84 RWY NML=METAR SLBU 131200Z 00000KT 5000 FU NSC 25/24 Q1012 A2989 HR93 CIMETAR SLSA 131200Z 00000KT 5000 FU FEW080 BKN200 26/23 Q1011 A2987HR85=METAR SLSR 131200Z 00000KT 5000 FU BKN080 26/24 Q1010 A2983 HR89METAR SLSM 131200Z 00000KT 2000 FU NSC 26/24 Q1012 A2990 HR87 CI
ZPX0240 131200@CAELT@GG SLZZYMYT@CAELT@131158 SLTJYGYZ@CAELT@SABO SLTJ 131200@CAELT@METAR SLTJ 131200Z 00000KT 8000 NSC 17/10 Q1024 A3024 818.4 HR63 FU=@CAELT@
ZPX0241 131200@CAELT@GG SLZZYMYT@CAELT@131158 SLLPYFYA@CAELT@SABO SLRY 131200@CAELT@METAR SLRY 131200Z 00000KT 4000 FU BKN080 26/25 Q1009@CAELT@A2982 H92 RWY NML=@CAELT@
ZPX0245 131202@CAELT@GG SLZZYMYT@CAELT@131202 SLCBYGYS@CAELT@SABO SLCB 131200@CAELT@METAR SLCB 131200Z 00000KT 9999 FEW033 17/08 Q1029 A3040 754.9 HR52@CAELT@CI FU NOSIG=@CAELT@METAR SLVM 131200Z 18005KT 5000 FU FEW070 29/17 Q1014 A2997 HR49 CI=@CAELT@METAR SLTJ 131200Z 00000KT 8000 NSC 17/10 Q1024 A3024 818.4 HR63 FU=@CAELT@METAR SLYA 131200Z 00000KT 9999 NSC 26/13 Q1016 A3000 940.6 HR46 FU=
ZPX0248 131204@CAELT@GG SLZZYMYT@CAELT@131200 SLLPYFYA@CAELT@SABO SLLP 131200@CAELT@METAR SLLP 131200Z 09009KT 9999 FEW005 SCT070 BKN200 07/03 Q1039@CAELT@A3070 629.1 HR78 P4153 HZ SW/W FU NOSIG=@CAELT@METAR SLCO 131200Z VRB02KT 1000 FU OVC080 25/22 Q1013 A2992 985.8@CAELT@HR86=@CAELT@METAR SLRY 131200Z 00000KT 4000 FU BKN080 26/25 Q1009A2982 H92 RWY NML=METAR SLRQ 131200Z 00000KT 3000 FU BKN080 26/25 Q1012 A2989 988.1HR92=METAR SLAP 131200Z 00000KT 2000 FU FEW020 OVC070 19/16 Q1020 A3014861.0 HR81=METAR SLSB 131200Z 00000KT 5000 FU BKN080 26/25 Q1011 A2986 HR92RWY NML=METAR SLOR 131200Z 05012KT 9999 FEW015 11/05 Q1037 A3062 657.3 HR65AC/CI=METAR SLUY 131200Z 18004KT 9999 FEW070 BKN200 10/02 Q1035 A3059659.6 HR58 FU=
ZPX0252 131206@CAELT@GG SLZZYMYT@CAELT@131206 SLCBYGYS@CAELT@SABO SLCB 131200@CAELT@METAR SLCB 131200Z 00000KT 9999 FEW033 17/08 Q1029 A3040 754.9 HR52@CAELT@CI FU NOSIG=@CAELT@METAR SLAG 131200Z 00000KT 4000 FU FEW070 SCT200 22/12 Q1020 A3013@CAELT@892.1 HR53=@CAELT@METAR SLVM 131200Z 18005KT 5000 FU FEW070 29/17 Q1014 A2997 HR49 CI=METAR SLTJ 131200Z 00000KT 8000 NSC 17/10 Q1024 A3024 818.4 HR63 FU=METAR SLYA 131200Z 00000KT 9999 NSC 26/13 Q1016 A3000 940.6 HR46 FU=
ZPX0263 131228@CAELT@GG SLZZYMYT@CAELT@131228 SLVRYGYS@CAELT@SABO SLVR 131200 RRA@CAELT@METAR SLVR 131200Z 31005KT 3000 FU SCT070 BKN200 27/23 Q1014 A2996@CAELT@HR80 NOSIG=@CAELT@METAR SLET 131200Z 27004KT 3500 FU NSC 29/18 Q1014 A2995 HR49 CI@CAELT@NOSIG=@CAELT@METAR SLAS 131200Z 00000KT 0200 FU BKN070 26/20 Q1015 A2997 HR71 RWYNML=METAR SLJV 131200Z 00000KT 0200 FU NSC 23/20 Q1013 A2991 HR82 RWY NMLMETAR SLCP 131200Z 00000KT 0500 FU OVC070 24/21 Q1017 A3003 HR85 RWYMETAR SLSI 131200Z 00000KT 2000 FU NSC 26/20 Q1013 A2991 HR72 RWY NMLMETAR SLTI 131200Z 00000KT 5000 FU NSC 28/21 Q1017 A3003 HR68 RWY NMLMETAR SLJE 131200Z 00000KT 1500 FU BKN070 27/23 Q1017 A3003 HR78 RWYMETAR SLVG 131200Z 00000KT 4000 FU NSC 18/13 Q1027 A3033 HR69 CI RWYMETAR RTD SLRB 131200Z 00000KT 3000 FU NSC 29/21 Q1015 A2997 HR60 RWYMETAR RTD SLPS 131200Z 00000KT 1500 FU SCT070 29/24 Q1011 A2986 HR73=METAR SLCA 131200Z 00000KT 8000 NSC 23/13 Q1019 A3009 HR55 FU RWY NML
ZPX0276 131250@CAELT@GG SLZZYMYT@CAELT@131251 SLPSYGYS@CAELT@SABO SLPS 131300@CAELT@METAR SLPS 131300Z 00000KT 2800 FU NSC 32/25 Q1011 A2986 HR69=@CAELT@
ZPX0278 131252@CAELT@GG SLZZYMYT@CAELT@131254 SLSAYGYS@CAELT@SABO SLSA 131300@CAELT@METAR SLSA 131300Z 00000KT 5000 FU SCT080 BKN200 29/23 Q1011 A2988@CAELT@HR69=@CAELT@
ZPX0280 131254@CAELT@GG SLZZYMYT@CAELT@131255 SLUYYGYS@CAELT@SABO SLUY 131300@CAELT@METAR SLUY 131300Z 00000KT 9999 FEW070 BKN200 12/02 Q1036 A3060@CAELT@659.9 HR51 FU=@CAELT@
ZPX0282 131254@CAELT@GG SLZZYMYT@CAELT@131253 SLCAYGYS@CAELT@SABO SLCA 131300@CAELT@METAR SLCA 131300Z 00000KT 8000 NSC 28/15 Q1018 A3006 HR46 FU RWY NML@CAELT@
ZPX0283 131254@CAELT@GG SLZZYMYT@CAELT@131255 SLRQYSYX@CAELT@SABO SLRQ 131300@CAELT@METAR SLRQ 131300Z 00000KT 3000 FU BKN080 28/25 Q1013 A2991 988.8@CAELT@HR87=@CAELT@
ZPX0284 131255@CAELT@GG SLZZYMYT@CAELT@131255 SLCBYGYZ@CAELT@SABO SLCB 131300@CAELT@METAR SLCB 131300Z 25003KT 9999 FEW033 20/08 Q1029 A3040 754.9 HR46@CAELT@CI FU NOSIG=@CAELT@
ZPX0285 131255@CAELT@GG SLZZYMYT@CAELT@131255 SLTRYGYZ@CAELT@SABO SLTR 131300@CAELT@METAR SLTR 131300Z 03003KT 5000 FU BKN080 29/24 Q1013 A2992 994.8@CAELT@HR72 CI NOSIG=@CAELT@
ZPX0286 131255@CAELT@GG SLZZYMYT@CAELT@131256 SLVRYGYZ@CAELT@SABO SLVR 131300@CAELT@METAR SLVR 131300Z 29004KT 4000 FU FEW070 BKN200 32/22 Q1014 A2996@CAELT@HR56 NOSIG=@CAELT@
ZPX0288 131256@CAELT@GG SLZZYMYT@CAELT@131255 SLORYGYZ@CAELT@SABO SLOR 131300@CAELT@METAR SLOR 131300Z 06010KT 9999 FEW017 14/04 Q1037 A3064 657.7 HR52@CAELT@
ZPX0289 131256@CAELT@GG SLZZYMYT@CAELT@131255 SLRBYGYS@CAELT@SABO SLRB 131300@CAELT@METAR SLRB 131300Z 36015KT 3000 FU NSC 31/20 Q1015 A2997 HR56 RWY NML=@CAELT@
ZPX0290 131256@CAELT@GG SLZZYMYT@CAELT@131255 SLLPYGYZ@CAELT@SABO SLLP 131300@CAELT@METAR SLLP 131300Z 07012KT 9999 FEW013 SCT070 11/M03 Q1040 A3072@CAELT@629.5 HR38 P4153 HZ SW/W FU CI NOSIG=@CAELT@
ZPX0293 131256@CAELT@GG SLZZYMYT@CAELT@131253 SLETYMYC@CAELT@SABO SLET 131300@CAELT@METAR SLET 131300Z 24003KT 3500 FU NSC 31/16 Q1014 A2996 HR42 CI@CAELT@NOSIG=@CAELT@
ZPX0294 131257@CAELT@GG SLZZYMYT@CAELT@131257 SLTJYGYZ@CAELT@SABO SLTJ 131300@CAELT@METAR SLTJ 131300Z 00000KT 7000 NSC 19/10 Q1023 A3023 818.1 HR55 FU=@CAELT@
ZPX0295 131258@CAELT@GG SLZZYMYT@CAELT@131258 SLCOYGYZ@CAELT@SABO SLCO 131300@CAELT@METAR SLCO 131300Z 00000KT 1300 FU OVC080 26/23 Q1013 A2994 986.4@CAELT@HR83=@CAELT@
ZPX0297 131258@CAELT@GG SLZZYMYT@CAELT@131257 SLLPYFYA@CAELT@SABO SLRY 131300@CAELT@METAR SLRY 131300Z 00000KT 4000 FU BKM080 29/25 Q1011@CAELT@A2985 HR80 RWY NML=@CAELT@
ZPX0298 131259@CAELT@GG SLZZYMYT@CAELT@131258 SLSBYSYX@CAELT@SABO SLSB 131300@CAELT@METAR SLSB 131300Z 00000KT 5000 FU BKN080 29/26 Q1011 A2988 HR85@CAELT@RWY NML=@CAELT@
ZPX0301 131301@CAELT@GG SLZZYMYT@CAELT@131300 SLVRYGYS@CAELT@SABO SLVR 131300@CAELT@METAR SLVR 131300Z 29004KT 4000 FU FEW070 BKN200 32/22 Q1014 A2996@CAELT@HR56 NOSIG=@CAELT@METAR SLET 131300Z 24003KT 3500 FU NSC 31/16 Q1014 A2996 HR42 CI@CAELT@NOSIG=@CAELT@METAR SLAS 131300Z 00000KT 0200 FU BKN070 28/21 Q1015 A2997 HR66 RWYNML=METAR SLJV 131300Z 00000KT 0200 FU NSC 24/20 Q1014 A2994 HR77 RWY NMLMETAR SLCP 131300Z 00000KT 0500 FU OVC070 26/21 Q1017 A3003 HR76 RWYMETAR SLSI 131300Z 00000KT 1500 FU NSC 29/20 Q1014 A2994 HR63 RWY NMLMETAR SLTI 131300Z 00000KT 5000 FU NSC 33/20 Q1017 A3003 HR48 RWY NMLMETAR SLJE 131300Z 00000KT 1500 FU BKN070 28/23 Q1017 A3003 HR73 RWYMETAR SLVG 131300Z 36005KT 4000 FU FEW020 BKN200 22/13 Q1027 A3033HR54 RWY NML=METAR SLRB 131300Z 36015KT 3000 FU NSC 31/20 Q1015 A2997 HR56 RWY NMLMETAR SLPS 131300Z 00000KT 2800 FU NSC 32/25 Q1011 A2986 HR69=METAR SLCA 131300Z 00000KT 8000 NSC 28/15 Q1018 A3006 HR46 FU RWY NML=
ZPX0302 131301@CAELT@GG SLZZYMYT@CAELT@131301 SLCBYGYS@CAELT@SABO SLCB 131300@CAELT@METAR SLCB 131300Z 25003KT 9999 FEW033 20/08 Q1029 A3040 754.9 HR46@CAELT@CI FU NOSIG=@CAELT@METAR SLAL 131300Z 01008KT 9999 SCT010 BKN200 12/08 Q1034 A3054 707.0@CAELT@HR74 AC FU=@CAELT@METAR SLAG 131300Z 00000KT 5000 FU NSC 27/10 Q1020 A3013 892.0 HR34METAR SLVM 131300Z 18007KT 5000 FU FEW070 31/18 Q1015 A2997 HR48 CI=METAR SLTJ 131300Z 00000KT 7000 NSC 19/10 Q1023 A3023 818.1 HR55 FU=METAR SLYA 131300Z 21010KT 8000 NSC 28/13 Q1015 A3000 940.3 HR39 FU=
ZPX0303 131302@CAELT@GG SLZZYMYT@CAELT@131300 SLTRYGYS@CAELT@SABO SLTR 131300@CAELT@METAR SLTR 131300Z 03003KT 5000 FU BKN080 29/24 Q1013 A2992 994.8@CAELT@HR72 CI NOSIG=@CAELT@METAR SLGM 131300Z 02003KT 5000 FU BKN080 28/23 Q1012 A2991 HR74=@CAELT@METAR SLRI 131300Z 00000KT 5000 FU SCT080 28/22 Q1013 A2993 HR71=@CAELT@METAR SLJO 131300Z 36004KT 5000 FU FEW080 BKN200 29/22 Q1011 A2988HR67 RWY NML=METAR SLRA 131300Z 36006KT 5000 FU BKN080 29/23 Q1011 A2988 HR69RWY NML=METAR SLMG 131300Z 00000KT 6000 NSC 29/23 Q1011 A2988 HR70 FU CIMETAR SLBU 131300Z 00000KT 5000 FU NSC 29/25 Q1012 A2990 HR80 CIMETAR SLSA 131300Z 00000KT 5000 FU SCT080 BKN200 29/23 Q1011 A2988HR69=METAR SLSR 131300Z 00000KT 5000 FU SCT080 BKN200 31/24 Q1012 A2990HR69 RWY NML=METAR SLSM 131300Z 00000KT 3000 FU SCT080 28/24 Q1013 A2993 HR76
ZPX0313 131308@CAELT@GG SLZZYMYT@CAELT@131302 SLLPYFYA@CAELT@SABO SLLP 131300@CAELT@METAR SLLP 131300Z 07012KT 9999 FEW013 SCT070 11/M03 Q1040 A3072@CAELT@629.5 HR38 P4153 HZ SW/W FU CI NOSIG=@CAELT@METAR SLCO 131300Z 00000KT 1300 FU OVC080 26/23 Q1013 A2994 986.4@CAELT@HR83=@CAELT@METAR SLRY 131300Z 00000KT 4000 FU BKM080 29/25 Q1011A2985 HR80 RWY NML=METAR SLRQ 131300Z 00000KT 3000 FU BKN080 28/25 Q1013 A2991 988.8HR87=METAR SLAP 131300Z 00000KT 2000 FU FEW020 BKN070 22/17 Q1021 A3017861.8 HR75=METAR SLSB 131300Z 00000KT 5000 FU BKN080 29/26 Q1011 A2988 HR85RWY NML=METAR SLOR 131300Z 06010KT 9999 FEW017 14/04 Q1037 A3064 657.7 HR52METAR SLUY 131300Z 00000KT 9999 FEW070 BKN200 12/02 Q1036 A3060659.9 HR51 FU=
ZPX0314 131312@CAELT@GG SLZZYMYT@CAELT@131305 SLLPYSYX@CAELT@SABO SLLP 131300@CAELT@METAR SLCO 131300Z 00000KT 1300 FU OVC080 26/23 Q1013=@CAELT@METAR SLRY 131300Z 00000KT 4000 FU BKM080 29/25 Q1011=@CAELT@METAR SLRQ 131300Z 00000KT 3000 FU BKN080 28/25 Q1013=@CAELT@METAR SLOR 131300Z 06010KT 9999 FEW017 14/04 Q1037=@CAELT@METAR SLET 131300Z 24003KT 3500 FU NSC 31/16 Q1014=METAR SLCP 131300Z 00000KT 0500 FU OVC070 26/21 Q1017=METAR SLSI 131300Z 00000KT 1500 FU NSC 29/20 Q1014=METAR SLJE 131300Z 00000KT 1500 FU BKN070 28/23 Q1017=METAR SLRB 131300Z 36015KT 3000 FU NSC 31/20 Q1015=METAR SLPS 131300Z 00000KT 2800 FU NSC 32/25 Q1011=METAR SLCA 131300Z 00000KT 8000 NSC 28/15 Q1018=METAR SLAL 131300Z 01008KT 9999 SCT010 BKN200 12/08 Q1034=METAR SLVM 131300Z 18007KT 5000 FU FEW070 31/18 Q1015=METAR SLTJ 131300Z 00000KT 7000 NSC 19/10 Q1023=METAR SLYA 131300Z 21010KT 8000 NSC 28/13 Q1015=METAR SLRI 131300Z 00000KT 5000 FU SCT080 28/22 Q1013=METAR SLJO 131300Z 36004KT 5000 FU FEW080 BKN200 29/22 Q1011=METAR SLMG 131300Z 00000KT 6000 NSC 29/23 Q1011=METAR SLSA 131300Z 00000KT 5000 FU SCT080 BKN200 29/23 Q1011=
ZPX0319 131329@CAELT@GG SLZZYMYT@CAELT@131320 SLLPYFYA@CAELT@SABO SLRY 131300 CCA@CAELT@METAR COR SLRY 131300Z 00000KT 4000 FU BKN080 29/25 Q1011@CAELT@A2985 HR80 RWY NML=@CAELT@
ZPX0320 131329@CAELT@GG SLZZYMYT@CAELT@131325 SLLPYFYA@CAELT@SABO SLLP 131300 CCA@CAELT@METAR SLLP 131300Z 07012KT 9999 FEW013 SCT070 11/M03 Q1040 A3072@CAELT@629.5 HR38 P4153 HZ SW/W FU CI NOSIG=@CAELT@METAR SLCO 131300Z 00000KT 1300 FU OVC080 26/23 Q1013 A2994 986.4@CAELT@HR83=@CAELT@METAR COR SLRY 131300Z 00000KT 4000 FU BKN080 29/25 Q1011A2985 HR80 RWY NML=METAR SLRQ 131300Z 00000KT 3000 FU BKN080 28/25 Q1013 A2991 988.8HR87=METAR SLAP 131300Z 00000KT 2000 FU FEW020 BKN070 22/17 Q1021 A3017861.8 HR75=METAR SLSB 131300Z 00000KT 5000 FU BKN080 29/26 Q1011 A2988 HR85RWY NML=METAR SLOR 131300Z 06010KT 9999 FEW017 14/04 Q1037 A3064 657.7 HR52METAR SLUY 131300Z 00000KT 9999 FEW070 BKN200 12/02 Q1036 A3060659.9 HR51 FU=
ZPX0340 131350@CAELT@GG SLZZYMYT@CAELT@131351 SLPSYGYS@CAELT@SABO SLPS 131400@CAELT@METAR SLPS 131400Z 09004KT 3000 FU NSC 34/26 Q1011 A2986 HR64=@CAELT@
ZPX0343 131352@CAELT@GG SLZZYMYT@CAELT@131352 SLRBYGYS@CAELT@SABO SLRB 131400@CAELT@METAR SLRB 131400Z 36010KT 3000 FU NSC 34/22 Q1015 A2997 HR48 RWY NML=@CAELT@
ZPX0344 131353@CAELT@GG SLZZYMYT@CAELT@131353 SLCAYGYS@CAELT@SABO SLCA 131400@CAELT@METAR SLCA 131400Z 00000KT 6000 NSC 32/15 Q1018 A3006 HR37 FU RWY NML@CAELT@
ZPX0346 131355@CAELT@GG SLZZYMYT@CAELT@131355 SLTRYGYZ@CAELT@SABO SLTR 131400@CAELT@METAR SLTR 131400Z 36003KT 5000 FU BKN080 31/24 Q1013 A2992 994.8@CAELT@HR64 CI NOSIG=@CAELT@
ZPX0348 131355@CAELT@GG SLZZYMYT@CAELT@131355 SLSAYGYS@CAELT@SABO SLSA 131400@CAELT@METAR SLSA 131400Z 00000KT 5000 FU FEW080 BKN200 32/23 Q1012 A2989@CAELT@HR58=@CAELT@
ZPX0349 131355@CAELT@GG SLZZYMYT@CAELT@131357 SLUYYGYS@CAELT@SABO SLUY 131400@CAELT@METAR SLUY 131400Z 36004KT 9999 FEW027 SCT200 14/02 Q1035 A3059@CAELT@659.6 HR44 FU AC=@CAELT@
ZPX0350 131355@CAELT@GG SLZZYMYT@CAELT@131355 SLCBYGYZ@CAELT@SABO SLCB 131400@CAELT@METAR SLCB 131400Z 36003KT 9999 FEW033 21/07 Q1029 A3039 754.5 HR40@CAELT@CI FU NOSIG=@CAELT@
ZPX0351 131356@CAELT@GG SLZZYMYT@CAELT@131356 SLVRYGYZ@CAELT@SABO SLVR 131400@CAELT@METAR SLVR 131400Z 24008KT 6000 NSC 33/15 Q1014 A2995 HR35 FU CI@CAELT@NOSIG=@CAELT@
ZPX0352 131356@CAELT@GG SLZZYMYT@CAELT@131355 SLLPYGYZ@CAELT@SABO SLLP 131400@CAELT@METAR SLLP 131400Z 06013KT 030V100 9999 FEW015 SCT070 12/M04 Q1040@CAELT@A3073 629.6 HR31 P93// FU CI NOSIG=@CAELT@
ZPX0356 131356@CAELT@GG SLZZYMYT@CAELT@131355 SLAGYSYX@CAELT@SABO SLAG 131400@CAELT@METAR SLAG 131400Z 00000KT 5000 FU NSC 29/11 Q1019 A3011 891.5 HR31@CAELT@
ZPX0358 131357@CAELT@GG SLZZYMYT@CAELT@131357 SLORYGYZ@CAELT@SABO SLOR 131400@CAELT@METAR SLOR 131400Z 36006KT 9999 FEW017 16/05 Q1037 A3065 657.9 HR49@CAELT@AC/CI=@CAELT@
ZPX0360 131357@CAELT@GG SLZZYMYT@CAELT@131355 SLETYMYC@CAELT@SABO SLET 131400@CAELT@METAR SLET 131400Z 18008KT 5000 FU NSC 33/13 Q1014 A2995 HR30 CI@CAELT@NOSIG=@CAELT@
ZPX0361 131357@CAELT@GG SLZZYMYT@CAELT@131357 SLTRYGYS@CAELT@SABO SLTR 131400@CAELT@METAR SLTR 131400Z 36003KT 5000 FU BKN080 31/24 Q1013 A2992 994.8@CAELT@HR64 CI NOSIG=@CAELT@METAR SLGM 131400Z 02004KT 7000 BKN080 30/23 Q1013 A2991 HR65 FU=@CAELT@METAR SLRI 131400Z 09004KT 5000 FU NSC 30/22 Q1013 A2994 HR63 CI=@CAELT@METAR SLJO 131400Z 36005KT 5000 FU SCT080 BKN200 31/22 Q1012 A2989HR61 RWY NML=METAR SLRA 131400Z 36006KT 5000 FU SCT080 32/23 Q1012 A2989 HR59RWY NML=METAR SLMG 131400Z 32004KT 6000 NSC 32/24 Q1011 A2988 HR63 FU CIMETAR SLBU 131400Z 00000KT 5000 FU NSC 32/25 Q1012 A2991 HR66 CIMETAR SLSA 131400Z 00000KT 5000 FU FEW080 BKN200 32/23 Q1012 A2989HR58=METAR SLSR 131400Z 00000KT 5000 FU SCT080 BKN200 31/23 Q1012 A2990HR62 RWY MNL=METAR SLSM 131400Z 00000KT 3000 FU SCT080 30/24 Q1013 A2993 HR70
ZPX0362 131358@CAELT@GG SLZZYMYT@CAELT@131357 SLTJYGYZ@CAELT@SABO SLTJ 131400@CAELT@METAR SLTJ 131400Z 00000KT 5000 FU NSC 22/10 Q1022 A3020 817.3 HR49=@CAELT@
ZPX0363 131358@CAELT@GG SLZZYMYT@CAELT@131357 SLVRYGYS@CAELT@SABO SLVR 131400@CAELT@METAR SLVR 131400Z 24008KT 6000 NSC 33/15 Q1014 A2995 HR35 FU CI@CAELT@NOSIG=@CAELT@METAR SLET 131400Z 18008KT 5000 FU NSC 33/13 Q1014 A2995 HR30 CI@CAELT@METAR SLAS 131400Z 00000KT 0200 FU BKN070 31/21 Q1015 A2997 HR56 RWY@CAELT@NML=METAR SLJV 131400Z 00000KT 0500 FU NSC 25/20 Q1015 A2997 HR72 RWY NMLMETAR SLCP 131400Z 30004KT 1000 FU BKN070 29/21 Q1017 A3003 HR61 RWYMETAR SLSI 131400Z 00000KT 1500 FU NSC 31/20 Q1014 A2994 HR53 RWY NMLMETAR SLTI 131400Z 00000KT 5000 FU NSC 36/19 Q1016 A3000 HR38 RWY NMLMETAR SLJE 131400Z 00000KT 1500 FU BKN070 31/21 Q1017 A3003 HR58 RWYMETAR SLVG 131400Z 35006KT 4000 FU FEW023 BKN200 23/13 Q1027 A3033HR48 RWY NML=METAR SLRB 131400Z 36010KT 3000 FU NSC 34/22 Q1015 A2997 HR48 RWY NMLMETAR SLPS 131400Z 09004KT 3000 FU NSC 34/26 Q1011 A2986 HR64=METAR SLCA 131400Z 00000KT 6000 NSC 32/15 Q1018 A3006 HR37 FU RWY NML=
ZPX0364 131358@CAELT@GG SLZZYMYT@CAELT@131359 SLCOYGYZ@CAELT@SABO SLCO 131400@CAELT@METAR SLCO 131400Z 00000KT 1600 FU OVC080 28/23 Q1014 A2995 986.6@CAELT@HR76=@CAELT@
ZPX0365 131358@CAELT@GG SLZZYMYT@CAELT@131358 SLSBYSYX@CAELT@SABO SLSB 131400@CAELT@METAR SLSB 131400Z 00000KT 5000 FU SCT080 31/25 Q1012 A2990 HR79@CAELT@RWY NML=@CAELT@
ZPX0369 131401@CAELT@GG SLZZYMYT@CAELT@131358 SLLPYFYA@CAELT@SABO SLRY 131400@CAELT@METAR SLRY 131400Z 00000KT 4000 FU BKN080 31/25 Q1011 A2985@CAELT@HR68 RWY NML=@CAELT@
ZPX0372 131403@CAELT@GG SLZZYMYT@CAELT@131400 SLCBYGYS@CAELT@SABO SLCB 131400@CAELT@METAR SLCB 131400Z 36003KT 9999 FEW033 21/07 Q1029 A3039 754.5 HR40@CAELT@CI FU NOSIG=@CAELT@METAR SLAL 131400Z 34008KT 9999 SCT013 BKN200 15/07 Q1034 A3053 706.9@CAELT@HR61 AC FU=@CAELT@METAR SLAG 131400Z 00000KT 5000 FU NSC 29/11 Q1019 A3011 891.5 HR31METAR SLVM 131400Z 18010KT 5000 FU NSC 32/19 Q1014 A2996 HR46 CI=METAR SLTJ 131400Z 00000KT 5000 FU NSC 22/10 Q1022 A3020 817.3 HR49=METAR SLYA 131400Z 21010KT 9999 NSC 29/13 Q1015 A2998 939.8 HR37 FU=
ZPX0373 131404@CAELT@GG SLZZYMYT@CAELT@131401 SLLPYFYA@CAELT@SABO SLLP 131400@CAELT@METAR SLLP 131400Z 06013KT 030V100 9999 FEW015 SCT070 12/M04 Q1040@CAELT@A3073 629.6 HR31 P93// FU CI NOSIG=@CAELT@METAR SLCO 131400Z 00000KT 1600 FU OVC080 28/23 Q1014 A2995 986.6@CAELT@HR76=@CAELT@METAR SLRY 131400Z 00000KT 4000 FU BKN080 31/25 Q1011 A2985HR68 RWY NML=METAR SLRQ 131400Z 00000KT 4000 FU BKN080 32/26 Q1013 A2992 989.0HR71=METAR SLAP 131400Z 00000KT 2000 FU FEW020 OVC070 23/17 Q1021 A3017861.8 HR66=METAR SLSB 131400Z 00000KT 5000 FU SCT080 31/25 Q1012 A2990 HR79RWY NML=METAR SLOR 131400Z 36006KT 9999 FEW017 16/05 Q1037 A3065 657.9 HR49AC/CI=METAR SLUY 131400Z 36004KT 9999 FEW027 SCT200 14/02 Q1035 A3059659.6 HR44 FU AC=
ZPX0394 131451@CAELT@GG SLZZYMYT@CAELT@131451 SLPSYGYS@CAELT@SABO SLPS 131500@CAELT@METAR SLPS 131500Z 33008KT 4000 FU NSC 35/26 Q1011 A2986 HR60=@CAELT@
ZPX0395 131452@CAELT@GG SLZZYMYT@CAELT@131452 SLCAYGYS@CAELT@SABO SLCA 131500@CAELT@METAR SLCA 131500Z 00000KT 5000 FU NSC 33/11 Q1017 A3003 HR28 RWY NML@CAELT@
ZPX0396 131454@CAELT@GG SLZZYMYT@CAELT@131454 SLSBYSYX@CAELT@SABO SLSB 131500@CAELT@METAR SLSB 131500Z 00000KT 5000 FU SCT080 33/25 Q1011 A2988 HR64@CAELT@RWY NML=@CAELT@
ZPX0397 131454@CAELT@GG SLZZYMYT@CAELT@131454 SLSAYGYS@CAELT@SABO SLSA 131500@CAELT@METAR SLSA 131500Z 00000KT 5000 FU FEW080 BKN200 34/23 Q1012 A2989@CAELT@HR51=@CAELT@
ZPX0398 131455@CAELT@GG SLZZYMYT@CAELT@131455 SLORYGYZ@CAELT@SABO SLOR 131500@CAELT@METAR SLOR 131500Z 35010KT 9999 FEW020 18/05 Q1037 A3063 657.4 HR44@CAELT@
ZPX0399 131455@CAELT@GG SLZZYMYT@CAELT@131455 SLAGYSYX@CAELT@SABO SLAG 131500@CAELT@METAR SLAG 131500Z 20003KT 5000 FU NSC 31/10 Q1018 A3007 890.4 HR27@CAELT@
ZPX0400 131455@CAELT@GG SLZZYMYT@CAELT@131455 SLTJYGYZ@CAELT@SABO SLTJ 131500@CAELT@METAR SLTJ 131500Z 27005KT 5000 FU NSC 23/09 Q1021 A3017 816.2 HR41=@CAELT@
ZPX0401 131455@CAELT@GG SLZZYMYT@CAELT@131456 SLVRYGYZ@CAELT@SABO SLVR 131500@CAELT@METAR SLVR 131500Z VRB02KT 6000 NSC 35/15 Q1013 A2994 HR30 FU CI@CAELT@NOSIG=@CAELT@
ZPX0402 131455@CAELT@GG SLZZYMYT@CAELT@131455 SLTRYGYZ@CAELT@SABO SLTR 131500@CAELT@METAR SLTR 131500Z 35004KT 5000 FU FEW080 SCT200 33/24 Q1012 A2991@CAELT@994.4 HR59 NOSIG=@CAELT@
ZPX0404 131456@CAELT@GG SLZZYMYT@CAELT@131456 SLRBYGYS@CAELT@SABO SLRB 131500@CAELT@METAR SLRB 131500Z 36006KT 3000 FU NSC 36/21 Q1014 A2994 HR41 RWY NML=@CAELT@
ZPX0405 131456@CAELT@GG SLZZYMYT@CAELT@131455 SLLPYGYZ@CAELT@SABO SLLP 131500@CAELT@METAR SLLP 131500Z 06013KT 030V090 9999 FEW017 SCT200 14/M05 Q1040@CAELT@A3071 629.3 HR27 P1483 FU AC NOSIG=@CAELT@
ZPX0406 131456@CAELT@GG SLZZYMYT@CAELT@131455 SLRQYSYX@CAELT@SABO SLRQ 131500@CAELT@METAR SLRQ 131500Z 00000KT 4000 FU BKN080 33/25 Q1013 A2992 989.0@CAELT@HR63=@CAELT@
ZPX0408 131456@CAELT@GG SLZZYMYT@CAELT@131456 SLCBYGYZ@CAELT@SABO SLCB 131500@CAELT@METAR SLCB 131500Z 09003KT 9999 FEW036 22/07 Q1027 A3035 753.5 HR36@CAELT@CI FU NOSIG=@CAELT@
ZPX0409 131457@CAELT@GG SLZZYMYT@CAELT@131457 SLCOYGYZ@CAELT@SABO SLCO 131500@CAELT@METAR SLCO 131500Z 33003KT 3500 FU OVC080 29/23 Q1013 A2994 986.4@CAELT@HR68=@CAELT@
ZPX0411 131458@CAELT@GG SLZZYMYT@CAELT@131458 SLVRYGYS@CAELT@SABO SLVR 131500@CAELT@METAR SLVR 131500Z VRB02KT 6000 NSC 35/15 Q1013 A2994 HR30 FU CI@CAELT@NOSIG=@CAELT@METAR SLET 131500Z VRB02KT 5000 FU NSC 35/13 Q1013 A2993 HR25 CI@CAELT@METAR SLAS 131500Z 33004KT 0300 FU SCT070 34/22 Q1015 A2997 HR50 RWY@CAELT@NML=METAR SLJV 131500Z 00000KT 1000 FU NSC 30/21 Q1014 A2994 HR58 RWY NMLMETAR SLCP 131500Z 00000KT 1000 FU BKN070 30/21 Q1017 A3003 HR59 RWYMETAR SLSI 131500Z 00000KT 1500 FU SCT070 33/21 Q1014 A2994 HR50 RWYMETAR SLTI 131500Z 36006KT 5000 FU NSC 36/19 Q1016 A3000 HR36 RWY NMLMETAR SLJE 131500Z 00000KT 1500 FU BKN070 33/22 Q1016 A3000 HR54 RWYMETAR SLVG 131500Z 36005KT 5000 FU FEW023 BKN200 24/12 Q1027 A3033HR43 RWY NML=METAR SLRB 131500Z 36006KT 3000 FU NSC 36/21 Q1014 A2994 HR41 RWY NMLMETAR SLPS 131500Z 33008KT 4000 FU NSC 35/26 Q1011 A2986 HR60=METAR SLCA 131500Z 00000KT 5000 FU NSC 33/11 Q1017 A3003 HR28 RWY NML=
ZPX0414 131459@CAELT@GG SLZZYMYT@CAELT@131459 SLTRYGYS@CAELT@SABO SLTR 131500@CAELT@METAR SLTR 131500Z 35004KT 5000 FU FEW080 SCT200 33/24 Q1012 A2991@CAELT@994.4 HR59 NOSIG=@CAELT@METAR SLGM 131500Z 02005KT 7000 SCT080 33/23 Q1012 A2990 HR56 FU=@CAELT@METAR SLRI 131500Z 09004KT 5000 FU SCT080 BKN200 33/22 Q1013 A2993@CAELT@HR54=METAR SLJO 131500Z 36005KT 5000 FU SCT080 BKN200 34/22 Q1012 A2989HR49 RWY NML=METAR SLRA 131500Z 36006KT 5000 FU FEW020 35/21 Q1012 A2989 HR47RWY NML=METAR SLMG 131500Z 32004KT 6000 NSC 34/23 Q1011 A2988 HR51 FU CIMETAR SLBU 131500Z 00000KT 5000 FU NSC 33/25 Q1012 A2989 HR61 CIMETAR SLSA 131500Z 00000KT 5000 FU FEW080 BKN200 34/23 Q1012 A2989HR51=METAR SLSR 131500Z 32004KT 5000 FU NSC 33/24 Q1011 A2986 HR59 CIMETAR SLSM 131500Z 00000KT 3000 FU NSC 33/23 Q1012 A2991 HR57 CS
ZPX0418 131500@CAELT@GG SLZZYMYT@CAELT@131500 SLUYYGYS@CAELT@SABO SLUY 131500@CAELT@METAR SLUY 131500Z 32012KT 9999 FEW030 FEW035CB SCT200 15/01 Q1035@CAELT@A3056 659.0 HR39 CB/SH NE FU=@CAELT@
ZPX0420 131501@CAELT@GG SLZZYMYT@CAELT@131500 SLCBYGYS@CAELT@METAR SLCB 131500Z 09003KT 9999 FEW036 22/07 Q1027 A3035 753.5 HR36@CAELT@CI FU NOSIG=@CAELT@METAR SLAL 131500Z 33007KT 9999 SCT015 SCT200 15/07 Q1033 A3052 706.6@CAELT@HR58 FU=@CAELT@METAR SLAG 131500Z 20003KT 5000 FU NSC 31/10 Q1018 A3007 890.4 HR27@CAELT@METAR SLVM 131500Z 18005KT 50000 FU NSC 34/20 Q1013 A2993 HR45 CI=METAR SLTJ 131500Z 27005KT 5000 FU NSC 23/09 Q1021 A3017 816.2 HR41=METAR SLYA 131500Z 21010KT 8000 NSC 30/14 Q1014 A2995 939.0 HR36 FU=
ZPX0425 131503@CAELT@GG SLZZYMYT@CAELT@131500 SLLPYFYA@CAELT@SABO SLRY 131500@CAELT@METAR SLRY 131500Z 00000KT 5000 FU BKN080 33/24 Q1011 A2985@CAELT@HR61 RWY NML=@CAELT@
ZPX0428 131508@CAELT@GG SLZZYMYT@CAELT@131502 SLLPYFYA@CAELT@SABO SLLP 131500@CAELT@METAR SLLP 131500Z 06013KT 030V090 9999 FEW017 SCT200 14/M05 Q1040@CAELT@A3071 629.3 HR27 P1483 FU AC NOSIG=@CAELT@METAR SLCO 131500Z 33003KT 3500 FU OVC080 29/23 Q1013 A2994 986.4@CAELT@HR68=@CAELT@METAR SLRY 131500Z 00000KT 5000 FU BKN080 33/24 Q1011 A2985HR61 RWY NML=METAR SLRQ 131500Z 00000KT 4000 FU BKN080 33/25 Q1013 A2992 989.0HR63=METAR SLAP 131500Z 00000KT 2000 FU BKN070 26/16 Q1021 A3016 861.5HR55=METAR SLSB 131500Z 00000KT 5000 FU SCT080 33/25 Q1011 A2988 HR64RWY NML=METAR SLOR 131500Z 35010KT 9999 FEW020 18/05 Q1037 A3063 657.4 HR44METAR SLUY 131500Z 32012KT 9999 FEW030 FEW035CB SCT200 15/01 Q1035A3056 659.0 HR39 CB/SH NE FU=
ZPX0456 131549@CAELT@GG SLZZYMYT@CAELT@131550 SLRBYGYS@CAELT@SABO SLRB 131600@CAELT@METAR SLRB 131600Z 36004KT 3000 FU NSC 37/21 Q1013 A2991 HR41 RWY NML=@CAELT@
ZPX0457 131551@CAELT@GG SLZZYMYT@CAELT@131551 SLPSYGYS@CAELT@SABO SLPS 131600@CAELT@METAR SLPS 131600Z 33007KT 4000 FU NSC 38/26 Q1009 A2980 HR51=@CAELT@
ZPX0458 131554@CAELT@GG SLZZYMYT@CAELT@131554 SLSAYGYS@CAELT@SABO SLSA 131600@CAELT@METAR SLSA 131600Z 36006KT 5000 FU FEW020 BKN200 36/22 Q1011 A2987@CAELT@HR44=@CAELT@
ZPX0459 131554@CAELT@GG SLZZYMYT@CAELT@131554 SLSBYSYX@CAELT@SABO SLSB 131600@CAELT@METAR SLSB 131600Z 00000KT 5000 FU FEW020 SCT080 32/24 Q1012 A2989@CAELT@HR65 RWY NML=@CAELT@
ZPX0460 131555@CAELT@GG SLZZYMYT@CAELT@131555 SLCOYGYZ@CAELT@SABO SLCO 131600@CAELT@METAR SLCO 131600Z 36003KT 5000 FU OVC080 30/23 Q1013 A2992 985.9@CAELT@HR67=@CAELT@
ZPX0461 131555@CAELT@GG SLZZYMYT@CAELT@131555 SLTJYGYZ@CAELT@SABO SLTJ 131600@CAELT@METAR SLTJ 131600Z 15005KT 5000 FU NSC 25/10 Q1019 A3011 814.7 HR38@CAELT@
ZPX0463 131555@CAELT@GG SLZZYMYT@CAELT@131555 SLCAYGYS@CAELT@SABO SLCA 131600@CAELT@METAR SLCA 131600Z 00000KT 5000 FU NSC 34/11 Q1015 A2997 HR25 RWY NML@CAELT@
ZPX0464 131556@CAELT@GG SLZZYMYT@CAELT@131555 SLAGYSYX@CAELT@SABO SLAG 131600@CAELT@METAR SLAG 131600Z 14007KT 5000 FU NSC 33/11 Q1016 A3002 888.7 HR25@CAELT@
ZPX0465 131556@CAELT@GG SLZZYMYT@CAELT@131556 SLCBYGYZ@CAELT@SABO SLCB 131600@CAELT@METAR SLCB 131600Z 25003KT 9999 FEW036 25/06 Q1026 A3030 752.3 HR28@CAELT@CI FU NOSIG=@CAELT@
ZPX0466 131556@CAELT@GG SLZZYMYT@CAELT@131555 SLLPYGYZ@CAELT@SABO SLLP 131600@CAELT@METAR SLLP 131600Z 09013KT 020V120 9999 SCT020 FEW023CB SCT200 15/M05@CAELT@Q1039 A3069 628.8 HR26 P2784 CB NE/E FU AC NOSIG=@CAELT@
ZPX0467 131556@CAELT@GG SLZZYMYT@CAELT@131556 SLORYGYZ@CAELT@SABO SLOR 131600@CAELT@METAR SLOR 131600Z 32005KT 9999 SCT020 19/05 Q1036 A3061 657.1 HR41@CAELT@
ZPX0468 131557@CAELT@GG SLZZYMYT@CAELT@131556 SLRQYSYX@CAELT@SABO SLRQ 131600@CAELT@METAR SLRQ 131600Z 00000KT 4000 FU FEW020 SCT080 33/25 Q1012 A2991@CAELT@988.7 HR61=@CAELT@
ZPX0469 131557@CAELT@GG SLZZYMYT@CAELT@131557 SLVRYGYZ@CAELT@SABO SLVR 131600@CAELT@METAR SLVR 131600Z VRB02KT 6000 FEW020 BKN200 35/21 Q1012 A2990 HR43@CAELT@FU NOSIG=@CAELT@
ZPX0470 131557@CAELT@GG SLZZYMYT@CAELT@131557 SLETYMYC@CAELT@SABO SLET 131600@CAELT@METAR SLET 131600Z 28007KT 5000 FU FEW020 BKN200 36/14 Q1012 A2990@CAELT@HR27 NOSIG=@CAELT@
ZPX0472 131558@CAELT@GG SLZZYMYT@CAELT@131557 SLTRYGYZ@CAELT@SABO SLTR 131600@CAELT@METAR SLTR 131600Z 35004KT 5000 FU FEW020 SCT200 35/24@CAELT@Q1011 A2988 993.3 HR53 NOSIG=@CAELT@
ZPX0473 131558@CAELT@GG SLZZYMYT@CAELT@131558 SLUYYGYS@CAELT@SABO SLUY 131600@CAELT@METAR SLUY 131600Z 30011KT 9999 FEW033 FEW036CB SCT200 16/01 Q1034@CAELT@A3054 658.4 HR37 CB/SH NE/E FU=@CAELT@
ZPX0475 131558@CAELT@GG SLZZYMYT@CAELT@131557 SLLPYFYA@CAELT@SABO SLRY 131600@CAELT@METAR SLRY 131600Z 00000KT 5000 FU SCT080 34/25 Q1010 A2985@CAELT@HR57 RWY NML=@CAELT@
ZPX0476 131558@CAELT@GG SLZZYMYT@CAELT@131558 SLVRYGYS@CAELT@SABO SLVR 131600@CAELT@METAR SLVR 131600Z VRB02KT 6000 FEW020 BKN200 35/21 Q1012 A2990 HR43@CAELT@FU NOSIG=@CAELT@METAR SLET 131600Z 28007KT 5000 FU FEW020 BKN200 36/14 Q1012 A2990@CAELT@HR27 NOSIG=@CAELT@METAR SLAS 131600Z 33004KT 1000 FU NSC 36/22 Q1014 A2994 HR45 RWY NMLMETAR SLCP 131600Z 00000KT 1500 FU BKN070 33/22 Q1016 A3000 HR55 RWYNML=METAR SLSI 131600Z 33006KT 1500 FU SCT070 35/22 Q1013 A2991 HR47 RWYMETAR SLRB 131600Z 36004KT 3000 FU NSC 37/21 Q1013 A2991 HR41 RWY NMLMETAR SLPS 131600Z 33007KT 4000 FU NSC 38/26 Q1009 A2980 HR51=METAR SLCA 131600Z 00000KT 5000 FU NSC 34/11 Q1015 A2997 HR25 RWY NML=
ZPX0478 131600@CAELT@GG SLZZYMYT@CAELT@131600 SLCBYGYS@CAELT@SABO SLCB 131600@CAELT@METAR SLCB 131600Z 25003KT 9999 FEW036 25/06 Q1026 A3030 752.3 HR28@CAELT@CI FU NOSIG=@CAELT@METAR SLAL 131600Z 35015KT 9999 SCT017 SCT200 16/07 Q1032 A3049 706.0@CAELT@HR55 FU=@CAELT@METAR SLAG 131600Z 14007KT 5000 FU NSC 33/11 Q1016 A3002 888.7 HR25METAR SLVM 131600Z 18007KT 5000 FU NSC 35/20 Q1011 A2988 HR42 CI=METAR SLTJ 131600Z 15005KT 5000 FU NSC 25/10 Q1019 A3011 814.7 HR38METAR SLYA 131600Z 21008KT 8000 NSC 32/15 Q1012 A2991 937.6 HR65 FU
ZPX0481 131604@CAELT@GG SLZZYMYT@CAELT@131601 SLLPYFYA@CAELT@SABO SLLP 131600@CAELT@METAR SLLP 131600Z 09013KT 020V120 9999 SCT020 FEW023CB SCT200 15/M05@CAELT@Q1039 A3069 628.8 HR26 P2784 CB NE/E FU AC NOSIG=@CAELT@METAR SLCO 131600Z 36003KT 5000 FU OVC080 30/23 Q1013 A2992 985.9@CAELT@HR67=@CAELT@METAR SLRY 131600Z 00000KT 5000 FU SCT080 34/25 Q1010 A2985HR57 RWY NML=METAR SLRQ 131600Z 00000KT 4000 FU FEW020 SCT080 33/25 Q1012 A2991988.7 HR61=METAR SLAP 131600Z 00000KT 5000 FU BKN070 28/16 Q1020 A3014 860.9HR47=METAR SLSB 131600Z 00000KT 5000 FU FEW020 SCT080 32/24 Q1012 A2989HR65 RWY NML=METAR SLOR 131600Z 32005KT 9999 SCT020 19/05 Q1036 A3061 657.1 HR41METAR SLUY 131600Z 30011KT 9999 FEW033 FEW036CB SCT200 16/01 Q1034A3054 658.4 HR37 CB/SH NE/E FU=
ZPX0489 131616@CAELT@GG SLZZYMYT@CAELT@131600 SLTRYGYS@CAELT@SABO SLTR 131600@CAELT@METAR SLTR 131600Z 35004KT 5000 FU FEW020 SCT200 35/24@CAELT@Q1011 A2988 993.3 HR53 NOSIG=@CAELT@METAR SLGM 131600Z 02005KT 7000 FEW017 SCT200 35/23 Q1012 A2988 HR49@CAELT@FU=@CAELT@METAR SLRI 131600Z 09006KT 5000 FU FEW017 BKN200 34/21 Q1012 A2991HR45=METAR SLJO 131600Z 36005KT 5000 FU FEW020 SCT080 BKN200 36/22 Q1011A2988 HR47 RWY NML=METAR SLRA 131600Z 36006KT 5000 FU SCT020 36/21 Q1011 A2988 HR43RWY NML=METAR SLMG 131600Z 06004KT 6000 FEW020 BKN200 36/22 Q1011 A2987 HR46FU RWY NML=METAR SLBU 131600Z 00000KT 5000 FU NSC 36/24 Q1011 A2986 HR49 CIMETAR SLSA 131600Z 36006KT 5000 FU FEW020 BKN200 36/22 Q1011 A2987HR44=METAR SLSR 131600Z 32006KT 5000 FU FEW017 BKN200 35/24 Q1010 A2984HR53 RWY NML=METAR SLSM 131600Z 00000KT 3000 FU SCT080 35/24 Q1012 A2989 HR53
ZPX0490 131616@CAELT@GG SLZZYMYT@CAELT@131600 SLTRYGYS@CAELT@SABO SLTR 131600@CAELT@METAR SLTR 131600Z 35004KT 5000 FU FEW020 SCT200 35/24@CAELT@Q1011 A2988 993.3 HR53 NOSIG=@CAELT@METAR SLGM 131600Z 02005KT 7000 FEW017 SCT200 35/23 Q1012 A2988 HR49@CAELT@FU=@CAELT@METAR SLRI 131600Z 09006KT 5000 FU FEW017 BKN200 34/21 Q1012 A2991HR45=METAR SLJO 131600Z 36005KT 5000 FU FEW020 SCT080 BKN200 36/22 Q1011A2988 HR47 RWY NML=METAR SLRA 131600Z 36006KT 5000 FU SCT020 36/21 Q1011 A2988 HR43RWY NML=METAR SLMG 131600Z 06004KT 6000 FEW020 BKN200 36/22 Q1011 A2987 HR46FU RWY NML=METAR SLBU 131600Z 00000KT 5000 FU NSC 36/24 Q1011 A2986 HR49 CIMETAR SLSA 131600Z 36006KT 5000 FU FEW020 BKN200 36/22 Q1011 A2987HR44=METAR SLSR 131600Z 32006KT 5000 FU FEW017 BKN200 35/24 Q1010 A2984HR53 RWY NML=METAR SLSM 131600Z 00000KT 3000 FU SCT080 35/24 Q1012 A2989 HR53
ZPX0515 131652@CAELT@GG SLZZYMYT@CAELT@131652 SLCAYGYS@CAELT@SABO SLCA 131700@CAELT@METAR SLCA 131700Z 00000KT 5000 FU NSC 35/10 Q1013 A2991 HR23 RWY NML@CAELT@
ZPX0516 131653@CAELT@GG SLZZYMYT@CAELT@131653 SLPSYGYS@CAELT@SABO SLPS 131700@CAELT@METAR SLPS 131700Z 09006KT 4000 FU NSC 39/25 Q1008 A2977 HR47=@CAELT@
ZPX0517 131653@CAELT@GG SLZZYMYT@CAELT@131654 SLRBYGYS@CAELT@SABO SLRB 131700@CAELT@METAR SLRB 131700Z 36006KT 3000 FU NSC 38/21 Q1012 A2988 HR37 RWY NML=@CAELT@
ZPX0518 131654@CAELT@GG SLZZYMYT@CAELT@131657 SLUYYGYS@CAELT@SABO SLUY 131700@CAELT@METAR SLUY 131700Z 31013KT 9999 FEW033 FEW036CB SCT200 17/01 Q1032@CAELT@A3050 657.5 HR34 CB/SH N/NE/E FU=@CAELT@
ZPX0519 131655@CAELT@GG SLZZYMYT@CAELT@131655 SLSBYSYX@CAELT@SABO SLSB 131700@CAELT@METAR SLSB 131700Z 00000KT 5000 FU FEW020 35/24 Q1011 A2986 HR55@CAELT@RWY NML=@CAELT@
ZPX0520 131655@CAELT@GG SLZZYMYT@CAELT@131655 SLORYGYZ@CAELT@SABO SLOR 131700@CAELT@METAR SLOR 131700Z 01010KT 9999 SCT023 20/06 Q1035 A307 656.1 HR41 AC=@CAELT@
ZPX0521 131655@CAELT@GG SLZZYMYT@CAELT@131655 SLRQYSYX@CAELT@SABO SLRQ 131700@CAELT@METAR SLRQ 131700Z 00000KT 4000 FU SCT020 SCT080 25/26 Q1011 A2987@CAELT@987.3 HR58=@CAELT@
ZPX0522 131656@CAELT@GG SLZZYMYT@CAELT@131655 SLSAYGYS@CAELT@SABO SLSA 131700@CAELT@METAR SLSA 131700Z 36004KT 5000 FU FEW020 BKN200 36/19 Q1010 A2983@CAELT@HR37=@CAELT@
ZPX0523 131656@CAELT@GG SLZZYMYT@CAELT@131655 SLLPYGYZ@CAELT@SABO SLLP 131700@CAELT@METAR SLLP 131700Z 08013KT 050V110 9999 SCT020 FEW023CB BKN200 13/M04@CAELT@Q1038 A3067 628.3 HR29 P2784 CB/SH E/W/NW FU AC NOSIG=@CAELT@
ZPX0524 131656@CAELT@GG SLZZYMYT@CAELT@131655 SLAGYSYX@CAELT@SABO SLAG 131700@CAELT@METAR SLAG 131700Z 07010KT 5000 FU FEW025 34/10 Q1014 A2997 887.3@CAELT@HR23 CI=@CAELT@
ZPX0525 131656@CAELT@GG SLZZYMYT@CAELT@131657 SLVRYGYZ@CAELT@SABO SLVR 131700@CAELT@METAR SLVR 131700Z 33010KT 6000 FEW020 BKN200 35/23 Q1011 A2986 HR48@CAELT@FU NOSIG=@CAELT@
ZPX0526 131657@CAELT@GG SLZZYMYT@CAELT@131657 SLCOYGYZ@CAELT@SABO SLCO 131700@CAELT@METAR SLCO 131700Z 00000KT 6000 BKN080 33/24 Q1012 A2989 984.8 HR60@CAELT@
ZPX0527 131657@CAELT@GG SLZZYMYT@CAELT@131655 SLTJYGYZ@CAELT@SABO SLTJ 131700@CAELT@METAR SLTJ 131700Z 13008KT 5000 FU NSC 28/10 Q1018 A3006 813.3 HR32@CAELT@CI FU=@CAELT@
ZPX0529 131658@CAELT@GG SLZZYMYT@CAELT@131657 SLETYMYC@CAELT@SABO SLET 131700@CAELT@METAR SLET 131700Z 30009KT 5000 FU SCT020 BKN200 36/21 Q1011 A2986@CAELT@HR41 NOSIG=@CAELT@
ZPX0530 131659@CAELT@GG SLZZYMYT@CAELT@131658 SLLPYFYA@CAELT@SABO SLRY 131700@CAELT@METAR SLRY 131700Z 36003KT 5000 FU FEW017 SCT200 35/25 Q1008 A2979@CAELT@HR54 RWY NML=@CAELT@
ZPX0531 131659@CAELT@GG SLZZYMYT@CAELT@131658 SLVRYGYS@CAELT@SABO SLVR 131700@CAELT@METAR SLVR 131700Z 33010KT 6000 FEW020 BKN200 35/23 Q1011 A2986 HR48@CAELT@FU NOSIG=@CAELT@METAR SLET 131700Z 30009KT 5000 FU SCT020 BKN200 36/21 Q1011 A2986@CAELT@HR41 NOSIG=@CAELT@METAR SLAS 131700Z 35004KT 0800 FU NSC 37/23 Q1013 A2991 HR45 RWY NMLMETAR SLCP 131700Z 00000KT 2000 FU BKN070 34/22 Q1015 A2997 HR49 RWYNML=METAR SLSI 131700Z 00000KT 1500 FU SCT070 36/23 Q1011 A2985 HR45 RWYMETAR SLRB 131700Z 36006KT 3000 FU NSC 38/21 Q1012 A2988 HR37 RWY NMLMETAR SLPS 131700Z 09006KT 4000 FU NSC 39/25 Q1008 A2977 HR47=METAR SLCA 131700Z 00000KT 5000 FU NSC 35/10 Q1013 A2991 HR23 RWY NML=
ZPX0533 131702@CAELT@GG SLZZYMYT@CAELT@131701 SLCBYGYS@CAELT@SABO SLCB 131700@CAELT@METAR SLCB 131700Z 24006KT 9999 SCT036 FEW040TCU 26/06 Q1024 A3026@CAELT@751.1 HR28 TCU/NE AC CI FU NOSIG=@CAELT@METAR SLAL 131700Z 35011KT 9999 SCT017 SCT200 17/07 Q1031 A3045 705.2@CAELT@HR51=@CAELT@METAR SLAG 131700Z 07010KT 5000 FU FEW025 34/10 Q1014 A2997 887.3HR23 CI=METAR SLVM 131700Z 00000KT 5000 FU NSC 36/20 Q1009 A2982 HR40 CI=METAR SLTJ 131700Z 13008KT 5000 FU NSC 28/10 Q1018 A3006 813.3 HR32CI FU=METAR SLYA 131700Z 21006KT 8000 NSC 34/14 Q1011 A2986 936.0 HR31 FU
ZPX0534 131702@CAELT@GG SLZZYMYT@CAELT@131700 SLTRYGYS@CAELT@SABO SLTR 131700@CAELT@METAR SLTR 131700Z 34008KT 5000 FU FEW020 FEW023CB SCT200 35/23@CAELT@Q1010 A2984 992.1 HR50 CB NE TEMPO SHRA=@CAELT@METAR SLGM 131700Z 04006KT 7000 SCT017 BKN200 35/23 Q1011 A2986 HR49@CAELT@FU=@CAELT@METAR SLRI 131700Z 36006KT 5000 FU FEW017 35/21 Q1011 A2988 HR44=METAR SLJO 131700Z 36006KT 5000 FU FEW020 SCT080 BKN200 36/22 Q1011A2986 HR44 RWY NML=METAR SLRA 131700Z 03006KT 5000 FU SCT020 37/22 Q1011 A2986 HR42RWY NML=METAR SLMG 131700Z 00000KT 6000 FEW020 BKN200 36/21 Q1010 A2985 HR41FU RWY NML=METAR SLBU 131700Z 00000KT 5000 FU NSC 37/23 Q1010 A2984 HR44 FUMETAR SLSA 131700Z 36004KT 5000 FU FEW020 BKN200 36/19 Q1010 A2983HR37=METAR SLSR 131700Z 32006KT 5000 FU FEW017 BKN200 35/23 Q1009 A2980HR50 RWY NML=METAR SLSM 131700Z 00000KT 3000 FU FEW017 36/24 Q1010 A2984 HR52
ZPX0535 131702@CAELT@GG SLZZYMYT@CAELT@131700 SLLPYFYA@CAELT@SABO SLLP 131700@CAELT@METAR SLLP 131700Z 08013KT 050V110 9999 SCT020 FEW023CB BKN200 13/M04@CAELT@Q1038 A3067 628.3 HR29 P2784 CB/SH E/W/NW FU AC NOSIG=@CAELT@METAR SLCO 131700Z 00000KT 6000 BKN080 33/24 Q1012 A2989 984.8 HR60@CAELT@METAR SLRY 131700Z 36003KT 5000 FU FEW017 SCT200 35/25 Q1008 A2979@CAELT@HR54 RWY NML=METAR SLRQ 131700Z 00000KT 4000 FU SCT020 SCT080 25/26 Q1011 A2987987.3 HR58=METAR SLAP 131700Z 03010KT 5000 FU FEW020 OVC070 26/15 Q1019 A3012860.2 HR53=METAR SLSB 131700Z 00000KT 5000 FU FEW020 35/24 Q1011 A2986 HR55RWY NML=METAR SLOR 131700Z 01010KT 9999 SCT023 20/06 Q1035 A307 656.1 HR41 ACMETAR SLUY 131700Z 31013KT 9999 FEW033 FEW036CB SCT200 17/01 Q1032A3050 657.5 HR34 CB/SH N/NE/E FU=
ZPX0554 131752@CAELT@GG SLZZYMYT@CAELT@131751 SLCAYGYS@CAELT@SABO SLCA 131800@CAELT@METAR SLCA 131800Z 36010KT 6000 NSC 36/10 Q1012 A2988 HR22 FU RWY NML@CAELT@
ZPX0557 131753@CAELT@GG SLZZYMYT@CAELT@131752 SLPSYGYS@CAELT@SABO SLPS 131800@CAELT@METAR SLPS 131800Z 09004KT 4000 FU NSC 40/24 Q1006 A2971 HR42=@CAELT@
ZPX0558 131754@CAELT@GG SLZZYMYT@CAELT@131755 SLCOYGYZ@CAELT@SABO SLCO 131800@CAELT@METAR SLCO 131800Z 16004KT 6000 SCT080 BKN200 34/24 Q1010 A2984 983.1@CAELT@HR58 FU=@CAELT@
ZPX0559 131754@CAELT@GG SLZZYMYT@CAELT@131755 SLORYGYZ@CAELT@SABO SLOR 131800@CAELT@METAR SLOR 131800Z 01009KT 9999 SCT023 21/06 Q1034 A3054 655.3 HR38@CAELT@AC/CI=@CAELT@
ZPX0560 131755@CAELT@GG SLZZYMYT@CAELT@131755 SLVRYGYZ@CAELT@SABO SLVR 131800@CAELT@METAR SLVR 131800Z 31014KT 6000 SCT020 BKN200 35/23 Q1009 A2982 HR47@CAELT@FU NOSIG=@CAELT@
ZPX0561 131755@CAELT@GG SLZZYMYT@CAELT@131755 SLRQYSYX@CAELT@SABO SLRQ 131800@CAELT@METAR SLRQ 131800Z 00000KT 4000 FU SCT020 FEW023CB 32/27 Q1010 A2983@CAELT@986.1 HR73 CB W/NW AC=@CAELT@
ZPX0562 131755@CAELT@GG SLZZYMYT@CAELT@131755 SLSBYSYX@CAELT@SABO SLSB 131800@CAELT@METAR SLSB 131800Z 02003KT 5000 FU SCT020 FEW025CB 35/25 Q1010 A2983@CAELT@HR58 CB SH NW RWY NML=@CAELT@
ZPX0563 131755@CAELT@GG SLZZYMYT@CAELT@131755 SLSAYGYS@CAELT@SABO SLSA 131800@CAELT@METAR SLSA 131800Z 36004KT 5000 FU SCT020 BKN200 37/19 Q1007 A2976@CAELT@HR34=@CAELT@
ZPX0564 131755@CAELT@GG SLZZYMYT@CAELT@131755 SLSAYGYS@CAELT@SABO SLSA 131800@CAELT@METAR SLSA 131800Z 36004KT 5000 FU SCT020 BKN200 37/19 Q1007 A2976@CAELT@HR34=@CAELT@
ZPX0565 131756@CAELT@GG SLZZYMYT@CAELT@131755 SLLPYGYZ@CAELT@SABO SLLP 131800@CAELT@METAR SLLP 131800Z 10013KT 9999 SCT020 FEW023CB BKN200 12/M02 Q1037@CAELT@A3063 627.5 HR37 P3483 CB/SH S/SW/W/NW FU AC NOSIG=@CAELT@
ZPX0566 131756@CAELT@GG SLZZYMYT@CAELT@131755 SLAGYSYX@CAELT@SABO SLAG 131800@CAELT@METAR SLAG 131800Z 09010KT 5000 FU FEW025 SCT200 34/10 Q1013 A2993@CAELT@885.9 HR23=@CAELT@
ZPX0568 131757@CAELT@GG SLZZYMYT@CAELT@131756 SLCBYGYZ@CAELT@SABO SLCB 131800@CAELT@METAR SLCB 131800Z 32006KT 9999 SCT036 FEW040CB 26/07 Q1023 A3022 750@CAELT@.0 HR29 CB/SH NW AC CI FU BECMG 34015KT=@CAELT@
ZPX0570 131757@CAELT@GG SLZZYMYT@CAELT@131756 SLRBYGYS@CAELT@SABO SLRB 131800@CAELT@METAR SLRB 131800Z 36005KT 3000 FU NSC 39/20 Q1010 A2983 HR34 RWY NML=@CAELT@
ZPX0571 131758@CAELT@GG SLZZYMYT@CAELT@131757 SLTJYGYZ@CAELT@SABO SLTJ 131800@CAELT@METAR SLTJ 131800Z 15008KT 5000 FU NSC 27/09 Q1017 A3003 812.4 HR33@CAELT@
ZPX0572 131758@CAELT@GG SLZZYMYT@CAELT@131757 SLETYMYC@CAELT@SABO SLET 131800@CAELT@METAR SLET 131800Z 31012KT 6000 SCT020 BKN200 36/21 Q1009 A2982 HR40@CAELT@FU NOSIG=@CAELT@
ZPX0573 131759@CAELT@GG SLZZYMYT@CAELT@131759 SLVRYGYS@CAELT@SABO SLVR 131800@CAELT@METAR SLVR 131800Z 31014KT 6000 SCT020 BKN200 35/23 Q1009 A2982 HR47@CAELT@FU NOSIG=@CAELT@METAR SLET 131800Z 31012KT 6000 SCT020 BKN200 36/21 Q1009 A2982 HR40@CAELT@METAR SLAS 131800Z 00000KT 0800 FU FEW020 36/23 Q1011 A2985 HR47 RWY@CAELT@NML=METAR SLJV 131800Z 00000KT 2000 FU NSC 35/21 Q1010 A2983 HR46 RWY NMLMETAR SLCP 131800Z 00000KT 3000 FU BKN070 34/21 Q1013 A2991 HR48 RWYMETAR SLSI 131800Z 36005KT 1500 FU SCT020 37/20 Q1009 A2980 HR37 RWYMETAR SLTI 131800Z 36010KT 6000 NSC 39/20 Q1012 A2988 HR32 FU RWY NMLMETAR SLJE 131800Z 00000KT 1500 FU SCT070 37/25 Q1013 A2991 HR51 RWYMETAR SLVG 131800Z 35010KT 8000 SCT023 BKN200 26/09 Q1024 A3024 HR29FU RWY NML=METAR SLRB 131800Z 36005KT 3000 FU NSC 39/20 Q1010 A2983 HR34 RWY NMLMETAR SLPS 131800Z 09004KT 4000 FU NSC 40/24 Q1006 A2971 HR42=METAR SLCA 131800Z 36010KT 6000 NSC 36/10 Q1012 A2988 HR22 FU RWY NML=
ZPX0574 131759@CAELT@GG SLZZYMYT@CAELT@131758 SLLPYFYA@CAELT@SABO SLRY 131800@CAELT@METAR SLRY 131800Z 36003KT 5000 FU FEW0020 BKN200 3/24 Q1007 A2976@CAELT@HR56 RWY NML=@CAELT@
ZPX0577 131801@CAELT@GG SLZZYMYT@CAELT@131801 SLCBYGYS@CAELT@SABO SLCB 131800@CAELT@METAR SLCB 131800Z 32006KT 9999 SCT036 FEW040CB 26/07 Q1023 A3022@CAELT@750.0 HR29 CB/SH NW AC CI FU BECMG 34015KT=@CAELT@METAR SLAL 131800Z 35016KT 9999 SCT020 18/06 Q1029 A3040 703.8 HR44@CAELT@METAR SLAG 131800Z 09010KT 5000 FU FEW025 SCT200 34/10 Q1013 A2993@CAELT@885.9 HR23=METAR SLVM 131800Z 00000KT 5000 FU NSC 37/21 Q1008 A2978 HR40 CI=METAR SLTJ 131800Z 15008KT 5000 FU NSC 27/09 Q1017 A3003 812.4 HR33METAR SLYA 131800Z 21004KT 8000 NSC 35/15 Q1009 A2981 934.4 HR30 FU
ZPX0578 131801@CAELT@GG SLZZYMYT@CAELT@131800 SLTRYGYS@CAELT@SABO SLTR 131800@CAELT@METAR SLTR 131800Z 03008KT 5000 TSVCSH FU FEW020 FEW023CB BKN200@CAELT@34/22 Q1009 A2980 990.6 HR50 CB/SH N/NE/E/S TS NE TEMPO TSRA=@CAELT@METAR SLGM 131800Z 00000KT 7000 SCT017 BKN200 36/23 Q1009 A2980 HR47@CAELT@METAR SLRI 131800Z 01008KT 7000 FEW017 36/20 Q1010 A2983 HR40 FU CI=@CAELT@METAR SLSA 131800Z 36004KT 5000 FU SCT020 BKN200 37/19 Q1007 A2976HR34=
ZPX0582 131805@CAELT@GG SLZZYMYT@CAELT@131801 SLLPYFYA@CAELT@SABO SLLP 131800@CAELT@METAR SLLP 131800Z 10013KT 9999 SCT020 FEW023CB BKN200 12/M02 Q1037@CAELT@A3063 627.5 HR37 P3483 CB/SH S/SW/W/NW FU AC NOSIG=@CAELT@METAR SLCO 131800Z 16004KT 6000 SCT080 BKN200 34/24 Q1010 A2984 983.1@CAELT@HR58 FU=@CAELT@METAR SLRY 131800Z 36003KT 5000 FU FEW0020 BKN200 3/24 Q1007 A2976HR56 RWY NML=METAR SLRQ 131800Z 00000KT 4000 FU SCT020 FEW023CB 32/27 Q1010 A2983986.1 HR73 CB W/NW AC=METAR SLAP 131800Z 00000KT 5000 FU SCT020 OVC070 26/16 Q1018 A3007858.9 HR53=METAR SLSB 131800Z 02003KT 5000 FU SCT020 FEW025CB 35/25 Q1010 A2983HR58 CB SH NW RWY NML=METAR SLOR 131800Z 01009KT 9999 SCT023 21/06 Q1034 A3054 655.3 HR38AC/CI=
ZPX0586 131811@CAELT@GG SLZZYMYT@CAELT@131806 SLLPYFYA@CAELT@SABO SLLP 131800 CCA@CAELT@METAR SLLP 131800Z 10013KT 9999 SCT020 FEW023CB BKN200 12/M02 Q1037@CAELT@A3063 627.5 HR37 P3483 CB/SH S/SW/W/NW FU AC NOSIG=@CAELT@METAR SLCO 131800Z 16004KT 6000 SCT080 BKN200 34/24 Q1010 A2984 983.1@CAELT@HR58 FU=@CAELT@METAR COR SLRY 131800Z 36003KT 5000 FU FEW020 BKN200 34/24 Q1007A2976 HR56 RWY NML=METAR SLRQ 131800Z 00000KT 4000 FU SCT020 FEW023CB 32/27 Q1010 A2983986.1 HR73 CB W/NW AC=METAR SLAP 131800Z 00000KT 5000 FU SCT020 OVC070 26/16 Q1018 A3007858.9 HR53=METAR SLSB 131800Z 02003KT 5000 FU SCT020 FEW025CB 35/25 Q1010 A2983HR58 CB SH NW RWY NML=METAR SLOR 131800Z 01009KT 9999 SCT023 21/06 Q1034 A3054 655.3 HR38AC/CI=
ZPX0605 131850@CAELT@GG SLZZYMYT@CAELT@131851 SLPSYGYS@CAELT@SABO SLPS 131900@CAELT@METAR SLPS 131900Z 09008KT 4000 FU NSC 40/24 Q1006 A2971 HR41=@CAELT@
ZPX0606 131852@CAELT@GG SLZZYMYT@CAELT@131852 SLCAYGYS@CAELT@SABO SLCA 131900@CAELT@METAR SLCA 131900Z 36010KT 7000 SCT033 37/08 Q1010 A2983 HR19 FU RWY@CAELT@NML=@CAELT@
ZPX0607 131854@CAELT@GG SLZZYMYT@CAELT@131855 SLRQYSYX@CAELT@SABO SLRQ 131900@CAELT@METAR SLRQ 131900Z 00000KT 5000 FU FEW023CB SCT070 BKN200 32/27 Q1008@CAELT@A2977 HR77 CB DIST W=@CAELT@
ZPX0608 131854@CAELT@GG SLZZYMYT@CAELT@131855 SLRBYGYS@CAELT@SABO SLRB 131900@CAELT@METAR SLRB 131900Z 36005KT 3000 FU NSC 39/20 Q1009 A2980 HR34 RWY NML=@CAELT@
ZPX0609 131854@CAELT@GG SLZZYMYT@CAELT@131854 SLCOYGYZ@CAELT@SABO SLCO 131900@CAELT@METAR SLCO 131900Z 09003KT 6000 SCT080 BKN200 35/25 Q1008 A2978 981.0@CAELT@HR56 FU=@CAELT@
ZPX0610 131854@CAELT@GG SLZZYMYT@CAELT@131855 SLSAYGYS@CAELT@SABO SLSA 131900@CAELT@METAR SLSA 131900Z 09010KT 5000 FU SCT020 BKN200 37/19 Q1006 A2973@CAELT@HR33=@CAELT@
ZPX0611 131855@CAELT@GG SLZZYMYT@CAELT@131855 SLSAYGYS@CAELT@SABO SLSA 131900@CAELT@METAR SLSA 131900Z 09010KT 5000 FU SCT020 BKN200 37/19 Q1006 A2973@CAELT@HR33=@CAELT@
ZPX0612 131855@CAELT@GG SLZZYMYT@CAELT@131855 SLVRYGYZ@CAELT@SABO SLVR 131900@CAELT@METAR SLVR 131900Z 31012KT 5000 FU FEW020 BKN200 35/23 Q1008 A2978@CAELT@HR49 NOSIG=@CAELT@
ZPX0613 131855@CAELT@GG SLZZYMYT@CAELT@131855 SLAGYSYX@CAELT@SABO SLAG 131900@CAELT@METAR SLAG 131900Z 07010KT 5000 FU SCT025 SCT200 34/11 Q1011 A2988@CAELT@884.6 HR24=@CAELT@
ZPX0614 131856@CAELT@GG SLZZYMYT@CAELT@131855 SLSBYSYX@CAELT@SABO SLSB 131900@CAELT@METAR SLSB 131900Z 33008KT 3000 FU SCT020 FEW025CB BKN080 33/26 Q1007@CAELT@A2976 HR67 CB SH W NW N SW RWY NML=@CAELT@
ZPX0615 131856@CAELT@GG SLZZYMYT@CAELT@131855 SLLPYGYZ@CAELT@SABO SLLP 131900@CAELT@METAR SLLP 131900Z 09010KT 030V120 9999 SCT020 FEW023CB BKN200 14/M00@CAELT@Q1036 A3060 626.7 HR37 P94// CB/SH S/SW/NW FU AC NOSIG=@CAELT@
ZPX0617 131857@CAELT@GG SLZZYMYT@CAELT@131857 SLTJYGYZ@CAELT@SABO SLTJ 131900@CAELT@METAR SLTJ 131900Z 10008KT 5000 FU NSC 26/09 Q1015 A3000 811.5 HR32@CAELT@
ZPX0618 131857@CAELT@GG SLZZYMYT@CAELT@131857 SLETYMYC@CAELT@SABO SLET 131900@CAELT@METAR SLET 131900Z 31015KT 5000 FU SCT020 BKN020 36/21 Q1008 A2977@CAELT@HR41 NOSIG=@CAELT@
ZPX0619 131857@CAELT@GG SLZZYMYT@CAELT@131857 SLCBYGYZ@CAELT@SABO SLCB 131900@CAELT@METAR SLCB 131900Z 36009KT 270V060 9999 SCT036 FEW040CB 25/04 Q1021@CAELT@A3017 748.9 HR26 CB/N AC CI FU NOSIG=@CAELT@
ZPX0622 131859@CAELT@GG SLZZYMYT@CAELT@131859 SLVRYGYS@CAELT@SABO SLVR 131900@CAELT@METAR SLVR 131900Z 31012KT 5000 FU FEW020 BKN200 35/23 Q1008 A2978@CAELT@HR49 NOSIG=@CAELT@METAR SLET 131900Z 31015KT 5000 FU SCT020 BKN020 36/21 Q1008 A2977@CAELT@HR41 NOSIG=@CAELT@METAR SLAS 131900Z 00000KT 0800 FU FEW020 38/23 Q1009 A2980 HR43 RWYNML=METAR SLJV 131900Z 00000KT 2000 FU NSC 36/21 Q1009 A2980 HR42 RWY NMLMETAR SLCP 131900Z 00000KT 4000 FU BKN070 34/21 Q1012 A2988 HR48 RWYMETAR SLSI 131900Z 33005KT 1500 FU SCT020 37/22 Q1007 A2974 HR41 RWYMETAR SLTI 131900Z 36010KT 6000 NSC 40/20 Q1010 A2983 HR31 FU RWY NMLMETAR SLJE 131900Z 34006KT 1500 FU SCT070 37/22 Q1011 A2985 HR43 RWYMETAR SLVG 131900Z 35007KT 8000 SCT023 BKN200 25/11 Q1022 A3018 HR36FU RWY NML=METAR SLRB 131900Z 36005KT 3000 FU NSC 39/20 Q1009 A2980 HR34 RWY NMLMETAR SLPS 131900Z 09008KT 4000 FU NSC 40/24 Q1006 A2971 HR41=METAR SLCA 131900Z 36010KT 7000 SCT033 37/08 Q1010 A2983 HR19 FU RWY
ZPX0624 131900@CAELT@GG SLZZYMYT@CAELT@131900 SLCBYGYS@CAELT@SABO SLCB 131900@CAELT@METAR SLCB 131900Z 36009KT 270V060 9999 SCT036 FEW040CB 25/04 Q1021@CAELT@A3017 748.9 HR26 CB/N AC CI FU NOSIG=@CAELT@METAR SLAL 131900Z 34016KT 9999 SCT020 19/06 Q1028 A3035 702.8 HR42@CAELT@METAR SLAG 131900Z 07010KT 5000 FU SCT025 SCT200 34/11 Q1011 A2988@CAELT@884.6 HR24=METAR SLTJ 131900Z 10008KT 5000 FU NSC 26/09 Q1015 A3000 811.5 HR32
ZPX0626 131902@CAELT@GG SLZZYMYT@CAELT@131900 SLTRYGYS@CAELT@SABO SLTR 131900@CAELT@METAR SLTR 131900Z 03003KT 5000 FU FEW020 FEW023CB BKN200 33/22@CAELT@Q1007 A2975 989.1 HR52 RETS CB NE/E/S NOSIG=@CAELT@METAR SLGM 131900Z 26006KT 7000 SCT017 FEW020CB BKN200 37/23 Q1006@CAELT@A2973 HR45 FU CB NE=@CAELT@METAR SLRI 131900Z 02008KT 7000 FEW020 36/21 Q1007 A2976 HR40 FU CI=METAR SLJO 131900Z NIL=METAR SLRA 131900Z NIL=METAR SLMG 131900Z NIL=METAR SLBU 131900Z NIL=METAR SLSA 131900Z 09010KT 5000 FU SCT020 BKN200 37/19 Q1006 A2973HR33=METAR SLSR 131900Z NIL=METAR SLSM 131900Z NIL=
ZPX0628 131903@CAELT@GG SLZZYMYT@CAELT@131657 SLTRYGYZ@CAELT@SABO SLTR 131700@CAELT@METAR SLTR 131700Z 34008KT 5000 FU FEW020 FEW023CB SCT200 35/23@CAELT@Q1010 A2984 992.1 HR50 CB NE TEMPO SHRA=@CAELT@
ZPX0629 131903@CAELT@GG SLZZYMYT@CAELT@131756 SLTRYGYZ@CAELT@SABO SLTR 131800@CAELT@METAR SLTR 131800Z 03008KT 5000 TS VCSH FU FEW020 FEW023CB BKN200 34/@CAELT@22 Q1009 A2980 990.6 HR50 CB/SH N/NE/E/S TS NE TEMPO TSRA=@CAELT@
ZPX0630 131903@CAELT@GG SLZZYMYT@CAELT@131858 SLTRYGYZ@CAELT@SABO SLTR 131900@CAELT@METAR SLTR 131900Z 03003KT 5000 FU FEW020 FEW023CB BKN200 33/22@CAELT@Q1007 A2975 989.1 HR52 RETS CB NE/E/S NOSIG=@CAELT@
ZPX0631 131907@CAELT@GG SLZZYMYT@CAELT@131900 SLLPYFYA@CAELT@SABO SLRY 131900@CAELT@METAR SLRY 131900Z 00000KT 5000 FU SCT020 FEW027CB BKN200 32/25@CAELT@Q1006 A2973 HR64 CB/NW RWY NML=@CAELT@
ZPX0632 131909@CAELT@GG SLZZYMYT@CAELT@131902 SLLPYFYA@CAELT@SABO SLLP 131900@CAELT@METAR SLLP 131900Z 09010KT 030V120 9999 SCT020 FEW023CB BKN200 14/M00@CAELT@Q1036 A3060 626.7 HR37 P94// CB/SH S/SW/NW FU AC NOSIG=@CAELT@METAR SLCO 131900Z 09003KT 6000 SCT080 BKN200 35/25 Q1008 A2978 981.0@CAELT@HR56 FU=@CAELT@METAR SLRY 131900Z 00000KT 5000 FU SCT020 FEW027CB BKN200 32/25Q1006 A2973 HR64 CB/NW RWY NML=METAR SLRQ 131900Z 00000KT 5000 FU FEW023CB SCT070 BKN200 32/27 Q1008A2977 HR77 CB DIST W=METAR SLSB 131900Z 33008KT 3000 FU SCT020 FEW025CB BKN080 33/26 Q1007A2976 HR67 CB SH W NW N SW RWY NML=
ZPX0646 131951@CAELT@GG SLZZYMYT@CAELT@131951 SLPSYGYS@CAELT@SABO SLPS 132000@CAELT@METAR SLPS 132000Z 09008KT 4000 FU NSC 39/24 Q1005 A2968 HR47=@CAELT@
ZPX0647 131952@CAELT@GG SLZZYMYT@CAELT@131952 SLCAYGYS@CAELT@SABO SLCA 132000@CAELT@METAR SLCA 132000Z 36010KT 8000 FEW033 37/10 Q1009 A2980 HR20 FU RWY@CAELT@NML=@CAELT@
ZPX0648 131953@CAELT@GG SLZZYMYT@CAELT@131954 SLRQYSYX@CAELT@SABO SLRQ 132000@CAELT@METAR SLRQ 132000Z 30012KT 3000 FU SCT020 FEW023CB BKN070 31/27 Q1008@CAELT@A2978 HR78 CB/SE/S/SW/W/NW=@CAELT@
ZPX0649 131954@CAELT@GG SLZZYMYT@CAELT@131955 SLSBYSYX@CAELT@SABO SLSB 132000@CAELT@METAR SLSB 132000Z 30004KT 3000 FU SCT020 FEW025CB BKN080 28/21 Q1007@CAELT@A2974 HR69 CB SH NW N SW RWY NML=@CAELT@
ZPX0650 131954@CAELT@GG SLZZYMYT@CAELT@131954 SLSAYGYS@CAELT@SABO SLSA 132000@CAELT@METAR SLSA 132000Z 12006KT 5000 FU SCT020 BKN200 36/18 Q1006 A2971@CAELT@HR34=@CAELT@
ZPX0651 131954@CAELT@GG SLZZYMYT@CAELT@131954 SLSAYGYS@CAELT@SABO SLSA 132000@CAELT@METAR SLSA 132000Z 12006KT 5000 FU SCT020 BKN200 36/18 Q1006 A2971@CAELT@HR34=@CAELT@
ZPX0652 131955@CAELT@GG SLZZYMYT@CAELT@131954 SLETYMYC@CAELT@SABO SLET 132000@CAELT@METAR SLET 132000Z 31013KT 5000 FU NSC 35/20 Q1006 A2973 HR42 CI@CAELT@NOSIG=@CAELT@
ZPX0653 131955@CAELT@GG SLZZYMYT@CAELT@131956 SLVRYGYZ@CAELT@SABO SLVR 132000@CAELT@METAR SLVR 132000Z 33008KT 5000 FU FEW020 BKN200 35/23 Q1007 A2974@CAELT@HR49 NOSIG=@CAELT@
ZPX0654 131955@CAELT@GG SLZZYMYT@CAELT@131955 SLTRYGYZ@CAELT@SABO SLTR 132000@CAELT@METAR SLTR 132000Z 11005KT 5000 FU FEW020 FEW023CB BKN200 32/21@CAELT@Q1007 A2974 988.6 HR52 CB E/SE NOSIG=@CAELT@
ZPX0655 131955@CAELT@GG SLZZYMYT@CAELT@131955 SLRBYGYS@CAELT@SABO SLRB 132000@CAELT@METAR SLRB 132000Z 36006KT 3000 FU NSC 39/20 Q1008 A2977 HR34 RWY NML=@CAELT@
ZPX0656 131955@CAELT@GG SLZZYMYT@CAELT@131955 SLCOYGYZ@CAELT@SABO SLCO 132000@CAELT@METAR SLCO 132000Z 19003KT 6000 FEW080 36/24 Q1006 A2973 979.5 HR52@CAELT@FU CI=@CAELT@
ZPX0657 131956@CAELT@GG SLZZYMYT@CAELT@131955 SLCBYGYZ@CAELT@SABO SLCB 132000@CAELT@METAR SLCB 132000Z 08004KT 9999 FEW036 26/05 Q1020 A3014 748.0 HR25@CAELT@AC CI FU NOSIG=@CAELT@
ZPX0658 131956@CAELT@GG SLZZYMYT@CAELT@131955 SLLPYGYZ@CAELT@SABO SLLP 132000@CAELT@METAR SLLP 132000Z 09006KT 9999 FEW020 FEW023CB SCT200 15/M02 Q1035@CAELT@A3056 626.0 HR31 P93// CB/SH S/SW/NW FU AC NOSIG=@CAELT@
ZPX0659 131956@CAELT@GG SLZZYMYT@CAELT@131956 SLLPYFYA@CAELT@SABO SLRY 132000@CAELT@METAR SLRY 132000Z 32014KT 5000 TS FU SCT020 FEW023CB BKN200 27/21@CAELT@Q1006 A2973 HR68 CB/TS N/NW RWY NML=@CAELT@
ZPX0660 131957@CAELT@GG SLZZYMYT@CAELT@131958 SLTRYGYS@CAELT@SABO SLTR 132000@CAELT@METAR SLTR 132000Z 11005KT 5000 FU FEW020 FEW023CB BKN200 32/21@CAELT@Q1007 A2974 988.6 HR52 CB E/SE NOSIG=@CAELT@METAR SLGM 132000Z 02010KT 7000 SCT017 FEW020CB BKN200 37/23@CAELT@Q1005 A2970 HR45 FU CB NE/E=@CAELT@METAR SLRI 132000Z 33008KT 7000 FEW020 36/21 Q1006 A2972 HR41 FU CI=METAR SLSA 132000Z 12006KT 5000 FU SCT020 BKN200 36/18 Q1006 A2971HR34=
ZPX0662 131957@CAELT@GG SLZZYMYT@CAELT@131957 SLVRYGYS@CAELT@SABO SLVR 132000@CAELT@METAR SLVR 132000Z 33008KT 5000 FU FEW020 BKN200 35/23 Q1007 A2974@CAELT@HR49 NOSIG=@CAELT@METAR SLET 132000Z 31013KT 5000 FU NSC 35/20 Q1006 A2973 HR42 CI@CAELT@NOSIG=@CAELT@METAR SLAS 132000Z 00000KT 0800 FU FEW020 37/22 Q1008 A2977 HR41 RWYNML=METAR SLJV 132000Z 00000KT 2000 FU NSC 35/21 Q1007 A2974 HR44 RWY NMLMETAR SLCP 132000Z 00000KT 4500 FU SCT070 34/19 Q1011 A2985 HR42 RWYMETAR SLSI 132000Z 00000KT 2500 FU SCT020 37/22 Q1007 A2974 HR43 RWYMETAR SLTI 132000Z 36005KT 6000 NSC 39/18 Q1009 A2980 HR30 FU RWY NMLMETAR SLJE 132000Z 35005KT 1500 FU NSC 37/23 Q1010 A2983 HR43 RWY NMLMETAR SLVG 132000Z 35009KT 9999 FEW023 SCT200 25/10 Q1021 A3015 HR22FU RWY NML=METAR SLRB 132000Z 36006KT 3000 FU NSC 39/20 Q1008 A2977 HR34 RWY NMLMETAR SLPS 132000Z 09008KT 4000 FU NSC 39/24 Q1005 A2968 HR47=METAR SLCA 132000Z 36010KT 8000 FEW033 37/10 Q1009 A2980 HR20 FU RWY
ZPX0664 131957@CAELT@GG SLZZYMYT@CAELT@131957 SLTJYGYZ@CAELT@SABO SLTJ 132000@CAELT@METAR SLTJ 132000Z 05008KT 5000 FU SCT080 BKN200 25/08 Q1015 A3000@CAELT@811.4 HR34=@CAELT@
ZPX0666 131959@CAELT@GG SLZZYMYT@CAELT@131958 SLCBYGYS@CAELT@SABO SLCB 132000@CAELT@METAR SLCB 132000Z 08004KT 9999 FEW036 26/05 Q1020 A3014 748.0 HR25@CAELT@AC CI FU NOSIG=@CAELT@METAR SLAL 132000Z 35012KT 9999 SCT020 19/05 Q1027 A3033 702.2 HR40@CAELT@FU CI=@CAELT@METAR SLTJ 132000Z 05008KT 5000 FU SCT080 BKN200 25/08 Q1015 A3000811.4 HR34=
ZPX0671 132003@CAELT@GG SLZZYMYT@CAELT@132000 SLLPYFYA@CAELT@SABO SLLP 132000@CAELT@METAR SLLP 132000Z 09006KT 9999 FEW020 FEW023CB SCT200 15/M02 Q1035@CAELT@A3056 626.0 HR31 P93// CB/SH S/SW/NW FU AC NOSIG=@CAELT@METAR SLCO 132000Z 19003KT 6000 FEW080 36/24 Q1006 A2973 979.5 HR52@CAELT@FU CI=@CAELT@METAR SLRY 132000Z 32014KT 5000 TS FU SCT020 FEW023CB BKN200 27/21Q1006 A2973 HR68 CB/TS N/NW RWY NML=METAR SLRQ 132000Z 30012KT 3000 FU SCT020 FEW023CB BKN070 31/27 Q1008A2978 HR78 CB/SE/S/SW/W/NW=METAR SLSB 132000Z 30004KT 3000 FU SCT020 FEW025CB BKN080 28/21 Q1007A2974 HR69 CB SH NW N SW RWY NML=
ZPX0692 132051@CAELT@GG SLZZYMYT@CAELT@132051 SLPSYGYS@CAELT@SABO SLPS 132100@CAELT@METAR SLPS 132100Z 09005KT 4000 FU NSC 38/25 Q1005 A2968 HR49=@CAELT@
ZPX0693 132054@CAELT@GG SLZZYMYT@CAELT@132053 SLCAYGYS@CAELT@SABO SLCA 132100@CAELT@METAR SLCA 132100Z 36010KT 6000 NSC 36/11 Q1009 A2980 HR24 FU CS RWY@CAELT@NML=@CAELT@
ZPX0694 132054@CAELT@GG SLZZYMYT@CAELT@132055 SLCOYGYZ@CAELT@SABO SLCO 132100@CAELT@METAR SLCO 132100Z 16003KT 5000 FU NSC 35/23 Q1006 A2972 979.1 HR51@CAELT@
ZPX0695 132055@CAELT@GG SLZZYMYT@CAELT@132055 SLVRYGYZ@CAELT@SABO SLVR 132100@CAELT@METAR SLVR 132100Z 33010KT 5000 FU NSC 34/23 Q1006 A2973 HR53 CI@CAELT@NOSIG=@CAELT@
ZPX0696 132055@CAELT@GG SLZZYMYT@CAELT@132054 SLETYMYC@CAELT@SABO SLET 132100@CAELT@METAR SLET 132100Z 32012KT 5000 FU NSC 34/21 Q1006 A2973 HR46 CI@CAELT@NOSIG=@CAELT@
ZPX0697 132055@CAELT@GG SLZZYMYT@CAELT@132055 SLRQYSYX@CAELT@SABO SLRQ 132100@CAELT@METAR SLRQ 132100Z 30004KT 3000 FU SCT020 FEW023CB BKN070 31/27 Q1008@CAELT@A2979 HR81 CB/SW/W/NW=@CAELT@
ZPX0698 132056@CAELT@GG SLZZYMYT@CAELT@132056 SLCBYGYZ@CAELT@SABO SLCB 132100@CAELT@METAR SLCB 132100Z 33006KT 9999 FEW036 25/03 Q1020 A3013 747.7 HR24@CAELT@AC CI FU NOSIG=@CAELT@
ZPX0699 132056@CAELT@GG SLZZYMYT@CAELT@132056 SLRBYGYS@CAELT@SABO SLRB 132100@CAELT@METAR SLRB 132100Z 36004KT 3000 FU NSC 37/21 Q1008 A2977 HR40 RWY NML=@CAELT@
ZPX0700 132056@CAELT@GG SLZZYMYT@CAELT@132055 SLLPYGYZ@CAELT@SABO SLLP 132100@CAELT@METAR SLLP 132100Z 10009KT 070V170 9999 SCT020 FEW023CB SCT200 14/M02@CAELT@Q1034 A3055 625.7 HR34 P0783 CB/SH N/S/NW FU AC NOSIG=@CAELT@
ZPX0701 132056@CAELT@GG SLZZYMYT@CAELT@132056 SLTRYGYZ@CAELT@SABO SLTR 132100@CAELT@METAR SLTR 132100Z 00000KT 5000 FU FEW020 FEW023CB BKN200 31/21@CAELT@Q1007 A2974 988.6 HR56 CB W NOSIG=@CAELT@
ZPX0702 132057@CAELT@GG SLZZYMYT@CAELT@132057 SLVRYGYS@CAELT@SABO SLVR 132100@CAELT@METAR SLVR 132100Z 33010KT 5000 FU NSC 34/23 Q1006 A2973 HR53 CI@CAELT@NOSIG=@CAELT@METAR SLET 132100Z 32012KT 5000 FU NSC 34/21 Q1006 A2973 HR46 CI@CAELT@METAR SLAS 132100Z 00000KT 0800 FU NSC 35/21 Q1008 A2977 HR45 RWY NML@CAELT@METAR SLJV 132100Z 00000KT 2000 FU NSC 33/21 Q1007 A2974 HR48 RWY NMLMETAR SLCP 132100Z 00000KT 4000 FU NSC 34/20 Q1011 A2985 HR44 RWY NMLMETAR SLSI 132100Z 00000KT 1500 FU BKN020 36/23 Q1006 A2971 HR46 RWYNML=METAR SLTI 132100Z 00000KT 6000 NSC 38/19 Q1009 A2980 HR34 FU RWY NMLMETAR SLJE 132100Z 35004KT 1500 FU NSC 37/22 Q1009 A2980 HR44 RWY NMLMETAR SLVG 132100Z 36005KT 9999 NSC 24/10 Q1021 A3015 HR37 FU CI RWYMETAR SLRB 132100Z 36004KT 3000 FU NSC 37/21 Q1008 A2977 HR40 RWY NMLMETAR SLPS 132100Z 09005KT 4000 FU NSC 38/25 Q1005 A2968 HR49=METAR SLCA 132100Z 36010KT 6000 NSC 36/11 Q1009 A2980 HR24 FU CS RWY
ZPX0703 132057@CAELT@GG SLZZYMYT@CAELT@132056 SLTJYGYZ@CAELT@SABO SLTJ 132100@CAELT@METAR SLTJ 132100Z 36008KT 5000 FU BKN080 BKN200 25/07 Q1015 A3000@CAELT@811.4 HR33=@CAELT@
ZPX0704 132057@CAELT@GG SLZZYMYT@CAELT@132057 SLSAYGYS@CAELT@SABO SLSA 132100@CAELT@METAR SLSA 132100Z 30010KT 2000 FU SCT020 FEW023CB BKN200 35/20@CAELT@Q1005 A2968 HR40 CB S/SW/W=@CAELT@
ZPX0705 132058@CAELT@GG SLZZYMYT@CAELT@132057 SLSAYGYS@CAELT@SABO SLSA 132100@CAELT@METAR SLSA 132100Z 30010KT 2000 FU SCT020 FEW023CB BKN200 35/20@CAELT@Q1005 A2968 HR40 CB S/SW/W=@CAELT@
ZPX0708 132100@CAELT@GG SLZZYMYT@CAELT@132059 SLSBYSYX@CAELT@SABO SLSB 132100@CAELT@METAR SLSB 132100Z 00000KT 2000 FU SCT015 OVC070 27/22 Q1007 A2974@CAELT@HR76 SH W NW RWY NML=@CAELT@
ZPX0711 132101@CAELT@GG SLZZYMYT@CAELT@132100 SLTRYGYS@CAELT@SABO SLTR 132100@CAELT@METAR SLTR 132100Z 00000KT 5000 FU FEW020 FEW023CB BKN200 31/21@CAELT@Q1007 A2974 988.6 HR56 CB W NOSIG=@CAELT@METAR SLGM 132100Z 36008KT 5000 TS VCSH FU SCT017 FEW020CB BKN200@CAELT@35/23 Q1005 A2968 HR51 CB/SH N/NE/E/NW TS NE=@CAELT@METAR SLRI 132100Z 34008KT 5000 FU FEW020 35/21 Q1006 A2973 HR44 CI=METAR SLSA 132100Z 30010KT 2000 FU SCT020 FEW023CB BKN200 35/20Q1005 A2968 HR40 CB S/SW/W=
ZPX0712 132102@CAELT@GG SLZZYMYT@CAELT@132101 SLCBYGYS@CAELT@SABO SLCB 132100@CAELT@METAR SLCB 132100Z 33006KT 9999 FEW036 25/03 Q1020 A3013 747.7 HR24@CAELT@AC CI FU NOSIG=@CAELT@METAR SLTJ 132100Z 36008KT 5000 FU BKN080 BKN200 25/07 Q1015 A3000@CAELT@811.4 HR33=@CAELT@
ZPX0713 132102@CAELT@GG SLZZYMYT@CAELT@132102 SLLPYFYA@CAELT@SABO SLRY 132100@CAELT@METAR SLRY 132100Z 00000KT 3000 TS VCSH SCT020 FEW023CB BKN200@CAELT@25/21 Q101007 A2976 HR75 CB/T/SH E/NE FU RWY NML=@CAELT@
ZPX0718 132106@CAELT@GG SLZZYMYT@CAELT@132106 SLLPYFYA@CAELT@SABO SLRY 132100 CCA@CAELT@METAR SLRY 132100Z 00000KT 3000 TS VCSH SCT020 FEW023CB BKN200@CAELT@25/21 Q1007 A2976 HR75 CB/T/SH E/NE FU RWY NML=@CAELT@
ZPX0720 132108@CAELT@GG SLZZYMYT@CAELT@132102 SLLPYFYA@CAELT@SABO SLLP 132100@CAELT@METAR SLLP 132100Z 10009KT 070V170 9999 SCT020 FEW023CB SCT200 14/M02@CAELT@Q1034 A3055 625.7 HR34 P0783 CB/SH N/S/NW FU AC NOSIG=@CAELT@METAR SLCO 132100Z 16003KT 5000 FU NSC 35/23 Q1006 A2972 979.1 HR51@CAELT@METAR SLRY 132100Z 00000KT 3000 TS VCSH SCT020 FEW023CB BKN200@CAELT@25/21 Q1007 A2976 HR75 CB/T/SH E/NE FU RWY NML=METAR SLRQ 132100Z 30004KT 3000 FU SCT020 FEW023CB BKN070 31/27 Q1008A2979 HR81 CB/SW/W/NW=METAR SLSB 132100Z 00000KT 2000 FU SCT015 OVC070 27/22 Q1007 A2974HR76 SH W NW RWY NML=
ZPX0733 132149@CAELT@GG SLZZYMYT@CAELT@132150 SLRBYGYS@CAELT@SABO SLRB 132200@CAELT@METAR SLRB 132200Z 36004KT 3000 FU NSC 35/21 Q1008 A2977 HR44 RWY NML=@CAELT@
ZPX0734 132153@CAELT@GG SLZZYMYT@CAELT@132153 SLPSYGYS@CAELT@SABO SLPS 132200@CAELT@METAR SLPS 132200Z 00000KT 4000 FU NSC 35/24 Q1005 A2968 HR53 CI=@CAELT@
ZPX0735 132154@CAELT@GG SLZZYMYT@CAELT@132153 SLCAYGYS@CAELT@SABO SLCA 132200@CAELT@METAR SLCA 132200Z 36005KT 6000 NSC NSC 34/11 Q1009 A2980 HR26 FU CS@CAELT@RWY NML=@CAELT@
ZPX0736 132154@CAELT@GG SLZZYMYT@CAELT@132155 SLSBYSYX@CAELT@SABO SLSB 132200@CAELT@METAR SLSB 132200Z 00000KT 2000 FU SCT015 OVC070 25/22 Q1008 A2978@CAELT@HR80 RWY NML=@CAELT@
ZPX0737 132155@CAELT@GG SLZZYMYT@CAELT@132155 SLVRYGYZ@CAELT@SABO SLVR 132200@CAELT@METAR SLVR 132200Z 34006KT 5000 FU NSC 32/23 Q1007 A2974 HR58 CI@CAELT@NOSIG=@CAELT@
ZPX0739 132155@CAELT@GG SLZZYMYT@CAELT@132155 SLCOYGYZ@CAELT@SABO SLCO 132200@CAELT@METAR SLCO 132200Z 21005KT 5000 FU NSC 34/23 Q1006 A2973 979.4 HR54=@CAELT@
ZPX0740 132155@CAELT@GG SLZZYMYT@CAELT@132155 SLTRYGYZ@CAELT@SABO SLTR 132200@CAELT@METAR SLTR 132200Z 00000KT 5000 FU NSC 30/22 Q1006 A2973 988.2 HR62@CAELT@CI NOSIG=@CAELT@
ZPX0741 132156@CAELT@GG SLZZYMYT@CAELT@132155 SLSAYGYS@CAELT@SABO SLSA 132200@CAELT@METAR SLSA 132200Z 18015KT 3000 -TSRA FU SCT020 FEW023CB BKN200@CAELT@25/24 Q1006 A2971 HR90 CB S/SW/W/NW TS S/SW=@CAELT@
ZPX0742 132156@CAELT@GG SLZZYMYT@CAELT@132155 SLSAYGYS@CAELT@SABO SLSA 132200@CAELT@METAR SLSA 132200Z 18015KT 3000 -TSRA FU SCT020 FEW023CB BKN200@CAELT@25/24 Q1006 A2971 HR90 CB S/SW/W/NW TS S/SW=@CAELT@
ZPX0743 132157@CAELT@GG SLZZYMYT@CAELT@132155 SLLPYGYZ@CAELT@SABO SLLP 132200@CAELT@METAR SLLP 132200Z 06010KT 9999 SCT020 FEW023CB SCT200 12/00 Q1035@CAELT@A3057 626.0 HR45 P0784 CB/SH N/S/NW FU AC NOSIG=@CAELT@
ZPX0744 132157@CAELT@GG SLZZYMYT@CAELT@132156 SLRQYSYX@CAELT@SABO SLRQ 132200@CAELT@METAR SLRQ 132200Z 00000KT 3000 FU SCT020 BKN070 29/27 Q1009 A2980@CAELT@HR89=@CAELT@
ZPX0745 132157@CAELT@GG SLZZYMYT@CAELT@132156 SLVRYGYS@CAELT@SABO SLVR 132200@CAELT@METAR SLVR 132200Z 34006KT 5000 FU NSC 32/23 Q1007 A2974 HR58 CI@CAELT@NOSIG=@CAELT@METAR SLET 132200Z 32010KT 4000 FU NSC 33/21 Q1007 A2974 HR50 CI@CAELT@METAR SLAS 132200Z 00000KT 0700 FU NSC 33/22 Q1008 A2977 HR53 RWY NML@CAELT@METAR SLJV 132200Z 00000KT 2000 FU NSC 31/20 Q1007 A2974 HR52 RWY NMLMETAR SLCP 132200Z 00000KT 4000 FU NSC 32/22 Q1011 A2985 HR56 RWY NMLMETAR SLSI 132200Z 00000KT 1500 FU BKN020 FEW025CB 31/21 Q1006 A2971HR54 CB NW/W RWY NML=METAR SLTI 132200Z 00000KT 6000 NSC 36/21 Q1009 A2980 HR42 FU RWY NMLMETAR SLJE 132200Z 34004KT 1500 FU NSC 35/23 Q1010 A2983 HR49 RWY NMLMETAR SLRB 132200Z 36004KT 3000 FU NSC 35/21 Q1008 A2977 HR44 RWY NMLMETAR SLPS 132200Z 00000KT 4000 FU NSC 35/24 Q1005 A2968 HR53 CI=METAR SLCA 132200Z 36005KT 6000 NSC NSC 34/11 Q1009 A2980 HR26 FU CSRWY NML=
ZPX0746 132157@CAELT@GG SLZZYMYT@CAELT@132156 SLETYMYC@CAELT@SABO SLET 132200@CAELT@METAR SLET 132200Z 32010KT 4000 FU NSC 33/21 Q1007 A2974 HR50 CI@CAELT@NOSIG=@CAELT@
ZPX0747 132157@CAELT@GG SLZZYMYT@CAELT@132157 SLCBYGYS@CAELT@SABO SLCB 132200@CAELT@METAR SLCB 132200Z 35005KT 9999 FEW036 23/05 Q1020 A3014 748.0 HR29@CAELT@AC FU NOSIG=@CAELT@
ZPX0749 132159@CAELT@GG SLZZYMYT@CAELT@132159 SLTRYGYS@CAELT@SABO SLTR 132200@CAELT@METAR SLTR 132200Z 00000KT 5000 FU NSC 30/22 Q1006 A2973 988.2 HR62@CAELT@CI NOSIG=@CAELT@METAR SLGM 132200Z 00000KT 5000 VCSH FU SCT017 FEW020CB BKN200@CAELT@34/23 Q1005 A2970 HR54 RETS CB/SH N/NE/NW=@CAELT@METAR SLRI 132200Z 09008KT 3000 FU FEW015 FEW020CB 31/21 Q1007 A2974HR55 CB NE/E CI=METAR SLSA 132200Z 18015KT 3000 -TSRA FU SCT020 FEW023CB BKN20025/24 Q1006 A2971 HR90 CB S/SW/W/NW TS S/SW=
ZPX0752 132202@CAELT@GG SLZZYMYT@CAELT@132157 SLLPYFYA@CAELT@SABO SLRY 132200@CAELT@METAR SLRY 132200Z 00000KT 5000 -RA FEW020 FEW025CB BKN200 23/22@CAELT@Q1007 A2974 HR95 CB/SE RETS FU RWY WET OPR C206=@CAELT@
ZPX0754 132203@CAELT@GG SLZZYMYT@CAELT@132200 SLLPYFYA@CAELT@SABO SLLP 132200@CAELT@METAR SLLP 132200Z 06010KT 9999 SCT020 FEW023CB SCT200 12/00 Q1035@CAELT@A3057 626.0 HR45 P0784 CB/SH N/S/NW FU AC NOSIG=@CAELT@METAR SLCO 132200Z 21005KT 5000 FU NSC 34/23 Q1006 A2973 979.4 HR54=@CAELT@METAR SLRY 132200Z 00000KT 5000 -RA FEW020 FEW025CB BKN200 23/22@CAELT@Q1007 A2974 HR95 CB/SE RETS FU RWY WET OPR C206=METAR SLRQ 132200Z 00000KT 3000 FU SCT020 BKN070 29/27 Q1009 A2980HR89=METAR SLSB 132200Z 00000KT 2000 FU SCT015 OVC070 25/22 Q1008 A2978HR80 RWY NML=
ZPX0762 132252@CAELT@GG SLZZYMYT@CAELT@132251 SLCAYGYS@CAELT@SABO SLCA 132300@CAELT@METAR SLCA 132300Z 36005KT 6000 NSC 32/12 Q1010 A2983 HR30 FU CS RWY@CAELT@NML=@CAELT@
ZPX0764 132254@CAELT@GG SLZZYMYT@CAELT@132255 SLCOYGYZ@CAELT@SABO SLCO 132300@CAELT@METAR SLCO 132300Z 18006KT 4000 FU NSC 32/24 Q1007 A2976 980.3 HR61=@CAELT@
ZPX0765 132254@CAELT@GG SLZZYMYT@CAELT@132255 SLSBYSYX@CAELT@SABO SLSB 132300@CAELT@METAR SLSB 132300Z 00000KT 2000 FU SCT015 OVC070 25/22 Q1007 A2976@CAELT@HR82 RWY NML=@CAELT@
ZPX0766 132256@CAELT@GG SLZZYMYT@CAELT@132256 SLVRYGYZ@CAELT@SABO SLVR 132300@CAELT@METAR SLVR 132300Z 32005KT 4000 FU NSC 30/22 Q1007 A2976 HR62 CI@CAELT@NOSIG=@CAELT@
ZPX0767 132256@CAELT@GG SLLPZRZX@CAELT@132255 SLLPYGYZ@CAELT@SABO SLLP 132300@CAELT@METAR SLLP 132300Z 04008KT 360V080 8000 VCSH SCT017 FEW020CB BKN200@CAELT@10/M00 Q1036 A3060 626.7 HR48 CB/SH N/NE/S/SW AC NOSIG=@CAELT@
ZPX0768 132257@CAELT@GG SLZZYMYT@CAELT@132256 SLCBYGYZ@CAELT@SABO SLCB 132300@CAELT@METAR SLCB 132300Z 35006KT 9999 FEW036 FEW040CB 21/04 Q1021 A3017 748@CAELT@.8 HR34 CB DIST/S FU AC CI NOSIG=@CAELT@
ZPX0770 132300@CAELT@GG SLZZYMYT@CAELT@132259 SLLPYFYA@CAELT@SABO SLLP 132300@CAELT@METAR SLLP 132300Z 04008KT 360V080 8000 VCSH SCT017 FEW020CB BKN200@CAELT@10/M00 Q1036 A3060 626.7 HR48 CB/SH N/NE/S/SW AC NOSIG=@CAELT@METAR SLCO 132300Z 18006KT 4000 FU NSC 32/24 Q1007 A2976 980.3 HR61=@CAELT@METAR SLSB 132300Z 00000KT 2000 FU SCT015 OVC070 25/22 Q1007 A2976@CAELT@HR82 RWY NML=
ZPX0771 132300@CAELT@GG SLZZYMYT@CAELT@132259 SLVRYGYS@CAELT@SABO SLVR 132300@CAELT@METAR SLVR 132300Z 32005KT 4000 FU NSC 30/22 Q1007 A2976 HR62 CI@CAELT@NOSIG=@CAELT@METAR SLSI 132300Z 00000KT 1500 FU BKN020 FEW025CB 30/21 Q1007 A2974@CAELT@HR58 CB NW/W RWY NML=@CAELT@METAR SLRB 132300Z 00000KT 3000 TS FU FEW025CB 29/22 Q1009 A2980 HR66RESH CB/TS S/SE/SW RWY HUM OPR=METAR SLCA 132300Z 36005KT 6000 NSC 32/12 Q1010 A2983 HR30 FU RWY NML
ZPX0784 132333@CAELT@GG SLZZYMYT@CAELT@132250 SLRBYGYS@CAELT@SABO SLRB 132300@CAELT@METAR SLRB 132300Z 00000KT 3000 TSFU FEW025CB 29/22 Q1009 A2980 HR66@CAELT@RESH CB/TS/S/SE/SW RWY HUM OPR=@CAELT@
