
ZPX0002 290000@CAELT@GG SLZZYMYT@CAELT@290000 SLCBYGYZ@CAELT@SABO SLCB 290000 CCA@CAELT@METAR COR SLCB 290000Z 00000KT 9999 FEW008 SCT020 BKN070 14/14 Q1024@CAELT@A3026 751.1 HR94 SH NW/N ST BAJOS W/NW/N/NE NOSIG=@CAELT@
ZPX0004 290001@CAELT@GG SLZZYMYT@CAELT@290000 SLCBYGYS@CAELT@SABO SLCB 290000 CCA@CAELT@METAR COR SLCB 290000Z 00000KT 9999 FEW008 SCT020 BKN070 14/14 Q1024@CAELT@A3026 751.1 HR94 SH NW/N ST BAJOS W/NW/N/NE CI NOSIG=@CAELT@METAR SLAL 290000Z 01007KT 9999 FEW015 13/10 Q1028 A3038 703.4 HR79@CAELT@AC/CI=@CAELT@METAR SLTJ 290000Z 00000KT 9999 FEW030 FEW033CB BKN200 23/14 Q1017A3006 813.1 HR58 CB W=
ZPX0020 290056@CAELT@GG SLLPZRZX@CAELT@290055 SLLPYGYZ@CAELT@SABO SLLP 290100@CAELT@METAR SLLP 290100Z 12008KT 4000E VCFG FEW003 SCT012 BKN070 06/05@CAELT@Q1035 A3059 626.5 HR90 VCFG N/NE/E/SE AC NOSIG=@CAELT@
ZPX0021 290056@CAELT@GG SLZZYMYT@CAELT@290057 SLVRYGYZ@CAELT@SABO SLVR 290100@CAELT@METAR SLVR 290100Z 34008KT 9999 NSC 25/24 Q1009 A2982 HR94 NOSIG=@CAELT@
ZPX0022 290058@CAELT@GG SLZZYMYT@CAELT@290058 SLCBYGYZ@CAELT@SABO SLCB 290100@CAELT@METAR SLCB 290100Z 00000KT 9999 FEW010 SCT020 BKN070 14/14 Q1024@CAELT@A3026 751.2 HR98 ST BAJOS W/NW/N/NE CI NOSIG=@CAELT@
ZPX0031 290156@CAELT@GG SLLPZRZX@CAELT@290155 SLLPYGYZ@CAELT@SABO SLLP 290200@CAELT@METAR SLLP 290200Z 12006KT 4000E VCFG FEW003 SCT012 BKN200 06/05@CAELT@Q1036 A3061 627.0 HR91 VCFG N/NE/E/SE AC NOSIG=@CAELT@
ZPX0032 290156@CAELT@GG SLZZYMYT@CAELT@290157 SLVRYGYZ@CAELT@SABO SLVR 290200@CAELT@METAR SLVR 290200Z 34005KT 9999 FEW012 BKN200 24/23 Q1009 A2982 HR98@CAELT@NOSIG=@CAELT@
ZPX0033 290158@CAELT@GG SLZZYMYT@CAELT@290158 SLCBYGYZ@CAELT@SABO SLCB 290200@CAELT@METAR SLCB 290200Z 36003KT 9999 FEW012 SCT020 BKN070 14/14 Q1025@CAELT@A3027 751.5 HR98 CI NOSIG=@CAELT@
ZPX0042 290255@CAELT@GG SLLPZRZX@CAELT@290255 SLLPYGYZ@CAELT@SABO SLLP 290300@CAELT@METAR SLLP 290300Z 11004KT 4000E VCFG FEW003 SCT070 BKN200 06/05@CAELT@Q1036 A3062 627.2 HR91 VCFG NE/E NOSIG=@CAELT@
