
ZPX0011 270055@CAELT@GG SLZZYMYT@CAELT@270056 SLVRYGYZ@CAELT@SABO SLVR 270100@CAELT@METAR SLVR 270100Z 35005KT 9999 FEW017 FEW027CB BKN200 26/22 Q1010@CAELT@A2982 HR77 CB/LT NE/E NOSIG=@CAELT@
ZPX0012 270056@CAELT@GG SLLPZRZX@CAELT@270055 SLLPYGYZ@CAELT@SABO SLLP 270100@CAELT@METAR SLLP 270100Z 14006KT 9999 SCT015 FEW017CB BKN200 07/03 Q1036@CAELT@A3061 626.9 HR71 CB/LT N AC NOSIG=@CAELT@
ZPX0013 270058@CAELT@GG SLZZYMYT@CAELT@270057 SLCBYGYZ@CAELT@SABO SLCB 270100@CAELT@METAR SLCB 270100Z 10015KT 9999 FEW033 SCT090 21/08 Q1023 A3022 750.0@CAELT@HR41 FU NOSIG=@CAELT@
ZPX0021 270155@CAELT@GG SLZZYMYT@CAELT@270156 SLVRYGYZ@CAELT@SABO SLVR 270200@CAELT@METAR SLVR 270200Z 01005KT 9999 FEW017 FEW027CB BKN200 25/23 Q1011@CAELT@A2986 HR85 CB/LT NE/E/SE NOSIG=@CAELT@
ZPX0022 270156@CAELT@GG SLLPZRZX@CAELT@270155 SLLPYGYZ@CAELT@SABO SLLP 270200@CAELT@METAR SLLP 270200Z 24005KT 9999 FEW015 FEW017CB BKN200 07/03 Q1037@CAELT@A3065 627.8 HR76 CB/LT N AC NOSIG=@CAELT@
ZPX0023 270158@CAELT@GG SLZZYMYT@CAELT@270158 SLCBYGYZ@CAELT@SABO SLCB 270200@CAELT@METAR SLCB 270200Z 09006KT 9999 FEW033 BKN200 21/07 Q1023 A3022 750.2@CAELT@HR41 FU AC NOSIG=@CAELT@
ZPX0039 270256@CAELT@GG SLZZYMYT@CAELT@270256 SLVRYGYZ@CAELT@SABO SLVR 270300@CAELT@METAR SLVR 270300Z 05008KT 9999 FEW017 BKN200 25/23 Q1012 A2989 HR86@CAELT@NOSIG=@CAELT@
ZPX0040 270256@CAELT@GG SLLPZRZX@CAELT@270255 SLLPYGYZ@CAELT@SABO SLLP 270300@CAELT@METAR SLLP 270300Z 05005KT 9999 FEW008 FEW017CB BKN200 05/03 Q1038@CAELT@A3067 628.3 HR85 CB/LT N AC NOSIG=@CAELT@
ZPX0041 270257@CAELT@GG SLZZYMYT@CAELT@270257 SLCBYGYZ@CAELT@SABO SLCB 270300@CAELT@METAR SLCB 270300Z 22004KT 9999 FEW033 BKN200 19/07 Q1023 A3023 750.3@CAELT@HR46 FU NOSIG=@CAELT@
ZPX0050 270355@CAELT@GG SLZZYMYT@CAELT@270355 SLCBYGYZ@CAELT@SABO SLCB 270400@CAELT@METAR SLCB 270400Z 14004KT 9999 FEW033 BKN200 19/07 Q1023 A3023 750.5@CAELT@HR47 FU AC NOSIG=@CAELT@
ZPX0051 270355@CAELT@GG SLZZYMYT@CAELT@270355 SLVRYGYZ@CAELT@SABO SLVR 270400@CAELT@METAR SLVR 270400Z VRB02KT 9999 NSC 24/22 Q1011 A2986 HR85 CI NOSIG=@CAELT@
ZPX0052 270356@CAELT@GG SLLPZRZX@CAELT@270357 SLLPYGYZ@CAELT@SABO SLLP 270400@CAELT@METAR SLLP 270400Z 05006KT 9999 FEW007 SCT200 05/03 Q1038 A3066@CAELT@628.0 HR86 AC NOSIG=@CAELT@
ZPX0059 270456@CAELT@GG SLLPZRZX@CAELT@270455 SLLPYGYZ@CAELT@SABO SLLP 270500@CAELT@METAR SLLP 270500Z 07004KT 9999 FEW006 SCT200 03/01 Q1037 A3063@CAELT@627.4 HR87 AC NOSIG=@CAELT@
ZPX0061 270457@CAELT@GG SLZZYMYT@CAELT@270458 SLVRYGYZ@CAELT@SABO SLVR 270500@CAELT@METAR SLVR 270500Z 27008KT 9999 NSC 25/23 Q1010 A2984 HR89 CI NOSIG=@CAELT@
ZPX0062 270458@CAELT@GG SLZZYMYT@CAELT@270457 SLCBYGYZ@CAELT@SABO SLCB 270500@CAELT@METAR SLCB 270500Z 13003KT 9999 FEW033 SCT090 19/05 Q1023 A3022 750.1@CAELT@HR37 FU CI NOSIG=@CAELT@
ZPX0069 270555@CAELT@GG SLZZYMYT@CAELT@270556 SLVRYGYZ@CAELT@SABO SLVR 270600@CAELT@METAR SLVR 270600Z 12006KT 9999 FEW020 BKN070 BKN200 24/23 Q1011@CAELT@A2986 HR91 NOSIG=@CAELT@
ZPX0070 270556@CAELT@GG SLLPZRZX@CAELT@270555 SLLPYGYZ@CAELT@SABO SLLP 270600@CAELT@METAR SLLP 270600Z 04007KT 9999 FEW006 SCT200 04/01 Q1036 A3060@CAELT@626.8 HR78 AC NOSIG=@CAELT@
ZPX0071 270557@CAELT@GG SLZZYMYT@CAELT@270557 SLCBYGYZ@CAELT@SABO SLCB 270600@CAELT@METAR SLCB 270600Z 08006KT 9999 FEW033 BKN070 19/04 Q1023 A3022 750.2@CAELT@HR38 FU NOSIG=@CAELT@
ZPX0078 270655@CAELT@GG SLZZYMYT@CAELT@270655 SLVRYGYZ@CAELT@SABO SLVR 270700@CAELT@METAR SLVR 270700Z 11006KT 9999 FEW023 BKN070 23/21 Q1011 A2985 HR86@CAELT@NOSIG=@CAELT@
ZPX0079 270656@CAELT@GG SLZZYMYT@CAELT@270655 SLCBYGYZ@CAELT@SABO SLCB 270700@CAELT@METAR SLCB 270700Z 07005KT 9999 FEW030 BKN070 19/05 Q1023 A3023 750.3@CAELT@HR38 FU NOSIG=@CAELT@
ZPX0088 270752@CAELT@GG SLZZYMYT@CAELT@270753 SLVRYGYZ@CAELT@SABO SLVR 270800@CAELT@METAR SLVR 270800Z 15004KT 9999 FEW023 BKN070 23/21 Q1011 A2985 HR86@CAELT@NOSIG=@CAELT@
ZPX0089 270756@CAELT@GG SLZZYMYT@CAELT@270756 SLCBYGYZ@CAELT@SABO SLCB 270800@CAELT@METAR SLCB 270800Z 05003KT 9999 FEW030 17/06 Q1023 A3022 750.1 HR48@CAELT@FU NOSIG=@CAELT@
ZPX0090 270757@CAELT@GG SLLPZRZX@CAELT@270756 SLLPYGYZ@CAELT@SABO SLLP 270800@CAELT@METAR SLLP 270800Z 08006KT 4000E VCFG FEW002 SCT200 02/01 Q1036@CAELT@A3059 626.6 HR92 VCFG NE/E/SE AC NOSIG=@CAELT@
ZPX0102 270854@CAELT@GG SLZZYMYT@CAELT@270855 SLVRYGYZ@CAELT@SABO SLVR 270900@CAELT@METAR SLVR 270900Z 16009KT 9999 FEW007 SCT023 BKN070 23/21 Q1013@CAELT@A2992 HR88 NOSIG=@CAELT@
ZPX0103 270856@CAELT@GG SLZZYMYT@CAELT@270855 SLPSZTZX@CAELT@SABO SLPS 270900@CAELT@METAR SLPS 270900Z 00000KT 9999 SCT020 BKN200 25/23 Q1011 A2986 HR88=@CAELT@
ZPX0104 270856@CAELT@GG SLZZYMYT@CAELT@270856 SLCBYGYZ@CAELT@SABO SLCB 270900@CAELT@METAR SLCB 270900Z 11004KT 9999 FEW030 SCT070 18/05 Q1024 A3025 750.9@CAELT@HR42 FU NOSIG=@CAELT@
ZPX0105 270857@CAELT@GG SLLPZRZX@CAELT@270856 SLLPYGYZ@CAELT@SABO SLLP 270900@CAELT@METAR SLLP 270900Z 08006KT 4000E VCFG FEW002 SCT200 03/02 Q1036@CAELT@A3060 626.8 HR93 VCFG NE/E/SE AC NOSIG=@CAELT@
ZPX0106 270857@CAELT@GG SLZZYMYT@CAELT@270857 SLTRYGYZ@CAELT@SABO SLTR 270900@CAELT@METAR SLTR 270900Z 00000KT 9999 VCTS FEW020 FEW023CB BKN200 26/24@CAELT@Q1009 A2981 990.9 HR90 CB/TS E TEMPO TSRA=@CAELT@
ZPX0107 270859@CAELT@GG SLZZYMYT@CAELT@270858 SLTRYGYS@CAELT@SABO SLTR 270900@CAELT@METAR SLTR 270900Z 00000KT 9999 VCTS FEW020 FEW023CB BKN200 26/24@CAELT@Q1009 A2981 990.9 HR90 CB/TS E TEMPO TSRA=@CAELT@METAR SLRI 270900Z 36005KT 8000 FEW010 FEW020CB BKN200 25/24 Q1010@CAELT@A2983 HR89 CB E/SE FU=@CAELT@
ZPX0125 270943@CAELT@GG SLZZYMYT@CAELT@270941 SLPSZTZX@CAELT@SABO SLPS 271000@CAELT@METAR SLPS 271000Z 00000KT 9999 FEW020 OVC200 26/23 Q1011 A2986 HR85=@CAELT@
ZPX0127 270954@CAELT@GG SLZZYMYT@CAELT@270955 SLSBYSYX@CAELT@SABO SLSB 271000@CAELT@METAR SLSB 271000Z 00000KT 9999 SCT080 21/21 Q1009 A2982 HR98 RWY HUM@CAELT@OPR=@CAELT@
ZPX0128 270955@CAELT@GG SLZZYMYT@CAELT@270953 SLETYMYC@CAELT@SABO SLET 271000Z@CAELT@METAR SLET 271000Z 14010KT 9999 BKN013 OVC070 22/21 Q1013 A2992 HR92@CAELT@TEMPO 8000 -RA=@CAELT@
ZPX0129 270955@CAELT@GG SLZZYMYT@CAELT@270955 SLLPYGYZ@CAELT@SABO SLLP 271000@CAELT@METAR SLLP 271000Z 08007KT 4000E VCFG FEW002 SCT200 03/03 Q1037@CAELT@A3062 627.3 HR95 P92// VCFG NE/E/SE AC NOSIG=@CAELT@
ZPX0130 270955@CAELT@GG SLZZYMYT@CAELT@270956 SLRQYSYX@CAELT@SABO SLRQ 271000@CAELT@METAR SLRQ 271000Z 00000KT 9999 SCT020 FEW023CB 22/22 Q1009 A2982 985@CAELT@.6 HR99 CB N/NE CI=@CAELT@
ZPX0131 270956@CAELT@GG SLZZYMYT@CAELT@270954 SLUYYGYS@CAELT@SABO SLUY 271000@CAELT@METAR SLUY 271000Z 00000KT 9999 NSC 03/M03 Q1032 A3049@CAELT@657.4 HR63 HZ CI/CC=@CAELT@
ZPX0132 270956@CAELT@GG SLZZYMYT@CAELT@270955 SLRBYGYS@CAELT@SABO SLRB 271000@CAELT@METAR SLRB 271000Z 00000KT 9999 NSC 23/22 Q1015 A2997 HR90 RWY NML=@CAELT@
ZPX0133 270956@CAELT@GG SLZZYMYT@CAELT@270955 SLCBYGYZ@CAELT@SABO SLCB 271000@CAELT@METAR SLCB 271000Z 13006KT 9999 FEW030 BKN070 BKN200 17/06 Q1024@CAELT@A3027 751.3 HR46 FU NOSIG=@CAELT@
ZPX0134 270956@CAELT@GG SLZZYMYT@CAELT@270956 SLTRYGYZ@CAELT@SABO SLTR 271000@CAELT@METAR SLTR 271000Z 00000KT 2000 TS FU FEW020 FEW023CB BKN200 26/24@CAELT@Q1009 A2981 990.9 HR94 CB N/NW TS NW NOSIG=@CAELT@
ZPX0135 270957@CAELT@GG SLZZYMYT@CAELT@270956 SLSAYGYS@CAELT@SABO SLSA 271000@CAELT@METAR SLSA 271000Z 00000KT 8000 SCT017 FEW023CB BKN200 24/23 Q1008@CAELT@A2979 HR94 FU CB S=@CAELT@
ZPX0136 270957@CAELT@GG SLZZYMYT@CAELT@270956 SLTJYGYZ@CAELT@SABO SLTJ 271000@CAELT@METAR SLTJ 271000Z 00000KT 9999 FEW008 BKN023 BKN070 16/15 Q1022@CAELT@A3019 816.8 HR95=@CAELT@
ZPX0137 270957@CAELT@GG SLZZYMYT@CAELT@270956 SLLPYFYA@CAELT@SABO SLRY 271000@CAELT@METAR SLRY 271000Z 00000KT 9999 FEW020 BKN200 21/21 Q1008@CAELT@A2979 HR100 RWY HUM OPR=@CAELT@
ZPX0138 270957@CAELT@GG SLZZYMYT@CAELT@270958 SLVRYGYZ@CAELT@SABO SLVR 271000@CAELT@METAR SLVR 271000Z 16006KT 9999 FEW007 SCT012 BKN070 23/21 Q1013@CAELT@A2993 HR88 NOSIG=@CAELT@
ZPX0139 270957@CAELT@GG SLZZYMYT@CAELT@270957 SLCAYGYS@CAELT@SABO SLCA 271000@CAELT@METAR SLCA 271000Z 00000KT 5000 -RA OVC010 20/19 Q1020 A3012 HR94 RWY@CAELT@WET INOP=@CAELT@
ZPX0140 270959@CAELT@GG SLZZYMYT@CAELT@270959 SLVRYFYC@CAELT@SABO SLVR 271000@CAELT@METAR SLVR 271000Z 16006KT 9999 FEW007 SCT012 BKN070 23/21 Q1013@CAELT@A2993 HR88 NOSIG=@CAELT@METAR SLET 271000Z 14010KT 9999 BKN013 OVC070 22/21 Q1013 A2992 HR92@CAELT@TEMPO 8000 -RA=@CAELT@METAR SLCP 271000Z 00000KT 9999 TS BKN017 FEW030CB OVC070 23/22 Q1014A2994 HR92 CB/TS/S/SW/W RWY WET OPR=METAR SLSI 271000Z 00000KT 9999 BKN017 BKN070 24/21 Q1011 A2985 HR83RWY NML=METAR SLRB 271000Z 00000KT 9999 NSC 23/22 Q1015 A2997 HR90 RWY NML=METAR SLPS 271000Z 00000KT 9999 FEW020 OVC200 26/23 Q1011 A2986 HR85=METAR SLCA 271000Z 00000KT 5000 -RA OVC010 20/19 Q1020 A3012 HR94 RWYWET INOP=
ZPX0142 271001@CAELT@GG SLZZYMYT@CAELT@271000 SLCBYGYS@CAELT@SABO SLCB 271000@CAELT@METAR SLCB 271000Z 13006KT 9999 FEW030 BKN070 BKN200 17/06 Q1024@CAELT@A3027 751.3 HR46 FU NOSIG=@CAELT@METAR SLAL 271000Z 02005KT 9999 SCT012 SCT070 11/09 Q1030 A3043 704.5@CAELT@HR85=@CAELT@METAR SLVM 271000Z 18005KT 5000 VCSH BKN008 OVC070 20/20 Q1016 A3002HR98 SH/SW/W/NW/N=METAR SLTJ 271000Z 00000KT 9999 FEW008 BKN023 BKN070 16/15 Q1022A3019 816.8 HR95=
ZPX0143 271002@CAELT@GG SLZZYMYT@CAELT@271000 SLTRYGYS@CAELT@SABO SLTR 271000@CAELT@METAR SLTR 271000Z 00000KT 2000 TS FU FEW020 FEW023CB BKN200 26/24@CAELT@Q1009 A2981 990.9 HR94 CB N/NW TS NW NOSIG=@CAELT@METAR SLGM 271000Z 03003KT 9999 SCT015 BKN080 25/23 Q1009 A2982@CAELT@HR92=@CAELT@METAR SLJO 271000Z 00000KT 9999 NSC 25/23 Q1010 A2983 HR92 CIRWY NML=METAR SLRA 271000Z 00000KT 9999 FEW020 BKN200 25/23 Q1009 A2980HR91 AC RWY HUM OPR=METAR SLMG 271000Z NIL=METAR SLBU 271000Z NIL=METAR SLSA 271000Z 00000KT 8000 SCT017 FEW023CB BKN200 24/23 Q1008A2979 HR94 FU CB S=METAR SLSR 271000Z NIL=METAR SLSM 271000Z 00000KT 8000 VCSH SCT015 FEW023CB BKN200 23/22Q1009 A2998HR98 CB/SH N/NE/E/NW RWY NML=
ZPX0144 271002@CAELT@GG SLZZYMYT@CAELT@271001 SLLPYFYA@CAELT@SABO SLLP 271000@CAELT@METAR SLLP 271000Z 08007KT 4000E VCFG FEW002 SCT200 03/03 Q1037@CAELT@A3062 627.3 HR95 P92// VCFG NE/E/SE AC NOSIG=@CAELT@METAR SLCO 271000Z 15005KT 4000 BR FEW003 SCT200 24/24 Q1009@CAELT@A2980 981.7 HR99=@CAELT@METAR SLRY 271000Z 00000KT 9999 FEW020 BKN200 21/21 Q1008A2979 HR100 RWY HUM OPR=METAR SLRQ 271000Z 00000KT 9999 SCT020 FEW023CB 22/22 Q1009 A2982985.6 HR99 CB N/NE CI=METAR SLAP 271000Z 00000KT VV/// FG 15/15 Q1018 A3006 858.7 HR100=METAR SLSB 271000Z 00000KT 9999 SCT080 21/21 Q1009 A2982 HR98RWY HUM OPR=METAR SLUY 271000Z 00000KT 9999 NSC 03/M03 Q1032 A3049657.4 HR63 HZ CI/CC=
ZPX0148 271008@CAELT@GG SLZZYMYT@CAELT@271008 SLTRYGYS@CAELT@SABO SLTR 271000 RRA@CAELT@METAR SLTR 271000Z 00000KT 2000 TS FU FEW020 FEW023CB BKN200 26/24@CAELT@Q1009 A2981 990.9 HR94 CB N/NW TS NW NOSIG=@CAELT@METAR SLGM 271000Z 03003KT 9999 SCT015 BKN080 25/23 Q1009 A2982@CAELT@HR92=@CAELT@METAR SLJO 271000Z 00000KT 9999 NSC 25/23 Q1010 A2983 HR92 CIRWY NML=METAR SLRA 271000Z 00000KT 9999 FEW020 BKN200 25/23 Q1009 A2980HR91 AC RWY HUM OPR=METAR RTD SLMG 271000Z 00000KT 9999 NSC 25/24 Q1009 A2981 HR94 CIMETAR SLBU 271000Z NIL=METAR SLSA 271000Z 00000KT 8000 SCT017 FEW023CB BKN200 24/23 Q1008A2979 HR94 FU CB S=METAR RTD SLSR 271000Z 27008KT 2000 TSRA BKN008 FEW020CB OVC07022/22 Q1010 A2986 HR100 CB S/SW/W/NW TS SW RWY WET INOP=METAR SLSM 271000Z 00000KT 8000 VCSH SCT015 FEW023CB BKN200 23/22Q1009 A2998HR98 CB/SH N/NE/E/NW RWY NML=
ZPX0150 271012@CAELT@GG SLZZYMYT@CAELT@271008 SLTRYGYS@CAELT@SABO SLTR 271000@CAELT@METAR SLTR 271000Z 00000KT 2000 TS FU FEW020 FEW023CB BKN200 26/24@CAELT@Q1009 A2981 990.9 HR94 CB N/NW TS NW NOSIG=@CAELT@METAR SLGM 271000Z 03003KT 9999 SCT015 BKN080 25/23 Q1009 A2982@CAELT@HR92=@CAELT@METAR SLRI 271000Z 09005KT 9999 FEW010 BKN200 25/23 Q1010 A2985 HR89FU AC=METAR SLJO 271000Z 00000KT 9999 NSC 25/23 Q1010 A2983 HR92 CIRWY NML=METAR SLRA 271000Z 00000KT 9999 FEW020 BKN200 25/23 Q1009 A2980HR91 AC RWY HUM OPR=METAR SLMG 271000Z 00000KT 9999 NSC 25/24 Q1009 A2981 HR94 CIMETAR SLBU 271000Z NIL=METAR SLSA 271000Z 00000KT 8000 SCT017 FEW023CB BKN200 24/23 Q1008A2979 HR94 FU CB S=METAR SLSR 271000Z 27008KT 2000 TSRA BKN008 FEW020CB OVC07022/22 Q1010 A2986 HR100 CB S/SW/W/NW TS SW RWY WET INOP=METAR SLSM 271000Z 00000KT 8000 VCSH SCT015 FEW023CB BKN200 23/22Q1009 A2998HR98 CB/SH N/NE/E/NW RWY NML=
ZPX0165 271050@CAELT@GG SLZZYMYT@CAELT@271050 SLPSZTZX@CAELT@SABO SLPS 271100@CAELT@METAR SLPS 271100Z 00000KT 9999 OVC200 26/24 Q1013 A2992 HR85=@CAELT@
ZPX0168 271052@CAELT@GG SLZZYMYT@CAELT@271051 SLRBYGYS@CAELT@SABO SLRB 271100@CAELT@METAR SLRB 271100Z 00000KT 9999 BKN070 24/21 Q1016 A3000 HR88 RWY NML=@CAELT@
ZPX0170 271054@CAELT@GG SLZZYMYT@CAELT@271054 SLCAYGYS@CAELT@SABO SLCA 271100@CAELT@METAR SLCA 271100Z 00000KT 5000 -RA OVC010 20/19 Q1020 A3012 HR94 RWY@CAELT@WET INOP=@CAELT@
ZPX0171 271054@CAELT@GG SLZZYMYT@CAELT@271055 SLLPYFYA@CAELT@SABO SLCO 271100@CAELT@METAR SLCO 27100Z 14004KT 2000 BR FEW003 SCT200 24/24 Q1009 A2982@CAELT@982.4 HR99=@CAELT@
ZPX0172 271054@CAELT@GG SLZZYMYT@CAELT@271054 SLLPYFYA@CAELT@SABO SLRY 271100@CAELT@METAR SLRY 271100Z 00000KT 9999 FEW020 BKN200 21/21 Q1009 A2980@CAELT@HR100 RWY HUM OPR=@CAELT@
ZPX0173 271054@CAELT@GG SLZZYMYT@CAELT@271055 SLVRYGYZ@CAELT@SABO SLVR 271100@CAELT@METAR SLVR 271100Z 15009KT 9999 SCT007 BKN013 OVC070 23/21 Q1014@CAELT@A2995 HR89 NOSIG=@CAELT@
ZPX0174 271055@CAELT@GG SLZZYMYT@CAELT@271055 SLSAYGYS@CAELT@SABO SLSA 271100@CAELT@METAR SLSA 271100Z 00000KT 8000 FEW017 FEW023CB BKN200 25/24 Q1009@CAELT@A2981 HR94 FU CB W=@CAELT@
ZPX0177 271055@CAELT@GG SLZZYMYT@CAELT@271052 SLETYMYC@CAELT@SABO SLET 271100Z@CAELT@METAR SLET 271100Z 15010KT 9999 BKN013 OVC070 23/21 Q1014 A2996 HR89@CAELT@TEMPO 8000 -RA=@CAELT@
ZPX0178 271055@CAELT@GG SLZZYMYT@CAELT@271055 SLORYGYZ@CAELT@SABO SLOR 271100@CAELT@METAR SLOR 271100Z 05005KT 9999 FEW017 11/02 Q1033 A3051 654.6 HR55@CAELT@FU S/SW/NW=@CAELT@
ZPX0180 271056@CAELT@GG SLZZYMYT@CAELT@271055 SLTJYGYZ@CAELT@SABO SLTJ 271100@CAELT@METAR SLTJ 271100Z 00000KT 9999 SCT008 BKN023 BKN070 16/15 Q1023@CAELT@A3021 817.5 HR93 ST BAJOS TODAS DIRECC=@CAELT@
ZPX0181 271056@CAELT@GG SLZZYMYT@CAELT@271056 SLTRYGYZ@CAELT@SABO SLTR 271100@CAELT@METAR SLTR 271100Z 25004KT 5000 FU SCT020 FEW023CB BKN200 25/24@CAELT@Q1010 A2983 991.8 HR92 RETS CB W/NW TEMPO TSRA=@CAELT@
ZPX0182 271056@CAELT@GG SLZZYMYT@CAELT@271055 SLSBYSYX@CAELT@SABO SLSB 271100@CAELT@METAR SLSB 271100Z 36003KT 8000 VCSH FEW025CB SCT080 22/21 Q1010@CAELT@A2984 HR92 CB SH N RWY HUM OPR=@CAELT@
ZPX0183 271056@CAELT@GG SLZZYMYT@CAELT@271056 SLVRYFYC@CAELT@SABO SLVR 271100@CAELT@METAR SLVR 271100Z 15009KT 9999 SCT007 BKN013 OVC070 23/21 Q1014@CAELT@A2995 HR89 NOSIG=@CAELT@METAR SLET 271100Z 15010KT 9999 BKN013 OVC070 23/21 Q1014 A2996 HR89@CAELT@TEMPO 8000 -RA=@CAELT@METAR SLAS 271100Z 00000KT 1500 FU BKN023 OVC200 26/24 Q1013 A2991HR89 RWY NML=METAR SLJV 271100ZMETAR SLCP 271100Z 12006KT 3000 -TSRA BKN017 FEW030CB OVC070 23/22Q1015 A2997 HR96 CB/TS/S/SW/ N RWY WET OPR=METAR SLSI 271100Z 18005KT 9999 BKN015 OVC070 24/21 Q1012 A2988 HR83RWY NML=METAR SLTI 271100Z 00000KT 9999 NSC 27/23 Q1015 A2997 HR74 CI RWY NMLMETAR SLJE 271100Z 00000KT 9999 FEW020 OVC070 23/22 Q1015 A2997 HR92RWY HUM OPR=METAR SLVG 271100Z 18006KT 9999 BKN070 OVC200 14/12 Q1025 A3027 HR90RWY WET OPR=METAR SLRB 271100Z 00000KT 9999 BKN070 24/21 Q1016 A3000 HR88 RWY NMLMETAR SLPS 271100Z 00000KT 9999 OVC200 26/24 Q1013 A2992 HR85=METAR SLCA 271100Z 00000KT 5000 -RA OVC010 20/19 Q1020 A3012 HR94 RWYWET INOP=
ZPX0184 271056@CAELT@GG SLZZYMYT@CAELT@271055 SLCBYGYZ@CAELT@SABO SLCB 271100@CAELT@METAR SLCB 271100Z 12006KT 080V200 9999 FEW033 BKN200 20/05 Q1025@CAELT@A3028 751.6 HR38 FU AC NOSIG=@CAELT@
ZPX0185 271056@CAELT@GG SLZZYMYT@CAELT@271056 SLRQYSYX@CAELT@SABO SLRQ 271100@CAELT@METAR SLRQ 271100Z 00000KT 9999 SCT020 BKN200 23/22 Q1010 A2984 986.5@CAELT@HR94 AC=@CAELT@
ZPX0186 271058@CAELT@GG SLZZYMYT@CAELT@271049 SLUYYGYS@CAELT@SABO SLUY 271100@CAELT@METAR SLUY 271100Z 00000KT 9999 NSC 07/M02 Q1033 A3053@CAELT@658.2 HR54 FU CI/CC=@CAELT@
ZPX0187 271058@CAELT@GG SLZZYMYT@CAELT@271058 SLLPYGYZ@CAELT@SABO SLLP 271100@CAELT@METAR SLLP 271100Z 10010KT 2000E VCFG FEW002 SCT010 BKN200 04/04@CAELT@Q1037 A3065 627.9 HR97 P92// VCFG NE/E/SE AC NOSIG=@CAELT@
ZPX0188 271059@CAELT@GG SLZZYMYT@CAELT@271058 SLLPYFYA@CAELT@SABO SLLP 271100@CAELT@METAR SLLP 271100Z 10010KT 2000E VCFG FEW002 SCT010 BKN200 04/04@CAELT@Q1037 A3065 627.9 HR97 P92// VCFG NE/E/SE AC NOSIG=@CAELT@METAR SLCO 27100Z 14004KT 2000 BR FEW003 SCT200 24/24 Q1009 A2982@CAELT@982.4 HR99=@CAELT@METAR SLRY 271100Z 00000KT 9999 FEW020 BKN200 21/21 Q1009 A2980HR100 RWY HUM OPR=METAR SLRQ 271100Z 00000KT 9999 SCT020 BKN200 23/22 Q1010 A2984986.5 HR94 AC=METAR SLAP 271100Z 00000KT VV/// FG 15/15 Q1019 A3009 859.5 HR99=METAR SLSB 271100Z 36003KT 8000 VCSH FEW025CB SCT080 22/21 Q1010A2984 HR92 CB SH N RWY HUM OPR=METAR SLOR 271100Z 05005KT 9999 FEW017 11/02 Q1033 A3051 654.6 HR55FU S/SW/NW=METAR SLUY 271100Z 00000KT 9999 NSC 07/M02 Q1033 A3053 658.2 HR54 FUCI/CC=
ZPX0189 271059@CAELT@GG SLZZYMYT@CAELT@271059 SLCBYGYS@CAELT@SABO SLCB 271100@CAELT@METAR SLCB 271100Z 12006KT 080V200 9999 FEW033 BKN200 20/05 Q1025@CAELT@A3028 751.6 HR38 FU AC NOSIG=@CAELT@METAR SLAL 271100Z 06009KT 9999 SCT012 SCT070 12/08 Q1031 A3046 705.2@CAELT@HR79=@CAELT@METAR SLVM 271100Z 00000KT 9999 SCT010 BKN020 OVC070 21/20 Q1017A3004 HR97=METAR SLTJ 271100Z 00000KT 9999 SCT008 BKN023 BKN070 16/15 Q1023A3021 817.5 HR93 ST BAJOS TODAS DIRECC=
ZPX0191 271101@CAELT@GG SLZZYMYT@CAELT@271059 SLTRYGYS@CAELT@SABO SLTR 271100@CAELT@METAR SLTR 271100Z 25004KT 5000 FU SCT020 FEW023CB BKN200 25/24@CAELT@Q1010 A2983 991.8 HR92 RETS CB W/NW TEMPO TSRA=@CAELT@METAR SLGM 271100Z 03006KT 9999 FEW015 SCT080 BKN200 26/23 Q1010@CAELT@A2984 HR89=@CAELT@METAR SLRI 271100Z 03007KT 9999 BKN005 BKN200 26/23 Q1011 A2987HR89 AC=METAR SLJO 271100Z 36003KT 9999 NSC 25/23 Q1010 A2985 HR91 CIRWY NML=METAR SLRA 271100Z 06003KT 9999 FEW020 BKN200 26/23 Q1009 A2981HR88 RWY HUM OPR=METAR SLMG 271100Z 00000KT 9999 NSC 26/24 Q1009 A2981 HR91 CIMETAR SLBU 271100Z NIL=METAR SLSA 271100Z 00000KT 8000 FEW017 FEW023CB BKN200 25/24 Q1009A2981 HR94 FU CB W=METAR SLSR 271100Z 27006KT 6000 -TSRA BKN008 FEW020CB OVC070 22/22Q1011 A2986 HR98 CB NE/SW/W/NW TS NW RWY WRT INOP=METAR SLSM 271100Z 00000KT 2000 RA BKN008 FEW023CB OVC070 22/22Q1011 A2986 HR100 CB E/SE/S/SW RWY WET INOP=
ZPX0195 271105@CAELT@GG SLZZYMYT@CAELT@271105 SLCBYGYS@CAELT@SABO SLCB 271100 RTD@CAELT@METAR SLCB 271100Z 12006KT 080V200 9999 FEW033 BKN200 20/05 Q1025@CAELT@A3028 751.6 HR38 FU AC NOSIG=@CAELT@METAR SLAL 271100Z 06009KT 9999 SCT012 SCT070 12/08 Q1031 A3046 705.2@CAELT@HR79=@CAELT@METAR SLVM 271100Z 00000KT 9999 SCT010 BKN020 OVC070 21/20 Q1017A3004 HR97=METAR SLTJ 271100Z 00000KT 9999 SCT008 BKN023 BKN070 16/15 Q1023A3021 817.5 HR93 ST BAJOS TODAS DIRECC=METAR RTD SLYA 271100Z 21005KT 9999 FEW005 SCT020 OVC070 20/20 Q1016A3002 941.0 HR98=
