
ZPX0013 060056@CAELT@GG SLZZYMYT@CAELT@060056 SLCBYGYZ@CAELT@SABO SLCB 060100@CAELT@METAR SLCB 060100Z 12005KT 9999 NSC 19/04 Q1024 A3025 751.0 HR37 FU@CAELT@CI NOSIG=@CAELT@
ZPX0014 060056@CAELT@GG SLZZYMYT@CAELT@060057 SLVRYGYZ@CAELT@SABO SLVR 060100@CAELT@METAR SLVR 060100Z 26004KT 8000 NSC 24/16 Q1011 A2986 HR61 FU NOSIG=@CAELT@
ZPX0015 060058@CAELT@GG SLLPZRZX@CAELT@060055 SLLPYGYZ@CAELT@SABO SLLP 060100@CAELT@METAR SLLP 060100Z VRB02KT 9999 NSC 07/M04 Q1038 A3068 628.6 HR47@CAELT@CI NOSIG=@CAELT@
ZPX0023 060156@CAELT@GG SLLPZRZX@CAELT@060155 SLLPYGYZ@CAELT@SABO SLLP 060200@CAELT@METAR SLLP 060200Z VRB02KT 9999 NSC 05/M01 Q1040 A3071 629.3 HR65@CAELT@CI NOSIG=@CAELT@
ZPX0024 060156@CAELT@GG SLZZYMYT@CAELT@060156 SLCBYGYZ@CAELT@SABO SLCB 060200@CAELT@METAR SLCB 060200Z 20004KT 9999 NSC 17/04 Q1025 A3029 752.0 HR42 FU@CAELT@CI NOSIG=@CAELT@
ZPX0025 060157@CAELT@GG SLZZYMYT@CAELT@060157 SLVRYGYZ@CAELT@SABO SLVR 060200@CAELT@METAR SLVR 060200Z 24005KT 9000 NSC 24/17 Q1011 A2988 HR63 FU NOSIG=@CAELT@
ZPX0032 060255@CAELT@GG SLZZYMYT@CAELT@060255 SLCBYGYZ@CAELT@SABO SLCB 060300@CAELT@METAR SLCB 060300Z 17005KT 9999 NSC 18/04 Q1026 A3030 752.3 HR39 FU@CAELT@CI NOSIG=@CAELT@
ZPX0033 060256@CAELT@GG SLLPZRZX@CAELT@060255 SLLPYGYZ@CAELT@SABO SLLP 060300@CAELT@METAR SLLP 060300Z VRB02KT 9999 NSC 04/M01 Q1040 A3072 629.4 HR70@CAELT@CI NOSIG=@CAELT@
ZPX0034 060256@CAELT@GG SLZZYMYT@CAELT@060257 SLVRYGYZ@CAELT@SABO SLVR 060300@CAELT@METAR SLVR 060300Z 23005KT 9999 NSC 22/17 Q1012 A2989 HR70 FU NOSIG=@CAELT@
ZPX0041 060356@CAELT@GG SLZZYMYT@CAELT@060356 SLVRYGYZ@CAELT@SABO SLVR 060400@CAELT@METAR SLVR 060400Z 23006KT 9999 NSC 22/17 Q1012 A2989 HR72 FU NOSIG=@CAELT@
ZPX0042 060356@CAELT@GG SLLPZRZX@CAELT@060355 SLLPYGYZ@CAELT@SABO SLLP 060400@CAELT@METAR SLLP 060400Z 08005KT 9999 NSC 01/M03 Q1039 A3070 629.0 HR72@CAELT@CI NOSIG=@CAELT@
ZPX0043 060356@CAELT@GG SLZZYMYT@CAELT@060356 SLCBYGYZ@CAELT@SABO SLCB 060400@CAELT@METAR SLCB 060400Z 17005KT 9999 NSC 17/04 Q1026 A3030 752.3 HR42 FU@CAELT@CI NOSIG=@CAELT@
ZPX0050 060456@CAELT@GG SLLPZRZX@CAELT@060455 SLLPYGYZ@CAELT@SABO SLLP 060500@CAELT@METAR SLLP 060500Z 07006KT 9999 NSC 02/M01 Q1039 A3069 628.8 HR81@CAELT@CI NOSIG=@CAELT@
ZPX0051 060456@CAELT@GG SLZZYMYT@CAELT@060456 SLVRYGYZ@CAELT@SABO SLVR 060500@CAELT@METAR SLVR 060500Z 23005KT 9999 NSC 22/17 Q1011 A2988 HR73 FU NOSIG=@CAELT@
ZPX0052 060459@CAELT@GG SLZZYMYT@CAELT@060459 SLCBYGYZ@CAELT@SABO SLCB 060500@CAELT@METAR SLCB 060500Z 14003KT 9999 NSC 17/04 Q1025 A3030 752.1 HR41 FU@CAELT@CI NOSIG=@CAELT@
ZPX0060 060554@CAELT@GG SLZZYMYT@CAELT@060553 SLCBYGYZ@CAELT@SABO SLCB 060600@CAELT@METAR SLCB 060600Z 20003KT 9999 NSC 16/03 Q1025 A3030 752.1 HR42 FU@CAELT@CI NOSIG=@CAELT@
ZPX0061 060556@CAELT@GG SLZZYMYT@CAELT@060557 SLVRYGYZ@CAELT@SABO SLVR 060600@CAELT@METAR SLVR 060600Z 19008KT 9999 SCT070 24/16 Q1011 A2985 HR63 FU@CAELT@NOSIG=@CAELT@
ZPX0062 060556@CAELT@GG SLLPZRZX@CAELT@060555 SLLPYGYZ@CAELT@SABO SLLP 060600@CAELT@METAR SLLP 060600Z 08004KT 9999 NSC 01/M02 Q1038 A3067 628.4 HR83@CAELT@CI NOSIG=@CAELT@
ZPX0071 060656@CAELT@GG SLZZYMYT@CAELT@060655 SLCBYGYZ@CAELT@SABO SLCB 060700@CAELT@METAR SLCB 060700Z 00000KT 9999 NSC 15/03 Q1025 A3029 751.9 HR44 FU@CAELT@CI NOSIG=@CAELT@
ZPX0072 060656@CAELT@GG SLLPZRZX@CAELT@060655 SLLPYGYZ@CAELT@SABO SLLP 060700@CAELT@METAR SLLP 060700Z 11004KT 9999 NSC 00/M01 Q1038 A3066 628.2 HR89@CAELT@CI NOSIG=@CAELT@
ZPX0073 060656@CAELT@GG SLZZYMYT@CAELT@060657 SLVRYGYZ@CAELT@SABO SLVR 060700@CAELT@METAR SLVR 060700Z 19008KT 9999 FEW023 SCT070 24/15 Q1011 A2985 HR54@CAELT@FU NOSIG=@CAELT@
ZPX0080 060753@CAELT@GG SLZZYMYT@CAELT@060755 SLVRYGYZ@CAELT@SABO SLVR 060800@CAELT@METAR SLVR 060800Z 18009KT 9999 SCT020 24/14 Q1011 A2987 HR51 AC@CAELT@NOSIG=@CAELT@
ZPX0081 060755@CAELT@GG SLZZYMYT@CAELT@060755 SLCBYGYZ@CAELT@SABO SLCB 060800@CAELT@METAR SLCB 060800Z 00000KT 9999 NSC 14/04 Q1025 A3028 751.6 HR50 FU@CAELT@CI NOSIG=@CAELT@
ZPX0082 060756@CAELT@GG SLLPZRZX@CAELT@060756 SLLPYGYZ@CAELT@SABO SLLP 060800@CAELT@METAR SLLP 060800Z 09004KT 9999 FEW005 M01/M02 Q1037 A3065 627.9@CAELT@HR92 CI NOSIG=@CAELT@
ZPX0091 060854@CAELT@GG SLZZYMYT@CAELT@060854 SLCBYGYZ@CAELT@SABO SLCB 060900@CAELT@METAR SLCB 060900Z 00000KT 9999 NSC 14/04 Q1025 A3027 751.5 HR51 FU@CAELT@NOSIG=@CAELT@
ZPX0092 060854@CAELT@GG SLZZYMYT@CAELT@060855 SLVRYGYZ@CAELT@SABO SLVR 060900@CAELT@METAR SLVR 060900Z 17007KT 9999 SCT020 24/14 Q1012 A2989 HR52 AC@CAELT@NOSIG=@CAELT@
ZPX0096 060857@CAELT@GG SLLPZRZX@CAELT@060857 SLLPYGYZ@CAELT@SABO SLLP 060900@CAELT@METAR SLLP 060900Z VRB02KT 4000E VCFG FEW002 M01/M01 Q1038 A3066@CAELT@628.0 HR97 VCFG NE/E/SE CI NOSIG=@CAELT@
ZPX0113 060950@CAELT@GG SLZZYMYT@CAELT@051956 SLPSZTZX@CAELT@SABO SLPS 052000@CAELT@METAR SLPS 052000Z 24010KT 8000 NSC 38/24 Q1007 A2974 HR43 FU=@CAELT@
ZPX0114 060952@CAELT@GG SLZZYMYT@CAELT@060951 SLPSZTZX@CAELT@SABO SLPS 061000@CAELT@METAR SLPS 061000Z 00000KT 8000 NSC 23/20 Q1010 A2983 HR80 FU=@CAELT@
ZPX0115 060953@CAELT@GG SLZZYMYT@CAELT@060952 SLCAYGYS@CAELT@SABO SLCA 061000@CAELT@METAR SLCA 061000Z 00000KT 9999 NSC 14/07 Q1017 A3003 HR64 FU RWY NML@CAELT@
ZPX0116 060953@CAELT@GG SLZZYMYT@CAELT@060951 SLRBYGYS@CAELT@SABO SLRB 061000@CAELT@METAR SLRB 061000Z 00000KT 8000 NSC 19/17 Q1014 A2994 HR90 FU RWY NML=@CAELT@
ZPX0117 060953@CAELT@GG SLZZYMYT@CAELT@060955 SLCOYGYZ@CAELT@SABO SLCO 061000@CAELT@METAR SLCO 061000Z 36003KT 9999 BKN080 23/23 Q1010 A2983 982.9 HR96@CAELT@FU CI=@CAELT@
ZPX0119 060954@CAELT@GG SLZZYMYT@CAELT@060955 SLVRYGYZ@CAELT@SABO SLVR 061000@CAELT@METAR SLVR 061000Z 20007KT 9999 SCT020 24/14 Q1012 A2989 HR52 AC@CAELT@NOSIG=@CAELT@
ZPX0121 060955@CAELT@GG SLZZYMYT@CAELT@060955 SLSAYGYS@CAELT@SABO SLSA 061000@CAELT@METAR SLSA 061000Z 32005KT 7000 SCT080 BKN200 23/22 Q1009 A2981@CAELT@HR94 FU=@CAELT@
ZPX0122 060956@CAELT@GG SLZZYMYT@CAELT@060955 SLSAYGYS@CAELT@SABO SLSA 061000@CAELT@METAR SLSA 061000Z 32005KT 7000 SCT080 BKN200 23/22 Q1009 A2981@CAELT@HR94 FU=@CAELT@
ZPX0123 060956@CAELT@GG SLZZYMYT@CAELT@060956 SLUYYGYS@CAELT@SABO SLUY 061000@CAELT@METAR SLUY 061000Z 02007KT 9999 FEW070 06/M03 Q1033 A3052@CAELT@658.1 HR55 FU=@CAELT@
ZPX0124 060956@CAELT@GG SLZZYMYT@CAELT@060956 SLLPYGYZ@CAELT@SABO SLLP 061000@CAELT@METAR SLLP 061000Z 08005KT 4000E VCFG FEW002 SCT010 M01/M01 Q1038@CAELT@A3068 628.5 HR97 P92// VCFG NE/E/SE CI NOSIG=@CAELT@
ZPX0125 060957@CAELT@GG SLZZYMYT@CAELT@060956 SLRQYSYX@CAELT@SABO SLRQ 061000@CAELT@METAR SLRQ 061000Z 00000KT 9999 FEW080 24/23 Q1009 A2983 HR95 FU=@CAELT@
ZPX0126 060957@CAELT@GG SLZZYMYT@CAELT@060957 SLCBYGYZ@CAELT@SABO SLCB 061000@CAELT@METAR SLCB 061000Z 00000KT 9999 NSC 12/03 Q1025 A3028 751.7 HR57 FU@CAELT@CI NOSIG=@CAELT@
ZPX0127 060957@CAELT@GG SLZZYMYT@CAELT@060956 SLSBYSYX@CAELT@SABO SLSB 061000@CAELT@METAR SLSB 061000Z 34003KT 9999 BKN080 24/22 Q1009 A2981 HR89 RWY NML=@CAELT@
ZPX0128 060957@CAELT@GG SLZZYMYT@CAELT@060955 SLRYYSYX@CAELT@SABO SLRY 061000@CAELT@METAR SLRY 061000Z 00000KT 8000 BKN080 24/24 Q1006 A2973 HR97 FU RWY@CAELT@NML=@CAELT@
ZPX0129 060959@CAELT@GG SLZZYMYT@CAELT@060957 SLTRYGYZ@CAELT@SABO SLTR 061000@CAELT@METAR SLTR 061000Z 00000KT 7000 FEW080 BKN200 23/22 Q1009 A2980@CAELT@990.6 HR94 BR NOSIG=@CAELT@
ZPX0131 061000@CAELT@GG SLZZYMYT@CAELT@061000 SLCBYGYS@CAELT@SABO SLCB 061000@CAELT@METAR SLCB 061000Z 00000KT 9999 NSC 12/03 Q1025 A3028 751.7 HR57 FU@CAELT@CI NOSIG=@CAELT@METAR SLAL 061000Z 34008KT 9999 NSC 09/05 Q1028 A3038 703.1 HR74=@CAELT@
ZPX0132 061001@CAELT@GG SLZZYMYT@CAELT@061000 SLLPYSYX@CAELT@SABO SLLP 061000@CAELT@METAR SLLP 061000Z 08005KT 4000E VCFG FEW002 SCT010 M01/M01 Q1038@CAELT@A3068 628.5 HR97 P92// VCFG NE/E/SE CI NOSIG=@CAELT@METAR SLCO 061000Z 36003KT 9999 BKN080 23/23 Q1010 A2983 982.9 HR96@CAELT@FU CI=@CAELT@METAR SLRY 061000Z 00000KT 8000 BKN080 24/24 Q1006 A2973 HR97 FU RWYNML=METAR SLRQ 061000Z 00000KT 9999 FEW080 24/23 Q1009 A2983 HR95 FU=METAR SLAP 061000Z 00000KT 5000 BR FEW070 14/13 Q1019 A3010 859.6HR95=METAR SLSB 061000Z 34003KT 9999 BKN080 24/22 Q1009 A2981 HR89 RWY NMLMETAR SLUY 061000Z 02007KT 9999 FEW070 06/M03 Q1033 A3052 658.1 HR55
ZPX0133 061002@CAELT@GG SLZZYMYT@CAELT@061002 SLVRYGYS@CAELT@SABO SLVR 061000@CAELT@METAR SLVR 061000Z 20007KT 9999 SCT020 24/14 Q1012 A2989 HR52 AC@CAELT@NOSIG=@CAELT@METAR SLET 061000Z NIL=@CAELT@METAR SLAS 061000Z 00000KT 1500 FU BKN070 24/21 Q1011 A2986 RWY NML=@CAELT@METAR SLCP 061000Z 00000KT 1000 FU SCT070 24/21 Q1014 A2994 HR84RWY NML=METAR SLSI 061000Z 00000KT 7000 BKN020 25/20 Q1011 A2985 FU RWY NML=METAR SLRB 061000Z 00000KT 8000 NSC 19/17 Q1014 A2994 HR90FU RWY NML=METAR SLPS 061000Z 00000KT 8000 NSC 23/20 Q1010 A2983 HR80 FU=METAR SLCA 061000Z 00000KT 9999 NSC 14/07 Q1017 A3003 HR64
ZPX0135 061009@CAELT@GG SLZZYMYT@CAELT@061005 SLTRYGYS@CAELT@SABO SLTR 061000 RRA@CAELT@METAR SLTR 061000Z 00000KT 7000 FEW080 BKN200 23/22 Q1009 A2980@CAELT@990.6 HR94 BR NOSIG=@CAELT@METAR SLGM 061000Z 00000KT 2000 FU FEW008 SCT080 BKN200 23/23 Q1009@CAELT@A2979 HR98=@CAELT@METAR SLRI 061000Z 00000KT 5000 FU NSC 23/23 Q1010 A2984 HR97 CI=METAR SLJO 061000Z 00000KT 7000 SCT080 BKN200 23/21 Q1008 A2979 HR92FU RWY HUM OPR=METAR SLRA 061000Z 03006KT 9999 SCT090 BKN200 23/21 Q1008 A2979 HR87METAR SLMG 061000Z 00000KT 9999 SCT080 24/21 Q1008 A2979 HR85 RWYNML=METAR SLBU 061000Z NIL=METAR SLSA 061000Z 32005KT 7000 SCT080 BKN200 23/22 Q1009 A2981HR94 FU=METAR SLSR 061000ZMETAR SLSM 061000Z 00000KT 8000 NSC 23/21 Q1009 A2981 HR89 FU CIRWY NML=
ZPX0136 061009@CAELT@GG SLZZYMYT@CAELT@061005 SLTRYGYS@CAELT@SABO SLTR 061000 RRA@CAELT@METAR SLTR 061000Z 00000KT 7000 FEW080 BKN200 23/22 Q1009 A2980@CAELT@990.6 HR94 BR NOSIG=@CAELT@METAR SLGM 061000Z 00000KT 2000 FU FEW008 SCT080 BKN200 23/23 Q1009@CAELT@A2979 HR98=@CAELT@METAR SLRI 061000Z 00000KT 5000 FU NSC 23/23 Q1010 A2984 HR97 CI=METAR SLJO 061000Z 00000KT 7000 SCT080 BKN200 23/21 Q1008 A2979 HR92FU RWY HUM OPR=METAR SLRA 061000Z 03006KT 9999 SCT090 BKN200 23/21 Q1008 A2979 HR87METAR SLMG 061000Z 00000KT 9999 SCT080 24/21 Q1008 A2979 HR85 RWYNML=METAR SLBU 061000Z NIL=METAR SLSA 061000Z 32005KT 7000 SCT080 BKN200 23/22 Q1009 A2981HR94 FU=METAR SLSR 061000Z NIL=METAR SLSM 061000Z 00000KT 8000 NSC 23/21 Q1009 A2981 HR89 FU CIRWY NML=
ZPX0138 061019@CAELT@GG SLZZYMYT@CAELT@061019 SLETYMYC@CAELT@SABO SLET 061000@CAELT@METAR SLET 061000Z 18008KT 9999 BKN017 24/15 Q1012 A2989 HR54 AC@CAELT@NOSIG=@CAELT@
ZPX0153 061050@CAELT@GG SLZZYMYT@CAELT@061050 SLRBYGYS@CAELT@SABO SLRB 061100@CAELT@METAR SLRB 061100Z 00000KT 8000 NSC 20/17 Q1015 A2997 HR86 FU RWY NML=@CAELT@
ZPX0154 061051@CAELT@GG SLZZYMYT@CAELT@061049 SLPSZTZX@CAELT@SABO SLPS 061100@CAELT@METAR SLPS 061100Z 33006KT 8000 NSC 24/20 Q1010 A2983 HR77 FU=@CAELT@
ZPX0155 061053@CAELT@GG SLZZYMYT@CAELT@061055 SLVRYGYZ@CAELT@SABO SLVR 061100@CAELT@METAR SLVR 061100Z 17006KT 9999 BKN020 24/13 Q1012 A2989 HR50 AC@CAELT@NOSIG=@CAELT@
ZPX0156 061055@CAELT@GG SLZZYMYT@CAELT@061055 SLSBYSYX@CAELT@SABO SLSB 061100@CAELT@METAR SLSB 061100Z 00000KT 8000 SCT080 BKN200 24/22 Q1010 A2984 HR90@CAELT@FU RWY NML=@CAELT@
ZPX0157 061055@CAELT@GG SLZZYMYT@CAELT@061055 SLETYMYC@CAELT@SABO SLET 06100@CAELT@METAR SLET 061100Z 17006KT 9999 BKN017 24/12 Q1013 A2992 HR46 AC@CAELT@NOSIG=@CAELT@
ZPX0158 061055@CAELT@GG SLZZYMYT@CAELT@061055 SLLPYGYZ@CAELT@SABO SLLP 061100@CAELT@METAR SLLP 061100Z 08005KT 4000E VCFG FEW002 SCT010 01/00 Q1039@CAELT@A3070 629.0 HR97 P0082 VCFG NE/E/SE CI NOSIG=@CAELT@
ZPX0159 061055@CAELT@GG SLZZYMYT@CAELT@061055 SLRQYSYX@CAELT@SABO SLRQ 061100@CAELT@METAR SLRQ 061100Z 00000KT 9999 FEW100 25/24 Q1009 A2983 HR92 FU=@CAELT@
ZPX0160 061055@CAELT@GG SLZZYMYT@CAELT@061048 SLUYYGYS@CAELT@SABO SLUY 061100@CAELT@METAR SLUY 061100Z 01009KT 9999 FEW070 07/M02 Q1034 A3054@CAELT@658.5 HR51 CI/CC FU=@CAELT@
ZPX0161 061055@CAELT@GG SLZZYMYT@CAELT@061055 SLSAYGYS@CAELT@SABO SLSA 061100@CAELT@METAR SLSA 061100Z 32004KT 7000 SCT080 BKN200 23/22 Q1009 A2981@CAELT@HR92 FU=@CAELT@
ZPX0162 061055@CAELT@GG SLZZYMYT@CAELT@061055 SLSAYGYS@CAELT@SABO SLSA 061100@CAELT@METAR SLSA 061100Z 32004KT 7000 SCT080 BKN200 23/22 Q1009 A2981@CAELT@HR92 FU=@CAELT@
ZPX0163 061056@CAELT@GG SLZZYMYT@CAELT@061056 SLCOYGYZ@CAELT@SABO SLCO 061100@CAELT@METAR SLCO 061100Z 36003KT 9999 BKN080 24/23 Q1011 A2985 983.6 HR93@CAELT@FU CI=@CAELT@
ZPX0164 061056@CAELT@GG SLZZYMYT@CAELT@061055 SLORYGYZ@CAELT@SABO SLOR 061100@CAELT@METAR SLOR 061100Z 02003KT 9999 NSC 04/M04 Q1036 A3061 657.0 HR58 FU@CAELT@N/NE/SE/S/SW/NW CI=@CAELT@
ZPX0165 061056@CAELT@GG SLZZYMYT@CAELT@061054 SLRYYSYX@CAELT@SABO SLRY 061100@CAELT@METAR SLRY 061100Z 00000KT 6000 BKN080 24/24 Q1007 A2974 HR98 FU RWY@CAELT@NML=@CAELT@
ZPX0166 061056@CAELT@GG SLZZYMYT@CAELT@061056 SLCBYGYZ@CAELT@SABO SLCB 061100@CAELT@METAR SLCB 061100Z 31004KT 9999 NSC 12/04 Q1026 A3031 752.4 HR58 FU@CAELT@CI NOSIG=@CAELT@
ZPX0167 061056@CAELT@GG SLZZYMYT@CAELT@061055 SLAGYSYX@CAELT@SABO SLAG 061100@CAELT@METAR SLAG 061100Z 00000KT 6000 FU NSC 14/10 Q1017 A3003 889.1 HR80=@CAELT@
ZPX0168 061056@CAELT@GG SLZZYMYT@CAELT@061056 SLCAYGYS@CAELT@SABO SLCA 061100@CAELT@METAR SLCA 061100Z 00000KT 9999 FEW070 12/08 Q1017 A3003 HR75 FU RWY@CAELT@NML=@CAELT@
ZPX0169 061056@CAELT@GG SLZZYMYT@CAELT@061056 SLORYGYZ@CAELT@SABO SLOR 061100@CAELT@METAR SLOR 061100Z 02003KT 9999 NSC 04/M04 Q1036 A3061 657.0 HR58 FU@CAELT@N/NE/SE/S/SW/NW CI=@CAELT@
ZPX0170 061057@CAELT@GG SLZZYMYT@CAELT@061056 SLTRYGYZ@CAELT@SABO SLTR 061100@CAELT@METAR SLTR 061100Z 00000KT 7000 FEW080 BKN200 23/22 Q1009 A2981@CAELT@991.0 HR90 FU NOSIG=@CAELT@
ZPX0171 061058@CAELT@GG SLZZYMYT@CAELT@061057 SLVRYGYS@CAELT@SABO SLVR 061100@CAELT@METAR SLVR 061100Z 17006KT 9999 BKN020 24/13 Q1012 A2989 HR50 AC@CAELT@NOSIG=@CAELT@METAR SLET 061100Z 17006KT 9999 BKN017 24/12 Q1013 A2992 HR46 AC@CAELT@METAR SLAS 061100Z 00000KT 1500 FU SCT070 26/21 Q1012 A2989 HR75@CAELT@RWY NML=METAR SLJV 061100Z 00000KT 3000 FU NSC 23/19 Q1012 A2988 HR85METAR SLCP 061100Z 00000KT 1000 FU SCT070 24/22 Q1014 A2994 HR86METAR SLSI 061100Z 00000KT 6000 SCT020 BKN200 26/20 Q1011 A2985HR69 FU RWY NML=METAR SLTI 061100Z 00000KT 5000 FU SCT020 26/20 Q1015 A2997HR70 RWY NML=METAR SLJE 061100Z 00000KT 6000 NSC 26/15 Q1013 A2991 HR53FU RWY NML=METAR SLRB 061100Z 00000KT 8000 NSC 20/17 Q1015 A2997 HR86METAR SLPS 061100Z 33006KT 8000 NSC 24/20 Q1010 A2983 HR77 FU=METAR SLCA 061100Z 00000KT 9999 FEW070 12/08 Q1017 A3003 HR75
ZPX0173 061100@CAELT@GG SLZZYMYT@CAELT@061059 SLVRYGYS RRA@CAELT@SABO SLVR 061100@CAELT@METAR SLVR 061100Z 17006KT 9999 BKN020 24/13 Q1012 A2989 HR50 AC@CAELT@NOSIG=@CAELT@METAR SLET 061100Z 17006KT 9999 BKN017 24/12 Q1013 A2992 HR46 AC@CAELT@METAR SLAS 061100Z 00000KT 1500 FU SCT070 26/21 Q1012 A2989 HR75@CAELT@RWY NML=METAR SLJV 061100Z 00000KT 3000 FU NSC 23/19 Q1012 A2988 HR85METAR SLCP 061100Z 00000KT 1000 FU SCT070 24/22 Q1014 A2994 HR86METAR SLSI 061100Z 00000KT 6000 SCT020 BKN200 26/20 Q1011 A2985HR69 FU RWY NML=METAR SLTI 061100Z 00000KT 5000 FU SCT020 26/20 Q1015 A2997HR70 RWY NML=METAR SLJE 061100Z 00000KT 6000 NSC 26/15 Q1013 A2991 HR53FU RWY NML=METAR RTD SLVG 061100Z 00000KT 8000 NSC 15/13 Q1024 A3024 HR85FU CI RWY NML=METAR SLRB 061100Z 00000KT 8000 NSC 20/17 Q1015 A2997 HR86METAR SLPS 061100Z 33006KT 8000 NSC 24/20 Q1010 A2983 HR77 FU=METAR SLCA 061100Z 00000KT 9999 FEW070 12/08 Q1017 A3003 HR75
ZPX0174 061100@CAELT@GG SLZZYMYT@CAELT@061100 SLTRYGYS@CAELT@SABO SLTR 061100@CAELT@METAR SLTR 061100Z 00000KT 7000 FEW080 BKN200 23/22 Q1009 A2981@CAELT@991.0 HR90 FU NOSIG=@CAELT@METAR SLGM 061100Z 32004KT 2000 FU FEW008 SCT080 BKN200 23/23@CAELT@Q1010 A2982 HR98=@CAELT@METAR SLRI 061100Z 00000KT 2000 FU FEW080 BKN200 24/24 Q1010 A2985HR98=METAR SLJO 061100Z 32003KT 7000 SCT080 BKN200 23/22 Q1009 A2982HR92 FU RWY HUM OPR=METAR SLRA 061100Z 06005KT 7000 FEW090 BKN200 24/21 Q1009 A2980HR84 FU RWY HUM OPR=METAR SLMG 061100Z 00000KT 9999 FEW080 SCT200 24/21 Q1008 A2978HR85 RWY NML=METAR SLBU 061100Z NIL=METAR SLSA 061100Z 32004KT 7000 SCT080 BKN200 23/22 Q1009 A2981HR92 FU=METAR SLSR 061100Z NIL=METAR SLSM 061100Z 00000KT 8000 NSC 23/21 Q1009 A2982 HR89 FU CIRWY NML=
ZPX0175 061101@CAELT@GG SLZZYMYT@CAELT@061059 SLLPYFYA@CAELT@SABO SLLP 061100@CAELT@METAR SLLP 061100Z 08005KT 4000E VCFG FEW002 SCT010 01/00 Q1039@CAELT@A3070 629.0 HR97 P0082 VCFG NE/E/SE CI NOSIG=@CAELT@METAR SLCO 061100Z 36003KT 9999 BKN080 24/23 Q1011 A2985 983.6 HR93@CAELT@FU CI=@CAELT@METAR SLRY 061100Z 00000KT 6000 BKN080 24/24 Q1007 A2974 HR98 FU RWYNML=METAR SLRQ 061100Z 00000KT 9999 FEW100 25/24 Q1009 A2983 HR92 FU=METAR SLAP 061100Z 00000KT 9999 FEW004 14/13 Q1019 A3011 860.0 HR96AC/CI=METAR SLSB 061100Z 00000KT 8000 SCT080 BKN200 24/22 Q1010 A2984 HR90FU RWY NML=METAR SLOR 061100Z 02003KT 9999 NSC 04/M04 Q1036 A3061 657.0 HR58 FUN/NE/SE/S/SW/NW CI=METAR SLUY 061100Z 01009KT 9999 FEW070 07/M02 Q1034 A3054658.5 HR51 CI/CC FU=
ZPX0178 061103@CAELT@GG SLZZYMYT@CAELT@061101 SLCBYGYS@CAELT@SABO SLCB 061100@CAELT@METAR SLCB 061100Z 31004KT 9999 NSC 12/04 Q1026 A3031 752.4 HR58 FU@CAELT@CI NOSIG=@CAELT@METAR SLAL 061100Z 00000KT 9999 NSC 11/04 Q1029 A3040 703.8 HR63=@CAELT@METAR SLVM 061100Z 00000KT 9999 NSC 16/09 Q1014 A2996 HR64 FU CI=@CAELT@METAR SLYA 061100Z 00000KT 9999 NSC 14/11 Q1014 A2996 939.1 HR81 FU=
ZPX0180 061105@CAELT@GG SLZZYMYT@CAELT@061105 SLTRYGYS@CAELT@SABO SLTR 061100 RRA@CAELT@METAR SLTR 061100Z 00000KT 7000 FEW080 BKN200 23/22 Q1009 A2981@CAELT@991.0 HR90 FU NOSIG=@CAELT@METAR SLGM 061100Z 32004KT 2000 FU FEW008 SCT080 BKN200 23/23@CAELT@Q1010 A2982 HR98=@CAELT@METAR SLRI 061100Z 00000KT 2000 FU FEW080 BKN200 24/24 Q1010 A2985HR98=METAR SLJO 061100Z 32003KT 7000 SCT080 BKN200 23/22 Q1009 A2982HR92 FU RWY HUM OPR=METAR SLRA 061100Z 06005KT 7000 FEW090 BKN200 24/21 Q1009 A2980HR84 FU RWY HUM OPR=METAR SLMG 061100Z 00000KT 9999 FEW080 SCT200 24/21 Q1008 A2978HR85 RWY NML=METAR SLBU 061100Z NIL=METAR SLSA 061100Z 32004KT 7000 SCT080 BKN200 23/22 Q1009 A2981HR92 FU=METAR RTD SLSR 061100Z 00000KT 8000 NSC 22/21 Q1010 A2989 HR91 FURWY NML=METAR SLSM 061100Z 00000KT 8000 NSC 23/21 Q1009 A2982 HR89 FU CI
ZPX0207 061144@CAELT@GG SLZZYMYT@CAELT@061143 SLPSZTZX@CAELT@SABO SLPS 061200@CAELT@METAR SLPS 061200Z 33005KT 8000 NSC 27/21 Q1011 A2986 HR71 FU=@CAELT@
ZPX0215 061153@CAELT@GG SLZZYMYT@CAELT@061152 SLETYMYC@CAELT@SABO SLET 061200@CAELT@METAR SLET 061200Z 16008KT 9999 SCT022 BKN070 25/11 Q1013 A2994 HR41@CAELT@NOSIG=@CAELT@
ZPX0216 061153@CAELT@GG SLZZYMYT@CAELT@061152 SLRBYGYS@CAELT@SABO SLRB 061200@CAELT@METAR SLRB 061200Z 00000KT 8000 NSC 24/17 Q1015 A2997 HR65 FU RWY NML=@CAELT@
ZPX0217 061153@CAELT@GG SLZZYMYT@CAELT@061155 SLVRYGYZ@CAELT@SABO SLVR 061200@CAELT@METAR SLVR 061200Z 18008KT 9999 BKN020 25/13 Q1013 A2993 HR46 AC@CAELT@NOSIG=@CAELT@
ZPX0218 061154@CAELT@GG SLZZYMYT@CAELT@061154 SLORYGYZ@CAELT@SABO SLOR 061200@CAELT@METAR SLOR 061200Z 01003KT 9999 NSC 07/M03 Q1036 A3062 657.2 HR48 FU@CAELT@N/SE/S/SW/NW CI=@CAELT@
ZPX0219 061154@CAELT@GG SLZZYMYT@CAELT@061151 SLCOYGYZ@CAELT@SABO SLCO 061200@CAELT@METAR SLCO 061200Z 36004KT 6000 SCT080 25/23 Q1012 A2989 984.7 HR86@CAELT@FU CI=@CAELT@
ZPX0221 061155@CAELT@GG SLZZYMYT@CAELT@061155 SLCAYGYS@CAELT@SABO SLCA 061200@CAELT@METAR SLCA 061200Z 00000KT 9999 BKN070 14/09 Q1018 A3006 HR72 FU RWY@CAELT@NML=@CAELT@
ZPX0222 061155@CAELT@GG SLZZYMYT@CAELT@061155 SLRQYSYX@CAELT@SABO SLRQ 061200@CAELT@METAR SLRQ 061200Z 00000KT 9999 NSC 26/25 Q1010 A2983 HR89 FU CI=@CAELT@
ZPX0223 061155@CAELT@GG SLZZYMYT@CAELT@061155 SLSBYSYX@CAELT@SABO SLSB 061200@CAELT@METAR SLSB 061200Z 18003KT 8000 NSC 26/23 Q1010 A2985 HR86 FU CI RWY@CAELT@NML=@CAELT@
ZPX0224 061155@CAELT@GG SLZZYMYT@CAELT@061153 SLRYYSYX@CAELT@SABO SLRY 061200@CAELT@METAR SLRY 061200Z 00000KT 7000 FEW080 BKN200 25/24 Q1007 A2975 HR92@CAELT@FU RWY NNML=@CAELT@
ZPX0225 061156@CAELT@GG SLZZYMYT@CAELT@061151 SLUYYGYS@CAELT@SABO SLUY 061200@CAELT@METAR SLUY 061200Z 01016KT 9999 NSC 11/M01 Q1034 A3055@CAELT@658.8 HR42 SA N/NE/SW/W/NW FU CC=@CAELT@
ZPX0226 061156@CAELT@GG SLZZYMYT@CAELT@061155 SLSAYGYS@CAELT@SABO SLSA 061200@CAELT@METAR SLSA 061200Z 33006KT 7000 SCT080 BKN200 26/23 Q1010 A2983@CAELT@HR85 FU=@CAELT@
ZPX0227 061156@CAELT@GG SLZZYMYT@CAELT@061155 SLSAYGYS@CAELT@SABO SLSA 061200@CAELT@METAR SLSA 061200Z 33006KT 7000 SCT080 BKN200 26/23 Q1010 A2983@CAELT@HR85 FU=@CAELT@
ZPX0229 061156@CAELT@GG SLZZYMYT@CAELT@061156 SLTRYGYZ@CAELT@SABO SLTR 061200@CAELT@METAR SLTR 061200Z 31003KT 7000 FEW080 BKN200 24/22 Q1010 A2984@CAELT@992.1 HR84 FU NOSIG=@CAELT@
ZPX0230 061156@CAELT@GG SLZZYMYT@CAELT@061157 SLLPYGYZ@CAELT@SABO SLLP 061200@CAELT@METAR SLLP 061200Z 07005KT 9999 FEW005 BKN200 05/01 Q1040 A3072@CAELT@629.5 HR76 P5340 HZ SW/W/NW NOSIG=@CAELT@
ZPX0232 061157@CAELT@GG SLZZYMYT@CAELT@061155 SLAGYSYX@CAELT@SABO SLAG 061200@CAELT@METAR SLAG 061200Z 00000KT 7000 FU NSC 19/11 Q1016 A3003 889.0 HR62@CAELT@
ZPX0233 061157@CAELT@GG SLZZYMYT@CAELT@061157 SLVRYGYS@CAELT@SABO SLVR 061200@CAELT@METAR SLVR 061200Z 18008KT 9999 BKN020 25/13 Q1013 A2993 HR46 AC@CAELT@NOSIG=@CAELT@METAR SLET 061200Z 16008KT 9999 SCT022 BKN070 25/11 Q1013 A2994@CAELT@HR41 NOSIG=@CAELT@METAR SLAS 061200Z 18008KT 0500 FU NSC 28/21 Q1013 A2991 HR66RWY NML=METAR SLJV 061200Z 00000KT 3000 FU NSC 24/19 Q1012 A2988 HR72METAR SLCP 061200Z 00000KT 1000 FU NSC 24/22 Q1015 A2997 HR86METAR SLSI 061200Z 33005KT 5000 FU NSC 28/20 Q1012 A2988 HR64METAR SLTI 061200Z 00000KT 5000 FU NSC 30/18 Q1015 A2997 HR49METAR SLJE 061200Z 00000KT 6000 NSC 28/15 Q1015 A2997 HR47FU RWY NML=METAR SLVG 061200Z 00000KT 8000 NSC 17/13 Q1024 A3024 HR76FU CI RWY NML=METAR SLRB 061200Z 00000KT 8000 NSC 24/17 Q1015 A2997 HR65METAR SLPS 061200Z 33005KT 8000 NSC 27/21 Q1011 A2986 HR71 FU=METAR SLCA 061200Z 00000KT 9999 BKN070 14/09 Q1018 A3006 HR72
ZPX0234 061158@CAELT@GG SLZZYMYT@CAELT@061156 SLCBYGYZ@CAELT@SABO SLCB 061200@CAELT@METAR SLCB 061200Z 20003KT 9999 NSC 17/04 Q1027 A3033 753.1 HR41 FU@CAELT@CI NOSIG=@CAELT@
ZPX0235 061200@CAELT@GG SLZZYMYT@CAELT@061159 SLTJYGYZ@CAELT@SABO SLTJ 061200@CAELT@METAR SLTJ 061200Z 00000KT 9999 NSC 17/08 Q1018 A3007 813.4 HR58 FU=@CAELT@
ZPX0236 061200@CAELT@GG SLZZYMYT@CAELT@061200 SLCBYGYS@CAELT@SABO SLCB 061200@CAELT@METAR SLCB 061200Z 20003KT 9999 NSC 17/04 Q1027 A3033 753.1 HR41 FU@CAELT@CI NOSIG=@CAELT@METAR SLAL 061200Z 34009KT 9999 NSC 14/04 Q1030 A3043 704.4 HR56=@CAELT@METAR SLPO 061200Z NIL=@CAELT@METAR SLAG 061200Z 00000KT 7000 FU NSC 19/11 Q1016 A3003 889.0 HR62METAR SLVM 061200Z 00000KT 9999 NSC 21/13 Q1015 A2998 HR61 FU CI=METAR SLTJ 061200Z NIL=METAR SLYA 061200Z 00000KT 9999 NSC 20/12 Q1015 A2998 939.8 HR60=METAR SLBJ 061200Z NIL=METAR SLHI 061200Z NIL=
ZPX0239 061202@CAELT@GG SLZZYMYT@CAELT@061201 SLLPYFYA@CAELT@SABO SLLP 061200@CAELT@METAR SLLP 061200Z 07005KT 9999 FEW005 BKN200 05/01 Q1040 A3072@CAELT@629.5 HR76 P5340 HZ SW/W/NW NOSIG=@CAELT@METAR SLCO 061200Z 36004KT 6000 SCT080 25/23 Q1012 A2989 984.7 HR86@CAELT@FU CI=@CAELT@METAR SLRY 061200Z 00000KT 7000 FEW080 BKN200 25/24 Q1007 A2975 HR92FU RWY NNML=METAR SLRQ 061200Z 00000KT 9999 NSC 26/25 Q1010 A2983 HR89 FU CI=METAR SLAP 061200Z 00000KT 9999 SCT070 16/15 Q1020 A3012 860.4HR95 CI=METAR SLSB 061200Z 18003KT 8000 NSC 26/23 Q1010 A2985 HR86 FU CI RWYNML=METAR SLOR 061200Z 01003KT 9999 NSC 07/M03 Q1036 A3062 657.2 HR48 FUN/SE/S/SW/NW CI=METAR SLUY 061200Z 01016KT 9999 NSC 11/M01 Q1034 A3055658.8 HR42 SA N/NE/SW/W/NW FU CC=
ZPX0241 061206@CAELT@GG SLZZYMYT@CAELT@061206 SLCBYGYS@CAELT@SABO SLCB 061200 RRA@CAELT@METAR SLCB 061200Z 20003KT 9999 NSC 17/04 Q1027 A3033 753.1 HR41 FU@CAELT@CI NOSIG=@CAELT@METAR SLAL 061200Z 34009KT 9999 NSC 14/04 Q1030 A3043 704.4 HR56=@CAELT@METAR SLPO 061200Z NIL=@CAELT@METAR SLAG 061200Z 00000KT 7000 FU NSC 19/11 Q1016 A3003 889.0 HR62METAR SLVM 061200Z 00000KT 9999 NSC 21/13 Q1015 A2998 HR61 FU CI=METAR RTD SLTJ 061200Z 00000KT 9999 NSC 17/08 Q1018 A3007 813.4 HR58METAR SLYA 061200Z 00000KT 9999 NSC 20/12 Q1015 A2998 939.8 HR60=METAR SLBJ 061200Z NIL=METAR SLHI 061200Z NIL=
ZPX0242 061207@CAELT@GG SLZZYMYT@CAELT@061202 SLTRYGYS@CAELT@SABO SLTR 061200@CAELT@METAR SLTR 061200Z 31003KT 7000 FEW080 BKN200 24/22 Q1010 A2984@CAELT@992.1 HR84 FU NOSIG=@CAELT@METAR SLGM 061200Z 02004KT 3000 FU FEW015 SCT080 BKN200 25/24 Q1011@CAELT@A2985 HR93=@CAELT@METAR SLRI 061200Z 00000KT 2000 FU FEW080 BKN200 24/23 Q1011 A2988HR90=METAR SLJO 061200Z 32004KT 7000 FEW080 BKN200 25/21 Q1010 A2983 HR80FU RWY HUM OPR=METAR SLRA 061200Z 06005KT 9999 NSC 25/21 Q1010 A2984 HR81 FU AC/CIRWY NML=METAR SLMG 061200Z 32003KT 9999 SCT080 BKN200 26/22 Q1009 A2980 HR79METAR SLBU 061200Z 00000KT 8000 BKN080 25/21 Q1010 A2984 HR80 FU RWYNML=METAR SLSA 061200Z 33006KT 7000 SCT080 BKN200 26/23 Q1010 A2983HR85 FU=METAR SLSR 061200Z 00000KT 8000 NSC 25/24 Q1010 A2984 HR92 FU CIMETAR SLSM 061200Z 00000KT 8000 NSC 24/21 Q1010 A2984 HR86 FU CI
ZPX0243 061207@CAELT@GG SLZZYMYT@CAELT@061202 SLTRYGYS@CAELT@SABO SLTR 061200@CAELT@METAR SLTR 061200Z 31003KT 7000 FEW080 BKN200 24/22 Q1010 A2984@CAELT@992.1 HR84 FU NOSIG=@CAELT@METAR SLGM 061200Z 02004KT 3000 FU FEW015 SCT080 BKN200 25/24 Q1011@CAELT@A2985 HR93=@CAELT@METAR SLRI 061200Z 00000KT 2000 FU FEW080 BKN200 24/23 Q1011 A2988HR90=METAR SLJO 061200Z 32004KT 7000 FEW080 BKN200 25/21 Q1010 A2983 HR80FU RWY HUM OPR=METAR SLRA 061200Z 06005KT 9999 NSC 25/21 Q1010 A2984 HR81 FU AC/CIRWY NML=METAR SLMG 061200Z 32003KT 9999 SCT080 BKN200 26/22 Q1009 A2980 HR79METAR SLBU 061200Z 00000KT 8000 BKN080 25/21 Q1010 A2984 HR80 FU RWYNML=METAR SLSA 061200Z 33006KT 7000 SCT080 BKN200 26/23 Q1010 A2983HR85 FU=METAR SLSR 061200Z 00000KT 8000 NSC 25/24 Q1010 A2984 HR92 FU CIMETAR SLSM 061200Z 00000KT 8000 NSC 24/21 Q1010 A2984 HR86 FU CI
ZPX0267 061247@CAELT@GG SLZZYMYT@CAELT@061246 SLPSZTZX@CAELT@SABO SLPS 061300@CAELT@METAR SLPS 061300Z 33005KT 8000 NSC 30/22 Q1011 A2986 HR61 FU=@CAELT@
ZPX0269 061252@CAELT@GG SLZZYMYT@CAELT@061251 SLRBYGYS@CAELT@SABO SLRB 061300@CAELT@METAR SLRB 061300Z 00000KT 8000 NSC 25/17 Q1015 A2997 HR60 FU RWY NML=@CAELT@
ZPX0270 061254@CAELT@GG SLZZYMYT@CAELT@061255 SLSAYGYS@CAELT@SABO SLSA 061300@CAELT@METAR SLSA 061300Z 33006KT 7000 SCT080 BKN200 30/23 Q1010 A2984@CAELT@HR67 FU=@CAELT@
ZPX0271 061254@CAELT@GG SLZZYMYT@CAELT@061255 SLSAYGYS@CAELT@SABO SLSA 061300@CAELT@METAR SLSA 061300Z 33006KT 7000 SCT080 BKN200 30/23 Q1010 A2984@CAELT@HR67 FU=@CAELT@
ZPX0273 061254@CAELT@GG SLZZYMYT@CAELT@061254 SLCAYGYS@CAELT@SABO SLCA 061300@CAELT@METAR SLCA 061300Z 00000KT 9999 FEW070 20/10 Q1018 A3006 HR53 FU RWY@CAELT@NML=@CAELT@
ZPX0274 061255@CAELT@GG SLZZYMYT@CAELT@061255 SLORYGYZ@CAELT@SABO SLOR 061300@CAELT@METAR SLOR 061300Z 01006KT 9999 NSC 11/M02 Q1038 A3065 658.0 HR39 FU@CAELT@N/SE/S/SW CI=@CAELT@
ZPX0275 061255@CAELT@GG SLZZYMYT@CAELT@061255 SLAGYSYX@CAELT@SABO SLAG 061300@CAELT@METAR SLAG 061300Z 22004KT 6000 FU NSC 24/13 Q1016 A3003 889.0 HR47@CAELT@
ZPX0276 061255@CAELT@GG SLZZYMYT@CAELT@061255 SLCBYGYZ@CAELT@SABO SLCB 061300@CAELT@METAR SLCB 061300Z 28003KT 9999 NSC 20/04 Q1027 A3034 753.3 HR34 FU@CAELT@CI NOSIG=@CAELT@
ZPX0279 061255@CAELT@GG SLZZYMYT@CAELT@061255 SLSBYSYX@CAELT@SABO SLSB 061300@CAELT@METAR SLSB 061300Z 00000KT 8000 NSC 28/23 Q1010 A2984 HR76 FU RWY NML=@CAELT@
ZPX0280 061256@CAELT@GG SLZZYMYT@CAELT@061253 SLUYYGYS@CAELT@SABO SLUY 061300@CAELT@METAR SLUY 061300Z 01012KT 9999 FEW070 14/M01 Q1035 A3058@CAELT@659.3 HR35 SA N/S/SW/W/NW FU=@CAELT@
ZPX0281 061256@CAELT@GG SLZZYMYT@CAELT@061254 SLRYYSYX@CAELT@SABO SLRY 061300@CAELT@METAR SLRY 061300Z 00000KT 7000 NSC 28/25 Q1007 A2976 HR82 FU CI RWY@CAELT@NML=@CAELT@
ZPX0282 061256@CAELT@GG SLZZYMYT@CAELT@061255 SLRQYSYX@CAELT@SABO SLRQ 061300@CAELT@METAR SLRQ 061300Z 00000KT 9999 NSC 29/26 Q1010 A2985 986.7 HR81 FU@CAELT@
ZPX0283 061256@CAELT@GG SLZZYMYT@CAELT@061256 SLTJYGYZ@CAELT@SABO SLTJ 061300@CAELT@METAR SLTJ 061300Z 00000KT 9999 NSC 19/08 Q1017 A3006 813.2 HR51 FU=@CAELT@
ZPX0284 061256@CAELT@GG SLZZYMYT@CAELT@061256 SLCOYGYZ@CAELT@SABO SLCO 061300@CAELT@METAR SLCO 061300Z 36005KT 6000 SCT080 27/23 Q1012 A2990 985.2 HR76@CAELT@
ZPX0285 061256@CAELT@GG SLZZYMYT@CAELT@061256 SLETYMYC@CAELT@SABO SLET 061300@CAELT@METAR SLET 061300Z 16010KT 9999 FEW070 BKN200 27/11 Q1013 A2994 HR36@CAELT@FU NOSIG=@CAELT@
ZPX0286 061257@CAELT@GG SLZZYMYT@CAELT@061257 SLLPYGYZ@CAELT@SABO SLLP 061300@CAELT@METAR SLLP 061300Z VRB02KT 9999 FEW013 BKN200 08/M01 Q1040@CAELT@A3073 629.6 HR53 P90// FU NOSIG=@CAELT@
ZPX0287 061257@CAELT@GG SLZZYMYT@CAELT@061256 SLTRYGYZ@CAELT@SABO SLTR 061300@CAELT@METAR SLTR 061300Z 31003KT 8000 NSC 28/22 Q1010 A2985 992.3@CAELT@HR72 FU CI NOSIG=@CAELT@
ZPX0288 061257@CAELT@GG SLZZYMYT@CAELT@061258 SLVRYGYZ@CAELT@SABO SLVR 061300@CAELT@METAR SLVR 061300Z 20009KT 9999 FEW020 SCT200 28/13 Q1013 A2993 HR40@CAELT@FU NOSIG=@CAELT@
ZPX0290 061259@CAELT@GG SLZZYMYT@CAELT@061259 SLVRYGYS@CAELT@SABO SLVR 061300@CAELT@METAR SLVR 061300Z 20009KT 9999 FEW020 SCT200 28/13 Q1013 A2993 HR40@CAELT@FU NOSIG=@CAELT@METAR SLET 061300Z 16010KT 9999 FEW070 BKN200 27/11 Q1013 A2994 HR36@CAELT@METAR SLAS 061300Z 18008KT 0500 FU NSC 31/22 Q1013 A2991 HR59 RWY NML@CAELT@METAR SLJV 061300Z 00000KT 3000 FU NSC 27/19 Q1013 A2991 HR67 RWY NMLMETAR SLCP 061300Z 00000KT 1500 FU NSC 27/23 Q1015 A2997 HR77 RWY NMLMETAR SLSI 061300Z 00000KT 5000 FU NSC 31/21 Q1012 A2988 HR56 CI RWYNML=METAR SLTI 061300Z 00000KT 5000 FU FEW020 SCT200 31/19 Q1015 A2997HR51 RWY NML=METAR SLJE 061300Z 00000KT 6000 NSC 31/17 Q1015 A2997 HR43 FU RWY NMLMETAR SLVG 061300Z 02005KT 9999 NSC 21/14 Q1025 A3027 HR64 FU CI RWYMETAR SLRB 061300Z 00000KT 8000 NSC 25/17 Q1015 A2997 HR60 FU RWY NMLMETAR SLPS 061300Z 33005KT 8000 NSC 30/22 Q1011 A2986 HR61 FU=METAR SLCA 061300Z 00000KT 9999 FEW070 20/10 Q1018 A3006 HR53 FU RWY
ZPX0292 061301@CAELT@GG SLZZYMYT@CAELT@061300 SLCBYGYS@CAELT@SABO SLCB 061300@CAELT@METAR SLCB 061300Z 28003KT 9999 NSC 20/04 Q1027 A3034 753.3 HR34 FU@CAELT@CI NOSIG=@CAELT@METAR SLAL 061300Z 03008KT 9999 NSC 16/03 Q1030 A3046 704.6 HR44=@CAELT@METAR SLPO 061300Z NIL=@CAELT@METAR SLAG 061300Z 22004KT 6000 FU NSC 24/13 Q1016 A3003 889.0 HR47METAR SLVM 061300Z 00000KT 9999 NSC 24/14 Q1015 A2997 HR55 FU CI=METAR SLTJ 061300Z 00000KT 9999 NSC 19/08 Q1017 A3006 813.2 HR51 FU=METAR SLYA 061300Z 00000KT 9999 NSC 24/13 Q1014 A2996 939.3 HR49=METAR SLBJ 061300Z NIL=METAR SLHI 061300Z NIL=
ZPX0293 061302@CAELT@GG SLZZYMYT@CAELT@061302 SLLPYFYA@CAELT@SABO SLLP 061300@CAELT@METAR SLLP 061300Z VRB02KT 9999 FEW013 BKN200 08/M01 Q1040@CAELT@A3073 629.6 HR53 P90// FU NOSIG=@CAELT@METAR SLCO 061300Z 36005KT 6000 SCT080 27/23 Q1012 A2990 985.2 HR76@CAELT@METAR SLRY 061300Z 00000KT 7000 NSC 28/25 Q1007 A2976 HR82 FU CI RWY@CAELT@NML=METAR SLRQ 061300Z 00000KT 9999 NSC 29/26 Q1010 A2985 986.7 HR81 FUMETAR SLAP 061300Z NIL=METAR SLSB 061300Z 00000KT 8000 NSC 28/23 Q1010 A2984 HR76 FU RWY NMLMETAR SLOR 061300Z 01006KT 9999 NSC 11/M02 Q1038 A3065 658.0 HR39 FUN/SE/S/SW CI=METAR SLUY 061300Z 01012KT 9999 FEW070 14/M01 Q1035 A3058659.3 HR35 SA N/S/SW/W/NW FU=
ZPX0294 061302@CAELT@GG SLZZYMYT@CAELT@061300 SLTRYGYS@CAELT@SABO SLTR 061300@CAELT@METAR SLTR 061300Z 31003KT 8000 NSC 28/22 Q1010 A2985 992.3@CAELT@HR72 FU CI NOSIG=@CAELT@METAR SLGM 061300Z 02006KT 4000 FU FEW020 SCT080 BKN200 27/23 Q1012@CAELT@A2988 HR80=@CAELT@METAR SLRI 061300Z 09008KT 5000 FU NSC 26/23 Q1012 A2991 HR83 CI=METAR SLJO 061300Z 36003KT 8000 FEW080 BKN200 27/22 Q1010 A2985 HR77FU RWY NML=METAR SLRA 061300Z 04005KT 9999 NSC 27/22 Q1011 A2987 HR74 FU AC/CIRWY NML=METAR SLMG 061300Z 00000KT 9999 SCT080 BKN200 28/22 Q1010 A2984 HR70METAR SLBU 061300Z 03004KT 8000 SCT080 27/22 Q1011 A2986 HR74 FUMETAR SLSA 061300Z 33006KT 7000 SCT080 BKN200 30/23 Q1010 A2984HR67 FU=METAR SLSR 061300Z NIL=METAR SLSM 061300Z NIL=
ZPX0296 061305@CAELT@GG SLZZYMYT@CAELT@061303 SLTRYGYS@CAELT@SABO SLTR 061300 RRA@CAELT@METAR SLTR 061300Z 31003KT 8000 NSC 28/22 Q1010 A2985 992.3@CAELT@HR72 FU CI NOSIG=@CAELT@METAR SLGM 061300Z 02006KT 4000 FU FEW020 SCT080 BKN200 27/23 Q1012@CAELT@A2988 HR80=@CAELT@METAR SLRI 061300Z 09008KT 5000 FU NSC 26/23 Q1012 A2991 HR83 CI=METAR SLJO 061300Z 36003KT 8000 FEW080 BKN200 27/22 Q1010 A2985 HR77FU RWY NML=METAR SLRA 061300Z 04005KT 9999 NSC 27/22 Q1011 A2987 HR74 FU AC/CIRWY NML=METAR SLMG 061300Z 00000KT 9999 SCT080 BKN200 28/22 Q1010 A2984 HR70METAR SLBU 061300Z 03004KT 8000 SCT080 27/22 Q1011 A2986 HR74 FUMETAR SLSA 061300Z 33006KT 7000 SCT080 BKN200 30/23 Q1010 A2984HR67 FU=METAR RTD SLSR 061300Z 00000KT 8000 NSC 28/24 Q1010 A2983 HR79 FU CIMETAR SLSM 061300Z NIL=
ZPX0297 061307@CAELT@GG SLZZYMYT@CAELT@061307 SLTRYGYS@CAELT@SABO SLTR 061300 RRA@CAELT@METAR SLTR 061300Z 31003KT 8000 NSC 28/22 Q1010 A2985 992.3@CAELT@HR72 FU CI NOSIG=@CAELT@METAR SLGM 061300Z 02006KT 4000 FU FEW020 SCT080 BKN200 27/23 Q1012@CAELT@A2988 HR80=@CAELT@METAR SLRI 061300Z 09008KT 5000 FU NSC 26/23 Q1012 A2991 HR83 CI=METAR SLJO 061300Z 36003KT 8000 FEW080 BKN200 27/22 Q1010 A2985 HR77FU RWY NML=METAR SLRA 061300Z 04005KT 9999 NSC 27/22 Q1011 A2987 HR74 FU AC/CIRWY NML=METAR SLMG 061300Z 00000KT 9999 SCT080 BKN200 28/22 Q1010 A2984 HR70METAR SLBU 061300Z 03004KT 8000 SCT080 27/22 Q1011 A2986 HR74 FUMETAR SLSA 061300Z 33006KT 7000 SCT080 BKN200 30/23 Q1010 A2984HR67 FU=METAR SLSR 061300Z 00000KT 8000 NSC 28/24 Q1010 A2983 HR79 FU CIMETAR RTD SLSM 061300Z 00000KT 8000 NSC 28/22 Q1010 A2985 HR69 FUCI RWY NML=
ZPX0298 061309@CAELT@GG SLZZYMYT@CAELT@061308 SLLPYFYA@CAELT@SABO SLLP 061300 RRA@CAELT@METAR SLLP 061300Z VRB02KT 9999 FEW013 BKN200 08/M01 Q1040@CAELT@A3073 629.6 HR53 P90// FU NOSIG=@CAELT@METAR SLCO 061300Z 36005KT 6000 SCT080 27/23 Q1012 A2990 985.2 HR76@CAELT@METAR SLRY 061300Z 00000KT 7000 NSC 28/25 Q1007 A2976 HR82 FU CI RWY@CAELT@NML=METAR SLRQ 061300Z 00000KT 9999 NSC 29/26 Q1010 A2985 986.7 HR81 FUMETAR RTD SLAP 061300Z 00000KT 9999 SCT070 BKN200 22/18 Q1019 A3012860.3 HR73=METAR SLSB 061300Z 00000KT 8000 NSC 28/23 Q1010 A2984 HR76 FU RWY NMLMETAR SLOR 061300Z 01006KT 9999 NSC 11/M02 Q1038 A3065 658.0 HR39 FUN/SE/S/SW CI=METAR SLUY 061300Z 01012KT 9999 FEW070 14/M01 Q1035 A3058659.3 HR35 SA N/S/SW/W/NW FU=
ZPX0325 061351@CAELT@GG SLZZYMYT@CAELT@061350 SLRBYGYS@CAELT@SABO SLRB 061400@CAELT@METAR SLRB 061400Z 00000KT 8000 NSC 28/19 Q1015 A2997 HR59 FU RWY NML=@CAELT@
ZPX0327 061354@CAELT@GG SLZZYMYT@CAELT@061355 SLSBYSYX@CAELT@SABO SLSB 061400@CAELT@METAR SLSB 061400Z 00000KT 8000 NSC 29/24 Q1010 A2985 HR73 FU RWY NML=@CAELT@
ZPX0328 061354@CAELT@GG SLZZYMYT@CAELT@061355 SLCBYGYZ@CAELT@SABO SLCB 061400@CAELT@METAR SLCB 061400Z 19003KT 9999 NSC 23/03 Q1026 A3033 752.9 HR27 FU@CAELT@CI NOSIG=@CAELT@
ZPX0329 061355@CAELT@GG SLZZYMYT@CAELT@061353 SLPSZTZX@CAELT@SABO SLPS 061400@CAELT@METAR SLPS 061400Z 33004KT 8000 NSC 33/23 Q1012 A2989 HR55 FU=@CAELT@
ZPX0331 061355@CAELT@GG SLZZYMYT@CAELT@061355 SLSAYGYS@CAELT@SABO SLSA 061400@CAELT@METAR SLSA 061400Z 34008KT 6000 NSC 32/23 Q1011 A2988 HR59 FU CI=@CAELT@
ZPX0332 061355@CAELT@GG SLZZYMYT@CAELT@061355 SLSAYGYS@CAELT@SABO SLSA 061400@CAELT@METAR SLSA 061400Z 34008KT 6000 NSC 32/23 Q1011 A2988 HR59 FU CI=@CAELT@
ZPX0333 061355@CAELT@GG SLZZYMYT@CAELT@061355 SLAGYSYX@CAELT@SABO SLAG 061400@CAELT@METAR SLAG 061400Z 14007KT 6000 FU NSC 26/12 Q1016 A3002 888.9 HR42@CAELT@
ZPX0334 061355@CAELT@GG SLZZYMYT@CAELT@061353 SLRYYSYX@CAELT@SABO SLRY 061400@CAELT@METAR SLRY 061400Z 00000KT 7000 NSC 31/25 Q1008 A2978 HR72 FU CI RWY@CAELT@NML=@CAELT@
ZPX0335 061355@CAELT@GG SLZZYMYT@CAELT@061356 SLVRYGYZ@CAELT@SABO SLVR 061400@CAELT@METAR SLVR 061400Z 18007KT 9999 FEW020 SCT200 29/14 Q1013 A2993 HR41@CAELT@FU NOSIG=@CAELT@
ZPX0336 061355@CAELT@GG SLZZYMYT@CAELT@061355 SLETYMYC@CAELT@SABO SLET 061400@CAELT@METAR SLET 061400Z 17007KT 9999 NSC 29/12 Q1013 A2993 HR34 FU CI@CAELT@NOSIG=@CAELT@
ZPX0337 061355@CAELT@GG SLZZYMYT@CAELT@061355 SLCAYGYS@CAELT@SABO SLCA 061400@CAELT@METAR SLCA 061400Z 00000KT 9999 NSC 24/09 Q1017 A3003 HR41 FU RWY NML@CAELT@
ZPX0338 061356@CAELT@GG SLZZYMYT@CAELT@061355 SLTJYGYZ@CAELT@SABO SLTJ 061400@CAELT@METAR SLTJ 061400Z 00000KT 9999 NSC 22/09 Q1017 A3004 812.7 HR45 FU=@CAELT@
ZPX0339 061356@CAELT@GG SLZZYMYT@CAELT@061356 SLCOYGYZ@CAELT@SABO SLCO 061400@CAELT@METAR SLCO 061400Z 36006KT 6000 SCT080 BKN200 29/23 Q1013 A2992 985.6@CAELT@HR71 FU=@CAELT@
ZPX0340 061356@CAELT@GG SLZZYMYT@CAELT@061355 SLRQYSYX@CAELT@SABO SLRQ 061400@CAELT@METAR SLRQ 061400Z 03004KT 9999 NSC 31/26 Q1011 A2986 986.9 HR72 FU@CAELT@
ZPX0342 061356@CAELT@GG SLZZYMYT@CAELT@061356 SLLPYFYA@CAELT@SABO SLAP 061400@CAELT@METAR SLAP 061400Z 00000KT 9999 SCT070 BKN200 24/18 Q1021@CAELT@A3017 HR70=@CAELT@
ZPX0343 061356@CAELT@GG SLZZYMYT@CAELT@061356 SLUYYGYS@CAELT@SABO SLUY 061400@CAELT@METAR SLUY 061400Z 33010KT 9999 FEW027 15/M03 Q1035 A3058@CAELT@659.4 HR29 SA N/NE/S/SW AC=@CAELT@
ZPX0344 061357@CAELT@GG SLZZYMYT@CAELT@061357 SLVRYGYS@CAELT@SABO SLVR 061400@CAELT@METAR SLVR 061400Z 18007KT 9999 FEW020 SCT200 29/14 Q1013 A2993 HR41@CAELT@FU NOSIG=@CAELT@METAR SLET 061400Z 17007KT 9999 NSC 29/12 Q1013 A2993 HR34 FU CI@CAELT@NOSIG=@CAELT@METAR SLAS 061400Z 00000KT 0800 FU NSC 33/22 Q1014 A2994 HR52 RWY NMLMETAR SLJV 061400Z 00000KT 3000 FU NSC 28/20 Q1013 A2991 HR60 RWY NMLMETAR SLCP 061400Z 00000KT 3000 FU FEW070 31/22 Q1015 A2997 HR60 RWYNML=METAR SLSI 061400Z 00000KT 5000 FU NSC 32/22 Q1012 A2988 HR57 FU RWYMETAR SLTI 061400Z 00000KT 5000 FU SCT020 SCT200 31/20 Q1015 A2997HR51 RWY NML=METAR SLJE 061400Z 00000KT 6000 NSC 33/18 Q1015 A2997 HR42 FU RWY NMLMETAR SLVG 061400Z 02006KT 9999 NSC 24/13 Q1024 A3024 HR49 FU CI RWYMETAR SLRB 061400Z 00000KT 8000 NSC 28/19 Q1015 A2997 HR59 FU RWY NMLMETAR SLPS 061400Z 33004KT 8000 NSC 33/23 Q1012 A2989 HR55 FU=METAR SLCA 061400Z 00000KT 9999 NSC 24/09 Q1017 A3003 HR41 FU RWY NML
ZPX0345 061357@CAELT@GG SLZZYMYT@CAELT@061356 SLTRYGYZ@CAELT@SABO SLTR 061400@CAELT@METAR SLTR 061400Z 33006KT 8000 NSC 31/23 Q1011 A2988 993.3@CAELT@HR61 FU CI NOSIG=@CAELT@
ZPX0346 061357@CAELT@GG SLZZYMYT@CAELT@061357 SLLPYGYZ@CAELT@SABO SLLP 061400@CAELT@METAR SLLP 061400Z 21004KT 140V260 9999 NSC 11/M01 Q1040@CAELT@A3073 629.7 HR42 FU NOSIG=@CAELT@
ZPX0347 061357@CAELT@GG SLZZYMYT@CAELT@061357 SLORYGYZ@CAELT@SABO SLOR 061400@CAELT@METAR SLOR 061400Z 36004KT 9999 NSC 14/M03 Q1038 A3067 658.3 HR29 FU@CAELT@N/SE/S/SW CI=@CAELT@
ZPX0348 061358@CAELT@GG SLZZYMYT@CAELT@061358 SLCBYGYS@CAELT@SABO SLCB 061400@CAELT@METAR SLCB 061400Z 19003KT 9999 NSC 23/03 Q1026 A3033 752.9 HR27 FU@CAELT@CI NOSIG=@CAELT@METAR SLAL 061400Z 33006KT 9999 NSC 18/05 Q1030 A3043 704.7 HR41=@CAELT@METAR SLPO 061400Z NIL=@CAELT@METAR SLAG 061400Z 14007KT 6000 FU NSC 26/12 Q1016 A3002 888.9 HR42METAR SLVM 061400Z 18005KT 9999 NSC 26/16 Q1014 A2996 HR56 FU CI=METAR SLTJ 061400Z 00000KT 9999 NSC 22/09 Q1017 A3004 812.7 HR45 FU=METAR SLYA 061400Z 00000KT 9999 NSC 25/13 Q1014 A2995 939.0 HR47=METAR SLBJ 061400Z NIL=METAR SLHI 061400Z NIL=
ZPX0351 061400@CAELT@GG SLZZYMYT@CAELT@061400 SLLPYFYA@CAELT@SABO SLLP 061400@CAELT@METAR SLLP 061400Z 21004KT 140V260 9999 NSC 11/M01 Q1040@CAELT@A3073 629.7 HR42 FU NOSIG=@CAELT@METAR SLCO 061400Z 36006KT 6000 SCT080 BKN200 29/23 Q1013 A2992 985.6@CAELT@HR71 FU=@CAELT@METAR SLRY 061400Z 00000KT 7000 NSC 31/25 Q1008 A2978 HR72 FU CI RWYNML=METAR SLRQ 061400Z 03004KT 9999 NSC 31/26 Q1011 A2986 986.9 HR72 FUMETAR SLAP 061400Z 00000KT 9999 SCT070 BKN200 24/18 Q1021A3017 HR70=METAR SLSB 061400Z 00000KT 8000 NSC 29/24 Q1010 A2985 HR73 FU RWY NMLMETAR SLOR 061400Z 36004KT 9999 NSC 14/M03 Q1038 A3067 658.3 HR29 FUN/SE/S/SW CI=METAR SLUY 061400Z 33010KT 9999 FEW027 15/M03 Q1035 A3058659.4 HR29 SA N/NE/S/SW AC=
ZPX0353 061401@CAELT@GG SLZZYMYT@CAELT@061400 SLTRYGYS@CAELT@SABO SLTR 061400@CAELT@METAR SLTR 061400Z 33006KT 8000 NSC 31/23 Q1011 A2988 993.3@CAELT@HR61 FU CI NOSIG=@CAELT@METAR SLGM 061400Z 02006KT 5000 FU FEW020 BKN200 30/23 Q1012 A2990@CAELT@HR66=@CAELT@METAR SLRI 061400Z 09005KT 5000 FU NSC 29/24 Q1013 A2996 HR72 CI=METAR SLJO 061400Z 00000KT 8000 NSC 30/23 Q1011 A2988 HR67 FU CIRWY NML=METAR SLRA 061400Z 09003KT 9999 NSC 30/22 Q1011 A2987 HR65 FU AC/CIMETAR SLMG 061400Z 00000KT 9999 SCT080 BKN200 29/22 Q1010 A2985HR68 RWY NML=METAR SLBU 061400Z 00000KT 8000 SCT080 29/22 Q1011 A2988 HR66 FUMETAR SLSA 061400Z 34008KT 6000 NSC 32/23 Q1011 A2988 HR59 FU CI=METAR SLSR 061400Z 32006KT 8000 NSC 31/24 Q1009 A2981 HR66 FU CIMETAR SLSM 061400Z 32008KT 8000 NSC 31/23 Q1010 A2985 HR61 FU CI
ZPX0384 061453@CAELT@GG SLZZYMYT@CAELT@061452 SLETYMYC@CAELT@SABO SLET 061500@CAELT@METAR SLET 061500Z 15005KT 9999 NSC 30/12 Q1012 A2991 HR32 FU CI@CAELT@NOSIG=@CAELT@
ZPX0385 061454@CAELT@GG SLZZYMYT@CAELT@061453 SLRBYGYS@CAELT@SABO SLRB 061500@CAELT@METAR SLRB 061500Z 00000KT 8000 NSC 30/21 Q1015 A2997 HR58 FU RWY NML=@CAELT@
ZPX0386 061454@CAELT@GG SLZZYMYT@CAELT@061455 SLORYGYZ@CAELT@SABO SLOR 061500@CAELT@METAR SLOR 061500Z 32004KT 9999 FEW017 16/M03 Q1038 A3066 658.1 HR28@CAELT@FU SE/S/SW CI=@CAELT@
ZPX0388 061455@CAELT@GG SLZZYMYT@CAELT@061453 SLRYYSYX@CAELT@SABO SLRY 061500@CAELT@METAR SLRY 061500Z 00000KT 8000 NSC 32/25 Q1008 A2979 HR65 FU CI RWY@CAELT@NML=@CAELT@
ZPX0389 061455@CAELT@GG SLZZYMYT@CAELT@061455 SLRQYSYX@CAELT@SABO SLRQ 061500@CAELT@METAR SLRQ 061500Z 04004KT 8000 NSC 33/27 Q1011 A2987 HR69 FU CI=@CAELT@
ZPX0390 061455@CAELT@GG SLZZYMYT@CAELT@061456 SLVRYGYZ@CAELT@SABO SLVR 061500@CAELT@METAR SLVR 061500Z VRB02KT 9999 FEW020 SCT200 31/15 Q1012 A2991 HR38@CAELT@FU NOSIG=@CAELT@
ZPX0391 061455@CAELT@GG SLZZYMYT@CAELT@061449 SLUYYGYS@CAELT@SABO SLUY 061500@CAELT@METAR SLUY 061500Z 33011KT 9999 FEW030 16/M02 Q1035 A3058@CAELT@659.3 HR30 SA S/SW CC=@CAELT@
ZPX0393 061455@CAELT@GG SLZZYMYT@CAELT@061457 SLLPYGYZ@CAELT@SABO SLLP 061500@CAELT@METAR SLLP 061500Z 15004KT 9999 FEW017 BKN200 14/M02 Q1040@CAELT@A3073 629.6 HR34 P2380 FU NOSIG=@CAELT@
ZPX0394 061456@CAELT@GG SLZZYMYT@CAELT@061457 SLUYYGYS@CAELT@SABO SLUY 061500@CAELT@METAR SLUY 061500Z 33011KT 9999 FEW030 16/M02 Q1035 A3058@CAELT@659.3 HR30 SA S/SW CC=@CAELT@
ZPX0395 061456@CAELT@GG SLZZYMYT@CAELT@061456 SLTRYGYZ@CAELT@SABO SLTR 061500@CAELT@METAR SLTR 061500Z 31008KT 8000 NSC 33/24 Q1011 A2987 993.1@CAELT@HR58 FU CI NOSIG=@CAELT@
ZPX0396 061456@CAELT@GG SLZZYMYT@CAELT@061455 SLTJYGYZ@CAELT@SABO SLTJ 061500@CAELT@METAR SLTJ 061500Z 21005KT 9999 FEW040 24/09 Q1016 A3002 812.1 HR37@CAELT@FU CI=@CAELT@
ZPX0397 061456@CAELT@GG SLZZYMYT@CAELT@061455 SLSAYGYS@CAELT@SABO SLSA 061500@CAELT@METAR SLSA 061500Z 32010KT 6000 NSC 34/23 Q1011 A2988 HR52 FU CI=@CAELT@
ZPX0398 061456@CAELT@GG SLZZYMYT@CAELT@061456 SLCOYGYZ@CAELT@SABO SLCO 061500@CAELT@METAR SLCO 061500Z 36005KT 8000 SCT080 31/25 Q1012 A2991 985.4 HR67@CAELT@
ZPX0399 061457@CAELT@GG SLZZYMYT@CAELT@061456 SLSBYSYX@CAELT@SABO SLSB 061500@CAELT@METAR SLSB 061500Z 00000KT 8000 NSC 31/25 Q1010 A2984 HR68 FU CI RWY@CAELT@NML=@CAELT@
ZPX0402 061458@CAELT@GG SLZZYMYT@CAELT@061457 SLCBYGYZ@CAELT@SABO SLCB 061500@CAELT@METAR SLCB 061500Z 30003KT 9999 NSC 26/01 Q1026 A3030 752.3 HR19 FU@CAELT@CI NOSIG=@CAELT@
ZPX0404 061459@CAELT@GG SLZZYMYT@CAELT@061459 SLVRYGYS@CAELT@SABO SLVR 061500@CAELT@METAR SLVR 061500Z VRB02KT 9999 FEW020 SCT200 31/15 Q1012 A2991 HR38@CAELT@FU NOSIG=@CAELT@METAR SLET 061500Z 15005KT 9999 NSC 30/12 Q1012 A2991 HR32 FU CI@CAELT@NOSIG=@CAELT@METAR SLAS 061500Z 00000KT 1200 FU SCT070 35/22 Q1014 A2994 HR47 RWYNML=METAR SLJV 061500Z 00000KT 3000 FU NSC 32/20 Q1012 A2988 HR52 RWY NMLMETAR SLCP 061500Z 00000KT 4500 FU SCT070 32/20 Q1016 A3000 HR49 RWYMETAR SLSI 061500Z 00000KT 5000 NSC 34/22 Q1012 A2988 HR48 RWY NML=METAR SLTI 061500Z 00000KT 5000 FU FEW020 BKN070 33/19 Q1015 A2997HR45 RWY NML=METAR SLJE 061500Z 00000KT 6000 NSC 35/18 Q1015 A2997 HR37 FU RWY NMLMETAR SLVG 061500Z 02006KT 9999 NSC 26/14 Q1024 A3024 HR46 FU CI RWYMETAR SLRB 061500Z 00000KT 8000 NSC 30/21 Q1015 A2997 HR58 FU RWY NMLMETAR SLPS 061500Z 36004KT 8000 NSC 36/24 Q1011 A2986 HR50 FU=METAR SLCA 061500Z 18004KT 9999 NCS 26/10 Q1016 A3000 HR37 FU RWY NML=
ZPX0405 061459@CAELT@GG SLZZYMYT@CAELT@061457 SLAGYSYX@CAELT@SABO SLAG 061500@CAELT@METAR SLAG 061500Z 14008KT 6000 FU NSC 28/12 Q1015 A2999 887.8 HR36@CAELT@
ZPX0406 061500@CAELT@GG SLZZYMYT@CAELT@061459 SLTRYGYS@CAELT@SABO SLTR 061500@CAELT@METAR SLTR 061500Z 31008KT 8000 NSC 33/24 Q1011 A2987 993.1@CAELT@HR58 FU CI NOSIG=@CAELT@METAR SLGM 061500Z 27006KT 8000 NSC 32/23 Q1012 A2988 HR58 FU=@CAELT@METAR SLRI 061500Z 00000KT 7000 NSC 30/25 Q1013 A2992 HR77 FU CI=@CAELT@METAR SLJO 061500Z 36004KT 8000 FEW080 BKN200 33/23 Q1011 A2988 HR55FU RWY NML=METAR SLRA 061500Z 09003KT 8000 NSC 32/23 Q1011 A2986 HR58 FU AC/CIRWY NML=METAR SLMG 061500Z 00000KT 9999 FEW080 BKN200 31/23 Q1010 A2985 HR62METAR SLBU 061500Z 03006KT 8000 NSC 31/23 Q1011 A2988 HR61 CI FUMETAR SLSA 061500Z 32010KT 6000 NSC 34/23 Q1011 A2988 HR52 FU CI=METAR SLSR 061500Z 32006KT 8000 NSC 32/24 Q1009 A2981 HR64 FU CIMETAR SLSM 061500Z 36004KT 8000 NSC 33/24 Q1011 A2985 HR61 FU CI
ZPX0407 061500@CAELT@GG SLZZYMYT@CAELT@061500 SLCBYGYS@CAELT@SABO SLCB 061500@CAELT@METAR SLCB 061500Z 30003KT 9999 NSC 26/01 Q1026 A3030 752.3 HR19 FU@CAELT@CI NOSIG=@CAELT@METAR SLAL 061500Z 06007KT 9999 NSC 20/03 Q1030 A3042 704.3 HR54 CI=@CAELT@METAR SLPO 061500Z NIL=@CAELT@METAR SLAG 061500Z 14008KT 6000 FU NSC 28/12 Q1015 A2999 887.8 HR36METAR SLVM 061500Z 36006KT 9999 NSC 28/16 Q1013 A2993 HR51 FU CI=METAR SLTJ 061500Z 21005KT 9999 FEW040 24/09 Q1016 A3002 812.1 HR37FU CI=METAR SLYA 061500Z 00000KT 9999 NSC 26/13 Q1013 A2993 938.2 HR45=METAR SLBJ 061500Z NIL=METAR SLHI 061500Z NIL=
ZPX0413 061505@CAELT@GG SLZZYMYT@CAELT@061501 SLLPYFYA@CAELT@SABO SLLP 061500@CAELT@METAR SLLP 061500Z 15004KT 9999 FEW017 BKN200 14/M02 Q1040@CAELT@A3073 629.6 HR34 P2380 FU NOSIG=@CAELT@METAR SLCO 061500Z 36005KT 8000 SCT080 31/25 Q1012 A2991 985.4 HR67@CAELT@METAR SLRY 061500Z 00000KT 8000 NSC 32/25 Q1008 A2979 HR65 FU CI RWY@CAELT@NML=METAR SLRQ 061500Z 04004KT 8000 NSC 33/27 Q1011 A2987 HR69 FU CI=METAR SLAP 061500Z 00000KT 9999 FEW070 SCT200 27/14 Q1019 A3012 860.2HR46=METAR SLSB 061500Z 00000KT 8000 NSC 31/25 Q1010 A2984 HR68 FU CI RWYMETAR SLOR 061500Z 32004KT 9999 FEW017 16/M03 Q1038 A3066 658.1 HR28FU SE/S/SW CI=METAR SLUY 061500Z 33011KT 9999 FEW030 16/M02 Q1035 A3058659.3 HR30 SA S/SW CC=
ZPX0424 061520@CAELT@GG SLZZYMYT@CAELT@061520 SLVRYGYS@CAELT@SABO SLVR 061500 CCA@CAELT@METAR SLVR 061500Z VRB02KT 9999 FEW020 SCT200 31/15 Q1012 A2991 HR38@CAELT@FU NOSIG=@CAELT@METAR SLET 061500Z 15005KT 9999 NSC 30/12 Q1012 A2991 HR32 FU CI@CAELT@NOSIG=@CAELT@METAR SLAS 061500Z 00000KT 1200 FU SCT070 35/22 Q1014 A2994 HR47 RWYNML=METAR SLJV 061500Z 00000KT 3000 FU NSC 32/20 Q1012 A2988 HR52 RWY NMLMETAR SLCP 061500Z 00000KT 4500 FU SCT070 32/20 Q1016 A3000 HR49 RWYMETAR COR SLSI 061500Z 00000KT 5000 FU NSC 34/22 Q1012 A2988 HR48 RWYMETAR SLTI 061500Z 00000KT 5000 FU FEW020 BKN070 33/19 Q1015 A2997HR45 RWY NML=METAR SLJE 061500Z 00000KT 6000 NSC 35/18 Q1015 A2997 HR37 FU RWY NMLMETAR SLVG 061500Z 02006KT 9999 NSC 26/14 Q1024 A3024 HR46 FU CI RWYMETAR SLRB 061500Z 00000KT 8000 NSC 30/21 Q1015 A2997 HR58 FU RWY NMLMETAR SLPS 061500Z 36004KT 8000 NSC 36/24 Q1011 A2986 HR50 FU=METAR SLCA 061500Z 18004KT 9999 NCS 26/10 Q1016 A3000 HR37 FU RWY NML=
ZPX0446 061550@CAELT@GG SLZZYMYT@CAELT@061550 SLRBYGYS@CAELT@SABO SLRB 061600@CAELT@METAR SLRB 061600Z 00000KT 8000 NSC 34/22 Q1013 A2991 HR48 FU RWY NML=@CAELT@
ZPX0448 061553@CAELT@GG SLZZYMYT@CAELT@061551 SLRQYSYX@CAELT@SABO SLRQ 061600@CAELT@METAR SLRQ 061600Z 36004KT 8000 NSC 34/26 Q1010 A2985 986.8 HR63 FU@CAELT@
ZPX0449 061553@CAELT@GG SLZZYMYT@CAELT@061553 SLETYMYC@CAELT@SABO SLET 061600@CAELT@METAR SLET 061600Z 32007KT 9999 FEW023 31/14 Q1012 A2989 HR34 FU CI@CAELT@NOSIG=@CAELT@
ZPX0450 061554@CAELT@GG SLZZYMYT@CAELT@061555 SLCOYGYZ@CAELT@SABO SLCO 061600@CAELT@METAR SLCO 061600Z 31005KT 9999 SCT080 32/25 Q1012 A2990 985.0 HR64@CAELT@
ZPX0451 061554@CAELT@GG SLZZYMYT@CAELT@061555 SLSBYSYX@CAELT@SABO SLSB 061600@CAELT@METAR SLSB 061600Z 00000KT 8000 NSC 32/26 Q1010 A2984 HR68 FU CI RWY@CAELT@NML=@CAELT@
ZPX0452 061554@CAELT@GG SLZZYMYT@CAELT@061555 SLCBYGYZ@CAELT@SABO SLCB 061600@CAELT@METAR SLCB 061600Z 20003KT 9999 FEW036 BKN200 27/02 Q1024 A3027 751.3@CAELT@HR19 FU NOSIG=@CAELT@
ZPX0453 061555@CAELT@GG SLZZYMYT@CAELT@061553 SLRYYSYX@CAELT@SABO SLRY 061600@CAELT@METAR SLRY 061600Z 00000KT 8000 NSC 34/26 Q1008 A2979 HR61 FU CI RWY@CAELT@NML=@CAELT@
ZPX0456 061555@CAELT@GG SLZZYMYT@CAELT@061556 SLVRYGYZ@CAELT@SABO SLVR 061600@CAELT@METAR SLVR 061600Z 30005KT 9999 FEW020 SCT200 32/16 Q1012 A2990 HR39@CAELT@FU AC NOSIG=@CAELT@
ZPX0457 061555@CAELT@GG SLZZYMYT@CAELT@061555 SLSAYGYS@CAELT@SABO SLSA 061600@CAELT@METAR SLSA 061600Z 31012KT 6000 NSC 35/23 Q1011 A2987 HR49 FU CI=@CAELT@
ZPX0458 061555@CAELT@GG SLZZYMYT@CAELT@061555 SLSAYGYS@CAELT@SABO SLSA 061600@CAELT@METAR SLSA 061600Z 31012KT 6000 NSC 35/23 Q1011 A2987 HR49 FU CI=@CAELT@
ZPX0459 061555@CAELT@GG SLZZYMYT@CAELT@061543 SLUYYGYS@CAELT@SABO SLUY 061600@CAELT@METAR SLUY 061600Z 30010KT 9999 FEW033 18/M02 Q1034 A3056@CAELT@658.8 HR26 AC/CC=@CAELT@
ZPX0460 061556@CAELT@GG SLZZYMYT@CAELT@061555 SLAGYSYX@CAELT@SABO SLAG 061600@CAELT@METAR SLAG 061600Z 09008KT 6000 FU NSC 29/13 Q1014 A2996 886.9 HR36@CAELT@
ZPX0461 061556@CAELT@GG SLZZYMYT@CAELT@061556 SLTRYGYZ@CAELT@SABO SLTR 061600@CAELT@METAR SLTR 061600Z 34008KT 8000 NSC 34/25 Q1011 A2986 992.5@CAELT@HR58 FU CI NOSIG=@CAELT@
ZPX0462 061556@CAELT@GG SLZZYMYT@CAELT@061557 SLLPYGYZ@CAELT@SABO SLLP 061600@CAELT@METAR SLLP 061600Z 12007KT 040V200 9999 FEW017 BKN200 14/M03@CAELT@Q1039 A3071 629.2 HR30 P93// FU NOSIG=@CAELT@
ZPX0463 061556@CAELT@GG SLZZYMYT@CAELT@061556 SLCAYGYS@CAELT@SABO SLCA 061600@CAELT@METAR SLCA 061600Z 18004KT 9999 NSC 29/11 Q1014 A2994 HR36 FU RWY NML@CAELT@
ZPX0464 061557@CAELT@GG SLZZYMYT@CAELT@061556 SLTJYGYZ@CAELT@SABO SLTJ 061600@CAELT@METAR SLTJ 061600Z 10005KT 9999 FEW040 28/10 Q1015 A2998 810.9 HR33@CAELT@FU CI=@CAELT@
ZPX0465 061557@CAELT@GG SLZZYMYT@CAELT@061557 SLORYGYZ@CAELT@SABO SLOR 061600@CAELT@METAR SLOR 061600Z 36009KT 9999 FEW017 19/M03 Q1037 A3063 657.5 HR22@CAELT@FU S/SW CI=@CAELT@
ZPX0466 061557@CAELT@GG SLZZYMYT@CAELT@061558 SLVRYGYS@CAELT@SABO SLVR 061600@CAELT@METAR SLVR 061600Z 30005KT 9999 FEW020 SCT200 32/16 Q1012 A2990 HR39@CAELT@FU AC NOSIG=@CAELT@METAR SLET 061600Z 32007KT 9999 FEW023 31/14 Q1012 A2989 HR34 FU CI@CAELT@NOSIG=@CAELT@METAR SLAS 061600Z 00000KT 2000 FU SCT070 36/23 Q1013 A2991 HR46 RWYNML=METAR SLCP 061600Z 00000KT 6000 SCT070 33/19 Q1015 A2997 HR47 FU RWYMETAR SLSI 061600Z 33005KT 5000 FU NSC 35/21 Q1012 A2988 HR43 RWY NMLMETAR SLTI 061600Z 00000KT 5000 FU BKN070 36/19 Q1014 A2994 HR37 RWYMETAR SLRB 061600Z 00000KT 8000 NSC 34/22 Q1013 A2991 HR48 FU RWY NMLMETAR SLPS 061600Z 00000KT 8000 NSC 39/24 Q1010 A2083 HR42 FU=METAR SLCA 061600Z 18004KT 9999 NSC 29/11 Q1014 A2994 HR36 FU RWY NML=
ZPX0467 061559@CAELT@GG SLZZYMYT@CAELT@061558 SLTRYGYS@CAELT@SABO SLTR 061600@CAELT@METAR SLTR 061600Z 34008KT 8000 NSC 34/25 Q1011 A2986 992.5@CAELT@HR58 FU CI NOSIG=@CAELT@METAR SLGM 061600Z 27006KT 8000 NSC 34/24 Q1011 A2985 HR56 FU=@CAELT@METAR SLRI 061600Z 00000KT 7000 FEW017 SCT200 32/24 Q1012 A2989 HR62@CAELT@FU CI=METAR SLJO 061600Z 34005KT 8000 NSC 35/22 Q1011 A2986 HR46 FU CIRWY NML=METAR SLRA 061600Z 35006KT 8000 NSC 35/23 Q1010 A2985 HR50 FU CIMETAR SLMG 061600Z 03004KT 9999 NSC 34/23 Q1010 A2985 HR52 CIMETAR SLBU 061600Z 03006KT 8000 NSC 34/24 Q1010 A2985 HR58 CI FUMETAR SLSA 061600Z 31012KT 6000 NSC 35/23 Q1011 A2987 HR49 FU CI=METAR SLSR 061600Z 32006KT 8000 NSC 32/24 Q1009 A2981 HR60 FU CIMETAR SLSM 061600Z 36004KT 8000 NSC 34/23 Q1010 A2985 HR53 FU CI
ZPX0469 061559@CAELT@GG SLZZYMYT@CAELT@061558 SLLPYFYA@CAELT@SABO SLAP 061600@CAELT@METAR SLAP 061600Z 36015KT 9999 FEW025 30/12 Q1019@CAELT@A3010 HR33 CI=@CAELT@
ZPX0472 061600@CAELT@GG SLZZYMYT@CAELT@061600 SLCBYGYS@CAELT@SABO SLCB 061600@CAELT@METAR SLCB 061600Z 20003KT 9999 FEW036 BKN200 27/02 Q1024 A3027@CAELT@751.3 HR19 FU NOSIG=@CAELT@METAR SLAL 061600Z 33006KT 9999 FEW020 21/02 Q1029 A3039 702.8 HR29@CAELT@METAR SLPO 061600Z NIL=@CAELT@METAR SLAG 061600Z 09008KT 6000 FU NSC 29/13 Q1014 A2996 886.9 HR36METAR SLVM 061600Z 00000KT 9999 NSC 29/17 Q1011 A2988 HR50 FU CI=METAR SLTJ 061600Z 10005KT 9999 FEW040 28/10 Q1015 A2998 810.9 HR33FU CI=METAR SLYA 061600Z 00000KT 9999 NSC 27/13 Q1012 A2990 937.2 HR42=METAR SLBJ 061600Z NIL=METAR SLHI 061600Z NIL=
ZPX0475 061603@CAELT@GG SLZZYMYT@CAELT@061601 SLLPYFYA@CAELT@SABO SLLP 061600@CAELT@METAR SLLP 061600Z 12007KT 040V200 9999 FEW017 BKN200 14/M03@CAELT@Q1039 A3071 629.2 HR30 P93// FU NOSIG=@CAELT@METAR SLCO 061600Z 31005KT 9999 SCT080 32/25 Q1012 A2990 985.0 HR64@CAELT@METAR SLRY 061600Z 00000KT 8000 NSC 34/26 Q1008 A2979 HR61 FU CI RWY@CAELT@NML=METAR SLRQ 061600Z 36004KT 8000 NSC 34/26 Q1010 A2985 986.8 HR63 FUMETAR SLAP 061600Z 36015KT 9999 FEW025 30/12 Q1019A3010 HR33 CI=METAR SLSB 061600Z 00000KT 8000 NSC 32/26 Q1010 A2984 HR68 FU CI RWYMETAR SLOR 061600Z 36009KT 9999 FEW017 19/M03 Q1037 A3063 657.5 HR22FU S/SW CI=METAR SLUY 061600Z 30010KT 9999 FEW033 18/M02 Q1034 A3056658.8 HR26 AC/CC=
ZPX0491 061638@CAELT@GG SLZZYMYT@CAELT@061638 SLAGYSYX@CAELT@SABO SLAG 061600 CCA@CAELT@METAR COR SLAG 061600Z 09008KT 6000 NSC 29/13 Q1014 A2996 886.9 HR36@CAELT@FU CI=@CAELT@
ZPX0499 061650@CAELT@GG SLZZYMYT@CAELT@061650 SLRBYGYS@CAELT@SABO SLRB 061700@CAELT@METAR SLRB 061700Z 36004KT 8000 NSC 37/20 Q1012 A2988 HR37 FU RWY NML=@CAELT@
ZPX0500 061651@CAELT@GG SLZZYMYT@CAELT@061650 SLPSZTZX@CAELT@SABO SLPS 061700@CAELT@METAR SLPS 061700Z 00000KT 8000 NSC 40/25 Q1009 A2980 HR42 FU=@CAELT@
ZPX0501 061651@CAELT@GG SLZZYMYT@CAELT@061652 SLTJYGYZ@CAELT@SABO SLTJ 061700@CAELT@METAR SLTJ 061700Z 12006KT 9999 FEW040 29/10 Q1013 A2994 809.8 HR31@CAELT@FU CI=@CAELT@
ZPX0503 061654@CAELT@GG SLZZYMYT@CAELT@061655 SLCOYGYZ@CAELT@SABO SLCO 061700@CAELT@METAR SLCO 061700Z 25007KT 9999 FEW025 SCT200 34/25 Q1011 A2986 983.9@CAELT@HR58 FU=@CAELT@
ZPX0504 061655@CAELT@GG SLZZYMYT@CAELT@061655 SLVRYGYZ@CAELT@SABO SLVR 061700@CAELT@METAR SLVR 061700Z 33012KT 9999 FEW020 SCT200 33/18 Q1011 A2987 HR41@CAELT@FU NOSIG=@CAELT@
ZPX0505 061655@CAELT@GG SLZZYMYT@CAELT@061655 SLSBYSYX@CAELT@SABO SLSB 061700@CAELT@METAR SLSB 061700Z 00000KT 8000 NSC 35/25 Q1009 A2980 HR59 RWY FU CI@CAELT@NML=@CAELT@
ZPX0506 061655@CAELT@GG SLZZYMYT@CAELT@061655 SLAGYSYX@CAELT@SABO SLAG 061700@CAELT@METAR SLAG 061700Z 12010KT 7000 NSC 31/12 Q1013 A2992 885.7 HR32 FU@CAELT@
ZPX0507 061655@CAELT@GG SLZZYMYT@CAELT@061655 SLSAYGYS@CAELT@SABO SLSA 061700@CAELT@METAR SLSA 061700Z 30010KT 6000 FEW020 BKN200 36/23 Q1010 A2985@CAELT@HR48 FU=@CAELT@
ZPX0508 061655@CAELT@GG SLZZYMYT@CAELT@061655 SLSAYGYS@CAELT@SABO SLSA 061700@CAELT@METAR SLSA 061700Z 30010KT 6000 FEW020 BKN200 36/23 Q1010 A2985@CAELT@HR48 FU=@CAELT@
ZPX0510 061655@CAELT@GG SLZZYMYT@CAELT@061655 SLORYGYZ@CAELT@SABO SLOR 061700@CAELT@METAR SLOR 061700Z 36008KT 9999 FEW020 21/M05 Q1035 A3059 656.5 HR17@CAELT@
ZPX0511 061655@CAELT@GG SLZZYMYT@CAELT@061655 SLCAYGYS@CAELT@SABO SLCA 061700@CAELT@METAR SLCA 061700Z 18004KT 9999 NSC 31/12 Q1013 A2991 HR32 FU RWY NML@CAELT@
ZPX0512 061656@CAELT@GG SLZZYMYT@CAELT@061655 SLRQYSYX@CAELT@SABO SLRQ 061700@CAELT@METAR SLRQ 061700Z 36004KT 8000 NSC 35/26 Q1009 A2982 985.8 HR58 FU=@CAELT@
ZPX0513 061656@CAELT@GG SLZZYMYT@CAELT@061648 SLUYYGYS@CAELT@SABO SLUY 061700@CAELT@METAR SLUY 061700Z 28011KT 9999 FEW033 18/M06 Q1033 A3051@CAELT@657.8 HR19 AC/CC=@CAELT@
ZPX0514 061656@CAELT@GG SLZZYMYT@CAELT@061653 SLRYYSYX@CAELT@SABO SLRY 061700@CAELT@METAR SLRY 061700Z 00000KT 8000 NSC 35/27 Q1008 A2977 HR60 CI RWY NML@CAELT@
ZPX0516 061656@CAELT@GG SLZZYMYT@CAELT@061656 SLCBYGYZ@CAELT@SABO SLCB 061700@CAELT@METAR SLCB 061700Z 07005KT 9999 FEW036 SCT200 28/01 Q1023 A3021 749.9@CAELT@HR17 FU NOSIG=@CAELT@
ZPX0517 061656@CAELT@GG SLZZYMYT@CAELT@061657 SLLPYGYZ@CAELT@SABO SLLP 061700@CAELT@METAR SLLP 061700Z 10014G24KT 050V140 9999 FEW020 BKN200 18/M08@CAELT@Q1038 A3067 628.2 HR17 P3483 FU AC NOSIG=@CAELT@
ZPX0518 061657@CAELT@GG SLZZYMYT@CAELT@061656 SLETYMYC@CAELT@SABO SLET 061700@CAELT@METAR SLET 061700Z 33012KT 9999 FEW023 SCT200 33/16 Q1010 A2985 HR37@CAELT@FU NOSIG=@CAELT@
ZPX0519 061657@CAELT@GG SLZZYMYT@CAELT@061658 SLVRYGYS@CAELT@SABO SLVR 061700@CAELT@METAR SLVR 061700Z 33012KT 9999 FEW020 SCT200 33/18 Q1011 A2987 HR41@CAELT@FU NOSIG=@CAELT@METAR SLET 061700Z 33012KT 9999 FEW023 SCT200 33/16 Q1010 A2985 HR37@CAELT@METAR SLAS 061700Z 00000KT 3000 FU NSC 37/23 Q1012 A2989 HR44 AC RWY@CAELT@NML=METAR SLCP 061700Z 00000KT 7000 FEW020 35/21 Q1014 A2994 HR44 FU RWYMETAR SLSI 061700Z 3305KT 5000 FU NSC 37/21 Q1010 A2983 HR39 RWY NML=METAR SLTI 061700Z 00000KT 5000 FU SCT070 37/20 Q1013 A2991 HR37 RWYMETAR SLRB 061700Z 36004KT 8000 NSC 37/20 Q1012 A2988 HR37 FU RWY NMLMETAR SLPS 061700Z 00000KT 8000 NSC 40/25 Q1009 A2980 HR42 FU=METAR SLCA 061700Z 18004KT 9999 NSC 31/12 Q1013 A2991 HR32 FU RWY NML=
ZPX0520 061657@CAELT@GG SLZZYMYT@CAELT@061657 SLTRYGYZ@CAELT@SABO SLTR 061700@CAELT@METAR SLTR 061700Z 31006KT 8000 FEW020 BKN200 34/25 Q1010 A2983@CAELT@991.5 HR57 FU NOSIG=@CAELT@
ZPX0521 061658@CAELT@GG SLZZYMYT@CAELT@061658 SLCBYGYS@CAELT@SABO SLCB 061700@CAELT@METAR SLCB 061700Z 07005KT 9999 FEW036 SCT200 28/01 Q1023 A3021@CAELT@749.9 HR17 FU NOSIG=@CAELT@METAR SLAL 061700Z 35015KT 9999 FEW020 23/03 Q1028 A3036 703.1 HR27@CAELT@METAR SLPO 061700Z NIL=@CAELT@METAR SLAG 061700Z 12010KT 7000 NSC 31/12 Q1013 A2992 885.7 HR32 FUMETAR SLVM 061700Z 36005KT 9999 NSC 31/19 Q1010 A2983 HR49=METAR SLTJ 061700Z 12006KT 9999 FEW040 29/10 Q1013 A2994 809.8 HR31FU CI=METAR SLYA 061700Z 06008KT 9999 NSC 29/14 Q1011 A2986 936.0 HR39=METAR SLBJ 061700Z NIL=METAR SLHI 061700Z NIL=
ZPX0524 061700@CAELT@GG SLZZYMYT@CAELT@061659 SLLPYFYA@CAELT@SABO SLLP 061700@CAELT@METAR SLLP 061700Z 10014G24KT 050V140 9999 FEW020 BKN200 18/M08@CAELT@Q1038 A3067 628.2 HR17 P3483 FU AC NOSIG=@CAELT@METAR SLCO 061700Z 25007KT 9999 FEW025 SCT200 34/25 Q1011 A2986@CAELT@983.9 HR58 FU=@CAELT@METAR SLRY 061700Z 00000KT 8000 NSC 35/27 Q1008 A2977 HR60 CIRWY NML=METAR SLRQ 061700Z 36004KT 8000 NSC 35/26 Q1009 A2982 985.8 HR58 FU=METAR SLAP 061700Z 36015KT 9999 FEW025 31/11 Q1018 A3007 859.0 HR29CI=METAR SLSB 061700Z 00000KT 8000 NSC 35/25 Q1009 A2980 HR59 RWY FU CINML=METAR SLOR 061700Z 36008KT 9999 FEW020 21/M05 Q1035 A3059 656.5 HR17METAR SLUY 061700Z 28011KT 9999 FEW033 18/M06 Q1033 A3051657.8 HR19 AC/CC=
ZPX0525 061701@CAELT@GG SLZZYMYT@CAELT@061700 SLTRYGYS@CAELT@SABO SLTR 061700@CAELT@METAR SLTR 061700Z 31006KT 8000 FEW020 BKN200 34/25 Q1010 A2983@CAELT@991.5 HR57 FU NOSIG=@CAELT@METAR SLGM 061700Z 08018KT 5000 TS VCSH FU BKN017 FEW020CB BKN200 33/@CAELT@25 Q1011 A2985 HR61 CB/SH N/NE/E TS NE=@CAELT@METAR SLRI 061700Z 36005KT 8000 FEW020 BKN200 34/22 Q1010 A2984 HR48METAR SLJO 061700Z 34006KT 8000 FEW020 BKN200 37/22 Q1010 A2985 HR44FU RWY NML=METAR SLRA 061700Z 09006KT 8000 FEW023 BKN200 37/24 Q1010 A2984 HR48METAR SLMG 061700Z 34006KT 9999 FEW017 BKN200 35/23 Q1010 A2985 HR51RWY NML=METAR SLBU 061700Z NIL=METAR SLSA 061700Z 30010KT 6000 FEW020 BKN200 36/23 Q1010 A2985HR48 FU=METAR SLSR 061700Z 32008KT 8000 NSC 34/24 Q1008 A2979 HR56 FU CIMETAR SLSM 061700Z 33008KT 8000 NSC 35/24 Q1009 A2982 HR50 FUCI RWY NML=
ZPX0529 061706@CAELT@GG SLZZYMYT@CAELT@061705 SLRYYSYX@CAELT@SABO SLRY 061700 CCA@CAELT@METAR COR SLRY 061700Z 00000KT 8000 NSC 35/27 Q1008 A2977 HR60 FU CI@CAELT@RWY NML=@CAELT@
ZPX0531 061707@CAELT@GG SLZZYMYT@CAELT@061707 SLVRYGYS@CAELT@SABO SLVR 061700 CCB@CAELT@METAR SLVR 061700Z 33012KT 9999 FEW020 SCT200 33/18 Q1011 A2987 HR41@CAELT@FU NOSIG=@CAELT@METAR SLET 061700Z 33012KT 9999 FEW023 SCT200 33/16 Q1010 A2985 HR37@CAELT@METAR SLAS 061700Z 00000KT 3000 FU NSC 37/23 Q1012 A2989 HR44 AC RWY@CAELT@NML=METAR SLCP 061700Z 00000KT 7000 FEW020 35/21 Q1014 A2994 HR44 FU RWYMETAR COR SLSI 061700Z 33005KT 5000 FU NSC 37/21 Q1010 A2983 HR39 RWYMETAR SLTI 061700Z 00000KT 5000 FU SCT070 37/20 Q1013 A2991 HR37 RWYMETAR SLRB 061700Z 36004KT 8000 NSC 37/20 Q1012 A2988 HR37 FU RWY NMLMETAR SLPS 061700Z 00000KT 8000 NSC 40/25 Q1009 A2980 HR42 FU=METAR SLCA 061700Z 18004KT 9999 NSC 31/12 Q1013 A2991 HR32 FU RWY NML=
ZPX0532 061707@CAELT@GG SLZZYMYT@CAELT@061702 SLLPYFYA@CAELT@SABO SLLP 061700 CCA@CAELT@METAR SLLP 061700Z 10014G24KT 050V140 9999 FEW020 BKN200 18/M08@CAELT@Q1038 A3067 628.2 HR17 P3483 FU AC NOSIG=@CAELT@METAR SLCO 061700Z 25007KT 9999 FEW025 SCT200 34/25 Q1011 A2986@CAELT@983.9 HR58 FU=@CAELT@METAR COR SLRY 061700Z 00000KT 8000 NSC 35/27 Q1008 A2977 HR60 FU CIRWY NML=METAR SLRQ 061700Z 36004KT 8000 NSC 35/26 Q1009 A2982 985.8 HR58 FU=METAR SLAP 061700Z 36015KT 9999 FEW025 31/11 Q1018 A3007 859.0 HR29CI=METAR SLSB 061700Z 00000KT 8000 NSC 35/25 Q1009 A2980 HR59 RWY FU CINML=METAR SLOR 061700Z 36008KT 9999 FEW020 21/M05 Q1035 A3059 656.5 HR17METAR SLUY 061700Z 28011KT 9999 FEW033 18/M06 Q1033 A3051657.8 HR19 AC/CC=
ZPX0554 061749@CAELT@GG SLZZYMYT@CAELT@061747 SLPSZTZX@CAELT@SABO SLPS 061800@CAELT@METAR SLPS 061800Z 36006KT 8000 NSC 41/25 Q1008 A2977 HR40 FU=@CAELT@
ZPX0558 061753@CAELT@GG SLZZYMYT@CAELT@061754 SLSAYGYS@CAELT@SABO SLSA 061800@CAELT@METAR SLSA 061800Z 34006KT 6000 FEW020 BKN200 36/24 Q1010 A2983@CAELT@HR49 FU=@CAELT@
ZPX0559 061754@CAELT@GG SLZZYMYT@CAELT@061753 SLRBYGYS@CAELT@SABO SLRB 061800@CAELT@METAR SLRB 061800Z 00000KT 8000 NSC 38/20 Q1011 A2985 HR35 FU RWY NML=@CAELT@
ZPX0561 061754@CAELT@GG SLZZYMYT@CAELT@061753 SLRYYSYX@CAELT@SABO SLRY 061800@CAELT@METAR SLRY 061800Z 34006KT 8000 NSC 36/25 Q1007 A2976 HR54 FU RWY NML@CAELT@
ZPX0562 061755@CAELT@GG SLZZYMYT@CAELT@061755 SLCAYGYS@CAELT@SABO SLCA 061800@CAELT@METAR SLCA 061800Z 18006KT 9999 NSC 33/12 Q1011 A2985 HR29 FU RWY NML@CAELT@
ZPX0563 061755@CAELT@GG SLZZYMYT@CAELT@061755 SLAGYSYX@CAELT@SABO SLAG 061800@CAELT@METAR SLAG 061800Z 12012KT 7000 NSC 34/13 Q1011 A2988 884.5 HR29 FU@CAELT@
ZPX0564 061755@CAELT@GG SLZZYMYT@CAELT@061756 SLVRYGYZ@CAELT@SABO SLVR 061800@CAELT@METAR SLVR 061800Z 33014KT 8000 FEW020 SCT200 34/19 Q1010 A2985 HR42@CAELT@FU NOSIG=@CAELT@
ZPX0565 061755@CAELT@GG SLZZYMYT@CAELT@061755 SLORYGYZ@CAELT@SABO SLOR 061800@CAELT@METAR SLOR 061800Z 29005KT 9999 FEW020 22/M07 Q1035 A3057 656.0 HR14@CAELT@
ZPX0566 061755@CAELT@GG SLZZYMYT@CAELT@061755 SLSBYSYX@CAELT@SABO SLSB 061800@CAELT@METAR SLSB 061800Z 29004KT 5000 FU NSC 36/26 Q1008 A2979 HR57 RWY NML=@CAELT@
ZPX0567 061755@CAELT@GG SLZZYMYT@CAELT@061755 SLRQYSYX@CAELT@SABO SLRQ 061800@CAELT@METAR SLRQ 061800Z 00000KT 8000 NSC 36/26 Q1009 A2979 984.9 HR58 FU=@CAELT@
ZPX0569 061757@CAELT@GG SLZZYMYT@CAELT@061757 SLVRYGYS@CAELT@SABO SLVR 061800@CAELT@METAR SLVR 061800Z 33014KT 8000 FEW020 SCT200 34/19 Q1010 A2985 HR42@CAELT@FU NOSIG=@CAELT@METAR SLET 061800Z 32013KT 9999 FEW023 34/17 Q1009 A2981 HR37 FU@CAELT@NOSIG=@CAELT@METAR SLAS 061800Z 27005KT 4000 FU NSC 38/23 Q1011 A2986 HR43 RWY NMLMETAR SLJV 061800Z 00000KT 3000 FU NSC 35/22 Q1011 A2985 HR47 RWY NMLMETAR SLCP 061800Z 00000KT 8000 SCT020 33/24 Q1013 A2991 HR57 FU RWYNML=METAR SLSI 061800Z 36005KT 5000 FU NSC 38/22 Q1010 A2983 HR38 RWY NMLMETAR SLTI 061800Z 34005KT 5000 FU SCT070 38/19 Q1012 A2988 HR33 RWYMETAR SLJE 061800Z 32006KT 6000 NSC 40/19 Q1012 A2988 HR31 FU RWY NMLMETAR SLVG 061800Z 36015KT 9999 NSC 28/10 Q1022 A3018 HR27 FU CI RWYMETAR SLRB 061800Z 00000KT 8000 NSC 38/20 Q1011 A2985 HR35 FU RWY NMLMETAR SLPS 061800Z 36006KT 8000 NSC 41/25 Q1008 A2977 HR40 FU=METAR SLCA 061800Z 18006KT 9999 NSC 33/12 Q1011 A2985 HR29 FU RWY NML
ZPX0570 061757@CAELT@GG SLZZYMYT@CAELT@061756 SLTRYGYZ@CAELT@SABO SLTR 061800@CAELT@METAR SLTR 061800Z 33003KT 8000 FEW020 BKN200 34/25 Q1009 A2980@CAELT@990.8 HR56 FU NOSIG=@CAELT@
ZPX0571 061757@CAELT@GG SLZZYMYT@CAELT@061757 SLLPYGYZ@CAELT@SABO SLLP 061800@CAELT@METAR SLLP 061800Z 08017G27KT 040V100 9999 FEW023 SCT200 16/M04@CAELT@Q1037 A3063 627.4 HR24 P94// FU NOSIG=@CAELT@
ZPX0573 061757@CAELT@GG SLZZYMYT@CAELT@061756 SLCBYGYZ@CAELT@SABO SLCB 061800@CAELT@METAR SLCB 061800Z 03013G23KT 9999 FEW036 28/03 Q1021 A3017 748.7@CAELT@HR19 FU CI NOSIG=@CAELT@
ZPX0575 061758@CAELT@GG SLZZYMYT@CAELT@061757 SLTJYGYZ@CAELT@SABO SLTJ 061800@CAELT@METAR SLTJ 061800Z 14014KT 9999 FEW040 30/09 Q1012 A2991 808.9 HR27@CAELT@
ZPX0576 061758@CAELT@GG SLZZYMYT@CAELT@061759 SLCOYGYZ@CAELT@SABO SLCO 061800@CAELT@METAR SLCO 061800Z 27003KT 9999 FEW027 35/25 Q1010 A2983 982.7 HR54@CAELT@
ZPX0577 061758@CAELT@GG SLZZYMYT@CAELT@061757 SLETYMYC@CAELT@SABO SLET 061800@CAELT@METAR SLET 061800Z 32013KT 9999 FEW023 34/17 Q1009 A2981 HR37 FU@CAELT@NOSIG=@CAELT@
ZPX0582 061800@CAELT@GG SLZZYMYT@CAELT@061800 SLCBYGYS@CAELT@SABO SLCB 061800@CAELT@METAR SLCB 061800Z 03013G23KT 9999 FEW036 28/03 Q1021 A3017 748.7@CAELT@HR19 FU CI NOSIG=@CAELT@METAR SLAL 061800Z 35007KT 9999 FEW020 23/01 Q1027 A3033 702.3 HR25=@CAELT@METAR SLPO 061800Z NIL=@CAELT@METAR SLAG 061800Z 12012KT 7000 NSC 34/13 Q1011 A2988 884.5 HR29 FUMETAR SLVM 061800Z 18010KT 9999 NSC 33/20 Q1008 A2978 HR45 FU CI=METAR SLTJ 061800Z 14014KT 9999 FEW040 30/09 Q1012 A2991 808.9 HR27METAR SLYA 061800Z 06010KT 9999 NSC 31/15 Q1010A2983 935.0 HR38 CI=METAR SLBJ 061800Z NIL=METAR SLHI 061800Z NIL=
ZPX0583 061801@CAELT@GG SLZZYMYT@CAELT@061800 SLTRYGYS@CAELT@SABO SLTR 061800@CAELT@METAR SLTR 061800Z 33003KT 8000 FEW020 BKN200 34/25 Q1009 A2980@CAELT@990.8 HR56 FU NOSIG=@CAELT@METAR SLGM 061800Z 07016KT 5000 TS VCSH FU BKN017 FEW020CB BKN200 30/@CAELT@24 Q1011 A2988 HR70 CB/SH N/NE/S/SW/W TS NE/SW=@CAELT@METAR SLRI 061800Z 00000KT 8000 SCT017 FEW020CB BKN200 36/21 Q1010A2983 HR41 CB N/NE/NW=METAR SLSA 061800Z 34006KT 6000 FEW020 BKN200 36/24 Q1010 A2983HR49 FU=
ZPX0584 061802@CAELT@GG SLZZYMYT@CAELT@061800 SLLPYFYA@CAELT@SABO SLLP 061800@CAELT@METAR SLLP 061800Z 08017G27KT 040V100 9999 FEW023 SCT200 16/M04@CAELT@Q1037 A3063 627.4 HR24 P94// FU NOSIG=@CAELT@METAR SLCO 061800Z 27003KT 9999 FEW027 35/25 Q1010 A2983 982.7 HR54@CAELT@METAR SLRY 061800Z 34006KT 8000 NSC 36/25 Q1007 A2976 HR54 FU@CAELT@RWY NML=METAR SLRQ 061800Z 00000KT 8000 NSC 36/26 Q1009 A2979 984.9 HR58 FU=METAR SLAP 061800Z 36015KT 9999 FEW025 32/11 Q1017 A3003 857.8 HR26CI=METAR SLSB 061800Z 29004KT 5000 FU NSC 36/26 Q1008 A2979 HR57 RWY NMLMETAR SLOR 061800Z 29005KT 9999 FEW020 22/M07 Q1035 A3057 656.0 HR14
ZPX0616 061853@CAELT@GG SLZZYMYT@CAELT@061853 SLRBYGYS@CAELT@SABO SLRB 061900@CAELT@METAR SLRB 061900Z 00000KT 8000 NSC 38/20 Q1009 A2980 HR34 FU RWY NML=@CAELT@
ZPX0617 061853@CAELT@GG SLZZYMYT@CAELT@061851 SLPSZTZX@CAELT@SABO SLPS 061900@CAELT@METAR SLPS 061900Z 33004KT 8000 NSC 41/25 Q1007 A2974 HR40 FU=@CAELT@
ZPX0620 061854@CAELT@GG SLZZYMYT@CAELT@061854 SLSBYSYX@CAELT@SABO SLSB 061900@CAELT@METAR SLSB 061900Z 30004KT 5000 FU NSC 36/25 Q1007 A2976 HR53 RWY NML=@CAELT@
ZPX0621 061854@CAELT@GG SLZZYMYT@CAELT@061855 SLSAYGYS@CAELT@SABO SLSA 061900@CAELT@METAR SLSA 061900Z 34006KT 6000 FEW020 BKN200 36/23 Q1009 A2981@CAELT@HR47 FU=@CAELT@
ZPX0622 061854@CAELT@GG SLZZYMYT@CAELT@061853 SLRYYSYX@CAELT@SABO SLRY 061900@CAELT@METAR SLRY 061900Z 34006KT 8000 NSC 36/25 Q1006 A2973 HR52 FU RWY NML@CAELT@
ZPX0623 061855@CAELT@GG SLZZYMYT@CAELT@061856 SLVRYGYZ@CAELT@SABO SLVR 061900@CAELT@METAR SLVR 061900Z 35011KT 8000 NSC 34/20 Q1009 A2981 HR44 FU NOSIG=@CAELT@
ZPX0624 061855@CAELT@GG SLZZYMYT@CAELT@061855 SLRQYSYX@CAELT@SABO SLRQ 061900@CAELT@METAR SLRQ 061900Z 02005KT 8000 NSC 36/26 Q1007 A2976 983.6 HR56 FU=@CAELT@
ZPX0625 061855@CAELT@GG SLZZYMYT@CAELT@061857 SLLPYGYZ@CAELT@SABO SLLP 061900@CAELT@METAR SLLP 061900Z 08014G24KT 9999 FEW023 FEW025CB SCT200 14/M03@CAELT@Q1036 A3061 627.0 HR30 P94// CB/SH W/NW FU AC NOSIG=@CAELT@
ZPX0626 061855@CAELT@GG SLZZYMYT@CAELT@061855 SLCAYGYS@CAELT@SABO SLCA 061900@CAELT@METAR SLCA 061900Z 18004KT 9999 NSC 35/12 Q1010 A2983 HR26 FU RWY NML@CAELT@
ZPX0629 061856@CAELT@GG SLZZYMYT@CAELT@061855 SLTJYGYZ@CAELT@SABO SLTJ 061900@CAELT@METAR SLTJ 061900Z 13018KT 9999 FEW040 29/09 Q1012 A2990 808.6 HR29@CAELT@
ZPX0630 061856@CAELT@GG SLZZYMYT@CAELT@061856 SLTRYGYZ@CAELT@SABO SLTR 061900@CAELT@METAR SLTR 061900Z 32003KT 8000 FEW020 BKN200 36/24 Q1008 A2977@CAELT@989.6 HR53 FU NOSIG=@CAELT@
ZPX0631 061856@CAELT@GG SLZZYMYT@CAELT@061856 SLCBYGYZ@CAELT@SABO SLCB 061900@CAELT@METAR SLCB 061900Z 01012G23KT 9999 FEW036 FEW040CB 28/05 Q1020 A3014@CAELT@748.0 HR23 CB/NE FU CI NOSIG=@CAELT@
ZPX0632 061857@CAELT@GG SLZZYMYT@CAELT@061856 SLAGYSYX@CAELT@SABO SLAG 061900@CAELT@METAR SLAG 061900Z 09010KT 7000 NSC 33/13 Q1011 A2986 883.9 HR29 FU@CAELT@
ZPX0633 061857@CAELT@GG SLZZYMYT@CAELT@061857 SLCOYGYZ@CAELT@SABO SLCO 061900@CAELT@METAR SLCO 061900Z 36003KT 9999 FEW027 SCT200 36/24 Q1009 A2980 981.7@CAELT@HR51 FU=@CAELT@
ZPX0634 061857@CAELT@GG SLZZYMYT@CAELT@061857 SLETYMYC@CAELT@SABO SLET 061900@CAELT@METAR SLET 061900Z 33015KT 9999 NSC 34/18 Q1008 A2979 HR39 FU NOSIG=@CAELT@
ZPX0636 061901@CAELT@GG SLZZYMYT@CAELT@061901 SLVRYGYS@CAELT@SABO SLVR 061900@CAELT@METAR SLVR 061900Z 35011KT 8000 NSC 34/20 Q1009 A2981 HR44 FU NOSIG=@CAELT@METAR SLET 061900Z 33015KT 9999 NSC 34/18 Q1008 A2979 HR39 FU NOSIG=@CAELT@METAR SLAS 061900Z 27005KT 5000 FU NSC 39/23 Q1010 A2983 HR40 RWY NML@CAELT@METAR SLJV 061900Z 00000KT 3000 FU NSC 35 /20 Q1010 A2983 HR 45 RWY@CAELT@NML =METAR SLCP 061900Z 30005KT 8000 SCT020 35/22 Q1012 A2988 HR47 FU RWYNML=METAR SLSI 061900Z 36005KT 5000 FU SCT020 38/21 Q1008 A2977 HR37 RWYMETAR SLTI 061900Z 00000KT 5000 FU NSC 39/20 Q1010 A2983 HR32 RWY NMLMETAR SLJE 061900Z 32006KT 6000 NSC 40/20 Q1011 A2985 HR31 FU RWY NMLMETAR SLVG 061900Z 35015KT 9999 NSC 27/10 Q1021 A3015 HR28 FU CI RWYMETAR SLRB 061900Z 00000KT 8000 NSC 38/20 Q1009 A2980 HR34 FU RWY NMLMETAR SLPS 061900Z 33004KT 8000 NSC 41/25 Q1007 A2974 HR40 FU=METAR SLCA 061900Z 18004KT 9999 NSC 35/12 Q1010 A2983 HR26 FU RWY NML
ZPX0637 061902@CAELT@GG SLZZYMYT@CAELT@061900 SLCBYGYS@CAELT@SABO SLCB 061900@CAELT@METAR SLCB 061900Z 01012G23KT 9999 FEW036 FEW040CB 28/05 Q1020 A3014@CAELT@748.0 HR23 CB/NE FU CI NOSIG=@CAELT@METAR SLAL 061900Z 36018KT 9999 FEW020 23/01 Q1026 A3030 701.7 HR25=@CAELT@METAR SLPO 061900Z NIL=@CAELT@METAR SLAG 061900Z 09010KT 7000 NSC 33/13 Q1011 A2986 883.9 HR29 FUMETAR SLVM 061900Z NIL=METAR SLTJ 061900Z 13018KT 9999 FEW040 29/09 Q1012 A2990 808.6 HR29METAR SLYA 061900Z NIL=METAR SLBJ 061900Z NIL=METAR SLHI 061900Z NIL=
ZPX0638 061902@CAELT@GG SLZZYMYT@CAELT@061902 SLLPYFYA@CAELT@SABO SLLP 061900@CAELT@METAR SLLP 061900Z 08014G24KT 9999 FEW023 FEW025CB SCT200 14/M03@CAELT@Q1036 A3061 627.0 HR30 P94// CB/SH W/NW FU AC NOSIG=@CAELT@METAR SLCO 061900Z 36003KT 9999 FEW027 SCT200 36/24 Q1009 A2980 981.7@CAELT@HR51 FU=@CAELT@METAR SLRY 061900Z 34006KT 8000 NSC 36/25 Q1006 A2973 HR52FU RWY NML=METAR SLRQ 061900Z 02005KT 8000 NSC 36/26 Q1007 A2976 983.6 HR56 FU=METAR SLSB 061900Z 30004KT 5000 FU NSC 36/25 Q1007 A2976 HR53 RWY NML
ZPX0644 061912@CAELT@GG SLZZYMYT@CAELT@061857 SLTRYGYS@CAELT@SABO SLTR 061900@CAELT@METAR SLTR 061900Z 32003KT 8000 FEW020 BKN200 36/24 Q1008 A2977@CAELT@989.6 HR53 FU NOSIG=@CAELT@METAR SLGM 061900Z 07016KT 5000 TS VCSH FU BKN017 FEW020CB BKN200@CAELT@29/24 Q1010 A2986 HR76 CB/SH NE/E/S/SW/W TS SW=@CAELT@METAR SLRI 061900Z 16015KT 5000 -TSRA BKN015 FEW020CB BKN070 26/25Q1011 A2986 HR92 CB/TS SE/S/W/NW=METAR SLSA 061900Z 34006KT 6000 FEW020 BKN200 36/23 Q1009 A2981HR47 FU=
ZPX0645 061912@CAELT@GG SLZZYMYT@CAELT@061857 SLTRYGYS@CAELT@SABO SLTR 061900@CAELT@METAR SLTR 061900Z 32003KT 8000 FEW020 BKN200 36/24 Q1008 A2977@CAELT@989.6 HR53 FU NOSIG=@CAELT@METAR SLGM 061900Z 07016KT 5000 TS VCSH FU BKN017 FEW020CB BKN200@CAELT@29/24 Q1010 A2986 HR76 CB/SH NE/E/S/SW/W TS SW=@CAELT@METAR SLRI 061900Z 16015KT 5000 -TSRA BKN015 FEW020CB BKN070 26/25Q1011 A2986 HR92 CB/TS SE/S/W/NW=METAR SLSA 061900Z 34006KT 6000 FEW020 BKN200 36/23 Q1009 A2981HR47 FU=
ZPX0646 061912@CAELT@GG SLZZYMYT@CAELT@061857 SLTRYGYS@CAELT@SABO SLTR 061900@CAELT@METAR SLTR 061900Z 32003KT 8000 FEW020 BKN200 36/24 Q1008 A2977@CAELT@989.6 HR53 FU NOSIG=@CAELT@METAR SLGM 061900Z 07016KT 5000 TS VCSH FU BKN017 FEW020CB BKN200@CAELT@29/24 Q1010 A2986 HR76 CB/SH NE/E/S/SW/W TS SW=@CAELT@METAR SLRI 061900Z 16015KT 5000 -TSRA BKN015 FEW020CB BKN070 26/25Q1011 A2986 HR92 CB/TS SE/S/W/NW=METAR SLSA 061900Z 34006KT 6000 FEW020 BKN200 36/23 Q1009 A2981HR47 FU=
ZPX0667 061950@CAELT@GG SLZZYMYT@CAELT@061948 SLPSZTZX@CAELT@SABO SLPS 062000@CAELT@METAR SLPS 062000Z 00000KT 6000 NSC 40/24 Q1006 A2971 HR38 FU=@CAELT@
ZPX0669 061953@CAELT@GG SLZZYMYT@CAELT@061953 SLRBYGYS@CAELT@SABO SLRB 062000@CAELT@METAR SLRB 062000Z 00000KT 8000 NSC 38/20 Q1009 A2980 HR35 FU RWY NML=@CAELT@
ZPX0671 061955@CAELT@GG SLZZYMYT@CAELT@061953 SLRYYSYX@CAELT@SABO SLRY 062000@CAELT@METAR SLRY 062000Z 34004KT 8000 NSC 36/24 Q1005 A2970 HR51 FU RWY NML@CAELT@
ZPX0672 061955@CAELT@GG SLZZYMYT@CAELT@061955 SLAGYSYX@CAELT@SABO SLAG 062000@CAELT@METAR SLAG 062000Z 09012KT 7000 NSC 33/12 Q1010 A2985 883.5 HR29 FU@CAELT@
ZPX0673 061955@CAELT@GG SLZZYMYT@CAELT@061955 SLRQYSYX@CAELT@SABO SLRQ 062000@CAELT@METAR SLRQ 062000Z 00000KT 8000 NSC 36/27 Q1006 A2973 982.7 HR57 FU=@CAELT@
ZPX0674 061955@CAELT@GG SLZZYMYT@CAELT@061956 SLVRYGYZ@CAELT@SABO SLVR 062000@CAELT@METAR SLVR 062000Z 36010KT 8000 NSC 34/20 Q1008 A2979 HR44 FU NOSIG=@CAELT@
ZPX0675 061955@CAELT@GG SLZZYMYT@CAELT@061955 SLTJYGYZ@CAELT@SABO SLTJ 062000@CAELT@METAR SLTJ 062000Z 13015KT 9999 FEW040 28/08 Q1013 A2991 809.1 HR28@CAELT@
ZPX0676 061956@CAELT@GG SLZZYMYT@CAELT@061955 SLSBYSYX@CAELT@SABO SLSB 062000@CAELT@METAR SLSB 062000Z 00000KT 5000 FU NSC 36/25 Q1006 A2973 HR53 RWY NML=@CAELT@
ZPX0677 061956@CAELT@GG SLZZYMYT@CAELT@061955 SLSAYGYS@CAELT@SABO SLSA 062000@CAELT@METAR SLSA 062000Z 36010KT 6000 TS VCSH SCT020 FEW023CB BKN200 35/23@CAELT@Q1008 A2978 HR48 FU CB/SH N/SW/W/NW TS SW/W=@CAELT@
ZPX0678 061956@CAELT@GG SLZZYMYT@CAELT@061957 SLLPYGYZ@CAELT@SABO SLLP 062000@CAELT@METAR SLLP 062000Z 04009KT 010V080 9999 SCT023 FEW025CB 14/M01@CAELT@Q1036 A3061 626.9 HR34 P94// CB/SH W/NW FU AC/CI NOSIG=@CAELT@
ZPX0679 061957@CAELT@GG SLZZYMYT@CAELT@061956 SLETYMYC@CAELT@SABO SLET 062000@CAELT@METAR SLET 062000Z 33011KT 9999 NSC 34/19 Q1008 A2977 HR40 FU NOSIG=@CAELT@
ZPX0680 061957@CAELT@GG SLZZYMYT@CAELT@061957 SLCOYGYZ@CAELT@SABO SLCO 062000@CAELT@METAR SLCO 062000Z 00000KT 9999 FEW030 36/24 Q1008 A2977 980.7 HR50@CAELT@FU CI=@CAELT@
ZPX0681 061958@CAELT@GG SLZZYMYT@CAELT@061956 SLTRYGYZ@CAELT@SABO SLTR 062000@CAELT@METAR SLTR 062000Z 35003KT 8000 FEW020 FEW023CB BKN200 36/25@CAELT@Q1007 A2974 988.8 HR51 FU CB N/NE NOSIG=@CAELT@
ZPX0682 061958@CAELT@GG SLZZYMYT@CAELT@061958 SLCBYGYZ@CAELT@SABO SLCB 062000@CAELT@METAR SLCB 062000Z 36018KT 9999 FEW036 FEW040CB 27/05 Q1020 A3013 747@CAELT@.7 HR23 CB/N/NE FU CI NOSIG=@CAELT@
ZPX0683 061959@CAELT@GG SLZZYMYT@CAELT@061959 SLVRYGYS@CAELT@SABO SLVR 062000@CAELT@METAR SLVR 062000Z 36010KT 8000 NSC 34/20 Q1008 A2979 HR44 FU NOSIG=@CAELT@METAR SLET 062000Z 33011KT 9999 NSC 34/19 Q1008 A2977 HR40 FU NOSIG=@CAELT@METAR SLAS 062000Z 00000KT 5000 FU NSC 37/24 Q1009 A2980 HR47 RWY NML@CAELT@METAR SLJV 062000Z 00000KT 3000 FU NSC 35/22 Q1009 A2980 HR44 RWY NML@CAELT@METAR SLCP 062000Z 30010KT 6000 SCT020 33/21 Q1012 A2988 HR49 FU RWYNML=METAR SLSI 062000Z 36005KT 5000 FU BKN020 37/22 Q1007 A2974 HR43 RWYMETAR SLTI 062000Z 00000KT 5000 FU NSC 39/19 Q1010 A2983 HR31 RWY NMLMETAR SLJE 062000Z 32006KT 6000 FEW020 40/20 Q1010 A2983 HR31 FU RWYMETAR SLVG 062000Z 36013KT 9999 NSC 26/10 Q1021 A3015 HR32 FU CI RWYMETAR SLRB 062000Z 00000KT 8000 NSC 38/20 Q1009 A2980 HR35 FU RWY NMLMETAR SLPS 062000Z 00000KT 6000 NSC 40/24 Q1006 A2971 HR38 FU=METAR SLCA 062000Z 12006KT 9999 NSC 35/12 Q1009 A2980 HR25 FU RWY NML
ZPX0685 061959@CAELT@GG SLZZYMYT@CAELT@061958 SLTRYGYS@CAELT@SABO SLTR 062000@CAELT@METAR SLTR 062000Z 35003KT 8000 FEW020 FEW023CB BKN200 36/25@CAELT@Q1007 A2974 988.8 HR51 FU CB N/NE NOSIG=@CAELT@METAR SLGM 062000Z 04012KT 7000 VCSH SCT017 FEW020CB OVC200 30/23@CAELT@Q1009 A2980 HR68 FU RETS CB/SH N/NE/SW=@CAELT@METAR SLRI 062000Z NIL=METAR SLSA 062000Z 36010KT 6000 TS VCSH SCT020 FEW023CB BKN200 35/23Q1008 A2978 HR48 FU CB/SH N/SW/W/NW TS SW/W=
ZPX0688 062002@CAELT@GG SLZZYMYT@CAELT@062001 SLCBYGYS@CAELT@SABO SLCB 062000@CAELT@METAR SLCB 062000Z 36018KT 9999 FEW036 FEW040CB 27/05 Q1020 A3013@CAELT@747.7 HR23 CB/N/NE FU CI NOSIG=@CAELT@METAR SLAL 062000Z 04014KT 9999 FEW020 22/03 Q1025 A3029 701.3 HR30=@CAELT@METAR SLPO 062000Z NIL=@CAELT@METAR SLAG 062000Z 09012KT 7000 NSC 33/12 Q1010 A2985 883.5 HR29 FUMETAR SLVM 062000Z NIL=METAR SLTJ 062000Z 13015KT 9999 FEW040 28/08 Q1013 A2991 809.1 HR28METAR SLYA 062000Z NIL=METAR SLBJ 062000Z NIL=METAR SLHI 062000Z NIL=
ZPX0690 062003@CAELT@GG SLZZYMYT@CAELT@062000 SLLPYFYA@CAELT@SABO SLLP 062000@CAELT@METAR SLLP 062000Z 04009KT 010V080 9999 SCT023 FEW025CB 14/M01@CAELT@Q1036 A3061 626.9 HR34 P94// CB/SH W/NW FU AC/CI NOSIG=@CAELT@METAR SLCO 062000Z 00000KT 9999 FEW030 36/24 Q1008 A2977 980.7 HR50@CAELT@FU CI=@CAELT@METAR SLRY 062000Z 34004KT 8000 NSC 36/24 Q1005 A2970 HR51 FURWY NML=METAR SLRQ 062000Z 00000KT 8000 NSC 36/27 Q1006 A2973 982.7 HR57 FU=METAR SLSB 062000Z 00000KT 5000 FU NSC 36/25 Q1006 A2973 HR53 RWY NML=
ZPX0712 062053@CAELT@GG SLZZYMYT@CAELT@062053 SLRBYGYS@CAELT@SABO SLRB 062100@CAELT@METAR SLRB 062100Z 00000KT 8000 NSC 38/22 Q1009 A2980 HR40 FU RWY NML=@CAELT@
ZPX0713 062054@CAELT@GG SLZZYMYT@CAELT@062053 SLETYMYC@CAELT@SABO SLET 062100@CAELT@METAR SLET 062100Z 33015KT 9999 NSC 33/19 Q1008 A2977 HR46 FU CI@CAELT@NOSIG=@CAELT@
ZPX0714 062054@CAELT@GG SLZZYMYT@CAELT@062054 SLSBYSYX@CAELT@SABO SLSB 062100@CAELT@METAR SLSB 062100Z 00000KT 5000 FU NSC 36/27 Q1006 A2971 HR59 RWY NML=@CAELT@
ZPX0715 062054@CAELT@GG SLZZYMYT@CAELT@062055 SLCOYGYZ@CAELT@SABO SLCO 062100@CAELT@METAR SLCO 062100Z 26003KT 9999 FEW030 FEW033CB SCT200 36/23 Q1007@CAELT@A2975 980.2 HR49 FU CB/N AC=@CAELT@
ZPX0716 062055@CAELT@GG SLZZYMYT@CAELT@062056 SLVRYGYZ@CAELT@SABO SLVR 062100@CAELT@METAR SLVR 062100Z 35011KT 8000 NSC 33/19 Q1008 A2978 HR45 FU CI@CAELT@NOSIG=@CAELT@
ZPX0717 062055@CAELT@GG SLZZYMYT@CAELT@062055 SLCBYGYZ@CAELT@SABO SLCB 062100@CAELT@METAR SLCB 062100Z 36012KT 9999 FEW036 FEW040CB 26/04 Q1020 A3014 748@CAELT@.0 HR24 CB/N/NE FU CI NOSIG=@CAELT@
ZPX0718 062056@CAELT@GG SLZZYMYT@CAELT@062055 SLRQYSYX@CAELT@SABO SLRQ 062100@CAELT@METAR SLRQ 062100Z 00000KT 8000 NSC 35/27 Q1006 A2971 982.2 HR61 FU=@CAELT@
ZPX0719 062056@CAELT@GG SLZZYMYT@CAELT@062055 SLTJYGYZ@CAELT@SABO SLTJ 062100@CAELT@METAR SLTJ 062100Z 13011KT 9999 FEW040 27/08 Q1014 A2995 810.2 HR30@CAELT@
ZPX0720 062056@CAELT@GG SLZZYMYT@CAELT@062054 SLRYYSYX@CAELT@SABO SLRY 062100@CAELT@METAR SLRY 062100 00000KT 8000 NSC 36/26 Q1005 A2969 HR55 FU RWY NML=@CAELT@
ZPX0721 062057@CAELT@GG SLZZYMYT@CAELT@062057 SLLPYGYZ@CAELT@SABO SLLP 062100@CAELT@METAR SLLP 062100Z 05010KT 9999 SCT023 FEW025CB 12/M01 Q1036@CAELT@A3061 627.0 HR41 P94// CB/SH/W FU AC/CI NOSIG=@CAELT@
ZPX0722 062057@CAELT@GG SLZZYMYT@CAELT@062057 SLCAYGYS@CAELT@SABO SLCA 062100@CAELT@METAR SLCA 062100Z 18005KT 9999 NSC 35/14 Q1009 A2980 HR29 FU RWY NML@CAELT@
ZPX0723 062057@CAELT@GG SLZZYMYT@CAELT@062056 SLTRYGYZ@CAELT@SABO SLTR 062100@CAELT@METAR SLTR 062100Z 35008KT 7000 VCSH FEW020 FEW023CB BKN200 36/24@CAELT@Q1007 A2976 989.4 HR51 FU CB/SH N/NE/E TEMPO TSRA=@CAELT@
ZPX0727 062059@CAELT@GG SLZZYMYT@CAELT@062059 SLCBYGYS@CAELT@SABO SLCB 062100@CAELT@METAR SLCB 062100Z 36012KT 9999 FEW036 FEW040CB 26/04 Q1020 A3014@CAELT@748.0 HR24 CB/N/NE FU CI NOSIG=@CAELT@METAR SLTJ 062100Z 13011KT 9999 FEW040 27/08 Q1014 A2995 810.2 HR30@CAELT@
ZPX0732 062101@CAELT@GG SLZZYMYT@CAELT@062100 SLTRYGYS@CAELT@SABO SLTR 062100@CAELT@METAR SLTR 062100Z 35008KT 7000 VCSH FEW020 FEW023CB BKN200 36/24@CAELT@Q1007 A2976 989.4 HR51 FU CB/SH N/NE/E TEMPO TSRA=@CAELT@METAR SLGM 062100Z 04010KT 7000 VCSH FEW017 FEW020CB OVC200 30/23@CAELT@Q1009 A2981 HR70 FU CB/SH NE/SW=@CAELT@METAR SLRI 062100Z 14006KT 5000 FU SCT015 FEW020CB OVC200 26/24 Q1010A2984 HR85 CB NW=METAR SLSA 062100Z 32010KT 6000 TS VCSH SCT020 FEW023CB BKN200 30/22Q1009 A2982 HR60 FU CB/SH S/SW/W/NW TS S/SW=
ZPX0737 062103@CAELT@GG SLZZYMYT@CAELT@062103 SLVRYGYS@CAELT@SABO SLVR 062100@CAELT@METAR SLVR 062100Z 35011KT 8000 NSC 33/19 Q1008 A2978 HR45 FU CI@CAELT@NOSIG=@CAELT@METAR SLET 062100Z 33015KT 9999 NSC 33/19 Q1008 A2977 HR46 FU CI@CAELT@METAR SLAS 062100Z 36005KT 4000 FU NSC 36/23 Q1009 A2980 HR47 RWY NML@CAELT@METAR SLJV 062100Z 00000KT 3000 FU NSC 33/21 Q1009 A2980 HR47 RWY NMLMETAR SLCP 062100Z 30010KT 6000 SCT020 FEW030CB 33/21 Q1012 A2988HR49 CB/E FU RWY NML=METAR SLSI 062100Z 00000KT 5000 FU BKN020 FEW025CB 31/24 Q1008 A2977HR65 CB/NE/N/SW RWY NML=METAR SLTI 062100Z 00000KT 5000 FU NSC 38/19 Q1010 A2983 HR33 RWY NMLMETAR SLJE 062100Z 35012KT 6000 FEW020 FEW030CB 38/20 Q1010 A2983HR36 CB/N FU RWY NML=METAR SLVG 062100Z 36010KT 9999 NSC 25/10 Q1021 A3015 HR33 FU RWY NMLMETAR SLRB 062100Z 00000KT 8000 NSC 38/22 Q1009 A2980 HR40 FU RWY NMLMETAR SLPS 062100Z 00000KT 6000 NSC 40/25 Q1006 A2971 HR44 FU=METAR SLCA 062100Z 18005KT 9999 NSC 35/14 Q1009 A2980 HR29 FU RWY NML
ZPX0753 062154@CAELT@GG SLZZYMYT@CAELT@062153 SLRBYGYS@CAELT@SABO SLRB 062200@CAELT@METAR SLRB 062200Z 00000KT 8000 NSC 37/22 Q1009 A2980 HR42 FU RWY NML=@CAELT@
ZPX0754 062154@CAELT@GG SLZZYMYT@CAELT@062154 SLETYMYC@CAELT@SABO SLET 062200@CAELT@METAR SLET 062200Z 31008KT 9999 NSC 31/20 Q1008 A2977 HR53 FU CI@CAELT@NOSIG=@CAELT@
ZPX0755 062154@CAELT@GG SLZZYMYT@CAELT@062154 SLCAYGYS@CAELT@SABO SLCA 062200@CAELT@METAR SLCA 062200Z 18003KT 9999 NSC 33/13 Q1010 A2983 HR31 FU RWY NML@CAELT@
ZPX0756 062155@CAELT@GG SLZZYMYT@CAELT@062155 SLVRYGYZ@CAELT@SABO SLVR 062200@CAELT@METAR SLVR 062200Z 36007KT 8000 NSC 31/20 Q1008 A2978 HR53 FU CI@CAELT@NOSIG=@CAELT@
ZPX0757 062156@CAELT@GG SLZZYMYT@CAELT@062155 SLRQYSYX@CAELT@SABO SLRQ 062200@CAELT@METAR SLRQ 062200Z 00000KT 8000 NSC 33/28 Q1006 A2972 982.3 HR72 FU=@CAELT@
ZPX0759 062156@CAELT@GG SLZZYMYT@CAELT@062155 SLSAYGYS@CAELT@SABO SLSA 062200@CAELT@METAR SLSA 062200Z 27008KT 6000 TS VCSH SCT020 FEW023CB OVC200 28/22@CAELT@Q1009 A2980 HR72 FU CB/SH S/SW/W TS W=@CAELT@
ZPX0760 062156@CAELT@GG SLZZYMYT@CAELT@062155 SLSAYGYS@CAELT@SABO SLSA 062200@CAELT@METAR SLSA 062200Z 27008KT 6000 TS VCSH SCT020 FEW023CB OVC200 28/22@CAELT@Q1009 A2980 HR72 FU CB/SH S/SW/W TS W=@CAELT@
ZPX0761 062157@CAELT@GG SLZZYMYT@CAELT@062154 SLRYYSYX@CAELT@SABO SLRY 062200@CAELT@METAR SLRY 062200Z 00000KT 8000 NSC 35/26 Q1005 A2968 HR62 FU RWY NML@CAELT@
ZPX0762 062157@CAELT@GG SLZZYMYT@CAELT@062156 SLPSZTZX@CAELT@SABO SLPS 062200@CAELT@METAR SLPS 062200Z 00000KT 6000 SCT070 37/26 Q1006 A2971 HR53 FU=@CAELT@
ZPX0763 062158@CAELT@GG SLZZYMYT@CAELT@062156 SLTRYGYZ@CAELT@SABO SLTR 062200@CAELT@METAR SLTR 062200Z 08015KT 7000 VCSH FEW020 FEW023CB BKN200@CAELT@29/20 Q1007 A2976 989.2 HR58 FU CB/SH N/NE/E/NW TEMPO TSRA=@CAELT@
ZPX0764 062158@CAELT@GG SLZZYMYT@CAELT@062159 SLCOYGYZ@CAELT@SABO SLCO 062200@CAELT@METAR SLCO 062200Z 27003KT 9999 FEW030 FEW033CB SCT200 34/25 Q1007@CAELT@A2976 980.5 HR58 FU CB/NE/E AC=@CAELT@
ZPX0765 062159@CAELT@GG SLZZYMYT@CAELT@062159 SLCBYGYZ@CAELT@SABO SLCB 062200@CAELT@METAR SLCB 062200Z 36010KT 300V060 9999 FEW036 FEW040CB 24/03 Q1021@CAELT@A3016 748.5 HR26 CB N/NE FU CI NOSIG=@CAELT@
ZPX0766 062159@CAELT@GG SLZZYMYT@CAELT@062159 SLTRYGYS@CAELT@SABO SLTR 062200@CAELT@METAR SLTR 062200Z 08015KT 7000 VCSH FEW020 FEW023CB BKN200@CAELT@29/20 Q1007 A2976 989.2 HR58 FU CB/SH N/NE/E/NW TEMPO TSRA=@CAELT@METAR SLGM 062200Z 05008KT 7000 VCSH FEW017 FEW020CB OVC200 29/23@CAELT@Q1009 A2982 HR72 FU CB/SH NE/SW/W=@CAELT@METAR SLRI 062200Z 00000KT 5000 FU SCT015 FEW020CB OVC200 27/24Q1010 A2985 HR84 CB NW=METAR SLSA 062200Z 27008KT 6000 TS VCSH SCT020 FEW023CB OVC200 28/22Q1009 A2980 HR72 FU CB/SH S/SW/W TS W=
ZPX0767 062159@CAELT@GG SLZZYMYT@CAELT@062158 SLSBYSYX@CAELT@SABO SLSB 062200@CAELT@METAR SLSB 062200Z 00000KT 5000 FU NSC 34/26 Q1006 A2971 HR63 RWY NML=@CAELT@
ZPX0769 062200@CAELT@GG SLZZYMYT@CAELT@062200 SLVRYGYS@CAELT@SABO SLVR 062200@CAELT@METAR SLVR 062200Z 36007KT 8000 NSC 31/20 Q1008 A2978 HR53 FU CI@CAELT@NOSIG=@CAELT@METAR SLET 062200Z 31008KT 9999 NSC 31/20 Q1008 A2977 HR53 FU CI@CAELT@METAR SLAS 062200Z 36003KT 4000 FU NSC 34/23 Q1009 A2980 HR51 RWY NML@CAELT@METAR SLJV 062200Z 00000KT 3000 FU NSC 32/21 Q1009 A2980 HR52 RWY NMLMETAR SLCP 062200Z 00000KT 6000 SCT020 FEW030CB 32/21 Q1012 A2988HR53 CB/E FU RWY NML=METAR SLSI 062200Z 00000KT 5000 FU SCT020 BKN200 30/23 Q1009 A2980HR67 RWY NML=METAR SLTI 062200Z 00000KT 5000 FU NSC 35/20 Q1010 A2983 HR42 RWY NMLMETAR SLJE 062200Z 00000KT 6000 SCT020 FEW030CB 30/21 Q1011 A2985HR57 CB/NE/SW FU RETS RWY NML=METAR SLRB 062200Z 00000KT 8000 NSC 37/22 Q1009 A2980 HR42 FU RWY NMLMETAR SLPS 062200Z 00000KT 6000 SCT070 37/26 Q1006 A2971 HR53 FU=METAR SLCA 062200Z 18003KT 9999 NSC 33/13 Q1010 A2983 HR31 FU RWY NML
ZPX0770 062200@CAELT@GG SLZZYMYT@CAELT@062200 SLCBYGYS@CAELT@SABO SLCB 062200@CAELT@METAR SLCB 062200Z 36010KT 300V060 9999 FEW036 FEW040CB 24/03 Q1021@CAELT@A3016 748.5 HR26 CB N/NE FU CI NOSIG=@CAELT@
ZPX0771 062201@CAELT@GG SLZZYMYT@CAELT@062200 SLLPYGYZ@CAELT@SABO SLLP 062200@CAELT@METAR SLLP 062200Z 05011KT 9999 FEW020 SCT200 10/M01 Q1036@CAELT@A3061 627.0 HR46 P93// FU AC NOSIG=@CAELT@
ZPX0772 062202@CAELT@GG SLZZYMYT@CAELT@062201 SLLPYFYA@CAELT@SABO SLLP 062200@CAELT@METAR SLLP 062200Z 05011KT 9999 FEW020 SCT200 10/M01 Q1036@CAELT@A3061 627.0 HR46 P93// FU AC NOSIG=@CAELT@METAR SLCO 062200Z 27003KT 9999 FEW030 FEW033CB SCT200 34/25 Q1007@CAELT@A2976 980.5 HR58 FU CB/NE/E AC=@CAELT@METAR SLRY 062200Z 00000KT 8000 NSC 35/26 Q1005 A2968 HR62 FURWY NML=METAR SLRQ 062200Z 00000KT 8000 NSC 33/28 Q1006 A2972 982.3 HR72 FU=METAR SLSB 062200Z 00000KT 5000 FU NSC 34/26 Q1006 A2971 HR63 RWY NML
