
ZPX0007 060053@CAELT@GG SLZZYMYT@CAELT@060053 SLVRYGYZ@CAELT@SABO SLVR 060100@CAELT@METAR SLVR 060100Z 23005KT 5000 FU NSC 26/17 Q1008 A2978 HR57 NOSIG=@CAELT@
ZPX0008 060054@CAELT@GG SLZZYMYT@CAELT@060054 SLCBYGYZ@CAELT@SABO SLCB 060100@CAELT@METAR SLCB 060100Z 18005KT 9999 FEW036 BKN200 21/M02 Q1022 A3019 749.@CAELT@2 HR22 AC FU NOSIG=@CAELT@
ZPX0011 060056@CAELT@GG SLLPZRZX@CAELT@060056 SLLPYGYZ@CAELT@SABO SLLP 060100@CAELT@METAR SLLP 060100Z 06013KT 9999 FEW015 FEW017CB SCT200 11/M10@CAELT@Q1037 A3064 627.6 HR22 CB/LT SW/W AC NOSIG=@CAELT@
ZPX0024 060153@CAELT@GG SLZZYMYT@CAELT@060154 SLVRYGYZ@CAELT@SABO SLVR 060200@CAELT@METAR SLVR 060200Z 24006KT 5000 FU NSC 25/16 Q1008 A2979 HR58 NOSIG=@CAELT@
ZPX0025 060154@CAELT@GG SLZZYMYT@CAELT@060154 SLCBYGYZ@CAELT@SABO SLCB 060200@CAELT@METAR SLCB 060200Z 14006KT 9999 FEW036 BKN200 20/M01 Q1023 A3023 750.@CAELT@5 HR23 AC FU NOSIG=@CAELT@
ZPX0028 060156@CAELT@GG SLLPZRZX@CAELT@060156 SLLPYGYZ@CAELT@SABO SLLP 060200@CAELT@METAR SLLP 060200Z 24008KT 200V260 9999 FEW010 FEW017CB SCT200@CAELT@08/M01 Q1039 A3068 628.6 HR53 CB/LT SW/W AC NOSIG=@CAELT@
ZPX0040 060253@CAELT@GG SLZZYMYT@CAELT@060253 SLCBYGYZ@CAELT@SABO SLCB 060300@CAELT@METAR SLCB 060300Z 17005KT 9999 FEW036 SCT200 19/01 Q1024 A3026 751.2@CAELT@HR30 AC FU NOSIG=@CAELT@
ZPX0041 060255@CAELT@GG SLZZYMYT@CAELT@060255 SLVRYGYZ@CAELT@SABO SLVR 060300@CAELT@METAR SLVR 060300Z 24006KT 6000 NSC 24/16 Q1009 A2980 HR61 FU CI@CAELT@NOSIG=@CAELT@
ZPX0042 060256@CAELT@GG SLLPZRZX@CAELT@060256 SLLPYGYZ@CAELT@SABO SLLP 060300@CAELT@METAR SLLP 060300Z 21008KT 180V240 9999 FEW010 FEW017CB SCT200@CAELT@08/00 Q1039 A3069 628.9 HR57 CB/LT W AC NOSIG=@CAELT@
ZPX0049 060353@CAELT@GG SLZZYMYT@CAELT@060354 SLVRYGYZ@CAELT@SABO SLVR 060400@CAELT@METAR SLVR 060400Z 24005KT 7000 NSC 24/15 Q1008 A2979 HR60 FU NOSIG=@CAELT@
ZPX0050 060355@CAELT@GG SLLPZRZX@CAELT@060355 SLLPYGYZ@CAELT@SABO SLLP 060400@CAELT@METAR SLLP 060400Z 22005KT 190V260 9999 FEW010 SCT200 07/00@CAELT@Q1039 A3069 628.8 HR63 AC NOSIG=@CAELT@
ZPX0051 060356@CAELT@GG SLZZYMYT@CAELT@060355 SLCBYGYZ@CAELT@SABO SLCB 060400@CAELT@METAR SLCB 060400Z 14007KT 9999 FEW036 SCT200 18/02 Q1024 A3027 751.3@CAELT@HR34 AC FU NOSIG=@CAELT@
ZPX0060 060452@CAELT@GG SLZZYMYT@CAELT@060453 SLVRYGYZ@CAELT@SABO SLVR 060500@CAELT@METAR SLVR 060500Z 25006KT 6000 NSC 23/15 Q1008 A2978 HR61 FU NOSIG=@CAELT@
ZPX0061 060454@CAELT@GG SLZZYMYT@CAELT@060454 SLCBYGYZ@CAELT@SABO SLCB 060500@CAELT@METAR SLCB 060500Z 14006KT 9999 FEW036 SCT200 18/03 Q1024 A3027 751.3@CAELT@HR37 AC FU NOSIG=@CAELT@
ZPX0063 060502@CAELT@GG SLLPZRZX@CAELT@060500 SLLPYGYZ@CAELT@SABO SLLP 060500@CAELT@METAR SLLP 060500Z 04005KT 9999 FEW010 SCT200 04/M01 Q1038 A3066@CAELT@628.2 HR67 AC NOSIG=@CAELT@
ZPX0070 060554@CAELT@GG SLZZYMYT@CAELT@060554 SLCBYGYZ@CAELT@SABO SLCB 060600@CAELT@METAR SLCB 060600Z 15007KT 9999 FEW036 SCT200 17/02 Q1024 A3025 751.0@CAELT@HR39 AC FU NOSIG=@CAELT@
ZPX0071 060555@CAELT@GG SLZZYMYT@CAELT@060556 SLVRYGYZ@CAELT@SABO SLVR 060600@CAELT@METAR SLVR 060600Z 05003KT 6000 NSC 23/16 Q1008 A2979 HR62 FU NOSIG=@CAELT@
ZPX0072 060555@CAELT@GG SLLPZRZX@CAELT@060555 SLLPYGYZ@CAELT@SABO SLLP 060600@CAELT@METAR SLLP 060600Z 04004KT 9999 FEW010 03/M02 Q1037 A3063 627.5@CAELT@HR68 CI NOSIG=@CAELT@
ZPX0079 060653@CAELT@GG SLZZYMYT@CAELT@060654 SLCBYGYZ@CAELT@SABO SLCB 060700@CAELT@METAR SLCB 060700Z 12010KT 9999 FEW036 SCT200 16/03 Q1024 A3025 750.9@CAELT@HR41 AC FU NOSIG=@CAELT@
ZPX0080 060653@CAELT@GG SLZZYMYT@CAELT@060654 SLVRYGYZ@CAELT@SABO SLVR 060700@CAELT@METAR SLVR 060700Z VRB02KT 6000 NSC 23/15 Q1008 A2978 HR62 FU NOSIG=@CAELT@
ZPX0081 060656@CAELT@GG SLLPZRZX@CAELT@060655 SLLPYGYZ@CAELT@SABO SLLP 060700@CAELT@METAR SLLP 060700Z 08005KT 9999 FEW010 01/M03 Q1036 A3061 627.0@CAELT@HR76 AC/CI NOSIG=@CAELT@
ZPX0088 060753@CAELT@GG SLZZYMYT@CAELT@060754 SLCBYGYZ@CAELT@SABO SLCB 060800@CAELT@METAR SLCB 060800Z 12005KT 070V180 9999 FEW036 SCT200 16/03 Q1024@CAELT@A3026 751.1 HR42 AC FU NOSIG=@CAELT@
ZPX0089 060754@CAELT@GG SLZZYMYT@CAELT@060755 SLVRYGYZ@CAELT@SABO SLVR 060800@CAELT@METAR SLVR 060800Z 31004KT 5000 FU NSC 24/16 Q1008 A2979 HR64 NOSIG=@CAELT@
ZPX0090 060756@CAELT@GG SLLPZRZX@CAELT@060755 SLLPYGYZ@CAELT@SABO SLLP 060800@CAELT@METAR SLLP 060800Z 05007KT 9999 FEW010 03/M02 Q1036 A3061 627.0@CAELT@HR71 AC/CI NOSIG=@CAELT@
ZPX0099 060854@CAELT@GG SLZZYMYT@CAELT@060855 SLVRYGYZ@CAELT@SABO SLVR 060900@CAELT@METAR SLVR 060900Z 28006KT 5000 FU NSC 22/17 Q1009 A2982 HR69 NOSIG=@CAELT@
ZPX0100 060854@CAELT@GG SLZZYMYT@CAELT@060854 SLCBYGYZ@CAELT@SABO SLCB 060900@CAELT@METAR SLCB 060900Z 15004KT 9999 FEW036 SCT200 15/03 Q1025 A3028 751.6@CAELT@HR45 AC FU NOSIG=@CAELT@
ZPX0101 060856@CAELT@GG SLLPZRZX@CAELT@060855 SLLPYGYZ@CAELT@SABO SLLP 060900@CAELT@METAR SLLP 060900Z 07006KT 9999 FEW010 01/M03 Q1036 A3061 627.0@CAELT@HR74 CI NOSIG=@CAELT@
ZPX0102 060856@CAELT@GG SLZZYMYT@CAELT@060856 SLTRYGYZ@CAELT@SABO SLTR 060900@CAELT@METAR SLTR 060900Z 00000KT 2000 FU NSC 25/23 Q1007 A2975 989.1 HR90@CAELT@CI NOSIG=@CAELT@
ZPX0103 060857@CAELT@GG SLZZYMYT@CAELT@060856 SLTRYGYS@CAELT@SABO SLTR 060900@CAELT@METAR SLTR 060900Z 00000KT 2000 FU NSC 25/23 Q1007 A2975 989.1 HR90@CAELT@CI NOSIG=@CAELT@METAR SLRI 060900Z 00000KT 5000 FU NSC 25/24 Q1008 A2978 HR95=@CAELT@
ZPX0104 060858@CAELT@GG SLZZYMYT@CAELT@060857 SLPSZTZX@CAELT@SABO SLPS 060900@CAELT@METAR SLPS 060900Z 00000KT 9999 NSC 19/16 Q1009 A2980 HR82 FU=@CAELT@
ZPX0120 060948@CAELT@GG SLZZYMYT@CAELT@060947 SLPSZTZX@CAELT@SABO SLPS 061000@CAELT@METAR SLPS 061000Z 00000KT 9999 NSC 20/16 Q1010 A2983 HR78 FU=@CAELT@
ZPX0121 060952@CAELT@GG SLZZYMYT@CAELT@060952 SLETYMYC@CAELT@SABO SLET 061000@CAELT@METAR SLET 061000Z 18003KT 4000 FU NCS 25/15 Q1010 A2984 HR55 NOSIG=@CAELT@
ZPX0122 060954@CAELT@GG SLZZYMYT@CAELT@060954 SLSAYGYS@CAELT@SABO SLSA 061000@CAELT@METAR SLSA 061000Z 00000KT 5000 FU NSC 25/24 Q1007 A2976 HR90 CI=@CAELT@
ZPX0123 060954@CAELT@GG SLZZYMYT@CAELT@060953 SLRBYGYS@CAELT@SABO SLRB 061000@CAELT@METAR SLRB 061000Z 00000KT 9999 NSC 17/14 Q1013 A2991 HR86 RWY NML=@CAELT@
ZPX0124 060954@CAELT@GG SLZZYMYT@CAELT@060954 SLCBYGYZ@CAELT@SABO SLCB 061000@CAELT@METAR SLCB 061000Z 00000KT 7000 FEW036 SCT200 13/04 Q1026 A3030 752.3@CAELT@HR54 AC FU NOSIG=@CAELT@
ZPX0125 060955@CAELT@GG SLZZYMYT@CAELT@060955 SLUYYGYS@CAELT@SABO SLUY 061000@CAELT@METAR SLUY 061000Z 00000KT 9999 NSC 04/M02 Q1033 A3053 658.1@CAELT@HR69=@CAELT@
ZPX0126 060955@CAELT@GG SLZZYMYT@CAELT@060955 SLCAYGYS@CAELT@SABO SLCA 061000@CAELT@METAR SLCA 061000Z 00000KT 9999 NSC 16/09 Q1017 A3003 HR67 FU RWY NML@CAELT@
ZPX0127 060955@CAELT@GG SLZZYMYT@CAELT@060955 SLTRYGYZ@CAELT@SABO SLTR 061000@CAELT@METAR SLTR 061000Z 00000KT 2000 FU NSC 25/23 Q1008 A2977 989.7 HR87@CAELT@CI NOSIG=@CAELT@
ZPX0128 060956@CAELT@GG SLZZYMYT@CAELT@060955 SLRQYSYX@CAELT@SABO SLRQ 061000@CAELT@METAR SLRQ 061000Z 00000KT 4000 FU NSC 23/22 Q1008 A2978 984.3 HR93=@CAELT@
ZPX0129 060956@CAELT@GG SLZZYMYT@CAELT@060957 SLVRYGYZ@CAELT@SABO SLVR 061000@CAELT@METAR SLVR 061000Z 19006KT 5000 FU NSC 23/16 Q1010 A2984 HR65 NOSIG=@CAELT@
ZPX0130 060956@CAELT@GG SLZZYMYT@CAELT@060956 SLLPYFYA@CAELT@SABO SLAP 061000@CAELT@METAR SLAP 061000Z 00000KT 5000 FU FEW025 18/15 Q1020 A3012@CAELT@860.4 HR85 AC=@CAELT@
ZPX0131 060957@CAELT@GG SLZZYMYT@CAELT@060955 SLLPYGYZ@CAELT@SABO SLLP 061000@CAELT@METAR SLLP 061000Z 07006KT 8000 4000E VCFG FEW002 SCT200 01/M01 Q1037@CAELT@A3063 627.3 HR89 P4052 VCFG NE/E/SE AC FU NOSIG=@CAELT@
ZPX0132 060958@CAELT@GG SLZZYMYT@CAELT@060957 SLSBYSYX@CAELT@SABO SLSB 061000@CAELT@METAR SLSB 061000Z 22004KT 2000 FU NSC 22/22 Q1008 A2977 HR98 RWY NML=@CAELT@
ZPX0133 060958@CAELT@GG SLZZYMYT@CAELT@060958 SLCOYGYZ@CAELT@SABO SLCO 061000@CAELT@METAR SLCO 061000Z 00000KT 3000 FU FEW080 SCT200 24/23 Q1009 A2980@CAELT@981.7 HR91=@CAELT@
ZPX0134 060959@CAELT@GG SLZZYMYT@CAELT@060959 SLCBYGYS@CAELT@SABO SLCB 061000@CAELT@METAR SLCB 061000Z 00000KT 7000 FEW036 SCT200 13/04 Q1026 A3030 752.3@CAELT@HR54 AC FU NOSIG=@CAELT@METAR SLAL 061000Z 00000KT 6000 NSC 09/05 Q1030 A3043 704.6 HR79 FU@CAELT@
ZPX0136 061000@CAELT@GG SLZZYMYT@CAELT@061001 SLVRYGYS@CAELT@SABO SLVR 061000@CAELT@METAR SLVR 061000Z 19006KT 5000 FU NSC 23/16 Q1010 A2984 HR65 NOSIG=@CAELT@METAR SLET 061000Z 18003KT 4000 FU NCS 25/15 Q1010 A2984 HR55 NOSIG=@CAELT@METAR SLCP 061000Z NIL=@CAELT@METAR SLSI 061000Z 00000KT 2000 FU NSC 19/17 Q1010 A2983 HR86 RWY NML@CAELT@METAR SLRB 061000Z 00000KT 9999 NSC 17/14 Q1013 A2991 HR86 RWY NML=METAR SLPS 061000Z 00000KT 9999 NSC 20/16 Q1010 A2983 HR78 FU=METAR SLCA 061000Z 00000KT 9999 NSC 16/09 Q1017 A3003 HR67 FU RWY NML
ZPX0137 061000@CAELT@GG SLZZYMYT@CAELT@060959 SLLPYFYA@CAELT@SABO SLRY 061000@CAELT@METAR SLRY 061000Z 00000KT 2000 FU NSC 22/22 Q1006 A2972 HR97@CAELT@CI RWY NML=@CAELT@
ZPX0138 061001@CAELT@GG SLZZYMYT@CAELT@060959 SLTRYGYS@CAELT@SABO SLTR 061000@CAELT@METAR SLTR 061000Z 00000KT 2000 FU NSC 25/23 Q1008 A2977 989.7 HR87@CAELT@CI NOSIG=@CAELT@METAR SLGM 061000Z 02004KT 3000 FU FEW020 SCT200 25/24 Q1009 A2979@CAELT@HR92=@CAELT@METAR SLRI 061000Z 00000KT 5000 FU NSC 25/25 Q1009 A2980 HR96=METAR SLJO 061000Z 00000KT 5000 FU NSC 24/23 Q1009 A2980 HR97 CIRWY NML=METAR SLRA 061000Z 00000KT 5000 FU FEW020 BKN200 25/24 Q1007 A2974HR92 RWY NML=METAR SLMG 061000Z 00000KT 2000 FU NSC 24/23 Q1007 A2976 HR94 CIMETAR SLBU 061000Z NIL=METAR SLSA 061000Z 00000KT 5000 FU NSC 25/24 Q1007 A2976 HR90 CI=METAR SLSR 061000Z 00000KT 5000 FU NSC 23/21 Q1006 A2971 HR92 CIMETAR SLSM 061000Z 00000KT 1000 BR FU FEW008 22/21 Q1008 A2977 HR98CI RWY NML=
ZPX0141 061003@CAELT@GG SLZZYMYT@CAELT@061001 SLLPYFYA@CAELT@SABO SLLP 061000@CAELT@METAR SLLP 061000Z 07006KT 8000 4000E VCFG FEW002 SCT200 01/M01 Q1037@CAELT@A3063 627.3 HR89 P4052 VCFG NE/E/SE AC FU NOSIG=@CAELT@METAR SLCO 061000Z 00000KT 3000 FU FEW080 SCT200 24/23 Q1009 A2980@CAELT@981.7 HR91=@CAELT@METAR SLRY 061000Z 00000KT 2000 FU NSC 22/22 Q1006 A2972 HR97CI RWY NML=METAR SLRQ 061000Z 00000KT 4000 FU NSC 23/22 Q1008 A2978 984.3 HR93=METAR SLAP 061000Z 00000KT 5000 FU FEW025 18/15 Q1020 A3012860.4 HR85 AC=METAR SLSB 061000Z 22004KT 2000 FU NSC 22/22 Q1008 A2977 HR98 RWY NMLMETAR SLUY 061000Z 00000KT 9999 NSC 04/M02 Q1033 A3053 658.1HR69=
ZPX0163 061049@CAELT@GG SLZZYMYT@CAELT@061050 SLRQYSYX@CAELT@SABO SLRQ 061100@CAELT@METAR SLRQ 061100Z 00000KT 3000 FU NSC 24/23 Q1008 A2979 984.7 HR92=@CAELT@
ZPX0164 061050@CAELT@GG SLZZYMYT@CAELT@061050 SLPSZTZX@CAELT@SABO SLPS 061100@CAELT@METAR SLPS 061100Z 00000KT 9999 NSC 24/19 Q1011 A2986 HR70 FU=@CAELT@
ZPX0165 061052@CAELT@GG SLZZYMYT@CAELT@061052 SLETYMYC@CAELT@SABO SLET 061100@CAELT@METAR SLET 061100Z 21003KT 4000 FU NSC 26/15 Q1010 A2985 HR49 NOSIG=@CAELT@
ZPX0167 061054@CAELT@GG SLZZYMYT@CAELT@061053 SLRBYGYS@CAELT@SABO SLRB 061100@CAELT@METAR SLRB 061100Z 00000KT 9999 NSC 23/17 Q1013 A2991 HR69 RWY NML=@CAELT@
ZPX0168 061054@CAELT@GG SLZZYMYT@CAELT@061054 SLSBYSYX@CAELT@SABO SLSB 061100@CAELT@METAR SLSB 061100Z 00000KT 2000 FU NSC 23/22 Q1008 A2978 HR90 RWY NML=@CAELT@
ZPX0169 061055@CAELT@GG SLZZYMYT@CAELT@061055 SLTRYGYZ@CAELT@SABO SLTR 061100@CAELT@METAR SLTR 061100Z 00000KT 2000 FU NSC 25/23 Q1008 A2979 990.2 HR86@CAELT@CI NOSIG=@CAELT@
ZPX0171 061055@CAELT@GG SLZZYMYT@CAELT@061055 SLVRYGYZ@CAELT@SABO SLVR 061100@CAELT@METAR SLVR 061100Z VRB02KT 3000 FU NSC 25/17 Q1011 A2985 HR63 NOSIG=@CAELT@
ZPX0172 061055@CAELT@GG SLZZYMYT@CAELT@061056 SLCOYGYZ@CAELT@SABO SLCO 061100@CAELT@METAR SLCO 061100Z 00000KT 2000 FU FEW080 SCT200 25/23 Q1009 A2982@CAELT@982.4 HR91=@CAELT@
ZPX0173 061056@CAELT@GG SLZZYMYT@CAELT@061055 SLSAYGYS@CAELT@SABO SLSA 061100@CAELT@METAR SLSA 061100Z 00000KT 5000 FU NSC 26/23 Q1008 A2977 HR86 CI=@CAELT@
ZPX0174 061056@CAELT@GG SLZZYMYT@CAELT@061050 SLCAYGYS@CAELT@SABO SLCA 061100@CAELT@METAR SLCA 061100Z 00000KT 9999 NSC 17/10 Q1017 A3003 HR65 FU RWY NML@CAELT@
ZPX0175 061056@CAELT@GG SLZZYMYT@CAELT@061056 SLLPYFYA@CAELT@SABO SLRY 061100@CAELT@METAR SLRY 061100Z 00000KT 2000 FU NSC 23/22 Q1006 A2973 HR95@CAELT@CI RWY NML=@CAELT@
ZPX0177 061057@CAELT@GG SLZZYMYT@CAELT@061056 SLTJYGYZ@CAELT@SABO SLTJ 061100@CAELT@METAR SLTJ 061100Z 00000KT 9999 NSC 18/10 Q1021 A3016 816.1 HR60 FU=@CAELT@
ZPX0178 061057@CAELT@GG SLZZYMYT@CAELT@061056 SLORYGYZ@CAELT@SABO SLOR 061100@CAELT@METAR SLOR 061100Z 00000KT 9999 FEW017 SCT070 08/M01 Q1035 A3057 656.@CAELT@0 HR52 CI=@CAELT@
ZPX0179 061057@CAELT@GG SLZZYMYT@CAELT@061057 SLCBYGYZ@CAELT@SABO SLCB 061100@CAELT@METAR SLCB 061100Z 16003KT 7000 FEW036 SCT200 17/04 Q1026 A3032 752.8@CAELT@HR44 FU NOSIG=@CAELT@
ZPX0180 061057@CAELT@GG SLZZYMYT@CAELT@061055 SLUYYGYS@CAELT@SABO SLUY 061100@CAELT@METAR SLUY 061100Z 00000KT 9999 NSC 06/M01 Q1034 A3054 658.4@CAELT@HR57=@CAELT@
ZPX0181 061058@CAELT@GG SLZZYMYT@CAELT@061056 SLLPYGYZ@CAELT@SABO SLLP 061100@CAELT@METAR SLLP 061100Z 07005KT 8000 FEW004 SCT200 07/04 Q1037 A3064@CAELT@627.7 HR84 P4052 HZ S/SW/W AC FU NOSIG=@CAELT@
ZPX0183 061059@CAELT@GG SLZZYMYT@CAELT@061058 SLTRYGYS@CAELT@SABO SLTR 061100@CAELT@METAR SLTR 061100Z 00000KT 2000 FU NSC 25/23 Q1008 A2979 990.2 HR86@CAELT@CI NOSIG=@CAELT@METAR SLGM 061100Z 02004KT 3000 FU FEW020 SCT200 26/24 Q1009 A2980@CAELT@HR86=@CAELT@METAR SLRI 061100Z 00000KT 5000 FU NSC 26/24 Q1010 A2983 HR95 CI=METAR SLJO 061100Z 03003KT 5000 FU NSC 25/24 Q1009 A2981 HR95 CIRWY NML=METAR SLRA 061100Z 36003KT 5000 FU FEW020 BKN200 25/23 Q1007 A2976HR91 RWY NML=METAR SLMG 061100Z 00000KT 2000 FU SCT080 BKN200 25/24 Q1008 A2977HR93 RWY NML=METAR SLBU 061100Z NIL=METAR SLSA 061100Z 00000KT 5000 FU NSC 26/23 Q1008 A2977 HR86 CI=METAR SLSR 061100Z 00000KT 5000 FU NSC 23/21 Q1006 A2973 HR90 CIMETAR SLSM 061100Z 00000KT 1000 BR FU FEW008 SCT080 22/22 Q1008A2978 HR98 CI RWY NML=
ZPX0187 061100@CAELT@GG SLZZYMYT@CAELT@061100 SLVRYGYS@CAELT@SABO SLVR 061100@CAELT@METAR SLVR 061100Z VRB02KT 3000 FU NSC 25/17 Q1011 A2985 HR63 NOSIG=@CAELT@METAR SLET 061100Z 21003KT 4000 FU NSC 26/15 Q1010 A2985 HR49 NOSIG=@CAELT@METAR SLAS 061100Z 00000KT 0500 FU NSC 25/22 Q1011 A2986 HR85 RWY NML@CAELT@METAR SLJV 061100Z 00000KT 4000 FU NSC 25/20 Q1010 A2983 HR75 RWY NML@CAELT@METAR SLCP 061100Z 00000KT 0400 FG NSC 22/20 Q1014 A2994 HR90 CI RWYNML=METAR SLSI 061100Z 00000KT 2000 FU NSC 21/18 Q1011 A2985 HR82 RWY NMLMETAR SLTI 061100Z 00000KT 3000 FU NSC 22/15 Q1014 A2994 HR65 RWY NMLMETAR SLJE 061100Z 00000KT 5000 FU NSC 24/16 Q1013 A2991 HR760 RWYMETAR SLVG 061100Z 00000KT 4000 FU NSC 12/07 Q1025 A3027 HR73 RWY NMLMETAR SLRB 061100Z 00000KT 9999 NSC 23/17 Q1013 A2991 HR69 RWY NML=METAR SLPS 061100Z 00000KT 9999 NSC 24/19 Q1011 A2986 HR70 FU=METAR SLCA 061100Z 00000KT 9999 NSC 17/10 Q1017 A3003 HR65 FU RWY NML
ZPX0188 061101@CAELT@GG SLZZYMYT@CAELT@061100 SLCBYGYS@CAELT@SABO SLCB 061100@CAELT@METAR SLCB 061100Z 16003KT 7000 FEW036 SCT200 17/04 Q1026 A3032 752.8@CAELT@HR44 FU NOSIG=@CAELT@METAR SLAL 061100Z 35006KT 7000 NSC 10/06 Q1031 A3045 705.0 HR78 FU@CAELT@METAR SLVM 061100Z 00000KT 9999 NSC 21/16 Q1013 A2991 HR71 FU=@CAELT@METAR SLTJ 061100Z 00000KT 9999 NSC 18/10 Q1021 A3016 816.1 HR60 FU=METAR SLYA 061100Z 00000KT 9999 NSC 22/15 Q1013 A2994 938.6 HR67 FU=
ZPX0204 061140@CAELT@GG SLZZYMYT@CAELT@061140 SLPSZTZX@CAELT@SABO SLPS 061200@CAELT@METAR SLPS 061200Z 00000KT 9999 NSC 27/18 Q1011 A2986 HR58 FU=@CAELT@
ZPX0210 061153@CAELT@GG SLZZYMYT@CAELT@061151 SLETYMYC@CAELT@SABO SLET 061200@CAELT@METAR SLET 061200Z 19004KT 2500 FU NSC 29/14 Q1011 A2987 HR42 NOSIG=@CAELT@
ZPX0212 061153@CAELT@GG SLZZYMYT@CAELT@061154 SLORYGYZ@CAELT@SABO SLOR 061200@CAELT@METAR SLOR 061200Z 10003KT 9999 FEW017 SCT070 13/M00 Q1035 A3058 656.@CAELT@2 HR40 FU N/S/SW/NW CI=@CAELT@
ZPX0213 061154@CAELT@GG SLZZYMYT@CAELT@061155 SLVRYGYZ@CAELT@SABO SLVR 061200@CAELT@METAR SLVR 061200Z 24004KT 3000 FU NSC 28/19 Q1011 A2986 HR59 NOSIG=@CAELT@
ZPX0214 061154@CAELT@GG SLZZYMYT@CAELT@061154 SLSBYSYX@CAELT@SABO SLSB 061200@CAELT@METAR SLSB 061200Z 00000KT 2000 FU NSC 26/23 Q1009 A2980 HR84 RWY NML=@CAELT@
ZPX0215 061154@CAELT@GG SLZZYMYT@CAELT@061153 SLRBYGYS@CAELT@SABO SLRB 061200@CAELT@METAR SLRB 061200Z 00000KT 9999 NSC 27/20 Q1013 A2991 HR67 RWY NML=@CAELT@
ZPX0216 061155@CAELT@GG SLZZYMYT@CAELT@061155 SLTRYGYZ@CAELT@SABO SLTR 061200@CAELT@METAR SLTR 061200Z 00000KT 2000 FU NSC 27/24 Q1009 A2981 991.1 HR82@CAELT@CI NOSIG=@CAELT@
ZPX0218 061155@CAELT@GG SLZZYMYT@CAELT@061155 SLCOYGYZ@CAELT@SABO SLCO 061200@CAELT@METAR SLCO 061200Z 00000KT 2000 FU FEW080 SCT200 27/25 Q1010 A2984@CAELT@983.1 HR87=@CAELT@
ZPX0219 061155@CAELT@GG SLZZYMYT@CAELT@061155 SLSAYGYS@CAELT@SABO SLSA 061200@CAELT@METAR SLSA 061200Z 34004KT 5000 FU NSC 28/25 Q1009 A2979 HR82 CI=@CAELT@
ZPX0220 061156@CAELT@GG SLZZYMYT@CAELT@061155 SLTJYGYZ@CAELT@SABO SLTJ 061200@CAELT@METAR SLTJ 061200Z 13003KT 9999 FEW040 20/10 Q1021 A3017 816.4 HR51@CAELT@
ZPX0221 061156@CAELT@GG SLZZYMYT@CAELT@061156 SLCBYGYZ@CAELT@SABO SLCB 061200@CAELT@METAR SLCB 061200Z 23003KT 7000 FEW036 18/05 Q1027 A3033 753.0 HR40@CAELT@FU CI NOSIG=@CAELT@
ZPX0222 061156@CAELT@GG SLZZYMYT@CAELT@061156 SLLPYGYZ@CAELT@SABO SLLP 061200@CAELT@METAR SLLP 061200Z 11004KT 6000 FEW004 10/04 Q1038 A3066 628.2@CAELT@HR66 P4052 VIS/RED SC/BJOS NE/E/SE HZ S/SW/W FU CI NOSIG=@CAELT@
ZPX0223 061157@CAELT@GG SLZZYMYT@CAELT@061156 SLCAYGYS@CAELT@SABO SLCA 061200@CAELT@METAR SLCA 061200Z 00000KT 9999 NSC 20/12 Q1018 A3006 HR60 FU RWY NML@CAELT@
ZPX0224 061157@CAELT@GG SLZZYMYT@CAELT@061155 SLAGYSYX@CAELT@SABO SLAG 061200@CAELT@METAR SLAG 061200Z 00000KT 3000 FU NSC 22/12 Q1018 A3008 890.7 HR53@CAELT@
ZPX0225 061157@CAELT@GG SLZZYMYT@CAELT@061156 SLUYYGYS@CAELT@SABO SLUY 061200@CAELT@METAR SLUY 061200Z 25005KT 9999 NSC 09/01 Q1034 A3055 658.7@CAELT@HR55=@CAELT@
ZPX0226 061157@CAELT@GG SLZZYMYT@CAELT@061157 SLVRYGYS@CAELT@SABO SLVR 061200@CAELT@METAR SLVR 061200Z 24004KT 3000 FU NSC 28/19 Q1011 A2986 HR59 NOSIG=@CAELT@METAR SLET 061200Z 19004KT 2500 FU NSC 29/14 Q1011 A2987 HR42 NOSIG=@CAELT@METAR SLAS 061200Z 00000KT 0500 FU NSC 26/22 Q1012 A2989 HR77 RWY NML@CAELT@METAR SLJV 061200Z 00000KT 4000 FU NSC 27/20 Q1010 A2983 HR67 RWY NML@CAELT@METAR SLCP 061200Z 00000KT 0500 FU NSC 25/21 Q1014 A2994 HR82 CI RWYNML=METAR SLSI 061200Z 00000KT 2000 FU NSC 24/19 Q1012 A2988 HR73 RWY NMLMETAR SLTI 061200Z 00000KT 3000 FU NSC 26/16 Q1014 A2994 HR55 RWY NMLMETAR SLJE 061200Z 00000KT 5000 FU NSC 30/16 Q1014 A2994 HR45 RWY NMLMETAR SLVG 061200Z 00000KT 4000 FU NSC 18/08 Q1025 A3027 HR49 RWY NMLMETAR SLRB 061200Z 00000KT 9999 NSC 27/20 Q1013 A2991 HR67 RWY NML=METAR SLPS 061200Z 00000KT 9999 NSC 27/18 Q1011 A2986 HR58 FU=METAR SLCA 061200Z 00000KT 9999 NSC 20/12 Q1018 A3006 HR60 FU RWY NML
ZPX0227 061158@CAELT@GG SLZZYMYT@CAELT@061158 SLVRYGYS@CAELT@SABO SLVR 061200@CAELT@METAR SLVR 061200Z 24004KT 3000 FU NSC 28/19 Q1011 A2986 HR59 NOSIG=@CAELT@METAR SLET 061200Z 19004KT 2500 FU NSC 29/14 Q1011 A2987 HR42 NOSIG=@CAELT@METAR SLAS 061200Z 00000KT 0500 FU NSC 26/22 Q1012 A2989 HR77 RWY NML@CAELT@METAR SLJV 061200Z 00000KT 4000 FU NSC 27/20 Q1010 A2983 HR67 RWY NML@CAELT@METAR SLCP 061200Z 00000KT 0500 FU NSC 25/21 Q1014 A2994 HR82 CI RWYNML=METAR SLSI 061200Z 00000KT 2000 FU NSC 24/19 Q1012 A2988 HR73 RWY NMLMETAR SLTI 061200Z 00000KT 3000 FU NSC 26/16 Q1014 A2994 HR55 RWY NMLMETAR SLJE 061200Z 00000KT 5000 FU NSC 30/16 Q1014 A2994 HR45 RWY NMLMETAR SLVG 061200Z 00000KT 4000 FU NSC 18/08 Q1025 A3027 HR49 RWY NMLMETAR SLRB 061200Z 00000KT 9999 NSC 27/20 Q1013 A2991 HR67 RWY NML=METAR SLPS 061200Z 00000KT 9999 NSC 27/18 Q1011 A2986 HR58 FU=METAR SLCA 061200Z 00000KT 9999 NSC 20/12 Q1018 A3006 HR60 FU RWY NML
ZPX0228 061159@CAELT@GG SLZZYMYT@CAELT@061158 SLRQYSYX@CAELT@SABO SLRQ 061200@CAELT@METAR SLRQ 061200Z 00000KT 3000 FU NSC 26/24 Q1009 A2982 985.7 HR87=@CAELT@
ZPX0231 061200@CAELT@GG SLZZYMYT@CAELT@061200 SLTRYGYS@CAELT@SABO SLTR 061200@CAELT@METAR SLTR 061200Z 00000KT 2000 FU NSC 27/24 Q1009 A2981 991.1 HR82@CAELT@CI NOSIG=@CAELT@METAR SLGM 061200Z 02006KT 5000 FU NSC 28/24 Q1010 A2982 HR79 CI=@CAELT@METAR SLRI 061200Z 03006KT 5000 FU NSC 28/25 Q1011 A2986 HR82 CI=@CAELT@METAR SLJO 061200Z 03003KT 5000 FU NSC 27/25 Q1010 A2983 HR86 CIRWY NML=METAR SLRA 061200Z 36004KT 5000 FU FEW020 BKN200 29/24 Q1008 A2977HR79 RWY NML=METAR SLMG 061200Z 00000KT 1000 FU SCT080 BKN200 27/24 Q1008 A2979HR80 RWY NML=METAR SLBU 061200Z 00000KT 3000 FU NSC 26/24 Q1008 A2978 HR86 CIMETAR SLSA 061200Z 34004KT 5000 FU NSC 28/25 Q1009 A2979 HR82 CI=METAR SLSR 061200Z 00000KT 5000 FU NSC 25/22 Q1007 A2976 HR86 CIMETAR SLSM 061200Z 00000KT 2000 FU FEW080 26/23 Q1009 A2980 HR83CI RWY NML=
ZPX0233 061202@CAELT@GG SLZZYMYT@CAELT@061200 SLCBYGYS@CAELT@SABO SLCB 061200@CAELT@METAR SLCB 061200Z 23003KT 7000 FEW036 18/05 Q1027 A3033 753.0 HR40@CAELT@FU CI NOSIG=@CAELT@METAR SLAL 061200Z 33005KT 7000 NSC 12/04 Q1031 A3046 705.3 HR59 FU@CAELT@METAR SLPO 061200Z 23003KT 9999 FEW070 09/04 Q1037 A3062 637.4 HR69=@CAELT@METAR SLAG 061200Z 00000KT 3000 FU NSC 22/12 Q1018 A3008 890.7 HR53METAR SLVM 061200Z 00000KT 9999 NSC 25/17 Q1013 A2993 HR59 FU CI=METAR SLTJ 061200Z 13003KT 9999 FEW040 20/10 Q1021 A3017 816.4 HR51METAR SLYA 061200Z 00000KT 9999 NSC 28/16 Q1014 A2995 939.0 HR48=METAR SLBJ 061200Z NIL=METAR SLHI 061200Z NIL=
ZPX0236 061205@CAELT@GG SLZZYMYT@CAELT@061201 SLLPYFYA@CAELT@SABO SLRY 061200@CAELT@METAR SLRY 061200Z 00000KT 2000 FU NSC 26/22 Q1007 A2976 HR81 RWY NML=@CAELT@
ZPX0237 061207@CAELT@GG SLZZYMYT@CAELT@061201 SLLPYFYA@CAELT@SABO SLLP 061200@CAELT@METAR SLLP 061200Z 11004KT 6000 FEW004 10/04 Q1038 A3066 628.2@CAELT@HR66 P4052 VIS/RED SC/BJOS NE/E/SE HZ S/SW/W FU CI NOSIG=@CAELT@METAR SLCO 061200Z 00000KT 2000 FU FEW080 SCT200 27/25 Q1010 A2984@CAELT@983.1 HR87=@CAELT@METAR SLRY 061200Z 00000KT 2000 FU NSC 26/22 Q1007 A2976 HR81 RWY NMLMETAR SLRQ 061200Z 00000KT 3000 FU NSC 26/24 Q1009 A2982 985.7 HR87=METAR SLAP 061200Z 00000KT 5000 FU FEW025 21/17 Q1019 A3009 859.5HR78=METAR SLSB 061200Z 00000KT 2000 FU NSC 26/23 Q1009 A2980 HR84 RWY NMLMETAR SLOR 061200Z 10003KT 9999 FEW017 SCT070 13/M00 Q1035 A3058 656.2 HR40 FU N/S/SW/NW CI=METAR SLUY 061200Z 25005KT 9999 NSC 09/01 Q1034 A3055 658.7HR55=
ZPX0254 061248@CAELT@GG SLZZYMYT@CAELT@061248 SLPSZTZX@CAELT@SABO SLPS 061300@CAELT@METAR SLPS 061300Z 00000KT 9999 NSC 31/20 Q1011 A2986 HR51 FU=@CAELT@
ZPX0255 061252@CAELT@GG SLZZYMYT@CAELT@061252 SLETYMYC@CAELT@SABO SLET 061300@CAELT@METAR SLET 061300Z 19004KT 2500 FU NSC 31/14 Q1011 A2987 HR36 NOSIG=@CAELT@
ZPX0258 061253@CAELT@GG SLZZYMYT@CAELT@061253 SLCAYGYS@CAELT@SABO SLCA 061300@CAELT@METAR SLCA 061300Z 00000KT 9999 NSC 26/12 Q1017 A3003 HR42 FU RWY NML@CAELT@
ZPX0259 061255@CAELT@GG SLZZYMYT@CAELT@061255 SLVRYGYZ@CAELT@SABO SLVR 061300@CAELT@METAR SLVR 061300Z VRB02KT 3000 FU NSC 32/16 Q1011 A2987 HR39 NOSIG=@CAELT@
ZPX0260 061255@CAELT@GG SLZZYMYT@CAELT@061255 SLCOYGYZ@CAELT@SABO SLCO 061300@CAELT@METAR SLCO 061300Z 36004KT 2000 FU FEW080 SCT200 29/26 Q1010 A2985@CAELT@983.5 HR82=@CAELT@
ZPX0261 061256@CAELT@GG SLZZYMYT@CAELT@061256 SLUYYGYS@CAELT@SABO SLUY 061300@CAELT@METAR SLUY 061300Z 33008KT 9999 FEW025 13/00 Q1034 A3055 658.7@CAELT@HR41=@CAELT@
ZPX0262 061256@CAELT@GG SLZZYMYT@CAELT@061256 SLLPYGYZ@CAELT@SABO SLLP 061300@CAELT@METAR SLLP 061300Z 12004KT 060V190 6000 FEW005 11/04 Q1038 A3068@CAELT@628.5 HR60 P4052 VIS/RED SC/BJOS NE/E/SE FU CI NOSIG=@CAELT@
ZPX0263 061256@CAELT@GG SLZZYMYT@CAELT@061256 SLORYGYZ@CAELT@SABO SLOR 061300@CAELT@METAR SLOR 061300Z 36003KT 9999 FEW017 SCT070 15/M02 Q1035 A3059 656.@CAELT@5 HR33 CI=@CAELT@
ZPX0264 061256@CAELT@GG SLZZYMYT@CAELT@061256 SLRQYSYX@CAELT@SABO SLRQ 051300@CAELT@METAR SLRQ 051300Z 00000KT 3000 FU NSC 31/25 Q1010 A2983 986.0 HR68=@CAELT@
ZPX0265 061257@CAELT@GG SLZZYMYT@CAELT@061256 SLAGYSYX@CAELT@SABO SLAG 061300@CAELT@METAR SLAG 061300Z 00000KT 5000 FU NSC 27/12 Q1018 A3007 890.4 HR39@CAELT@
ZPX0267 061257@CAELT@GG SLZZYMYT@CAELT@061257 SLCBYGYZ@CAELT@SABO SLCB 061300@CAELT@METAR SLCB 061300Z 22003KT 8000 FEW036 21/04 Q1027 A3033 753.0 HR33@CAELT@FU CI NOSIG=@CAELT@
ZPX0268 061257@CAELT@GG SLZZYMYT@CAELT@061256 SLSBYSYX@CAELT@SABO SLSB 061300@CAELT@METAR SLSB 061300Z 00000KT 3000 FU NSC 30/23 Q1010 A2984 HR67 RWY NML=@CAELT@
ZPX0269 061257@CAELT@GG SLZZYMYT@CAELT@061253 SLRBYGYS@CAELT@SABO SLRB 061300@CAELT@METAR SLRB 061300Z 00000KT 9999 NSC 31/20 Q1013 A2991 HR51 RWY NML=@CAELT@
ZPX0270 061257@CAELT@GG SLZZYMYT@CAELT@061256 SLTJYGYZ@CAELT@SABO SLTJ 061300@CAELT@METAR SLTJ 061300Z 21005KT 9999 FEW040 23/10 Q1021 A3016 816.2 HR44@CAELT@
ZPX0273 061301@CAELT@GG SLZZYMYT@CAELT@061300 SLVRYGYS@CAELT@SABO SLVR 061300@CAELT@METAR SLVR 061300Z VRB02KT 3000 FU NSC 32/16 Q1011 A2987 HR39 NOSIG=@CAELT@METAR SLET 061300Z 19004KT 2500 FU NSC 31/14 Q1011 A2987 HR36 NOSIG=@CAELT@METAR SLAS 061300Z 00000KT 0500 FU NSC 29/22 Q1013 A2991 HR66 RWY NML@CAELT@METAR SLJV 061300Z 00000KT 3000 FU NSC 30/20 Q1011 A2985 HR57 RWY NML@CAELT@METAR SLCP 061300Z 00000KT 0500 FU NSC 28/21 Q1014 A2994 HR69 RWY NMLMETAR SLSI 061300Z 00000KT 2000 FU NSC 28/21 Q1012 A2988 HR66 RWY NMLMETAR SLTI 061300Z 00000KT 3000 FU NSC 35/15 Q1015 A2997 HR38 RWY NMLMETAR SLJE 061300Z 00000KT 4000 FU NSC 33/17 Q1014 A2994 HR40 RWY NMLMETAR SLVG 061300Z 00000KT 4000 FU NSC 22/10 Q1025 A3027 HR44 RWY NMLMETAR SLRB 061300Z 00000KT 9999 NSC 31/20 Q1013 A2991 HR51 RWY NML=METAR SLPS 061300Z 00000KT 9999 NSC 31/20 Q1011 A2986 HR51 FU=METAR SLCA 061300Z 00000KT 9999 NSC 26/12 Q1017 A3003 HR42 FU RWY NML=
ZPX0274 061301@CAELT@GG SLZZYMYT@CAELT@061300 SLCBYGYS@CAELT@SABO SLCB 061300@CAELT@METAR SLCB 061300Z 22003KT 8000 FEW036 21/04 Q1027 A3033 753.0 HR33@CAELT@FU CI NOSIG=@CAELT@METAR SLAL 061300Z 34005KT 8000 NSC 15/04 Q1031 A3046 705.3 HR50 FU@CAELT@METAR SLPO 061300Z 00000KT 9999 FEW070 12/04 Q1038 A3065 638.1 HR57=@CAELT@METAR SLAG 061300Z 00000KT 5000 FU NSC 27/12 Q1018 A3007 890.4 HR39METAR SLVM 061300Z 00000KT 9999 NSC 29/17 Q1013 A2994 HR49 FU CI=METAR SLTJ 061300Z 21005KT 9999 FEW040 23/10 Q1021 A3016 816.2 HR44METAR SLYA 061300Z 00000KT 9999 NSC 31/17 Q1014 A2996 939.3 HR42=METAR SLBJ 061300Z NIL=METAR SLHI 061300Z NIL=
ZPX0280 061304@CAELT@GG SLZZYMYT@CAELT@061300 SLLPYFYA@CAELT@SABO SLRY 061300@CAELT@METAR SLRY 061300Z 00000KT 3000 FU NSC 29/23 Q1008 A2979 HR70 RWY NML=@CAELT@
ZPX0281 061304@CAELT@GG SLZZYMYT@CAELT@061302 SLLPYFYA@CAELT@SABO SLLP 061300@CAELT@METAR SLLP 061300Z 12004KT 060V190 6000 FEW005 11/04 Q1038 A3068@CAELT@628.5 HR60 P4052 VIS/RED SC/BJOS NE/E/SE FU CI NOSIG=@CAELT@METAR SLCO 061300Z 36004KT 2000 FU FEW080 SCT200 29/26 Q1010 A2985@CAELT@983.5 HR82=@CAELT@METAR SLRY 061300Z 00000KT 3000 FU NSC 29/23 Q1008 A2979 HR70 RWY NMLMETAR SLRQ 051300Z 00000KT 3000 FU NSC 31/25 Q1010 A2983 986.0 HR68=METAR SLAP 061300Z 00000KT 5000 FU FEW025 23/16 Q1019 A3011 860.1HR65 AC=METAR SLSB 061300Z 00000KT 3000 FU NSC 30/23 Q1010 A2984 HR67 RWY NMLMETAR SLOR 061300Z 36003KT 9999 FEW017 SCT070 15/M02 Q1035 A3059 656.5 HR33 CI=METAR SLUY 061300Z 33008KT 9999 FEW025 13/00 Q1034 A3055 658.7HR41=
ZPX0284 061310@CAELT@GG SLZZYMYT@CAELT@061309 SLCBYGYS@CAELT@SABO SLTR 061300@CAELT@METAR SLTR 061300Z 32005KT 3000 FU NSC 30/25 Q1010 A2983 991.5 HR73@CAELT@CI NOSIG=@CAELT@METAR SLGM 061300Z 02006KT 5000 FU NSC 29/24 Q1010 A2982 HR73 CI=@CAELT@METAR SLRI 061300Z 36008KT 5000 FU NSC 29/24 Q1011 A2987 HR75 CI=@CAELT@
ZPX0297 061352@CAELT@GG SLZZYMYT@CAELT@061351 SLETYMYC@CAELT@SABO SLET 061400@CAELT@METAR SLET 061400Z 21003KT 2500 FU NSC 34/14 Q1011 A2987 HR30 NOSIG=@CAELT@
ZPX0299 061353@CAELT@GG SLZZYMYT@CAELT@061353 SLRBYGYS@CAELT@SABO SLRB 061400@CAELT@METAR SLRB 061400Z 00000KT 9999 NSC 33/19 Q1013 A2991 HR45 RWY NML=@CAELT@
ZPX0300 061353@CAELT@GG SLZZYMYT@CAELT@061353 SLSBYSYX@CAELT@SABO SLSB 061400@CAELT@METAR SLSB 061400Z 00000KT 4000 FU NSC 32/23 Q1010 A2984 HR60 RWY NML=@CAELT@
ZPX0301 061354@CAELT@GG SLZZYMYT@CAELT@061355 SLCOYGYZ@CAELT@SABO SLCO 061400@CAELT@METAR SLCO 061400Z 36008KT 6000 NSC 30/25 Q1011 A2986 983.7 HR71 FU@CAELT@
ZPX0303 061355@CAELT@GG SLZZYMYT@CAELT@061356 SLVRYGYZ@CAELT@SABO SLVR 061400@CAELT@METAR SLVR 061400Z 04002KT 3000 FU NSC 34/13 Q1011 A2987 HR29 NOSIG=@CAELT@
ZPX0304 061355@CAELT@GG SLZZYMYT@CAELT@061355 SLCAYGYS@CAELT@SABO SLCA 061400@CAELT@METAR SLCA 061400Z 00000KT 9999 NSC 29/14 Q1016 A3000 HR39 FU RWY NML@CAELT@
ZPX0305 061355@CAELT@GG SLZZYMYT@CAELT@061355 SLRQYSYX@CAELT@SABO SLRQ 061400@CAELT@METAR SLRQ 061400Z 00000KT 3000 FU NSC 33/26 Q1009 A2982 985.8 HR64=@CAELT@
ZPX0306 061356@CAELT@GG SLZZYMYT@CAELT@061356 SLCBYGYZ@CAELT@SABO SLCB 061400@CAELT@METAR SLCB 061400Z 30003KT 9000 FEW036 22/03 Q1026 A3031 752.5 HR28@CAELT@FU CI NOSIG=@CAELT@
ZPX0307 061356@CAELT@GG SLZZYMYT@CAELT@061356 SLLPYGYZ@CAELT@SABO SLLP 061400@CAELT@METAR SLLP 061400Z 12009KT 080V150 8000 FEW015 13/02 Q1038 A3068@CAELT@628.5 HR50 P4053 FU CI NOSIG=@CAELT@
ZPX0308 061356@CAELT@GG SLZZYMYT@CAELT@061356 SLUYYGYS@CAELT@SABO SLUY 061400@CAELT@METAR SLUY 061400Z 31005KT 9999 FEW025 14/M01 Q1034 A3055 658.7@CAELT@HR35=@CAELT@
ZPX0309 061357@CAELT@GG SLZZYMYT@CAELT@061356 SLTJYGYZ@CAELT@SABO SLTJ 061400@CAELT@METAR SLTJ 061400Z 15008KT 9999 FEW040 24/09 Q1020 A3014 815.5 HR38@CAELT@
ZPX0310 061357@CAELT@GG SLZZYMYT@CAELT@061356 SLAGYSYX@CAELT@SABO SLAG 061400@CAELT@METAR SLAG 061400Z 24005KT 8000 NSC 30/11 Q1017 A3004 889.5 HR32 FU@CAELT@
ZPX0311 061357@CAELT@GG SLZZYMYT@CAELT@061357 SLORYGYZ@CAELT@SABO SLOR 061400@CAELT@METAR SLOR 061400Z 03004KT 9999 FEW020 18/M04 Q1036 A3060 656.8 HR23@CAELT@AC/CI=@CAELT@
ZPX0312 061358@CAELT@GG SLZZYMYT@CAELT@061358 SLVRYGYS@CAELT@SABO SLVR 061400@CAELT@METAR SLVR 061400Z 04002KT 3000 FU NSC 34/13 Q1011 A2987 HR29 NOSIG=@CAELT@METAR SLET 061400Z 21003KT 2500 FU NSC 34/14 Q1011 A2987 HR30 NOSIG=@CAELT@METAR SLAS 061400Z 00000KT 0800 FU NSC 33/22 Q1013 A2991 HR52 RWY NML@CAELT@METAR SLJV 061400Z 00000KT 2000 FU NSC 32/22 Q1011 A2985 HR55 RWY NML@CAELT@METAR SLCP 061400Z 00000KT 0500 FU NSC 32/21 Q1014 A2994 HR53 RWY NMLMETAR SLSI 061400Z 00000KT 2000 FU NSC 32/20 Q1012 A2988 HR48 RWY NMLMETAR SLTI 061400Z 00000KT 3000 FU NSC 35/15 Q1014 A2994 HR31 RWY NMLMETAR SLJE 061400Z 00000KT 4000 FU NSC 37/19 Q1014 A2994 HR35 RWY NMLMETAR SLVG 061400Z 35006KT 4000 FU NSC 23/09 Q1025 A3027 HR36 RWY NMLMETAR SLRB 061400Z 00000KT 9999 NSC 33/19 Q1013 A2991 HR45 RWY NML=METAR SLPS 061400Z 06006KT 9999 NSC 33/20 Q1010 A2983 HR45 FU=METAR SLCA 061400Z 00000KT 9999 NSC 29/14 Q1016 A3000 HR39 FU RWY NML=
ZPX0313 061358@CAELT@GG SLZZYMYT@CAELT@061358 SLCBYGYS@CAELT@SABO SLCB 061400@CAELT@METAR SLCB 061400Z 30003KT 9000 FEW036 22/03 Q1026 A3031 752.5 HR28@CAELT@FU CI NOSIG=@CAELT@METAR SLAL 061400Z 06007KT 8000 NSC 16/04 Q1031 A3045 705.1 HR45 FU@CAELT@METAR SLPO 061400Z 06007KT 9999 FEW017 14/03 Q1037 A3063 637.7 HR48=@CAELT@METAR SLAG 061400Z 24005KT 8000 NSC 30/11 Q1017 A3004 889.5 HR32 FUMETAR SLVM 061400Z 00000KT 9999 NSC 32/17 Q1013 A2991 HR42 FU CI=METAR SLTJ 061400Z 15008KT 9999 FEW040 24/09 Q1020 A3014 815.5 HR38METAR SLYA 061400Z 06007KT 9999 NSC 33/17 Q1014 A2996 939.3 HR39=METAR SLBJ 061400Z NIL=METAR SLHI 061400Z NIL=
ZPX0315 061401@CAELT@GG SLZZYMYT@CAELT@061400 SLLPYFYA@CAELT@SABO SLRY 061400@CAELT@METAR SLRY 061400Z 00000KT 3000 FU NSC 33/24 Q1008 A2979 HR59 RWY NML=@CAELT@
ZPX0318 061404@CAELT@GG SLZZYMYT@CAELT@061401 SLLPYFYA@CAELT@SABO SLLP 061400@CAELT@METAR SLLP 061400Z 12009KT 080V150 8000 FEW015 13/02 Q1038 A3068@CAELT@628.5 HR50 P4053 FU CI NOSIG=@CAELT@METAR SLCO 061400Z 36008KT 6000 NSC 30/25 Q1011 A2986 983.7 HR71 FU@CAELT@METAR SLRY 061400Z 00000KT 3000 FU NSC 33/24 Q1008 A2979 HR59 RWY NML@CAELT@METAR SLRQ 061400Z 00000KT 3000 FU NSC 33/26 Q1009 A2982 985.8 HR64=METAR SLAP 061400Z 00000KT 7000 FEW025 27/20 Q1019 A3009 859.5 HR67FU AC=METAR SLSB 061400Z 00000KT 4000 FU NSC 32/23 Q1010 A2984 HR60 RWY NMLMETAR SLOR 061400Z 03004KT 9999 FEW020 18/M04 Q1036 A3060 656.8 HR23AC/CI=METAR SLUY 061400Z 31005KT 9999 FEW025 14/M01 Q1034 A3055 658.7HR35=
ZPX0323 061412@CAELT@GG SLZZYMYT@CAELT@061404 SLCBYGYS@CAELT@SABO SLTR 061400@CAELT@METAR SLTR 061400Z 32006KT 5000 FU NSC 32/25 Q1010 A2983 991.5 HR65@CAELT@CI NOSIG=@CAELT@METAR SLGM 061400Z 02005KT 5000 FU NSC 30/24 Q1011 A2985 HR70 CI=@CAELT@METAR SLRI 061400Z 36008KT 5000 FU NSC 31/24 Q1011 A2987 HR68=@CAELT@METAR SLJO 061400Z 36004KT 6000 NSC 31/24 Q1011 A2986 HR67 FU CI RWYNML=METAR SLRA 061400Z 36010KT 5000 FU NSC 32/24 Q1009 A2982 HR62 CI RWYMETAR SLMG 061400Z 32006KT 3000 FU NSC 32/25 Q1009 A2982 HR64 CI RWYMETAR SLBU 061400Z 03004KT 5000 FU NSC 32/25 Q1009 A2981 HR66 CI RWYMETAR SLSA 061400Z 32006KT 5000 FU NSC 33/24 Q1009 A2980 HR60 CI=METAR SLSM 061400Z 00000KT 3000 FU NSC 32/24 Q1009 A2982 HR63 RWY NML=
ZPX0324 061412@CAELT@GG SLZZYMYT@CAELT@061255 SLTRYGYZ@CAELT@SABO SLTR 061300@CAELT@METAR SLTR 061300Z 32005KT 3000 FU NSC 30/25 Q1010 A2983 991.5@CAELT@HR73 CI NOSIG=@CAELT@
ZPX0329 061413@CAELT@GG SLZZYMYT@CAELT@061355 SLTRYGYZ@CAELT@SABO SLTR 061400@CAELT@METAR SLTR 061400Z 32006KT 5000 FU NSC 32/25 Q1010 A2983 991.5 HR65@CAELT@CI NOSIG=@CAELT@
ZPX0330 061413@CAELT@GG SLZZYMYT@CAELT@061359 SLTRYGYS@CAELT@SABO SLTR@CAELT@METAR SLTR 061400Z 32006KT 5000 FU NSC 32/25 Q1010 A2983 991.5 HR65@CAELT@CI NOSIG=@CAELT@METAR SLGM 061400Z 02006KT 5000 FU NSC 30/24 Q1011 A2985 HR70 CI=@CAELT@METAR SLRI 061400Z 36008KT 5000 FU NSC 31/24 Q1011 A2987 HR68=@CAELT@METAR SLJO 061400Z 36004KT 6000 NSC 31/24 Q1011 A2986 HR67 FU CIRWY NML=METAR SLRA 061400Z 36010KT 5000 FU NSC 32/24 Q1009 A2982 HR62 CIMETAR SLMG 061400Z 32006KT 3000 FU NSC 32/25 Q1009 A2982 HR64 CIMETAR SLBU 061400Z 03004KT 5000 FU NSC 32/25 Q1009 A2981 HR66 CIMETAR SLSA 061400Z 32006KT 5000 FU NSC 33/24 Q1009 A2980 HR60 CI=METAR SLSR 061400Z 32006KT 5000 FU NSC 32/25 Q1009 A2980 HR65METAR SLSM 061400Z 00000KT 3000 FU NSC 32/24 Q1009 A2982 HR63
ZPX0331 061413@CAELT@GG SLZZYMYT@CAELT@061359 SLTRYGYS@CAELT@SABO SLTR@CAELT@METAR SLTR 061400Z 32006KT 5000 FU NSC 32/25 Q1010 A2983 991.5 HR65@CAELT@CI NOSIG=@CAELT@METAR SLGM 061400Z 02006KT 5000 FU NSC 30/24 Q1011 A2985 HR70 CI=@CAELT@METAR SLRI 061400Z 36008KT 5000 FU NSC 31/24 Q1011 A2987 HR68=@CAELT@METAR SLJO 061400Z 36004KT 6000 NSC 31/24 Q1011 A2986 HR67 FU CIRWY NML=METAR SLRA 061400Z 36010KT 5000 FU NSC 32/24 Q1009 A2982 HR62 CIMETAR SLMG 061400Z 32006KT 3000 FU NSC 32/25 Q1009 A2982 HR64 CIMETAR SLBU 061400Z 03004KT 5000 FU NSC 32/25 Q1009 A2981 HR66 CIMETAR SLSA 061400Z 32006KT 5000 FU NSC 33/24 Q1009 A2980 HR60 CI=METAR SLSR 061400Z 32006KT 5000 FU NSC 32/25 Q1009 A2980 HR65METAR SLSM 061400Z 00000KT 3000 FU NSC 32/24 Q1009 A2982 HR63
ZPX0338 061413@CAELT@GG SLZZYMYT@CAELT@061257 SLTRYGYS@CAELT@SABO SLSA 061300@CAELT@METAR SLSA 061300Z 33005KT 5000 FU NSC 30/26 Q1009 A2980 HR77 CI=@CAELT@
ZPX0365 061448@CAELT@GG SLZZYMYT@CAELT@061447 SLPSZTZX@CAELT@SABO SLPS 061500@CAELT@METAR SLPS 061500Z 09004KT 9999 NSC 35/21 Q1010 A2983 HR44 FU=@CAELT@
ZPX0367 061452@CAELT@GG SLZZYMYT@CAELT@061452 SLCAYGYS@CAELT@SABO SLCA 061500@CAELT@METAR SLCA 061500Z 00000KT 9999 NSC 32/12 Q1015 A2997 HR29 FU RWY NML@CAELT@
ZPX0368 061453@CAELT@GG SLZZYMYT@CAELT@061454 SLORYGYZ@CAELT@SABO SLOR 061500@CAELT@METAR SLOR 061500Z 04006KT 9999 SCT020 20/M06 Q1035 A3057 656.0 HR18@CAELT@
ZPX0369 061454@CAELT@GG SLZZYMYT@CAELT@061454 SLSBYSYX@CAELT@SABO SLSB 061500@CAELT@METAR SLSB 061500Z 00000KT 5000 FU NSC 34/25 Q1009 A2980 HR58 RWY NML=@CAELT@
ZPX0370 061454@CAELT@GG SLZZYMYT@CAELT@061453 SLRBYGYS@CAELT@SABO SLRB 061500@CAELT@METAR SLRB 061500Z 00000KT 9999 NSC 37/19 Q1012 A2988 HR36 RWY NML=@CAELT@
ZPX0372 061454@CAELT@GG SLZZYMYT@CAELT@061455 SLVRYGYZ@CAELT@SABO SLVR 061500@CAELT@METAR SLVR 061500Z 36004KT 3000 FU NSC 35/15 Q1011 A2986 HR30 NOSIG=@CAELT@
ZPX0374 061455@CAELT@GG SLZZYMYT@CAELT@061455 SLTRYGYZ@CAELT@SABO SLTR 061500@CAELT@METAR SLTR 061500Z 31006KT 5000 FU NSC 34/25 Q1010 A2983 991.5 HR60@CAELT@CI NOSIG=@CAELT@
ZPX0376 061455@CAELT@GG SLZZYMYT@CAELT@061452 SLETYMYC@CAELT@SABO SLET 061500@CAELT@METAR SLET 061500Z VRB02 3000 FU NSC 36/15 Q1011 A2986 HR29 NOSIG=@CAELT@
ZPX0377 061455@CAELT@GG SLZZYMYT@CAELT@061455 SLUYYGYS@CAELT@SABO SLUY 061500@CAELT@METAR SLUY 061500Z 31009KT 9999 FEW027 17/M01 Q1033 A3053 658.1@CAELT@HR28=@CAELT@
ZPX0378 061455@CAELT@GG SLZZYMYT@CAELT@061455 SLCBYGYZ@CAELT@SABO SLCB 061500@CAELT@METAR SLCB 061500Z 19003KT 9000 FEW036 24/04 Q1025 A3028 751.7 HR26@CAELT@FU CI NOSIG=@CAELT@
ZPX0379 061456@CAELT@GG SLZZYMYT@CAELT@061455 SLRQYSYX@CAELT@SABO SLRQ 061500@CAELT@METAR SLRQ 061500Z 00000KT 3000 FU NSC 35/26 Q1009 A2981 985.4 HR59=@CAELT@
ZPX0380 061456@CAELT@GG SLZZYMYT@CAELT@061456 SLCOYGYZ@CAELT@SABO SLCO 061500@CAELT@METAR SLCO 061500Z 36006KT 8000 SCT025 32/25 Q1010 A2985 983.3 HR68@CAELT@FU CI=@CAELT@
ZPX0381 061456@CAELT@GG SLZZYMYT@CAELT@061456 SLLPYGYZ@CAELT@SABO SLLP 061500@CAELT@METAR SLLP 061500Z 13010KT 090V160 8000 FEW017 15/02 Q1038 A3066@CAELT@628.1 HR41 P93// FU NOSIG=@CAELT@
ZPX0383 061456@CAELT@GG SLZZYMYT@CAELT@061454 SLSAYGYS@CAELT@SABO SLSA 061500@CAELT@METAR SLSA 061500Z 32006KT 5000 FU NSC 34/24 Q1009 A2980 HR56 CI=@CAELT@
ZPX0385 061456@CAELT@GG SLZZYMYT@CAELT@061456 SLTJYGYZ@CAELT@SABO SLTJ 061500@CAELT@METAR SLTJ 061500Z 18004KT 9999 FEW040 26/09 Q1019 A3011 814.5 HR33@CAELT@
ZPX0388 061458@CAELT@GG SLZZYMYT@CAELT@061456 SLAGYSYX@CAELT@SABO SLAG 061500@CAELT@METAR SLAG 061500Z 18003KT 8000 NSC 31/10 Q1018 A3001 888.6 HR27 FU@CAELT@
ZPX0389 061458@CAELT@GG SLZZYMYT@CAELT@061458 SLVRYGYS@CAELT@SABO SLVR 061500@CAELT@METAR SLVR 061500Z 36004KT 3000 FU NSC 35/15 Q1011 A2986 HR30 NOSIG=@CAELT@METAR SLET 061500Z VRB02KT 3000 FU NSC 36/15 Q1011 A2986 HR29 NOSIG=@CAELT@METAR SLAS 061500Z 00000KT 1000 FU NSC 35/23 Q1012 A2989 HR50 RWY NML@CAELT@METAR SLJV 061500Z 00000KT 2000 FU NSC 33/21 Q1011 A2985 HR48 RWY NML@CAELT@METAR SLCP 061500Z 00000KT 1000 FU NSC 34/19 Q1014 A2994 HR42 RWY NMLMETAR SLSI 061500Z 00000KT 2000 FU NSC 33/20 Q1012 A2988 HR45 RWY NMLMETAR SLTI 061500Z 00000KT 3000 FU NSC 38/14 Q1013 A2991 HR24 RWY NMLMETAR SLJE 061500Z 00000KT 3000 FU NSC 39/19 Q1013 A2991 HR32 RWY NMLMETAR SLVG 061500Z 36007KT 3000 FU NSC 24/09 Q1025 A3027 HR31 RWY NMLMETAR SLRB 061500Z 00000KT 9999 NSC 37/19 Q1012 A2988 HR36 RWY NML=METAR SLPS 061500Z 09004KT 9999 NSC 35/21 Q1010 A2983 HR44 FU=METAR SLCA 061500Z 00000KT 9999 NSC 32/12 Q1015 A2997 HR29 FU RWY NML=
ZPX0391 061500@CAELT@GG SLZZYMYT@CAELT@061459 SLTRYGYS@CAELT@SABO SLTR 061500@CAELT@METAR SLTR 061500Z 31006KT 5000 FU NSC 34/25 Q1010 A2983 991.5 HR60@CAELT@CI NOSIG=@CAELT@METAR SLGM 061500Z 02008KT 5000 FU FEW015 BKN200 31/25 Q1011 A2985@CAELT@HR70=@CAELT@METAR SLRI 061500Z 36008KT 5000 FU FEW017 BKN200 32/24 Q1011 A2986HR64=METAR SLJO 061500Z 36005KT 7000 NSC 33/24 Q1011 A2986 HR61 FU CIRWY NML=METAR SLRA 061500Z 36010KT 5000 FU NSC 34/23 Q1009 A2982 HR53 CIMETAR SLMG 061500Z 32006KT 5000 FU NSC 34/25 Q1009 A2982 HR59 CIMETAR SLBU 061500Z 03004KT 5000 FU NSC 34/25 Q1008 A2979 HR60 CIMETAR SLSA 061500Z 32006KT 5000 FU NSC 34/24 Q1009 A2980 HR56 CI=METAR SLSR 061500Z 32006KT 5000 FU NSC 35/24 Q1008 A2979 HR56METAR SLSM 061500Z 27003KT 3000 FU NSC 33/25 Q1009 A2981 HR60
ZPX0395 061500@CAELT@GG SLZZYMYT@CAELT@061459 SLLPYFYA@CAELT@SABO SLRY 061500@CAELT@METAR SLRY 061500Z 14003KT 3000 FU NSC 34/24 Q1008 A2979 HR54 RWY NML=@CAELT@
ZPX0396 061500@CAELT@GG SLZZYMYT@CAELT@061500 SLCBYGYS@CAELT@SABO SLCB 061500@CAELT@METAR SLCB 061500Z 19003KT 9000 FEW036 24/04 Q1025 A3028 751.7 HR26@CAELT@FU CI NOSIG=@CAELT@METAR SLAL 061500Z 35010KT 8000 NSC 17/05 Q1030 A3043 704.7 HR46 FU@CAELT@METAR SLPO 061500Z 05005KT 9999 FEW020 FEW025CB 17/02 Q1036 A3059@CAELT@636.6 HR37 CB S/W=METAR SLAG 061500Z 18003KT 8000 NSC 31/10 Q1018 A3001 888.6 HR27 FUMETAR SLVM 061500Z 00000KT 9999 NSC 34/18 Q1011 A2988 HR38 FU CI=METAR SLTJ 061500Z 18004KT 9999 FEW040 26/09 Q1019 A3011 814.5 HR33METAR SLYA 061500Z 06012KT 9999 NSC 33/17 Q1012 A2990 937.5 HR39=METAR SLBJ 061500Z NIL=METAR SLHI 061500Z NIL=
ZPX0398 061503@CAELT@GG SLZZYMYT@CAELT@061500 SLLPYFYA@CAELT@SABO SLLP 061500@CAELT@METAR SLLP 061500Z 13010KT 090V160 8000 FEW017 15/02 Q1038 A3066@CAELT@628.1 HR41 P93// FU NOSIG=@CAELT@METAR SLCO 061500Z 36006KT 8000 SCT025 32/25 Q1010 A2985 983.3 HR68@CAELT@FU CI=@CAELT@METAR SLRY 061500Z 14003KT 3000 FU NSC 34/24 Q1008 A2979 HR54 RWY NMLMETAR SLRQ 061500Z 00000KT 3000 FU NSC 35/26 Q1009 A2981 985.4 HR59=METAR SLAP 061500Z 00000KT 7000 FEW025 29/22 Q1018 A3008 859.1 HR66FU AC=METAR SLSB 061500Z 00000KT 5000 FU NSC 34/25 Q1009 A2980 HR58 RWY NMLMETAR SLOR 061500Z 04006KT 9999 SCT020 20/M06 Q1035 A3057 656.0 HR18METAR SLUY 061500Z 31009KT 9999 FEW027 17/M01 Q1033 A3053 658.1HR28=
ZPX0424 061551@CAELT@GG SLZZYMYT@CAELT@061551 SLPSZTZX@CAELT@SABO SLPS 061600@CAELT@METAR SLPS 061600Z 06005KT 9999 NSC 37/20 Q1009 A2980 HR38 FU=@CAELT@
ZPX0426 061552@CAELT@GG SLZZYMYT@CAELT@061552 SLETYMYC@CAELT@SABO SLET 061600@CAELT@METAR SLET 061600Z 30004KT 3000 FU NSC 36/14 Q1010 A2984 HR27 NOSIG=@CAELT@
ZPX0427 061554@CAELT@GG SLZZYMYT@CAELT@061554 SLSBYSYX@CAELT@SABO SLSB 061600@CAELT@METAR SLSB 061600Z 00000KT 5000 FU NSC 36/24 Q1009 A2979 HR50 RWY NML=@CAELT@
ZPX0428 061554@CAELT@GG SLZZYMYT@CAELT@061553 SLRBYGYS@CAELT@SABO SLRB 061600@CAELT@METAR SLRB 061600Z 00000KT 9999 NSC 39/18 Q1011 A2985 HR29 FU RWY NML=@CAELT@
ZPX0429 061554@CAELT@GG SLZZYMYT@CAELT@061555 SLORYGYZ@CAELT@SABO SLOR 061600@CAELT@METAR SLOR 061600Z 06008KT 9999 SCT023 22/M06 Q1034 A3054 655.4 HR15@CAELT@
ZPX0430 061555@CAELT@GG SLZZYMYT@CAELT@061555 SLVRYGYZ@CAELT@SABO SLVR 061600@CAELT@METAR SLVR 061600Z VRB02KT 3000 FU NSC 36/19 Q1010 A2984 HR38 NOSIG=@CAELT@
ZPX0432 061555@CAELT@GG SLZZYMYT@CAELT@061555 SLAGYSYX@CAELT@SABO SLAG 061600@CAELT@METAR SLAG 061600Z 15005KT 7000 NSC 34/10 Q1015 A2998 887.6 HR24 FU@CAELT@
ZPX0433 061555@CAELT@GG SLZZYMYT@CAELT@061556 SLUYYGYS@CAELT@SABO SLUY 061600@CAELT@METAR SLUY 061600Z 31012KT 9999 FEW030 FEW030CB 17/M02 Q1033@CAELT@A3050 657.6 HR26 CB/SH NE=@CAELT@
ZPX0434 061555@CAELT@GG SLZZYMYT@CAELT@061555 SLCOYGYZ@CAELT@SABO SLCO 061600@CAELT@METAR SLCO 061600Z 33004KT 8000 SCT025 34/26 Q1010 A2983 982.9 HR62@CAELT@FU CI=@CAELT@
ZPX0435 061556@CAELT@GG SLZZYMYT@CAELT@061555 SLRQYSYX@CAELT@SABO SLRQ 061600@CAELT@METAR SLRQ 061600Z 00000KT 3000 FU FEW020 37/26 Q1008 A2979 984.7@CAELT@HR53=@CAELT@
ZPX0436 061556@CAELT@GG SLZZYMYT@CAELT@061556 SLCBYGYZ@CAELT@SABO SLCB 061600@CAELT@METAR SLCB 061600Z 20004KT 9000 FEW036 25/03 Q1023 A3023 750.5 HR25@CAELT@FU CI NOSIG=@CAELT@
ZPX0437 061556@CAELT@GG SLZZYMYT@CAELT@061556 SLLPYGYZ@CAELT@SABO SLLP 061600@CAELT@METAR SLLP 061600Z 11011KT 050V160 9999 FEW020 16/M01 Q1037 A3063@CAELT@627.5 HR31 P93// FU NOSIG=@CAELT@
ZPX0438 061557@CAELT@GG SLZZYMYT@CAELT@061555 SLTJYGYZ@CAELT@SABO SLTJ 061600@CAELT@METAR SLTJ 061600Z 13008KT 9999 FEW040 28/10 Q1018 A3007 813.5 HR32@CAELT@
ZPX0439 061557@CAELT@GG SLZZYMYT@CAELT@061556 SLCAYGYS@CAELT@SABO SLCA 061600@CAELT@METAR SLCA 061600Z 00000KT 9999 NSC 34/11 Q1014 A2994 HR25 FU RWY NML@CAELT@
ZPX0440 061558@CAELT@GG SLZZYMYT@CAELT@061558 SLVRYGYS@CAELT@SABO SLVR 061600@CAELT@METAR SLVR 061600Z VRB02KT 3000 FU NSC 36/19 Q1010 A2984 HR38 NOSIG=@CAELT@METAR SLET 061600Z 30004KT 3000 FU NSC 36/14 Q1010 A2984 HR27 NOSIG=@CAELT@METAR SLAS 061600Z 36004KT 1500 FU NSC 35/22 Q1011 A2986 HR47 RWY NML@CAELT@METAR SLCP 061600Z 00000KT 1000 FU NSC 35/19 Q1013 A2991 HR40 RWY NML@CAELT@METAR SLSI 061600Z 00000KT 2000 FU NSC 35/18 Q1010 A2983 HR38 RWY NMLMETAR SLRB 061600Z 00000KT 9999 NSC 39/18 Q1011 A2985 HR29 FU RWY NMLMETAR SLPS 061600Z 06005KT 9999 NSC 37/20 Q1009 A2980 HR38 FU=METAR SLCA 061600Z 00000KT 9999 NSC 34/11 Q1014 A2994 HR25 FU RWY NML=
ZPX0441 061558@CAELT@GG SLZZYMYT@CAELT@061558 SLTRYGYZ@CAELT@SABO SLTR 061600@CAELT@METAR SLTR 061600Z 30006KT 5000 FU NSC 35/25 Q1009 A2980@CAELT@990.5 HR57 CI NOSIG=@CAELT@
ZPX0442 061559@CAELT@GG SLZZYMYT@CAELT@061558 SLLPYFYA@CAELT@SABO SLRY 061600@CAELT@METAR SLRY 061600Z 00000KT 3000 FU NSC 36/23 Q1008 A2978 HR47 RWY NML=@CAELT@
ZPX0445 061600@CAELT@GG SLZZYMYT@CAELT@061600 SLCBYGYS@CAELT@SABO SLCB 061600@CAELT@METAR SLCB 061600Z 20004KT 9000 FEW036 25/03 Q1023 A3023 750.5 HR25@CAELT@FU CI NOSIG=@CAELT@METAR SLAL 061600Z 01008KT 8000 FEW017 18/05 Q1029 A3041 704.1 HR44@CAELT@FU=@CAELT@METAR SLPO 061600Z 07008KT 9999 FEW020 FEW025CB 18/02 Q1035 A3056636.1 HR35 CB/N/S CI=METAR SLAG 061600Z 15005KT 7000 NSC 34/10 Q1015 A2998 887.6 HR24 FUMETAR SLVM 061600Z 00000KT 9999 NSC 35/18 Q1010 A2984 HR37 FU CI=METAR SLTJ 061600Z 13008KT 9999 FEW040 28/10 Q1018 A3007 813.5 HR32METAR SLYA 061600Z 06012KT 9999 NSC 34/17 Q1011 A2988 936.7 HR37=METAR SLBJ 061600Z NIL=METAR SLHI 061600Z NIL=
ZPX0446 061601@CAELT@GG SLZZYMYT@CAELT@061601 SLLPYFYA@CAELT@SABO SLLP 061600@CAELT@METAR SLLP 061600Z 11011KT 050V160 9999 FEW020 16/M01 Q1037 A3063@CAELT@627.5 HR31 P93// FU NOSIG=@CAELT@METAR SLCO 061600Z 33004KT 8000 SCT025 34/26 Q1010 A2983 982.9 HR62@CAELT@FU CI=@CAELT@METAR SLRY 061600Z 00000KT 3000 FU NSC 36/23 Q1008 A2978 HR47 RWY NMLMETAR SLRQ 061600Z 00000KT 3000 FU FEW020 37/26 Q1008 A2979 984.7HR53=METAR SLAP 061600Z 00000KT 7000 SCT025 29/22 Q1018 A3006 858.7 HR69FU AC=METAR SLSB 061600Z 00000KT 5000 FU NSC 36/24 Q1009 A2979 HR50 RWY NMLMETAR SLOR 061600Z 06008KT 9999 SCT023 22/M06 Q1034 A3054 655.4 HR15METAR SLUY 061600Z 31012KT 9999 FEW030 FEW030CB 17/M02 Q1033A3050 657.6 HR26 CB/SH NE=
ZPX0447 061601@CAELT@GG SLZZYMYT@CAELT@061601 SLTRYGYS@CAELT@SABO SLTR 061600@CAELT@METAR SLTR 061600Z 30006KT 5000 FU NSC 35/25 Q1009 A2980@CAELT@990.5 HR57 CI NOSIG=@CAELT@METAR SLGM 061600Z 32008KT 6000 SCT017 BKN080 32/24 Q1010 A2982 HR64@CAELT@METAR SLRI 061600Z 36012KT 5000 FU SCT017 BKN200 32/24 Q1011 A2986@CAELT@HR64=METAR SLJO 061600Z 34005KT 7000 NSC 34/25 Q1011 A2986 HR57 FU CIRWY NML=METAR SLRA 061600Z 36008KT 5000 FU NSC 35/23 Q1009 A2980 HR49 CIMETAR SLMG 061600Z 32004KT 5000 FU NSC 35/24 Q1009 A2980 HR55 CIMETAR SLBU 061600Z 03005KT 5000 FU NSC 36/25 Q1008 A2977 HR54 CIMETAR SLSA 061600Z NIL=METAR SLSR 061600Z 32010KT 5000 FU NSC 36/24 Q1007 A2976 HR51METAR SLSM 061600Z 00000KT 3000 FU NSC 34/25 Q1009 A2980 HR58
ZPX0456 061608@CAELT@GG SLZZYMYT@CAELT@061605 SLSAYGYS@CAELT@SABO SLSA 061600 CCA@CAELT@METAR RTD SLSA 061600Z 34006KT 5000 FU NSC 36/23 Q1008 A2979 HR49 CI=@CAELT@
ZPX0480 061651@CAELT@GG SLZZYMYT@CAELT@061652 SLETYMYC@CAELT@SABO SLET 061700@CAELT@METAR SLET 061700Z 34006KT 3000 FU NSC 37/18 Q1009 A2980 HR33 NOSIG=@CAELT@
ZPX0481 061652@CAELT@GG SLZZYMYT@CAELT@061652 SLPSZTZX@CAELT@SABO SLPS 061700@CAELT@METAR SLPS 061700Z 06008KT 9999 NSC 38/20 Q1008 A2977 HR37 FU=@CAELT@
ZPX0482 061653@CAELT@GG SLZZYMYT@CAELT@061653 SLCAYGYS@CAELT@SABO SLCA 061700@CAELT@METAR SLCA 061700Z 00000KT 8000 NSC 35/10 Q1013 A2991 HR23 FU RWY NML@CAELT@
ZPX0483 061654@CAELT@GG SLZZYMYT@CAELT@061653 SLRBYGYS@CAELT@SABO SLRB 061700@CAELT@METAR SLRB 061700Z 00000KT 9999 NSC 39/17 Q1010 A2983 HR28 FU RWY NML=@CAELT@
ZPX0484 061654@CAELT@GG SLZZYMYT@CAELT@061654 SLSBYSYX@CAELT@SABO SLSB 061700@CAELT@METAR SLSB 061700Z 00000KT 5000 FU NSC 36/22 Q1008 A2979 HR43 RWY NML=@CAELT@
ZPX0485 061654@CAELT@GG SLZZYMYT@CAELT@061655 SLRQYSYX@CAELT@SABO SLRQ 061700@CAELT@METAR SLRQ 061700Z 36004KT 3000 FU FEW020 38/26 Q1008 A2977 984.0@CAELT@HR52=@CAELT@
ZPX0486 061655@CAELT@GG SLZZYMYT@CAELT@061655 SLVRYGYZ@CAELT@SABO SLVR 061700@CAELT@METAR SLVR 061700Z 31008KT 3000 FU NSC 36/21 Q1009 A2981 HR41 NOSIG=@CAELT@
ZPX0487 061655@CAELT@GG SLZZYMYT@CAELT@061655 SLORYGYZ@CAELT@SABO SLOR 061700@CAELT@METAR SLOR 061700Z 33009KT 9999 SCT023 22/M07 Q1033 A3052 655.0 HR13@CAELT@
ZPX0488 061655@CAELT@GG SLZZYMYT@CAELT@061655 SLCOYGYZ@CAELT@SABO SLCO 061700@CAELT@METAR SLCO 061700Z 02005KT 8000 SCT025 35/26 Q1009 A2982 982.4 HR57@CAELT@FU CI=@CAELT@
ZPX0489 061656@CAELT@GG SLZZYMYT@CAELT@061656 SLLPYGYZ@CAELT@SABO SLLP 061700@CAELT@METAR SLLP 061700Z 11015G26KT 9999 FEW020 FEW023CB SCT200 18/M08@CAELT@Q1036 A3060 626.8 HR15 P93// CB/SH SW/W FU AC NOSIG=@CAELT@
ZPX0490 061656@CAELT@GG SLZZYMYT@CAELT@061655 SLSAYGYS@CAELT@SABO SLSA 061700@CAELT@METAR SLSA 061700Z 32008KT 5000 FU FEW020 SCT200 36/23@CAELT@Q1008 A2977 HR47=@CAELT@
ZPX0492 061656@CAELT@GG SLZZYMYT@CAELT@061657 SLUYYGYS@CAELT@SABO SLUY 061700@CAELT@METAR SLUY 061700Z 32010KT 9999 VCTS FEW030 FEW033CB 18/00 Q1032@CAELT@A3048 657.1 HR30 CB/TS/SH NE=@CAELT@
ZPX0494 061656@CAELT@GG SLZZYMYT@CAELT@061655 SLTJYGYZ@CAELT@SABO SLTJ 061700@CAELT@METAR SLTJ 061700Z 18006KT 9999 FEW040 28/09 Q1017 A3004 812.7 HR29@CAELT@
ZPX0495 061657@CAELT@GG SLZZYMYT@CAELT@061656 SLCBYGYZ@CAELT@SABO SLCB 061700@CAELT@METAR SLCB 061700Z 27004KT 9000 FEW036 27/04 Q1022 A3019 749.3 HR22@CAELT@FU CI NOSIG=@CAELT@
ZPX0496 061657@CAELT@GG SLZZYMYT@CAELT@061656 SLTRYGYZ@CAELT@SABO SLTR 061700@CAELT@METAR SLTR 061700Z 30006KT 5000 FU FEW020 SCT200 36/24 Q1008@CAELT@A2978 990.0 HR51 NOSIG=@CAELT@
ZPX0497 061657@CAELT@GG SLZZYMYT@CAELT@061657 SLVRYGYS@CAELT@SABO SLVR 061700@CAELT@METAR SLVR 061700Z 31008KT 3000 FU NSC 36/21 Q1009 A2981 HR41 NOSIG=@CAELT@METAR SLET 061700Z 34006KT 3000 FU NSC 37/18 Q1009 A2980 HR33 NOSIG=@CAELT@METAR SLAS 061700Z 36006KT 1500 FU NSC 36/23 Q1010 A2983 HR45 RWY NML@CAELT@METAR SLCP 061700Z 00000KT 1000 FU NSC 36/21 Q1013 A2991 HR41 RWY NML@CAELT@METAR SLSI 061700Z 00000KT 3000 FU NSC 36/17 Q1009 A2980 HR32 RWY NMLMETAR SLRB 061700Z 00000KT 9999 NSC 39/17 Q1010 A2983 HR28 FU RWY NMLMETAR SLPS 061700Z 06008KT 9999 NSC 38/20 Q1008 A2977 HR37 FU=METAR SLCA 061700Z 00000KT 8000 NSC 35/10 Q1013 A2991 HR23 FU RWY NML=
ZPX0498 061658@CAELT@GG SLZZYMYT@CAELT@061658 SLTRYGYS@CAELT@SABO SLTR 061700@CAELT@METAR SLTR 061700Z 30006KT 5000 FU FEW020 SCT200 36/24 Q1008@CAELT@A2978 990.0 HR51 NOSIG=@CAELT@METAR SLGM 061700Z 32006KT 6000 FEW017 SCT080 BKN200 32/24 Q1009@CAELT@A2980 HR63 FU=@CAELT@METAR SLRI 061700Z 36010KT 5000 FU SCT017 BKN200 35/24 Q1010 A2983HR54=METAR SLJO 061700Z 34006KT 7000 NSC 35/24 Q1010 A2983 HR52 FU CIRWY NML=METAR SLRA 061700Z 36006KT 5000 FU FEW020 BKN200 38/21 Q1008 A2979HR50 RWY NML=METAR SLMG 061700Z 32008KT 5000 FU NSC 36/23 Q1008 A2979 HR48 CIMETAR SLBU 061700Z 03005KT 5000 FU NSC 36/24 Q1007 A2974 HR51METAR SLSA 061700Z 32008KT 5000 FU FEW020 SCT200 36/23 Q1008 A2977HR47=METAR SLSR 061700Z 32010KT 5000 FU FEW017 36/23 Q1007 A2975 HR49METAR SLSM 061700Z 00000KT 3000 FU NSC 36/23 Q1008 A2977 HR48 AC
ZPX0499 061658@CAELT@GG SLZZYMYT@CAELT@061657 SLLPYFYA@CAELT@SABO SLRY 061700@CAELT@METAR SLRY 061700Z 00000KT 3000 FU NSC 36/24 Q1007 A2976 HR49@CAELT@RWY NML=@CAELT@
ZPX0501 061659@CAELT@GG SLZZYMYT@CAELT@061658 SLAGYSYX@CAELT@SABO SLAG 061700@CAELT@METAR SLAG 061700Z 09007KT 5000 FU NSC 34/10 Q1014 A2995 886.6 HR23@CAELT@
ZPX0503 061700@CAELT@GG SLZZYMYT@CAELT@061700 SLLPYFYA@CAELT@SABO SLLP 061700@CAELT@METAR SLLP 061700Z 11015G26KT 9999 FEW020 FEW023CB SCT200 18/M08@CAELT@Q1036 A3060 626.8 HR15 P93// CB/SH SW/W FU AC NOSIG=@CAELT@METAR SLCO 061700Z 02005KT 8000 SCT025 35/26 Q1009 A2982 982.4 HR57@CAELT@FU CI=@CAELT@METAR SLRY 061700Z 00000KT 3000 FU NSC 36/24 Q1007 A2976 HR49RWY NML=METAR SLRQ 061700Z 36004KT 3000 FU FEW020 38/26 Q1008 A2977 984.0HR52=METAR SLAP 061700Z 00000KT 7000 SCT025 31/22 Q1017 A3004 857.9 HR59FU AC=METAR SLSB 061700Z 00000KT 5000 FU NSC 36/22 Q1008 A2979 HR43 RWY NMLMETAR SLOR 061700Z 33009KT 9999 SCT023 22/M07 Q1033 A3052 655.0 HR13METAR SLUY 061700Z 32010KT 9999 VCTS FEW030 FEW033CB 18/00 Q1032A3048 657.1 HR30 CB/TS/SH NE=
ZPX0504 061701@CAELT@GG SLZZYMYT@CAELT@061700 SLCBYGYS@CAELT@SABO SLCB 061700@CAELT@METAR SLCB 061700Z 27004KT 9000 FEW036 27/04 Q1022 A3019 749.3 HR22@CAELT@FU CI NOSIG=@CAELT@METAR SLAL 061700Z 01014KT 9999 FEW020 20/04 Q1028 A3038 703.4 HR36@CAELT@METAR SLPO 061700Z NIL=@CAELT@METAR SLAG 061700Z 09007KT 5000 FU NSC 34/10 Q1014 A2995 886.6 HR23METAR SLVM 061700Z 00000KT 9999 NSC 36/17 Q1008 A2979 HR33 FU=METAR SLTJ 061700Z 18006KT 9999 FEW040 28/09 Q1017 A3004 812.7 HR29METAR SLYA 061700Z 06012G25KT 9999 NSC 34/17 Q1010 A2983 935.2 HR36=METAR SLBJ 061700Z NIL=METAR SLHI 061700Z NIL=
ZPX0526 061752@CAELT@GG SLZZYMYT@CAELT@061752 SLCAYGYS@CAELT@SABO SLCA 061800@CAELT@METAR SLCA 061800Z 00000KT 8000 NSC 36/10 Q1011 A2985 HR22 FU RWY NML@CAELT@
ZPX0528 061753@CAELT@GG SLZZYMYT@CAELT@061752 SLETYMYC@CAELT@SABO SLET 061800@CAELT@METAR SLET 061800Z 32008KT 2500 FU NSC 37/19 Q1008 A2977 HR35 NOSIG=@CAELT@
ZPX0529 061753@CAELT@GG SLZZYMYT@CAELT@061751 SLPSZTZX@CAELT@SABO SLPS 061800@CAELT@METAR SLPS 061800Z 06005KT 9999 NSC 38/19 Q1008 A2977 HR33 FU=@CAELT@
ZPX0532 061754@CAELT@GG SLZZYMYT@CAELT@061755 SLVRYGYZ@CAELT@SABO SLVR 061800@CAELT@METAR SLVR 061800Z 34008KT 3000 FU NSC 36/21 Q1008 A2978 HR40 NOSIG=@CAELT@
ZPX0533 061755@CAELT@GG SLZZYMYT@CAELT@061755 SLCOYGYZ@CAELT@SABO SLCO 061800@CAELT@METAR SLCO 061800Z 36005KT 9999 SCT025 36/25 Q1008 A2979 981.3 HR54@CAELT@FU CI=@CAELT@
ZPX0534 061755@CAELT@GG SLZZYMYT@CAELT@061755 SLTJYGYZ@CAELT@SABO SLTJ 061800@CAELT@METAR SLTJ 061800Z 13009KT 9999 FEW040 29/09 Q1016 A3001 811.9 HR28@CAELT@
ZPX0535 061755@CAELT@GG SLZZYMYT@CAELT@061755 SLRQYSYX@CAELT@SABO SLRQ 061800@CAELT@METAR SLRQ 061800Z 36004KT 3000 FU FEW020 38/25 Q1007 A2974 983.2@CAELT@HR47=@CAELT@
ZPX0536 061755@CAELT@GG SLZZYMYT@CAELT@061754 SLRBYGYS@CAELT@SABO SLRB 061800@CAELT@METAR SLRB 061800Z 00000KT 9999 NSC 39/17 Q1009 A2980 HR28 FU RWY NML=@CAELT@
ZPX0538 061755@CAELT@GG SLZZYMYT@CAELT@061755 SLAGYSYX@CAELT@SABO SLAG 061800@CAELT@METAR SLAG 061800Z 07010KT 4000 FU NSC 34/09 Q1013 A2992 885.7 HR21@CAELT@
ZPX0539 061755@CAELT@GG SLZZYMYT@CAELT@061755 SLSAYGYS@CAELT@SABO SLSA 061800@CAELT@METAR SLSA 061800Z 34007KT 5000 FU SCT020 36/24 Q1007 A2974 HR49=@CAELT@
ZPX0540 061755@CAELT@GG SLZZYMYT@CAELT@061755 SLSAYGYS@CAELT@SABO SLSA 061800@CAELT@METAR SLSA 061800Z 34007KT 5000 FU SCT020 36/24 Q1007 A2974 HR49=@CAELT@
ZPX0541 061756@CAELT@GG SLZZYMYT@CAELT@061756 SLLPYGYZ@CAELT@SABO SLLP 061800@CAELT@METAR SLLP 061800Z 08012G23KT 9999 FEW020 FEW023CB SCT200 16/M09@CAELT@Q1035 A3059 626.5 HR17 P93// CB/SH SW FU AC NOSIG=@CAELT@
ZPX0543 061756@CAELT@GG SLZZYMYT@CAELT@061756 SLVRYGYS@CAELT@SABO SLVR 061800@CAELT@METAR SLVR 061800Z 34008KT 3000 FU NSC 36/21 Q1008 A2978 HR40 NOSIG=@CAELT@METAR SLET 061800Z 32008KT 2500 FU NSC 37/19 Q1008 A2977 HR35 NOSIG=@CAELT@METAR SLAS 061800Z 36010KT 2000 FU NSC 38/23 Q1009 A2980 HR42 RWY NML@CAELT@METAR SLJV 061800Z 00000KT 3000 FU NSC 36/21 Q1008 A2977 HR44 RWY NML@CAELT@METAR SLCP 061800Z 00000KT 1000 FU NSC 36/17 Q1012 A2988 HR31 RWY NMLMETAR SLSI 061800Z 00000KT 3000 FU SCT017 38/19 Q1008 A2977 HR33 RWYNML=METAR SLTI 061800Z 00000KT 6000 NSC 40/15 Q1010 A2983 HR23 FU RWY NMLMETAR SLJE 061800Z 00000KT 2500 FU NSC 41/21 Q1010 A2983 HR31 RWY NMLMETAR SLVG 061800Z 02007KT 5000 FU SCT025 27/10 Q1023 A3021 HR28 RWYMETAR SLRB 061800Z 00000KT 9999 NSC 39/17 Q1009 A2980 HR28 FU RWY NMLMETAR SLPS 061800Z 06005KT 9999 NSC 38/19 Q1008 A2977 HR33 FU=METAR SLCA 061800Z 00000KT 8000 NSC 36/10 Q1011 A2985 HR22 FU RWY NML=
ZPX0544 061756@CAELT@GG SLZZYMYT@CAELT@061755 SLSBYSYX@CAELT@SABO SLSB 061800@CAELT@METAR SLSB 061800Z 00000KT 5000 FU FEW020 37/21 Q1007 A2974 HR40 RWY@CAELT@NML=@CAELT@
ZPX0545 061756@CAELT@GG SLZZYMYT@CAELT@061756 SLCBYGYZ@CAELT@SABO SLCB 061800@CAELT@METAR SLCB 061800Z 29005KT 9999 FEW036 FEW040CB 29/03 Q1020 A3014 748@CAELT@.1 HR18 CB/SE/NW FU CI NOSIG=@CAELT@
ZPX0546 061758@CAELT@GG SLZZYMYT@CAELT@061756 SLLPYFYA@CAELT@SABO SLRY 061800@CAELT@METAR SLRY 061800Z 00000KT 3000 FU SCT020 36/24 Q1006 A2973 HR48@CAELT@RWY NML=@CAELT@
ZPX0547 061759@CAELT@GG SLZZYMYT@CAELT@061758 SLTRYGYZ@CAELT@SABO SLTR 061800@CAELT@METAR SLTR 061800Z 30006KT 5000 FU FEW020 SCT200 36/24 Q1007 A2974@CAELT@988.6 HR49 NOSIG=@CAELT@
ZPX0550 061800@CAELT@GG SLZZYMYT@CAELT@061800 SLTRYGYS@CAELT@SABO SLTR 061800@CAELT@METAR SLTR 061800Z 30006KT 5000 FU FEW020 SCT200 36/24 Q1007 A2974@CAELT@988.6 HR49 NOSIG=@CAELT@METAR SLGM 061800Z 00000KT 5000 SCT017 BKN200 34/25 Q1008 A2978@CAELT@HR58=@CAELT@METAR SLRI 061800Z 36010KT 7000 NSC FEW017 BKN200 34/25 Q1009 A2980HR58 FU=METAR SLJO 061800Z NIL=METAR SLRA 061800Z 34005KT 5000 FU FEW023 BKN200 38/20 Q1007A2976 HR35 RWY NML=METAR SLMG 061800Z 34004KT 5000 FU FEW020 BKN200 36/23 Q1008A2977 HR45 RWY NML=METAR SLBU 061800Z 03004KT 5000 FU SCT017 35/24 Q1006 A2971 HR55RWY NML=METAR SLSA 061800Z 34007KT 5000 FU SCT020 36/24 Q1007 A2974 HR49=METAR SLSR 061800Z 32008KT 5000 FU FEW017 36/23 Q1007 A2974 HR49METAR SLSM 061800Z 00000KT 3000 FU FEW017 37/24 Q1007 A2974HR47 RWY NML=
ZPX0552 061801@CAELT@GG SLZZYMYT@CAELT@061800 SLCBYGYS@CAELT@SABO SLCB 061800@CAELT@METAR SLCB 061800Z 29005KT 9999 FEW036 FEW040CB 29/03 Q1020 A3014@CAELT@748.1 HR18 CB/SE/NW FU CI NOSIG=@CAELT@METAR SLAL 061800Z 03013KT 9999 FEW020 20/05 Q1027 A3034 702.5 HR37@CAELT@METAR SLPO 061800Z NIL=@CAELT@METAR SLAG 061800Z 07010KT 4000 FU NSC 34/09 Q1013 A2992 885.7 HR21METAR SLVM 061800Z 00000KT 9999 NSC 38/19 Q1007 A2975 HR33 FU=METAR SLTJ 061800Z 13009KT 9999 FEW040 29/09 Q1016 A3001 811.9 HR28METAR SLYA 061800Z 06015KT 9999 NSC 34/17 Q1009 A2980 934.2 HR35=METAR SLBJ 061800Z NIL=METAR SLHI 061800Z NIL=
ZPX0555 061801@CAELT@GG SLZZYMYT@CAELT@061800 SLLPYFYA@CAELT@SABO SLLP 061800@CAELT@METAR SLLP 061800Z 08012G23KT 9999 FEW020 FEW023CB SCT200 16/M09@CAELT@Q1035 A3059 626.5 HR17 P93// CB/SH SW FU AC NOSIG=@CAELT@METAR SLCO 061800Z 36005KT 9999 SCT025 36/25 Q1008 A2979 981.3 HR54@CAELT@FU CI=@CAELT@METAR SLRY 061800Z 00000KT 3000 FU SCT020 36/24 Q1006 A2973 HR48RWY NML=METAR SLRQ 061800Z 36004KT 3000 FU FEW020 38/25 Q1007 A2974 983.2HR47=METAR SLAP 061800Z 00000KT 7000 SCT025 33/22 Q1015 A2998 856.3 HR53FU AC=METAR SLSB 061800Z 00000KT 5000 FU FEW020 37/21 Q1007 A2974 HR40 RWYNML=METAR SLOR 061800Z 36012KT 9999 SCT023 FEW025CB 22/M07 Q1033 A3051654.7 HR14 CB DIST/SE CI=METAR SLUY 061800Z NIL=
ZPX0578 061852@CAELT@GG SLZZYMYT@CAELT@061851 SLRBYGYS@CAELT@SABO SLRB 061900@CAELT@METAR SLRB 061900Z 00000KT 9999 NSC 39/17 Q1008 A2977 HR28 FU RWY NML=@CAELT@
ZPX0580 061852@CAELT@GG SLZZYMYT@CAELT@061851 SLPSZTZX@CAELT@SABO SLPS 061900@CAELT@METAR SLPS 061900Z 06008KT 9999 NSC 39/21 Q1007 A2974 HR36 FU=@CAELT@
ZPX0582 061854@CAELT@GG SLZZYMYT@CAELT@061855 SLVRYGYZ@CAELT@SABO SLVR 061900@CAELT@METAR SLVR 061900Z 01008KT 3000 FU NSC 36/21 Q1007 A2976 HR41 NOSIG=@CAELT@
ZPX0583 061855@CAELT@GG SLZZYMYT@CAELT@061855 SLRQYSYX@CAELT@SABO SLRQ 061900@CAELT@METAR SLRQ 061900Z 36004KT 3000 FU FEW020 38/25 Q1006 A2971 982.1@CAELT@HR46=@CAELT@
ZPX0584 061855@CAELT@GG SLZZYMYT@CAELT@061855 SLAGYSYX@CAELT@SABO SLAG 061900@CAELT@METAR SLAG 061900Z 04008KT 3000 FU NSC 34/09 Q1012 A2990 885.1 HR21@CAELT@
ZPX0585 061855@CAELT@GG SLZZYMYT@CAELT@061855 SLSBYSYX@CAELT@SABO SLSB 061900@CAELT@METAR SLSB 061900Z 00000KT 5000 FU FEW020 38/24 Q1006 A2971 HR46 RWY@CAELT@NML=@CAELT@
ZPX0586 061855@CAELT@GG SLZZYMYT@CAELT@061855 SLCAYGYS@CAELT@SABO SLCA 061900@CAELT@METAR SLCA 061900Z 00000KT 8000 NSC 36/10 Q1010 A2983 HR21 FU RWY NML@CAELT@
ZPX0587 061855@CAELT@GG SLZZYMYT@CAELT@061855 SLCOYGYZ@CAELT@SABO SLCO 061900@CAELT@METAR SLCO 061900Z 34004KT 9999 SCT025 36/25 Q1007 A2975 980.1 HR52@CAELT@FU CI=@CAELT@
ZPX0588 061856@CAELT@GG SLZZYMYT@CAELT@061855 SLETYMYC@CAELT@SABO SLET 061900@CAELT@METAR SLET 061900Z 32009KT 2500 FU NSC 38/19 Q1007 A2974 HR33 NOSIG=@CAELT@
ZPX0590 061856@CAELT@GG SLZZYMYT@CAELT@061856 SLLPYGYZ@CAELT@SABO SLLP 061900@CAELT@METAR SLLP 061900Z 07014KT 9999 SCT020 FEW023CB SCT200 16/M07 Q1035@CAELT@A3057 626.1 HR20 P3783 CB SE/W/NW SH/NW FU AC NOSIG=@CAELT@
ZPX0592 061856@CAELT@GG SLZZYMYT@CAELT@061856 SLCBYGYZ@CAELT@SABO SLCB 061900@CAELT@METAR SLCB 061900Z 33010KT 280V030 9999 FEW030 FEW040CB SCT200@CAELT@26/02 Q1020 A3013 747.7 HR20 CB/SE/W/NW AC FU NOSIG=@CAELT@
ZPX0593 061856@CAELT@GG SLZZYMYT@CAELT@061856 SLSAYGYS@CAELT@SABO SLSA 061900@CAELT@METAR SLSA 061900Z 30005KT 5000 FU SCT020 37/24 Q1006 A2972 HR43=@CAELT@
ZPX0594 061856@CAELT@GG SLZZYMYT@CAELT@061856 SLSAYGYS@CAELT@SABO SLSA 061900@CAELT@METAR SLSA 061900Z 30005KT 5000 FU SCT020 37/24 Q1006 A2972 HR43=@CAELT@
ZPX0595 061857@CAELT@GG SLZZYMYT@CAELT@061856 SLTJYGYZ@CAELT@SABO SLTJ 061900@CAELT@METAR SLTJ 061900Z 13010KT 9999 FEW040 28/08 Q1015 A3000 811.4 HR27@CAELT@FU AC=@CAELT@
ZPX0596 061857@CAELT@GG SLZZYMYT@CAELT@061857 SLVRYGYS@CAELT@SABO SLVR 061900@CAELT@METAR SLVR 061900Z 01008KT 3000 FU NSC 36/21 Q1007 A2976 HR41 NOSIG=@CAELT@METAR SLET 061900Z 32009KT 2500 FU NSC 38/19 Q1007 A2974 HR33 NOSIG=@CAELT@METAR SLAS 061900Z 36006KT 2000 FU NSC 39/23 Q1008 A2977 HR40 RWY NML@CAELT@METAR SLJV 061900Z 00000KT 3000 FU NSC 36/22 Q1008 A2977 HR44 RWY NML@CAELT@METAR SLCP 061900Z 00000KT 1000 FU NSC 36/17 Q1011 A2985 HR31 RWY NMLMETAR SLSI 061900Z 00000KT 3000 FU SCT017 38/19 Q1007 A2974 HR33 RWYNML=METAR SLTI 061900Z 00000KT 7000 NSC 41/14 Q1009 A2980 HR21 FU RWY NMLMETAR SLJE 061900Z 00000KT 2500 FU NSC 41/21 Q1009 A2980 HR31 RWY NMLMETAR SLVG 061900Z 36009KT 5000 FU SCT025 26/11 Q1022 A3018 HR32 RWYMETAR SLRB 061900Z 00000KT 9999 NSC 39/17 Q1008 A2977 HR28 FU RWY NMLMETAR SLPS 061900Z 06008KT 9999 NSC 39/21 Q1007 A2974 HR36 FU=METAR SLCA 061900Z 00000KT 8000 NSC 36/10 Q1010 A2983 HR21 FU RWY NML=
ZPX0599 061902@CAELT@GG SLZZYMYT@CAELT@061901 SLTRYGYZ@CAELT@SABO SLTR 061900@CAELT@METAR SLTR 061900Z 30006KT 5000 FU FEW020 SCT200 37/24 Q1006 A2971@CAELT@987.7 HR48 NOSIG=@CAELT@
ZPX0600 061903@CAELT@GG SLZZYMYT@CAELT@061902 SLTRYGYS@CAELT@SABO SLTR 061900@CAELT@METAR SLTR 061900Z 30006KT 5000 FU FEW020 SCT200 37/24 Q1006 A2971@CAELT@987.7 HR48 NOSIG=@CAELT@METAR SLSA 061900Z 30005KT 5000 FU SCT020 37/24 Q1006 A2972 HR43=@CAELT@METAR SLGM 061900Z 34006KT 5000 FU SCT017 BKN200 35/25 Q1007 A2976@CAELT@HR56=METAR SLRI 061900Z 03005KT 7000 FEW017 BKN200 33/25 Q1008 A2978 HR63METAR SLJO 061900Z NIL=METAR SLRA 061900Z 03005KT 5000 FU FEW023 BKN200 38/20 Q1007 A2973HR36 RWY NML=METAR SLMG 061900Z 09004KT 5000 FU FEW020 BKN200 37/22 Q1007 A2975HR43 RWY NML=METAR SLBU 061900Z 00000KT 3000 FU SCT017 37/24 Q1005 A2968 HR47RWY NML=METAR SLSR 061900Z 32008KT 5000 FU FEW017 37/23 Q1005 A2969 HR43METAR SLSM 061900Z 36004KT 4000 FU FEW017 38/22 Q1006 A2971 HR41
ZPX0602 061903@CAELT@GG SLZZYMYT@CAELT@061901 SLCBYGYS@CAELT@SABO SLCB 061900@CAELT@METAR SLCB 061900Z 33010KT 280V030 9999 FEW030 FEW040CB SCT200@CAELT@26/02 Q1020 A3013 747.7 HR20 CB/SE/W/NW AC FU NOSIG=@CAELT@METAR SLAL 061900Z 36011KT 9999 FEW020 FEW030CB SCT200 21/05 Q1027@CAELT@A3033 702.3 HR34 CB SW/W FU=@CAELT@METAR SLPO 061900Z NIL=METAR SLAG 061900Z 04008KT 3000 FU NSC 34/09 Q1012 A2990 885.1 HR21METAR SLVM 061900Z NIL=METAR SLTJ 061900Z 13010KT 9999 FEW040 28/08 Q1015 A3000 811.4 HR27FU AC=METAR SLYA 061900Z NIL=METAR SLBJ 061900Z NIL=METAR SLHI 061900Z NIL=
ZPX0603 061904@CAELT@GG SLZZYMYT@CAELT@061900 SLLPYFYA@CAELT@SABO SLRY 061900@CAELT@METAR SLRY 061900Z 36003KT 3000 FU FEW020 39/21 Q1005 A2970 HR36@CAELT@RWY NML=@CAELT@
ZPX0604 061906@CAELT@GG SLZZYMYT@CAELT@061904 SLLPYFYA@CAELT@SABO SLLP 061900@CAELT@METAR SLLP 061900Z 07014KT 9999 SCT020 FEW023CB SCT200 16/M07 Q1035@CAELT@A3057 626.1 HR20 P3783 CB SE/W/NW SH/NW FU AC NOSIG=@CAELT@METAR SLCO 061900Z 34004KT 9999 SCT025 36/25 Q1007 A2975 980.1 HR52@CAELT@FU CI=@CAELT@METAR SLRY 061900Z 36003KT 3000 FU FEW020 39/21 Q1005 A2970 HR36RWY NML=METAR SLRQ 061900Z 36004KT 3000 FU FEW020 38/25 Q1006 A2971 982.1HR46=METAR SLSB 061900Z 00000KT 5000 FU FEW020 38/24 Q1006 A2971 HR46 RWYNML=
ZPX0623 061944@CAELT@GG SLZZYMYT@CAELT@061944 SLPSZTZX@CAELT@SABO SLPS 062000@CAELT@METAR SLPS 062000Z 03006KT 9999 NSC 39/21 Q1006 A2971 HR36 FU=@CAELT@
ZPX0630 061953@CAELT@GG SLZZYMYT@CAELT@061952 SLETYMYC@CAELT@SABO SLET 062000@CAELT@METAR SLET 062000Z 34010KT 2500 FU NSC 36/18 Q1006 A2972 HR35 NOSIG=@CAELT@
ZPX0632 061954@CAELT@GG SLZZYMYT@CAELT@061954 SLSAYGYS@CAELT@SABO SLSA 062000@CAELT@METAR SLSA 062000Z 31006KT 5000 FU SCT020 37/24 Q1006 A2971 HR47=@CAELT@
ZPX0633 061955@CAELT@GG SLZZYMYT@CAELT@061954 SLSAYGYS@CAELT@SABO SLSA 062000@CAELT@METAR SLSA 062000Z 31006KT 5000 FU SCT020 37/24 Q1006 A2971 HR47=@CAELT@
ZPX0634 061955@CAELT@GG SLZZYMYT@CAELT@061955 SLRQYSYX@CAELT@SABO SLRQ 062000@CAELT@METAR SLRQ 062000Z 36004KT 3000 FU NSC 38/23 Q1005 A2969 981.3 HR43=@CAELT@
ZPX0635 061955@CAELT@GG SLZZYMYT@CAELT@061955 SLCOYGYZ@CAELT@SABO SLCO 062000@CAELT@METAR SLCO 062000Z 00000KT 9999 SCT025 36/25 Q1006 A2971 978.9 HR54@CAELT@FU CI=@CAELT@
ZPX0636 061956@CAELT@GG SLZZYMYT@CAELT@061955 SLVRYGYZ@CAELT@SABO SLVR 062000@CAELT@METAR SLVR 062000Z 36009KT 3000 FU NSC 36/20 Q1006 A2973 HR40 NOSIG=@CAELT@
ZPX0638 061957@CAELT@GG SLZZYMYT@CAELT@061955 SLCAYGYS@CAELT@SABO SLCA 062000@CAELT@METAR SLCA 062000Z 00000KT 7000 NSC 37/09 Q1009 A2980 HR18 FU RWY NML@CAELT@
ZPX0639 061957@CAELT@GG SLZZYMYT@CAELT@061955 SLSBYSYX@CAELT@SABO SLSB 062000@CAELT@METAR SLSB 062000Z 00000KT 5000 FU FEW020 38/23 Q1005 A2968 HR43 RWY@CAELT@NML=@CAELT@
ZPX0640 061957@CAELT@GG SLZZYMYT@CAELT@061956 SLVRYGYZ@CAELT@SABO SLVR 062000@CAELT@METAR SLVR 062000Z 36009KT 3000 FU NSC 36/20 Q1006 A2973 HR40 NOSIG=@CAELT@
ZPX0641 061958@CAELT@GG SLZZYMYT@CAELT@061955 SLTJYGYZ@CAELT@SABO SLTJ 062000@CAELT@METAR SLTJ 062000Z 13012KT 9999 SCT040 SCT070 27/08 Q1015 A3000 811.5@CAELT@HR30 FU=@CAELT@
ZPX0642 061958@CAELT@GG SLZZYMYT@CAELT@061955 SLTRYGYZ@CAELT@SABO SLTR 062000@CAELT@METAR SLTR 062000Z 30004KT 5000 FU FEW020 SCT200 36/23 Q1005 A2968@CAELT@986.7 HR46 NOSIG=@CAELT@
ZPX0643 061958@CAELT@GG SLZZYMYT@CAELT@061956 SLLPYGYZ@CAELT@SABO SLLP 062000@CAELT@METAR SLLP 062000Z 05016KT 9999 SCT020 FEW023CB BKN200 14/M03 Q1035@CAELT@A3057 626.0 HR29 P3783 CB SE/W/NW SH W/NW FU AC NOSIG=@CAELT@
ZPX0644 061958@CAELT@GG SLZZYMYT@CAELT@061956 SLCBYGYZ@CAELT@SABO SLCB 062000@CAELT@METAR SLCB 062000Z 36008KT 300V060 9999 FEW030 FEW040CB BKN200@CAELT@25/04 Q1020 A3012 747.6 HR26 CB/SE/SW/W AC FU NOSIG=@CAELT@
ZPX0645 061958@CAELT@GG SLZZYMYT@CAELT@061956 SLTRYGYZ@CAELT@SABO SLTR 062000@CAELT@METAR SLTR 062000Z 30004KT 5000 FU FEW020 SCT200 36/23 Q1005 A2968@CAELT@986.7 HR46 NOSIG=@CAELT@
ZPX0646 061958@CAELT@GG SLZZYMYT@CAELT@061956 SLTRYGYZ@CAELT@SABO SLTR 062000@CAELT@METAR SLTR 062000Z 30004KT 5000 FU FEW020 SCT200 36/23 Q1005 A2968@CAELT@986.7 HR46 NOSIG=@CAELT@
ZPX0647 061958@CAELT@GG SLZZYMYT@CAELT@061956 SLRBYGYS@CAELT@SABO SLRB 062000@CAELT@METAR SLRB 062000Z 00000KT 9999 NSC 39/17 Q1007 A2974 HR28 FU RWY NML=@CAELT@
ZPX0648 061958@CAELT@GG SLZZYMYT@CAELT@061957 SLLPYGYZ@CAELT@SABO SLLP 062000@CAELT@METAR SLLP 062000Z 05016KT 9999 SCT020 FEW023CB BKN200 14/M03 Q1035@CAELT@A3057 626.0 HR29 P3783 CB SE/W/NW SH W/NW FU AC NOSIG=@CAELT@
ZPX0649 061958@CAELT@GG SLZZYMYT@CAELT@061956 SLTRYGYZ@CAELT@SABO SLTR 062000@CAELT@METAR SLTR 062000Z 30004KT 5000 FU FEW020 SCT200 36/23 Q1005 A2968@CAELT@986.7 HR46 NOSIG=@CAELT@
ZPX0650 061959@CAELT@GG SLZZYMYT@CAELT@061958 SLRBYGYS@CAELT@SABO SLRB 062000@CAELT@METAR SLRB 062000Z 00000KT 9999 NSC 39/17 Q1007 A2974 HR28 FU RWY NML=@CAELT@
ZPX0651 061959@CAELT@GG SLZZYMYT@CAELT@061958 SLRBYGYS@CAELT@SABO SLRB 062000@CAELT@METAR SLRB 062000Z 00000KT 9999 NSC 39/17 Q1007 A2974 HR28 FU RWY NML=@CAELT@
ZPX0652 061959@CAELT@GG SLZZYMYT@CAELT@061959 SLVRYGYS@CAELT@SABO SLVR 062000@CAELT@METAR SLVR 062000Z 36009KT 3000 FU NSC 36/20 Q1006 A2973 HR40 NOSIG=@CAELT@METAR SLET 062000Z 34010KT 2500 FU NSC 36/18 Q1006 A2972 HR35 NOSIG=@CAELT@METAR SLAS 062000Z 00000KT 1500 FU NSC 38/23 Q1007 A2974 HR42 RWY NML@CAELT@METAR SLJV 062000Z 00000KT 3000 FU NSC 34/21 Q1006 A2971 HR46 RWY NML@CAELT@METAR SLCP 062000Z 00000KT 1000 FU NSC 36/18 Q1010 A2983 HR35 RWY NMLMETAR SLSI 062000Z 00000KT 3000 FU SCT017 38/19 Q1006 A2971 HR34 RWYNML=METAR SLTI 062000Z 00000KT 7000 NSC 40/14 Q1008 A2977 HR22 FU RWY NMLMETAR SLJE 062000Z 00000KT 2500 FU NSC 41/21 Q1009 A2980 HR33 RWY NMLMETAR SLVG 062000Z 36007KT 4000 FU SCT025 26/10 Q1021 A3015 HR32 RWYMETAR SLRB 062000Z 00000KT 9999 NSC 39/17 Q1007 A2974 HR28 FU RWY NMLMETAR SLPS 062000Z 03006KT 9999 NSC 39/21 Q1006 A2971 HR36 FU=METAR SLCA 062000Z 00000KT 7000 NSC 37/09 Q1009 A2980 HR18 FU RWY NML=
ZPX0655 062001@CAELT@GG SLZZYMYT@CAELT@062000 SLCBYGYS@CAELT@SABO SLCB 062000@CAELT@METAR SLCB 062000Z 36008KT 300V060 9999 FEW030 FEW040CB BKN200@CAELT@25/04 Q1020 A3012 747.6 HR26 CB/SE/SW/W AC FU NOSIG=@CAELT@METAR SLAL 062000Z 04012KT 9999 FEW020 FEW033CB BKN200 19/05 Q1027@CAELT@A3033 702.2 HR39 CB S/SW/W FU=@CAELT@METAR SLPO 062000Z NIL=METAR SLAG 062000Z NIL=METAR SLVM 062000Z NIL=METAR SLTJ 062000Z 13012KT 9999 SCT040 SCT070 27/08 Q1015 A3000811.5 HR30 FU=METAR SLYA 062000Z NIL=METAR SLBJ 062000Z NIL=METAR SLHI 062000Z NIL=
ZPX0658 062004@CAELT@GG SLZZYMYT@CAELT@062000 SLTRYGYS@CAELT@SABO SLTR 062000@CAELT@METAR SLTR 062000Z 30004KT 5000 FU FEW020 SCT200 36/23 Q1005 A2968@CAELT@986.7 HR46 NOSIG=@CAELT@METAR SLGM 062000Z 35010KT 5000 FU SCT017 FEW023CB KN200 35/25@CAELT@Q1006 A2972 HR57 CB NE/E=@CAELT@METAR SLRI 062000Z 03007KT 5000 FU FEW017 BKN200 34/25 Q1007 A2974HR59=METAR SLJO 062000Z NIL=METAR SLRA 062000Z 03003KT 5000 FU FEW023 FEW025CB BKN200 37/20Q1006 A2971 HR37 CB SW RWY NML=METAR SLMG 062000Z 03004KT 5000 FU FEW020 BKN200 37/22 Q1006A2973 HR41 RWY NML=METAR SLBU 062000Z 00000KT 3000 FU FEW017 37/24 Q1004 A2965 HR48RWY NML=METAR SLSA 062000Z 31006KT 5000 FU SCT020 37/24 Q1006 A2971 HR47=METAR SLSR 062000Z 32010KT 5000 FU TSVCSH FEW020CB BKN200 36/24Q1004 A2966 HR48 CB/SH NE/E/SE TS SE RWY NML=METAR SLSM 062000Z 36003KT 4000 FU FEW017 38/19 Q1005 A2968 HR33
ZPX0659 062007@CAELT@GG SLZZYMYT@CAELT@062000 SLLPYFYA@CAELT@SABO SLRY 062000@CAELT@METAR SLRY 062000Z 00000KT 3000 FU FEW020 38/23 Q1005 A2969 HR40@CAELT@RWY NML=@CAELT@
ZPX0660 062008@CAELT@GG SLZZYMYT@CAELT@062004 SLLPYFYA@CAELT@SABO SLLP 062000@CAELT@METAR SLLP 062000Z 05016KT 9999 SCT020 FEW023CB BKN200 14/M03 Q1035@CAELT@A3057 626.0 HR29 P3783 CB SE/W/NW SH W/NW FU AC NOSIG=@CAELT@METAR SLCO 062000Z 00000KT 9999 SCT025 36/25 Q1006 A2971 978.9 HR54@CAELT@FU CI=@CAELT@METAR SLRY 062000Z 00000KT 3000 FU FEW020 38/23 Q1005 A2969 HR40RWY NML=METAR SLRQ 062000Z 36004KT 3000 FU NSC 38/23 Q1005 A2969 981.3 HR43=METAR SLSB 062000Z 00000KT 5000 FU FEW020 38/23 Q1005 A2968 HR43 RWYNML=
ZPX0676 062045@CAELT@GG SLZZYMYT@CAELT@062044 SLPSZTZX@CAELT@SABO SLPS 062100@CAELT@METAR SLPS 062100Z 03005KT 9999 NSC 37/19 Q1006 A2971 HR34 FU=@CAELT@
ZPX0681 062052@CAELT@GG SLZZYMYT@CAELT@062033 SLETYMYC@CAELT@SABO SLET 062100@CAELT@METAR SLET 062100Z 34010KT 2500 FU NSC 35/19 Q1006 A2972 HR39 NOSIG=@CAELT@
ZPX0683 062053@CAELT@GG SLZZYMYT@CAELT@062053 SLCAYGYS@CAELT@SABO SLCA 062100@CAELT@METAR SLCA 062100Z 00000KT 6000 NSC 36/09 Q1009 A2980 HR20 FU RWY NML@CAELT@
ZPX0684 062053@CAELT@GG SLZZYMYT@CAELT@062053 SLRBYGYS@CAELT@SABO SLRB 062100@CAELT@METAR SLRB 062100Z 00000KT 9999 NSC 39/18 Q1007 A2974 HR28 FU RWY NML=@CAELT@
ZPX0685 062054@CAELT@GG SLZZYMYT@CAELT@062054 SLSAYGYS@CAELT@SABO SLSA 062100@CAELT@METAR SLSA 062100Z 06007KT 5000 FU FEW020 BKN200 33/22 Q1005 A2970@CAELT@HR51=@CAELT@
ZPX0686 062054@CAELT@GG SLZZYMYT@CAELT@062054 SLSAYGYS@CAELT@SABO SLSA 062100@CAELT@METAR SLSA 062100Z 06007KT 5000 FU FEW020 BKN200 33/22 Q1005 A2970@CAELT@HR51=@CAELT@
ZPX0687 062055@CAELT@GG SLZZYMYT@CAELT@062055 SLRQYSYX@CAELT@SABO SLRQ 062100@CAELT@METAR SLRQ 062100Z 36004KT 3000 FU NSC 37/23 Q1004 A2967 980.6 HR46=@CAELT@
ZPX0688 062055@CAELT@GG SLZZYMYT@CAELT@062055 SLVRYGYZ@CAELT@SABO SLVR 062100@CAELT@METAR SLVR 062100Z 34007KT 3000 FU NSC 35/20 Q1006 A2973 HR42 NOSIG=@CAELT@
ZPX0689 062055@CAELT@GG SLZZYMYT@CAELT@062055 SLSBYSYX@CAELT@SABO SLSB 062100@CAELT@METAR SLSB 062100Z 33004KT 5000 FU FEW020 36/24 Q1004 A2967 HR50 RWY@CAELT@NML=@CAELT@
ZPX0690 062056@CAELT@GG SLZZYMYT@CAELT@062056 SLCBYGYZ@CAELT@SABO SLCB 062100@CAELT@METAR SLCB 062100Z 01008KT 320V070 9999 FEW030 FEW040CB BKN200@CAELT@24/02 Q1020 A3012 747.5 HR24 CB/SE/SW AC FU NOSIG=@CAELT@
ZPX0691 062056@CAELT@GG SLZZYMYT@CAELT@062056 SLLPYGYZ@CAELT@SABO SLLP 062100@CAELT@METAR SLLP 062100Z 05015KT 9999 FEW020 FEW023CB SCT200 14/M02 Q1034@CAELT@A3056 625.8 HR34 P94// CB W/NW SH/NW FU AC NOSIG=@CAELT@
ZPX0692 062056@CAELT@GG SLZZYMYT@CAELT@062056 SLCOYGYZ@CAELT@SABO SLCO 062100@CAELT@METAR SLCO 062100Z 36006KT 9999 FEW025 35/25 Q1005 A2970 978.6 HR55@CAELT@FU CI=@CAELT@
ZPX0693 062056@CAELT@GG SLZZYMYT@CAELT@062055 SLTRYGYZ@CAELT@SABO SLTR 062100@CAELT@METAR SLTR 062100Z 00000KT 5000 FU FEW020 SCT200 35/24 Q1004 A2967@CAELT@986.4 HR51 NOSIG=@CAELT@
ZPX0700 062057@CAELT@GG SLZZYMYT@CAELT@062056 SLTJYGYZ@CAELT@SABO SLTJ 062100@CAELT@METAR SLTJ 062100Z 11006KT 9999 SCT040 BKN070 27/09 Q1016 A3000 811.6@CAELT@HR32 FU=@CAELT@
ZPX0701 062057@CAELT@GG SLZZYMYT@CAELT@062057 SLVRYGYS@CAELT@SABO SLVR 062100@CAELT@METAR SLVR 062100Z 34007KT 3000 FU NSC 35/20 Q1006 A2973 HR42 NOSIG=@CAELT@METAR SLET 062100Z 34010KT 2500 FU NSC 35/19 Q1006 A2972 HR39 NOSIG=@CAELT@METAR SLAS 062100Z 00000KT 1500 FU NSC 37/22 Q1007 A2974 HR42 RWY NML@CAELT@METAR SLJV 062100Z 00000KT 3000 FU NSC 33/20 Q1007 A2974 HR48 RWY NML@CAELT@METAR SLCP 062100Z 00000KT 1000 FU NSC 35/19 Q1010 A2983 HR40 RWY NMLMETAR SLSI 062100Z 00000KT 3000 FU SCT017 37/20 Q1006 A2971 HR36 RWYNML=METAR SLTI 062100Z 00000KT 6000 NSC 40/13 Q1008 A2977 HR22 FU RWY NMLMETAR SLJE 062100Z 00000KT 2500 FU NSC 40/21 Q1008 A2977 HR33 RWY NMLMETAR SLVG 062100Z 35006KT 4000 FU FEW023 24/11 Q1021 A3015 HR37 RWYMETAR SLRB 062100Z 00000KT 9999 NSC 39/18 Q1007 A2974 HR28 FU RWY NMLMETAR SLPS 062100Z 03005KT 9999 NSC 37/19 Q1006 A2971 HR34 FU=METAR SLCA 062100Z 00000KT 6000 NSC 36/09 Q1009 A2980 HR20 FU RWY NML=
ZPX0702 062058@CAELT@GG SLZZYMYT@CAELT@062057 SLLPYFYA@CAELT@SABO SLRY 062100@CAELT@METAR SLRY 062100Z 00000KT 3000 FU FEW020 27/23 Q1004 A2967 HR43@CAELT@RWY NML=@CAELT@
ZPX0703 062059@CAELT@GG SLZZYMYT@CAELT@062059 SLLPYFYA@CAELT@SABO SLLP 062100@CAELT@METAR SLLP 062100Z 05015KT 9999 FEW020 FEW023CB SCT200 14/M02 Q1034@CAELT@A3056 625.8 HR34 P94// CB W/NW SH/NW FU AC NOSIG=@CAELT@METAR SLCO 062100Z 36006KT 9999 FEW025 35/25 Q1005 A2970 978.6 HR55@CAELT@FU CI=@CAELT@METAR SLRY 062100Z 00000KT 3000 FU FEW020 27/23 Q1004 A2967 HR43RWY NML=METAR SLRQ 062100Z 36004KT 3000 FU NSC 37/23 Q1004 A2967 980.6 HR46=METAR SLSB 062100Z 33004KT 5000 FU FEW020 36/24 Q1004 A2967 HR50 RWYNML=
ZPX0704 062059@CAELT@GG SLZZYMYT@CAELT@062059 SLTRYGYS@CAELT@SABO SLTR 062100@CAELT@METAR SLTR 062100Z 00000KT 5000 FU FEW020 SCT200 35/24 Q1004 A2967@CAELT@986.4 HR51 NOSIG=@CAELT@METAR SLGM 062100Z 23008KT 5000 TS VCSH FU SCT017 FEW020CB BKN200 31/@CAELT@21 Q1006 A2973 HR57 CB/SH SW/W TS SW=@CAELT@METAR SLRI 062100Z 000000KT 5000 FU FEW017 BKN200 34/25 Q1006 A2972HR61=METAR SLJO 062100Z NIL=METAR SLRA 062100Z 30005KT 5000 FU FEW023 BKN200 34/22 Q1005 A2969HR48 RWY NML-METAR SLMG 062100Z 00000KT 5000 FU FEW020 BKN200 35/22 Q1006 A2972HR47 RWY NML=METAR SLBU 062100Z NIL=METAR SLSA 062100Z 06007KT 5000 FU FEW020 BKN200 33/22 Q1005 A2970HR51=METAR SLSR 062100Z 32010KT 3000 FU VCSH SCT017 FEW023CB BKN20036/22 Q1003 A2964 HR45 RETS CB/SH SE/S RWY NML=METAR SLSM 062100Z 36008KT 5000 FU FEW017 FEW020CB SCT200 35/23Q1004 A2967 HR52 CB N/NW/SE RWY NML=
ZPX0705 062100@CAELT@GG SLZZYMYT@CAELT@062059 SLTRYGYS@CAELT@SABO SLTR 062100@CAELT@METAR SLTR 062100Z 00000KT 5000 FU FEW020 SCT200 35/24 Q1004 A2967@CAELT@986.4 HR51 NOSIG=@CAELT@METAR SLGM 062100Z 23008KT 5000 TS VCSH FU SCT017 FEW020CB BKN200 31/@CAELT@21 Q1006 A2973 HR57 CB/SH SW/W TS SW=@CAELT@METAR SLRI 062100Z 000000KT 5000 FU FEW017 BKN200 34/25 Q1006 A2972HR61=METAR SLJO 062100Z NIL=METAR SLRA 062100Z 30005KT 5000 FU FEW023 BKN200 34/22 Q1005 A2969HR48 RWY NML=METAR SLMG 062100Z 00000KT 5000 FU FEW020 BKN200 35/22 Q1006 A2972HR47 RWY NML=METAR SLBU 062100Z NIL=METAR SLSA 062100Z 06007KT 5000 FU FEW020 BKN200 33/22 Q1005 A2970HR51=METAR SLSR 062100Z 32010KT 3000 FU VCSH SCT017 FEW023CB BKN20036/22 Q1003 A2964 HR45 RETS CB/SH SE/S RWY NML=METAR SLSM 062100Z 36008KT 5000 FU FEW017 FEW020CB SCT200 35/23Q1004 A2967 HR52 CB N/NW/SE RWY NML=
ZPX0708 062101@CAELT@GG SLZZYMYT@CAELT@062100 SLCBYGYS@CAELT@SABO SLCB 062100@CAELT@METAR SLCB 062100Z 01008KT 320V070 9999 FEW030 FEW040CB BKN200@CAELT@24/02 Q1020 A3012 747.5 HR24 CB/SE/SW AC FU NOSIG=@CAELT@METAR SLAL 062100Z 36006KT 9999 FEW020 FEW033CB BKN200 18/02 Q1027@CAELT@A3034 702.5 HR35 CB SW/W/NW FU=@CAELT@METAR SLPO 062100Z NIL=METAR SLAG 062100Z NIL=METAR SLVM 062100Z NIL=METAR SLTJ 062100Z 11006KT 9999 SCT040 BKN070 27/09 Q1016 A3000811.6 HR32 FU=METAR SLYA 062100Z NIL=METAR SLBJ 062100Z NIL=METAR SLHI 062100Z NIL=
ZPX0737 062151@CAELT@GG SLZZYMYT@CAELT@062151 SLETYMYC@CAELT@SABO SLET 062200@CAELT@METAR SLET 062200Z 29008KT 1800 FU NSC 33/20 Q1006 A2973 HR45 NOSIG=@CAELT@
ZPX0738 062152@CAELT@GG SLZZYMYT@CAELT@062152 SLRBYGYS@CAELT@SABO SLRB 062200@CAELT@METAR SLRB 062200Z 00000KT 9999 NSC 37/18 Q1008 A2977 HR33 FU RWY NML=@CAELT@
ZPX0739 062153@CAELT@GG SLZZYMYT@CAELT@062153 SLCAYGYS@CAELT@SABO SLCA 062200@CAELT@METAR SLCA 062200Z 00000KT 6000 NSC 34/11 Q1010 A2983 HR26 FU CS RWY@CAELT@NML=@CAELT@
ZPX0742 062155@CAELT@GG SLZZYMYT@CAELT@062155 SLTRYGYZ@CAELT@SABO SLTR 062200@CAELT@METAR SLTR 062200Z 00000KT 5000 FU FEW020 SCT200 33/23 Q1004 A2967@CAELT@986.4 HR56 NOSIG=@CAELT@
ZPX0743 062155@CAELT@GG SLZZYMYT@CAELT@062155 SLVRYGYZ@CAELT@SABO SLVR 062200@CAELT@METAR SLVR 062200Z 31004KT 3000 FU NSC 33/22 Q1007 A2974 HR52 NOSIG=@CAELT@
ZPX0744 062155@CAELT@GG SLZZYMYT@CAELT@062155 SLTJYGYZ@CAELT@SABO SLTJ 062200@CAELT@METAR SLTJ 062200Z 08006KT 9999 SCT036 BKN070 26/10 Q1017 A3003 812.4@CAELT@HR37 FU=@CAELT@
ZPX0745 062156@CAELT@GG SLZZYMYT@CAELT@062155 SLSBYSYX@CAELT@SABO SLSB 062200@CAELT@METAR SLSB 062200Z 00000KT 5000 FU FEW025CB 34/25 Q1004 A2966 HR58 CB@CAELT@W RWY NML=@CAELT@
ZPX0746 062156@CAELT@GG SLZZYMYT@CAELT@062155 SLRQYSYX@CAELT@SABO SLRQ 062200@CAELT@METAR SLRQ 062200Z 00000KT 3000 FU FEW080 34/25 Q1004 A2967 980.7@CAELT@HR59=@CAELT@
ZPX0747 062156@CAELT@GG SLZZYMYT@CAELT@062156 SLSAYGYS@CAELT@SABO SLSA 062200@CAELT@METAR SLSA 062200Z 00000KT 5000 FU FEW020 BKN200 32/22 Q1005 A2968@CAELT@HR56=@CAELT@
ZPX0748 062156@CAELT@GG SLZZYMYT@CAELT@062156 SLSAYGYS@CAELT@SABO SLSA 062200@CAELT@METAR SLSA 062200Z 00000KT 5000 FU FEW020 BKN200 32/22 Q1005 A2968@CAELT@HR56=@CAELT@
ZPX0749 062157@CAELT@GG SLZZYMYT@CAELT@062156 SLLPYGYZ@CAELT@SABO SLLP 062200@CAELT@METAR SLLP 062200Z 04015KT 9999 FEW017 SCT200 12/M03 Q1034 A3055@CAELT@625.7 HR33 P93// FU NOSIG=@CAELT@
ZPX0750 062157@CAELT@GG SLZZYMYT@CAELT@062156 SLPSZTZX@CAELT@SABO SLPS 062200@CAELT@METAR SLPS 062200Z 00000KT 9999 NSC 34/23 Q1006 A2971 HR51 FU=@CAELT@
ZPX0752 062158@CAELT@GG SLZZYMYT@CAELT@062158 SLVRYGYS@CAELT@SABO SLVR 062200@CAELT@METAR SLVR 062200Z 31004KT 3000 FU NSC 33/22 Q1007 A2974 HR52 NOSIG=@CAELT@METAR SLET 062200Z 29008KT 1800 FU NSC 33/20 Q1006 A2973 HR45 NOSIG=@CAELT@METAR SLAS 062200Z 00000KT 1500 FU NSC 36/23 Q1007 A2974 HR48 RWY NML@CAELT@METAR SLJV 062200Z 00000KT 2000 FU NSC 31/21 Q1006 A2971 HR57 RWY NML@CAELT@METAR SLCP 062200Z 00000KT 1000 FU NSC 33/21 Q1010 A2983 HR50 RWY NMLMETAR SLSI 062200Z 00000KT 3000 FU NSC 34/18 Q1006 A2971 HR39 RWY NMLMETAR SLTI 062200Z 00000KT 6000 NSC 36/17 Q1008 A2977 HR32 FU RWY NMLMETAR SLJE 062200Z 00000KT 2500 FU NSC 38/20 Q1009 A2980 HR35 RWY NMLMETAR SLRB 062200Z 00000KT 9999 NSC 37/18 Q1008 A2977 HR33 FU RWY NMLMETAR SLPS 062200Z 00000KT 9999 NSC 34/23 Q1006 A2971 HR51 FU=METAR SLCA 062200Z 00000KT 6000 NSC 34/11 Q1010 A2983 HR26 FU CS RWYNML=
ZPX0753 062158@CAELT@GG SLZZYMYT@CAELT@062157 SLCBYGYZ@CAELT@SABO SLCB 062200@CAELT@METAR SLCB 062200Z 04005KT 330V090 9999 FEW036 FEW040CB BKN200@CAELT@23/02 Q1020 A3013 747.8 HR24 CB DIST/SE AC FU NOSIG=@CAELT@
ZPX0754 062159@CAELT@GG SLZZYMYT@CAELT@062158 SLTRYGYS@CAELT@SABO SLTR 062200@CAELT@METAR SLTR 062200Z 00000KT 5000 FU FEW020 SCT200 33/23 Q1004 A2967@CAELT@986.4 HR56 NOSIG=@CAELT@METAR SLGM 062200Z 00000KT 5000 FEW017 FEW020CB BKN200 27/19 Q1007@CAELT@A2974 HR61 RETS CB NW=@CAELT@METAR SLRI 062200Z 09007KT 5000 FU FEW017 BKN200 31/25 Q1007 A2976HR71 AC=METAR SLJO 062200Z NIL=METAR SLRA 062200Z 00000KT 5000 FU NSC 33/23 Q1005 A2969 HR55 CIRWY NML=METAR SLMG 062200Z 00000KT 5000 FU FEW020 BKN200 33/24 Q1006 A2972HR58 RWY NML=METAR SLBU 062200Z NIL=METAR SLSA 062200Z 00000KT 5000 FU FEW020 BKN200 32/22 Q1005 A2968HR56=METAR SLSR 062200Z 32006KT 3000 FU FEW017 FEW023CB BKN200 35/22Q1003 A2963 HR47 CB SE RWY NML=METAR SLSM 062200Z 36006KT 5000 FU FEW020 SCT200 33/21 Q1004 A2966HR47 RWY NML=
ZPX0755 062159@CAELT@GG SLZZYMYT@CAELT@062158 SLCBYGYS@CAELT@SABO SLCB 062200@CAELT@METAR SLCB 062200Z 04005KT 330V090 9999 FEW036 FEW040CB BKN200@CAELT@23/02 Q1020 A3013 747.8 HR24 CB DIST/SE AC FU NOSIG=@CAELT@METAR SLAL 062200Z 24011KT 9999 FEW017 FEW030CB BKN200 16/02 Q1028@CAELT@A3037 703.2 HR40 CB SW/W/NW FU=@CAELT@METAR SLTJ 062200Z 08006KT 9999 SCT036 BKN070 26/10 Q1017 A3003812.4 HR37 FU=
ZPX0757 062200@CAELT@GG SLZZYMYT@CAELT@062159 SLLPYFYA@CAELT@SABO SLRY 062100@CAELT@METAR SLRY 062100Z 00000KT 3000 FU NSC 35/24 Q1004 A2967 HR53@CAELT@RWY NML=@CAELT@
ZPX0760 062207@CAELT@GG SLZZYMYT@CAELT@062201 SLLPYFYA@CAELT@SABO SLLP 062200@CAELT@METAR SLLP 062200Z 04015KT 9999 FEW017 SCT200 12/M03 Q1034 A3055@CAELT@625.7 HR33 P93// FU NOSIG=@CAELT@METAR SLRY 062100Z 00000KT 3000 FU NSC 35/24 Q1004 A2967 HR53@CAELT@RWY NML=@CAELT@METAR SLRQ 062200Z 00000KT 3000 FU FEW080 34/25 Q1004 A2967 980.7HR59=METAR SLSB 062200Z 00000KT 5000 FU FEW025CB 34/25 Q1004 A2966 HR58 CBW RWY NML=
ZPX0773 062253@CAELT@GG SLZZYMYT@CAELT@062252 SLCAYGYS@CAELT@SABO SLCA 062300@CAELT@METAR SLCA 062300Z 00000KT 5000 FU NSC 32/11 Q1011 A2985 HR29 CS RWY@CAELT@NML=@CAELT@
ZPX0774 062254@CAELT@GG SLZZYMYT@CAELT@062254 SLRBYGYS@CAELT@SABO SLRB 062300@CAELT@METAR SLRB 062300Z 00000KT 9999 NSC 34/20 Q1008 A2977 HR43 FU RWY NML=@CAELT@
ZPX0775 062255@CAELT@GG SLZZYMYT@CAELT@062254 SLSAYGYS@CAELT@SABO SLSA 062300@CAELT@METAR SLSA 062300Z 00000KT 3000 FU NSC 30/23 Q1005 A2970 HR66 CI=@CAELT@
ZPX0776 062255@CAELT@GG SLZZYMYT@CAELT@062254 SLSAYGYS@CAELT@SABO SLSA 062300@CAELT@METAR SLSA 062300Z 00000KT 3000 FU NSC 30/23 Q1005 A2970 HR66 CI=@CAELT@
ZPX0777 062255@CAELT@GG SLLPZRZX@CAELT@062255 SLLPYGYZ@CAELT@SABO SLLP 062300@CAELT@METAR SLLP 062300Z 04011KT 9999 FEW015 10/M03 Q1035 A3057 626.2@CAELT@HR40 FU CI NOSIG=@CAELT@
ZPX0778 062255@CAELT@GG SLZZYMYT@CAELT@062255 SLTRYGYZ@CAELT@SABO SLTR 062300@CAELT@METAR SLTR 062300Z 00000KT 5000 FU NSC 32/24 Q1005 A2968 986.8 HR63@CAELT@CI NOSIG=@CAELT@
ZPX0779 062256@CAELT@GG SLZZYMYT@CAELT@062255 SLSBYSYX@CAELT@SABO SLSB 062300@CAELT@METAR SLSB 062300Z 00000KT 3000 FU NSC 31/D25 Q1005 A2968 HR69 CI RWY@CAELT@NML=@CAELT@
ZPX0780 062256@CAELT@GG SLZZYMYT@CAELT@062256 SLVRYGYZ@CAELT@SABO SLVR 062300@CAELT@METAR SLVR 062300Z VRB02KT 2000 FU NSC 31/22 Q1007 A2975 HR59 NOSIG=@CAELT@
ZPX0781 062257@CAELT@GG SLZZYMYT@CAELT@062255 SLTJYGYZ@CAELT@SABO SLTJ 062300@CAELT@METAR SLTJ 062300Z 25010KT 9999 SCT036 BKN070 25/10 Q1018 A3007 813.4@CAELT@HR39 FU=@CAELT@
ZPX0782 062257@CAELT@GG SLZZYMYT@CAELT@062257 SLVRYGYS@CAELT@SABO SLVR 062300@CAELT@METAR SLVR 062300Z VRB02KT 2000 FU NSC 31/22 Q1007 A2975 HR59 NOSIG=@CAELT@METAR SLSI 062300Z 00000KT 3000 FU NSC 31/17 Q1006 A2971 HR44 RWY NML@CAELT@METAR SLRB 062300Z 00000KT 9999 NSC 34/20 Q1008 A2977 HR43 FU RWY NML@CAELT@METAR SLCA 062300Z 00000KT 5000 FU NSC 32/11 Q1011 A2985 HR29 CS RWY@CAELT@NML=
ZPX0783 062258@CAELT@GG SLZZYMYT@CAELT@062257 SLCBYGYZ@CAELT@SABO SLCB 062300@CAELT@METAR SLCB 062300Z 07007KT 350V110 8000 FEW036 FEW040CB BKN200 22/03@CAELT@Q1021 A3018 749.0 HR28 CB DIST/SE AC FU NOSIG=@CAELT@
ZPX0784 062258@CAELT@GG SLZZYMYT@CAELT@062258 SLTRYGYS@CAELT@SABO SLTR 062300@CAELT@METAR SLTR 062300Z 00000KT 5000 FU NSC 32/24 Q1005 A2968 986.8 HR63@CAELT@CI NOSIG=@CAELT@METAR SLRI 062300Z 07008KT 5000 FU FEW017 BKN200 28/23 Q1007 A2976@CAELT@HR71 AC=@CAELT@METAR SLMG 062300Z 00000KT 5000 FU NSC 32/24 Q1006 A2973 HR61 CIRWY NML=METAR SLSA 062300Z 00000KT 3000 FU NSC 30/23 Q1005 A2970 HR66 CI=
ZPX0788 062303@CAELT@GG SLZZYMYT@CAELT@062300 SLLPYFYA@CAELT@SABO SLLP 062300@CAELT@METAR SLLP 062300Z 04011KT 9999 FEW015 10/M03 Q1035 A3057 626.2@CAELT@HR40 FU CI NOSIG=@CAELT@METAR SLSB 062300Z 00000KT 3000 FU NSC 31/D25 Q1005 A2968 HR69 CI RWY@CAELT@NML=@CAELT@
ZPX0789 062304@CAELT@GG SLZZYMYT@CAELT@062300 SLCBYGYS@CAELT@SABO SLCB 062300@CAELT@METAR SLCB 062300Z 07007KT 350V110 8000 FEW036 FEW040CB BKN200 22/03@CAELT@Q1021 A3018 749.0 HR28 CB DIST/SE AC FU NOSIG=@CAELT@METAR SLAL 062300Z 18004KT 9999 FEW017 FEW030CB BKN200 15/05 Q1029@CAELT@A3039 703.6 HR49 CB S/W FU=@CAELT@METAR SLTJ 062300Z 25010KT 9999 SCT036 BKN070 25/10 Q1018 A3007 813.4HR39 FU=
ZPX0806 062356@CAELT@GG SLLPZRZX@CAELT@062356 SLLPYGYZ@CAELT@SABO SLLP 070000@CAELT@METAR SLLP 070000Z 04015KT 9999 NSC 09/M03 Q1035 A3059 626.5 HR43@CAELT@FU CI NOSIG=@CAELT@
ZPX0807 062356@CAELT@GG SLZZYMYT@CAELT@062357 SLVRYGYZ@CAELT@SABO SLVR 070000@CAELT@METAR SLVR 070000Z 31004KT 2000 FU NSC 29/22 Q1008 A2977 HR65 NOSIG=@CAELT@
ZPX0808 062357@CAELT@GG SLZZYMYT@CAELT@062356 SLTJYGYZ@CAELT@SABO SLTJ 070000@CAELT@METAR SLTJ 070000Z 25004KT 9999 SCT036 BKN070 22/09 Q1018 A3009 814.0@CAELT@HR44 FU=@CAELT@
ZPX0810 062357@CAELT@GG SLZZYMYT@CAELT@062355 SLCBYGYZ@CAELT@SABO SLCB 070000@CAELT@METAR SLCB 070000Z 10004KT 9999 NSC 21/03 Q1023 A3021 749.9 HR30 FU@CAELT@CI NOSIG=@CAELT@
