
ZPX0009 030056@CAELT@GG SLZZYMYT@CAELT@030055 SLCBYGYZ@CAELT@SABO SLCB 030100@CAELT@METAR SLCB 030100Z 10006KT 9999 FEW030 SCT070 21/10 Q1022 A3020 749.7@CAELT@HR48 CI NOSIG=@CAELT@
ZPX0010 030058@CAELT@GG SLZZYMYT@CAELT@030058 SLVRYGYZ@CAELT@SABO SLVR 030100@CAELT@METAR SLVR 030100Z 32011KT 9999 NSC 26/23 Q1010 A2982 HR85 NOSIG=@CAELT@
ZPX0011 030058@CAELT@GG SLLPZRZX@CAELT@030057 SLLPYGYZ@CAELT@SABO SLLP 030100@CAELT@METAR SLLP 030100Z 05008KT 9999 FEW015 FEW017CB SCT200 08/03 Q1036@CAELT@A3062 627.1 HR69 CB/LT/DIST/SW AC NOSIG=@CAELT@
ZPX0018 030155@CAELT@GG SLZZYMYT@CAELT@030155 SLCBYGYZ@CAELT@SABO SLCB 030200@CAELT@METAR SLCB 030200Z 13005KT 9999 FEW030 SCT070 20/10 Q1023 A3022 750.2@CAELT@HR53 CI NOSIG=@CAELT@
ZPX0019 030156@CAELT@GG SLZZYMYT@CAELT@030157 SLVRYGYZ@CAELT@SABO SLVR 030200@CAELT@METAR SLVR 030200Z 33007KT 9999 NSC 25/24 Q1010 A2983 HR93 NOSIG=@CAELT@
ZPX0020 030157@CAELT@GG SLLPZRZX@CAELT@030156 SLLPYGYZ@CAELT@SABO SLLP 030200@CAELT@METAR SLLP 030200Z VRB02KT 9999 FEW014 SCT200 08/02 Q1037 A3063@CAELT@627.5 HR67 AC NOSIG=@CAELT@
ZPX0029 030257@CAELT@GG SLZZYMYT@CAELT@030257 SLCBYGYZ@CAELT@SABO SLCB 030300@CAELT@METAR SLCB 030300Z 12006KT 9999 FEW030 SCT070 BKN200 19/10 Q1023@CAELT@A3023 750.5 HR57 NOSIG=@CAELT@
ZPX0030 030257@CAELT@GG SLLPZRZX@CAELT@030257 SLLPYGYZ@CAELT@SABO SLLP 030300@CAELT@METAR SLLP 030300Z VRB02KT 4000E VCFG FEW004 SCT200 06/05 Q1037@CAELT@A3064 627.6 HR91 VCFG NE/E/SE AC NOSIG=@CAELT@
ZPX0031 030257@CAELT@GG SLZZYMYT@CAELT@030258 SLVRYGYZ@CAELT@SABO SLVR 030300@CAELT@METAR SLVR 030300Z 33006KT 9999 SCT070 24/23 Q1010 A2983 HR98 NOSIG=@CAELT@
ZPX0039 030356@CAELT@GG SLZZYMYT@CAELT@030356 SLCBYGYZ@CAELT@SABO SLCB 030400@CAELT@METAR SLCB 030400Z 11006KT 9999 FEW030 SCT070 BKN200 19/09 Q1023@CAELT@A3023 750.4 HR53 NOSIG=@CAELT@
ZPX0040 030356@CAELT@GG SLZZYMYT@CAELT@030357 SLVRYGYZ@CAELT@SABO SLVR 030400@CAELT@METAR SLVR 030400Z 34006KT 9999 SCT070 24/23 Q1009 A2982 HR98 NOSIG=@CAELT@
ZPX0041 030357@CAELT@GG SLLPZRZX@CAELT@030356 SLLPYGYZ@CAELT@SABO SLLP 030400@CAELT@METAR SLLP 030400Z 06003KT 4000E VCFG FEW004 SCT070 06/06 Q1037@CAELT@A3063 627.4 HR97 VCFG NE/E CI NOSIG=@CAELT@
ZPX0050 030455@CAELT@GG SLZZYMYT@CAELT@030455 SLCBYGYZ@CAELT@SABO SLCB 030500@CAELT@METAR SLCB 030500Z 16005KT 9999 FEW027 BKN070 BKN200 19/11 Q1023@CAELT@A3023 750.4 HR58 SH/W NOSIG=@CAELT@
ZPX0051 030456@CAELT@GG SLZZYMYT@CAELT@030457 SLVRYGYZ@CAELT@SABO SLVR 030500@CAELT@METAR SLVR 030500Z 33006KT 9999 NSC 23/23 Q1009 A2981 HR98 NOSIG=@CAELT@
ZPX0052 030458@CAELT@GG SLLPZRZX@CAELT@030457 SLLPYGYZ@CAELT@SABO SLLP 030500@CAELT@METAR SLLP 030500Z VRB02KT 4000E VCFG FEW003 SCT070 06/06 Q1036@CAELT@A3060 626.9 HR98 VCFG N/NE/E/SE CI NOSIG=@CAELT@
ZPX0065 030555@CAELT@GG SLZZYMYT@CAELT@030556 SLVRYGYZ@CAELT@SABO SLVR 030600@CAELT@METAR SLVR 030600Z 33007KT 9999 NSC 23/23 Q1009 A2981 HR98 NOSIG=@CAELT@
ZPX0067 030557@CAELT@GG SLZZYMYT@CAELT@030556 SLCBYGYZ@CAELT@SABO SLCB 030600@CAELT@METAR SLCB 030600Z 32003KT 9999 FEW025 BKN070 BKN200 17/13 Q1023@CAELT@A3021 749.9 HR81 SH/NW/N/NE NOSIG=@CAELT@
ZPX0068 030559@CAELT@GG SLLPZRZX@CAELT@030557 SLLPYGYZ@CAELT@SABO SLLP 030600@CAELT@METAR SLLP 030600Z 15005KT 120V190 4000E VCFG FEW003 SCT010 FEW017CB@CAELT@BKN070 07/06 Q1036 A3062 627.2 HR95 VCFG NE/E/SE CB/LT DIST/SE CI@CAELT@NOSIG=@CAELT@
ZPX0075 030653@CAELT@GG SLZZYMYT@CAELT@030654 SLVRYGYZ@CAELT@SABO SLVR 030700@CAELT@METAR SLVR 030700Z 33010KT 9999 NSC 24/23 Q1008 A2979 HR94 CI NOSIG=@CAELT@
ZPX0076 030656@CAELT@GG SLLPZRZX@CAELT@030656 SLLPYGYZ@CAELT@SABO SLLP 030700@CAELT@METAR SLLP 030700Z 12006KT 9999 FEW004 SCT010 FEW017CB BKN070 07/05@CAELT@Q1036 A3061 627.1 HR90 CB/LT SE NOSIG=@CAELT@
ZPX0077 030657@CAELT@GG SLZZYMYT@CAELT@030657 SLCBYGYZ@CAELT@SABO SLCB 030700@CAELT@METAR SLCB 030700Z 20003KT 9999 FEW025 BKN200 15/14 Q1022 A3020 749.7@CAELT@HR92 AC NOSIG=@CAELT@
ZPX0084 030753@CAELT@GG SLZZYMYT@CAELT@030753 SLVRYGYZ@CAELT@SABO SLVR 030800@CAELT@METAR SLVR 030800Z 33010KT 9999 NSC 24/23 Q1008 A2979 HR93 CI NOSIG=@CAELT@
ZPX0085 030757@CAELT@GG SLZZYMYT@CAELT@030756 SLCBYGYZ@CAELT@SABO SLCB 030800@CAELT@METAR SLCB 030800Z 09003KT 9999 FEW025 SCT200 15/13 Q1022 A3019 749.3@CAELT@HR85 AC NOSIG=@CAELT@
ZPX0086 030758@CAELT@GG SLLPZRZX@CAELT@030758 SLLPYGYZ@CAELT@SABO SLLP 030800@CAELT@METAR SLLP 030800Z VRB02KT 9999 FEW004 FEW017CB BKN200 06/04 Q1035@CAELT@A3058 626.4 HR91 CB/LT NW AC NOSIG=@CAELT@
ZPX0096 030855@CAELT@GG SLZZYMYT@CAELT@030855 SLTRYGYZ@CAELT@SABO SLTR 030900@CAELT@METAR SLTR 030900Z 00000KT 1000 BR SCT004 BKN200 23/23 Q1009 A2980@CAELT@990.5 HR98 NOSIG=@CAELT@
ZPX0097 030857@CAELT@GG SLZZYMYT@CAELT@030857 SLTRYGYS@CAELT@SABO SLTR 030900@CAELT@METAR SLTR 030900Z 00000KT 1000 BR SCT004 BKN200 23/23 Q1009 A2980@CAELT@990.5 HR98 NOSIG=@CAELT@METAR SLRI 030900Z 00000KT 9999 SCT004 BKN080 24/24 Q1010 A2983 HR98=@CAELT@
ZPX0098 030857@CAELT@GG SLZZYMYT@CAELT@030856 SLCBYGYZ@CAELT@SABO SLCB 030900@CAELT@METAR SLCB 030900Z 00000KT 9999 FEW025 14/13 Q1022 A3019 749.4 HR92@CAELT@CI NOSIG=@CAELT@
ZPX0099 030858@CAELT@GG SLLPZRZX@CAELT@030855 SLLPYGYZ@CAELT@SABO SLLP 030900@CAELT@METAR SLLP 030900Z 06006KT 4000E VCFG FEW003 FEW017CB BKN200 05/04@CAELT@Q1035 A3058 626.3 HR93 VCFG N/NE/E/SE CB/LT W/NW AC NOSIG=@CAELT@
ZPX0102 030901@CAELT@GG SLZZYMYT@CAELT@030900 SLVRYGYZ@CAELT@SABO SLVR 030900@CAELT@METAR SLVR 030900Z 35006KT 9999 SCT007 23/22 Q1009 A2980 HR93 NOSIG=@CAELT@
ZPX0104 030910@CAELT@GG SLZZYMYT@CAELT@030859 SLETYMYC@CAELT@SABO SLET 030900@CAELT@METAR SLET 030900Z 32007KT 9999 SCT005 SCT200 23/21 Q1008 A2978 HR90@CAELT@NOSIG=@CAELT@
ZPX0114 030952@CAELT@GG SLZZYMYT@CAELT@030952 SLVRYGYZ@CAELT@SABO SLVR 031000@CAELT@METAR SLVR 031000Z 34007KT 9999 BKN006 24/23 Q1010 A2982 HR93 NOSIG=@CAELT@
ZPX0115 030953@CAELT@GG SLZZYMYT@CAELT@030953 SLRBYGYS@CAELT@SABO SLRB 031000@CAELT@METAR SLRB 031000Z 00000KT 9999 NSC 23/22 Q1011 A2985 HR91 RWY NML=@CAELT@
ZPX0116 030954@CAELT@GG SLZZYMYT@CAELT@030947 SLETYMYC@CAELT@SABO SLET 031000@CAELT@METAR SLET 031000Z 33008KT 9999 BKN006 23/22 Q1009 A2980 HR92 CI@CAELT@NOSIG=@CAELT@
ZPX0118 030955@CAELT@GG SLZZYMYT@CAELT@030955 SLCBYGYZ@CAELT@SABO SLCB 031000@CAELT@METAR SLCB 031000Z 00000KT 9999 FEW025 SCT200 13/13 Q1023 A3021 749.8@CAELT@HR98 AC NOSIG=@CAELT@
ZPX0119 030955@CAELT@GG SLZZYMYT@CAELT@030954 SLSAYGYS@CAELT@SABO SLSA 031000@CAELT@METAR SLSA 031000Z 00000KT 9999 BKN080 24/24 Q1009 A2980 HR98=@CAELT@
ZPX0120 030955@CAELT@GG SLZZYMYT@CAELT@030955 SLTRYGYZ@CAELT@SABO SLTR 031000@CAELT@METAR SLTR 031000Z 00000KT 5000 BR BKN004 BKN200 23/23 Q1009 A2982@CAELT@991.2 HR98 NOSIG=@CAELT@
ZPX0121 030955@CAELT@GG SLZZYMYT@CAELT@030955 SLCAYGYS@CAELT@SABO SLCA 031000@CAELT@METAR SLCA 031000Z 00000KT 9999 NSC 20/19 Q1012 A2988 HR94 CS RWY NML@CAELT@
ZPX0122 030957@CAELT@GG SLZZYMYT@CAELT@030956 SLSBYSYX@CAELT@SABO SLSB 031000@CAELT@METAR SLSB 031000Z 00000KT 9999 BKN005 BKN200 24/23 Q1009 A2981 HR98@CAELT@RWY WET OPR C210=@CAELT@
ZPX0123 030957@CAELT@GG SLZZYMYT@CAELT@030957 SLLPYGYZ@CAELT@SABO SLLP 031000@CAELT@METAR SLLP 031000Z VRB02KT 9999 FEW004 FEW017CB BKN200 04/03 Q1035@CAELT@A3059 626.5 HR92 P0781 CB/N AC NOSIG=@CAELT@
ZPX0124 030957@CAELT@GG SLZZYMYT@CAELT@030956 SLLPYFYA@CAELT@SABO SLRY 031000@CAELT@METAR SLRY 031000Z 00000KT 9999 FEW005 SCT015 OVC070 23/23 Q1006@CAELT@A2972 HR98 RWY HUM OPR C210=@CAELT@
ZPX0125 030958@CAELT@GG SLZZYMYT@CAELT@030959 SLVRYFYC@CAELT@SABO SLVR 031000@CAELT@METAR SLVR 031000Z 34007KT 9999 BKN006 24/23 Q1010 A2982 HR93 NOSIG=@CAELT@METAR SLET 031000Z 33008KT 9999 BKN006 23/22 Q1009 A2980 HR92 CI@CAELT@NOSIG=@CAELT@METAR SLCP 031000Z 00000KT 9999 BKN070 21/21 Q1013 A2991 HR98 RWY NML@CAELT@METAR SLSI 031000Z 00000KT 9999 SCT070 23/22 Q1010 A2983 HR95 RWY NMLMETAR SLRB 031000Z 00000KT 9999 NSC 23/22 Q1011 A2985 HR91 RWY NML=METAR SLCA 031000Z 00000KT 9999 NSC 20/19 Q1012 A2988 HR94 CS RWY NML=
ZPX0127 031001@CAELT@GG SLZZYMYT@CAELT@031000 SLLPYFYA@CAELT@SABO SLLP 031000@CAELT@METAR SLLP 031000Z VRB02KT 9999 FEW004 FEW017CB BKN200 04/03 Q1035@CAELT@A3059 626.5 HR92 P0781 CB/N AC NOSIG=@CAELT@METAR SLRY 031000Z 00000KT 9999 FEW005 SCT015 OVC070 23/23 Q1006@CAELT@A2972 HR98 RWY HUM OPR C210=@CAELT@METAR SLRQ 031000Z 00000KT 0100 FG VV/// 24/24 Q1009 A2979 HR100=METAR SLSB 031000Z 00000KT 9999 BKN005 BKN200 24/23 Q1009 A2981 HR98RWY WET OPR C210=
ZPX0129 031006@CAELT@GG SLZZYMYT@CAELT@031000 SLTRYGYS@CAELT@SABO SLTR 031000@CAELT@METAR SLTR 031000Z 00000KT 5000 BR BKN004 BKN200 23/23 Q1009 A2982@CAELT@991.2 HR98 NOSIG=@CAELT@METAR SLGM 031000Z 16004KT 3000 -TSRA SCT005 SCT017 FEW020CB OVC070@CAELT@23/23 Q1009 A2982 HR98 CB NE/E/NW TS NW=@CAELT@METAR SLRI 031000Z 36006KT 5000 VCSH BKN004 FEW020CB BKN080 24/24Q1011 A2986 HR98 CB N/NE/E=METAR SLJO 031000Z 00000KT 9999 FEW015 FEW023CB BKN080 24/23 Q1010A2983 HR96 CB NE RWY HUM OPR=METAR SLRA 031000Z 12004KT 9999 FEW020 BKN080 24/24 Q1008 A2977 HR98RWY HUM OPR=METAR SLMG 031000Z 00000KT 9999 SCT080 BKN200 24/23 Q1008 A2979 HR97RWY NML=METAR SLBU 031000Z NIL=METAR SLSA 031000Z 00000KT 9999 BKN080 24/24 Q1009 A2980 HR98=METAR SLSR 031000Z NIL=METAR SLSM 031000Z 00000KT 9999 FEW080 SCT200 22/22 Q1009 A2980HR100 RWY WET INOP=
ZPX0130 031009@CAELT@GG SLZZYMYT@CAELT@031008 SLTRYGYS@CAELT@SABO SLTR 031000 RRA@CAELT@METAR SLTR 031000Z 00000KT 5000 BR BKN004 BKN200 23/23 Q1009 A2982@CAELT@991.2 HR98 NOSIG=@CAELT@METAR SLGM 031000Z 16004KT 3000 -TSRA SCT005 SCT017 FEW020CB OVC070@CAELT@23/23 Q1009 A2982 HR98 CB NE/E/NW TS NW=@CAELT@METAR SLRI 031000Z 36006KT 5000 VCSH BKN004 FEW020CB BKN080 24/24Q1011 A2986 HR98 CB N/NE/E=METAR SLJO 031000Z 00000KT 9999 FEW015 FEW023CB BKN080 24/23 Q1010A2983 HR96 CB NE RWY HUM OPR=METAR SLRA 031000Z 12004KT 9999 FEW020 BKN080 24/24 Q1008 A2977 HR98RWY HUM OPR=METAR SLMG 031000Z 00000KT 9999 SCT080 BKN200 24/23 Q1008 A2979 HR97RWY NML=METAR SLBU 031000Z NIL=METAR SLSA 031000Z 00000KT 9999 BKN080 24/24 Q1009 A2980 HR98=METAR RTD SLSR 031000Z 00000KT 9999 SCT080 BKN200 23/23 Q1008 A2977HR97 RWY HUM OPR=METAR SLSM 031000Z 00000KT 9999 FEW080 SCT200 22/22 Q1009 A2980HR100 RWY WET INOP=
ZPX0142 031051@CAELT@GG SLZZYMYT@CAELT@031052 SLVRYGYZ@CAELT@SABO SLVR 031100@CAELT@METAR SLVR 031100Z 34009KT 9999 BKN006 24/23 Q1010 A2983 HR93 NOSIG=@CAELT@
ZPX0144 031053@CAELT@GG SLZZYMYT@CAELT@031053 SLCAYGYS@CAELT@SABO SLCA 031100@CAELT@METAR SLCA 031100Z 00000KT 9999 SCT070 BKN200 20/19 Q1012 A2988 HR94@CAELT@RWY NML=@CAELT@
ZPX0145 031054@CAELT@GG SLZZYMYT@CAELT@031053 SLRBYGYS@CAELT@SABO SLRB 031100@CAELT@METAR SLRB 031100Z 00000KT 9999 FEW070 26/23 Q1011 A2985 HR85 RWY NML=@CAELT@
ZPX0146 031054@CAELT@GG SLZZYMYT@CAELT@031054 SLSBYSYX@CAELT@SABO SLSB 031100@CAELT@METAR SLSB 031100Z 00000KT 2000 BR OVC005 24/24 Q1010 A2983 HR100@CAELT@RWY WET OPR C210=@CAELT@
ZPX0147 031054@CAELT@GG SLZZYMYT@CAELT@031055 SLLPYFYA@CAELT@SABO SLRY 031100@CAELT@METAR SLRY 031100Z 00000KT 0500 FG VV/// 23/23 Q1007 A2974 HR100@CAELT@RWY HUM OPR C210=@CAELT@
ZPX0148 031054@CAELT@GG SLZZYMYT@CAELT@031055 SLSAYGYS@CAELT@SABO SLSA 031100@CAELT@METAR SLSA 031100Z 00000KT 9999 BKN080 25/24 Q1009 A2982 HR94=@CAELT@
ZPX0150 031055@CAELT@GG SLZZYMYT@CAELT@031055 SLCBYGYZ@CAELT@SABO SLCB 031100@CAELT@METAR SLCB 031100Z 00000KT 9999 FEW027 SCT200 17/13 Q1024 A3025 750.8@CAELT@HR78 FU AC NOSIG=@CAELT@
ZPX0151 031056@CAELT@GG SLZZYMYT@CAELT@031055 SLTRYGYZ@CAELT@SABO SLTR 031100@CAELT@METAR SLTR 031100Z 00000KT 5000 BR SCT004 BKN200 23/23 Q1010 A2983@CAELT@991.6 HR98 TEMPO BKN004=@CAELT@
ZPX0152 031056@CAELT@GG SLZZYMYT@CAELT@031036 SLETYMYC@CAELT@SABO SLET 031100@CAELT@METAR SLET 031100Z 33010KT 9999 BKN008 24/22 Q1009 A2981 HR91 NOSIG=@CAELT@
ZPX0153 031056@CAELT@GG SLZZYMYT@CAELT@031057 SLVRYFYC@CAELT@SABO SLVR 031100@CAELT@METAR SLVR 031100Z 34009KT 9999 BKN006 24/23 Q1010 A2983 HR93 NOSIG=@CAELT@METAR SLET 031100Z 33010KT 9999 BKN008 24/22 Q1009 A2981 HR91 NOSIG=@CAELT@METAR SLAS 031100Z 00000KT 0100 FG VV/// 23/22 Q1013 A2992 HR95 RWY@CAELT@NML=@CAELT@METAR SLJV 031100Z 00000KT 9999 NSC 22/22 Q1010 A2983 HR97 RWY NML=METAR SLCP 031100Z 00000KT 9999 BKN070 22/22 Q1013 A2991 HR98 RWY NMLMETAR SLSI 031100Z 00000KT 9999 SCT070 23/22 Q1011 A2985 HR92 RWY NMLMETAR SLTI 031100Z 00000KT 9999 BKN070 26/24 Q1013 A2991 HR92 RWY NMLMETAR SLJE 031100Z 00000KT 9999 BKN070 24/23 Q1013 A2991 HR91 RWY NMLMETAR SLVG 031100Z 00000KT 0100 FG VV/// 15/15 Q1022 A3018 HR100 RWYMETAR SLRB 031100Z 00000KT 9999 FEW070 26/23 Q1011 A2985 HR85 RWY NMLMETAR SLCA 031100Z 00000KT 9999 SCT070 BKN200 20/19 Q1012 A2988 HR94RWY NML=
ZPX0154 031056@CAELT@GG SLZZYMYT@CAELT@031055 SLLPYGYZ@CAELT@SABO SLLP 031100@CAELT@METAR SLLP 031100Z 08004KT 050V110 3000E FEW003 BKN200 07/06 Q1037@CAELT@A3062 627.3 HR93 P/INV VCFG N/NE/E/SE AC NOSIG=@CAELT@
ZPX0155 031058@CAELT@GG SLZZYMYT@CAELT@031058 SLTRYGYS@CAELT@SABO SLTR 031100@CAELT@METAR SLTR 031100Z 00000KT 5000 BR SCT004 BKN200 23/23 Q1010 A2983@CAELT@991.6 HR98 TEMPO BKN004=@CAELT@METAR SLGM 031100Z 18008KT 5000 -TSRA SCT005 SCT017 FEW020CB OVC070@CAELT@23/23 Q1010 A2985 HR98 CB N/S/SW TS SW=@CAELT@METAR SLRI 031100Z 00000KT 3000 -TSRA BKN004 FEW020CB OVC070 23/23Q1012 A2989 HR98 CB/TS N/NE/E=METAR SLJO 031100Z 36004KT 9999 FEW015 BKN200 25/24 Q1010 A2984 HR96AC RWY HUM OPR=METAR SLRA 031100Z 09004KT 9999 FEW020 SCT080 BKN200 25/24 Q1008A2979 HR96 RWY HUM OPR=METAR SLMG 031100Z 00000KT 9999 SCT020 BKN200 24/24 Q1009 A2980 HR97RWY NML=METAR SLBU 031100Z NIL=METAR SLSA 031100Z 00000KT 9999 BKN080 25/24 Q1009 A2982 HR94=METAR SLSR 031100Z 00000KT 9999 NSC 23/23 Q1008 A2978 HR96 CI RWYHUM OPR=METAR SLSM 031100Z 00000KT 9999 FEW080 SCT200 23/23 Q1009 A2981HR100 RWY WET INOP=
ZPX0157 031101@CAELT@GG SLZZYMYT@CAELT@031101 SLLPYFYA@CAELT@SABO SLLP 031100@CAELT@METAR SLLP 031100Z 08004KT 050V110 3000E FEW003 BKN200 07/06 Q1037@CAELT@A3062 627.3 HR93 P/INV VCFG N/NE/E/SE AC NOSIG=@CAELT@METAR SLRY 031100Z 00000KT 0500 FG VV/// 23/23 Q1007 A2974 HR100@CAELT@RWY HUM OPR C210=@CAELT@METAR SLRQ 031100Z 00000KT 6000 OVC006 24/24 Q1009 A2980 HR100VIS RED ST BJOS TODIR REFG=METAR SLSB 031100Z 00000KT 2000 BR OVC005 24/24 Q1010 A2983 HR100RWY WET OPR C210=
ZPX0174 031150@CAELT@GG SLZZYMYT@CAELT@031151 SLVRYGYZ@CAELT@SABO SLVR 031200@CAELT@METAR SLVR 031200Z 35009KT 9999 BKN006 OVC013 24/23 Q1010 A2983 HR92@CAELT@NOSIG=@CAELT@
ZPX0175 031153@CAELT@GG SLZZYMYT@CAELT@031152 SLCAYGYS@CAELT@SABO SLCA 031200@CAELT@METAR SLCA 031200Z 00000KT 9999 NSC 21/18 Q1012 A2988 HR85 CS RWY NML@CAELT@
ZPX0178 031154@CAELT@GG SLZZYMYT@CAELT@031154 SLRBYGYS@CAELT@SABO SLRB 031200@CAELT@METAR SLRB 031200Z 00000KT 9999 FEW070 29/24 Q1011 A2985 HR73 RWY NML=@CAELT@
ZPX0179 031155@CAELT@GG SLZZYMYT@CAELT@031154 SLSAYGYS@CAELT@SABO SLSA 031200@CAELT@METAR SLSA 031200Z 00000KT 9999 FEW015 BKN200 26/24 Q1010 A2983 HR87=@CAELT@
ZPX0181 031155@CAELT@GG SLZZYMYT@CAELT@031154 SLSBYSYX@CAELT@SABO SLSB 031200@CAELT@METAR SLSB 031200Z 00000KT 8000 BKN008 BKN200 24/24 Q1009 A2982 HR97@CAELT@BR RWY WET OPR C210=@CAELT@
ZPX0184 031156@CAELT@GG SLZZYMYT@CAELT@031156 SLTRYGYZ@CAELT@SABO SLTR 031200@CAELT@METAR SLTR 031200Z 33004KT 9999 FEW004 SCT200 25/24 Q1010 A2983@CAELT@991.8 HR95 NOSIG=@CAELT@
ZPX0185 031156@CAELT@GG SLZZYMYT@CAELT@031105 SLETYMYC@CAELT@SABO SLET 031200@CAELT@METAR SLET 031200Z 33011KT 9999 SCT008 BKN015 24/22 Q1009 A2982 HR88@CAELT@NOSIG=@CAELT@
ZPX0186 031157@CAELT@GG SLZZYMYT@CAELT@031158 SLVRYFYC@CAELT@SABO SLVR 031200@CAELT@METAR SLVR 031200Z 35009KT 9999 BKN006 OVC013 24/23 Q1010 A2983 HR92@CAELT@NOSIG=@CAELT@METAR SLET 031200Z 33011KT 9999 SCT008 BKN015 24/22 Q1009 A2982 HR88@CAELT@METAR SLAS 031200Z 00000KT 0300 FG BKN002 24/23 Q1013 A2992 HR95 RWY@CAELT@NML=METAR SLJV 031200Z 00000KT 9999 NSC 24/23 Q1010 A2983 HR92 RWY NML=METAR SLCP 031200Z 00000KT 9999 FEW070 24/23 Q1013 A2991 HR92 RWY NMLMETAR SLSI 031200Z 00000KT 9999 SCT070 26/22 Q1011 A2985 HR82 RWY NMLMETAR SLTI 031200Z 00000KT 9999 BKN070 27/24 Q1013 A2991 HR86 RWY NMLMETAR SLJE 031200Z 00000KT 9999 SCT070 26/23 Q1013 A2991 HR81 RWY NMLMETAR SLVG 031200Z 00000KT 9999 SCT015 BKN200 17/16 Q1022 A3018 HR90REFG RWY NML=METAR SLRB 031200Z 00000KT 9999 FEW070 29/24 Q1011 A2985 HR73 RWY NMLMETAR SLCA 031200Z 00000KT 9999 NSC 21/18 Q1012 A2988 HR85 CS RWY NML
ZPX0187 031157@CAELT@GG SLZZYMYT@CAELT@031155 SLCBYGYZ@CAELT@SABO SLCB 031200@CAELT@METAR SLCB 031200Z 00000KT 9999 BKN027 18/12 Q1024 A3026 751.2 HR66@CAELT@FU AC CI NOSIG=@CAELT@
ZPX0189 031157@CAELT@GG SLZZYMYT@CAELT@031157 SLLPYGYZ@CAELT@SABO SLLP 031200@CAELT@METAR SLLP 031200Z VRB02KT 4000E VCFG FEW003 BKN200 10/08 Q1037@CAELT@A3063 627.5 HR90 P92// VCFG N/NE/E/SE AC NOSIG=@CAELT@
ZPX0190 031158@CAELT@GG SLZZYMYT@CAELT@031156 SLLPYFYA@CAELT@SABO SLRY 031200@CAELT@METAR SLRY 031200Z 00000KT 0800 FG OVC004 23/23 Q1007@CAELT@A2975 HR100 RWY HUM OPR C210=@CAELT@
ZPX0192 031158@CAELT@GG SLZZYMYT@CAELT@031157 SLCOYGYZ@CAELT@SABO SLCO 031200@CAELT@METAR SLCO 031200Z 00000KT 9999 FEW080 BKN200 25/24 Q1011 A2986 983.6@CAELT@HR94=@CAELT@
ZPX0193 031159@CAELT@GG SLZZYMYT@CAELT@031159 SLTRYGYS@CAELT@SABO SLTR 031200@CAELT@METAR SLTR 031200Z 33004KT 9999 FEW004 SCT200 25/24 Q1010 A2983@CAELT@991.8 HR95 NOSIG=@CAELT@METAR SLGM 031200Z 06008KT 3000 -TSRA SCT005 SCT015 FEW020CB OVC070@CAELT@24/23 Q1011 A2987 HR97 CB SW/W/NW TS SW=@CAELT@METAR SLRI 031200Z 09006KT 3000 -TSRA BKN004 FEW020CB OVC070 24/24Q1012 A2990 HR98 CB/TS NE/E/SE=METAR SLJO 031200Z 36008KT 9999 FEW010 BKN200 26/24 Q1010 A2984 HR93RWY HUM OPR=METAR SLRA 031200Z 09006KT 9999 FEW008 BKN200 26/25 Q1009 A2981 HR94METAR SLMG 031200Z 34004KT 9999 FEW015 BKN200 26/24 Q1010 A2983 HR90RWY NML=METAR SLBU 031200Z NIL=METAR SLSA 031200Z 00000KT 9999 FEW015 BKN200 26/24 Q1010 A2983 HR87=METAR SLSR 031200Z 00000KT 9999 FEW008 BKN200 25/24 Q1008 A2979 HR96METAR SLSM 031200Z 33003KT 9999 NSC 24/24 Q1009 A2981 HR95 CIRWY WET OPR C206=
ZPX0195 031201@CAELT@GG SLZZYMYT@CAELT@031201 SLLPYFYA@CAELT@SABO SLLP 031200@CAELT@METAR SLLP 031200Z VRB02KT 4000E VCFG FEW003 BKN200 10/08 Q1037@CAELT@A3063 627.5 HR90 P92// VCFG N/NE/E/SE AC NOSIG=@CAELT@METAR SLCO 031200Z 00000KT 9999 FEW080 BKN200 25/24 Q1011@CAELT@A2986 983.6 HR94=@CAELT@METAR SLRY 031200Z 00000KT 0800 FG OVC004 23/23 Q1007A2975 HR100 RWY HUM OPR C210=METAR SLRQ 031200Z 00000KT 6000 OVC006 24/24 Q1009 A2980 HR98 VISRED ST BJOS TODIR=METAR SLSB 031200Z 00000KT 8000 BKN008 BKN200 24/24 Q1009 A2982HR97 BR RWY WET OPR C210=
ZPX0196 031202@CAELT@GG SLZZYMYT@CAELT@031201 SLCBYGYS@CAELT@SABO SLCB 031200@CAELT@METAR SLCB 031200Z 00000KT 9999 BKN027 18/12 Q1024 A3026 751.2 HR66@CAELT@FU AC CI NOSIG=@CAELT@METAR SLAL 031200Z 00000KT 9999 SCT010 SCT070 14/10 Q1028 A3037 703.0@CAELT@HR78=@CAELT@
ZPX0222 031254@CAELT@GG SLZZYMYT@CAELT@031254 SLVRYGYZ@CAELT@SABO SLVR 031300@CAELT@METAR SLVR 031300Z 34012KT 9999 SCT010 BKN015 27/24 Q1010 A2982 HR80@CAELT@NOSIG=@CAELT@
ZPX0223 031255@CAELT@GG SLZZYMYT@CAELT@031254 SLSAYGYS@CAELT@SABO SLSA 031300@CAELT@METAR SLSA 031300Z 36005KT 9999 BKN017 BKN200 28/25 Q1010 A2985 HR85=@CAELT@
ZPX0224 031255@CAELT@GG SLZZYMYT@CAELT@031255 SLTRYGYZ@CAELT@SABO SLTR 031300@CAELT@METAR SLTR 031300Z 34006KT 9999 NSC 27/24 Q1010 A2984 992.0 HR85@CAELT@CI NOSIG=@CAELT@
ZPX0225 031255@CAELT@GG SLZZYMYT@CAELT@031255 SLCOYGYZ@CAELT@SABO SLCO 031300@CAELT@METAR SLCO 031300Z 28003KT 9999 FEW080 BKN200 27/24 Q1011 A2986 983.7@CAELT@HR82=@CAELT@
ZPX0226 031255@CAELT@GG SLZZYMYT@CAELT@031255 SLCBYGYZ@CAELT@SABO SLCB 031300@CAELT@METAR SLCB 031300Z 26003KT 9999 FEW030 21/13 Q1024 A3025 751.0 HR58@CAELT@FU AC CI NOSIG=@CAELT@
ZPX0227 031255@CAELT@GG SLZZYMYT@CAELT@031255 SLTJYGYZ@CAELT@SABO SLTJ 031300@CAELT@METAR SLTJ 031300Z 00000KT 9999 FEW027 22/16 Q1016 A3002 812.1 HR70=@CAELT@
ZPX0229 031256@CAELT@GG SLZZYMYT@CAELT@031255 SLRBYGYS@CAELT@SABO SLRB 031300@CAELT@METAR SLRB 031300Z 36004KT 9999 FEW070 30/23 Q1011 A2985 HR65 RWY NML=@CAELT@
ZPX0230 031256@CAELT@GG SLZZYMYT@CAELT@031256 SLCAYGYS@CAELT@SABO SLCA 031300@CAELT@METAR SLCA 031300Z 00000KT 9999 NSC 25/20 Q1012 A2988 HR73 CS RWY NML@CAELT@
ZPX0231 031256@CAELT@GG SLZZYMYT@CAELT@031257 SLTRYGYS@CAELT@SABO SLTR 031300@CAELT@METAR SLTR 031300Z 34006KT 9999 NSC 27/24 Q1010 A2984 992.0 HR85@CAELT@CI NOSIG=@CAELT@METAR SLGM 031300Z 26004KT 3000 -TSRA SCT005 SCT015 FEW020CB OVC070@CAELT@24/23 Q1012 A2988 HR95 CB NE/E/SE TS NE/E=@CAELT@METAR SLRI 031300Z 09006KT 3000 -TSRA BKN004 FEW020CB OVC070 24/24Q1012 A2991 HR98 CB/TS NE/E/SE=METAR SLJO 031300Z 36008KT 9999 FEW010 BKN200 27/24 Q1010 A2984 HR88RWY NML=METAR SLRA 031300Z 36008KT 9999 FEW008 BKN200 28/25 Q1009 A2982 HR86RWY HUM OPR=METAR SLMG 031300Z 34004KT 9999 FEW015 BKN200 28/25 Q1010 A2984 HR82METAR SLBU 031300Z NIL=METAR SLSA 031300Z 36005KT 9999 BKN017 BKN200 28/25 Q1010 A2985 HR85=METAR SLSR 031300Z 34006KT 9999 SCT010 BKN200 26/24 Q1009 A2981 HR92METAR SLSM 031300Z 33004KT 9999 NSC 27/25 Q1009 A2982 HR88 CIRWY OPR C206=
ZPX0232 031256@CAELT@GG SLZZYMYT@CAELT@031252 SLETYMYC@CAELT@SABO SLET 031300@CAELT@METAR SLET 031300Z 31012KT 9999 SCT010 SCT015 26/22 Q1009 A2981 HR78@CAELT@NOSIG=@CAELT@
ZPX0233 031256@CAELT@GG SLZZYMYT@CAELT@031255 SLLPYGYZ@CAELT@SABO SLLP 031300@CAELT@METAR SLLP 031300Z 14007KT 6000 FEW004 SCT013 FEW017CB 11/05 Q1038@CAELT@A3065 627.9 HR70 P92// VIS/RED/SC N/NE/E/SE CB/SW AC/CI NOSIG=@CAELT@
ZPX0235 031258@CAELT@GG SLZZYMYT@CAELT@031258 SLVRYFYC@CAELT@SABO SLVR 031300@CAELT@METAR SLVR 031300Z 34012KT 9999 SCT010 BKN015 27/24 Q1010 A2982 HR80@CAELT@NOSIG=@CAELT@METAR SLET 031300Z 31012KT 9999 SCT010 SCT015 26/22 Q1009 A2981 HR78@CAELT@METAR SLAS 031300Z 35004KT 9999 BKN010 26/23 Q1013 A2992 HR88 REFG@CAELT@RWY NML=METAR SLJV 031300Z 36005KT 9999 NSC 27/23 Q1010 A2983 HR77 RWY NML=METAR SLCP 031300Z 00000KT 9999 NSC 26/23 Q1013 A2991 HR85 RWY NML=METAR SLSI 031300Z 33006KT 9999 SCT070 28/22 Q1011 A2985 HR70 RWY NMLMETAR SLTI 031300Z 00000KT 9999 FEW020 BKN070 29/25 Q1014 A2994 HR77METAR SLJE 031300Z 32005KT 9999 NSC 29/22 Q1013 A2991 HR67 RWY NML=METAR SLVG 031300Z 36004KT 9999 FEW020SCT200 19/16 Q1022 A3018 HR78METAR SLRB 031300Z 36004KT 9999 FEW070 30/23 Q1011 A2985 HR65 RWY NMLMETAR SLCA 031300Z 00000KT 9999 NSC 25/20 Q1012 A2988 HR73 CS RWY NML
ZPX0236 031258@CAELT@GG SLZZYMYT@CAELT@031257 SLSBYSYX@CAELT@SABO SLSB 031300@CAELT@METAR SLSB 031300Z 00000KT 9999 BKN015 SCT200 26/24 Q1010 A2983 HR94@CAELT@RWY WET OPR C210=@CAELT@
ZPX0238 031300@CAELT@GG SLZZYMYT@CAELT@031301 SLVRYFYC@CAELT@SABO SLVR 031300@CAELT@METAR SLVR 031300Z 34012KT 9999 SCT010 BKN015 27/24 Q1010 A2982 HR80@CAELT@NOSIG=@CAELT@METAR SLET 031300Z 31012KT 9999 SCT010 SCT015 26/22 Q1009 A2981 HR78@CAELT@METAR SLAS 031300Z 35004KT 9999 BKN010 26/23 Q1013 A2992 HR88 REFG@CAELT@RWY NML=METAR SLJV 031300Z 36005KT 9999 NSC 27/23 Q1010 A2983 HR77 RWY NML=METAR SLCP 031300Z 00000KT 9999 NSC 26/23 Q1013 A2991 HR85 RWY NML=METAR SLSI 031300Z 33006KT 9999 SCT070 28/22 Q1011 A2985 HR70 RWY NMLMETAR SLTI 031300Z 00000KT 9999 FEW020 BKN070 29/25 Q1014 A2994 HR77METAR SLJE 031300Z 32005KT 9999 NSC 29/22 Q1013 A2991 HR67 RWY NML=METAR SLVG 031300Z 36004KT 9999 FEW020 SCT200 19/16 Q1022 A3018 HR78METAR SLRB 031300Z 36004KT 9999 FEW070 30/23 Q1011 A2985 HR65 RWY NMLMETAR SLCA 031300Z 00000KT 9999 NSC 25/20 Q1012 A2988 HR73 CS RWY NML
ZPX0239 031300@CAELT@GG SLZZYMYT@CAELT@031259 SLCBYGYS@CAELT@SABO SLCB 031300@CAELT@METAR SLCB 031300Z 26003KT 9999 FEW030 21/13 Q1024 A3025 751.0 HR58@CAELT@FU AC CI NOSIG=@CAELT@METAR SLAL 031300Z 35005KT 9999 SCT012 SCT070 15/09 Q1029 A3038@CAELT@703.5 HR66=@CAELT@METAR SLTJ 031300Z 00000KT 9999 FEW027 22/16 Q1016 A3002 812.1 HR70=
ZPX0240 031300@CAELT@GG SLZZYMYT@CAELT@031259 SLLPYFYA@CAELT@SABO SLRY 031300@CAELT@METAR SLRY 031300Z 00000KT 9999 OVC010 25/24 Q1007@CAELT@A2975 HR92 RWY HUM OPR C210=@CAELT@
ZPX0243 031302@CAELT@GG SLZZYMYT@CAELT@031300 SLLPYFYA@CAELT@SABO SLLP 031300@CAELT@METAR SLLP 031300Z 14007KT 6000 FEW004 SCT013 FEW017CB 11/05 Q1038@CAELT@A3065 627.9 HR70 P92// VIS/RED/SC N/NE/E/SE CB/SW AC/CI NOSIG=@CAELT@METAR SLCO 031300Z 28003KT 9999 FEW080 BKN200 27/24 Q1011 A2986@CAELT@983.7 HR82=@CAELT@METAR SLRY 031300Z 00000KT 9999 OVC010 25/24 Q1007A2975 HR92 RWY HUM OPR C210=METAR SLRQ 031300Z 00000KT 9999 BKN008 SCT200 26/25 Q1009 A2981HR92=METAR SLSB 031300Z 00000KT 9999 BKN015 SCT200 26/24 Q1010A2983 HR94 RWY WET OPR C210=
ZPX0260 031352@CAELT@GG SLZZYMYT@CAELT@031351 SLCAYGYS@CAELT@SABO SLCA 031400@CAELT@METAR SLCA 031400Z 00000KT 9999 NSC 27/20 Q1011 A2985 HR66 CS RWY NML@CAELT@
ZPX0262 031353@CAELT@GG SLZZYMYT@CAELT@031354 SLSAYGYS@CAELT@SABO SLSA 031400@CAELT@METAR SLSA 031400Z 34005KT 9999 BKN017 BKN200 29/25 Q1010 A2985 HR79=@CAELT@
ZPX0263 031353@CAELT@GG SLZZYMYT@CAELT@031355 SLVRYGYZ@CAELT@SABO SLVR 031400@CAELT@METAR SLVR 031400Z 34012KT 9999 FEW012 SCT017 30/24 Q1009 A2982 HR71@CAELT@CI NOSIG=@CAELT@
ZPX0265 031354@CAELT@GG SLZZYMYT@CAELT@031354 SLSBYSYX@CAELT@SABO SLSB 031400@CAELT@METAR SLSB 031400Z 00000KT 9999 BKN017 27/25 Q1010 A2984 HR87 RWY WET@CAELT@OPR C210=@CAELT@
ZPX0267 031354@CAELT@GG SLZZYMYT@CAELT@031344 SLRBYGYS@CAELT@SABO SLRB 031400@CAELT@METAR SLRB 031400Z 36006KT 9999 FEW020 32/23 Q1011 A2985 HR59 RWY NML=@CAELT@
ZPX0269 031355@CAELT@GG SLZZYMYT@CAELT@031355 SLTJYGYZ@CAELT@SABO SLTJ 031400@CAELT@METAR SLTJ 031400Z 00000KT 9999 FEW030 24/16 Q1015 A2999 811.2 HR60=@CAELT@
ZPX0270 031356@CAELT@GG SLZZYMYT@CAELT@031355 SLLPYGYZ@CAELT@SABO SLLP 031400@CAELT@METAR SLLP 031400Z 12006KT 6000 FEW004 SCT014 FEW017CB 11/05 Q1038@CAELT@A3066 628.0 HR70 P0382 VIS/RED/SC NE/E/SE CB/S AC/CI NOSIG=@CAELT@
ZPX0271 031356@CAELT@GG SLZZYMYT@CAELT@031356 SLTRYGYZ@CAELT@SABO SLTR 031400@CAELT@METAR SLTR 031400Z 36006KT 9999 FEW015 SCT200 28/24 Q1010 A2984@CAELT@992.0 HR79 NOSIG=@CAELT@
ZPX0273 031356@CAELT@GG SLZZYMYT@CAELT@031356 SLCOYGYZ@CAELT@SABO SLCO 031400@CAELT@METAR SLCO 031400Z 25006KT 9999 FEW015 BKN200 29/25 Q1011 A2988 984.5@CAELT@HR79 AC=@CAELT@
ZPX0274 031357@CAELT@GG SLZZYMYT@CAELT@031346 SLETYMYC@CAELT@SABO SLET 031400@CAELT@METAR SLET 031400Z 33014KT 9999 FEW010 SCT017 29/23 Q1009 A2981 HR69@CAELT@CI NOSIG=@CAELT@
ZPX0275 031357@CAELT@GG SLZZYMYT@CAELT@031357 SLTRYGYS@CAELT@SABO SLTR 031400@CAELT@METAR SLTR 031400Z 36006KT 9999 FEW015 SCT200 28/24 Q1010 A2984@CAELT@992.0 HR79 NOSIG=@CAELT@METAR SLGM 031400Z 32004KT 5000 -TSRA SCT005 SCT015 FEW020CB OVC070@CAELT@25/24 Q1012 A2990 HR96 CB NE/E/NW TS/NW=@CAELT@METAR SLRI 031400Z 00000KT 3000 -TSRA SCT004 BKN017 FEW020CB OVC07024/24 Q1013 A2992 HR98 CB/TS NE/SE=METAR SLJO 031400Z 34008KT 9999 FEW017 BKN200 29/25 Q1009 A2980 HR79RWY NML=METAR SLRA 031400Z 36008KT 9999 FEW015 BKN200 29/25 Q1009 A2982 HR80RWY HUM OPR=METAR SLMG 031400Z 32004KT 9999 FEW017 BKN200 29/25 Q1010 A2985 HR79METAR SLBU 031400Z NIL=METAR SLSA 031400Z 34005KT 9999 BKN017 BKN200 29/25 Q1010 A2985 HR79=METAR SLSR 031400Z 34006KT 9999 SCT010 BKN200 28/24 Q1009 A2981 HR80METAR SLSM 031400Z 33006KT 9999 SCT017 SCT200 29/25 Q1010 A2983 HR80RWY WET OPR C206=
ZPX0276 031357@CAELT@GG SLZZYMYT@CAELT@031357 SLCBYGYZ@CAELT@SABO SLCB 031400@CAELT@METAR SLCB 031400Z 00000KT 9999 FEW030 23/13 Q1023 A3023 750.3 HR53@CAELT@NOSIG=@CAELT@
ZPX0279 031358@CAELT@GG SLZZYMYT@CAELT@031358 SLCBYGYS@CAELT@SABO SLCB 031400@CAELT@METAR SLCB 031400Z 00000KT 9999 FEW030 23/13 Q1023 A3023 750.3 HR53@CAELT@NOSIG=@CAELT@METAR SLAL 031400Z 03006KT 9999 BKN015 18/09 Q1028 A3036 703.1 HR57@CAELT@METAR SLTJ 031400Z 00000KT 9999 FEW030 24/16 Q1015 A2999 811.2 HR60=@CAELT@
ZPX0280 031359@CAELT@GG SLZZYMYT@CAELT@031400 SLVRYFYC@CAELT@SABO SLVR 031400@CAELT@METAR SLVR 031400Z 34012KT 9999 FEW012 SCT017 30/24 Q1009 A2982 HR71@CAELT@CI NOSIG=@CAELT@METAR SLET 031400Z 33014KT 9999 FEW010 SCT017 29/23 Q1009 A2981 HR69@CAELT@METAR SLAS 031400Z 35005KT 9999 FEW013 28/23 Q1012 A2989 HR75 RWY NML@CAELT@METAR SLJV 031400Z 36005KT 9999 NSC 29/22 Q1010 A2983 HR67 RWY NML=METAR SLCP 031400Z 34004KT 9999 NSC 29/23 Q1013 A2991 HR72 RWY NML=METAR SLSI 031400Z 33006KT 9999 NSC 30/22 Q1011 A2985 HR63 RWY NML=METAR SLTI 031400Z 00000KT 9999 BKN070 30/25 Q1013 A2991 HR72 RWY NMLMETAR SLJE 031400Z 32005KT 9999 NSC 31/23 Q1012 A2988 HR62 RWY NML=METAR SLVG 031400Z 00000KT 9999 FEW023 SCT200 22/16 Q1022 A3018 HR68RWY NML=METAR SLRB 031400Z 36006KT 9999 FEW020 32/23 Q1011 A2985 HR59 RWY NMLMETAR SLCA 031400Z 00000KT 9999 NSC 27/20 Q1011 A2985 HR66 CS RWY NML
ZPX0281 031400@CAELT@GG SLZZYMYT@CAELT@031358 SLLPYFYA@CAELT@SABO SLRY 031400@CAELT@METAR SLRY 031400Z 32003KT 9999 BKN015 BKN200 27/24 Q1007@CAELT@A2975 HR81 RWY HUM OPR C210=@CAELT@
ZPX0284 031402@CAELT@GG SLZZYMYT@CAELT@031400 SLLPYFYA@CAELT@SABO SLLP 031400@CAELT@METAR SLLP 031400Z 12006KT 6000 FEW004 SCT014 FEW017CB 11/05 Q1038@CAELT@A3066 628.0 HR70 P0382 VIS/RED/SC NE/E/SE CB/S AC/CI NOSIG=@CAELT@METAR SLCO 031400Z 25006KT 9999 FEW015 BKN200 29/25 Q1011 A2988@CAELT@984.5 HR79 AC=@CAELT@METAR SLRY 031400Z 32003KT 9999 BKN015 BKN200 27/24 Q1007A2975 HR81 RWY HUM OPR C210=METAR SLRQ 031400Z 00000KT 9999 BKN013 SCT200 28/25 Q1009A2982 HR85=METAR SLSB 031400Z 00000KT 9999 BKN017 27/25 Q1010 A2984HR87 RWY WET OPR C210=
ZPX0318 031454@CAELT@GG SLZZYMYT@CAELT@031454 SLSBYSYX@CAELT@SABO SLSB 031500@CAELT@METAR SLSB 031500Z 31004KT 9999 BKN017 29/25 Q1010 A2983 HR84 RWY WET@CAELT@OPR C210=@CAELT@
ZPX0319 031454@CAELT@GG SLZZYMYT@CAELT@031454 SLSAYGYS@CAELT@SABO SLSA 031500@CAELT@METAR SLSA 031500Z 32006KT 9999 BKN017 FEW023CB BKN200 31/25@CAELT@Q1010 A2984 HR71 CB NE=@CAELT@
ZPX0320 031454@CAELT@GG SLZZYMYT@CAELT@031454 SLCAYGYS@CAELT@SABO SLCA 031500@CAELT@METAR SLCA 031500Z 00000KT 9999 NSC 31/21 Q1010 A2983 HR54 RWY NML=@CAELT@
ZPX0321 031454@CAELT@GG SLZZYMYT@CAELT@031454 SLVRYGYZ@CAELT@SABO SLVR 031500@CAELT@METAR SLVR 031500Z 34015KT 9999 SCT020 31/22 Q1009 A2980 HR62 CI@CAELT@NOSIG=@CAELT@
ZPX0322 031454@CAELT@GG SLZZYMYT@CAELT@031450 SLRBYGYS@CAELT@SABO SLRB 031500@CAELT@METAR SLRB 031500Z 36008KT 9999 FEW020 33/22 Q1011 A2985 HR52 RWY NML=@CAELT@
ZPX0323 031455@CAELT@GG SLZZYMYT@CAELT@031455 SLCBYGYZ@CAELT@SABO SLCB 031500@CAELT@METAR SLCB 031500Z 31003KT 9999 FEW033 24/11 Q1022 A3020 749.6 HR43@CAELT@NOSIG=@CAELT@
ZPX0324 031455@CAELT@GG SLZZYMYT@CAELT@031455 SLTRYGYZ@CAELT@SABO SLTR 031500@CAELT@METAR SLTR 031500Z 34008KT 9999 SCT015 30/25 Q1010 A2984 992.0@CAELT@HR72 CI NOSIG=@CAELT@
ZPX0325 031456@CAELT@GG SLZZYMYT@CAELT@031455 SLTJYGYZ@CAELT@SABO SLTJ 031500@CAELT@METAR SLTJ 031500Z 16004KT 9999 FEW033 26/17 Q1014 A2995 810.2 HR60=@CAELT@
ZPX0327 031457@CAELT@GG SLZZYMYT@CAELT@031456 SLLPYGYZ@CAELT@SABO SLLP 031500@CAELT@METAR SLLP 031500Z 12006KT 9999 SCT015 FEW017CB SCT200 13/05 Q1037@CAELT@A3064 627.7 HR58 P0483 CB/NW AC NOSIG=@CAELT@
ZPX0328 031457@CAELT@GG SLZZYMYT@CAELT@031424 SLETYMYC@CAELT@SABO SLET 031500@CAELT@METAR SLET 031500Z 32014KT 9999 FEW010 SCT017 30/22 Q1008 A2979 HR62@CAELT@CI NOSIG=@CAELT@
ZPX0329 031458@CAELT@GG SLZZYMYT@CAELT@031459 SLVRYFYC@CAELT@SABO SLVR 031500@CAELT@METAR SLVR 031500Z 34015KT 9999 SCT020 31/22 Q1009 A2980 HR62 CI@CAELT@NOSIG=@CAELT@METAR SLET 031500Z 32014KT 9999 FEW010 SCT017 30/22 Q1008 A2979 HR62@CAELT@CI NOSIG=@CAELT@METAR SLAS 031500Z 36006KT 9999 FEW015 30/23 Q1012 A2989 HR67 RWY NMLMETAR SLJV 031500Z 36010KT 9999 NSC 30/22 Q1010 A2983 HR62 RWY NML=METAR SLCP 031500Z 34008KT 9999 FEW020 30/23 Q1013 A2991 HR67 RWY NMLMETAR SLSI 031500Z 33008KT 9999 NSC 32/23 Q1010 A2983 HR59 RWY NML=METAR SLTI 031500Z 00000KT 9999 FEW017 33/25 Q1013 A2991 HR63 RWY NMLMETAR SLJE 031500Z 32006KT 9999 NSC 34/23 Q1012 A2988 HR54 RWY NML=METAR SLVG 031500Z 00000KT 9999 FEW025 SCT0200 24/15 Q1021 A3015 HR56RWY NML=METAR SLRB 031500Z 36008KT 9999 FEW020 33/22 Q1011 A2985 HR52 RWY NMLMETAR SLCA 031500Z 00000KT 9999 NSC 31/21 Q1010 A2983 HR54 RWY NML=
ZPX0330 031458@CAELT@GG SLZZYMYT@CAELT@031457 SLCOYGYZ@CAELT@SABO SLCO 031500@CAELT@METAR SLCO 031500Z 33008KT 9999 BKN017 BKN200 30/25 Q1011 A2985 983.6@CAELT@HR73=@CAELT@
ZPX0333 031500@CAELT@GG SLZZYMYT@CAELT@031459 SLTRYGYS@CAELT@SABO SLTR 031500@CAELT@METAR SLTR 031500Z 34008KT 9999 SCT015 30/25 Q1010 A2984 992.0@CAELT@HR72 CI NOSIG=@CAELT@METAR SLGM 031500Z 36006KT 7000 VCSH SCT012 FEW020CB OVC070 26/24@CAELT@Q1012 A2990 HR89 RETSRA CB/SH N/NW=@CAELT@METAR SLRI 031500Z 03006KT 3000 -RA SCT004 BKN017 FEW020CB OVC07024/24 Q1013 A2992 HR98 RETS CB N/NE/NW=METAR SLJO 031500Z 34008KT 8000 VCSH SCT017 FEW023CB BKN200 31/25Q1009 A2981 HR73 CB/SH N/NE RWY NML=METAR SLRA 031500Z 36008KT 9999 SCT017 BKN200 30/25 Q1010 A2983 HR77RWY NML=METAR SLMG 031500Z 32006KT 9999 SCT017 FEW023CB 30/26 Q1010 A2985HR76 CB S RWY NML=METAR SLBU 031500Z NIL=METAR SLSA 031500Z 32006KT 9999 BKN017 FEW023CB BKN200 31/25Q1010 A2984 HR71 CB NE=METAR SLSR 031500Z 34006KT 9999 SCT010 BKN200 29/24 Q1009 A2981 HR74METAR SLSM 031500Z 33004KT 9999 BKN017 30/25 Q1009 A2982 HR77 CIRWY WET OPR C210=
ZPX0334 031500@CAELT@GG SLZZYMYT@CAELT@031500 SLLPYFYA@CAELT@SABO SLRY 031500@CAELT@METAR SLRY 031500Z 32003KT 9999 BKN016 BKN200 27/24 Q1007@CAELT@A2975 HR76 RWY HUM OPR C210=@CAELT@
ZPX0336 031501@CAELT@GG SLZZYMYT@CAELT@031501 SLCBYGYS@CAELT@SABO SLCB 031500@CAELT@METAR SLCB 031500Z 31003KT 9999 FEW033 24/11 Q1022 A3020 749.6 HR43@CAELT@NOSIG=@CAELT@METAR SLAL 031500Z 07004KT 9999 SCT017 19/10 Q1027 A3033 702.9 HR58=@CAELT@METAR SLTJ 031500Z 16004KT 9999 FEW033 26/17 Q1014 A2995 810.2 HR60=@CAELT@
ZPX0337 031502@CAELT@GG SLZZYMYT@CAELT@031501 SLLPYFYA@CAELT@SABO SLLP 031500@CAELT@METAR SLLP 031500Z 12006KT 9999 SCT015 FEW017CB SCT200 13/05 Q1037@CAELT@A3064 627.7 HR58 P0483 CB/NW AC NOSIG=@CAELT@METAR SLCO 031500Z 33008KT 9999 BKN017 BKN200 30/25 Q1011 A2985@CAELT@983.6 HR73=@CAELT@METAR SLRY 031500Z 32003KT 9999 BKN016 BKN200 27/24 Q1007A2975 HR76 RWY HUM OPR C210=METAR SLRQ 031500Z 00000KT 9999 BKN015 BKN200 30/25 Q1009A2981 HR79=METAR SLAP 031500Z 00000KT 9999 FEW015 SCT200 26/19 Q1016A3002 857.3 HR65=METAR SLSB 031500Z 31004KT 9999 BKN017 29/25 Q1010 A2983 HR84RWY WET OPR C210=
ZPX0358 031553@CAELT@GG SLZZYMYT@CAELT@031552 SLCAYGYS@CAELT@SABO SLCA 031600@CAELT@METAR SLCA 031600Z 00000KT 9999 FEW033 32/19 Q1009 A2980 HR46 RWY NML@CAELT@
ZPX0359 031553@CAELT@GG SLZZYMYT@CAELT@031555 SLVRYGYZ@CAELT@SABO SLVR 031600@CAELT@METAR SLVR 031600Z 34013G24KT 9999 SCT020 32/23 Q1008 A2978 HR60 CI@CAELT@NOSIG=@CAELT@
ZPX0361 031554@CAELT@GG SLZZYMYT@CAELT@031554 SLSAYGYS@CAELT@SABO SLSA 031600@CAELT@METAR SLSA 031600Z 32008KT 9999 BKN017 FEW023CB BKN200 32/24@CAELT@Q1009 A2981 HR65 CB NE=@CAELT@
ZPX0364 031555@CAELT@GG SLZZYMYT@CAELT@031555 SLSBYSYX@CAELT@SABO SLSB 031600@CAELT@METAR SLSB 031600Z 33008KT 9999 BKN020 31/25 Q1009 A2980 HR79 RWY WET@CAELT@OPR C210=@CAELT@
ZPX0365 031555@CAELT@GG SLZZYMYT@CAELT@031555 SLCOYGYZ@CAELT@SABO SLCO 031600@CAELT@METAR SLCO 031600Z 32004KT 9999 BKN020 SCT200 31/25 Q1010 A2984 983.0@CAELT@HR71 SH/E/W=@CAELT@
ZPX0366 031555@CAELT@GG SLZZYMYT@CAELT@031555 SLCBYGYZ@CAELT@SABO SLCB 031600@CAELT@METAR SLCB 031600Z 23003KT 9999 FEW033 FEW036CB 26/09 Q1021 A3016 748@CAELT@.6 HR33 CB/NW AC NOSIG=@CAELT@
ZPX0367 031556@CAELT@GG SLZZYMYT@CAELT@031556 SLRBYGYS@CAELT@SABO SLRB 031600@CAELT@METAR SLRB 031600Z 36008KT 9999 FEW020 34/22 Q1011 A2985 HR49 RWY NML=@CAELT@
ZPX0368 031556@CAELT@GG SLZZYMYT@CAELT@031555 SLLPYGYZ@CAELT@SABO SLLP 031600@CAELT@METAR SLLP 031600Z 10007KT 9999 SCT015 FEW017CB SCT200 14/05 Q1036@CAELT@A3061 627.1 HR54 P4754 CB/SH N/NE/S AC NOSIG=@CAELT@
ZPX0369 031556@CAELT@GG SLZZYMYT@CAELT@031555 SLTJYGYZ@CAELT@SABO SLTJ 031600@CAELT@METAR SLTJ 031600Z 15009KT 9999 SCT033 28/18 Q1013 A2993 809.5 HR57=@CAELT@
ZPX0370 031556@CAELT@GG SLZZYMYT@CAELT@031548 SLETYMYC@CAELT@SABO SLET 031600@CAELT@METAR SLET 031600Z 31015G26KT 9999 SCT017 31/22 Q1007 A2976 HR59 CI@CAELT@NOSIG=@CAELT@
ZPX0371 031556@CAELT@GG SLZZYMYT@CAELT@031557 SLTRYGYS@CAELT@SABO SLTR 031600@CAELT@METAR SLTR 031600Z 33008KT 9999 SCT017 31/24 Q1009 A2981 991.1@CAELT@HR69 CI NOSIG=@CAELT@METAR SLGM 031600Z 36010KT 8000 VCSH SCT015 FEW20CB BKN080 27/24@CAELT@Q1011 A2987 HR83 CB/SH NE/E=@CAELT@METAR SLRI 031600Z 36010KT 5000 -RA SCT004 BKN010 FEW020CB OVC07024/24 Q1012 A2990 HR98 CB N/NW=METAR SLJO 031600Z 32012KT 8000 VCSH SCT017 FEW023CB BKN200 31/25Q1007 A2976 HR72 CB/SH E/SE RWY NML=METAR SLRA 031600Z 36012KT 7000 VCSH SCT017 FEW023CB BKN200 30/25Q1010 A2984 HR75 CB N/NE/E RWY NML=METAR SLMG 031600Z 32006KT 6000 TS VCSH SCT017 FEW023CB 31/26 Q1009A2982 HR73 CB/SH NE/E/W/NW TS W RWY NML=METAR SLBU 031600Z NIL=METAR SLSA 031600Z 32008KT 9999 BKN017 FEW023CB BKN200 32/24Q1009 A2981 HR65 CB NE=METAR SLSR 031600Z 34006KT 9999 SCT015 BKN200 31/24 Q1008 A2979 HR68RWY NML=METAR SLSM 031600Z 01006KT 9999 BKN017 30/25 Q1009 A2980 HR74 RWYWET OPR C206=
ZPX0372 031557@CAELT@GG SLZZYMYT@CAELT@031558 SLVRYFYC@CAELT@SABO SLVR 031600@CAELT@METAR SLVR 031600Z 34013G24KT 9999 SCT020 32/23 Q1008 A2978 HR60 CI@CAELT@NOSIG=@CAELT@METAR SLET 031600Z 31015G26KT 9999 SCT017 31/22 Q1007 A2976 HR59 CI@CAELT@METAR SLAS 031600Z 36010KT 9999 SCT017 31/24 Q1011 A2986 HR64 RWY NML@CAELT@METAR SLJV 031600Z 36008KT 9999 SCT020 31/23 Q1009 A2980 HR63 RWY NMLMETAR SLCP 031600Z 34008KT 9999 SCT020 30/23 Q1013 A2991 HR64 RWY NMLMETAR SLSI 031600Z 33008KT 9999 SCT017 33/23 Q1010 A2983 HR57 RWY NMLMETAR SLTI 031600Z 00000KT 9999 SCT017 35/25 Q1011 A2985 HR55 RWY NMLMETAR SLJE 031600Z 32006KT 9999 FEW017 34/22 Q1011 A2985 HR49 RWY NMLMETAR SLVG 031600Z 35006KT 9999 FEW027 25/15 Q1021 A3015 HR47 RWY NMLMETAR SLRB 031600Z 36008KT 9999 FEW020 34/22 Q1011 A2985 HR49 RWY NMLMETAR SLCA 031600Z 00000KT 9999 FEW033 32/19 Q1009 A2980 HR46 RWY NML
ZPX0376 031600@CAELT@GG SLZZYMYT@CAELT@031559 SLLPYFYA@CAELT@SABO SLRY 031600@CAELT@METAR SLRY 031600Z 34006KT 9999 BKN016 BKN200 30/25 Q1007@CAELT@A2975 HR73 RWY HUM OPR=@CAELT@
ZPX0380 031603@CAELT@GG SLZZYMYT@CAELT@031601 SLLPYFYA@CAELT@SABO SLLP 031600@CAELT@METAR SLLP 031600Z 10007KT 9999 SCT015 FEW017CB SCT200 14/05 Q1036@CAELT@A3061 627.1 HR54 P4754 CB/SH N/NE/S AC NOSIG=@CAELT@METAR SLCO 031600Z 32004KT 9999 BKN020 SCT200 31/25 Q1010 A2984@CAELT@983.0 HR71 SH/E/W=@CAELT@METAR SLRY 031600Z 34006KT 9999 BKN016 BKN200 30/25 Q1007A2975 HR73 RWY HUM OPR=METAR SLRQ 031600Z 34003KT 9999 BKN015 SCT200 30/26 Q1008 A2978HR77=METAR SLAP 031600Z 00000KT 9999 FEW015 FEW017CB SCT200 29/20 Q1015A2999 856.4 HR59 CB/NE/SE=METAR SLSB 031600Z 33008KT 9999 BKN020 31/25 Q1009 A2980 HR79RWY WET OPR C210=
ZPX0382 031605@CAELT@GG SLZZYMYT@CAELT@031559 SLCBYGYS@CAELT@SABO SLCB 031600@CAELT@METAR SLCB 031600Z 23003KT 9999 FEW033 FEW036CB 26/09 Q1021 A3016@CAELT@748.6 HR33 CB/NW AC NOSIG=@CAELT@METAR SLAL 031600Z 05007KT 9999 SCT020 20/10 Q1026 A3031 701.8 HR53=@CAELT@METAR SLTJ 031600Z 15009KT 9999 SCT033 28/18 Q1013 A2993 809.5 HR57=@CAELT@
ZPX0400 031653@CAELT@GG SLZZYMYT@CAELT@031653 SLTJYGYZ@CAELT@SABO SLTJ 031700@CAELT@METAR SLTJ 031700Z 15011KT 9999 SCT033 FEW036TCU 28/18 Q1013 A2992@CAELT@809.2 HR54 TCU NW=@CAELT@
ZPX0401 031653@CAELT@GG SLZZYMYT@CAELT@031655 SLVRYGYZ@CAELT@SABO SLVR 031700@CAELT@METAR SLVR 031700Z 34016G27KT 9999 SCT020 32/23 Q1008 A2977 HR60 CI@CAELT@NOSIG=@CAELT@
ZPX0402 031654@CAELT@GG SLZZYMYT@CAELT@031653 SLRBYGYS@CAELT@SABO SLRB 031700@CAELT@METAR SLRB 031700Z 36010KT 9999 FEW020 35/21 Q1009 A2980 HR44 RWY NML=@CAELT@
ZPX0403 031655@CAELT@GG SLZZYMYT@CAELT@031654 SLSAYGYS@CAELT@SABO SLSA 031700@CAELT@METAR SLSA 031700Z 34008KT 9999 BKN017 FEW023CB BKN200 32/24@CAELT@Q1009 A2980 HR65 CB E=@CAELT@
ZPX0404 031655@CAELT@GG SLZZYMYT@CAELT@031655 SLCAYGYS@CAELT@SABO SLCA 031700@CAELT@METAR SLCA 031700Z 00000KT 9999 FEW033 33/19 Q1008 A2977 HR44 RWY NML@CAELT@
ZPX0405 031655@CAELT@GG SLZZYMYT@CAELT@031655 SLCAYGYS@CAELT@SABO SLCA 031700@CAELT@METAR SLCA 031700Z 00000KT 9999 FEW033 33/19 Q1008 A2977 HR44 RWY NML@CAELT@
ZPX0406 031655@CAELT@GG SLZZYMYT@CAELT@031655 SLLPYGYZ@CAELT@SABO SLLP 031700@CAELT@METAR SLLP 031700Z 12009KT 060V170 9999 SCT017 FEW020CB BKN200 16/03@CAELT@Q1035 A3058 626.3 HR42 P4754 CB/SH N/NE/S/SW/W AC NOSIG=@CAELT@
ZPX0407 031655@CAELT@GG SLZZYMYT@CAELT@031655 SLTRYGYZ@CAELT@SABO SLTR 031700@CAELT@METAR SLTR 031700Z 32010KT 9999 SCT017 32/25 Q1008 A2977 989.8@CAELT@HR66 CI NOSIG=@CAELT@
ZPX0409 031656@CAELT@GG SLZZYMYT@CAELT@031655 SLCBYGYZ@CAELT@SABO SLCB 031700@CAELT@METAR SLCB 031700Z 27005KT 9999 FEW036 FEW040CB 27/07 Q1019 A3012 747@CAELT@.4 HR29 CB/NW/E/SW AC CI NOSIG=@CAELT@
ZPX0411 031656@CAELT@GG SLZZYMYT@CAELT@031656 SLCOYGYZ@CAELT@SABO SLCO 031700@CAELT@METAR SLCO 031700Z 32006KT 9999 SCT020 FEW023CB BKN200 33/24 Q1009@CAELT@A2979 981.6 HR61 CB/SE AC=@CAELT@
ZPX0412 031657@CAELT@GG SLZZYMYT@CAELT@031644 SLETYMYC@CAELT@SABO SLET 031700@CAELT@METAR SLET 031700Z 34016G28KT 9999 FEW015 BKN020 32/23 Q1007 A2975@CAELT@HR59 CI NOSIG=@CAELT@
ZPX0413 031658@CAELT@GG SLZZYMYT@CAELT@031656 SLSBYSYX@CAELT@SABO SLSB 031700@CAELT@METAR SLSB 031700Z 32010KT 9999 BKN020 31/25 Q1007 A2976 HR76 RWY WET@CAELT@OPR C210=@CAELT@
ZPX0415 031658@CAELT@GG SLZZYMYT@CAELT@031658 SLCBYGYS@CAELT@SABO SLCB 031700@CAELT@METAR SLCB 031700Z 27005KT 9999 FEW036 FEW040CB 27/07 Q1019 A3012@CAELT@747.4 HR29 CB/NW/E/SW AC CI NOSIG=@CAELT@METAR SLAL 031700Z 02008KT 9999 SCT023 FEW030CB 22/10 Q1025 A3028@CAELT@701.0 HR45 CB/S=@CAELT@METAR SLTJ 031700Z 15011KT 9999 SCT033 FEW036TCU 28/18 Q1013 A2992809.2 HR54 TCU NW=
ZPX0416 031659@CAELT@GG SLZZYMYT@CAELT@031658 SLLPYFYA@CAELT@SABO SLRY 031700@CAELT@METAR SLRY 031700Z 32008KT 9999 BKN017 BKN200 31/25 Q1007@CAELT@A2974 HR70 RWY HUM OPR=@CAELT@
ZPX0417 031659@CAELT@GG SLZZYMYT@CAELT@031658 SLTRYGYS@CAELT@SABO SLTR 031700@CAELT@METAR SLTR 031700Z 32010KT 9999 SCT017 32/25 Q1008 A2977 989.8@CAELT@HR66 CI NOSIG=@CAELT@METAR SLGM 031700Z 36010KT 9999 SCT017 FEW020CB BKN080 29/24 Q1010@CAELT@A2984 HR73 CB W=@CAELT@METAR SLRI 031700Z 36010KT 7000 VCSH SCT004 BKN10 FEW020CB OVC07025/24 Q1011 A2987 HR94 RERA CB/SH N/NW=METAR SLJO 031700Z 32012KT 7000 VCSH SCT017 FEW023CB BKN200 32/25Q1006 A2971 HR70 CB/SH E/SE/SW RWY NML=METAR SLRA 031700Z 36010KT 7000 VCSH SCT017 FEW023CB BKN200 31/24Q1009 A2982 HR74 CB/SH E/SE/S RWY NML=METAR SLMG 031700Z 32012KT 6000 VCSH SCT017 FEW023CB 27/25 Q1009A2981 HR89 RESHRA CB/SH NE/E/S/SW/W RWY OPR C210=METAR SLBU 031700Z NIL=METAR SLSA 031700Z 34008KT 9999 BKN017 FEW023CB BKN200 32/24Q1009 A2980 HR65 CB E=METAR SLSR 031700Z 34012KT 9999 SCT015 BKN200 31/24 Q1008 A2977HR64 RWY NML=METAR SLSM 031700Z 33006KT 9999 BKN017 31/25 Q1008 A2977 HR74RWY WET OPR C206=
ZPX0418 031659@CAELT@GG SLZZYMYT@CAELT@031700 SLVRYFYC@CAELT@SABO SLVR 031700@CAELT@METAR SLVR 031700Z 34016G27KT 9999 SCT020 32/23 Q1008 A2977 HR60 CI@CAELT@NOSIG=@CAELT@METAR SLET 031700Z 34016G28KT 9999 FEW015 BKN020 32/23 Q1007 A2975@CAELT@HR59 CI NOSIG=@CAELT@METAR SLAS 031700Z 36010KT 9999 SCT020 32/24 Q1010 A2983 HR60 RWY NMLMETAR SLJV 031700Z 36010KT 9999 BKN020 31/24 Q1009 A2980 HR64 RWY NMLMETAR SLCP 031700Z 36008KT 9999 BKN020 31/23 Q1012 A2988 HR61 RWY NMLMETAR SLSI 031700Z 36006KT 9999 SCT017 34/23 Q1009 A2980 HR 54 RWYMETAR SLTI 031700Z 00000KT 9999 BKN020 36/24 Q1010 A2983 HR51 RWY NMLMETAR SLJE 031700Z 32006KT 9999 SCT017 35/22 Q1010 A2983 HR48 RWY NMLMETAR SLVG 031700Z 36007KT 9999 SCT027 27/16 Q1019 A3009 HR50 RWY NMLMETAR SLRB 031700Z 36010KT 9999 FEW020 35/21 Q1009 A2980 HR44 RWY NMLMETAR SLCA 031700Z 00000KT 9999 FEW033 33/19 Q1008 A2977 HR44 RWY NML
ZPX0420 031700@CAELT@GG SLZZYMYT@CAELT@031700 SLLPYFYA@CAELT@SABO SLLP 031700@CAELT@METAR SLLP 031700Z 12009KT 060V170 9999 SCT017 FEW020CB BKN200 16/03@CAELT@Q1035 A3058 626.3 HR42 P4754 CB/SH N/NE/S/SW/W AC NOSIG=@CAELT@METAR SLCO 031700Z 32006KT 9999 SCT020 FEW023CB BKN200 33/24 Q1009@CAELT@A2979 981.6 HR61 CB/SE AC=@CAELT@METAR SLRY 031700Z 32008KT 9999 BKN017 BKN200 31/25 Q1007A2974 HR70 RWY HUM OPR=METAR SLRQ 031700Z 36005KT 9999 BKN017 SCT200 32/27 Q1007 A2975HR74=METAR SLAP 031700Z 00000KT 9999 FEW015 FEW017CB SCT200 30/19 Q1014A2996 855.6 HR52 CB/SH NE/E/SE=METAR SLSB 031700Z 32010KT 9999 BKN020 31/25 Q1007 A2976 HR76RWY WET OPR C210=
ZPX0455 031753@CAELT@GG SLZZYMYT@CAELT@031755 SLVRYGYZ@CAELT@SABO SLVR 031800@CAELT@METAR SLVR 031800Z 34016G27KT 9999 SCT020 33/23 Q1007 A2974 HR58 CI@CAELT@NOSIG=@CAELT@
ZPX0456 031754@CAELT@GG SLZZYMYT@CAELT@031754 SLSBYSYX@CAELT@SABO SLSB 031800@CAELT@METAR SLSB 031800Z 33006KT 9999 SCT020 31/24 Q1007 A2974 HR68 RWY WET@CAELT@OPR C210=@CAELT@
ZPX0457 031754@CAELT@GG SLZZYMYT@CAELT@031753 SLRBYGYS@CAELT@SABO SLRB 031800@CAELT@METAR SLRB 031800Z 36008KT 9999 SCT020 36/21 Q1008 A2977 HR40 RWY NML=@CAELT@
ZPX0458 031754@CAELT@GG SLZZYMYT@CAELT@031754 SLSAYGYS@CAELT@SABO SLSA 031800@CAELT@METAR SLSA 031800Z 32010KT 9999 SCT017 FEW023CB BKN200 32/24 Q1006@CAELT@A2971 HR63 CB E/NW=@CAELT@
ZPX0459 031755@CAELT@GG SLZZYMYT@CAELT@031729 SLETYMYC@CAELT@SABO SLET 031700@CAELT@METAR SLET 031800Z 32015G26KT 9999 FEW015 BKN020 32/23 Q1006 A2972@CAELT@HR57 CI NOSIG=@CAELT@
ZPX0460 031756@CAELT@GG SLZZYMYT@CAELT@031755 SLCBYGYZ@CAELT@SABO SLCB 031800@CAELT@METAR SLCB 031800Z 24005KT 9999 FEW036 FEW040CB 29/06 Q1018 A3007 746@CAELT@.2 HR23 CB/E/SW AC CI NOSIG=@CAELT@
ZPX0461 031756@CAELT@GG SLZZYMYT@CAELT@031755 SLLPYGYZ@CAELT@SABO SLLP 031800@CAELT@METAR SLLP 031800Z 13009KT 070V180 9999 SCT017 FEW020CB BKN200 15/02@CAELT@Q1034 A3056 625.8 HR43 P3784 CB/SH SE/S/W/NW AC NOSIG=@CAELT@
ZPX0462 031756@CAELT@GG SLZZYMYT@CAELT@031755 SLTJYGYZ@CAELT@SABO SLTJ 031800@CAELT@METAR SLTJ 031800Z 13012KT 9999 SCT033 FEW036CB 29/17 Q1012 A2990 808@CAELT@.7 HR50 CB N/W/NW AC=@CAELT@
ZPX0463 031756@CAELT@GG SLZZYMYT@CAELT@031756 SLCAYGYS@CAELT@SABO SLCA 031800@CAELT@METAR SLCA 031800Z 00000KT 9999 SCT033 34/18 Q1007 A2974 HR40 RWY NML@CAELT@
ZPX0466 031757@CAELT@GG SLZZYMYT@CAELT@031758 SLVRYFYC@CAELT@SABO SLVR 031800@CAELT@METAR SLVR 031800Z 34016G27KT 9999 SCT020 33/23 Q1007 A2974 HR58 CI@CAELT@NOSIG=@CAELT@METAR SLET 031800Z 32015G26KT 9999 FEW015 BKN020 32/23 Q1006 A2972@CAELT@HR57 CI NOSIG=@CAELT@METAR SLAS 031800Z 35010KT 9999 SCT020 32/23 Q1009 A2980 HR60 RWY NMLMETAR SLJV 031800Z 36008KT 9999 BKN020 31/24 Q1008 A2977 HR65 RWY NMLMETAR SLCP 031800Z 36008KT 9999 BKN020 31/23 Q1011 A2985 HR61 RWY NMLMETAR SLSI 031800Z 33008KT 9999 SCT017 34/22 Q1007 A2974 HR52 RWY NMLMETAR SLTI 031800Z 32014KT 9999 BKN020 36/24 Q1009 A2980 HR50 RWY NMLMETAR SLJE 031800Z 32008KT 9999 BKN017 37/22 Q1009 A2980 HR43 RWY NMLMETAR SLVG 031800Z 36007KT 9999 SCT027 27/14 Q1018 A3006 HR41 RWY NMLMETAR SLRB 031800Z 36008KT 9999 SCT020 36/21 Q1008 A2977 HR40 RWY NMLMETAR SLCA 031800Z 00000KT 9999 SCT033 34/18 Q1007 A2974 HR40 RWY NML
ZPX0468 031758@CAELT@GG SLZZYMYT@CAELT@031756 SLCOYGYZ@CAELT@SABO SLCO 031800@CAELT@METAR SLCO 031800Z 32003KT 9999 SCT023 FEW025CB BKN200 32/25 Q1007@CAELT@A2974 979.9 HR67 CB/N/NE/E AC=@CAELT@
ZPX0469 031758@CAELT@GG SLZZYMYT@CAELT@031758 SLTRYGYZ@CAELT@SABO SLTR 031800@CAELT@METAR SLTR 031800Z 33010KT 9999 SCT017 32/24 Q1006 A2973 988.2@CAELT@HR63 NOSIG=@CAELT@
ZPX0470 031758@CAELT@GG SLZZYMYT@CAELT@031758 SLTRYGYZ@CAELT@SABO SLTR 031800@CAELT@METAR SLTR 031800Z 33010KT 9999 SCT017 32/24 Q1006 A2973 988.2@CAELT@HR63 NOSIG=@CAELT@
ZPX0471 031759@CAELT@GG SLZZYMYT@CAELT@031758 SLTRYGYS@CAELT@SABO SLTR 031800@CAELT@METAR SLTR 031800Z 33010KT 9999 SCT017 32/24 Q1006 A2973 988.2@CAELT@HR63 NOSIG=@CAELT@METAR SLGM 031800Z 34006KT 9999 SCT017 BKN200 29/24 Q1009 A2979 HR71=@CAELT@METAR SLRI 031800Z 36006KT 5000 VCSH SCT015 FEW020CB BKN200 27/23@CAELT@Q1009 A2980 HR81 CB/SH N/NE/NW=METAR SLJO 031800Z NIL=METAR SLRA 031800Z 14006KT 7000 VCSH SCT017 FEW023CB BKN200 27/26Q1008 A2977 HR89 RESHRA CB/SH SE/S RWY HUM OPR=METAR SLMG 031800Z 06004KT 8000 TS VCSH SCT017 FEW023CB BKN200 25/24Q1008 A2979 HR91 CB/SH NE/E/S TS E RWY OPR C210=METAR SLBU 031800Z NIL=METAR SLSA 031800Z 32010KT 9999 SCT017 FEW023CB BKN200 32/24 Q1006A2971 HR63 CB E/NW=METAR SLSR 031800Z 34012KT 9999 SCT015 BKN200 32/23 Q1007 A2974 HR60RWY NML=METAR SLSM 031800Z 36008KT 9999 BKN017 32/25 Q1006 A2972 HR68RWY WET OPR C206=
ZPX0472 031800@CAELT@GG SLZZYMYT@CAELT@031759 SLCBYGYS@CAELT@SABO SLCB 031800@CAELT@METAR SLCB 031800Z 24005KT 9999 FEW036 FEW040CB 29/06 Q1018 A3007@CAELT@746.2 HR23 CB/E/SW AC CI NOSIG=@CAELT@METAR SLAL 031800Z 01011KT 9999 FEW023 FEW033CB 23/10 Q1024 A3023@CAELT@700.1 HR44 CB S/W CI=@CAELT@METAR SLTJ 031800Z 13012KT 9999 SCT033 FEW036CB 29/17 Q1012 A2990808.7 HR50 CB N/W/NW AC=
ZPX0473 031800@CAELT@GG SLZZYMYT@CAELT@031759 SLLPYFYA@CAELT@SABO SLLP 031800@CAELT@METAR SLLP 031800Z 13009KT 070V180 9999 SCT017 FEW020CB BKN200@CAELT@15/02 Q1034 A3056 625.8 HR43 P3784 CB/SH SE/S/W/NW AC NOSIG=@CAELT@METAR SLCO 031800Z 32003KT 9999 SCT023 FEW025CB BKN200 32/25@CAELT@Q1007 A2974 979.9 HR67 CB/N/NE/E AC=@CAELT@METAR SLRY 031800Z 32008KT 9999 SCT017 BKN200 32/25 Q1005 A2969HR66 RWY HUM OPR=METAR SLRQ 031800Z 36005KT 9999 BKN017 SCT200 32/27 Q1006 A2972HR72=METAR SLSB 031800Z 33006KT 9999 SCT020 31/24 Q1007 A2974 HR68RWY WET OPR C210=
ZPX0497 031853@CAELT@GG SLZZYMYT@CAELT@031853 SLCAYGYS@CAELT@SABO SLCA 031900@CAELT@METAR SLCA 031900Z 00000KT 9999 FEW033 35/18 Q1006 A2971 HR38 RWY NML@CAELT@
ZPX0498 031854@CAELT@GG SLZZYMYT@CAELT@031854 SLRBYGYS@CAELT@SABO SLRB 03190@CAELT@METAR SLRB 031900Z 36006KT 9999 SCT020 37/20 Q1007 A2974 HR39 RWY NML=@CAELT@
ZPX0499 031855@CAELT@GG SLZZYMYT@CAELT@031854 SLSBYSYX@CAELT@SABO SLSB 031900@CAELT@METAR SLSB 031900Z 31010KT 9999 SCT020 33/24 Q1005 A2974 HR66 RWY WET@CAELT@OPR C210=@CAELT@
ZPX0500 031855@CAELT@GG SLZZYMYT@CAELT@031854 SLSAYGYS@CAELT@SABO SLSA 031900@CAELT@METAR SLSA 031900Z 34008KT 9999 BKN017 FEW023CB BKN200 33/24 Q1005@CAELT@A2969 HR62 CB/E=@CAELT@
ZPX0501 031855@CAELT@GG SLZZYMYT@CAELT@031855 SLVRYGYZ@CAELT@SABO SLVR 031900@CAELT@METAR SLVR 031900Z 34016G27KT 9999 SCT020 32/23 Q1006 A2971 HR59 CI@CAELT@NOSIG=@CAELT@
ZPX0502 031855@CAELT@GG SLZZYMYT@CAELT@031855 SLCBYGYZ@CAELT@SABO SLCB 031900@CAELT@METAR SLCB 031900Z 27006KT 9999 SCT036 FEW040CB BKN200 28/06 Q1016@CAELT@A3003 745.0 HR24 CB/SW/W/E AC NOSIG=@CAELT@
ZPX0503 031855@CAELT@GG SLZZYMYT@CAELT@031855 SLTRYGYZ@CAELT@SABO SLTR 031900@CAELT@METAR SLTR 031900Z 32008KT 9999 SCT017 32/24 Q1005 A2968 986.8@CAELT@HR61 NOSIG=@CAELT@
ZPX0505 031856@CAELT@GG SLZZYMYT@CAELT@031855 SLLPYGYZ@CAELT@SABO SLLP 031900@CAELT@METAR SLLP 031900Z 10008KT 9999 SCT017 FEW020CB BKN200 15/02 Q1033@CAELT@A3052 625.0 HR40 P3784 CB/SH SE/S/W/NW AC NOSIG=@CAELT@
ZPX0506 031856@CAELT@GG SLZZYMYT@CAELT@031856 SLCOYGYZ@CAELT@SABO SLCO 031900@CAELT@METAR SLCO 031900Z 28006KT 9999 SCT023 FEW025CB BKN200 32/25 Q1005@CAELT@A2969 978.3 HR68 CB/NE/E/SE AC=@CAELT@
ZPX0507 031857@CAELT@GG SLZZYMYT@CAELT@031856 SLTJYGYZ@CAELT@SABO SLTJ 031900@CAELT@METAR SLTJ 031900Z 13012KT 9999 VCTSSH SCT030 FEW036CB BKN200 25/16@CAELT@Q1012 A2989 808.4 HR55 CB SW/W/NW TS SH W AC=@CAELT@
ZPX0510 031858@CAELT@GG SLZZYMYT@CAELT@031858 SLTRYGYS@CAELT@SABO SLTR 031900@CAELT@METAR SLTR 031900Z 32008KT 9999 SCT017 32/24 Q1005 A2968 986.8@CAELT@HR61 NOSIG=@CAELT@METAR SLGM 031900Z 26004KT 9999 FEW017 BKN200 31/23 Q1007 A2974 HR65=@CAELT@METAR SLRI 031900Z 00000KT 8000 VCSH SCT015 FEW020CB BKN200 27/23@CAELT@Q1008 A2977 HR79 CB/SH N/NW=METAR SLJO 031900Z NIL=METAR SLRA 031900Z 09006KT 7000 TS VCSH SCT017 FEW023CB BKN200 27/25Q1007 A2975 HR94 CB/TS/SH E/SE RWY HUM OPR=METAR SLMG 031900Z 03006KT 8000 VCSH SCT017 FEW023CB OVC200 25/23Q1008 A2977 HR90 CB/SH N/NE/W RWY OPR C210=METAR SLBU 031900Z NIL=METAR SLSA 031900Z 34008KT 9999 BKN017 FEW023CB BKN200 33/24 Q1005A2969 HR62 CB/E=METAR SLSR 031900Z 34012KT 9999 SCT015 BKN200 33/24 Q1006 A2971 HR60RWY NML=METAR SLSM 031900Z 33010KT 9999 BKN017 32/25 Q1005 A2968 HR65RWY WET OPR C210=
ZPX0512 031859@CAELT@GG SLZZYMYT@CAELT@031858 SLETYMYC@CAELT@SABO SLET 031900@CAELT@METAR SLET 031900Z 33016G27KT 9999 BKN020 32/23 Q1004 A2967 HR57@CAELT@NOSIG=@CAELT@
ZPX0514 031900@CAELT@GG SLZZYMYT@CAELT@031900 SLVRYFYC@CAELT@SABO SLVR 031900@CAELT@METAR SLVR 031900Z 34016G27KT 9999 SCT020 32/23 Q1006 A2971 HR59 CI@CAELT@NOSIG=@CAELT@METAR SLCP 031900Z 34006KT 9999 BKN020 31/23 Q1010 A2983 HR61 RWY NML@CAELT@METAR SLSI 031900Z 36008KT 9999 SCT017 34/22 Q1006 A2971 HR48 RWY NML@CAELT@METAR SLRB 031900Z 36006KT 9999 SCT020 37/20 Q1007 A2974 HR39 RWY NMLMETAR SLCA 031900Z 00000KT 9999 FEW033 35/18 Q1006 A2971 HR38 RWY NML
ZPX0517 031900@CAELT@GG SLZZYMYT@CAELT@031900 SLCBYGYS@CAELT@SABO SLCB 031900@CAELT@METAR SLCB 031900Z 27006KT 9999 SCT036 FEW040CB BKN200 28/06 Q1016@CAELT@A3003 745.0 HR24 CB/SW/W/E AC NOSIG=@CAELT@METAR SLAL 031900Z 02010KT 9999 FEW023 FEW033CB 22/07 Q1022 A3019@CAELT@699.1 HR38 CB E/SE/S/W CI=@CAELT@METAR SLTJ 031900Z 13012KT 9999 VCTSSH SCT030 FEW036CB BKN200 25/16Q1012 A2989 808.4 HR55 CB SW/W/NW TS SH W AC=
ZPX0518 031902@CAELT@GG SLZZYMYT@CAELT@031901 SLLPYFYA@CAELT@SABO SLRY 031900@CAELT@METAR SLRY 031900Z 35006KT 9999 SCT020 SCT200 32/24 Q1003@CAELT@A2965 HR62 RWY HUM OPR=@CAELT@
ZPX0520 031903@CAELT@GG SLZZYMYT@CAELT@031901 SLLPYFYA@CAELT@SABO SLLP 031900@CAELT@METAR SLLP 031900Z 10008KT 9999 SCT017 FEW020CB BKN200 15/02 Q1033@CAELT@A3052 625.0 HR40 P3784 CB/SH SE/S/W/NW AC NOSIG=@CAELT@METAR SLCO 031900Z 28006KT 9999 SCT023 FEW025CB BKN200 32/25 Q1005@CAELT@A2969 978.3 HR68 CB/NE/E/SE AC=@CAELT@METAR SLRY 031900Z 35006KT 9999 SCT020 SCT200 32/24 Q1003A2965 HR62 RWY HUM OPR=METAR SLRQ 031900Z 34004KT 9999 BKN020 SCT200 33/27 Q1004A2966 HR69=METAR SLSB 031900Z 31010KT 9999 SCT020 33/24 Q1005 A2974HR66 RWY WET OPR C210=
