
ZPX0009 140056@CAELT@GG SLZZYMYT@CAELT@140057 SLVRYGYZ@CAELT@SABO SLVR 140100@CAELT@METAR SLVR 140100Z 32005KT 4000 FU NSC 29/24 Q1009 A2980 HR71 CI@CAELT@NOSIG=@CAELT@
ZPX0010 140056@CAELT@GG SLLPZRZX@CAELT@140056 SLLPYGYZ@CAELT@SABO SLLP 140100@CAELT@METAR SLLP 140100Z 09010KT 9999 FEW015 FEW017CB BKN200 07/02 Q1037@CAELT@A3064 627.8 HR68 CB/LT E/S/SW AC NOSIG=@CAELT@
ZPX0011 140057@CAELT@GG SLZZYMYT@CAELT@140057 SLCBYGYZ@CAELT@SABO SLCB 140100@CAELT@METAR SLCB 140100Z 16005KT 9999 FEW070 19/05 Q1023 A3023 750.3 HR39@CAELT@FU CI NOSIG=@CAELT@
ZPX0020 140155@CAELT@GG SLZZYMYT@CAELT@140156 SLVRYGYZ@CAELT@SABO SLVR 140200@CAELT@METAR SLVR 140200Z 31006KT 4000 FU NSC 29/24 Q1009 A2981 HR71 CI@CAELT@NOSIG=@CAELT@
ZPX0022 140156@CAELT@GG SLLPZRZX@CAELT@140156 SLLPYGYZ@CAELT@SABO SLLP 140200@CAELT@METAR SLLP 140200Z 17005KT 100V230 9999 FEW015 FEW017CB SCT070@CAELT@BKN200 07/02 Q1039 A3068 628.6 HR71 CB/LT SE/S NOSIG=@CAELT@
ZPX0024 140159@CAELT@GG SLZZYMYT@CAELT@140158 SLCBYGYZ@CAELT@SABO SLCB 140200@CAELT@METAR SLCB 140200Z 19005KT 9999 FEW036 SCT070 19/05 Q1025 A3027 751.5@CAELT@HR39 FU CI NOSIG=@CAELT@
ZPX0040 140254@CAELT@GG SLZZYMYT@CAELT@140255 SLVRYGYZ@CAELT@SABO SLVR 140300@CAELT@METAR SLVR 140300Z 32006KT 4000 FU NSC 27/23 Q1009 A2981 HR79 CI@CAELT@NOSIG=@CAELT@
ZPX0041 140256@CAELT@GG SLLPZRZX@CAELT@140256 SLLPYGYZ@CAELT@SABO SLLP 140300@CAELT@METAR SLLP 140300Z 09008KT 9999 FEW015 FEW017CB SCT070 BKN200 07/02@CAELT@Q1039 A3069 628.8 HR73 CB/LT SE/S NOSIG=@CAELT@
ZPX0042 140258@CAELT@GG SLZZYMYT@CAELT@140256 SLCBYGYZ@CAELT@SABO SLCB 140300@CAELT@METAR SLCB 140300Z 09004KT 9999 FEW033 BKN070 19/05 Q1025 A3028 751.7@CAELT@HR40 FU CI NOSIG=@CAELT@
ZPX0049 140355@CAELT@GG SLZZYMYT@CAELT@140356 SLVRYGYZ@CAELT@SABO SLVR 140400@CAELT@METAR SLVR 140400Z 32004KT 4000 FU NSC 26/23 Q1009 A2981 HR82 NOSIG=@CAELT@
ZPX0050 140355@CAELT@GG SLLPZRZX@CAELT@140356 SLLPYGYZ@CAELT@SABO SLLP 140400@CAELT@METAR SLLP 140400Z 10010KT 9999 FEW015 SCT070 BKN200 06/02 Q1039@CAELT@A3068 628.6 HR73 NOSIG=@CAELT@
ZPX0051 140358@CAELT@GG SLZZYMYT@CAELT@140357 SLCBYGYZ@CAELT@SABO SLCB 140400@CAELT@METAR SLCB 140400Z 11009KT 9999 SCT033 BKN070 BKN200 19/05 Q1025@CAELT@A3029 752.0 HR38 FU NOSIG=@CAELT@
ZPX0059 140453@CAELT@GG SLZZYMYT@CAELT@140454 SLVRYGYZ@CAELT@SABO SLVR 140500@CAELT@METAR SLVR 140500Z 30004KT 5000 FU NSC 25/22 Q1008 A2978 HR82 NOSIG=@CAELT@
ZPX0060 140456@CAELT@GG SLLPZRZX@CAELT@140456 SLLPYGYZ@CAELT@SABO SLLP 140500@CAELT@METAR SLLP 140500Z 11008KT 9999 FEW015 BKN200 05/02 Q1037 A3065@CAELT@627.9 HR81 AC NOSIG=@CAELT@
ZPX0061 140458@CAELT@GG SLZZYMYT@CAELT@140458 SLCBYGYZ@CAELT@SABO SLCB 140500@CAELT@METAR SLCB 140500Z 17012KT 9999 SCT033 BKN070 BKN200 18/06 Q1025@CAELT@A3029 751.9 HR46 FU NOSIG=@CAELT@
ZPX0068 140554@CAELT@GG SLZZYMYT@CAELT@140555 SLVRYGYZ@CAELT@SABO SLVR 140600@CAELT@METAR SLVR 140600Z 31006KT 5000 FU NSC 25/22 Q1008 A2977 HR82 NOSIG=@CAELT@
ZPX0069 140557@CAELT@GG SLLPZRZX@CAELT@140556 SLLPYGYZ@CAELT@SABO SLLP 140600@CAELT@METAR SLLP 140600Z 11005KT 080V140 9999 FEW014 SCT070 BKN200 05/02@CAELT@Q1037 A3063 627.5 HR86 NOSIG=@CAELT@
ZPX0070 140559@CAELT@GG SLZZYMYT@CAELT@140557 SLCBYGYZ@CAELT@SABO SLCB 140600@CAELT@METAR SLCB 140600Z 16010KT 9999 SCT033 BKN070 BKN200 17/06 Q1025@CAELT@A3028 751.6 HR48 FU NOSIG=@CAELT@
ZPX0077 140655@CAELT@GG SLLPZRZX@CAELT@140655 SLLPYGYZ@CAELT@SABO SLLP 140700@CAELT@METAR SLLP 140700Z 10006KT 9999 FEW013 SCT070 BKN200 05/03 Q1036@CAELT@A3061 627.0 HR86 NOSIG=@CAELT@
ZPX0078 140656@CAELT@GG SLZZYMYT@CAELT@140657 SLVRYGYZ@CAELT@SABO SLVR 140700@CAELT@METAR SLVR 140700Z 31005KT 3000 FU NSC 25/22 Q1008 A2977 HR84 NOSIG=@CAELT@
ZPX0079 140656@CAELT@GG SLZZYMYT@CAELT@140655 SLCBYGYZ@CAELT@SABO SLCB 140700@CAELT@METAR SLCB 140700Z 14010KT 9999 SCT033 BKN070 BKN200 17/06 Q1025@CAELT@A3027 751.5 HR46 FU NOSIG=@CAELT@
ZPX0086 140755@CAELT@GG SLZZYMYT@CAELT@140756 SLVRYGYZ@CAELT@SABO SLVR 140800@CAELT@METAR SLVR 140800Z 32006KT 3000 FU NSC 25/22 Q1007 A2976 HR83 NOSIG=@CAELT@
ZPX0087 140756@CAELT@GG SLLPZRZX@CAELT@140755 SLLPYGYZ@CAELT@SABO SLLP 140800@CAELT@METAR SLLP 140800Z 10005KT 9999 FEW013 SCT070 BKN200 05/02 Q1036@CAELT@A3060 626.8 HR84 NOSIG=@CAELT@
ZPX0088 140759@CAELT@GG SLZZYMYT@CAELT@140757 SLCBYGYZ@CAELT@SABO SLCB 140800@CAELT@METAR SLCB 140800Z 18009KT 9999 -RA SCT030 BKN070 OVC200 15/10 Q1025@CAELT@A3028 751.8 HR69 FU NOSIG=@CAELT@
ZPX0103 140855@CAELT@GG SLZZYMYT@CAELT@140856 SLVRYGYZ@CAELT@SABO SLVR 140900@CAELT@METAR SLVR 140900Z 32006KT 3000 FU NSC 24/22 Q1008 A2977 HR87 NOSIG=@CAELT@
ZPX0104 140856@CAELT@GG SLLPZRZX@CAELT@140855 SLLPYGYZ@CAELT@SABO SLLP 140900@CAELT@METAR SLLP 140900Z 12003KT 9999 FEW004 SCT070 BKN200 04/03 Q1036@CAELT@A3060 626.8 HR88 NOSIG=@CAELT@
ZPX0106 140858@CAELT@GG SLZZYMYT@CAELT@140856 SLCBYGYZ@CAELT@SABO SLCB 140900@CAELT@METAR SLCB 140900Z 19004KT 8000 -RA SCT027 OVC070 13/10 Q1026 A3031@CAELT@752.4 HR82 FU NOSIG=@CAELT@
ZPX0125 140950@CAELT@GG SLZZYMYT@CAELT@140950 SLCAYGYS@CAELT@SABO SLCA 141000@CAELT@METAR SLCA 141000Z 00000KT 8000 NSC 24/15 Q1011 A2985 HR58 FU CS RWY@CAELT@NML=@CAELT@
ZPX0127 140952@CAELT@GG SLZZYMYT@CAELT@140952 SLPSYGYS@CAELT@SABO SLPS 141000@CAELT@METAR SLPS 141000Z 09006KT 0600 FU NSC 27/23 Q1008 A2977 HR79 CI=@CAELT@
ZPX0129 140953@CAELT@GG SLZZYMYT@CAELT@140955 SLCOYGYZ@CAELT@SABO SLCO 141000@CAELT@METAR SLCO 141000Z 04005KT 1000 FU FEW080 24/22 Q1010 A2985 983.4@CAELT@HR89=@CAELT@
ZPX0130 140954@CAELT@GG SLZZYMYT@CAELT@140955 SLRQYSYX@CAELT@SABO SLRQ 141000@CAELT@METAR SLRQ 141000Z 00000KT 5000 FU SCT020 BKN070 BKN200 22/22 Q1008@CAELT@A2979 HR98=@CAELT@
ZPX0131 140955@CAELT@GG SLZZYMYT@CAELT@140955 SLRBYGYS@CAELT@SABO SLRB 141000@CAELT@METAR SLRB 141000Z 03015KT 3000 FU NSC 26/20 Q1011 A2985 HR70 RWY NML=@CAELT@
ZPX0132 140956@CAELT@GG SLZZYMYT@CAELT@140956 SLUYYGYS@CAELT@SABO SLUY 141000@CAELT@METAR SLUY 141000Z 00000KT 9999 FEW070 SCT200 01/M01 Q1033@CAELT@A3051 657.7 HR86=@CAELT@
ZPX0133 140956@CAELT@GG SLZZYMYT@CAELT@140955 SLLPYGYZ@CAELT@SABO SLLP 141000@CAELT@METAR SLLP 141000Z 31004KT 9999 FEW004 SCT012 BKN070 05/02 Q1037@CAELT@A3063 627.4 HR84 P92// HZ SW/W CI NOSIG=@CAELT@
ZPX0134 140956@CAELT@GG SLZZYMYT@CAELT@140957 SLVRYGYZ@CAELT@SABO SLVR 141000@CAELT@METAR SLVR 141000Z 33006KT 2500 FU NSC 24/22 Q1009 A2980 HR88 CI@CAELT@NOSIG=@CAELT@
ZPX0135 140957@CAELT@GG SLZZYMYT@CAELT@140956 SLSAYGYS@CAELT@SABO SLSA 141000@CAELT@METAR SLSA 141000Z 00000KT 5000 FU SCT080 BKN200 23/22 Q1008 A2979@CAELT@HR92=@CAELT@
ZPX0136 140957@CAELT@GG SLZZYMYT@CAELT@140956 SLSAYGYS@CAELT@SABO SLSA 141000@CAELT@METAR SLSA 141000Z 00000KT 5000 FU SCT080 BKN200 23/22 Q1008 A2979@CAELT@HR92=@CAELT@
ZPX0137 140957@CAELT@GG SLZZYMYT@CAELT@140956 SLCBYGYZ@CAELT@SABO SLCB 141000@CAELT@METAR SLCB 141000Z 35004KT 8000 -RA FEW013 SCT027 OVC070 12/11 Q1026@CAELT@A3032 752.7 HR94 FU NOSIG=@CAELT@
ZPX0138 140959@CAELT@GG SLZZYMYT@CAELT@140957 SLLPYFYA@CAELT@SABO SLRY 141000@CAELT@METAR SLRY 141000Z 00000KT 4000 FU BKN030 OVC080 23/22 Q1007@CAELT@A2973 HR97 RWY WET OPR C206=@CAELT@
ZPX0139 140959@CAELT@GG SLZZYMYT@CAELT@140958 SLSBYSYX@CAELT@SABO SLSB 141000@CAELT@METAR SLSB 141000Z 00000KT 5000 FU BKN080 23/22 Q1008 A2979 HR95 RWY@CAELT@NML=@CAELT@
ZPX0140 140959@CAELT@GG SLZZYMYT@CAELT@140958 SLCBYGYS@CAELT@SABO SLCB 141000@CAELT@METAR SLCB 141000Z 35004KT 8000 -RA FEW013 SCT027 OVC070 12/11 Q1026@CAELT@A3032 752.7 HR94 FU NOSIG=@CAELT@METAR SLAL 141000Z 00000KT 9999 NSC 08/07 Q1028 A3038 703.2 HR95 CI=@CAELT@
ZPX0142 141000@CAELT@GG SLZZYMYT@CAELT@141000 SLVRYGYS@CAELT@SABO SLVR 141000@CAELT@METAR SLVR 141000Z 33006KT 2500 FU NSC 24/22 Q1009 A2980 HR88 CI@CAELT@NOSIG=@CAELT@METAR SLET 141000Z NIL=@CAELT@METAR SLCP 141000Z 00000KT 0500 FU FEW070 23/20 Q1013 A2991 HR84 RWY@CAELT@NML=METAR SLSI 141000Z 00000KT 1000 FU SCT070 25/21 Q1010 A2983 HR78 RWYMETAR SLRB 141000Z 03015KT 3000 FU NSC 26/20 Q1011 A2985 HR70 RWY NMLMETAR SLPS 141000Z 09006KT 0600 FU NSC 27/23 Q1008 A2977 HR79 CI=METAR SLCA 141000Z 00000KT 8000 NSC 24/15 Q1011 A2985 HR58 FU CS RWY
ZPX0143 141001@CAELT@GG SLZZYMYT@CAELT@141000 SLTRYGYZ@CAELT@SABO SLTR 141000@CAELT@METAR SLTR 141000Z 00000KT 5000 FU NSC 23/22 Q1009 A2981 991.0 HR90@CAELT@AC/CI NOSIG=@CAELT@
ZPX0144 141002@CAELT@GG SLZZYMYT@CAELT@141001 SLLPYFYA@CAELT@SABO SLLP 141000@CAELT@METAR SLLP 141000Z 31004KT 9999 FEW004 SCT012 BKN070 05/02 Q1037@CAELT@A3063 627.4 HR84 P92// HZ SW/W CI NOSIG=@CAELT@METAR SLCO 141000Z 04005KT 1000 FU FEW080 24/22 Q1010 A2985 983.4@CAELT@HR89=@CAELT@METAR SLRY 141000Z 00000KT 4000 FU BKN030 OVC080 23/22 Q1007A2973 HR97 RWY WET OPR C206=METAR SLRQ 141000Z 00000KT 5000 FU SCT020 BKN070 BKN200 22/22 Q1008A2979 HR98=METAR SLAP 141000Z 00000KT 3000 FU FEW020 BKN070 17/15 Q1018 A3007859.0 HR89=METAR SLSB 141000Z 00000KT 5000 FU BKN080 23/22 Q1008 A2979 HR95 RWYNML=METAR SLUY 141000Z 00000KT 9999 FEW070 SCT200 01/M01 Q1033A3051 657.7 HR86=
ZPX0146 141003@CAELT@GG SLZZYMYT@CAELT@141000 SLTRYGYS@CAELT@SABO SLTR 141000@CAELT@METAR SLTR 141000Z 00000KT 5000 FU NSC 23/22 Q1009 A2981 991.0 HR90@CAELT@AC/CI NOSIG=@CAELT@METAR SLGM 141000Z 00000KT 4000 FU FEW020 SCT080 BKN200 23/23 Q1010@CAELT@A2983 HR98=@CAELT@METAR SLRI 141000Z 00000KT 3000 FU BKN070 22/22 Q1010 A2984 HR97=METAR SLJO 141000Z NIL=METAR SLRA 141000Z NIL=METAR SLMG 141000Z NIL=METAR SLBU 141000Z NIL=METAR SLSA 141000Z 00000KT 5000 FU SCT080 BKN200 23/22 Q1008 A2979HR92=METAR SLSR 141000Z NIL=METAR SLSM 141000Z 00000KT 5000 FU SCT080 23/22 Q1008 A2979 HR92RWY NML=
ZPX0148 141010@CAELT@GG SLZZYMYT@CAELT@141010 SLVRYGYS@CAELT@SABO SLVR 141000 RRA@CAELT@METAR SLVR 141000Z 33006KT 2500 FU NSC 24/22 Q1009 A2980 HR88 CI@CAELT@NOSIG=@CAELT@METAR RTD SLET 141000Z 31010KT 3000 FU NSC 25/22 Q1008 A2979 HR83 CI@CAELT@METAR SLCP 141000Z 00000KT 0500 FU FEW070 23/20 Q1013 A2991 HR84 RWY@CAELT@NML=METAR SLSI 141000Z 00000KT 1000 FU SCT070 25/21 Q1010 A2983 HR78 RWYMETAR SLRB 141000Z 03015KT 3000 FU NSC 26/20 Q1011 A2985 HR70 RWY NMLMETAR SLPS 141000Z 09006KT 0600 FU NSC 27/23 Q1008 A2977 HR79 CI=METAR SLCA 141000Z 00000KT 8000 NSC 24/15 Q1011 A2985 HR58 FU CS RWY
ZPX0149 141011@CAELT@GG SLZZYMYT@CAELT@141009 SLETYMYC@CAELT@SABO SLET 141000@CAELT@METAR SLET 141000Z 31010KT 3000 FU NSC 25/22 Q1008 A2979 HR83 CI@CAELT@NOSIG=@CAELT@
ZPX0161 141052@CAELT@GG SLZZYMYT@CAELT@141052 SLRBYGYS@CAELT@SABO SLRB 141100@CAELT@METAR SLRB 141100Z 36012KT 4000 FU NSC 28/21 Q1012 A2988 HR65 RWY NML=@CAELT@
ZPX0162 141052@CAELT@GG SLZZYMYT@CAELT@141052 SLPSYGYS@CAELT@SABO SLPS 141100@CAELT@METAR SLPS 141100Z 09008KT 0600 FU SCT070 BKN200 28/23 Q1009 A2980@CAELT@HR77=@CAELT@
ZPX0163 141054@CAELT@GG SLZZYMYT@CAELT@141055 SLSBYSYX@CAELT@SABO SLSB 141100@CAELT@METAR SLSB 141100Z 00000KT 4000 FU BKN080 23/22 Q1009 A2982 HR93 RWY@CAELT@NML=@CAELT@
ZPX0165 141055@CAELT@GG SLZZYMYT@CAELT@141054 SLLPYFYA@CAELT@SABO SLRY 141100@CAELT@METAR SLRY 141100Z 00000KT 6000 FU SCT030 OVC080 23/22 Q1007@CAELT@A2973 HR97 RWY WET OPR C206=@CAELT@
ZPX0166 141055@CAELT@GG SLZZYMYT@CAELT@141055 SLCAYGYS@CAELT@SABO SLCA 141100@CAELT@METAR SLCA 141100Z 00000KT 8000 FEW070 SCT200 24/16 Q1012 A2988 HR61@CAELT@FU RWY NML=@CAELT@
ZPX0167 141055@CAELT@GG SLZZYMYT@CAELT@141054 SLCOYGYZ@CAELT@SABO SLCO 141100@CAELT@METAR SLCO 141100Z 03003KT 1000 FU FEW080 24/23 Q1011 A2987 984.0@CAELT@HR89 CI=@CAELT@
ZPX0168 141056@CAELT@GG SLZZYMYT@CAELT@141055 SLORYGYZ@CAELT@SABO SLOR 141100@CAELT@METAR SLOR 141100Z 35005KT 5000 BR SCT070 BKN200 07/04 Q1034 A3054@CAELT@656.4 HR81 VIS RED E/SE/S RESTO 9999=@CAELT@
ZPX0169 141056@CAELT@GG SLZZYMYT@CAELT@141056 SLVRYGYZ@CAELT@SABO SLVR 141100@CAELT@METAR SLVR 141100Z 33008KT 2000 FU NSC 25/22 Q1009 A2982 HR86 CI@CAELT@NOSIG=@CAELT@
ZPX0170 141056@CAELT@GG SLZZYMYT@CAELT@141049 SLUYYGYS@CAELT@SABO SLUY 141100@CAELT@METAR SLUY 141100Z 01003KT 9999 FEW070 SCT200 02/00 Q1033@CAELT@A3053 658.2 HR87 FU=@CAELT@
ZPX0172 141056@CAELT@GG SLZZYMYT@CAELT@141056 SLCBYGYZ@CAELT@SABO SLCB 141100@CAELT@METAR SLCB 141100Z 20003KT 8000 VCSH FEW012 SCT027 BKN070 13/12 Q1027@CAELT@A3033 753.1 HR94 SH N/E/SE/W/NW FU CI NOSIG=@CAELT@
ZPX0173 141056@CAELT@GG SLZZYMYT@CAELT@141056 SLSAYGYS@CAELT@SABO SLSA 141100@CAELT@METAR SLSA 141100Z 36004KT 5000 FU SCT080 BKN200 24/22 Q1009 A2982@CAELT@HR92=@CAELT@
ZPX0174 141056@CAELT@GG SLZZYMYT@CAELT@141056 SLSAYGYS@CAELT@SABO SLSA 141100@CAELT@METAR SLSA 141100Z 36004KT 5000 FU SCT080 BKN200 24/22 Q1009 A2982@CAELT@HR92=@CAELT@
ZPX0175 141056@CAELT@GG SLZZYMYT@CAELT@141055 SLRQYSYX@CAELT@SABO SLRQ 141100@CAELT@METAR SLRQ 141100Z 00000KT 5000 FU FEW020 BKN070 BKN200 23/23 Q1009@CAELT@A2981 HR99=@CAELT@
ZPX0176 141056@CAELT@GG SLZZYMYT@CAELT@141056 SLETYMYC@CAELT@SABO SLET 141100@CAELT@METAR SLET 141100Z 31009KT 3000 FU NSC 25/21 Q1009 A2981 HR82 CI@CAELT@NOSIG=@CAELT@
ZPX0177 141057@CAELT@GG SLZZYMYT@CAELT@141056 SLLPYGYZ@CAELT@SABO SLLP 141100@CAELT@METAR SLLP 141100Z VRB02KT 9999 FEW004 SCT012 BKN070 05/01 Q1037@CAELT@A3065 627.9 HR77 P4153 HZ S/SW/W/NW FU CI NOSIG=@CAELT@
ZPX0178 141057@CAELT@GG SLZZYMYT@CAELT@141057 SLTRYGYZ@CAELT@SABO SLTR 141100@CAELT@METAR SLTR 141100Z 00000KT 5000 FU NSC 24/22 Q1010 A2983 991.6 HR93@CAELT@AC/CI NOSIG=@CAELT@
ZPX0179 141057@CAELT@GG SLZZYMYT@CAELT@141057 SLVRYGYS@CAELT@SABO SLVR 141100@CAELT@METAR SLVR 141100Z 33008KT 2000 FU NSC 25/22 Q1009 A2982 HR86 CI@CAELT@NOSIG=@CAELT@METAR SLET 141100Z 31009KT 3000 FU NSC 25/21 Q1009 A2981 HR82 CI@CAELT@METAR SLAS 141100Z 00000KT 0200 FU NSC 25/22 Q1012 A2989 HR84 RWY NML@CAELT@METAR SLJV 141100Z 36005KT 0100 FU NSC 23/20 Q1010 A2983 HR84 RWY NMLMETAR SLCP 141100Z 00000KT 0500 FU NSC 23/20 Q1014 A2994 HR84 RWY NMLMETAR SLSI 141100Z 00000KT 1000 FU SCT070 26/20 Q1011 A2985 HR71 RWYNML=METAR SLTI 141100Z 00000KT 7000 BKN020 FEW030CB BKN070 26/22 Q1015A2997 HR78 CB NW FU RWY NML=METAR SLJE 141100Z 00000KT 1500 FU NSC 26/21 Q1013 A2991 HR76 RWY NMLMETAR SLRB 141100Z 36012KT 4000 FU NSC 28/21 Q1012 A2988 HR65 RWY NMLMETAR SLPS 141100Z 09008KT 0600 FU SCT070 BKN200 28/23 Q1009 A2980HR77=METAR SLCA 141100Z 00000KT 8000 FEW070 SCT200 24/16 Q1012 A2988 HR61FU RWY NML=
ZPX0182 141100@CAELT@GG SLZZYMYT@CAELT@141059 SLTRYGYS@CAELT@SABO SLTR 141100@CAELT@METAR SLTR 141100Z 00000KT 5000 FU NSC 24/22 Q1010 A2983 991.6 HR93@CAELT@AC/CI NOSIG=@CAELT@METAR SLGM 141100Z 00000KT 4000 FU SCT020 BKN080 23/23 Q1011 A2985@CAELT@HR97=@CAELT@METAR SLRI 141100Z 00000KT 3000 FU FEW015 BKN070 BKN200 23/22 Q1011A2987 HR95=METAR SLJO 141100Z 00000KT 3000 FU SCT080 BKN200 24/21 Q1010 A2983HR83 RWY NML=METAR SLRA 141100Z 09003KT 3000 FU NSC 24/22 Q1009 A2982 HR87 AC CIRWY NML=METAR SLMG 141100Z 00000KT 1000 FU BKN080 25/22 Q1010 A2982 HR83METAR SLBU 141100Z NIL=METAR SLSA 141100Z 36004KT 5000 FU SCT080 BKN200 24/22 Q1009 A2982HR92=METAR SLSR 141100Z 00000KT 5000 FU SCT020 OVC070 24/23 Q1007 A2976HR95 RWY WET OPR C206=METAR SLSM 141100Z 00000KT 5000 FU SCT080 23/22 Q1009 A2981 HR92
ZPX0186 141101@CAELT@GG SLZZYMYT@CAELT@141100 SLCBYGYS@CAELT@SABO SLCB 141100@CAELT@METAR SLCB 141100Z 20003KT 8000 VCSH FEW012 SCT027 BKN070 13/12@CAELT@Q1027 A3033 753.1 HR94 SH N/E/SE/W/NW FU CI NOSIG=@CAELT@METAR SLAL 141100Z 00000KT 9999 FEW002 SCT200 10/08 Q1029 A3040@CAELT@703.9 HR93 ST BAJOS/E/SE=@CAELT@METAR SLVM 141100Z 00000KT 5000 FU NSC 23/16 Q1007 A2975 HR66 CI=METAR SLYA 141100Z 00000KT 5000 FU NSC 22/17 Q1008 A2977 933.2 HR76
ZPX0189 141104@CAELT@GG SLZZYMYT@CAELT@141100 SLLPYFYA@CAELT@SABO SLLP 141100@CAELT@METAR SLLP 141100Z VRB02KT 9999 FEW004 SCT012 BKN070 05/01 Q1037@CAELT@A3065 627.9 HR77 P4153 HZ S/SW/W/NW FU CI NOSIG=@CAELT@METAR SLCO 141100Z 03003KT 1000 FU FEW080 24/23 Q1011 A2987 984.0@CAELT@HR89 CI=@CAELT@METAR SLRY 141100Z 00000KT 6000 FU SCT030 OVC080 23/22 Q1007A2973 HR97 RWY WET OPR C206=METAR SLRQ 141100Z 00000KT 5000 FU FEW020 BKN070 BKN200 23/23 Q1009A2981 HR99=METAR SLAP 141100Z NIL=METAR SLSB 141100Z 00000KT 4000 FU BKN080 23/22 Q1009 A2982 HR93 RWYNML=METAR SLOR 141100Z 35005KT 5000 BR SCT070 BKN200 07/04 Q1034 A3054656.4 HR81 VIS RED E/SE/S RESTO 9999=METAR SLUY 141100Z 01003KT 9999 FEW070 SCT200 02/00 Q1033A3053 658.2 HR87 FU=
ZPX0221 141151@CAELT@GG SLZZYMYT@CAELT@141150 SLETYMYC@CAELT@SABO SLET 141200@CAELT@METAR SLET 141200Z 31011KT 3000 FU NSC 29/23 Q1010 A2983 HR71 CI@CAELT@NOSIG=@CAELT@
ZPX0222 141152@CAELT@GG SLZZYMYT@CAELT@141152 SLPSYGYS@CAELT@SABO SLPS 141200@CAELT@METAR SLPS 141200Z 09008KT 0800 FU SCT070 29/24 Q1009 A2980 HR72=@CAELT@
ZPX0224 141153@CAELT@GG SLZZYMYT@CAELT@141154 SLVRYGYZ@CAELT@SABO SLVR 141200@CAELT@METAR SLVR 141200Z 33008KT 2500 FU NSC 27/23 Q1010 A2984 HR77 CI@CAELT@NOSIG=@CAELT@
ZPX0225 141154@CAELT@GG SLZZYMYT@CAELT@141155 SLSBYSYX@CAELT@SABO SLSB 141200@CAELT@METAR SLSB 141200Z 30003KT 4000 FU BKN080 25/22 Q1010 A2985 HR85 RWY@CAELT@NML=@CAELT@
ZPX0226 141155@CAELT@GG SLZZYMYT@CAELT@141155 SLSAYGYS@CAELT@SABO SLSA 141200@CAELT@METAR SLSA 141200Z 36008KT 5000 FU BKN080 25/23 Q1010 A2985 HR88=@CAELT@
ZPX0227 141155@CAELT@GG SLZZYMYT@CAELT@141155 SLSAYGYS@CAELT@SABO SLSA 141200@CAELT@METAR SLSA 141200Z 36008KT 5000 FU BKN080 25/23 Q1010 A2985 HR88=@CAELT@
ZPX0228 141155@CAELT@GG SLZZYMYT@CAELT@141155 SLRQYSYX@CAELT@SABO SLRQ 141200@CAELT@METAR SLRQ 141200Z 00000KT 5000 FU FEW020 BKN070 24/23 Q1010 A2985@CAELT@HR95 CI=@CAELT@
ZPX0229 141155@CAELT@GG SLZZYMYT@CAELT@141155 SLORYGYZ@CAELT@SABO SLOR 141200@CAELT@METAR SLOR 141200Z 36008KT 9999 FEW015 SCT200 09/05 Q1035 A3059 656.5@CAELT@HR73 AC=@CAELT@
ZPX0230 141156@CAELT@GG SLZZYMYT@CAELT@141156 SLRBYGYS@CAELT@SABO SLRB 141200@CAELT@METAR SLRB 141200Z 36015KT 5000 FU NSC 31/21 Q1012 A2988 HR56 RWY NML=@CAELT@
ZPX0231 141156@CAELT@GG SLZZYMYT@CAELT@141147 SLUYYGYS@CAELT@SABO SLUY 141200@CAELT@METAR SLUY 141200Z 01010KT 9999 FEW070 SCT200 08/02 Q1034 A3054@CAELT@658.5 HR67 FU=@CAELT@
ZPX0232 141156@CAELT@GG SLZZYMYT@CAELT@141155 SLCOYGYZ@CAELT@SABO SLCO 141200@CAELT@METAR SLCO 141200Z 36006KT 2000 FU SCT080 26/23 Q1012 A2989 984.6@CAELT@HR85 CI=@CAELT@
ZPX0233 141156@CAELT@GG SLZZYMYT@CAELT@141155 SLAGYSYX@CAELT@SABO SLAG 141200@CAELT@METAR SLAG 141200Z 00000KT 5000 FU FEW070 BKN200 23/15 Q1013 A2994@CAELT@886.2 HR60=@CAELT@
ZPX0234 141156@CAELT@GG SLZZYMYT@CAELT@141157 SLLPYGYZ@CAELT@SABO SLLP 141200@CAELT@METAR SLLP 141200Z 31005KT 9999 FEW004 SCT012 BKN070 06/03 Q1038@CAELT@A3068 628.5 HR79 P4352 HZ S/SW/W/NW FU CI NOSIG=@CAELT@
ZPX0235 141156@CAELT@GG SLZZYMYT@CAELT@141156 SLVRYGYS@CAELT@SABO SLVR 141200@CAELT@METAR SLVR 141200Z 33008KT 2500 FU NSC 27/23 Q1010 A2984 HR77 CI@CAELT@NOSIG=@CAELT@METAR SLET 141200Z 31011KT 3000 FU NSC 29/23 Q1010 A2983 HR71 CI@CAELT@METAR SLAS 141200Z 36003KT 0200 FU NSC 28/22 Q1013 A2991 HR72 RWY NML@CAELT@METAR SLJV 141200Z 36006KT 0100 FU NSC 25/20 Q1011 A2985 HR74 RWY NMLMETAR SLCP 141200Z 00000KT 0500 FU NSC 26/21 Q1014 A2994 HR74 RWY NMLMETAR SLSI 141200Z 33005KT 0500 FU BKN070 27/21 Q1013 A2991 HR68 RWYNML=METAR SLTI 141200Z 00000KT 8000 BKN020 FEW030CB BKN070 26/21 Q1015A2997 HR76 CB S/SW FU RWY NML=METAR SLJE 141200Z 00000KT 1500 FU NSC 29/21 Q1014 A2994 HR64 RWY NMLMETAR SLVG 141200Z 00000KT 9999 SCT070 BKN200 18/11 Q1023 A3021 HR61FU RWY NML=METAR SLRB 141200Z 36015KT 5000 FU NSC 31/21 Q1012 A2988 HR56 RWY NMLMETAR SLPS 141200Z 09008KT 0800 FU SCT070 29/24 Q1009 A2980 HR72=METAR SLCA 141200Z 00000KT 8000 NSC 25/15 Q1012 A2988 HR53 FU CS RWY
ZPX0236 141156@CAELT@GG SLZZYMYT@CAELT@141156 SLTJYGYZ@CAELT@SABO SLTJ 141200@CAELT@METAR SLTJ 141200Z 00000KT 9999 NSC 18/11 Q1017 A3006 813.1 HR63 FU@CAELT@
ZPX0239 141157@CAELT@GG SLZZYMYT@CAELT@141157 SLCAYGYS@CAELT@SABO SLCA 141200@CAELT@METAR SLCA 141200Z 00000KT 8000 NSC 25/15 Q1012 A2988 HR53 FU CS RWY@CAELT@NML=@CAELT@
ZPX0240 141158@CAELT@GG SLZZYMYT@CAELT@141158 SLTRYGYZ@CAELT@SABO SLTR 141200@CAELT@METAR SLTR 141200Z 00000KT 5000 FU NSC 26/23 Q1011 A2986 992.7 HR82@CAELT@AC/CI NOSIG=@CAELT@
ZPX0242 141158@CAELT@GG SLZZYMYT@CAELT@141158 SLCBYGYZ@CAELT@SABO SLCB 141200@CAELT@METAR SLCB 141200Z 29005KT 9000 SCT017 BKN080 14/13 Q1027 A3035 753.6@CAELT@HR93 SH/NE/E FU CI NOSIG=@CAELT@
ZPX0245 141159@CAELT@GG SLZZYMYT@CAELT@141159 SLCBYGYS@CAELT@SABO SLCB 141200@CAELT@METAR SLCB 141200Z 29005KT 9000 SCT017 BKN080 14/13 Q1027 A3035@CAELT@753.6 HR93 SH/NE/E FU CI NOSIG=@CAELT@METAR SLAL 141200Z 35006KT 9999 FEW002 10/09 Q1030 A3042 704.4@CAELT@HR91 ST BAJOS/E/SE/S CI=@CAELT@METAR SLPO 141200Z NIL=METAR SLAG 141200Z 00000KT 5000 FU FEW070 BKN200 23/15 Q1013 A2994886.2 HR60=METAR SLVM 141200Z 00000KT 5000 FU NSC 28/17 Q1008 A2977 HR52 CI=METAR SLTJ 141200Z 00000KT 9999 NSC 18/11 Q1017 A3006 813.1 HR63 FUMETAR SLYA 141200Z 21005KT 6000 NSC 27/16 Q1008 A2978 933.6 HR51 FUMETAR SLBJ 141200Z NIL=METAR SLHI 141200Z NIL=
ZPX0249 141201@CAELT@GG SLZZYMYT@CAELT@141201 SLLPYFYA@CAELT@SABO SLLP 141200@CAELT@METAR SLLP 141200Z 31005KT 9999 FEW004 SCT012 BKN070 06/03 Q1038@CAELT@A3068 628.5 HR79 P4352 HZ S/SW/W/NW FU CI NOSIG=@CAELT@METAR SLCO 141200Z 36006KT 2000 FU SCT080 26/23 Q1012 A2989 984.6@CAELT@HR85 CI=@CAELT@METAR SLRY 141200Z 00000KT 6000 BKN033 OVC080 24/23 Q1007 A2978HR97 FU RWY WET OPR C206=METAR SLRQ 141200Z 00000KT 5000 FU FEW020 BKN070 24/23 Q1010 A2985HR95 CI=METAR SLAP 141200Z NIL=METAR SLSB 141200Z 30003KT 4000 FU BKN080 25/22 Q1010 A2985 HR85RWY NML=METAR SLOR 141200Z 36008KT 9999 FEW015 SCT200 09/05 Q1035 A3059656.5 HR73 AC=METAR SLUY 141200Z 01010KT 9999 FEW070 SCT200 08/02 Q1034 A3054658.5 HR67 FU=
ZPX0250 141202@CAELT@GG SLZZYMYT@CAELT@141159 SLTRYGYS@CAELT@SABO SLTR 141200@CAELT@METAR SLTR 141200Z 00000KT 5000 FU NSC 26/23 Q1011 A2986 992.7 HR82@CAELT@AC/CI NOSIG=@CAELT@METAR SLGM 141200Z 00000KT 4000 FU SCT017 FEW020CB BKN080 24/23 Q1012@CAELT@A2988 HR93 CB E/SE=@CAELT@METAR SLRI 141200Z 18005KT 5000 FU FEW020 BKN200 24/22 Q1012 A2990HR89 AC=METAR SLJO 141200Z 00000KT 3000 FU BKN080 26/21 Q1011 A2986 HR76 CIRWY NML=METAR SLRA 141200Z 06003KT 3000 FU NSC 26/22 Q1011 A2986 HR83 AC CIMETAR SLMG 141200Z 32003KT 1000 FU BKN080 26/23 Q1010 A2985 HR81METAR SLBU 141200Z 00000KT 5000 FU NSC 25/23 Q1011 A2987 HR85 CIMETAR SLSA 141200Z 36008KT 5000 FU BKN080 25/23 Q1010 A2985 HR88=METAR SLSR 141200Z 32008KT 5000 FU SCT020 OVC070 24/22 Q1009 A2980HR90 RWY WET OPR C206=METAR SLSM 141200Z 00000KT 5000 FU BKN080 24/23 Q1010 A2984 HR93
ZPX0279 141251@CAELT@GG SLZZYMYT@CAELT@141252 SLPSYGYS@CAELT@SABO SLPS 141300@CAELT@METAR SLPS 141300Z 09004KT 1000 FU NSC 33/25 Q1010 A2983 HR66=@CAELT@
ZPX0280 141254@CAELT@GG SLZZYMYT@CAELT@141254 SLCBYGYZ@CAELT@SABO SLCB 141300@CAELT@METAR SLCB 141300Z 20003KT 9999 FEW020 SCT080 17/12 Q1027 A3035 753.5@CAELT@HR74 FU CI NOSIG=@CAELT@
ZPX0282 141254@CAELT@GG SLZZYMYT@CAELT@141255 SLCOYGYZ@CAELT@SABO SLCO 141300@CAELT@METAR SLCO 141300Z 35006KT 5000 FU FEW080 27/23 Q1012 A2990 985.2@CAELT@HR76 CI=@CAELT@
ZPX0283 141255@CAELT@GG SLZZYMYT@CAELT@141255 SLSBYSYX@CAELT@SABO SLSB 141300@CAELT@METAR SLSB 141300Z 29004KT 5000 FU OVC080 26/22 Q1011 A2986 HR80 RWY@CAELT@NML=@CAELT@
ZPX0284 141255@CAELT@GG SLZZYMYT@CAELT@141255 SLETYMYC@CAELT@SABO SLET 141300@CAELT@METAR SLET 141300Z 32012KT 3000 FU NSC 30/22 Q1010 A2984 HR62 CI@CAELT@NOSIG=@CAELT@
ZPX0285 141255@CAELT@GG SLZZYMYT@CAELT@141255 SLRQYSYX@CAELT@SABO SLRQ 141300@CAELT@METAR SLRQ 141300Z 00000KT 5000 FU FEW020 BKN070 26/24 Q1011 A2985@CAELT@HR88=@CAELT@
ZPX0286 141255@CAELT@GG SLZZYMYT@CAELT@141255 SLTJYGYZ@CAELT@SABO SLTJ 141300@CAELT@METAR SLTJ 141300Z 00000KT 9999 NSC 22/11 Q1017 A3004 812.7 HR49 FU@CAELT@
ZPX0287 141256@CAELT@GG SLZZYMYT@CAELT@141255 SLAGYSYX@CAELT@SABO SLAG 141300@CAELT@METAR SLAG 141300Z 00000KT 5000 FU FEW070 BKN200 28/15 Q1013 A2992@CAELT@885.8 HR46=@CAELT@
ZPX0288 141256@CAELT@GG SLZZYMYT@CAELT@141256 SLTRYGYZ@CAELT@SABO SLTR 141300@CAELT@METAR SLTR 141300Z 00000KT 5000 FU NSC 29/23 Q1011 A2987 993.0 HR70@CAELT@AC/CI NOSIG=@CAELT@
ZPX0289 141256@CAELT@GG SLZZYMYT@CAELT@141256 SLSAYGYS@CAELT@SABO SLSA 141300@CAELT@METAR SLSA 141300Z 36006KT 5000 FU BKN080 26/24 Q1011 A2987 HR85=@CAELT@
ZPX0290 141256@CAELT@GG SLZZYMYT@CAELT@141256 SLSAYGYS@CAELT@SABO SLSA 141300@CAELT@METAR SLSA 141300Z 36006KT 5000 FU BKN080 26/24 Q1011 A2987 HR85=@CAELT@
ZPX0291 141257@CAELT@GG SLZZYMYT@CAELT@141256 SLCAYGYS@CAELT@SABO SLCA 141300@CAELT@METAR SLCA 141300Z 00000KT 8000 NSC 29/15 Q1012 A2988 HR43 FU CS RWY@CAELT@NML=@CAELT@
ZPX0292 141257@CAELT@GG SLZZYMYT@CAELT@141257 SLLPYGYZ@CAELT@SABO SLLP 141300@CAELT@METAR SLLP 141300Z 30003KT 9999 SCT015 SCT070 08/01 Q1039@CAELT@A3069 628.8 HR64 P93// FU CI NOSIG=@CAELT@
ZPX0293 141257@CAELT@GG SLZZYMYT@CAELT@141250 SLUYYGYS@CAELT@SABO SLUY 141300@CAELT@METAR SLUY 141300Z 33010KT 9999 FEW070 SCT200 11/M01 Q1034@CAELT@A3056 658.8 HR45 FU=@CAELT@
ZPX0294 141257@CAELT@GG SLZZYMYT@CAELT@141258 SLVRYGYZ@CAELT@SABO SLVR 141300@CAELT@METAR SLVR 141300Z 33014KT 3500 FU NSC 31/24 Q1010 A2985 HR67 CI@CAELT@NOSIG=@CAELT@
ZPX0295 141257@CAELT@GG SLZZYMYT@CAELT@141257 SLRBYGYS@CAELT@SABO SLRB 141300@CAELT@METAR SLRB 141300Z 36015KT 5000 FU NSC 34/21 Q1013 A2991 HR47 RWY NML=@CAELT@
ZPX0296 141258@CAELT@GG SLZZYMYT@CAELT@141258 SLORYGYZ@CAELT@SABO SLOR 141300@CAELT@METAR SLOR 141300Z 01006KT 9999 FEW017 11/05 Q1035 A3059 656.5 HR66@CAELT@AC/CI=@CAELT@
ZPX0297 141258@CAELT@GG SLZZYMYT@CAELT@141258 SLCBYGYS@CAELT@SABO SLCB 141300@CAELT@METAR SLCB 141300Z 20003KT 9999 FEW020 SCT080 17/12 Q1027 A3035@CAELT@753.5 HR74 FU CI NOSIG=@CAELT@METAR SLAL 141300Z 35008KT 9999 FEW010 12/07 Q1030 A3043 704.6 HR70@CAELT@METAR SLPO 141300Z NIL=@CAELT@METAR SLAG 141300Z 00000KT 5000 FU FEW070 BKN200 28/15 Q1013 A2992885.8 HR46=METAR SLVM 141300Z 00000KT 4000 FU NSC 32/19 Q1007 A2975 HR47 CI=METAR SLTJ 141300Z 00000KT 9999 NSC 22/11 Q1017 A3004 812.7 HR49 FUMETAR SLYA 141300Z 00000KT 6000 NSC 31/17 Q1008 A2978 933.6 HR42 FUMETAR SLBJ 141300Z NIL=METAR SLHI 141300Z NIL=
ZPX0298 141259@CAELT@GG SLZZYMYT@CAELT@141258 SLVRYGYS@CAELT@SABO SLVR 141300@CAELT@METAR SLVR 141300Z 33014KT 3500 FU NSC 31/24 Q1010 A2985 HR67 CI@CAELT@NOSIG=@CAELT@METAR SLET 141300Z 32012KT 3000 FU NSC 30/22 Q1010 A2984 HR62 CI@CAELT@METAR SLAS 141300Z 34006KT 0200 FU BKN070 29/22 Q1013 A2991 HR67@CAELT@RWY NML=METAR SLJV 141300Z 36008KT 2000 FU NSC 27/20 Q1011 A2985 HR70 RWY NMLMETAR SLCP 141300Z 34004KT 0500 FU NSC 29/21 Q1015 A2997 HR69 RWY NMLMETAR SLSI 141300Z 36006KT 0500 FU SCT070 29/20 Q1013 A2991 HR58METAR SLTI 141300Z 00000KT 8000 BKN020 BKN070 27/21 Q1016 A3000HR70 FU RWY NML=METAR SLJE 141300Z 32006KT 2000 FU NSC 32/22 Q1014 A2994 HR55 RWY NMLMETAR SLVG 141300Z 36010KT 9999 SCT070 BKN200 22/10 Q1024 A3024HR44 FU RWY NML=METAR SLRB 141300Z 36015KT 5000 FU NSC 34/21 Q1013 A2991 HR47 RWY NMLMETAR SLPS 141300Z 09004KT 1000 FU NSC 33/25 Q1010 A2983 HR66=METAR SLCA 141300Z 00000KT 8000 NSC 29/15 Q1012 A2988 HR43 FUCS RWY NML=
ZPX0300 141300@CAELT@GG SLZZYMYT@CAELT@141259 SLTRYGYS@CAELT@SABO SLTR 141300@CAELT@METAR SLTR 141300Z 00000KT 5000 FU NSC 29/23 Q1011 A2987 993.0 HR70@CAELT@AC/CI NOSIG=@CAELT@METAR SLGM 141300Z 02006KT 5000 FU SCT017 FEW020CB BKN080 27/22 Q1012@CAELT@A2990 HR78 CB S/SW=@CAELT@METAR SLRI 141300Z 00000KT 5000 FU FEW020 BKN200 28/23 Q1013 A2992HR76=METAR SLJO 141300Z 36004KT 4000 FU BKN080 27/22 Q1011 A2988 HR74RWY NML=METAR SLRA 141300Z 06005KT 3000 FU NSC 28/23 Q1011 A2987 HR75 AC CIMETAR SLMG 141300Z 32006KT 3000 FU SCT080 BKN200 29/22 Q1011 A2986HR66 RWY NML=METAR SLBU 141300Z 00000KT 5000 FU NSC 30/24 Q1011 A2988 HR71 CIMETAR SLSA 141300Z 36006KT 5000 FU BKN080 26/24 Q1011 A2987 HR85=METAR SLSR 141300Z 34012KT 5000 FU SCT020 OVC070 25/22 Q1010 A2984HR85 RWY WET OPR C206=METAR SLSM 141300Z 00000KT 5000 FU BKN080 28/22 Q1011 A2987 HR75
ZPX0307 141306@CAELT@GG SLZZYMYT@CAELT@141305 SLLPYFYA@CAELT@SABO SLLP 141300@CAELT@METAR SLLP 141300Z 30003KT 9999 SCT015 SCT070 08/01 Q1039@CAELT@A3069 628.8 HR64 P93// FU CI NOSIG=@CAELT@METAR SLCO 141300Z 35006KT 5000 FU FEW080 27/23 Q1012 A2990@CAELT@985.2 HR76 CI=@CAELT@METAR SLRY 141300Z 00000KT 6000 BKN030 OVC080 25/23 Q1009A2982 HR91 FU RWY WET OPR C210=METAR SLRQ 141300Z 00000KT 5000 FU FEW020 BKN070 26/24 Q1011A2985 HR88=METAR SLSB 141300Z 29004KT 5000 FU OVC080 26/22 Q1011 A2986HR80 RWY NML=METAR SLOR 141300Z 01006KT 9999 FEW017 11/05 Q1035 A3059656.5 HR66 AC/CI=METAR SLUY 141300Z 33010KT 9999 FEW070 SCT200 11/M01 Q1034A3056 658.8 HR45 FU=
ZPX0327 141351@CAELT@GG SLZZYMYT@CAELT@141351 SLPSYGYS@CAELT@SABO SLPS 141400@CAELT@METAR SLPS 141400Z 09006KT 1500 FU NSC 35/26 Q1009 A2980 HR62=@CAELT@
ZPX0330 141355@CAELT@GG SLZZYMYT@CAELT@141355 SLVRYGYZ@CAELT@SABO SLVR 141400@CAELT@METAR SLVR 141400Z 34015KT 4000 FU NSC 33/23 Q1010 A2985 HR59 CI@CAELT@NOSIG=@CAELT@
ZPX0331 141355@CAELT@GG SLZZYMYT@CAELT@141355 SLSBYSYX@CAELT@SABO SLSB 141400@CAELT@METAR SLSB 141400Z 31004KT 5000 FU OVC080 27/23 Q1012 A2989 HR79 RWY@CAELT@NML=@CAELT@
ZPX0333 141355@CAELT@GG SLZZYMYT@CAELT@141355 SLRQYSYX@CAELT@SABO SLRQ 141400@CAELT@METAR SLRQ 141400Z 00000KT 5000 FU SCT020 BKN070 26/24 Q1012 A2991@CAELT@HR88=@CAELT@
ZPX0334 141355@CAELT@GG SLZZYMYT@CAELT@141357 SLLPYGYZ@CAELT@SABO SLLP 141400@CAELT@METAR SLLP 141400Z 27004KT 190V330 9999 SCT015 SCT070 BKN200 09/02@CAELT@Q1039 A3070 629.1 HR60 P4453 FU CI NOSIG=@CAELT@
ZPX0335 141356@CAELT@GG SLZZYMYT@CAELT@141355 SLSAYGYS@CAELT@SABO SLSA 141400@CAELT@METAR SLSA 141400Z 34008KT 5000 FU SCT080 BKN200 30/22 Q1011 A2987@CAELT@HR63=@CAELT@
ZPX0336 141356@CAELT@GG SLZZYMYT@CAELT@141355 SLSAYGYS@CAELT@SABO SLSA 141400@CAELT@METAR SLSA 141400Z 34008KT 5000 FU SCT080 BKN200 30/22 Q1011 A2987@CAELT@HR63=@CAELT@
ZPX0338 141356@CAELT@GG SLZZYMYT@CAELT@141356 SLTRYGYZ@CAELT@SABO SLTR 141400@CAELT@METAR SLTR 141400Z 34004KT 5000 NSC 31/22 Q1011 A2987 993.1 HR57@CAELT@AC/CI NOSIG=@CAELT@
ZPX0340 141356@CAELT@GG SLZZYMYT@CAELT@141355 SLAGYSYX@CAELT@SABO SLAG 141400@CAELT@METAR SLAG 141400Z 04005KT 6000 FEW070 BKN200 32/12 Q1012 A2990 885.2@CAELT@HR30 FU=@CAELT@
ZPX0341 141356@CAELT@GG SLZZYMYT@CAELT@141355 SLRBYGYS@CAELT@SABO SLRB 141400@CAELT@METAR SLRB 141400Z 36015KT 5000 FU NSC 35/21 Q1013 A2991 HR45 RWY NML=@CAELT@
ZPX0342 141356@CAELT@GG SLZZYMYT@CAELT@141355 SLETYMYC@CAELT@SABO SLET 141400@CAELT@METAR SLET 141400Z 32012G22KT 4000 FU NSC 32/22 Q1010 A2985 HR53 CI@CAELT@NOSIG=@CAELT@
ZPX0343 141356@CAELT@GG SLZZYMYT@CAELT@141356 SLCBYGYZ@CAELT@SABO SLCB 141400@CAELT@METAR SLCB 141400Z 21003KT 9999 FEW027 SCT200 19/12 Q1027 A3033 753.1@CAELT@HR62 AC FU NOSIG=@CAELT@
ZPX0344 141357@CAELT@GG SLZZYMYT@CAELT@141356 SLCOYGYZ@CAELT@SABO SLCO 141400@CAELT@METAR SLCO 141400Z 02006KT 8000 NSC 30/23 Q1013 A2992 985.8 HR64 CI=@CAELT@
ZPX0345 141357@CAELT@GG SLZZYMYT@CAELT@141356 SLTJYGYZ@CAELT@SABO SLTJ 141400@CAELT@METAR SLTJ 141400Z 00000KT 9999 NSC 24/10 Q1016 A3002 812.0 HR42 FU@CAELT@
ZPX0347 141358@CAELT@GG SLZZYMYT@CAELT@141358 SLORYGYZ@CAELT@SABO SLOR 141400@CAELT@METAR SLOR 141400Z 36005KT 9999 SCT017 13/05 Q1036 A3059 656.6 HR59@CAELT@
ZPX0348 141358@CAELT@GG SLZZYMYT@CAELT@141357 SLLPYFYA@CAELT@SABO SLRY 141400@CAELT@METAR SLRY 141400Z 36004KT 7000 BKN033 OVC080 24/23 Q1010 A2983@CAELT@HR92 FU RWY HUM OPR C210=@CAELT@
ZPX0349 141359@CAELT@GG SLZZYMYT@CAELT@141358 SLLPYGYZ@CAELT@SABO SLLP 141400 CCA@CAELT@METAR COR SLLP 141400Z 27004KT 190V330 9999 SCT015 SCT070 BKN200@CAELT@09/02 Q1039 A3070 629.1 HR60 P4453 FU NOSIG=@CAELT@
ZPX0350 141359@CAELT@GG SLZZYMYT@CAELT@141400 SLUYYGYS@CAELT@SABO SLUY 141400@CAELT@METAR SLUY 141400Z 32012KT 9999 FEW015 SCT200 12/M02 Q1034@CAELT@Q3056 658.8 HR38 FU=@CAELT@
ZPX0351 141359@CAELT@GG SLZZYMYT@CAELT@141359 SLTRYGYS@CAELT@SABO SLTR 141400@CAELT@METAR SLTR 141400Z 34004KT 5000 NSC 31/22 Q1011 A2987 993.1 HR57@CAELT@AC/CI NOSIG=@CAELT@METAR SLGM 141400Z 36004KT 7000 FEW017 SCT080 29/23 Q1012 Q2990 HR71@CAELT@METAR SLRI 141400Z 16005KT 7000 SCT017 BKN200 29/24 Q1013 A2993 HR71@CAELT@METAR SLJO 141400Z 36006KT 4000 FU BKN080 29/22 Q1012 A2989 HR66 CIRWY NML=METAR SLRA 141400Z 03005KT 3000 FU NSC 29/22 Q1011 A2988 HR67 AC CIMETAR SLMG 141400Z 32006KT 4000 FU SCT080 BKN200 30/22 Q1011 A2986HR61METAR SLBU 141400Z 00000KT 5000 FU SCT080 BKN200 32/23 Q1012 Q2989HR62METAR SLSA 141400Z 34008KT 5000 FU SCT080 BKN200 30/22 Q1011 A2987HR63=METAR SLSR 141400Z 34015KT 3000 FU FEW020 BKN070 27/22 Q1010 A2985HR78RWY OPR C210=METAR SLSM 141400Z 00000KT 5000 FU BKN080 29/22 Q1011 Q2988 HR68
ZPX0353 141400@CAELT@GG SLZZYMYT@CAELT@141400 SLCBYGYS@CAELT@SABO SLCB 141400@CAELT@METAR SLCB 141400Z 21003KT 9999 FEW027 SCT200 19/12 Q1027 A3033@CAELT@753.1 HR62 AC FU NOSIG=@CAELT@METAR SLAL 141400Z 01010KT 9999 FEW015 14/09 Q1030 A3042 704.3 HR71@CAELT@METAR SLPO 141400Z NIL=@CAELT@METAR SLAG 141400Z 04005KT 6000 FEW070 BKN200 32/12 Q1012 A2990885.2 HR30 FU=METAR SLVM 141400Z 00000KT 4000 FU NSC 33/20 Q1007 A2974 HR44 CI=METAR SLTJ 141400Z 00000KT 9999 NSC 24/10 Q1016 A3002 812.0 HR42 FUMETAR SLYA 141400Z 00000KT 6000 NSC 33/17 Q1008 A2977 933.0 HR39 FUMETAR SLBJ 141400Z NIL=METAR SLHI 141400Z NIL=
ZPX0354 141400@CAELT@GG SLZZYMYT@CAELT@141400 SLVRYGYS@CAELT@SABO SLVR 141400@CAELT@METAR SLVR 141400Z 34015KT 4000 FU NSC 33/23 Q1010 A2985 HR59@CAELT@CI NOSIG=@CAELT@METAR SLET 141400Z 32012G22KT 4000 FU NSC 32/22 Q1010 A2985 HR53@CAELT@METAR SLAS 141400Z 36012KT 0500 FU SCT070 33/22 Q1013 A2991 HR53@CAELT@RWY NML=METAR SLJV 141400Z 36008KT 0500 FU NSC 29/21 Q1011 A2985 HR66 RWY NMLMETAR SLCP 141400Z 34008KT 0500 FU NSC 31/21 Q1015 A2997 HR59 RWY NMLMETAR SLSI 141400Z 36008KT 0500 FU NSC 32/20 Q1012 A2988 HR49 RWY NMLMETAR SLTI 141400Z 00000KT 8000 BKN020 BKN070 29/21 Q1016 A3000HR63 FU RWY NML=METAR SLJE 141400Z 32010KT 3000 FU NSC 33/22 Q1014 A2994 HR52 RWY NMLMETAR SLVG 141400Z 35008KT 9999 NSC 23/11 Q1024 A3024 HR42FU CI RWY NML=METAR SLRB 141400Z 36015KT 5000 FU NSC 35/21 Q1013 A2991 HR45 RWY NMLMETAR SLPS 141400Z 09006KT 1500 FU NSC 35/26 Q1009 A2980 HR62=METAR SLCA 141400Z 36006KT 9999 NSC 33/13 Q1011 A2985 HR31FU CS RWY NML=
ZPX0355 141401@CAELT@GG SLZZYMYT@CAELT@141359 SLLPYFYA@CAELT@SABO SLLP 141400@CAELT@METAR SLLP 141400Z 27004KT 190V330 9999 SCT015 SCT070 BKN200@CAELT@09/02 Q1039 A3070 629.1 HR60 P4453 FU NOSIG=@CAELT@METAR SLCO 141400Z 02006KT 8000 NSC 30/23 Q1013 A2992 985.8@CAELT@HR64 CI=@CAELT@METAR SLRY 141400Z 36004KT 7000 BKN033 OVC080 24/23 Q1010 A2983HR92 FU RWY HUM OPR C210=METAR SLRQ 141400Z 00000KT 5000 FU SCT020 BKN070 26/24 Q1012A2991 HR88=METAR SLSB 141400Z 31004KT 5000 FU OVC080 27/23 Q1012 A2989HR79 RWY NML=METAR SLOR 141400Z 36005KT 9999 SCT017 13/05 Q1036 A3059 656.6HR59 CI=METAR SLUY 141400Z 32012KT 9999 FEW015 SCT200 12/M02 Q1034Q3056 658.8 HR38 FU=
ZPX0358 141403@CAELT@GG SLZZYMYT@CAELT@141355 SLCAYGYS@CAELT@SABO SLCA 141400 RRA@CAELT@METAR RTD SLCA 141400Z 36006KT 9999 NSC 33/13 Q1011 A2985 HR31 FU CS@CAELT@RWY NML=@CAELT@
ZPX0360 141407@CAELT@GG SLZZYMYT@CAELT@141406 SLTRYGYZ@CAELT@SABO SLTR 141400 CCA@CAELT@METAR COR SLTR 141400Z 34004KT 5000 FU NSC 31/22 Q1011 A2987 993.1@CAELT@HR57 AC/CI NOSIG=@CAELT@
ZPX0362 141407@CAELT@GG SLZZYMYT@CAELT@141407 SLTRYGYS@CAELT@SABO SLTR@CAELT@SABO SLTR 141400 CCA@CAELT@METAR SLTR 141400Z 34004KT 5000 FU NSC 31/22 Q1011 A2987 993.1 HR57@CAELT@AC/CI NOSIG=@CAELT@METAR SLGM 141400Z 36004KT 7000 FEW017 SCT080 29/23 Q1012 A2990 HR71@CAELT@METAR SLRI 141400Z 16005KT 7000 SCT017 BKN200 29/24 Q1013 A2993 HR71METAR SLJO 141400Z 36006KT 4000 FU BKN080 29/22 Q1012 A2989 HR66 CIRWY NML=METAR SLRA 141400Z 03005KT 3000 FU NSC 29/22 Q1011 A2988 HR67 AC/CIMETAR SLMG 141400Z 32006KT 4000 FU SCT080 BKN200 30/22 Q1011 A2986HR61 RWY NML=METAR SLBU 141400Z 00000KT 5000 FU SCT080 BKN200 32/23 Q1012 Q2989HR62 RWY NML=METAR SLSA 141400Z 34008KT 5000 FU SCT080 BKN200 30/22 Q1011 A2987HR63=METAR SLSR 141400Z 34015KT 3000 FU FEW020 BKN070 27/22 Q1010 A2985HR78 RWY OPR C210=METAR SLSM 141400Z 00000KT 5000 FU BKN080 29/22 Q1011 A2988 HR68
ZPX0400 141449@CAELT@GG SLZZYMYT@CAELT@141449 SLCOYGYZ@CAELT@SABO SLCO 141400 CCA@CAELT@METAR COR SLCO 141400Z 02006KT 8000 NSC 30/23 Q1013 A2992 985.8 HR64@CAELT@FU CI=@CAELT@
ZPX0402 141451@CAELT@GG SLZZYMYT@CAELT@141451 SLPSYGYS@CAELT@SABO SLPS 141500@CAELT@METAR SLPS 141500Z 09006KT 4000 FU NSC 38/27 Q1009 A2980 HR55 CI=@CAELT@
ZPX0404 141455@CAELT@GG SLZZYMYT@CAELT@141455 SLRQYSYX@CAELT@SABO SLRQ 141500@CAELT@METAR SLRQ 141500Z 00000KT 5000 FU SCT020 BKN070 26/24 Q1012 A2990@CAELT@HR85=@CAELT@
ZPX0405 141455@CAELT@GG SLZZYMYT@CAELT@141455 SLSBYSYX@CAELT@SABO SLSB 141500@CAELT@METAR SLSB 141500Z 02005KT 5000 FU BKN080 28/24 Q1011 A2988 HR76 RWY@CAELT@NML=@CAELT@
ZPX0406 141455@CAELT@GG SLZZYMYT@CAELT@141455 SLSAYGYS@CAELT@SABO SLSA 141500@CAELT@METAR SLSA 141500Z 32006KT 5000 FU NSC 31/23 Q1011 A2986 HR60 CI=@CAELT@
ZPX0407 141455@CAELT@GG SLZZYMYT@CAELT@141455 SLSAYGYS@CAELT@SABO SLSA 141500@CAELT@METAR SLSA 141500Z 32006KT 5000 FU NSC 31/23 Q1011 A2986 HR60 CI=@CAELT@
ZPX0408 141455@CAELT@GG SLZZYMYT@CAELT@141455 SLRBYGYS@CAELT@SABO SLRB 141500@CAELT@METAR SLRB 141500Z 36018KT 3000 FU NSC 36/21 Q1013 A2991 HR41 RWY NML=@CAELT@
ZPX0409 141455@CAELT@GG SLZZYMYT@CAELT@141455 SLCBYGYZ@CAELT@SABO SLCB 141500@CAELT@METAR SLCB 141500Z 00000KT 9999 FEW030 21/12 Q1026 A3031 752.4 HR55@CAELT@FU CI NOSIG=@CAELT@
ZPX0410 141456@CAELT@GG SLZZYMYT@CAELT@141456 SLTRYGYZ@CAELT@SABO SLTR 141500@CAELT@METAR SLTR 141500Z 31006KT 5000 FU NSC 34/22 Q1011 A2986 992.7 HR50@CAELT@AC/CI NOSIG=@CAELT@
ZPX0411 141456@CAELT@GG SLZZYMYT@CAELT@141455 SLORYGYZ@CAELT@SABO SLOR 141500@CAELT@METAR SLOR 141500Z 33005KT 9999 SCT020 FEW023CB SCT200 15/04 Q1035@CAELT@A3058 656.4 HR50 CB/E AC=@CAELT@
ZPX0412 141456@CAELT@GG SLZZYMYT@CAELT@141456 SLORYGYZ@CAELT@SABO SLOR 141500@CAELT@METAR SLOR 141500Z 33005KT 9999 SCT020 FEW023CB SCT200 15/04 Q1035@CAELT@A3058 656.4 HR50 CB/E AC=@CAELT@
ZPX0413 141456@CAELT@GG SLZZYMYT@CAELT@141457 SLLPYGYZ@CAELT@SABO SLLP 141500@CAELT@METAR SLLP 141500Z VRB02KT 9999 SCT017 SCT070 BKN200 10/01 Q1039@CAELT@A3069 628.7 HR54 P94// FU NOSIG=@CAELT@
ZPX0414 141456@CAELT@GG SLZZYMYT@CAELT@141456 SLCAYGYS@CAELT@SABO SLCA 141500@CAELT@METAR SLCA 141500Z 36010KT 9999 NSC 34/12 Q1011 A2985 HR27 FU CI RWY@CAELT@NML=@CAELT@
ZPX0415 141456@CAELT@GG SLZZYMYT@CAELT@141455 SLAGYSYX@CAELT@SABO SLAG 141500@CAELT@METAR SLAG 141500Z 03007KT 7000 NSC 34/12 Q1012 A2989 884.7 HR27 FU@CAELT@
ZPX0416 141456@CAELT@GG SLZZYMYT@CAELT@141456 SLCOYGYZ@CAELT@SABO SLCO 141500@CAELT@METAR SLCO 141500Z 03004KT 9999 SCT080 32/23 Q1012 A2991 985.3 HR58@CAELT@FU CI=@CAELT@
ZPX0417 141457@CAELT@GG SLZZYMYT@CAELT@141456 SLLPYFYA@CAELT@SABO SLRY 141500@CAELT@METAR SLRY 141500Z 36004KT 7000 FEW015 BKN030 OVC080 25/23 Q1010@CAELT@A2984 HR86 U RWY HUM OPR=@CAELT@
ZPX0419 141457@CAELT@GG SLZZYMYT@CAELT@141458 SLVRYGYZ@CAELT@SABO SLVR 141500@CAELT@METAR SLVR 141500Z 34015G25KT 4000 FU FEW015 SCT200 35/23 Q1010 A2984@CAELT@HR50 CI NOSIG=@CAELT@
ZPX0420 141457@CAELT@GG SLZZYMYT@CAELT@141454 SLUYYGYS@CAELT@SABO SLUY 141500@CAELT@METAR SLUY 141500Z 33010KT 9999 FEW017 SCT200 14/M04 Q1034@CAELT@A3055 658.7 HR29 FU AC=@CAELT@
ZPX0421 141458@CAELT@GG SLZZYMYT@CAELT@141457 SLTJYGYZ@CAELT@SABO SLTJ 141500@CAELT@METAR SLTJ 141500Z 00000KT 9999 NSC 27/10 Q1015 A2998 811.0 HR35 FU@CAELT@
ZPX0423 141458@CAELT@GG SLZZYMYT@CAELT@141452 SLETYMYC@CAELT@SABO SLET 141500@CAELT@METAR SLET 141500Z 32020G33KT 4000 FU FEW020 BKN200 34/21 Q1010 A2983@CAELT@HR46 NOSIG=@CAELT@
ZPX0424 141459@CAELT@GG SLZZYMYT@CAELT@141458 SLCBYGYS@CAELT@SABO SLCB 141500@CAELT@METAR SLCB 141500Z 00000KT 9999 FEW030 21/12 Q1026 A3031 752.4 HR55@CAELT@FU CI NOSIG=@CAELT@METAR SLAL 141500Z 01008KT 9999 FEW020 16/09 Q1030 A3041 704.2 HR65@CAELT@METAR SLPO 141500Z NIL=@CAELT@METAR SLAG 141500Z 03007KT 7000 NSC 34/12 Q1012 A2989 884.7 HR27 FUMETAR SLVM 141500Z 00000KT 5000 FU NSC 34/20 Q1006 A2972 HR44 CI=METAR SLTJ 141500Z 00000KT 9999 NSC 27/10 Q1015 A2998 811.0 HR35 FUMETAR SLYA 141500Z 00000KT 7000 NSC 34/18 Q1007 A2974 932.2 HR38 FUMETAR SLBJ 141500Z NIL=METAR SLHI 141500Z NIL=
ZPX0425 141459@CAELT@GG SLZZYMYT@CAELT@141458 SLTRYGYS@CAELT@SABO SLTR 141500@CAELT@METAR SLTR 141500Z 31006KT 5000 FU NSC 34/22 Q1011 A2986 992.7 HR50@CAELT@AC/CI NOSIG=@CAELT@METAR SLGM 141500Z 02004KT 8000 FEW017 SCT080 32/22 Q1012 A2988 HR56@CAELT@METAR SLRI 141500Z 09005KT 7000 FEW017 BKN200 31/23 Q1013 A2992 HR61@CAELT@METAR SLJO 141500Z 36006KT 4000 FU BKN080 31/23 Q1011 A2988 HR62 CIRWY NML=METAR SLRA 141500Z 03006KT 3000 FU NSC 31/21 Q1011 A2987 HR56 AC/CIMETAR SLMG 141500Z 32006KT 4000 FU BKN080 32/23 Q1011 A2986 HR58METAR SLBU 141500Z 36006KT 5000 FU SCT080 BKN200 34/23 Q1012 A2989HR52 RWY NML=METAR SLSA 141500Z 32006KT 5000 FU NSC 31/23 Q1011 A2986 HR60 CI=METAR SLSR 141500Z 34015KT 5000 FU SCT080 BKN200 29/22 Q1010 A2984HR70 RWY OPR C210=METAR SLSM 141500Z 33008KT 5000 FU BKN080 30/22 Q1011 A2988 HR63
ZPX0426 141459@CAELT@GG SLZZYMYT@CAELT@141459 SLVRYGYS@CAELT@SABO SLVR 141500@CAELT@METAR SLVR 141500Z 34015G25KT 4000 FU FEW015 SCT200 35/23 Q1010@CAELT@A2984 HR50 CI NOSIG=@CAELT@METAR SLET 141500Z 32020G33KT 4000 FU FEW020 BKN200 34/21 Q1010@CAELT@A2983 HR46 NOSIG=@CAELT@METAR SLAS 141500Z 36012KT 0500 FU NSC 36/23 Q1013 A2991 HR48 RWY NMLMETAR SLJV 141500Z 36010KT 0500 FU NSC 34/20 Q1011 A2985 HR43 RWY NMLMETAR SLCP 141500Z 33010KT 1000 FU NSC 32/22 Q1015 A2997 HR55 RWY NMLMETAR SLSI 141500Z 36010KT 0500 FU NSC 34/20 Q1012 A2988 HR45 RWY NMLMETAR SLTI 141500Z 00000KT 7000 FEW020 BKN070 29/22 Q1016 A3000HR63 FU RWY NML=METAR SLJE 141500Z 32012KT 3000 FU NSC 36/24 Q1013 A2991 HR49 RWY NMLMETAR SLVG 141500Z 36010KT 9999 NSC 24/10 Q1023 A3021 HR34FU CI RWY NML=METAR SLRB 141500Z 36018KT 3000 FU NSC 36/21 Q1013 A2991 HR41 RWY NMLMETAR SLPS 141500Z 09006KT 4000 FU NSC 38/27 Q1009 A2980 HR55 CI=METAR SLCA 141500Z 36010KT 9999 NSC 34/12 Q1011 A2985 HR27
ZPX0429 141501@CAELT@GG SLZZYMYT@CAELT@141500 SLLPYFYA@CAELT@SABO SLLP 141500@CAELT@METAR SLLP 141500Z VRB02KT 9999 SCT017 SCT070 BKN200 10/01 Q1039@CAELT@A3069 628.7 HR54 P94// FU NOSIG=@CAELT@METAR SLCO 141500Z 03004KT 9999 SCT080 32/23 Q1012 A2991 985.3 HR58@CAELT@FU CI=@CAELT@METAR SLRY 141500Z 36004KT 7000 FEW015 BKN030 OVC080 25/23 Q1010A2984 HR86 U RWY HUM OPR=METAR SLRQ 141500Z 00000KT 5000 FU SCT020 BKN070 26/24 Q1012 A2990HR85=METAR SLAP 141500Z 00000KT 6000 FU FEW020 BKN070 27/14 Q1020 A3012860.4 HR44=METAR SLSB 141500Z 02005KT 5000 FU BKN080 28/24 Q1011 A2988 HR76 RWYNML=METAR SLOR 141500Z 33005KT 9999 SCT020 FEW023CB SCT200 15/04 Q1035A3058 656.4 HR50 CB/E AC=METAR SLUY 141500Z 33010KT 9999 FEW017 SCT200 14/M04 Q1034A3055 658.7 HR29 FU AC=
ZPX0434 141505@CAELT@GG SLZZYMYT@CAELT@141503 SLLPYFYA@CAELT@SABO SLLP 141500 CCA@CAELT@METAR SLLP 141500Z VRB02KT 9999 SCT017 SCT070 BKN200 10/01 Q1039@CAELT@A3069 628.7 HR54 P94// FU NOSIG=@CAELT@METAR SLCO 141500Z 03004KT 9999 SCT080 32/23 Q1012 A2991 985.3 HR58@CAELT@FU CI=@CAELT@METAR SLRY 141500Z 36004KT 7000 FEW015 BKN030 OVC080 25/23 Q1010A2984 HR86 U RWY HUM OPR=METAR SLRQ 141500Z 00000KT 5000 FU SCT020 BKN070 26/24 Q1012 A2990HR85=METAR COR SLAP 141500Z 00000KT 6000 FEW020 BKN070 27/14 Q1020 A3012860.4 HR44 FU=METAR SLSB 141500Z 02005KT 5000 FU BKN080 28/24 Q1011 A2988 HR76 RWYNML=METAR SLOR 141500Z 33005KT 9999 SCT020 FEW023CB SCT200 15/04 Q1035A3058 656.4 HR50 CB/E AC=METAR SLUY 141500Z 33010KT 9999 FEW017 SCT200 14/M04 Q1034A3055 658.7 HR29 FU AC=
ZPX0442 141517@CAELT@GG SLZZYMYT@CAELT@141516 SLLPYFYA@CAELT@SABO SLLP 141500 CCA@CAELT@METAR SLLP 141500Z VRB02KT 9999 SCT017 SCT070 BKN200 10/01 Q1039@CAELT@A3069 628.7 HR54 P94// FU NOSIG=@CAELT@METAR SLCO 141500Z 03004KT 9999 SCT080 32/23 Q1012 A2991 985.3 HR58@CAELT@FU CI=@CAELT@METAR COR SLRY 141500Z 36004KT 7000 FEW015 BKN030 OVC080 25/23Q1010 A2984 HR86 FU RWY HUM OPR=METAR SLRQ 141500Z 00000KT 5000 FU SCT020 BKN070 26/24 Q1012 A2990HR85=METAR SLAP 141500Z 00000KT 6000 FEW020 BKN070 27/14 Q1020 A3012860.4 HR44 FU=METAR SLSB 141500Z 02005KT 5000 FU BKN080 28/24 Q1011 A2988 HR76 RWYNML=METAR SLOR 141500Z 33005KT 9999 SCT020 FEW023CB SCT200 15/04 Q1035A3058 656.4 HR50 CB/E AC=METAR SLUY 141500Z 33010KT 9999 FEW017 SCT200 14/M04 Q1034A3055 658.7 HR29 FU AC=
ZPX0466 141551@CAELT@GG SLZZYMYT@CAELT@141551 SLRBYGYS@CAELT@SABO SLRB 141600@CAELT@METAR SLRB 141600Z 36016KT 3000 FU NSC 37/20 Q1012 A2988 HR38 RWY NML=@CAELT@
ZPX0470 141553@CAELT@GG SLZZYMYT@CAELT@141552 SLETYMYC@CAELT@SABO SLET 141600@CAELT@METAR SLET 141600Z 32018G31KT 4000 FU FEW020 BKN200 35/21 Q1009 A2981@CAELT@HR43 NOSIG=@CAELT@
ZPX0471 141553@CAELT@GG SLZZYMYT@CAELT@141553 SLPSYGYS@CAELT@SABO SLPS 141600@CAELT@METAR SLPS 141600Z 09009KT 5000 FU BKN070 39/26 Q1008 A2977 HR50=@CAELT@
ZPX0472 141554@CAELT@GG SLZZYMYT@CAELT@141554 SLCAYGYS@CAELT@SABO SLCA 141600@CAELT@METAR SLCA 141600Z 36015KT 9999 NSC 36/12 Q1010 A2983 HR25 FU CI RWY@CAELT@NML=@CAELT@
ZPX0473 141555@CAELT@GG SLZZYMYT@CAELT@141555 SLVRYGYZ@CAELT@SABO SLVR 141600@CAELT@METAR SLVR 141600Z 34017G27KT 4000 FU SCT017 BKN200 35/22 Q1009 A2982@CAELT@HR47 NOSIG=@CAELT@
ZPX0474 141555@CAELT@GG SLZZYMYT@CAELT@141549 SLUYYGYS@CAELT@SABO SLUY 141600@CAELT@METAR SLUY 141600Z 30010KT 9999 FEW020 15/M08 Q1034 A3054@CAELT@658.5 HR20 CI/CC=@CAELT@
ZPX0475 141555@CAELT@GG SLZZYMYT@CAELT@141555 SLAGYSYX@CAELT@SABO SLAG 141600@CAELT@METAR SLAG 141600Z 02008KT 7000 FEW023 BKN200 36/13 Q1011 A2986 883.8@CAELT@HR25 FU=@CAELT@
ZPX0476 141555@CAELT@GG SLZZYMYT@CAELT@141555 SLSAYGYS@CAELT@SABO SLSA 141600@CAELT@METAR SLSA 141600Z 32008KT 5000 FU NSC 34/23 Q1010 A2984 HR53 CI=@CAELT@
ZPX0477 141555@CAELT@GG SLZZYMYT@CAELT@141555 SLSAYGYS@CAELT@SABO SLSA 141600@CAELT@METAR SLSA 141600Z 32008KT 5000 FU NSC 34/23 Q1010 A2984 HR53 CI=@CAELT@
ZPX0478 141555@CAELT@GG SLZZYMYT@CAELT@141555 SLCOYGYZ@CAELT@SABO SLCO 141600@CAELT@METAR SLCO 141600Z 36005KT 9999 BKN080 33/24 Q1012 A2989 984.7 HR58@CAELT@FU CI=@CAELT@
ZPX0479 141556@CAELT@GG SLZZYMYT@CAELT@141555 SLSBYSYX@CAELT@SABO SLSB 141600@CAELT@METAR SLSB 141600Z 32008KT 5000 FU BKN080 31/23 Q1011 A2986 HR63 RWY@CAELT@NML=@CAELT@
ZPX0480 141556@CAELT@GG SLZZYMYT@CAELT@141555 SLRQYSYX@CAELT@SABO SLRQ 141600@CAELT@METAR SLRQ 141600Z 00000KT 5000 FU FEW020 BKN070 28/23 Q1012 A2989@CAELT@HR75=@CAELT@
ZPX0481 141556@CAELT@GG SLZZYMYT@CAELT@141557 SLLPYGYZ@CAELT@SABO SLLP 141600@CAELT@METAR SLLP 141600Z VRB02KT 9999 SCT017 SCT070 BKN200 13/01 Q1038@CAELT@A3067 628.3 HR45 P94// FU NOSIG=@CAELT@
ZPX0482 141557@CAELT@GG SLZZYMYT@CAELT@141557 SLTRYGYZ@CAELT@SABO SLTR 141600@CAELT@METAR SLTR 141600Z 32008KT 5000 FU NSC 35/23 Q1010 A2984 992.0 HR51@CAELT@AC/CI NOSIG=@CAELT@
ZPX0483 141557@CAELT@GG SLZZYMYT@CAELT@141556 SLTJYGYZ@CAELT@SABO SLTJ 141600@CAELT@METAR SLTJ 141600Z 00000KT 9999 NSC 30/10 Q1014 A2995 810.1 HR30 FU@CAELT@
ZPX0484 141558@CAELT@GG SLZZYMYT@CAELT@141557 SLLPYFYA@CAELT@SABO SLRY 141600@CAELT@METAR SLRY 141600Z 36004KT 8000 FEW017 OVC080 26/23 Q1010 A2984@CAELT@HR83 FU RWY HUM OPR=@CAELT@
ZPX0485 141558@CAELT@GG SLZZYMYT@CAELT@141557 SLCBYGYZ@CAELT@SABO SLCB 141600@CAELT@METAR SLCB 141600Z 24004KT 9999 FEW033 23/10 Q1024 A3027 751.3 HR45@CAELT@FU CI NOSIG=@CAELT@
ZPX0486 141559@CAELT@GG SLZZYMYT@CAELT@141558 SLCBYGYS@CAELT@SABO SLCB 141600@CAELT@METAR SLCB 141600Z 24004KT 9999 FEW033 23/10 Q1024 A3027 751.3 HR45@CAELT@FU CI NOSIG=@CAELT@METAR SLAL 141600Z 00000KT 9999 FEW020 SCT200 18/07 Q1029 A3039 703.8@CAELT@HR53=@CAELT@METAR SLPO 141600Z NIL=METAR SLAG 141600Z 02008KT 7000 FEW023 BKN200 36/13 Q1011 A2986 883.8HR25 FU=METAR SLVM 141600Z 18005KT 5000 FU NSC 37/21 Q1004 A2967 HR41 CI=METAR SLTJ 141600Z 00000KT 9999 NSC 30/10 Q1014 A2995 810.1 HR30 FUMETAR SLYA 141600Z 00000KT 7000 NSC 35/18 Q1006 A2971 931.2 HR36 FUMETAR SLBJ 141600Z NIL=METAR SLHI 141600Z NIL=
ZPX0487 141559@CAELT@GG SLZZYMYT@CAELT@141559 SLORYGYZ@CAELT@SABO SLOR 141600@CAELT@METAR SLOR 141600Z 07005KT 9999 SCT020 FEW023CB SCT200 17/06 Q1035@CAELT@A3057 656.1 HR46 CB/E AC=@CAELT@
ZPX0490 141601@CAELT@GG SLZZYMYT@CAELT@141559 SLLPYFYA@CAELT@SABO SLLP 141600@CAELT@METAR SLLP 141600Z VRB02KT 9999 SCT017 SCT070 BKN200 13/01 Q1038@CAELT@A3067 628.3 HR45 P94// FU NOSIG=@CAELT@METAR SLCO 141600Z 36005KT 9999 BKN080 33/24 Q1012 A2989 984.7@CAELT@HR58 FU CI=@CAELT@METAR SLRY 141600Z 36004KT 8000 FEW017 OVC080 26/23 Q1010 A2984HR83 FU RWY HUM OPR=METAR SLRQ 141600Z 00000KT 5000 FU FEW020 BKN070 28/23 Q1012 A2989HR75=METAR SLAP 141600Z 00000KT 6000 FEW020 SCT070 27/14 Q1019 A3011860.1 HR45 FU=METAR SLSB 141600Z 32008KT 5000 FU BKN080 31/23 Q1011 A2986 HR63RWY NML=METAR SLOR 141600Z 07005KT 9999 SCT020 FEW023CB SCT200 17/06Q1035 A3057 656.1 HR46 CB/E AC=METAR SLUY 141600Z 30010KT 9999 FEW020 15/M08 Q1034 A3054658.5 HR20 CI/CC=
ZPX0491 141601@CAELT@GG SLZZYMYT@CAELT@141559 SLTRYGYS@CAELT@SABO SLTR 141600@CAELT@METAR SLTR 141600Z 32008KT 5000 FU NSC 35/23 Q1010 A2984 992.0 HR51@CAELT@AC/CI NOSIG=@CAELT@METAR SLGM 141600Z 02006KT 8000 FEW017 SCT080 34/22 Q1011 A2987 HR50@CAELT@METAR SLRI 141600Z 09005KT 8000 FEW017 BKN200 33/22 Q1012 A2990 HR55@CAELT@FU AC=METAR SLJO 141600Z 36006KT 4000 FU BKN080 32/22 Q1011 A2986 HR56 CIRWY NML=METAR SLRA 141600Z 03006KT 4000 FU NSC 33/22 Q1011 A2986 HR54 AC/CIMETAR SLMG 141600Z 32008KT 5000 FU BKN080 34/23 Q1010 A2985 HR55METAR SLBU 141600Z 36004KT 3000 FU SCT080 BKN200 36/24 Q1011 A2986HR49 RWY NML=METAR SLSA 141600Z 32008KT 5000 FU NSC 34/23 Q1010 A2984 HR53 CI=METAR SLSR 141600Z 34015KT 1000 FU BKN080 29/21 Q1009 A2982 HR61RWY HUM OPR=METAR SLSM 141600Z 33008KT 5000 FU NSC 33/23 Q1011 A2986 HR57 CI
ZPX0493 141602@CAELT@GG SLZZYMYT@CAELT@141600 SLVRYGYS@CAELT@SABO SLVR 141600@CAELT@METAR SLVR 141600Z 34017G27KT 4000 FU SCT017 BKN200 35/22 Q1009 A2982@CAELT@HR47 NOSIG=@CAELT@METAR SLET 141600Z 32018G31KT 4000 FU FEW020 BKN200 35/21 Q1009@CAELT@A2981 HR43 NOSIG=@CAELT@METAR SLAS 141600Z 36015KT 1000 FU FEW020 38/23 Q1012 A2988 HR43RWY NML=METAR SLCP 141600Z 33012KT 2000 FU FEW020 33/21 Q1014 A2994 HR48METAR SLSI 141600Z 36010KT 0500 FU SCT020 35/21 Q1011 A2985 HR41METAR SLRB 141600Z 36016KT 3000 FU NSC 37/20 Q1012 A2988 HR38 RWY NMLMETAR SLPS 141600Z 09009KT 5000 FU BKN070 39/26 Q1008 A2977 HR50=METAR SLCA 141600Z 36015KT 9999 NSC 36/12 Q1010 A2983 HR25FU CI RWY NML=
ZPX0524 141650@CAELT@GG SLZZYMYT@CAELT@141650 SLRBYGYS@CAELT@SABO SLRB 141700@CAELT@METAR SLRB 141700Z 36019KT 2500 FU FEW025CB 35/21 Q1011 A2985 HR45 CB@CAELT@N/NW RWY NML=@CAELT@
ZPX0526 141654@CAELT@GG SLZZYMYT@CAELT@141654 SLPSYGYS@CAELT@SABO SLPS 141700@CAELT@METAR SLPS 141700Z 09014KT 4000 FU SCT020 BKN070 40/26 Q1007 A2974@CAELT@HR47=@CAELT@
ZPX0527 141654@CAELT@GG SLZZYMYT@CAELT@141655 SLSBYSYX@CAELT@SABO SLSB 141700@CAELT@METAR SLSB 141700Z 30008KT 5000 FU BKN080 32/23 Q1010 A2983 HR60 RWY@CAELT@NML=@CAELT@
ZPX0529 141654@CAELT@GG SLZZYMYT@CAELT@141654 SLCBYGYZ@CAELT@SABO SLCB 141700@CAELT@METAR SLCB 141700Z 32004KT 9999 FEW033 FEW036CB SCT200 26/09 Q1023@CAELT@A3022 750.1 HR35 CB SW/NW/N AC FU NOSIG=@CAELT@
ZPX0530 141655@CAELT@GG SLZZYMYT@CAELT@141655 SLSAYGYS@CAELT@SABO SLSA 141700@CAELT@METAR SLSA 141700Z 31005KT 5000 FU SCT080 BKN200 34/23 Q1009 A2981@CAELT@HR50=@CAELT@
ZPX0531 141655@CAELT@GG SLZZYMYT@CAELT@141655 SLSAYGYS@CAELT@SABO SLSA 141700@CAELT@METAR SLSA 141700Z 31005KT 5000 FU SCT080 BKN200 34/23 Q1009 A2981@CAELT@HR50=@CAELT@
ZPX0532 141655@CAELT@GG SLZZYMYT@CAELT@141655 SLCOYGYZ@CAELT@SABO SLCO 141700@CAELT@METAR SLCO 141700Z 17004KT 9999 FEW030 BKN080 35/24 Q1010 A2985 983.5@CAELT@HR54 FU CI=@CAELT@
ZPX0533 141655@CAELT@GG SLZZYMYT@CAELT@141643 SLUYYGYS@CAELT@SABO SLUY 141700@CAELT@METAR SLUY 141700Z 29012KT 9999 FEW020 16/M08 Q1033 A3052@CAELT@657.9 HR18 AC/CI/CC=@CAELT@
ZPX0534 141655@CAELT@GG SLZZYMYT@CAELT@141655 SLTJYGYZ@CAELT@SABO SLTJ 141700@CAELT@METAR SLTJ 141700Z 13004KT 9999 NSC 32/09 Q1012 A2991 808.9 HR25 FU@CAELT@
ZPX0535 141655@CAELT@GG SLZZYMYT@CAELT@141655 SLRQYSYX@CAELT@SABO SLRQ 141700@CAELT@METAR SLRQ 141700Z 00000KT 5000 FU SCT080 BKN200 31/23 Q1010 A2985@CAELT@HR63=@CAELT@
ZPX0537 141656@CAELT@GG SLZZYMYT@CAELT@141656 SLTRYGYZ@CAELT@SABO SLTR 141700@CAELT@METAR SLTR 141700Z 32008KT 5000 FU FEW020 SCT200 35/23 Q1009@CAELT@A2981 991.0 HR50 AC NOSIG=@CAELT@
ZPX0538 141656@CAELT@GG SLZZYMYT@CAELT@141656 SLORYGYZ@CAELT@SABO SLOR 141700@CAELT@METAR SLOR 141700Z 36005KT 9999 SCT020 FEW023CB 18/06 Q1034 A3055 655@CAELT@.5 HR45 CB/N/NE/E/NW SH/N/NW AC/CI=@CAELT@
ZPX0539 141656@CAELT@GG SLZZYMYT@CAELT@141655 SLAGYSYX@CAELT@SABO SLAG 141700@CAELT@METAR SLAG 141700Z 02005KT 7000 FEW025 FEW033CB BKN200 37/12 Q1009@CAELT@A2981 882.4 HR22 CB/NW FU=@CAELT@
ZPX0540 141656@CAELT@GG SLZZYMYT@CAELT@141657 SLVRYGYZ@CAELT@SABO SLVR 141700@CAELT@METAR SLVR 141700Z 35018G28KT 4000 FU SCT017 BKN200 35/22 Q1008 A2979@CAELT@HR46 NOSIG=@CAELT@
ZPX0541 141657@CAELT@GG SLZZYMYT@CAELT@141656 SLCAYGYS@CAELT@SABO SLCA 141700@CAELT@METAR SLCA 141700Z 36015KT 9999 NSC 37/12 Q1008 A2977 HR23 FU CI RWY@CAELT@NML=@CAELT@
ZPX0542 141657@CAELT@GG SLZZYMYT@CAELT@141656 SLETYMYC@CAELT@SABO SLET 141700@CAELT@METAR SLET 141700Z 32019G32KT 4000 FU FEW020 BKN200 36/21 Q1008 A2978@CAELT@HR42 NOSIG=@CAELT@
