
ZPX0004 160004@CAELT@GG SLZZYMYT@CAELT@160002 SLCBYGYS@CAELT@SABO SLCB 160000@CAELT@METAR SLCB 160000Z 16006KT 9999 FEW036 22/02 Q1019 A3011 747.1 HR34@CAELT@FU CI NOSIG=@CAELT@
ZPX0012 160055@CAELT@GG SLZZYMYT@CAELT@160056 SLVRYGYZ@CAELT@SABO SLVR 160100@CAELT@METAR SLVR 160100Z VRB02KT 9999 FEW023 SCT200 28/22 Q1008 A2978 HR70@CAELT@NOSIG=@CAELT@
ZPX0013 160056@CAELT@GG SLLPZRZX@CAELT@160056 SLLPYGYZ@CAELT@SABO SLLP 160100@CAELT@METAR SLLP 160100Z 09005KT 9999 FEW015 SCT200 08/M03 Q1035 A3058@CAELT@626.3 HR47 NOSIG=@CAELT@
ZPX0014 160056@CAELT@GG SLZZYMYT@CAELT@160055 SLCBYGYZ@CAELT@SABO SLCB 160100@CAELT@METAR SLCB 160100Z 15007KT 9999 FEW036 SCT200 21/05 Q1020 A3014 748.0@CAELT@HR33 FU NOSIG=@CAELT@
ZPX0026 160155@CAELT@GG SLLPZRZX@CAELT@160155 SLLPYGYZ@CAELT@SABO SLLP 160200@CAELT@METAR SLLP 160200Z 06007KT 9999 NSC 07/02 Q1036 A3061 627.0 HR68@CAELT@CI NOSIG=@CAELT@
ZPX0027 160156@CAELT@GG SLZZYMYT@CAELT@160156 SLVRYGYZ@CAELT@SABO SLVR 160200@CAELT@METAR SLVR 160200Z 16003KT 9999 SCT023 SCT200 28/21 Q1010 A2982 HR68@CAELT@NOSIG=@CAELT@
ZPX0030 160158@CAELT@GG SLZZYMYT@CAELT@160155 SLCBYGYZ@CAELT@SABO SLCB 160200@CAELT@METAR SLCB 160200Z 09005KT 9999 FEW036 20/05 Q1021 A3018 749.0 HR37@CAELT@FU CI NOSIG=@CAELT@
ZPX0040 160255@CAELT@GG SLLPZRZX@CAELT@160251 SLLPYGYZ@CAELT@SABO SLLP 160300@CAELT@METAR SLLP 160300Z VRB02KT 9999 FEW013 FEW017CB 08/00 Q1037 A3064@CAELT@627.7 HR59 CB/LT N/NE CI NOSIG=@CAELT@
ZPX0041 160255@CAELT@GG SLZZYMYT@CAELT@160255 SLCBYGYZ@CAELT@SABO SLCB 160300@CAELT@METAR SLCB 160300Z 00000KT 9999 FEW036 18/06 Q1023 A3023 750.4 HR44@CAELT@FU CI NOSIG=@CAELT@
ZPX0042 160256@CAELT@GG SLZZYMYT@CAELT@160256 SLVRYGYZ@CAELT@SABO SLVR 160300@CAELT@METAR SLVR 160300Z 17008KT 9999 SCT023 SCT200 27/21 Q1011 A2985 HR67@CAELT@NOSIG=@CAELT@
ZPX0049 160354@CAELT@GG SLZZYMYT@CAELT@160355 SLVRYGYZ@CAELT@SABO SLVR 160400@CAELT@METAR SLVR 160400Z 18008KT 9999 SCT023 SCT200 26/21 Q1011 A2987 HR70@CAELT@NOSIG=@CAELT@
ZPX0050 160358@CAELT@GG SLZZYMYT@CAELT@160358 SLCBYGYZ@CAELT@SABO SLCB 160400@CAELT@METAR SLCB 160400Z 11005KT 9999 FEW036 18/06 Q1023 A3022 750.0 HR45@CAELT@FU CI NOSIG=@CAELT@
ZPX0052 160400@CAELT@GG SLLPZRZX@CAELT@160359 SLLPYGYZ@CAELT@SABO SLLP 160400@CAELT@METAR SLLP 160400Z 08005KT 9999 FEW013 FEW017CB SCT200 05/02 Q1037@CAELT@A3063 627.4 HR80 CB/LT N/NE/E AC NOSIG=@CAELT@
ZPX0059 160455@CAELT@GG SLZZYMYT@CAELT@160455 SLVRYGYZ@CAELT@SABO SLVR 160500@CAELT@METAR SLVR 160500Z 13008KT 9999 BKN023 25/20 Q1012 A2989 HR72 AC CI@CAELT@NOSIG=@CAELT@
ZPX0060 160455@CAELT@GG SLLPZRZX@CAELT@160455 SLLPYGYZ@CAELT@SABO SLLP 160500@CAELT@METAR SLLP 160500Z 08005KT 9999 FEW010 FEW017CB SCT200 03/01 Q1036@CAELT@A3061 627.0 HR88 CB/LT N/NE/E AC NOSIG=@CAELT@
ZPX0061 160457@CAELT@GG SLZZYMYT@CAELT@160456 SLCBYGYZ@CAELT@SABO SLCB 160500@CAELT@METAR SLCB 160500Z 14004KT 9999 FEW036 BKN200 19/07 Q1022 A3018 749.1@CAELT@HR47 FU AC NOSIG=@CAELT@
ZPX0068 160554@CAELT@GG SLZZYMYT@CAELT@160555 SLVRYGYZ@CAELT@SABO SLVR 160600@CAELT@METAR SLVR 160600Z 16010KT 9000 -RA BKN023 BKN070 25/20 Q1011 A2985@CAELT@HR72 NOSIG=@CAELT@
ZPX0069 160556@CAELT@GG SLLPZRZX@CAELT@160555 SLLPYGYZ@CAELT@SABO SLLP 160600@CAELT@METAR SLLP 160600Z 08003KT 9999 FEW004 FEW017CB SCT200 03/01 Q1036@CAELT@A3060 626.7 HR93 CB/LT N/NE/E AC NOSIG=@CAELT@
ZPX0072 160603@CAELT@GG SLZZYMYT@CAELT@160559 SLCBYGYZ@CAELT@SABO SLCB 160600@CAELT@METAR SLCB 160600Z 12005KT 9999 FEW036 SCT200 18/07 Q1021 A3017 748.7@CAELT@HR49 FU ACNOSIG=@CAELT@
ZPX0077 160656@CAELT@GG SLLPZRZX@CAELT@160655 SLLPYGYZ@CAELT@SABO SLLP 160700@CAELT@METAR SLLP 160700Z 07004KT 4000E VCFG FEW004 FEW017CB SCT200 01/M00@CAELT@Q1035 A3058 626.4 HR93 VCFG NE/E/SE CB/LT N/NE/E AC NOSIG=@CAELT@
ZPX0078 160656@CAELT@GG SLZZYMYT@CAELT@160657 SLVRYGYZ@CAELT@SABO SLVR 160700@CAELT@METAR SLVR 160700Z 14006KT 9999 BKN023 BKN070 24/20 Q1010 A2985 HR75@CAELT@NOSIG=@CAELT@
ZPX0079 160657@CAELT@GG SLZZYMYT@CAELT@160656 SLCBYGYZ@CAELT@SABO SLCB 160700@CAELT@METAR SLCB 160700Z 00000KT 9999 FEW036 SCT200 17/08 Q1021 A3017 748.8@CAELT@HR55 FU AC NOSIG=@CAELT@
ZPX0088 160756@CAELT@GG SLLPZRZX@CAELT@160755 SLLPYGYZ@CAELT@SABO SLLP 160800@CAELT@METAR SLLP 160800Z 07004KT 4000E VCFG FEW004 FEW017CB SCT200 01/00@CAELT@Q1035 A3059 626.6 HR97 VCFG NE/E/SE/S CB/LT NE/E AC NOSIG=@CAELT@
ZPX0089 160757@CAELT@GG SLZZYMYT@CAELT@160756 SLCBYGYZ@CAELT@SABO SLCB 160800@CAELT@METAR SLCB 160800Z 13005KT 9999 FEW033 16/08 Q1021 A3017 748.8 HR58@CAELT@FU CI NOSIG=@CAELT@
ZPX0092 160806@CAELT@GG SLZZYMYT@CAELT@160806 SLVRYGYZ@CAELT@SABO SLVR 160800@CAELT@METAR SLVR 160800Z 16006KT 9999 BKN023 BKN070 23/20 Q1011 A2986 HR82@CAELT@NOSIG=@CAELT@
ZPX0101 160856@CAELT@GG SLZZYMYT@CAELT@160856 SLTRYGYZ@CAELT@SABO SLTR 160900@CAELT@METAR SLTR 160900Z 03006KT 9999 FEW080 BKN200 24/22 Q1008 A2979@CAELT@990.4 HR90 NOSIG=@CAELT@
ZPX0102 160857@CAELT@GG SLLPZRZX@CAELT@160856 SLLPYGYZ@CAELT@SABO SLLP 160900@CAELT@METAR SLLP 160900Z 07006KT 4000E VCFG FEW003 FEW017CB SCT200 02/01@CAELT@Q1036 A3060 626.8 HR97 VCFG NE/E/SE CB/LT NE/E AC NOSIG=@CAELT@
ZPX0104 160900@CAELT@GG SLZZYMYT@CAELT@160900 SLTRYGYS@CAELT@SABO SLTR 160900@CAELT@METAR SLTR 160900Z 03006KT 9999 FEW080 BKN200 24/22 Q1008 A2979@CAELT@990.4 HR90 NOSIG=@CAELT@METAR SLRI 160900Z 00000KT 9999 SCT080 BKN200 24/24 Q1009 A2982 HR96=@CAELT@
ZPX0105 160901@CAELT@GG SLZZYMYT@CAELT@160855 SLCBYGYZ@CAELT@SABO SLCB 160900@CAELT@METAR SLCB 160900Z 15004KT 9999 NSC 14/07 Q1022 A3020 749.52 HR62 FU@CAELT@CI NOSIG=@CAELT@
ZPX0106 160901@CAELT@GG SLZZYMYT@CAELT@160900 SLVRYGYZ@CAELT@SABO SLVR 160900@CAELT@METAR SLVR 160900Z 15004KT 9999 SCT023 BKN070 22/20 Q1012 A2989 HR85@CAELT@NOSIG=@CAELT@
ZPX0109 160909@CAELT@GG SLZZYMYT@CAELT@160906 SLPSYGYS@CAELT@SABO SLPS RRA 160900@CAELT@METAR RTD SLPS 160900Z 00000KT 9999 SCT070 OVC200 23/23 Q1008 A2977@CAELT@HR98=@CAELT@
ZPX0120 160945@CAELT@GG SLZZYMYT@CAELT@160944 SLRQYSYX@CAELT@SABO SLRQ 161000@CAELT@METAR SLRQ 161000Z 00000KT 9999 FEW020 23/23 Q1008 A2978 984.4 HR98@CAELT@
ZPX0121 160951@CAELT@GG SLZZYMYT@CAELT@160950 SLCAYGYS@CAELT@SABO SLCA 161100@CAELT@METAR SLCA 161100Z 00000KT 8000 VCSH BKN010 OVC070 20/18 Q1017 A3003@CAELT@HR91 SH TODAS DIRECC RERA HUM OPR=@CAELT@
ZPX0122 160952@CAELT@GG SLZZYMYT@CAELT@160952 SLETYMYC@CAELT@SABO SLET 161000@CAELT@METAR SLET 161000Z 14005KT 9999 SCT020 FEW030CB BKN070 23/19 Q1011@CAELT@A2988 HR81 CB W/NW NOSIG=@CAELT@
ZPX0123 160953@CAELT@GG SLZZYMYT@CAELT@160952 SLPSYGYS@CAELT@SABO SLPS 161000@CAELT@METAR SLPS 161000Z 00000KT 9999 FEW020 SCT070 BKN200 24/23 Q1009@CAELT@A2980 HR93=@CAELT@
ZPX0125 160954@CAELT@GG SLZZYMYT@CAELT@160953 SLRBYGYS@CAELT@SABO SLRB 161000@CAELT@METAR SLRB 161000Z 00000KT 9999 SCT023 25/22 Q1013 A2991 HR88 RWY NML=@CAELT@
ZPX0126 160954@CAELT@GG SLZZYMYT@CAELT@160953 SLSAYGYS@CAELT@SABO SLSA 161000@CAELT@METAR SLSA 161000Z 00000KT 9999 NSC 24/24 Q1008 A2979 HR96 CI=@CAELT@
ZPX0127 160954@CAELT@GG SLZZYMYT@CAELT@160955 SLVRYGYZ@CAELT@SABO SLVR 161000@CAELT@METAR SLVR 161000Z 15004KT 9999 SCT023 BKN070 22/20 Q1012 A2989 HR85@CAELT@CI NOSIG=@CAELT@
ZPX0128 160955@CAELT@GG SLZZYMYT@CAELT@160955 SLLPYGYZ@CAELT@SABO SLLP 161000@CAELT@METAR SLLP 161000Z 08005KT 9999 FEW004 SCT200 01/00 Q1036 A3062@CAELT@627.2 HR95 P2280 AC NOSIG=@CAELT@
ZPX0129 160955@CAELT@GG SLZZYMYT@CAELT@160955 SLCBYGYZ@CAELT@SABO SLCB 161000@CAELT@METAR SLCB 161000Z 00000KT 9999 FEW033 SCT200 13/08 Q1023 A3022 750.1@CAELT@HR69 FU AC NOSIG=@CAELT@
ZPX0130 160956@CAELT@GG SLZZYMYT@CAELT@160955 SLCOYGYZ@CAELT@SABO SLCO 161000@CAELT@METAR SLCO 161000Z 24003KT 9999 BKN080 25/23 Q1010 A2985 983.3 HR92@CAELT@
ZPX0131 160956@CAELT@GG SLZZYMYT@CAELT@160956 SLTRYGYZ@CAELT@SABO SLTR 161000@CAELT@METAR SLTR 161000Z 03006KT 9999 FEW080 BKN200 24/23 Q1010 A2983@CAELT@991.5 HR92 NOSIG=@CAELT@
ZPX0132 160958@CAELT@GG SLZZYMYT@CAELT@160957 SLSBYSYX@CAELT@SABO SLSB 161000@CAELT@METAR SLSB 161000Z 00000KT 9999 FEW017 24/23 Q1009 A2980 HR97 RWY NML=@CAELT@
ZPX0133 160958@CAELT@GG SLZZYMYT@CAELT@160957 SLLPYFYA@CAELT@SABO SLRY 161000@CAELT@METAR SLRY 161000Z 00000KT 9999 FEW080 SCT200 22/22 Q1007@CAELT@A2976 HR97 RWY NML=@CAELT@
ZPX0134 160959@CAELT@GG SLZZYMYT@CAELT@160958 SLTRYGYS@CAELT@SABO SLTR 161000@CAELT@METAR SLTR 161000Z 03006KT 9999 FEW080 BKN200 24/23 Q1010 A2983@CAELT@991.5 HR92 NOSIG=@CAELT@METAR SLGM 161000Z 00000KT 9999 BKN080 BKN200 24/23 Q1009 A2982@CAELT@HR94=@CAELT@METAR SLRI 161000Z 00000KT 9999 SCT080 BKN200 24/24 Q1010 A2983HR96=METAR SLJO 161000Z 00000KT 9999 FEW080 BKN200 23/23 Q1008 A2979HR97 RWY NML=METAR SLRA 161000Z 00000KT 9999 FEW080 BKN200 24/23 Q1009 A2980HR96 RWY HUM OPR=METAR SLMG 161000Z 00000KT 9999 BKN080 BKN200 24/23 Q1009 A2981METAR SLBU 161000Z NIL=METAR SLSA 161000Z 00000KT 9999 NSC 24/24 Q1008 A2979 HR96 CI=METAR SLSR 161000Z 00000KT 8000 FEW020 BKN200 25/24 Q1007 A2975HR94 FU RWY NML=METAR SLSM 161000Z 00000KT 9999 SCT017 SCT200 24/23 Q1009 A2973HR96 FU RWY NML=
ZPX0136 160959@CAELT@GG SLZZYMYT@CAELT@161000 SLUYYGYS@CAELT@SABO SLUY 161000@CAELT@METAR SLUY 161000Z 00000KT 9999 NSC M06/M21 Q1032 A3048 657.1@CAELT@HR29=@CAELT@
ZPX0138 161000@CAELT@GG SLZZYMYT@CAELT@160959 SLCBYGYS@CAELT@SABO SLCB 161000@CAELT@METAR SLCB 161000Z 00000KT 9999 FEW033 SCT200 13/08 Q1023 A3022@CAELT@750.1 HR69 FU AC NOSIG=@CAELT@METAR SLAL 161000Z 03005KT 5000 VCFG FEW005 BKN010 10/09 Q1028 A3036@CAELT@703.0 HR95 VCFG S/SW/NW/N=@CAELT@
ZPX0140 161002@CAELT@GG SLZZYMYT@CAELT@161001 SLLPYFYA@CAELT@SABO SLLP 161000@CAELT@METAR SLLP 161000Z 08005KT 9999 FEW004 SCT200 01/00 Q1036 A3062@CAELT@627.2 HR95 P2280 AC NOSIG=@CAELT@METAR SLCO 161000Z 24003KT 9999 BKN080 25/23 Q1010 A2985 983.3@CAELT@HR92 CI=@CAELT@METAR SLRY 161000Z 00000KT 9999 FEW080 SCT200 22/22 Q1007A2976 HR97 RWY NML=METAR SLRQ 161000Z 00000KT 9999 FEW020 23/23 Q1008 A2978 984.4HR98 CI=METAR SLAP 161000Z 36006KT 9999 BKN020 OVC070 20/17 Q1016 A3002857.5 HR82=METAR SLSB 161000Z 00000KT 9999 FEW017 24/23 Q1009 A2980 HR97RWY NML=METAR SLUY 161000Z 00000KT 9999 NSC M06/M21 Q1032 A3048 657.1HR29=
ZPX0142 161003@CAELT@GG SLZZYMYT@CAELT@161401 SLVRYFYC@CAELT@SABO SLVR 161000@CAELT@METAR SLVR 161000Z 15004KT 9999 SCT023 BKN070 22/20 Q1012 A2989 HR85@CAELT@CI NOSIG=@CAELT@METAR SLET 161000Z 14005KT 9999 SCT020 FEW030CB BKN070 23/19 Q1011@CAELT@A2988 HR81 CB W/NW NOSIG=@CAELT@METAR SLCP 161000Z 00000KT 9999 BKN023 OVC200 23/22 Q1015 A2997 HR92RWY NML=METAR SLSI 161000Z 00000KT 9999 SCT017 23/22 Q1012 A2988 HR92 RWY NMLMETAR SLRB 161000Z 00000KT 9999 SCT023 25/22 Q1013 A2991 HR88 RWY NMLMETAR SLPS 161000Z 00000KT 9999 FEW020 SCT070 BKN200 24/23 Q1009A2980 HR93=METAR SLCA 161000Z 00000KT 8000 VCSH BKN010 OVC070 20/18 Q1017 A3003HR91 SH TODAS DIRECC RERA RWY HUM OPR=
ZPX0165 161051@CAELT@GG SLZZYMYT@CAELT@161051 SLPSYGYS@CAELT@SABO SLPS 161100@CAELT@METAR SLPS 161100Z 00000KT 9999 FEW020 SCT070 BKN200 26/24 Q1009@CAELT@A2980 HR90=@CAELT@
ZPX0167 161053@CAELT@GG SLZZYMYT@CAELT@161055 SLVRYGYZ@CAELT@SABO SLVR 161100@CAELT@METAR SLVR 161100Z 15004KT 9999 BKN023 FEW030CB BKN070 23/20 Q1012@CAELT@A2990 HR83 CB NW CI NOSIG=@CAELT@
ZPX0168 161054@CAELT@GG SLZZYMYT@CAELT@161053 SLRBYGYS@CAELT@SABO SLRB 161100@CAELT@METAR SLRB 161100Z 00000KT 9999 NSC 26/23 Q1013 A2991 HR82 CI RWY NML=@CAELT@
ZPX0170 161054@CAELT@GG SLZZYMYT@CAELT@161055 SLRQYSYX@CAELT@SABO SLRQ 161100@CAELT@METAR SLRQ 161100Z 00000KT 9999 FEW080 25/24 Q1009 A2980 985.1 HR91@CAELT@
ZPX0173 161055@CAELT@GG SLZZYMYT@CAELT@161055 SLSAYGYS@CAELT@SABO SLSA 161100@CAELT@METAR SLSA 161100Z 32005KT 9999 NSC 25/24 Q1009 A2982 HR85 CI=@CAELT@
ZPX0174 161055@CAELT@GG SLZZYMYT@CAELT@161055 SLSBYSYX@CAELT@SABO SLSB 161100@CAELT@METAR SLSB 161100Z 00000KT 9999 FEW017 SCT200 27/24 Q1009 A2982 HR87@CAELT@RWY NML=@CAELT@
ZPX0175 161056@CAELT@GG SLZZYMYT@CAELT@161055 SLORYGYZ@CAELT@SABO SLOR 161100@CAELT@METAR SLOR 161100Z 05003KT 9999 NSC 05/M06 Q1034 A3055 655.5 HR43 FU@CAELT@N/SE/S/SW/NW=@CAELT@
ZPX0176 161056@CAELT@GG SLZZYMYT@CAELT@161055 SLLPYGYZ@CAELT@SABO SLLP 161100@CAELT@METAR SLLP 161100Z VRB02KT 9999 FEW006 06/M04 Q1037 A3065 627.9@CAELT@HR47 P90// HZ SW/W/NW AC/CI NOSIG=@CAELT@
ZPX0177 161057@CAELT@GG SLZZYMYT@CAELT@161056 SLTRYGYZ@CAELT@SABO SLTR 161100@CAELT@METAR SLTR 161100Z 36006KT 9999 FEW017 BKN200 25/23 Q1010 A2985@CAELT@992.3 HR89 AC NOSIG=@CAELT@
ZPX0178 161057@CAELT@GG SLZZYMYT@CAELT@161054 SLCAYGYS@CAELT@SABO SLCA 161100@CAELT@METAR SLCA 161100Z 00000KT 2000 -DZ BKN005 OVC070 19/18 Q1018 A3006@CAELT@HR94 RWY HUM OPR=@CAELT@
ZPX0179 161057@CAELT@GG SLZZYMYT@CAELT@161057 SLTJYGYZ@CAELT@SABO SLTJ 161100@CAELT@METAR SLTJ 161100Z 00000KT 9999 SCT012 BKN020 0VC070 15/14 Q1021@CAELT@A3015 815.8 HR91 SC BAJOS S/SW/W/NW=@CAELT@
ZPX0180 161057@CAELT@GG SLZZYMYT@CAELT@161058 SLCOYGYZ@CAELT@SABO SLCO 161100@CAELT@METAR SLCO 161100Z 24003KT 9999 BKN080 25/23 Q1011 A2986 983.9 HR90@CAELT@
ZPX0181 161058@CAELT@GG SLZZYMYT@CAELT@161057 SLTRYGYS@CAELT@SABO SLTR 161100@CAELT@METAR SLTR 161100Z 36006KT 9999 FEW017 BKN200 25/23 Q1010 A2985@CAELT@992.3 HR89 AC NOSIG=@CAELT@METAR SLGM 161100Z 21004KT 9999 FEW015 BKN080 24/23 Q1010 A2984 HR96=@CAELT@METAR SLRI 161100Z 00000KT 9999 BKN080 BKN200 24/24 Q1011 A2987 HR95=@CAELT@METAR SLJO 161100Z 00000KT 9999 FEW020 SCT080 BKN200 24/23 Q1009A2980 HR96 RWY NML=METAR SLRA 161100Z 00000KT 9999 SCT080 BKN200 24/23 Q1009 A2981 HR95RWY HUM OPR=METAR SLMG 161100Z 00000KT 9999 BKN080 24/23 Q1010 A2983 HR94METAR SLBU 161100Z NIL=METAR SLSA 161100Z 32005KT 9999 NSC 25/24 Q1009 A2982 HR85 CI=METAR SLSR 161100Z 00000KT 8000 FEW020 BKN200 25/24 Q1007 A2975 HR93FU RWY NML=METAR SLSM 161100Z 00000KT 9999 SCT017 SCT200 25/23 Q1010 A2983 HR89
ZPX0182 161058@CAELT@GG SLZZYMYT@CAELT@161052 SLETYMYC@CAELT@SABO SLET 161100@CAELT@METAR SLET 161100Z 13005KT 9999 SCT020 FEW030CB BKN070 23/19 Q1012@CAELT@A2990 HR83 CB W/NW NOSIG=@CAELT@
ZPX0183 161058@CAELT@GG SLZZYMYT@CAELT@161056 SLUYYGYS@CAELT@SABO SLUY 161100@CAELT@METAR SLUY 161100Z 00000KT 9999 NSC M01/M17 Q1033 A3051 657.7@CAELT@HR28 HZ E/SE CI=@CAELT@
ZPX0184 161059@CAELT@GG SLZZYMYT@CAELT@161459 SLVRYFYC@CAELT@SABO SLVR 161100@CAELT@METAR SLVR 161100Z 15004KT 9999 BKN023 FEW030CB BKN070 23/20 Q1012@CAELT@A2990 HR83 CB NW CI NOSIG=@CAELT@METAR SLET 161100Z 13005KT 9999 SCT020 FEW030CB BKN070 23/19 Q1012@CAELT@A2990 HR82 CB W/NW NOSIG=@CAELT@METAR SLAS 161100Z 00000KT 9999 SCT020 BKN200 25/23 Q1013 A2991 HR88RWY NML=METAR SLJV 161100Z 00000KT 9999 FEW020 24/21 Q1012 A2988 HR87 RWY NMLMETAR SLCP 161100Z 00000KT 9999 SCT023 OVC200 24/22 Q1015 A2997 HR92METAR SLSI 161100Z 00000KT 9999 SCT070 25/22 Q1012 A2988 HR83 RWY NMLMETAR SLTI 161100Z 00000KT 9999 SCT070 BKN200 25/23 Q1013 A2991 HR87METAR SLJE 161100Z 00000KT 9999 NSC 28/23 Q1015 A2997 HR73 RWY NML=METAR SLRB 161100Z 00000KT 9999 NSC 26/23 Q1013 A2991 HR82 CI RWY NMLMETAR SLPS 161100Z 00000KT 9999 FEW020 SCT070 BKN200 26/24 Q1009A2980 HR90=METAR SLCA 161100Z 00000KT 2000 -DZ BKN005 OVC070 19/18 Q1018 A3006HR94 RWY HUM OPR=
ZPX0186 161059@CAELT@GG SLZZYMYT@CAELT@161059 SLCBYGYZ@CAELT@SABO SLCB 161100@CAELT@METAR SLCB 161100Z 22003KT 9999 FEW033 FEW036CB SCT200 17/08 Q1024@CAELT@A3025 750.9 HR54 CB DIST E FU NOSIG=@CAELT@
ZPX0187 161059@CAELT@GG SLZZYMYT@CAELT@161058 SLSAYGYS@CAELT@SABO SLSA 161100 CCA@CAELT@METAR COR SLSA 161100Z 32050KT 9999 NSC 25/24 Q1009 A2982 HR90 CI=@CAELT@
ZPX0188 161100@CAELT@GG SLZZYMYT@CAELT@161059 SLCBYGYS@CAELT@SABO SLCB 161100@CAELT@METAR SLCB 161100Z 22003KT 9999 FEW033 FEW036CB SCT200 17/08 Q1024@CAELT@A3025 750.9 HR54 CB DIST E FU NOSIG=@CAELT@METAR SLAL 161100Z 36009KT 6000 VCFG BKN010 11/10 Q1029 A3039 703.6@CAELT@HR94 VCFG S/SW/NW=@CAELT@METAR SLVM 161100Z 00000KT 3000 VCSH BKN008 OVC070 21/20 Q1015 A2999HR92 SH N/NE/SW/W/NW=METAR SLTJ 161100Z 00000KT 9999 SCT012 BKN020 0VC070 15/14 Q1021A3015 815.8 HR91 SC BAJOS S/SW/W/NW=METAR SLYA 161100Z 00000KT 2500 -DZ BKN003 OVC070 20/20 Q1015 A3000940.3 HR99 ST BAJOS DODAS DIRECC=
ZPX0190 161101@CAELT@GG SLZZYMYT@CAELT@161100 SLLPYFYA@CAELT@SABO SLRY 161100@CAELT@METAR SLRY 161100Z 00000KT 9999 NSC 25/23 Q1008 A2979 HR88@CAELT@CI RWY NML=@CAELT@
ZPX0191 161102@CAELT@GG SLZZYMYT@CAELT@161101 SLSAYGYS@CAELT@SABO SLSA 161100 CCB@CAELT@METAR COR SLSA 161100Z 32005KT 9999 NSC 25/24 Q1009 A2982 HR90 CI=@CAELT@
ZPX0193 161104@CAELT@GG SLZZYMYT@CAELT@161103 SLLPYFYA@CAELT@SABO SLLP 161100@CAELT@METAR SLLP 161100Z VRB02KT 9999 FEW006 06/M04 Q1037 A3065 627.9@CAELT@HR47 P90// HZ SW/W/NW AC/CI NOSIG=@CAELT@METAR SLCO 161100Z 24003KT 9999 BKN080 25/23 Q1011 A2986 983.9@CAELT@HR90 CI=@CAELT@METAR SLRY 161100Z 00000KT 9999 NSC 25/23 Q1008 A2979 HR88CI RWY NML=METAR SLRQ 161100Z 00000KT 9999 FEW080 25/24 Q1009 A2980 985.1HR91 CI=METAR SLAP 161100Z 36008KT 9999 SCT020 BKN070 21/17 Q1017 A3003857.7 HR78=METAR SLSB 161100Z 00000KT 9999 FEW017 SCT200 27/24 Q1009 A2982HR87 RWY NML=METAR SLOR 161100Z 05003KT 9999 NSC 05/M06 Q1034 A3055 655.5HR43 FU N/SE/S/SW/NW=METAR SLUY 161100Z 00000KT 9999 NSC M01/M17 Q1033 A3051 657.7HR28 HZ E/SE CI=
ZPX0221 161151@CAELT@GG SLZZYMYT@CAELT@161152 SLETYMYC@CAELT@SABO SLET 161200@CAELT@METAR SLET 161200Z 13005KT 9999 SCT020 FEW030CB BKN070 23/19 Q1013@CAELT@A2993 HR76 CB W/NW NOSIG=@CAELT@
ZPX0223 161154@CAELT@GG SLZZYMYT@CAELT@161155 SLVRYGYZ@CAELT@SABO SLVR 161200@CAELT@METAR SLVR 161200Z 16006KT 9999 BKN023 FEW030CB BKN070 24/19 Q1014@CAELT@A2995 HR76 CB NW CI NOSIG=@CAELT@
ZPX0224 161154@CAELT@GG SLZZYMYT@CAELT@161154 SLSBYSYX@CAELT@SABO SLSB 161200@CAELT@METAR SLSB 161200Z 00000KET 9999 FEW020 SCT200 29/25 Q1010 A2984 HR79@CAELT@RWY NML=@CAELT@
ZPX0225 161154@CAELT@GG SLZZYMYT@CAELT@161153 SLPSYGYS@CAELT@SABO SLPS 161200@CAELT@METAR SLPS 161200Z 09004KT 9999 NSC 28/25 Q1010 A2983 HR86=@CAELT@
ZPX0226 161154@CAELT@GG SLZZYMYT@CAELT@161154 SLORYGYZ@CAELT@SABO SLOR 161200@CAELT@METAR SLOR 161200Z 35006KT 9999 FEW017 11/M02 Q1035 A3056 655.9 HR41@CAELT@FU SE/S/SW/NW=@CAELT@
ZPX0227 161154@CAELT@GG SLZZYMYT@CAELT@161154 SLRBYGYS@CAELT@SABO SLRB 161200@CAELT@METAR SLRB 161200Z 00000KT 9999 NSC 27/22 Q1014 A2994 HR75 CI RWY NML=@CAELT@
ZPX0228 161155@CAELT@GG SLZZYMYT@CAELT@161153 SLPSYGYS@CAELT@SABO SLPS 161200 CCA@CAELT@METAR COR SLPS 161200Z 09004KT 9999 NSC 28/25 Q1010 A2983 HR86 CI=@CAELT@
ZPX0229 161155@CAELT@GG SLZZYMYT@CAELT@161155 SLCOYGYZ@CAELT@SABO SLCO 161200@CAELT@METAR SLCO 161200Z VRB02KT 9999 BKN080 25/24 Q1012 A2989 984.6 HR92@CAELT@
ZPX0230 161155@CAELT@GG SLZZYMYT@CAELT@161155 SLLPYFYA@CAELT@SABO SLRY 161200@CAELT@METAR SLRY 161200Z 00000KT 9999 NSC 28/23 Q1009 A2980 HR74 CI@CAELT@RWY NML=@CAELT@
ZPX0231 161155@CAELT@GG SLZZYMYT@CAELT@161154 SLSAYGYS@CAELT@SABO SLSA 161200@CAELT@METAR SLSA 161200Z 32006KT 9999 NSC 27/25 Q1010 A2985 HR86 CI=@CAELT@
ZPX0232 161156@CAELT@GG SLZZYMYT@CAELT@161155 SLRQYSYX@CAELT@SABO SLRQ 161200@CAELT@METAR SLRQ 161200Z 00000KT 9999 FEW080 SCT200 28/24 Q1009 A2982 985.8@CAELT@HR78=@CAELT@
ZPX0233 161156@CAELT@GG SLZZYMYT@CAELT@161156 SLCAYGYS@CAELT@SABO SLCA 161200@CAELT@METAR SLCA 161200Z 00000KT 2000 -DZ BKN005 OVC070 19/18 Q1018 A3006@CAELT@HR93 RWY HUM OPR=@CAELT@
ZPX0237 161157@CAELT@GG SLZZYMYT@CAELT@161157 SLTJYGYZ@CAELT@SABO SLTJ 161200@CAELT@METAR SLTJ 161200Z 00000KT 9999 SCT012 BKN020 OVC070 16/13 Q1021@CAELT@A3016 816.1 HR82 SC BAJOS SH N/SW/W/NW=@CAELT@
ZPX0238 161157@CAELT@GG SLZZYMYT@CAELT@161157 SLCBYGYZ@CAELT@SABO SLCB 161200@CAELT@METAR SLCB 161200Z 00000KT 9999 FEW033 SCT200 20/09 Q1025 A3027 751.4@CAELT@HR46 FU NOSIG=@CAELT@
ZPX0239 161157@CAELT@GG SLZZYMYT@CAELT@161155 SLAGYSYX@CAELT@SABO SLAG 161200@CAELT@METAR SLAG 161200Z 00000KT 6000 SCT003 SCT010 OVC070 19/17 Q1019@CAELT@A3012 891.7 HR90 VIS RED ST BAJOS TODAS DIRECC=@CAELT@
ZPX0240 161157@CAELT@GG SLZZYMYT@CAELT@161156 SLTRYGYZ@CAELT@SABO SLTR 161200@CAELT@METAR SLTR 161200Z 36004KT 9999 FEW017 BKN200 28/23 Q1011 A2986@CAELT@992.8 HR75 AC NOSIG=@CAELT@
ZPX0242 161158@CAELT@GG SLZZYMYT@CAELT@161155 SLLPYGYZ@CAELT@SABO SLLP 161200@CAELT@METAR SLLP 161200Z 25005KT 9999 FEW010 10/M02 Q1038 A3067 628.3 HR44@CAELT@P3380 HZ SW/W/NW NOSIG=@CAELT@
ZPX0243 161158@CAELT@GG SLZZYMYT@CAELT@161158 SLUYYGYS@CAELT@SABO SLUY 161200@CAELT@METAR SLUY 161200Z 00000KT 9999 NSC 05/M12 Q1034 A3054 658.4@CAELT@HR26 HZ E/SE CI=@CAELT@
ZPX0244 161159@CAELT@GG SLZZYMYT@CAELT@161559 SLVRYFYC@CAELT@SABO SLVR 161200@CAELT@METAR SLVR 161200Z 16006KT 9999 BKN023 FEW030CB BKN070 24/19 Q1014@CAELT@A2995 HR76 CB NW CI NOSIG=@CAELT@METAR SLET 161200Z 13005KT 9999 SCT020 FEW030CB BKN070 23/19 Q1013@CAELT@A2993 HR76 CB W/NW NOSIG=@CAELT@METAR SLAS 161200Z 00000KT 9999 SCT020 BKN200 26/23 Q1014 A2994 HR85RWY NML=METAR SLJV 161200Z 00000KT 9999 SCT020 25/22 Q1012 A2988 HR80 RWY NMLMETAR SLCP 161200Z 00000KT 9999 NSC 26/23 Q1015 A2997 HR85 RWY NML=METAR SLSI 161200Z 00000KT 9999 NSC 26/22 Q1012 A2988 HR78 RWY NML=METAR SLTI 161200Z 00000KT 9999 SCT070 BKN200 27/23 Q1015 A2997 HR77METAR SLJE 161200Z 00000KT 9999 FEW015 BKN200 29/23 Q1015 A2997 HR70METAR SLVG 161200Z NIL=METAR SLRB 161200Z 00000KT 9999 NSC 27/22 Q1014 A2994 HR75 CI RWY NMLMETAR SLPS 161200Z 09004KT 9999 NSC 28/25 Q1010 A2983 HR86 CI=METAR SLCA 161200Z 00000KT 2000 -DZ BKN005 OVC070 19/18 Q1018 A3006HR93 RWY HUM OPR=
ZPX0245 161159@CAELT@GG SLZZYMYT@CAELT@161159 SLLPYFYA@CAELT@SABO SLLP 161200@CAELT@METAR SLLP 161200Z 25005KT 9999 FEW010 10/M02 Q1038 A3067 628.3 HR44@CAELT@P3380 HZ SW/W/NW NOSIG=@CAELT@METAR SLCO 161200Z VRB02KT 9999 BKN080 25/24 Q1012 A2989 984.6@CAELT@HR92 CI=@CAELT@METAR SLRY 161200Z 00000KT 9999 NSC 28/23 Q1009 A2980 HR74 CIRWY NML=METAR SLRQ 161200Z 00000KT 9999 FEW080 SCT200 28/24 Q1009 A2982985.8 HR78=METAR SLAP 161200Z 36015KT 9999 SCT025 BKN070 22/17 Q1017 A3005858.4 HR72=METAR SLSB 161200Z 00000KT 9999 FEW020 SCT200 29/25 Q1010 A2984HR79 RWY NML=METAR SLOR 161200Z 35006KT 9999 FEW017 11/M02 Q1035 A3056 655.9HR41 FU SE/S/SW/NW=METAR SLUY 161200Z 00000KT 9999 NSC 05/M12 Q1034 A3054 658.4HR26 HZ E/SE CI=
ZPX0247 161200@CAELT@GG SLZZYMYT@CAELT@161158 SLTRYGYS@CAELT@SABO SLTR 161200@CAELT@METAR SLTR 161200Z 36004KT 9999 FEW017 BKN200 28/23 Q1011 A2986@CAELT@992.8 HR75 AC NOSIG=@CAELT@METAR SLGM 161200Z 00000KT 9999 FEW015 BKN080 25/24 Q1011 A2988 HR92=@CAELT@METAR SLRI 161200Z 00000KT 9999 BKN080 BKN200 25/24 Q1012 A2990 HR92=@CAELT@METAR SLJO 161200Z 00000KT 9999 FEW020 BKN070 25/24 Q1010 A2984 HR93RWY NML=METAR SLRA 161200Z 00000KT 9999 BKN080 25/24 Q1010 A2983 HR94RWY HUM OPR=METAR SLMG 161200Z 00000KT 9999 BKN080 25/24 Q1010 A2985 HR91METAR SLBU 161200Z 00000KT 9999 FEW020 BKN080 26/24 Q1010 A2984 HR92METAR SLSA 161200Z 32006KT 9999 NSC 27/25 Q1010 A2985 HR86 CI=METAR SLSR 161200Z 34008KT 8000 FEW020 SCT080 BKN200 29/23 Q1009A2980 HR75 FU RWY NML=METAR SLSM 161200Z 04004KT 9999 FEW017 SCT080 27/24 Q1010 A2985 HR85FU RWY NML=
ZPX0248 161200@CAELT@GG SLZZYMYT@CAELT@161200 SLCBYGYS@CAELT@SABO SLCB 161200@CAELT@METAR SLCB 161200Z 00000KT 9999 FEW033 SCT200 20/09 Q1025 A3027 751.4@CAELT@HR46 FU NOSIG=@CAELT@METAR SLAL 161200Z 35009KT 9999 FEW005 SCT012 14/10 Q1030 A3041 704.2@CAELT@HR77 ST BAJOS S/N=@CAELT@METAR SLPO 161200Z 00000KT 9999 NSC 10/01 Q1036 A3060 636.9 HR55 CI=METAR SLAG 161200Z 00000KT 6000 SCT003 SCT010 OVC070 19/17 Q1019A3012 891.7 HR90 VIS RED ST BAJOS TODAS DIRECC=METAR SLVM 161200Z 00000KT 3000 -DZ BKN005 OVC070 21/20 Q1016 A3001HR97=METAR SLTJ 161200Z 00000KT 9999 SCT012 BKN020 OVC070 16/13 Q1021A3016 816.1 HR82 SC BAJOS SH N/SW/W/NW=METAR SLYA 161200Z 00000KT 3000 -DZ BKN005 OVC070 20/20 Q1016 A3001940.8 HR99 ST BAJOS TODAS DIRECC=METAR SLBJ 161200Z NIL=METAR SLHI 161200Z NIL=
ZPX0276 161252@CAELT@FF SLZZYMYT@CAELT@161252 SLPSZTZX@CAELT@SABO SLPS 161300@CAELT@METAR SLPS 161300Z 33005KT 9999 NSC 29/24 Q1011 A2986 HR69 CI=@CAELT@
ZPX0277 161253@CAELT@GG SLZZYMYT@CAELT@161253 SLRBYGYS@CAELT@SABO SLRB 161300@CAELT@METAR SLRB 161300Z 00000KT 9999 NSC 29/24 Q1014 A2994 HR74 CI RWY NML=@CAELT@
ZPX0279 161255@CAELT@GG SLZZYMYT@CAELT@161255 SLRQYSYX@CAELT@SABO SLRQ 161300@CAELT@METAR SLRQ 161300Z 00000KT 9999 FEW080 SCT200 30/25 Q1010 A2984 986.5@CAELT@HR73=@CAELT@
ZPX0280 161255@CAELT@GG SLZZYMYT@CAELT@161255 SLLPYFYA@CAELT@SABO SLRY 161300@CAELT@METAR SLRY 161300Z 34006KT 9999 NSC 31/24 Q1009 A2982 HR65 CI@CAELT@RWY NML=@CAELT@
ZPX0281 161255@CAELT@GG SLZZYMYT@CAELT@161254 SLSAYGYS@CAELT@SABO SLSA 161300@CAELT@METAR SLSA 161300Z 34008KT 9999 NSC 30/25 Q1011 A2986 HR77 CI=@CAELT@
ZPX0282 161255@CAELT@GG SLZZYMYT@CAELT@161254 SLETYMYC@CAELT@SABO SLET 161300@CAELT@METAR SLET 161300Z 18006KT 9999 SCT020 FEW030CB BKN070 23/19 Q1015@CAELT@A2997 HR80 CB W/NW TEMPO SHRA=@CAELT@
ZPX0283 161256@CAELT@GG SLZZYMYT@CAELT@161255 SLAGYSYX@CAELT@SABO SLAG 161300@CAELT@METAR SLAG 161300Z 00000KT 6000 SCT002 SCT010 OVC070 20/17 Q1020@CAELT@A3014 892.3 HR86 VIS RED ST BAJOS TODAS DIRECC=@CAELT@
ZPX0284 161256@CAELT@GG SLZZYMYT@CAELT@161256 SLUYYGYS@CAELT@SABO SLUY 161300@CAELT@METAR SLUY 161300Z 31004KT 9999 NSC 10/M12 Q1034 A3056 658.8@CAELT@HR21 CI=@CAELT@
ZPX0285 161256@CAELT@GG SLZZYMYT@CAELT@161256 SLCOYGYZ@CAELT@SABO SLCO 161300@CAELT@METAR SLCO 161300Z 29003KT 9999 BKN080 26/24 Q1012 A2991 985.4 HR87@CAELT@
ZPX0286 161257@CAELT@GG SLZZYMYT@CAELT@161257 SLORYGYZ@CAELT@SABO SLOR 161300@CAELT@METAR SLOR 161300Z 36007KT 9999 FEW017 14/01 Q1035 A3058 656.3 HR40@CAELT@FU S/SW/NW=@CAELT@
ZPX0287 161257@CAELT@GG SLZZYMYT@CAELT@161257 SLCAYGYS@CAELT@SABO SLCA 161300@CAELT@METAR SLCA 161300Z 00000KT 8000 VCSH BKN006 OVC070 19/17 Q1019 A3009@CAELT@HR91 SH TODAS DIRECC REDZ RWY HUM OPR=@CAELT@
ZPX0288 161257@CAELT@GG SLZZYMYT@CAELT@161256 SLSBYSYX@CAELT@SABO SLSB 161300@CAELT@METAR SLSB 161300Z 00000KT 9999 BKN020 30/25 Q1011 A2988 HR76 RWY NML=@CAELT@
ZPX0289 161257@CAELT@GG SLZZYMYT@CAELT@161257 SLTRYGYZ@CAELT@SABO SLTR 161300@CAELT@METAR SLTR 161300Z 34006KT 9999 NSC 30/24 Q1012 A2989 993.6@CAELT@HR72 AC/CI NOSIG=@CAELT@
ZPX0290 161257@CAELT@GG SLZZYMYT@CAELT@161255 SLVRYGYZ@CAELT@SABO SLVR 161300@CAELT@METAR SLVR 161300Z 17007KT 9999 BKN023 FEW030CB OVC070 24/19 Q1014@CAELT@A2997 HR75 CB/NW TEMPO SHRA=@CAELT@
ZPX0291 161257@CAELT@GG SLZZYMYT@CAELT@161258 SLLPYGYZ@CAELT@SABO SLLP 161300@CAELT@METAR SLLP 161300Z VRB02KT 9999 FEW017 13/M01 Q1039 A3069 628.7 HR39@CAELT@P3380 FU NOSIG=@CAELT@
ZPX0293 161258@CAELT@GG SLZZYMYT@CAELT@161256 SLTRYGYS@CAELT@SABO SLTR 161300@CAELT@METAR SLTR 161300Z 34006KT 9999 NSC 30/24 Q1012 A2989 993.6 HR72@CAELT@AC/CI NOSIG=@CAELT@METAR SLGM 161300Z 32004KT 9999 FEW008 SCT020 BKN080 26/24 Q1012@CAELT@A2989 HR90=@CAELT@METAR SLRI 161300Z 00000KT 9999 SCT020 BKN080 BKN200 26/24 Q1013A2992 HR89=METAR SLJO 161300Z 36005KT 9999 SCT020 BKN070 26/24 Q1011 A2986 HR87RWY NML=METAR SLRA 161300Z 35006KT 9999 BKN080 27/24 Q1010 A2985 HR85METAR SLMG 161300Z 32004KT 9999 BKN080 27/25 Q1011 A2985 HR87RWY HUM OPR=METAR SLBU 161300Z 36004KT 9999 FEW020 BKN080 29/25 Q1010 A2985 HR80METAR SLSA 161300Z 34008KT 9999 NSC 30/25 Q1011 A2986 HR77 CI=METAR SLSR 161300Z 34008KT 8000 FEW020 BKN200 30/25 Q1009 A2982 HR73FU RWY NML=METAR SLSM 161300Z 33006KT 9999 FEW080 SCT200 28/25 Q1011 A2988 HR83
ZPX0294 161259@CAELT@GG SLZZYMYT@CAELT@161257 SLTJYGYZ@CAELT@SABO SLTJ 161300@CAELT@METAR SLTJ 161300Z 15005KT 9999 SCT015 BKN020 OVC070 18/13 Q1021@CAELT@A3017 816.4 HR75 SH/SW=@CAELT@
ZPX0295 161259@CAELT@GG SLZZYMYT@CAELT@161259 SLCBYGYZ@CAELT@SABO SLCB 161300@CAELT@METAR SLCB 161300Z 20004KT 9999 FEW036 23/08 Q1025 A3027 751.4 HR37@CAELT@FU CI NOSIG=@CAELT@
ZPX0296 161259@CAELT@GG SLZZYMYT@CAELT@161659 SLVRYGYH@CAELT@SABO SLVR 161300@CAELT@METAR SLVR 161300Z 17007KT 9999 BKN023 FEW030CB OVC070 24/19 Q1014@CAELT@A2997 HR75 CB/NW TEMPO SHRA=@CAELT@METAR SLET 161300Z 18006KT 9999 SCT020 FEW030CB BKN070 23/19 Q1015@CAELT@A2997 HR80 CB W/NW TEMPO SHRA=@CAELT@METAR SLAS 161300Z 00000KT 9999 SCT020 BKN200 28/24 Q1014 A2994 HR79RWY NML=METAR SLJV 161300Z 00000KT 9999 SCT020 26/23 Q1013 A2991 HR81 RWY NMLMETAR SLCP 161300Z 00000KT 9999 BKN017 OVC200 27/23 Q1016 A3000 HR79METAR SLSI 161300Z 00000KT 9999 NSC 28/23 Q1013 A2991 HR72 CI RWY NMLMETAR SLTI 161300Z 00000KT 9999 NSC 30/22 Q1015 A2997 HR65 CI RWY NMLMETAR SLJE 161300Z 00000KT 9999 FEW017 BKN200 31/23 Q1015 A2997 HR64METAR SLVG 161300Z NIL=METAR SLRB 161300Z 00000KT 9999 NSC 29/24 Q1014 A2994 HR74 CI RWY NMLMETAR SLPS 161300Z 33005KT 9999 NSC 29/24 Q1011 A2986 HR69 CI=METAR SLCA 161300Z 00000KT 8000 VCSH BKN006 OVC070 19/17 Q1019 A3009HR91 SH TODAS DIRECC REDZ RWY HUM OPR=
ZPX0300 161300@CAELT@GG SLZZYMYT@CAELT@161300 SLCBYGYS@CAELT@SABO SLCB 161300@CAELT@METAR SLCB 161300Z 20004KT 9999 FEW036 23/08 Q1025 A3027 751.4 HR37@CAELT@FU CI NOSIG=@CAELT@METAR SLAL 161300Z 34009KT 9999 FEW010 BKN015 15/09 Q1030 A3043 704.6@CAELT@HR65=@CAELT@METAR SLPO 161300Z 00000KT 9999 NSC 12/01 Q1036 A3061 637.1 HR48 CI=METAR SLAG 161300Z 00000KT 6000 SCT002 SCT010 OVC070 20/17 Q1020A3014 892.3 HR86 VIS RED ST BAJOS TODAS DIRECC=METAR SLVM 161300Z 00000KT 2000 DZ BKN003 OVC070 21/21 Q1016 A3002HR100 ST BAJOS TODAS DIRECC=METAR SLTJ 161300Z 15005KT 9999 SCT015 BKN020 OVC070 18/13 Q1021A3017 816.4 HR75 SH/SW=METAR SLYA 161300Z 00000KT 5000 VCSH SCT005 BKN010 OVC070 20/20 Q1016A3002 941.2 HR97 SH TODAS DIRECC=METAR SLBJ 161300Z NIL=METAR SLHI 161300Z NIL=
ZPX0301 161301@CAELT@GG SLZZYMYT@CAELT@161301 SLLPYFYA@CAELT@SABO SLLP 161300@CAELT@METAR SLLP 161300Z VRB02KT 9999 FEW017 13/M01 Q1039 A3069 628.7 HR39@CAELT@P3380 FU NOSIG=@CAELT@METAR SLCO 161300Z 29003KT 9999 BKN080 26/24 Q1012 A2991 985.4 HR87@CAELT@METAR SLRY 161300Z 34006KT 9999 NSC 31/24 Q1009 A2982 HR65 CI@CAELT@RWY NML=METAR SLRQ 161300Z 00000KT 9999 FEW080 SCT200 30/25 Q1010 A2984986.5 HR73=METAR SLAP 161300Z 36008KT 9999 SCT025 24/15 Q1018 A3007 859.0 HR58AC=METAR SLSB 161300Z 00000KT 9999 BKN020 30/25 Q1011 A2988 HR76 RWY NMLMETAR SLOR 161300Z 36007KT 9999 FEW017 14/01 Q1035 A3058 656.3 HR40FU S/SW/NW=METAR SLUY 161300Z 31004KT 9999 NSC 10/M12 Q1034 A3056 658.8HR21 CI=
ZPX0327 161350@CAELT@GG SLZZYMYT@CAELT@161349 SLPSZTZX@CAELT@SABO SLPS 161400@CAELT@METAR SLPS 161400Z 27005KT 9999 NSC 31/24 Q1011 A2986 HR67 CI=@CAELT@
ZPX0329 161352@CAELT@GG SLZZYMYT@CAELT@161351 SLETYMYC@CAELT@SABO SLET 161400@CAELT@METAR SLET 161400Z 18006KT 9999 SCT020 FEW030CB OVC070 26/20 Q1014@CAELT@A2995 HR69 CB W/NW NOSIG=@CAELT@
ZPX0330 161354@CAELT@GG SLZZYMYT@CAELT@161354 SLSAYGYS@CAELT@SABO SLSA 161400@CAELT@METAR SLSA 161400Z 34010KT 9999 FEW017 BKN200 31/25 Q1011 A2986 HR68=@CAELT@
ZPX0331 161354@CAELT@GG SLZZYMYT@CAELT@161354 SLSBYSYX@CAELT@SABO SLSB 161400@CAELT@METAR SLSB 161400Z 04004KT 9999 BKN020 31/24 Q1012 A2989 HR66 RWY NML=@CAELT@
ZPX0332 161354@CAELT@GG SLZZYMYT@CAELT@161353 SLRBYGYS@CAELT@SABO SLRB 161400@CAELT@METAR SLRB 161400Z 00000KT 9999 NSC 30/23 Q1014 A2994 HR65 CI RWY NML=@CAELT@
ZPX0333 161354@CAELT@GG SLZZYMYT@CAELT@161355 SLRQYSYX@CAELT@SABO SLRQ 161400@CAELT@METAR SLRQ 161400Z 00000KT 9999 FEW017 SCT200 32/25 Q1011 A2986 986.9@CAELT@HR63 AC=@CAELT@
ZPX0334 161355@CAELT@GG SLZZYMYT@CAELT@161355 SLVRYGYZ@CAELT@SABO SLVR 161400@CAELT@METAR SLVR 161400Z 16011KT 9999 SCT023 OVC070 26/20 Q1014 A2995 HR70@CAELT@NOSIG=@CAELT@
ZPX0335 161355@CAELT@GG SLZZYMYT@CAELT@161355 SLCOYGYZ@CAELT@SABO SLCO 161400@CAELT@METAR SLCO 161400Z 35008KT 9999 SCT090 28/24 Q1013 A2992 985.8 HR78=@CAELT@
ZPX0337 161355@CAELT@GG SLZZYMYT@CAELT@161355 SLCAYGYS@CAELT@SABO SLCA 161400@CAELT@METAR SLCA 161400Z 00000KT 9999 BKN010 OVC070 21/18 Q1018 A3006 HR83@CAELT@RWY HUM OPR=@CAELT@
ZPX0338 161356@CAELT@GG SLZZYMYT@CAELT@161355 SLORYGYZ@CAELT@SABO SLOR 161400@CAELT@METAR SLOR 161400Z 36005KT 9999 FEW020 16/01 Q1035 A3057 656.1 HR36@CAELT@FU S/SW=@CAELT@
ZPX0339 161356@CAELT@GG SLZZYMYT@CAELT@161355 SLORYGYZ@CAELT@SABO SLOR 161400@CAELT@METAR SLOR 161400Z 36005KT 9999 FEW020 16/01 Q1035 A3057 656.1 HR36@CAELT@FU S/SW=@CAELT@
ZPX0340 161356@CAELT@GG SLZZYMYT@CAELT@161355 SLLPYFYA@CAELT@SABO SLRY 161400@CAELT@METAR SLRY 161400Z 34010KT 9999 FEW020 BKN200 33/23 Q1010 A2985 HR58@CAELT@RWY NML=@CAELT@
ZPX0342 161356@CAELT@GG SLZZYMYT@CAELT@161355 SLTJYGYZ@CAELT@SABO SLTJ 161400@CAELT@METAR SLTJ 161400Z 15005KT 9999 FEW015 BKN020 OVC070 18/12 Q1021@CAELT@A3017 816.2 HR69 SH/SW=@CAELT@
ZPX0345 161357@CAELT@GG SLZZYMYT@CAELT@161357 SLUYYGYS@CAELT@SABO SLUY 161400@CAELT@METAR SLUY 161400Z 32011KT 9999 NSC 13/M11 Q1034 A3056 658.8@CAELT@HR18=@CAELT@
ZPX0346 161357@CAELT@GG SLZZYMYT@CAELT@161356 SLAGYSYX@CAELT@SABO SLAG 161400@CAELT@METAR SLAG 161400Z 00000KT 7000 FEW005 SCT010 OVC070 21/18 Q1020@CAELT@A3013 892.2 HR82 VIS RED ST BAJOS N/NE/S/SW/W/NW=@CAELT@
ZPX0348 161357@CAELT@GG SLZZYMYT@CAELT@161357 SLCBYGYZ@CAELT@SABO SLCB 161400@CAELT@METAR SLCB 161400Z 20004KT 9999 FEW036 25/06 Q1024 A3026 751.1 HR30@CAELT@FU CI NOSIG=@CAELT@
ZPX0349 161357@CAELT@GG SLZZYMYT@CAELT@161357 SLTRYGYZ@CAELT@SABO SLTR 161400@CAELT@METAR SLTR 161400Z 33008KT 9999 FEW020 BKN200 32/25 Q1012 A2989@CAELT@993.8 HR66 NOSIG=@CAELT@
ZPX0350 161357@CAELT@GG SLZZYMYT@CAELT@161358 SLLPYGYZ@CAELT@SABO SLLP 161400@CAELT@METAR SLLP 161400Z 24004KT 9999 FEW023 SCT200 15/M05 Q1039 A3069@CAELT@628.7 HR26 P4053 FU NOSIG=@CAELT@
ZPX0352 161358@CAELT@GG SLZZYMYT@CAELT@161358 SLLPYFYA@CAELT@SABO SLLP 161400@CAELT@METAR SLLP 161400Z 24004KT 9999 FEW023 SCT200 15/M05 Q1039 A3069@CAELT@628.7 HR26 P4053 FU NOSIG=@CAELT@METAR SLCO 161400Z 35008KT 9999 SCT090 28/24 Q1013 A2992 985.8@CAELT@HR78=@CAELT@METAR SLRY 161400Z 34010KT 9999 FEW020 BKN200 33/23 Q1010 A2985 HR58RWY NML=METAR SLRQ 161400Z 00000KT 9999 FEW017 SCT200 32/25 Q1011 A2986986.9 HR63 AC=METAR SLAP 161400Z 36005KT 9999 SCT025 27/17 Q1018 A3008 859.2 HR56AC=METAR SLSB 161400Z 04004KT 9999 BKN020 31/24 Q1012 A2989 HR66METAR SLOR 161400Z 36005KT 9999 FEW020 16/01 Q1035 A3057 656.1HR36 FU S/SW=METAR SLUY 161400Z 32011KT 9999 NSC 13/M11 Q1034 A3056 658.8HR18=
ZPX0353 161358@CAELT@GG SLZZYMYT@CAELT@161358 SLTRYGYS@CAELT@SABO SLTR 161400@CAELT@METAR SLTR 161400Z 33008KT 9999 FEW020 BKN200 32/25 Q1012 A2989@CAELT@993.8 HR66 NOSIG=@CAELT@METAR SLGM 161400Z 32004KT 9999 FEW008 SCT020 FEW023CB BKN080 27/24@CAELT@Q1012 A2991 HR87 CB S=@CAELT@METAR SLRI 161400Z 00000KT 9999 SCT015 FEW020CB BKN080 27/24 Q1013A2994 HR81 CB NE/E=METAR SLJO 161400Z NIL=METAR SLRA 161400Z 35006KT 9999 BKN080 28/24 Q1011 A2987 HR77RWY NML=METAR SLMG 161400Z 32006KT 9999 BKN080 29/24 Q1011 A2987 HR77RWY HUM OPR=METAR SLBU 161400Z 36004KT 9999 SCT020 BKN080 29/25 Q1011 A2986 HR78METAR SLSA 161400Z 34010KT 9999 FEW017 BKN200 31/25 Q1011 A2986 HR68=METAR SLSR 161400Z 34006KT 8000 FEW017 BKN200 32/24 Q1010 A2984 HR66FU RWY NML=METAR SLSM 161400Z 33006KT 9999 FEW017 SCT200 31/25 Q1012 A2989 HR70
ZPX0354 161359@CAELT@GG SLZZYMYT@CAELT@161359 SLCBYGYS@CAELT@SABO SLCB 161400@CAELT@METAR SLCB 161400Z 20004KT 9999 FEW036 25/06 Q1024 A3026 751.1 HR30@CAELT@FU CI NOSIG=@CAELT@METAR SLAL 161400Z 35013KT 9999 BKN015 17/08 Q1030 A3043 704.5 HR57=@CAELT@METAR SLPO 161400Z 05003KT 9999 FEW017 14/01 Q1037 A3062 637.3 HR40@CAELT@METAR SLAG 161400Z 00000KT 7000 FEW005 SCT010 OVC070 21/18 Q1020A3013 892.2 HR82 VIS RED ST BAJOS N/NE/S/SW/W/NW=METAR SLVM 161400Z 18005KT 1500 DZ BKN003 OVC070 21/21 Q1016 A3003HR100 ST BAJOS TODAS DIRECC=METAR SLTJ 161400Z 15005KT 9999 FEW015 BKN020 OVC070 18/12 Q1021A3017 816.2 HR69 SH/SW=METAR SLYA 161400Z 21006KT 6000 VCSH SCT008 BKN015 OVC070 21/20 Q1016A3003 941.4 HR96 SH N/NE/SW/W/NW=METAR SLBJ 161400Z NIL=METAR SLHI 161400Z NIL=
ZPX0355 161359@CAELT@GG SLZZYMYT@CAELT@161359 SLVRYFYC@CAELT@SABO SLVR 161400@CAELT@METAR SLVR 161400Z 16011KT 9999 SCT023 OVC070 26/20 Q1014 A2995 HR70@CAELT@NOSIG=@CAELT@METAR SLET 161400Z 18006KT 9999 SCT020 FEW030CB OVC070 26/20 Q1014@CAELT@A2995 HR69 CB W/NW NOSIG=@CAELT@METAR SLAS 161400Z 36006KT 9999 FEW020 BKN200 30/24 Q1014 A2994 HR72RWY NML=METAR SLJV 161400Z 00000KT 9999 BKN020 26/23 Q1013 A2991 HR83 RWY NMLMETAR SLCP 161400Z 27004KT 9999 SCT017 OVC200 28/23 Q1016 A3000 HR74METAR SLSI 161400Z 33006KT 9999 NSC 31/22 Q1012 A2988 HR63 CI RWY NMLMETAR SLTI 161400Z 00000KT 9999 NSC 32/22 Q1015 A2997 HR56 CI RWY NMLMETAR SLJE 161400Z 00000KT 9999 FEW017 BKN200 34/24 Q1015 A2997 HR56METAR SLVG 161400Z NIL=METAR SLRB 161400Z 00000KT 9999 NSC 30/23 Q1014 A2994 HR65 CI RWY NMLMETAR SLPS 161400Z 27005KT 9999 NSC 31/24 Q1011 A2986 HR67 CI=METAR SLCA 161400Z 00000KT 9999 BKN010 OVC070 21/18 Q1018 A3006 HR83RWY HUM OPR=
ZPX0381 161451@CAELT@GG SLZZYMYT@CAELT@161451 SLPSYGYS@CAELT@SABO SLPS 161500@CAELT@METAR SLPS 161500Z 27004KT 9999 SCT070 BKN200 33/25 Q1011 A2986 HR64=@CAELT@
ZPX0383 161454@CAELT@GG SLZZYMYT@CAELT@161454 SLSBYSYX@CAELT@SABO SLSB 161500@CAELT@METAR SLSB 161500Z 35004KT 9999 SCT020 32/25 Q1012 A2989 HR66 RWY NML=@CAELT@
ZPX0384 161454@CAELT@GG SLZZYMYT@CAELT@161455 SLVRYGYZ@CAELT@SABO SLVR 161500@CAELT@METAR SLVR 161500Z 19008KT 9999 SCT023 BKN070 28/20 Q1013 A2993 HR63@CAELT@NOSIG=@CAELT@
ZPX0385 161454@CAELT@GG SLZZYMYT@CAELT@161454 SLTJYGYZ@CAELT@SABO SLTJ 161500@CAELT@METAR SLTJ 161500Z 15005KT 9999 SCT025 BKN070 20/12 Q1020 A3013 815.3@CAELT@HR61=@CAELT@
ZPX0386 161454@CAELT@GG SLZZYMYT@CAELT@161454 SLSAYGYS@CAELT@SABO SLSA 161500@CAELT@METAR SLSA 161500Z 34012KT 9999 SCT017 BKN200 32/24 Q1011 A2986 HR63=@CAELT@
ZPX0387 161455@CAELT@GG SLZZYMYT@CAELT@161453 SLRBYGYS@CAELT@SABO SLRB 161500@CAELT@METAR SLRB 161500Z 00000KT 9999 FEW020 BKN200 31/23 Q1014 A2994 HR60@CAELT@RWY NML=@CAELT@
ZPX0388 161455@CAELT@GG SLZZYMYT@CAELT@161451 SLETYMYC@CAELT@SABO SLET 161500@CAELT@METAR SLET 161500Z 15012KT 9999 FEW020 BKN070 28/19 Q1013 A2993 HR59@CAELT@NOSIG=@CAELT@
ZPX0389 161456@CAELT@GG SLZZYMYT@CAELT@161455 SLCAYGYS@CAELT@SABO SLCA 161500@CAELT@METAR SLCA 161500Z 00000KT 9999 BKN015 OVC070 21/18 Q1019 A3009 HR81@CAELT@SH SW/W/NW RWY HUM OPR=@CAELT@
ZPX0390 161456@CAELT@GG SLZZYMYT@CAELT@161455 SLRQYSYX@CAELT@SABO SLRQ 161500@CAELT@METAR SLRQ 161500Z 00000KT 9999 SCT017 SCT200 34/26 Q1011 A2986 987.0@CAELT@HR64=@CAELT@
ZPX0392 161456@CAELT@GG SLZZYMYT@CAELT@161455 SLLPYGYZ@CAELT@SABO SLLP 161500@CAELT@METAR SLLP 161500Z 11003KT 9999 FEW023 SCT200 18/M09 Q1038 A3067@CAELT@628.3 HR16 P93// FU NOSIG=@CAELT@
ZPX0393 161457@CAELT@GG SLZZYMYT@CAELT@161456 SLTRYGYZ@CAELT@SABO SLTR 161500@CAELT@METAR SLTR 161500Z 33010KT 9999 FEW020 BKN200 32/25 Q1011 A2988@CAELT@993.4 HR65 NOSIG=@CAELT@
ZPX0395 161457@CAELT@GG SLZZYMYT@CAELT@161457 SLLPYFYA@CAELT@SABO SLRY 161500@CAELT@METAR SLRY 161500Z 34012KT 9999 FEW020 BKN200 34/24 Q1010 A2985 HR56@CAELT@RWY NML=@CAELT@
ZPX0396 161457@CAELT@GG SLZZYMYT@CAELT@161458 SLUYYGYS@CAELT@SABO SLUY 161500@CAELT@METAR SLUY 161500Z 32012KT 9999 NSC 15/M07 Q1034 A3054 658.4@CAELT@HR20=@CAELT@
ZPX0397 161458@CAELT@GG SLZZYMYT@CAELT@161457 SLCBYGYZ@CAELT@SABO SLCB 161500@CAELT@METAR SLCB 161500Z 20003KT 9999 FEW036 27/07 Q1023 A3023 750.3 HR29@CAELT@FU CI NOSIG=@CAELT@
ZPX0398 161458@CAELT@GG SLZZYMYT@CAELT@161457 SLTRYGYS@CAELT@SABO SLTR 161500@CAELT@METAR SLTR 161500Z 33010KT 9999 FEW020 BKN200 32/25 Q1011 A2988@CAELT@993.4 HR65 NOSIG=@CAELT@METAR SLGM 161500Z 34004KT 9999 SCT020 FEW023CB BKN080 28/24 Q1012@CAELT@A2991 HR82 CB S/SW=@CAELT@METAR SLRI 161500Z 00000KT 9999 SCT017 FEW020CB BKN080 29/24 Q1013A2994 HR74 CB NE/E/S=METAR SLJO 161500Z NIL=METAR SLRA 161500Z 35006KT 9999 BKN080 30/24 Q1011 A2988 HR71 RWYNML=METAR SLMG 161500Z 32008KT 9999 BKN080 29/24 Q1011 A2988 HR74 RWYMETAR SLBU 161500Z 32004KT 9999 FEW017 BKN080 30/25 Q1010 A2985HR74 RWY NML=METAR SLSA 161500Z 34012KT 9999 SCT017 BKN200 32/24 Q1011 A2986 HR63=METAR SLSR 161500Z 34006KT 8000 SCT017 BKN200 33/25 Q1011 A2986HR63 FU RWY NML=METAR SLSM 161500Z 30006KT 9999 FEW017 SCT200 32/24 Q1012 A2988HR64 RWY NML=
ZPX0400 161458@CAELT@GG SLZZYMYT@CAELT@161457 SLORYGYZ@CAELT@SABO SLOR 161500@CAELT@METAR SLOR 161500Z 03005KT 9999 FEW020 19/02 Q1034 A3055 655.8 HR30=@CAELT@
ZPX0401 161459@CAELT@GG SLZZYMYT@CAELT@161459 SLAGYSYX@CAELT@SABO SLAG 161500@CAELT@METAR SLAG 161500Z 00000KT 9999 FEW005 SCT012 OVC070 21/18 Q1019@CAELT@A3010 891.2 HR82 ST BAJOS N/NE=@CAELT@
ZPX0402 161459@CAELT@GG SLZZYMYT@CAELT@161459 SLCOYGYZ@CAELT@SABO SLCO 161500@CAELT@METAR SLCO 161500Z 35008KT 9999 SCT023 BKN080 30/24 Q1013 A2992 985.6@CAELT@HR70=@CAELT@
ZPX0404 161500@CAELT@GG SLZZYMYT@CAELT@161459 SLLPYFYA@CAELT@SABO SLLP 161500@CAELT@METAR SLLP 161500Z 11003KT 9999 FEW023 SCT200 18/M09 Q1038 A3067@CAELT@628.3 HR16 P93// FU NOSIG=@CAELT@METAR SLCO 161500Z 35008KT 9999 SCT023 BKN080 30/24 Q1013 A2992@CAELT@985.6 HR70=@CAELT@METAR SLRY 161500Z 34012KT 9999 FEW020 BKN200 34/24 Q1010 A2985 HR56RWY NML=METAR SLRQ 161500Z 00000KT 9999 SCT017 SCT200 34/26 Q1011 A2986987.0 HR64=METAR SLAP 161500Z 00000KT 9999 FEW025 28/17 Q1018 A3007 859.0 HR52AC/CI=METAR SLSB 161500Z 35004KT 9999 SCT020 32/25 Q1012 A2989 HR66METAR SLOR 161500Z 03005KT 9999 FEW020 19/02 Q1034 A3055 655.8 HR30=METAR SLUY 161500Z 32012KT 9999 NSC 15/M07 Q1034 A3054 658.4HR20=
ZPX0405 161501@CAELT@GG SLZZYMYT@CAELT@161500 SLCBYGYS@CAELT@SABO SLCB 161500@CAELT@METAR SLCB 161500Z 20003KT 9999 FEW036 27/07 Q1023 A3023 750.3 HR29@CAELT@FU CI NOSIG=@CAELT@METAR SLAL 161500Z 36018KT 9999 SCT017 18/07 Q1029 A3041 704.1 HR50=@CAELT@METAR SLPO 161500Z 06004KT 9999 FEW017 15/01 Q1036 A3059 636.7 HR38=@CAELT@METAR SLAG 161500Z 00000KT 9999 FEW005 SCT012 OVC070 21/18 Q1019A3010 891.2 HR82 ST BAJOS N/NE=METAR SLVM 161500Z 00000KT 9999 FEW008 BKN015 OVC070 23/21 Q1016A3000 HR88=METAR SLTJ 161500Z 15005KT 9999 SCT025 BKN070 20/12 Q1020 A3013 815.3HR61=METAR SLYA 161500Z 00000KT 9999 SCT008 BKN015 OVC070 21/20 Q1015A3000 940.4 HR93=METAR SLBJ 161500Z NIL=METAR SLHI 161500Z NIL=
ZPX0433 161552@CAELT@GG SLZZYMYT@CAELT@161552 SLPSYGYS@CAELT@SABO SLPS 161600@CAELT@METAR SLPS 161600Z 00000KT 9999 SCT017 BKN200 34/25 Q1010 A2983 HR60=@CAELT@
ZPX0434 161552@CAELT@GG SLZZYMYT@CAELT@161552 SLETYMYC@CAELT@SABO SLET 161600@CAELT@METAR SLET 161600Z 12006KT 9999 FEW020 BKN070 29/19 Q1013 A2991 HR56@CAELT@NOSIG=@CAELT@
ZPX0436 161553@CAELT@GG SLZZYMYT@CAELT@161553 SLRBYGYS@CAELT@SABO SLRB 161600@CAELT@METAR SLRB 161600Z 00000KT 9999 FEW020 SCT200 33/22 Q1013 A2991 HR53@CAELT@RWY NML=@CAELT@
ZPX0437 161555@CAELT@GG SLZZYMYT@CAELT@161555 SLVRYGYZ@CAELT@SABO SLVR 161600@CAELT@METAR SLVR 161600Z 18007KT 9999 SCT023 BKN070 29/21 Q1012 A2991 HR61@CAELT@CI NOSIG=@CAELT@
ZPX0438 161555@CAELT@GG SLZZYMYT@CAELT@161555 SLRQYSYX@CAELT@SABO SLRQ 161600@CAELT@METAR SLRQ 161600Z 36005KT 9999 BKN017 FEW020CB SCT200 35/26 Q1010@CAELT@A2983 986.1 HR59 CB SE/W=@CAELT@
ZPX0439 161555@CAELT@GG SLZZYMYT@CAELT@161555 SLORYGYZ@CAELT@SABO SLOR 161600@CAELT@METAR SLOR 161600Z 26009KT 9999 FEW020 22/00 Q1034 A3055 655.5 HR24=@CAELT@
ZPX0440 161555@CAELT@GG SLZZYMYT@CAELT@161555 SLUYYGYS@CAELT@SABO SLUY 161600@CAELT@METAR SLUY 161600Z 31016KT 9999 NSC 16/M08 Q1034 A3052 657.9@CAELT@HR18=@CAELT@
ZPX0441 161555@CAELT@GG SLZZYMYT@CAELT@161555 SLCAYGYS@CAELT@SABO SLCA 161600@CAELT@METAR SLCA 161600Z 36003KT 9999 BKN023 OVC070 22/18 Q1017 A3003 HR80@CAELT@RWY NML=@CAELT@
ZPX0442 161555@CAELT@GG SLZZYMYT@CAELT@161555 SLSBYSYX@CAELT@SABO SLSB 161600@CAELT@METAR SLSB 161600Z 34004KT 8000 VCSH SCT020 FEW023CB 34/25 Q1010@CAELT@A2985 HR58 CB/SH N NE RWY NML=@CAELT@
ZPX0443 161555@CAELT@GG SLZZYMYT@CAELT@161555 SLLPYFYA@CAELT@SABO SLRY 161600@CAELT@METAR SLRY 161600Z 34010KT 9999 SCT030 BKN200 35/24 Q1010 A2985 HR54@CAELT@RWY NML=@CAELT@
ZPX0444 161556@CAELT@GG SLZZYMYT@CAELT@161555 SLAGYSYX@CAELT@SABO SLAG 161600@CAELT@METAR SLAG 161600Z 18005KT 9999 FEW010 SCT015 OVC070 23/18 Q1018@CAELT@A3007 890.3 HR75=@CAELT@
ZPX0445 161556@CAELT@GG SLZZYMYT@CAELT@161556 SLCOYGYZ@CAELT@SABO SLCO 161600@CAELT@METAR SLCO 161600Z 34006KT 9999 SCT023 BKN080 31/25 Q1012 A2989 984.6@CAELT@HR70=@CAELT@
ZPX0446 161557@CAELT@GG SLZZYMYT@CAELT@161554 SLSAYGYS@CAELT@SABO SLSA 161600@CAELT@METAR SLSA 161600Z 32012KT 9999 BKN017 BKN200 33/24 Q1010 A2985 HR60=@CAELT@
ZPX0447 161557@CAELT@GG SLZZYMYT@CAELT@161557 SLTRYGYZ@CAELT@SABO SLTR 161600@CAELT@METAR SLTR 161600Z 33012KT 9999 SCT020 BKN200 33/25 Q1010 A2985@CAELT@992.4 HR61 NOSIG=@CAELT@
ZPX0448 161557@CAELT@GG SLZZYMYT@CAELT@161557 SLTJYGYZ@CAELT@SABO SLTJ 161600@CAELT@METAR SLTJ 161600ZS 19004KT 9999 SCT025 BKN070 22/14 Q1018 A3009 814.@CAELT@0 HR59=@CAELT@
ZPX0449 161557@CAELT@GG SLZZYMYT@CAELT@161557 SLTRYGYS@CAELT@SABO SLTR 161600@CAELT@METAR SLTR 161600Z 33012KT 9999 SCT020 BKN200 33/25 Q1010 A2985@CAELT@992.4 HR61 NOSIG=@CAELT@METAR SLGM 161600Z 31004KT 8000 VCSH SCT020 FEW023CB BKN080 28/24@CAELT@Q1012 A2990 HR78 CB/SH S=@CAELT@METAR SLRI 161600Z 32006KT 9999 FEW017 FEW020CB BKN080 30/24 Q1013A2993 HR73 CB NE/NW=METAR SLJO 161600Z NIL=METAR SLRA 161600Z 35006KT 9999 FEW020 BKN080 33/24 Q1011 A2988 HR62RWY NML=METAR SLMG 161600Z 34004KT 9999 FEW017 BKN080 BKN200 30/25 Q1011A2987 HR73 RWY NML=METAR SLBU 161600Z 32004KT 9999 FEW017 BKN080 31/25 Q1010 A2983 HR71METAR SLSA 161600Z 32012KT 9999 BKN017 BKN200 33/24 Q1010 A2985 HR60=METAR SLSR 161600Z 34006KT 8000 SCT017 BKN200 33/25 Q1010 A2984 HR63FU RWY NML=METAR SLSM 161600Z 30006KT 9999 SCT017 BKN200 33/25 Q1011 A2985 HR62
ZPX0450 161557@CAELT@GG SLZZYMYT@CAELT@161557 SLCBYGYZ@CAELT@SABO SLCB 161600@CAELT@METAR SLCB 161600Z 13008KT 9999 FEW036 FEW040CB 27/07 Q1022 A3019 749@CAELT@.4 HR27 CB SW/NW FU CI NOSIG=@CAELT@
ZPX0452 161557@CAELT@GG SLZZYMYT@CAELT@161558 SLLPYGYZ@CAELT@SABO SLLP 161600@CAELT@METAR SLLP 161600Z 26007KT 220V310 9999 FEW023 SCT200 18/M09 Q1037@CAELT@A3064 627.7 HR15 P94// FU NOSIG=@CAELT@
ZPX0453 161558@CAELT@GG SLZZYMYT@CAELT@161558 SLLPYFYA@CAELT@SABO SLLP 161600@CAELT@METAR SLLP 161600Z 26007KT 220V310 9999 FEW023 SCT200 18/M09 Q1037@CAELT@A3064 627.7 HR15 P94// FU NOSIG=@CAELT@METAR SLCO 161600Z 34006KT 9999 SCT023 BKN080 31/25 Q1012 A2989@CAELT@984.6 HR70=@CAELT@METAR SLRY 161600Z 34010KT 9999 SCT030 BKN200 35/24 Q1010 A2985HR54 RWY NML=METAR SLRQ 161600Z 36005KT 9999 BKN017 FEW020CB SCT200 35/26 Q1010A2983 986.1 HR59 CB SE/W=METAR SLAP 161600Z 18008KT 9999 SCT025 27/18 Q1018 A3006 858.6 HR56AC/CI=METAR SLSB 161600Z 34004KT 8000 VCSH SCT020 FEW023CB 34/25 Q1010A2985 HR58 CB/SH N NE RWY NML=METAR SLOR 161600Z 26009KT 9999 FEW020 22/00 Q1034 A3055 655.5 HR24=METAR SLUY 161600Z 31016KT 9999 NSC 16/M08 Q1034 A3052 657.9HR18=
ZPX0454 161559@CAELT@GG SLZZYMYT@CAELT@161558 SLVRYFYC@CAELT@SABO SLVR 161600@CAELT@METAR SLVR 161600Z 18007KT 9999 SCT023 BKN070 29/21 Q1012 A2991 HR61@CAELT@CI NOSIG=@CAELT@METAR SLET 161600Z 12006KT 9999 FEW020 BKN070 29/19 Q1013 A2991 HR56@CAELT@NOSIG=@CAELT@METAR SLAS 161600Z 36006KT 9999 BKN020 OVC200 33/24 Q1013 A2991 HR62RWY NML=METAR SLCP 161600Z 27004KT 9999 BKN017 OVC200 31/23 Q1014 A2994 HR62METAR SLSI 151600Z 33005KT 9999 SCT017 33/22 Q1011 A2985 HR52 RWY NMLMETAR SLRB 161600Z 00000KT 9999 FEW020 SCT200 33/22 Q1013 A2991 HR53METAR SLPS 161600Z 00000KT 9999 SCT017 BKN200 34/25 Q1010 A2983 HR60=METAR SLCA 161600Z 36003KT 9999 BKN023 OVC070 22/18 Q1017 A3003 HR80
ZPX0457 161601@CAELT@GG SLZZYMYT@CAELT@161600 SLCBYGYS@CAELT@SABO SLCB 161600@CAELT@METAR SLCB 161600Z 13008KT 9999 FEW036 FEW040CB 27/07 Q1022 A3019@CAELT@749.4 HR27 CB SW/NW FU CI NOSIG=@CAELT@METAR SLAL 161600Z 34011KT 9999 SCT020 19/07 Q1028 A3037 703.2 HR44=@CAELT@METAR SLPO 161600Z 05007KT 9999 FEW020 17/01 Q1035 A3056 636.0 HR34=@CAELT@METAR SLAG 161600Z 18005KT 9999 FEW010 SCT015 OVC070 23/18 Q1018A3007 890.3 HR75=METAR SLVM 161600Z 00000KT 9999 BKN012 OVC070 23/21 Q1014 A2997 HR86=METAR SLTJ 161600Z 19004KT 9999 SCT025 BKN070 22/14 Q1018 A3009814.0 HR59=METAR SLYA 161600Z 00000KT 9999 BKN015 OVC070 22/20 Q1015 A2997 939.6HR86=METAR SLBJ 161600Z NIL=METAR SLHI 161600Z NIL=
ZPX0485 161652@CAELT@GG SLZZYMYT@CAELT@161644 SLETYMYC@CAELT@SABO SLET 161700@CAELT@METAR SLET 161700Z 12005KT 9999 FEW020 SCT200 31/19 Q1011 A2986 HR51@CAELT@NOSIG=@CAELT@
ZPX0486 161654@CAELT@GG SLZZYMYT@CAELT@161654 SLLPYGYZ@CAELT@SABO SLLP 161700@CAELT@METAR SLLP 161700Z 28006KT 9999 FEW023 FEW025CB SCT200 18/M10 Q1036@CAELT@A3060 626.8 HR14 P1784 CB/SH NE/NW NOSIG=@CAELT@
ZPX0487 161654@CAELT@GG SLZZYMYT@CAELT@161653 SLPSYGYS@CAELT@SABO SLPS 161700@CAELT@METAR SLPS 161700Z 09004KT 9999 SCT017 BKN200 35/25 Q1009 A2980 HR58=@CAELT@
ZPX0488 161654@CAELT@GG SLZZYMYT@CAELT@161654 SLSBYSYX@CAELT@SABO SLSB 161700@CAELT@METAR SLSB 161700Z 34004KT 8000 VCSH SCT020 FEW023CB 34/25 Q1009@CAELT@A2980 HR57 CB/SH N NE RWY NML=@CAELT@
ZPX0489 161654@CAELT@GG SLZZYMYT@CAELT@161655 SLORYGYZ@CAELT@SABO SLOR 161700@CAELT@METAR SLOR 161700Z 25007KT 9999 FEW020 22/M03 Q1033 A3053 655.1 HR18=@CAELT@
ZPX0490 161654@CAELT@GG SLZZYMYT@CAELT@161653 SLRBYGYS@CAELT@SABO SLRB 161700@CAELT@METAR SLRB 161700Z 00000KT 9999 SCT020 34/22 Q1011 A2985 HR48 RWY NML=@CAELT@
ZPX0491 161654@CAELT@GG SLZZYMYT@CAELT@161654 SLSAYGYS@CAELT@SABO SLSA 161700@CAELT@METAR SLSA 161700Z 34010KT 8000 VCSH BKN017 FEW023CB BKN200 34/25@CAELT@Q1009 A2982 HR60 CB/SH N/NW=@CAELT@
ZPX0492 161654@CAELT@GG SLZZYMYT@CAELT@161655 SLVRYGYZ@CAELT@SABO SLVR 161700@CAELT@METAR SLVR 161700Z 12005KT 9999 SCT023 BKN200 30/21 Q1011 A2988 HR59@CAELT@AC NOSIG=@CAELT@
ZPX0493 161655@CAELT@GG SLZZYMYT@CAELT@161655 SLCOYGYZ@CAELT@SABO SLCO 161700@CAELT@METAR SLCO 161700Z 35008KT 9999 SCT023 FEW025CB SCT080 33/25 Q1010@CAELT@A2982 982.6 HR63 CB/N/NE CI=@CAELT@
ZPX0494 161656@CAELT@GG SLZZYMYT@CAELT@161656 SLTJYGYZ@CAELT@SABO SLTJ 161700@CAELT@METAR SLTJ 1617000Z 15008KT 9999 SCT027 SCT070 23/13 Q1017 A3005 812.@CAELT@8 HR54=@CAELT@
ZPX0495 161656@CAELT@GG SLZZYMYT@CAELT@161656 SLAGYSYX@CAELT@SABO SLAG 161700@CAELT@METAR SLAG 161700Z 00000KT 9999 SCT015 BKN070 23/18 Q1016 A3002 888.9@CAELT@HR74=@CAELT@
ZPX0496 161656@CAELT@GG SLZZYMYT@CAELT@161655 SLRQYSYX@CAELT@SABO SLRQ 161700@CAELT@METAR SLRQ 161700Z 36004KT 9999 TS BKN017 FEW020CB SCT200 34/25 Q1009@CAELT@A2979 984.9 HR60 TS W CB SW/W/NW=@CAELT@
ZPX0497 161657@CAELT@GG SLZZYMYT@CAELT@161657 SLTRYGYZ@CAELT@SABO SLTR 161700@CAELT@METAR SLTR 161700Z 30012KT 9999 SCT020 FEW023CB BKN200 34/24@CAELT@Q1009 A2980 990.6 HR57 CB NE/E NOSIG=@CAELT@
ZPX0498 161657@CAELT@GG SLZZYMYT@CAELT@161657 SLTRYGYS@CAELT@SABO SLTR 161700@CAELT@METAR SLTR 161700Z 30012KT 9999 SCT020 FEW023CB BKN200 34/24 Q1009@CAELT@A2980 990.6 HR57 CB NE/E NOSIG=@CAELT@METAR SLGM 161700Z 02006KT 9999 SCT017 FEW020CB BKN080 30/25 Q1011@CAELT@A2986 HR71 CB E=@CAELT@METAR SLRI 161700Z 36006KT 9999 SCT017 FEW020CB BKN080 30/24 Q1012A2989 HR73 CB NE=METAR SLJO 161700Z NIL=METAR SLRA 161700Z 35008KT 8000 VCSH FEW020 FEW023CB BKN080 33/24Q1010 A2985 HR60 CB/SH SE RWY NML=METAR SLMG 161700Z 34008KT 9999 FEW017 BKN200 32/24 Q1010 A2984 HR64RWY NML=METAR SLBU 161700Z 32006KT 9999 SCT017 BKN200 32/25 Q1009 A2980 HR65METAR SLSA 161700Z 34010KT 8000 VCSH BKN017 FEW023CB BKN200 34/25Q1009 A2982 HR60 CB/SH N/NW=METAR SLSR 161700Z 34010KT 8000 SCT017 BKN200 34/24 Q1008 A2978 HR56FU RWY NML=METAR SLSM 161700Z 33004KT 9999 SCT017 BKN200 33/24 Q1009 A2980 HR59
ZPX0499 161657@CAELT@GG SLZZYMYT@CAELT@161657 SLCBYGYZ@CAELT@SABO SLCB 161700@CAELT@METAR SLCB 161700Z 23007KT 9999 FEW036 FEW040CB 30/06 Q1020 A3014 748@CAELT@.1 HR22 CB SW/W FU CI NOSIG=@CAELT@
ZPX0502 161658@CAELT@GG SLZZYMYT@CAELT@161658 SLUYYGYS@CAELT@SABO SLUY 161700@CAELT@METAR SLUY 161700Z 32018KT 9999 NSC 17/M08 Q1032 A3050 657.2@CAELT@HR17=@CAELT@
ZPX0503 161659@CAELT@GG SLZZYMYT@CAELT@161658 SLCBYGYS@CAELT@SABO SLCB 161700@CAELT@METAR SLCB 161700Z 23007KT 9999 FEW036 FEW040CB 30/06 Q1020 A3014@CAELT@748.1 HR22 CB SW/W FU CI NOSIG=@CAELT@METAR SLAL 161700Z 02013KT 9999 FEW020 20/06 Q1027 A3033 702.3 HR39=@CAELT@METAR SLPO 161700Z NIL=@CAELT@METAR SLAG 161700Z 00000KT 9999 SCT015 BKN070 23/18 Q1016 A3002 888.9HR74=METAR SLVM 161700Z 00000KT 9999 BKN017 OVC070 25/21 Q1013 A2993 HR79=METAR SLTJ 1617000Z 15008KT 9999 SCT027 SCT070 23/13 Q1017 A3005812.8 HR54=METAR SLYA 161700Z 21006KT 9999 BKN015 OVC070 23/20 Q1014 A2995 938.8HR84 SH E=METAR SLBJ 161700Z NIL=METAR SLHI 161700Z NIL=
ZPX0505 161701@CAELT@GG SLZZYMYT@CAELT@161701 SLCBYGYS@CAELT@SABO SLCB 161700 CCA@CAELT@METAR SLCB 161700Z 23007KT 9999 FEW036 FEW040CB 30/06 Q1020 A3014@CAELT@748.1 HR22 CB SW/W FU CI NOSIG=@CAELT@METAR SLAL 161700Z 02013KT 9999 FEW020 20/06 Q1027 A3033 702.3 HR39=@CAELT@METAR SLPO 161700Z NIL=@CAELT@METAR SLAG 161700Z 00000KT 9999 SCT015 BKN070 23/18 Q1016 A3002 888.9HR74=METAR SLVM 161700Z 00000KT 9999 BKN017 OVC070 25/21 Q1013 A2993 HR79=METAR COR SLTJ 161700Z 15008KT 9999 SCT027 SCT070 23/13 Q1017 A3005812.8 HR54=METAR SLYA 161700Z 21006KT 9999 BKN015 OVC070 23/20 Q1014 A2995 938.8HR84 SH E=METAR SLBJ 161700Z NIL=METAR SLHI 161700Z NIL=
ZPX0506 161701@CAELT@GG SLZZYMYT@CAELT@161701 SLTJYGYZ@CAELT@SABO SLTJ 161700 CCA@CAELT@METAR COR SLTJ 161700Z 15008KT 9999 SCT027 SCT070 23/13 Q1017 A3005@CAELT@812.8 HR54=@CAELT@
ZPX0508 161703@CAELT@GG SLZZYMYT@CAELT@161703 SLVRYFYC@CAELT@SABO SLVR 161700@CAELT@METAR SLVR 161700Z 12005KT 9999 SCT023 BKN200 30/21 Q1011 A2988 HR59@CAELT@AC NOSIG=@CAELT@METAR SLET 161700Z 12005KT 9999 FEW020 SCT200 31/19 Q1011 A2986 HR51@CAELT@NOSIG=@CAELT@METAR SLAS 161700Z 36006KT 9999 BKN020 BKN200 34/24 Q1012 A2989 HR55RWY NML=METAR SLCP 161700Z 27005KT 9999 BKN017 OVC200 32/23 Q1013 A2991 HR59RWY NML =METAR SLSI 161700Z 33008KT 9999 SCT017 35/22 Q1010 A2983 HR42 RWY NMLMETAR SLRB 161700Z 00000KT 9999 SCT020 34/22 Q1011 A2985 HR48 RWY NMLMETAR SLPS 161700Z 09004KT 9999 SCT017 BKN200 35/25 Q1009 A2980 HR58=METAR SLCA 161700Z 00000KT 9999 BKN030 OVC070 24/18 Q1016 A3000 HR69
ZPX0509 161704@CAELT@GG SLZZYMYT@CAELT@161703 SLLPYFYA@CAELT@SABO SLLP 161700@CAELT@METAR SLLP 161700Z 28006KT 9999 FEW023 FEW025CB SCT200 18/M10 Q1036@CAELT@A3060 626.8 HR14 P1784 CB/SH NE/NW NOSIG=@CAELT@METAR SLCO 161700Z 35008KT 9999 SCT023 FEW025CB SCT080 33/25 Q1010@CAELT@A2982 982.6 HR63 CB/N/NE CI=@CAELT@METAR SLRY 161700Z NIL=METAR SLRQ 161700Z 36004KT 9999 TS BKN017 FEW020CB SCT200 34/25Q1009 A2979 984.9 HR60 TS W CB SW/W/NW=METAR SLAP 161700Z 36010KT 9999 SCT025 FEW027CB 22/17 Q1018 A3007858.8 HR75 CB/SH N/NE/NW AC/CI=METAR SLSB 161700Z 34004KT 8000 VCSH SCT020 FEW023CB 34/25 Q1009A2980 HR57 CB/SH N NE RWY NML=METAR SLOR 161700Z 25007KT 9999 FEW020 22/M03 Q1033 A3053 655.1HR18=METAR SLUY 161700Z 32018KT 9999 NSC 17/M08 Q1032 A3050 657.2HR17=
ZPX0510 161705@CAELT@GG SLZZYMYT@CAELT@161705 SLLPYFYA@CAELT@SABO SLRY 161700 RRA@CAELT@METAR RTD SLRY 161700Z 34010KT 9999 SCT020 BKN200 35/24 1010 2983@CAELT@HR54 RWY NML=@CAELT@
ZPX0511 161706@CAELT@GG SLZZYMYT@CAELT@161705 SLLPYFYA@CAELT@SABO SLLP 161700 RRA@CAELT@METAR SLLP 161700Z 28006KT 9999 FEW023 FEW025CB SCT200 18/M10 Q1036@CAELT@A3060 626.8 HR14 P1784 CB/SH NE/NW NOSIG=@CAELT@METAR SLCO 161700Z 35008KT 9999 SCT023 FEW025CB SCT080 33/25 Q1010@CAELT@A2982 982.6 HR63 CB/N/NE CI=@CAELT@METAR RTD SLRY 161700Z 34010KT 9999 SCT020 BKN200 35/24 Q1010 A2983HR54 RWY NML=METAR SLRQ 161700Z 36004KT 9999 TS BKN017 FEW020CB SCT200 34/25Q1009 A2979 984.9 HR60 TS W CB SW/W/NW=METAR SLAP 161700Z 36010KT 9999 SCT025 FEW027CB 22/17 Q1018 A3007858.8 HR75 CB/SH N/NE/NW AC/CI=METAR SLSB 161700Z 34004KT 8000 VCSH SCT020 FEW023CB 34/25 Q1009A2980 HR57 CB/SH N NE RWY NML=METAR SLOR 161700Z 25007KT 9999 FEW020 22/M03 Q1033 A3053 655.1HR18=METAR SLUY 161700Z 32018KT 9999 NSC 17/M08 Q1032 A3050 657.2HR17=
ZPX0530 161752@CAELT@GG SLZZYMYT@CAELT@161751 SLETYMYC@CAELT@SABO SLET 161800@CAELT@METAR SLET 161800Z 08003KT 9999 FEW020 SCT200 30/20 Q1010@CAELT@A2983 HR53 NOSIG=@CAELT@
ZPX0531 161753@CAELT@GG SLZZYMYT@CAELT@161752 SLPSYGYS@CAELT@SABO SLPS 161800@CAELT@METAR SLPS 161800Z 00000KT 9999 SCT017 FEW030CB BKN200 35/25 Q1008@CAELT@A2977 HR56 CB/W/SW=@CAELT@
ZPX0532 161753@CAELT@GG SLZZYMYT@CAELT@161754 SLORYGYZ@CAELT@SABO SLOR 161800@CAELT@METAR SLOR 161800Z 24004KT 9999 FEW023 23/M05 Q1033 A3051 654.6 HR15=@CAELT@
ZPX0533 161754@CAELT@GG SLZZYMYT@CAELT@161755 SLVRYGYZ@CAELT@SABO SLVR 161800@CAELT@METAR SLVR 161800Z VRB02KT 9999 FEW023 SCT200 30/21 Q1010 A2983 HR59@CAELT@NOSIG=@CAELT@
ZPX0534 161754@CAELT@GG SLZZYMYT@CAELT@161754 SLSAYGYS@CAELT@SABO SLSA 161800@CAELT@METAR SLSA 161800Z 34006KT 6000 -TSRA SCT017 FEW023CB BKN200 25/25@CAELT@Q1007 A2976 HR97 CB N/E/W/NW TS W=@CAELT@
ZPX0536 161755@CAELT@GG SLZZYMYT@CAELT@161755 SLAGYSYX@CAELT@SABO SLAG 161800@CAELT@METAR SLAG 161800Z 18003KT 9999 SCT015 OVC070 23/18 Q1015 A2998 887.6@CAELT@HR74=@CAELT@
ZPX0537 161755@CAELT@GG SLZZYMYT@CAELT@161756 SLLPYGYZ@CAELT@SABO SLLP 161800@CAELT@METAR SLLP 161800Z 15008KT 9999 FEW023 FEW025CB SCT200 19/M04 Q1034@CAELT@A3056 625.9 HR21 P1784 CB/SH NE/NW NOSIG=@CAELT@
ZPX0538 161756@CAELT@GG SLZZYMYT@CAELT@161755 SLCBYGYZ@CAELT@SABO SLCB 161800@CAELT@METAR SLCB 161800Z 20009KT 9999 FEW036 FEW040CB SCT200 28/05 Q1019@CAELT@A3010 747.0 HR22 CB SW/W/NW SH W/NW FU AC NOSIG=@CAELT@
ZPX0539 161756@CAELT@GG SLZZYMYT@CAELT@161755 SLLPYFYA@CAELT@SABO SLRY 161800@CAELT@METAR SLRY 161800Z 34008KT 9999 SCT030 BKN200 34/23 Q1008 A2977 HR54@CAELT@RWY NML=@CAELT@
ZPX0540 161756@CAELT@GG SLZZYMYT@CAELT@161756 SLTJYGYZ@CAELT@SABO SLTJ 161800@CAELT@METAR SLTJ 161800Z 11012KT 9999 BKN027 BKN070 23/13 Q1016 A3002 812.1@CAELT@HR55=@CAELT@
ZPX0541 161756@CAELT@GG SLZZYMYT@CAELT@161756 SLTRYGYZ@CAELT@SABO SLTR 161800@CAELT@METAR SLTR 161800Z 30010KT 9999 FEW020 FEW023CB BKN200 34/25 Q1007@CAELT@A2975 989.1 HR57 CB NE NOSIG=@CAELT@
ZPX0542 161757@CAELT@GG SLZZYMYT@CAELT@161756 SLCOYGYZ@CAELT@SABO SLCO 161800@CAELT@METAR SLCO 161800Z 35014KT 6000 VCSH BKN023 FEW025CB 32/26 Q1008@CAELT@A2978 981.2 HR70 CB/SH/N/NE/NW AC/CI=@CAELT@
ZPX0543 161757@CAELT@GG SLZZYMYT@CAELT@161755 SLLPYFYA@CAELT@SABO SLAP 161800@CAELT@METAR SLAP 161800Z 36010KT 9999 SCT025 FEW027CB 21/18 Q1018 A3006@CAELT@HR81 CB/SH N/NE/NW AC CI=@CAELT@
ZPX0544 161757@CAELT@GG SLZZYMYT@CAELT@161756 SLRBYGYS@CAELT@SABO SLRB 161800@CAELT@METAR SLRB 161800Z 00000KT 9999 SCT020 35/21 Q1010 A2983 HR45 RWY NML=@CAELT@
ZPX0545 161757@CAELT@GG SLZZYMYT@CAELT@161756 SLRQYSYX@CAELT@SABO SLRQ 161800@CAELT@METAR SLRQ 161800Z 00000KT 9999 SCT017 FEW020CB BKN200 34/25 Q1007@CAELT@A2975 HR60 CB/SW/W RETS=@CAELT@
ZPX0547 161759@CAELT@GG SLZZYMYT@CAELT@161758 SLCBYGYS@CAELT@SABO SLCB 161800@CAELT@METAR SLCB 161800Z 20009KT 9999 FEW036 FEW040CB SCT200 28/05 Q1019@CAELT@A3010 747.0 HR22 CB SW/W/NW SH W/NW FU AC NOSIG=@CAELT@METAR SLAL 161800Z 01018KT 9999 FEW023 22/05 Q1025 A3027 700.8 HR32=@CAELT@METAR SLPO 161800Z NIL=@CAELT@METAR SLAG 161800Z 18003KT 9999 SCT015 OVC070 23/18 Q1015 A2998 887.6HR74=METAR SLVM 161800Z 00000KT 9999 BKN017 OVC070 26/21 Q1011 A2988 HR75=METAR SLTJ 161800Z 11012KT 9999 BKN027 BKN070 23/13 Q1016 A3002 812.1HR55=METAR SLYA 161800Z 00000KT 9999 BKN015 OVC070 22/20 Q1013 A2992 938.0HR85 SH W/NW=METAR SLBJ 161800Z NIL=METAR SLHI 161800Z NIL=
ZPX0548 161759@CAELT@GG SLZZYMYT@CAELT@161759 SLSBYSYX@CAELT@SABO SLSB 161800@CAELT@METAR SLSB 161800Z 01006KT 8000 VCSH FEW020 FEW030CB BKN200 33/23@CAELT@Q1006 A2973 HR55 CB SH N RWY NML=@CAELT@
ZPX0549 161759@CAELT@GG SLZZYMYT@CAELT@161759 SLCAYGYS@CAELT@SABO SLCA 161800@CAELT@METAR SLCA 161800Z 00000KT 9999 BKN033 BKN070 25/18 Q1014 A2994 HR67@CAELT@RWY NML=@CAELT@
ZPX0551 161800@CAELT@GG SLZZYMYT@CAELT@161800 SLTRYGYS@CAELT@SABO SLTR 161800@CAELT@METAR SLTR 161800Z 30010KT 9999 FEW020 FEW023CB BKN200 34/25 Q1007@CAELT@A2975 989.1 HR57 CB NE NOSIG=@CAELT@METAR SLGM 161800Z 36005KT 9999 SCT017 FEW020CB BKN080 32/24 Q1009@CAELT@A2982 HR63 CB N/NE/E/S=@CAELT@METAR SLRI 161800Z 01010KT 9999 FEW017 FEW020CB SCT080 30/25 Q1009A2982 HR71 CB NE/E/W CI=METAR SLJO 161800Z NIL=METAR SLRA 161800Z 34012KT 5000 TS VCSH SCT020 FEW023CB BKN200 35/23Q1008 A2979 HR51 AC CB/SH S/W/NW TS NW RWY NML=METAR SLMG 161800Z 32010KT 9999 SCT017 FEW023CB BKN200 33/24 Q1009A2980 HR60 CB SW RWY NML=METAR SLBU 161800Z 32006KT 9999 SCT017 BKN200 33/25 Q1008 A2977 HR63RWY NML=METAR SLSA 161800Z 34006KT 6000 -TSRA SCT017 FEW023CB BKN200 25/25Q1007 A2976 HR97 CB N/E/W/NW TS W=METAR SLSR 161800Z 34008KT 8000 SCT017 BKN200 35/24 Q1006 A2972 HR53FU RWY NML=METAR SLSM 161800Z 30004KT 9999 SCT017 BKN200 34/24 Q1007 A2976 HR58
ZPX0552 161801@CAELT@GG SLZZYMYT@CAELT@161800 SLVRYFYC@CAELT@SABO SLVR 161800@CAELT@METAR SLVR 161800Z VRB02KT 9999 FEW023 SCT200 30/21 Q1010 A2983 HR59@CAELT@NOSIG=@CAELT@METAR SLET 161800Z 08003KT 9999 FEW020 SCT200 30/20 Q1010 A2983 HR53@CAELT@METAR SLAS 161800Z 36012KT 9999 BKN020 FEW030CB BKN200 35/23 Q1010@CAELT@A2983 HR50 CB/SE/S RWY NML=METAR SLJV 161800Z 00000KT 9999 SCT020 32/23 Q1009 A2980 HR60 RWY NMLMETAR SLCP 161800Z 31005KT 9999 BKN017 OVC200 32/23 Q1012 A2988 HR59RWY NML=METAR SLSI 161800Z 31006KT 9999 SCT017 35/22 Q1008 A2977 HR42 RWY NMLMETAR SLTI 161800Z 00000KT 9999 SCT020 BKN200 37/22 Q1011 A2985 HR42METAR SLJE 161800Z 32010KT 9999 BKN020 38/22 Q1011 A2985 HR42 RWY NMLMETAR SLVG 161800Z NIL=METAR SLRB 161800Z 00000KT 9999 SCT020 35/21 Q1010 A2983 HR45 RWY NMLMETAR SLPS 161800Z 00000KT 9999 SCT017 FEW030CB BKN200 35/25 Q1008A2977 HR56 CB/W/SW=METAR SLCA 161800Z 00000KT 9999 BKN033 BKN070 25/18 Q1014 A2994 HR67
ZPX0553 161801@CAELT@GG SLZZYMYT@CAELT@161800 SLLPYFYA@CAELT@SABO SLLP 161800@CAELT@METAR SLLP 161800Z 15008KT 9999 FEW023 FEW025CB SCT200 19/M04 Q1034@CAELT@A3056 625.9 HR21 P1784 CB/SH NE/NW NOSIG=@CAELT@METAR SLCO 161800Z 35014KT 6000 VCSH BKN023 FEW025CB 32/26 Q1008@CAELT@A2978 981.2 HR70 CB/SH/N/NE/NW AC/CI=@CAELT@METAR SLRY 161800Z 34008KT 9999 SCT030 BKN200 34/23 Q1008 A2977 HR54RWY NML=METAR SLRQ 161800Z 00000KT 9999 SCT017 FEW020CB BKN200 34/25 Q1007A2975 HR60 CB/SW/W RETS=METAR SLAP 161800Z 36010KT 9999 SCT025 FEW027CB 21/18 Q1018 A3006HR81 CB/SH N/NE/NW AC CI=METAR SLSB 161800Z 01006KT 8000 VCSH FEW020 FEW030CB BKN200 33/23Q1006 A2973 HR55 CB SH N RWY NML=METAR SLOR 161800Z 24004KT 9999 FEW023 23/M05 Q1033 A3051 654.6HR15=
ZPX0574 161852@CAELT@GG SLZZYMYT@CAELT@161851 SLETYMYC@CAELT@SABO SLET 161900@CAELT@METAR SLET 161900Z 08003KT 9999 FEW020 SCT200 32/20 Q1008 A2978 HR50@CAELT@NOSIG=@CAELT@
ZPX0575 161852@CAELT@GG SLZZYMYT@CAELT@161851 SLPSYGYS@CAELT@SABO SLPS 161900@CAELT@METAR SLPS 161900Z 00000KT 6000 TSVCSH BKN017 FEW030CB BKN200 33/25@CAELT@Q1007 A2974 HR65 CB/TS/W/SW SH/S/NE/E=@CAELT@
ZPX0576 161852@CAELT@GG SLZZYMYT@CAELT@161851 SLRBYGYS@CAELT@SABO SLRB 161900@CAELT@METAR SLRB 161900Z 00000KT 9999 SCT020 35/21 Q1009 A2980 HR45 RWY NML=@CAELT@
ZPX0577 161853@CAELT@GG SLZZYMYT@CAELT@161853 SLCAYGYS@CAELT@SABO SLCA 161900@CAELT@METAR SLCA 161900Z 00000KT 9999 BKN036 BKN070 25/18 Q1014 A2994 HR61@CAELT@RWY NML=@CAELT@
ZPX0579 161854@CAELT@GG SLZZYMYT@CAELT@161855 SLSBYSYX@CAELT@SABO SLSB 161900@CAELT@METAR SLSB 161900Z 35006KT 9999 FEW020 BKN200 36/25 Q1005 A2969 HR53@CAELT@RWY NML=@CAELT@
ZPX0580 161854@CAELT@GG SLZZYMYT@CAELT@161855 SLLPYFYA@CAELT@SABO SLRY 161900@CAELT@METAR SLRY 161900Z 00000KT 9999 FEW020 BKN200 32/25 Q1005 A2970 HR65@CAELT@RWY NML=@CAELT@
ZPX0582 161854@CAELT@GG SLZZYMYT@CAELT@161855 SLCOYGYZ@CAELT@SABO SLCO 161900@CAELT@METAR SLCO 161900Z 35009KT 8000 VCSH BKN023 FEW025CB 29/26 Q1008@CAELT@A2978 981.0 HR84 CB/SH/NE/SW/NW AC/CI=@CAELT@
ZPX0583 161855@CAELT@GG SLZZYMYT@CAELT@161855 SLVRYGYZ@CAELT@SABO SLVR 161900@CAELT@METAR SLVR 161900Z 02006KT 9999 FEW023 SCT200 32/21 Q1008 A2979 HR53@CAELT@NOSIG=@CAELT@
ZPX0584 161855@CAELT@GG SLZZYMYT@CAELT@161855 SLLPYGYZ@CAELT@SABO SLLP 161900@CAELT@METAR SLLP 161900Z 03008KT 350V070 9999 FEW023 FEW025CB SCT200@CAELT@18/M00 Q1033 A3053 625.2 HR29 P6784 CB/SH N/E/NW AC NOSIG=@CAELT@
ZPX0586 161855@CAELT@GG SLZZYMYT@CAELT@161855 SLAGYSYX@CAELT@SABO SLAG 161900@CAELT@METAR SLAG 161900Z 00000KT 9999 FEW010 SCT015 OVC070 22/18 Q1014@CAELT@A2996 887.0 HR76 SH S/SW/W=@CAELT@
ZPX0587 161855@CAELT@GG SLZZYMYT@CAELT@161855 SLTJYGYZ@CAELT@SABO SLTJ 161900@CAELT@METAR SLTJ 161900Z 09010KT 9999 SCT027 BKN070 23/13 Q1015 A2999 811.1@CAELT@HR53=@CAELT@
ZPX0588 161856@CAELT@GG SLZZYMYT@CAELT@161856 SLTRYGYZ@CAELT@SABO SLTR 161900@CAELT@METAR SLTR 161900Z 32008KT 9999 FEW020 FEW023CB BKN200 35/25 Q1006@CAELT@A2971 987.6 HR56 CB N NOSIG=@CAELT@
ZPX0589 161857@CAELT@GG SLZZYMYT@CAELT@161856 SLSAYGYS@CAELT@SABO SLSA 161900@CAELT@METAR SLSA 161900Z 32006KT 7000 TS VCSH SCT017 FEW023CB BKN200 24/23@CAELT@Q1006 A2972 HR92 RERA CB/SH E/SE/SW/W TS W=@CAELT@
ZPX0590 161857@CAELT@GG SLZZYMYT@CAELT@161856 SLRQYSYX@CAELT@SABO SLRQ 161900@CAELT@METAR SLRQ 161900Z 00000KT 9999 FEW017 FEW020CB BKN200 34/26 Q1005@CAELT@A2970 HR64 CB/SW/W=@CAELT@
ZPX0591 161858@CAELT@GG SLZZYMYT@CAELT@161857 SLCBYGYZ@CAELT@SABO SLCB 161900@CAELT@METAR SLCB 161900Z 01012G22KT 280V060 9999 TS FEW036 FEW040CB SCT080@CAELT@BKN200 22/05 Q1020 A3014 747.9 HR32 CB ON STN/N/NE/SE/W/NW TS ON STN/@CAELT@N/NE SHW/NW/N TEMPO TSRA=@CAELT@
ZPX0592 161859@CAELT@GG SLZZYMYT@CAELT@161858 SLTRYGYS@CAELT@SABO SLTR 161900@CAELT@METAR SLTR 161900Z 32008KT 9999 FEW020 FEW023CB BKN200 35/25 Q1006@CAELT@A2971 987.6 HR56 CB N NOSIG=@CAELT@METAR SLGM 161900Z 07010KT 8000 VCSH SCT017 FEW020CB BKN200 33/25@CAELT@Q1007 A2975 HR61 AC CB/SH N/NE/E=@CAELT@METAR SLRI 161900Z 04007KT 9999 SCT017 FEW020CB 32/24 Q1008 A2977HR61 CB/NE AC/CI=METAR SLJO 161900Z NIL=METAR SLRA 161900Z 32008KT 8000 TS VCSH FEW020 FEW023CB BKN20032/23 Q1007 A2975 HR61 CB/TS/SH SE/S RWY NML=METAR SLMG 161900Z 32008KT 9999 FEW017 FEW023CB BKN200 33/24 Q1008A2977 HR57 CB SW RWY NML=METAR SLBU 161900Z 32006KT 9999 SCT017 BKN200 34/25 Q1007 A2974HR58 RWY NML=METAR SLSA 161900Z 32006KT 7000 TS VCSH SCT017 FEW023CB BKN200 24/23Q1006 A2972 HR92 RERA CB/SH E/SE/SW/W TS W=METAR SLSR 161900Z 34008KT 8000 SCT017 FEW023CB BKN200 35/23 Q1004A2966 HR49 FU CB N RWY NML=METAR SLSM 161900Z 30004KT 9999 SCT017 BKN200 35/24 Q1005 A2968HR53 RWY NML=
ZPX0593 161859@CAELT@GG SLZZYMYT@CAELT@161858 SLTRYGYS@CAELT@SABO SLTR 161900@CAELT@METAR SLTR 161900Z 32008KT 9999 FEW020 FEW023CB BKN200 35/25 Q1006@CAELT@A2971 987.6 HR56 CB N NOSIG=@CAELT@METAR SLGM 161900Z 07010KT 8000 VCSH SCT017 FEW020CB BKN200 33/25@CAELT@Q1007 A2975 HR61 AC CB/SH N/NE/E=@CAELT@METAR SLRI 161900Z 04007KT 9999 SCT017 FEW020CB 32/24 Q1008 A2977HR61 CB/NE AC/CI=METAR SLJO 161900Z NIL=METAR SLRA 161900Z 32008KT 8000 TS VCSH FEW020 FEW023CB BKN20032/23 Q1007 A2975 HR61 CB/TS/SH SE/S RWY NML=METAR SLMG 161900Z 32008KT 9999 FEW017 FEW023CB BKN200 33/24 Q1008A2977 HR57 CB SW RWY NML=METAR SLBU 161900Z 32006KT 9999 SCT017 BKN200 34/25 Q1007 A2974HR58 RWY NML=METAR SLSA 161900Z 32006KT 7000 TS VCSH SCT017 FEW023CB BKN200 24/23Q1006 A2972 HR92 RERA CB/SH E/SE/SW/W TS W=METAR SLSR 161900Z 34008KT 8000 SCT017 FEW023CB BKN200 35/23 Q1004A2966 HR49 FU CB N RWY NML=METAR SLSM 161900Z 30004KT 9999 SCT017 BKN200 35/24 Q1005 A2968HR53 RWY NML=
ZPX0595 161900@CAELT@GG SLZZYMYT@CAELT@161900 SLLPYFYA@CAELT@SABO SLLP 161900@CAELT@METAR SLLP 161900Z 03008KT 350V070 9999 FEW023 FEW025CB SCT200@CAELT@18/M00 Q1033 A3053 625.2 HR29 P6784 CB/SH N/E/NW AC NOSIG=@CAELT@METAR SLCO 161900Z 35009KT 8000 VCSH BKN023 FEW025CB 29/26 Q1008@CAELT@A2978 981.0 HR84 CB/SH/NE/SW/NW AC/CI=@CAELT@METAR SLRY 161900Z 00000KT 9999 FEW020 BKN200 32/25 Q1005 A2970 HR65RWY NML=METAR SLRQ 161900Z 00000KT 9999 FEW017 FEW020CB BKN200 34/26 Q1005A2970 HR64 CB/SW/W=METAR SLSB 161900Z 35006KT 9999 FEW020 BKN200 36/25 Q1005 A2969 HR53
ZPX0597 161902@CAELT@GG SLZZYMYT@CAELT@161902 SLVRYFYC@CAELT@SABO SLVR 161900@CAELT@METAR SLVR 161900Z 02006KT 9999 FEW023 SCT200 32/21 Q1008 A2979 HR53@CAELT@NOSIG=@CAELT@METAR SLET 161900Z 08003KT 9999 FEW020 SCT200 32/20 Q1008 A2978 HR50@CAELT@METAR SLAS 161900Z 33006KT 9999 BKN020 FEW030CB BKN200 33/22 Q1008@CAELT@A2977HR53 CB/E RWY NML=METAR SLJV 161900Z 00000KT 9999 BKN020 32/23 Q1008 A2977 HR58 RWY NMLMETAR SLCP 161900Z 33005KT 9999 SCT017 OVC200 32/23 Q1010 A2983 HR60RWY NML=METAR SLSI 161900Z 33006KT 9999 SCT017 36/22 Q1007 A2971 HR43 RWY NMLMETAR SLTI 161900Z 00000KT 9999 SCT020 SCT200 37/22 Q1009 A2980 HR42METAR SLJE 161900Z 32012KT 9999 BKN020 39/2 Q1009 A2980 HR41 RWY NML=METAR SLVG 161900Z NIL=METAR SLRB 161900Z 00000KT 9999 SCT020 35/21 Q1009 A2980 HR45 RWY NMLMETAR SLPS 161900Z 00000KT 6000 TSVCSH BKN017 FEW030CB BKN200 33/25Q1007 A2974 HR65 CB/TS/W/SW SH/S/NE/E=METAR SLCA 161900Z 00000KT 9999 BKN036 BKN070 25/18 Q1014 A2994 HR61
ZPX0605 161909@CAELT@GG SLZZYMYT@CAELT@161900 SLCBYGYS@CAELT@SABO SLCB 161900@CAELT@METAR SLCB 161900Z 01012G22KT 280V060 9999 TS FEW036 FEW040CB SCT080@CAELT@BKN200 22/05 Q1020 A3014 747.9 HR32 CB ON STN/N/NE/SE/W/NW TS ON STN/@CAELT@N/NE SHW/NW/N TEMPO TSRA=@CAELT@METAR SLAL 161900Z 35019KT 9999 FEW023 FEW030CB 23/05 Q1023 A3023 699@CAELT@.9 HR31 CB/SW CI=METAR SLPO 161900Z NIL=METAR SLAG 161900Z NIL=METAR SLVM 161900Z NILMETAR SLTJ 161900Z 09010KT 9999 SCT027 BKN070 23/13 Q1015 A2999 811.1HR53=METAR SLYA 161900Z NIL=METAR SLBJ 161900Z NIL=METAR SLHI 161900Z NIL
ZPX0606 161910@CAELT@GG SLZZYMYT@CAELT@161901 SLCBYGYS@CAELT@SABO SLCB 161900@CAELT@METAR SLCB 161900Z 01012G22KT 280V060 9999 TS FEW036 FEW040CB SCT080@CAELT@BKN200 22/05 Q1020 A3014 747.9 HR32 CB ON STN/N/NE/SE/W/NW TS ON STN/@CAELT@N/NE SHW/NW/N TEMPO TSRA=@CAELT@METAR SLAL 161900Z 35019KT 9999 FEW023 FEW030CB 23/05 Q1023 A3023 699@CAELT@.9 HR31 CB/SW CI=METAR SLPO 161900Z NIL=METAR SLAG 161900Z NIL=METAR SLVM 161900Z NIL=METAR SLTJ 161900Z 09010KT 9999 SCT027 BKN070 23/13 Q1015 A2999 811.1HR53=METAR SLYA 161900Z NIL=METAR SLBJ 161900Z NIL=METAR SLHI 161900Z NIL=
ZPX0609 161918@CAELT@GG SLZZYMYT@CAELT@161901 SLCBYGYS@CAELT@SABO SLCB 161900@CAELT@METAR SLCB 161900Z 01012G22KT 280V060 9999 TS FEW036 FEW040CB SCT080@CAELT@BKN200 22/05 Q1020 A3014 747.9 HR32 CB ON STN/N/NE/SE/W/NW TS ON STN/@CAELT@N/NE SHW/NW/N TEMPO TSRA=@CAELT@METAR SLAL 161900Z 35019KT 9999 FEW023 FEW030CB 23/05 Q1023 A3023@CAELT@699.9 HR31 CB/SW CI=METAR SLPO 161900Z NIL=METAR SLAG 161900Z 00000KT 9999 FEW010 SCT015 OVC070 22/18 Q1014A2996 887.0 HR76 SH S/SW/W=METAR SLVM 161900Z NIL=METAR SLTJ 161900Z 09010KT 9999 SCT027 BKN070 23/13 Q1015 A2999 811.1HR53=METAR SLYA 161900Z NIL=METAR SLBJ 161900Z NIL=METAR SLHI 161900Z NIL=
ZPX0623 161951@CAELT@GG SLZZYMYT@CAELT@161950 SLCAYGYS@CAELT@SABO SLCA 162000@CAELT@METAR SLCA 162000Z 18004KT 9999 BKN033 OVC070 25/16 Q1012 A2988 HR60@CAELT@RWY NML=@CAELT@
ZPX0625 161952@CAELT@GG SLZZYMYT@CAELT@161952 SLETYMYC@CAELT@SABO SLET 162000@CAELT@METAR SLET 162000Z 30003KT 9999 FEW020 SCT200 32/20 Q1007 A2974 HR47@CAELT@NOSIG=@CAELT@
ZPX0626 161952@CAELT@GG SLZZYMYT@CAELT@161950 SLRBYGYS@CAELT@SABO SLRB 162000@CAELT@METAR SLRB 162000Z 00000KT 9999 SCT020 35/21 Q1008 A2977 HR45 RWY NML=@CAELT@
ZPX0628 161953@CAELT@GG SLZZYMYT@CAELT@161952 SLPSYGYS@CAELT@SABO SLPS 162000@CAELT@METAR SLPS 162000Z 00000KT 8000 TSVCSH SCT017 FEW030CB BKN200 27/24@CAELT@Q1007 A2974 HR87 CB/TS/N/NE SH/E/SE RERA=@CAELT@
ZPX0629 161954@CAELT@GG SLZZYMYT@CAELT@161955 SLSBYSYX@CAELT@SABO SLSB 162000@CAELT@METAR SLSB 162000Z 34006KT 9999 FEW020 BKN200 35/25 Q1004 A2966 HR56@CAELT@RWY NML=@CAELT@
ZPX0630 161954@CAELT@GG SLZZYMYT@CAELT@161955 SLVRYGYZ@CAELT@SABO SLVR 162000@CAELT@METAR SLVR 162000Z 36005KT 9999 FEW023 32/21 Q1007 A2975 HR53 CI@CAELT@NOSIG=@CAELT@
ZPX0631 161955@CAELT@GG SLZZYMYT@CAELT@161955 SLLPYFYA@CAELT@SABO SLRY 162000@CAELT@METAR SLRY 162000Z 00000KT 9999 FEW020 BKN200 35/25 Q1005 A2968 HR54@CAELT@RWY NML=@CAELT@
ZPX0633 161956@CAELT@GG SLZZYMYT@CAELT@161955 SLSAYGYS@CAELT@SABO SLSA 162000@CAELT@METAR SLSA 162000Z 00000KT 8000 VCSH SCT017 FEW023CB BKN200 25/23@CAELT@Q1005 A2970 HR92 RETS CB/SH SW/W=@CAELT@
ZPX0634 161956@CAELT@GG SLZZYMYT@CAELT@161955 SLRQYSYX@CAELT@SABO SLRQ 162000@CAELT@METAR SLRQ 162000Z 00000KT 9999 SCT017 FEW020CB BKN200 34/25 Q1004@CAELT@A2967 HR60 CB/N/NE/W=@CAELT@
ZPX0635 161956@CAELT@GG SLZZYMYT@CAELT@161956 SLTRYGYZ@CAELT@SABO SLTR 162000@CAELT@METAR SLTR 162000Z 35015G30KT 9999 FEW020 FEW023CB BKN200 35/23@CAELT@Q1004 A2968 986.5 HR51 CB/SH N/NE NOSIG=@CAELT@
ZPX0636 161956@CAELT@GG SLZZYMYT@CAELT@161955 SLCOYGYZ@CAELT@SABO SLCO 162000@CAELT@METAR SLCO 162000Z 31004KT 8000 VCSH BKN023 FEW025CB 29/27 Q1007@CAELT@A2976 980.3 HR87 CB/SH/NE/SW/W AC/CI=@CAELT@
ZPX0637 161956@CAELT@GG SLZZYMYT@CAELT@161955 SLTJYGYZ@CAELT@SABO SLTJ 162000@CAELT@METAR SLTJ 162000Z 15010KT 9999 BKN027 BKN070 20/14 Q1015 A2997 810.8@CAELT@HR66=@CAELT@
ZPX0638 161956@CAELT@GG SLZZYMYT@CAELT@161956 SLLPYGYZ@CAELT@SABO SLLP 162000@CAELT@METAR SLLP 162000Z 05010KT 010V080 9999 FEW023 FEW025CB BKN200 15/00@CAELT@Q1033 A3051 624.8 HR37 P1784 CB/SH NE AC NOSIG=@CAELT@
ZPX0639 161958@CAELT@GG SLZZYMYT@CAELT@161957 SLLPYFYA@CAELT@SABO SLLP 162000@CAELT@METAR SLLP 162000Z 05010KT 010V080 9999 FEW023 FEW025CB BKN200 15/00@CAELT@Q1033 A3051 624.8 HR37 P1784 CB/SH NE AC NOSIG=@CAELT@METAR SLCO 162000Z 31004KT 8000 VCSH BKN023 FEW025CB 29/27 Q1007@CAELT@A2976 980.3 HR87 CB/SH/NE/SW/W AC/CI=@CAELT@METAR SLRY 162000Z 00000KT 9999 FEW020 BKN200 35/25 Q1005 A2968 HR54RWY NML=METAR SLRQ 162000Z 00000KT 9999 SCT017 FEW020CB BKN200 34/25 Q1004A2967 HR60 CB/N/NE/W=METAR SLSB 162000Z 34006KT 9999 FEW020 BKN200 35/25 Q1004 A2966 HR56
ZPX0640 161958@CAELT@GG SLZZYMYT@CAELT@161958 SLTRYGYS@CAELT@SABO SLTR 162000@CAELT@METAR SLTR 162000Z 35015G30KT 9999 FEW020 FEW023CB BKN200 35/23@CAELT@Q1004 A2968 986.5 HR51 CB/SH N/NE NOSIG=@CAELT@METAR SLGM 162000Z 03006KT 8000 VCSH SCT017 FEW020CB BKN200 33/25@CAELT@Q1005 A2970 HR61 CB/SH N/NE=@CAELT@METAR SLRI 162000Z 09005KT 9999 FEW017 FEW020CB 33/25 Q1006 A2972HR62 CB N/NE CI=METAR SLJO 162000Z NIL=METAR SLRA 162000Z 31005KT 9999 FEW020 FEW023CB BKN200 31/24 Q1006A2971 HR67 RETS CB E/SE RWY NML=METAR SLMG 162000Z 24008KT 6000 VCSH SCT017 FEW023CB BKN200 32/25Q1007 A2976 HR66 CB/SH N/SW/NW RWY NML=METAR SLBU 162000Z 32006KT 9999 SCT017 BKN200 34/25 Q1006 A2971HR59 RWY NML=METAR SLSA 162000Z 00000KT 8000 VCSH SCT017 FEW023CB BKN200 25/23Q1005 A2970 HR92 RETS CB/SH SW/W=METAR SLSR 162000Z 34010G20KT 7000 VCSH FEW017 FEW023CB BKN200 35/24Q1003 A2964 HR53 FU CB/SH N/NE/E/NW RWY NML=METAR SLSM 162000Z 33006KT 9999 FEW017 FEW020CB SCT200 34/24 Q1004A2966 HR57 CB W RWY NML=
ZPX0641 161958@CAELT@GG SLZZYMYT@CAELT@161958 SLCAYGYS@CAELT@SABO SLCA 162000@CAELT@METAR SLCA 162000Z 18004KT 9999 BKN033 OVC070 25/16 Q1012 A2988 HR60@CAELT@RWY NML=@CAELT@
ZPX0643 162000@CAELT@GG SLZZYMYT@CAELT@162000 SLCBYGYZ@CAELT@SABO SLCB 162000@CAELT@METAR SLCB 162000Z 35012G25KT 280V060 9999 FEW033 FEW036CB SCT080@CAELT@BKN200 20/06 Q1020 A3014 747.9 HR40 CB W/NW/N/NE SH W/NW RETS WS TKOF@CAELT@RWY32 BECMG 03010KT=@CAELT@
ZPX0644 162001@CAELT@GG SLZZYMYT@CAELT@162000 SLCBYGYS@CAELT@SABO SLCB 162000@CAELT@METAR SLCB 162000Z 35012G25KT 280V060 9999 FEW033 FEW036CB SCT080@CAELT@BKN200 20/06 Q1020 A3014 747.9 HR40 CB W/NW/N/NE SH W/NW RETS WS TKOF@CAELT@RWY32 BECMG 03010KT=@CAELT@METAR SLAL 162000Z 06008KT 9999 FEW023 FEW033CB 22/03 Q1023 A3020@CAELT@699.3 HR27 CB/SW CI=METAR SLPO 162000Z NIL=METAR SLAG 162000Z NIL=METAR SLVM 162000Z NIL=METAR SLTJ 162000Z 15010KT 9999 BKN027 BKN070 20/14 Q1015 A2997 810.8HR66=METAR SLYA 162000Z NIL=METAR SLBJ 162000Z NIL=METAR SLHI 162000Z NIL=
ZPX0645 162002@CAELT@GG SLZZYMYT@CAELT@162001 SLVRYFYC@CAELT@SABO SLVR 162000@CAELT@METAR SLVR 162000Z 36005KT 9999 FEW023 32/21 Q1007 A2975 HR53 CI@CAELT@NOSIG=@CAELT@METAR SLET 162000Z 30003KT 9999 FEW020 SCT200 32/20 Q1007@CAELT@A2974 HR47 NOSIG=@CAELT@METAR SLAS 162000Z 00000KT 2000 SHRA BKN020 FEW030CB BKN20028/26 Q1008 A2977 HR88 CB/N/NE RWY WET OPR=METAR SLJV 162000Z 00000KT 9999 SCT020 32/22 Q1008 A2980 HR60 RWY NMLMETAR SLCP 162000Z 00000KT 9999 SCT017 OVC200 32/24 Q1009 A2980HR63 RWY NML=METAR SLSI 162000Z 33006KT 9999 SCT017 37/22 Q1004 A2965 HR43 RWY NMLMETAR SLTI 162000Z 00000KT 9999 SCT020 37/23 Q1008 A2977 HR43 RWY NMLMETAR SLJE 162000Z 32008KT 9999 SCT020 38/20 Q1008 A2977 HR36 RWY NMLMETAR SLVG 162000Z NIL=METAR SLRB 162000Z 00000KT 9999 SCT020 35/21 Q1008 A2977 HR45 RWY NMLMETAR SLPS 162000Z 00000KT 8000 TSVCSH SCT017 FEW030CB BKN200 27/24Q1007 A2974 HR87 CB/TS/N/NE SH/E/SE RERA=METAR SLCA 162000Z 18004KT 9999 BKN033 OVC070 25/16 Q1012 A2988HR60 RWY NML=
ZPX0665 162052@CAELT@GG SLZZYMYT@CAELT@162052 SLPSYGYS@CAELT@SABO SLPS 162100@CAELT@METAR SLPS 162100Z 26006KT 9999 SCT017 FEW030CB BKN200 29/26 Q1006@CAELT@A2971 HR84 CB/N/NE RETS=@CAELT@
ZPX0667 162054@CAELT@GG SLZZYMYT@CAELT@162055 SLVRYGYZ@CAELT@SABO SLVR 162100@CAELT@METAR SLVR 162100Z 35003KT 9999 FEW023 31/21 Q1006 A2973 HR54 CI@CAELT@NOSIG=@CAELT@
ZPX0668 162055@CAELT@GG SLZZYMYT@CAELT@162054 SLSAYGYS@CAELT@SABO SLSA 162100@CAELT@METAR SLSA 162100Z 00000KT 9999 SCT017 FEW023CB BKN200 26/23 Q1005@CAELT@A2970 HR87 CB NW=@CAELT@
ZPX0669 162056@CAELT@GG SLZZYMYT@CAELT@162056 SLLPYGYZ@CAELT@SABO SLLP 162100@CAELT@METAR SLLP 162100Z 04008KT 020V090 9999 FEW023 BKN200 16/00 Q1032@CAELT@A3050 624.5 HR35 P3480 AC NOSIG=@CAELT@
ZPX0670 162056@CAELT@GG SLZZYMYT@CAELT@162055 SLCOYGYZ@CAELT@SABO SLCO 162100@CAELT@METAR SLCO 162100Z 35004KT 8000 VCSH BKN023 FEW025CB 29/27 Q1007@CAELT@A2975 980.2 HR87 CB/SH/SE/S/SW AC/CI=@CAELT@
ZPX0671 162056@CAELT@GG SLZZYMYT@CAELT@162056 SLRBYGYS@CAELT@SABO SLRB 162100@CAELT@METAR SLRB 162100Z 00000KT 9999 FEW020 FEW025CB 32/22 Q1008 A2977@CAELT@HR56 CB NE/E RWY NML=@CAELT@
ZPX0673 162057@CAELT@GG SLZZYMYT@CAELT@162056 SLRQYSYX@CAELT@SABO SLRQ 162100@CAELT@METAR SLRQ 162100Z 00000KT 9999 SCT017 FEW020CB BKN200 33/26 Q1004@CAELT@A2965 HR67 CB/N/NE/W=@CAELT@
ZPX0674 162057@CAELT@GG SLZZYMYT@CAELT@162057 SLTRYGYZ@CAELT@SABO SLTR 162100@CAELT@METAR SLTR 162100Z 35014KT 9999 FEW020 FEW023CB BKN200 31/24 Q1005@CAELT@A2968 986.6 HR64 CB NW NOSIG=@CAELT@
ZPX0675 162057@CAELT@GG SLZZYMYT@CAELT@162057 SLLPYFYA@CAELT@SABO SLRY 162100@CAELT@METAR SLRY 162100Z 00000KT 9999 FEW020 BKN200 34/25 Q1004 A2967 HR62@CAELT@RWY NML=@CAELT@
ZPX0676 162057@CAELT@GG SLZZYMYT@CAELT@162057 SLCAYGYS@CAELT@SABO SLCA 162100@CAELT@METAR SLCA 162100Z 18005KT 9999 BKN033 OVC070 24/17 Q1012 A2988 HR64@CAELT@RWY NML=@CAELT@
ZPX0677 162058@CAELT@GG SLZZYMYT@CAELT@162057 SLSBYSYX@CAELT@SABO SLSB 162100@CAELT@METAR SLSB 162100Z 02005KT 8000 VCSH FEW023CB BKN200 34/25 Q1003@CAELT@A2964 HR60 CB SH NW S RWY NML=@CAELT@
ZPX0679 162058@CAELT@GG SLZZYMYT@CAELT@162058 SLCBYGYZ@CAELT@SABO SLCB 162100@CAELT@METAR SLCB 162100Z 20007KT 9999 FEW033 FEW036CB SCT200 25/05 Q1018@CAELT@A3007 746.1 HR26 CB NE/SE AC NOSIG=@CAELT@
ZPX0680 162058@CAELT@GG SLZZYMYT@CAELT@162058 SLLPYFYA@CAELT@SABO SLLP 162100@CAELT@METAR SLLP 162100Z 04008KT 020V090 9999 FEW023 BKN200 16/00 Q1032@CAELT@A3050 624.5 HR35 P3480 AC NOSIG=@CAELT@METAR SLCO 162100Z 35004KT 8000 VCSH BKN023 FEW025CB 29/27 Q1007@CAELT@A2975 980.2 HR87 CB/SH/SE/S/SW AC/CI=@CAELT@METAR SLRY 162100Z 00000KT 9999 FEW020 BKN200 34/25 Q1004 A2967 HR62RWY NML=METAR SLRQ 162100Z 00000KT 9999 SCT017 FEW020CB BKN200 33/26 Q1004A2965 HR67 CB/N/NE/W=METAR SLSB 162100Z 02005KT 8000 VCSH FEW023CB BKN200 34/25 Q1003A2964 HR60 CB SH NW S RWY NML=
ZPX0681 162058@CAELT@GG SLZZYMYT@CAELT@162058 SLTJYGYZ@CAELT@SABO SLTJ 162100@CAELT@METAR SLTJ 162100Z 15008KT 9999 BKN025 OVC070 19/12 Q1015 A2999 811.3@CAELT@HR67=@CAELT@
ZPX0683 162059@CAELT@GG SLZZYMYT@CAELT@162058 SLTRYGYS@CAELT@SABO SLTR 162100@CAELT@METAR SLTR 162100Z 35014KT 9999 FEW020 FEW023CB BKN200 31/24 Q1005@CAELT@A2968 986.6 HR64 CB NW NOSIG=@CAELT@METAR SLGM 162100Z 05011KT 9999 FEW017 FEW020CB BKN200 33/24 Q1005@CAELT@A2968 HR61 CB N/NE=@CAELT@METAR SLRI 162100Z 00000KT 9999 FEW017 SCT200 33/27 Q1005 A2970 HR71=METAR SLJO 162100Z NIL=METAR SLRA 162100Z 32003KT 9999 FEW020 FEW023CB BKN200 32/24 Q1006A2971 HR64 CB E RWY NML=METAR SLMG 162100Z 00000KT 8000 VCSH FEW017 FEW023CB BK200 26/24Q1007 A2974 HR88 RESHRA CB/SH SW RWY OPR C210=METAR SLBU 162100Z 32004KT 9999 FEW017 BKN200 32/25 Q1005 A2968HR68 RWY NML=METAR SLSA 162100Z 00000KT 9999 SCT017 FEW023CB BKN200 26/23 Q1005A2970 HR87 CB NW=METAR SLSR 162100Z 34015KT 7000 VCSH FEW017 FEW023CB BKN200 33/24Q1002 A2963 HR60 FU CB/SH N/NE/SE RWY NML=METAR SLSM 162100Z 33006KT 9999 FEW017 FEW020CB SCT200 34/25 Q1004A2965 HR59 CB N/SE RWY NML=
ZPX0687 162101@CAELT@GG SLZZYMYT@CAELT@162100 SLCBYGYS@CAELT@SABO SLCB 162100@CAELT@METAR SLCB 162100Z 20007KT 9999 FEW033 FEW036CB SCT200 25/05 Q1018@CAELT@A3007 746.1 HR26 CB NE/SE AC NOSIG=@CAELT@METAR SLAL 162100Z 02009KT 9999 FEW023 FEW033CB SCT200 21/03 Q1022@CAELT@A3019 699.2 HR31 CB/W=@CAELT@METAR SLPO 162100Z NIL=METAR SLAG 162100Z NIL=METAR SLVM 162100Z NIL=METAR SLTJ 162100Z 15008KT 9999 BKN025 OVC070 19/12 Q1015 A2999 811.3HR67=METAR SLYA 162100Z NIL=METAR SLBJ 162100Z NIL=METAR SLHI 162100Z NIL=
ZPX0688 162101@CAELT@GG SLZZYMYT@CAELT@162101 SLVRYGYU@CAELT@SABO SLET 162100@CAELT@METAR SLET 162100Z 30005KT 9999 FEW020 SCT200 32/20 Q1007 A2974 HR49@CAELT@NOSIG=@CAELT@
ZPX0689 162102@CAELT@GG SLZZYMYT@CAELT@162102 SLVRYFYC@CAELT@SABO SLVR 162100@CAELT@METAR SLVR 162100Z 35003KT 9999 FEW023 31/21 Q1006 A2973 HR54 CI@CAELT@NOSIG=@CAELT@METAR SLET 162100Z 30005KT 9999 FEW020 SCT200 32/20 Q1007 A2974 HR49@CAELT@METAR SLAS 162100Z 00000KT 9999 BKN020 FEW030CB BKN200@CAELT@28/25 Q1007 A2974 HR84 CB/N/NE RESH RWY WET OPR=METAR SLJV 162100Z 00000KT 9999 FEW020 33/22 Q1006 A2971 HR55 RWY NMLMETAR SLCP 162100Z 00000KT 9999 SCT017 OVC200 32/24 Q1008 A2977 HR64RWY NML=METAR SLSI 162100Z 33006KT 9999 SCT017 FEW025CB 35/22 Q1004 A2965HR47 CB/S/SE RWY NML=METAR SLTI 162100Z 00000KT 9999 FEW020 37/23 Q1008 A2977 HR45 RWY NMLMETAR SLJE 162100Z 32006KT 9999 FEW020 37/21 Q1008 A2977 HR39 RWY NMLMETAR SLVG 162100Z NIL=METAR SLRB 162100Z 00000KT 9999 FEW020 FEW025CB 32/22 Q1008 A2977HR56 CB NE/E RWY NML=METAR SLPS 162100Z 26006KT 9999 SCT017 FEW030CB BKN200 29/26 Q1006A2971 HR84 CB/N/NE RETS=METAR SLCA 162100Z 18005KT 9999 BKN033 OVC070 24/17 Q1012 A2988 HR64
ZPX0707 162153@CAELT@GG SLZZYMYT@CAELT@162151 SLETYMYC@CAELT@SABO SLET 162200@CAELT@METAR SLET 162200Z 34004KT 9999 FEW020 SCT200 31/20 Q1005 A2970 HR51@CAELT@NOSIG=@CAELT@
ZPX0708 162154@CAELT@GG SLZZYMYT@CAELT@162153 SLPSYGYS@CAELT@SABO SLPS 162200@CAELT@METAR SLPS 162200Z 00000KT 9999 FEW017 FEW030CB BKN200 29/26 Q1007@CAELT@A2974 HR87 CB/N=@CAELT@
ZPX0709 162154@CAELT@GG SLZZYMYT@CAELT@162154 SLSAYGYS@CAELT@SABO SLSA 162200@CAELT@METAR SLSA 162200Z 00000KT 9999 FEW017 BKN200 26/24 Q1004 A2966 HR87=@CAELT@
ZPX0710 162154@CAELT@GG SLZZYMYT@CAELT@162155 SLVRYGYZ@CAELT@SABO SLVR 162200@CAELT@METAR SLVR 162200Z 31004KT 9999 FEW023 SCT200 30/21 Q1006 A2973 HR60@CAELT@NOSIG=@CAELT@
ZPX0711 162154@CAELT@GG SLZZYMYT@CAELT@162155 SLRQYSYX@CAELT@SABO SLRQ 162200@CAELT@METAR SLRQ 162200Z 00000KT 9999 FEW020 BKN200 32/27 Q1003 A2964 HR72=@CAELT@
ZPX0712 162155@CAELT@GG SLZZYMYT@CAELT@162154 SLRBYGYS@CAELT@SABO SLRB 162200@CAELT@METAR SLRB 162200Z 00000KT 9999 FEW025CB 30/23 Q1008 A2977 HR66 CB NE@CAELT@/E RWY NML=@CAELT@
ZPX0713 162155@CAELT@GG SLZZYMYT@CAELT@162155 SLSBYSYX@CAELT@SABO SLSB 162200@CAELT@METAR SLSB 162200Z 35003KT 8000 VCSH FEW025CB BKN200 32/26 Q1003@CAELT@A2964 HR68 CB SH W RWY NML=@CAELT@
ZPX0714 162155@CAELT@GG SLZZYMYT@CAELT@162155 SLCOYGYZ@CAELT@SABO SLCO 162200@CAELT@METAR SLCO 162200Z 28004KT 8000 VCSH FEW023 FEW025CB BKN200 26/24@CAELT@Q1007 A2975 980.0 HR85 CB/SH/SW AC=@CAELT@
ZPX0715 162155@CAELT@GG SLZZYMYT@CAELT@162155 SLCBYGYZ@CAELT@SABO SLCB 162200@CAELT@METAR SLCB 162200Z 20003KT 9999 FEW033 FEW036CB SCT200 25/05 Q1017@CAELT@A3006 745.9 HR27 CB DIST W AC FU NOSIG=@CAELT@
ZPX0716 162155@CAELT@GG SLZZYMYT@CAELT@162155 SLLPYGYZ@CAELT@SABO SLLP 162200@CAELT@METAR SLLP 162200Z 08009KT 050V110 9999 FEW020 BKN200 15/01 Q1033@CAELT@A3051 624.7 HR37 P1380 AC NOSIG=@CAELT@
ZPX0717 162156@CAELT@GG SLZZYMYT@CAELT@162155 SLTJYGYZ@CAELT@SABO SLTJ 162200@CAELT@METAR SLTJ 162200Z 14009KT 9999 BKN025 OVC070 18/12 Q1016 A3001 811.8@CAELT@HR70 SH SW=@CAELT@
ZPX0718 162156@CAELT@GG SLZZYMYT@CAELT@162155 SLLPYFYA@CAELT@SABO SLRY 162200@CAELT@METAR SLRY 162200Z 00000KT 9999 FEW020 BKN200 33/25 Q1004 A2967 HR63@CAELT@RWY NML=@CAELT@
ZPX0719 162156@CAELT@GG SLZZYMYT@CAELT@162156 SLTRYGYZ@CAELT@SABO SLTR 162200@CAELT@METAR SLTR 162200Z 34006KT 9999 FEW020 BKN200 30/24 Q1004 A2966@CAELT@986.0 HR70 NOSIG=@CAELT@
ZPX0722 162157@CAELT@GG SLZZYMYT@CAELT@162157 SLLPYFYA@CAELT@SABO SLLP 162200@CAELT@METAR SLLP 162200Z 08009KT 050V110 9999 FEW020 BKN200 15/01 Q1033@CAELT@A3051 624.7 HR37 P1380 AC NOSIG=@CAELT@METAR SLCO 162200Z 28004KT 8000 VCSH FEW023 FEW025CB BKN200 26/24@CAELT@Q1007 A2975 980.0 HR85 CB/SH/SW AC=@CAELT@METAR SLRY 162200Z 00000KT 9999 FEW020 BKN200 33/25 Q1004 A2967 HR63RWY NML=METAR SLRQ 162200Z 00000KT 9999 FEW020 BKN200 32/27 Q1003 A2964 HR72=METAR SLSB 162200Z 35003KT 8000 VCSH FEW025CB BKN200 32/26 Q1003A2964 HR68 CB SH W RWY NML=
ZPX0724 162200@CAELT@GG SLZZYMYT@CAELT@162200 SLCBYGYS@CAELT@SABO SLCB 162200@CAELT@METAR SLCB 162200Z 20003KT 9999 FEW033 FEW036CB SCT200 25/05 Q1017@CAELT@A3006 745.9 HR27 CB DIST W AC FU NOSIG=@CAELT@METAR SLAL 162200Z 07013KT 9999 FEW023 FEW033CB SCT200 20/04 Q1023@CAELT@A3020 699.4 HR34 CB ON/STN/W=@CAELT@METAR SLTJ 162200Z 14009KT 9999 BKN025 OVC070 18/12 Q1016 A3001 811.8HR70 SH SW=
ZPX0725 162202@CAELT@GG SLZZYMYT@CAELT@162202 SLVRYFYC@CAELT@SABO SLVR 162200@CAELT@METAR SLVR 162200Z 31004KT 9999 FEW023 SCT200 30/21 Q1006 A2973@CAELT@HR60 NOSIG=@CAELT@METAR SLET 162200Z 34004KT 9999 FEW020 SCT200 31/20 Q1005@CAELT@A2970 HR51 NOSIG=@CAELT@METAR SLAS 162200Z 00000KT 9999 SCT020 FEW030CB OVC20028/25 Q1008 A2977 HR80 CB/N/NE RWY WET OPR=METAR SLJV 162200Z 00000KT 9999 NSC 31/22 Q1006 A2971 HR63 RWY NML=METAR SLCP 162200Z 00000KT 9999 FEW017 OVC200 32/24 Q1008 A2977HR63 RWY NML=METAR SLSI 162200Z 31005KT 9999 SCT017 FEW025CB BKN200 32/22 Q1005A2968 HR57 CB/S/SW RWY NML=METAR SLTI 162200Z 00000KT 9999 FEW020 35/23 Q1008 A2977 HR50RWY NML=METAR SLJE 162200Z 00000KT 9999 FEW020 36/20 Q1008 A2977 HR41METAR SLRB 162200Z 00000KT 9999 FEW025CB 30/23 Q1008 A2977HR66 CB NE/E RWY NML=METAR SLPS 162200Z 00000KT 9999 FEW017 FEW030CB BKN200 29/26 Q1007A2974 HR87 CB/N=METAR SLCA 162200Z NIL=
ZPX0727 162205@CAELT@GG SLZZYMYT@CAELT@162204 SLASYSYX RRA@CAELT@SABO SLCA 162200@CAELT@METAR SLCA 162200Z 18004KT 8000 VCSH BKN027 OVC070 22/18 Q1013@CAELT@A2991 HR76 SH TODAS DIRECC RWY NML=@CAELT@
ZPX0728 162205@CAELT@GG SLZZYMYT@CAELT@162205 SLCAYSYX RRA@CAELT@SABO SLCA 162200@CAELT@METAR SLCA 162200Z 18004KT 8000 VCSH BKN027 OVC070 22/18 Q1013@CAELT@A2991 HR76 SH TODAS DIRECC RWY NML=@CAELT@
ZPX0741 162253@CAELT@GG SLZZYMYT@CAELT@162253 SLCAYGYS@CAELT@SABO SLCA 162300@CAELT@METAR SLCA 162300Z 00000KT 5000 VCSH BKN023 OVC070 21/18 Q1014 A2994@CAELT@HR85 SH TODAS DIRECC RWY NML=@CAELT@
ZPX0742 162254@CAELT@GG SLZZYMYT@CAELT@162255 SLCOYGYZ@CAELT@SABO SLCO 162300@CAELT@METAR SLCO 162300Z 27003KT 8000 VCSH FEW023 FEW025CB BKN200 26/24@CAELT@Q1007 A2976 980.3 HR89 CB/SH/SW=@CAELT@
ZPX0743 162254@CAELT@GG SLZZYMYT@CAELT@162254 SLRBYGYS@CAELT@SABO SLRB 162300@CAELT@METAR SLRB 162300Z 00000KT 9999 FEW025CB 28/24 Q1009 A2980 HR78 CB NE@CAELT@/E RWY NML=@CAELT@
ZPX0744 162254@CAELT@GG SLZZYMYT@CAELT@162253 SLSAYGYS@CAELT@SABO SLSA 162300@CAELT@METAR SLSA 162300Z 00000KT 9999 NSC 25/24 Q1004 A2966 HR92 CI=@CAELT@
ZPX0745 162255@CAELT@GG SLZZYMYT@CAELT@162255 SLTJYGYZ@CAELT@SABO SLTJ 162300@CAELT@METAR SLTJ 162300Z 13008KT 8000 VCSH BKN023 OVC070 17/12 Q1017 A3004@CAELT@812.7 HR73 SH S/SW/W=@CAELT@
ZPX0746 162255@CAELT@GG SLZZYMYT@CAELT@162255 SLVRYGYZ@CAELT@SABO SLVR 162300@CAELT@METAR SLVR 162300Z 27002KT 9999 NSC 28/21 Q1006 A2973 HR66 CI NOSIG=@CAELT@
ZPX0747 162256@CAELT@GG SLZZYMYT@CAELT@162255 SLSBYSYX@CAELT@SABO SLSB 162300@CAELT@METAR SLSB 162300Z 00000KT 9999 NSC 30/24 Q1004 A2966 HR73 CI RWY NML=@CAELT@
ZPX0748 162256@CAELT@GG SLZZYMYT@CAELT@162256 SLTRYGYZ@CAELT@SABO SLTR 162300@CAELT@METAR SLTR 162300Z 30008KT 9999 NSC 29/22 Q1004 A2966 985.9 HR67@CAELT@CS NOSIG=@CAELT@
ZPX0749 162256@CAELT@GG SLZZYMYT@CAELT@162256 SLCBYGYZ@CAELT@SABO SLCB 162300@CAELT@METAR SLCB 162300Z 32004KT 9999 FEW033 SCT200 22/04 Q1018 A3008 746.3@CAELT@HR32 AC FU NOSIG=@CAELT@
ZPX0751 162256@CAELT@GG SLZZYMYT@CAELT@162256 SLLPYGYZ@CAELT@SABO SLLP 162300@CAELT@METAR SLLP 162300Z 09011KT 9999 FEW017 BKN200 12/01 Q1033 A3052@CAELT@625.0 HR45 AC NOSIG=@CAELT@
ZPX0752 162257@CAELT@GG SLZZYMYT@CAELT@162256 SLCBYGYS@CAELT@SABO SLCB 162300@CAELT@METAR SLCB 162300Z 32004KT 9999 FEW033 SCT200 22/04 Q1018 A3008 746.3@CAELT@HR32 AC FU NOSIG=@CAELT@METAR SLAL 162300Z 01014KT 9999 FEW023 FEW033CB 17/09 Q1022 A3020 699@CAELT@.3 HR61 CB/E CI=@CAELT@METAR SLTJ 162300Z 13008KT 8000 VCSH BKN023 OVC070 17/12 Q1017 A3004812.7 HR73 SH S/SW/W=
ZPX0753 162257@CAELT@GG SLZZYMYT@CAELT@162257 SLLPYFYA@CAELT@SABO SLLP 162300@CAELT@METAR SLLP 162300Z 09011KT 9999 FEW017 BKN200 12/01 Q1033 A3052@CAELT@625.0 HR45 AC NOSIG=@CAELT@METAR SLCO 162300Z 27003KT 8000 VCSH FEW023 FEW025CB BKN200 26/24@CAELT@Q1007 A2976 980.3 HR89 CB/SH/SW=@CAELT@METAR SLSB 162300Z 00000KT 9999 NSC 30/24 Q1004 A2966 HR73 CIRWY NML=
ZPX0754 162258@CAELT@GG SLZZYMYT@CAELT@162257 SLVRYFYC@CAELT@SABO SLVR 162300@CAELT@METAR SLVR 162300Z 27002KT 9999 NSC 28/21 Q1006 A2973 HR66 CI NOSIG=@CAELT@METAR SLSI 162300Z 00000KT 9999 SCT017 FEW025CB BKN200@CAELT@31/23 Q1005 A2968 HR62 CB/ NW/S RWY NML=@CAELT@METAR SLRB 162300Z 00000KT 9999 FEW025CB 28/24 Q1009 A2980@CAELT@HR78 CB NE/E RWY NML=METAR SLCA 162300Z 00000KT 5000 VCSH BKN023 OVC070 21/18 Q1014 A2994HR85 SH TODAS DIRECC RWY NML=
ZPX0757 162259@CAELT@GG SLZZYMYT@CAELT@162258 SLTRYGYS@CAELT@SABO SLTR 162300@CAELT@METAR SLTR 162300Z 30008KT 9999 NSC 29/22 Q1004 A2966 985.9 HR67@CAELT@CS NOSIG=@CAELT@METAR SLGM 162300Z NIL=@CAELT@METAR SLRI 162300Z 00000KT 9999 FEW017 FEW020CB SCT080 BKN200 30/27@CAELT@Q1007 A2974 HR86 CB W/NW LT/NW=METAR SLMG 162300Z 00000KT 9999 NSC 27/25 Q1006 A2972 HR91RWY OPR C210=METAR SLSA 162300Z 00000KT 9999 NSC 25/24 Q1004 A2966 HR92 CI=
ZPX0770 162354@CAELT@GG SLZZYMYT@CAELT@162355 SLVRYGYZ@CAELT@SABO SLVR 170000@CAELT@METAR SLVR 170000Z 33002KT 9999 NSC 26/21 Q1007 A2975 HR77 CI NOSIG=@CAELT@
ZPX0771 162355@CAELT@GG SLZZYMYT@CAELT@162355 SLTJYGYZ@CAELT@SABO SLTJ 170000@CAELT@METAR SLTJ 170000Z 17003KT 8000 VCSH SCT010 BKN020 OVC070 17/13 Q1018@CAELT@A3008 813.7 HR78 SH S/SW/W=@CAELT@
ZPX0773 162355@CAELT@GG SLZZYMYT@CAELT@162355 SLCBYGYZ@CAELT@SABO SLCB 170000@CAELT@METAR SLCB 170000Z 13003KT 9999 FEW033 SCT200 21/04 Q1019 A3010 747.0@CAELT@HR35 FU NOSIG=@CAELT@
