
ZPX0002 050002@CAELT@GG SLZZYMYT@CAELT@050001 SLCBYGYZ@CAELT@SABO SLCB 050000@CAELT@METAR SLCB 050000Z 17004KT 9999 FEW036 20/06 Q1023 A3022 750.1 HR40@CAELT@NOSIG=@CAELT@
ZPX0010 050054@CAELT@GG SLZZYMYT@CAELT@050055 SLVRYGYZ@CAELT@SABO SLVR 050100@CAELT@METAR SLVR 050100Z 01005KT 8000 NSC 25/18 Q1009 A2980 HR65 FU NOSIG=@CAELT@
ZPX0011 050056@CAELT@GG SLLPZRZX@CAELT@050055 SLLPYGYZ@CAELT@SABO SLLP 050100@CAELT@METAR SLLP 050100Z VRB02KT 9999 FEW015 07/03 Q1039 A3070 629.0 HR72@CAELT@AC NOSIG=@CAELT@
ZPX0015 050100@CAELT@GG SLZZYMYT@CAELT@050100 SLCBYGYZ@CAELT@SABO SLCB 050100@CAELT@METAR SLCB 050100Z 12010KT 9999 NSC@CAELT@19/06 Q1024 A3025 751.0 HR42 FU NOSIG=@CAELT@
ZPX0031 050154@CAELT@GG SLLPZRZX@CAELT@050155 SLLPYGYZ@CAELT@SABO SLLP 050200@CAELT@METAR SLLP 050200Z 00000KT 9999 FEW013 04/02 Q1040 A3072 629.4 HR85@CAELT@AC NOSIG=@CAELT@
ZPX0032 050155@CAELT@GG SLZZYMYT@CAELT@050155 SLVRYGYZ@CAELT@SABO SLVR 050200@CAELT@METAR SLVR 050200Z 30005KT 8000 NSC 24/18 Q1010 A2982 HR69 FU NOSIG=@CAELT@
ZPX0034 050157@CAELT@GG SLZZYMYT@CAELT@050156 SLCBYGYZ@CAELT@SABO SLCB 050200@CAELT@METAR SLCB 050200Z 12010KT 9999 NSC 19/06 Q1025 A3028 751.7 HR43 FU@CAELT@NOSIG=@CAELT@
ZPX0042 050254@CAELT@GG SLZZYMYT@CAELT@050255 SLVRYGYZ@CAELT@SABO SLVR 050300@CAELT@METAR SLVR 050300Z 33007KT 8000 NSC 24/18 Q1010 A2982 HR70 FU NOSIG=@CAELT@
ZPX0043 050257@CAELT@GG SLLPZRZX@CAELT@050255 SLLPYGYZ@CAELT@SABO SLLP 050300@CAELT@METAR SLLP 050300Z 05004KT 9999 FEW013 03/01 Q1040 A3073 629.7 HR86@CAELT@AC NOSIG=@CAELT@
ZPX0044 050257@CAELT@GG SLZZYMYT@CAELT@050257 SLCBYGYZ@CAELT@SABO SLCB 050300@CAELT@METAR SLCB 050300Z 09004KT 9999 NSC 18/06 Q1026 A3030 752.3 HR45 FU@CAELT@NOSIG=@CAELT@
ZPX0051 050355@CAELT@GG SLZZYMYT@CAELT@050355 SLVRYGYZ@CAELT@SABO SLVR 050400@CAELT@METAR SLVR 050400Z 32005KT 8000 NSC 23/18 Q1009 A2982 HR73 FU NOSIG=@CAELT@
ZPX0052 050356@CAELT@GG SLLPZRZX@CAELT@050356 SLLPYGYZ@CAELT@SABO SLLP 050400@CAELT@METAR SLLP 050400Z 10006KT 9999 FEW013 03/01 Q1040 A3072 629.5 HR86@CAELT@AC NOSIG=@CAELT@
ZPX0053 050357@CAELT@GG SLZZYMYT@CAELT@050356 SLCBYGYZ@CAELT@SABO SLCB 050400@CAELT@METAR SLCB 050400Z 23003KT 9999 NSC 14/08 Q1026 A3030 752.2 HR66 FU@CAELT@CI NOSIG=@CAELT@
ZPX0054 050358@CAELT@GG SLZZYMYT@CAELT@050358 SLCBYGYZ@CAELT@SABO SLCB 050400@CAELT@METAR SLCB 050400Z 23003KT 9999 NSC 14/08 Q1026 A3030 752.2 HR66 FU@CAELT@CI NOSIG=@CAELT@
ZPX0061 050455@CAELT@GG SLLPZRZX@CAELT@050455 SLLPYGYZ@CAELT@SABO SLLP 050500@CAELT@METAR SLLP 050500Z 09005KT 9999 FEW004 03/01 Q1039 A3070 629.1 HR90@CAELT@NOSIG=@CAELT@
ZPX0062 050457@CAELT@GG SLZZYMYT@CAELT@050457 SLVRYGYZ@CAELT@SABO SLVR 050500@CAELT@METAR SLVR 050500Z 31005KT 8000 NSC 23/18 Q1009 A2982 HR75 FU NOSIG=@CAELT@
ZPX0064 050457@CAELT@GG SLZZYMYT@CAELT@050457 SLCBYGYZ@CAELT@SABO SLCB 050500@CAELT@METAR SLCB 050500Z 00000KT 9999 NSC 15/08 Q1026 A3030 752.3 HR61 FU@CAELT@CI NOSIG=@CAELT@
ZPX0071 050554@CAELT@GG SLZZYMYT@CAELT@050555 SLVRYGYZ@CAELT@SABO SLVR 050600@CAELT@METAR SLVR 050600Z 36004KT 8000 NSC 22/18 Q1009 A2982 HR77 FU NOSIG=@CAELT@
ZPX0072 050557@CAELT@GG SLZZYMYT@CAELT@050550 SLCBYGYZ@CAELT@SABO SLCB 050500@CAELT@METAR SLCB 050500Z 17003KT 9999 NSC 16/07 Q1026 A3030 752.3 HR52 FU@CAELT@CI NOSIG=@CAELT@
ZPX0073 050557@CAELT@GG SLLPZRZX@CAELT@050557 SLLPYGYZ@CAELT@SABO SLLP 050600@CAELT@METAR SLLP 050600Z 11006KT 4000E VCFG FEW003 04/03 Q1038 A3068@CAELT@628.6 HR92 VCFG NE/E/SE/S NOSIG=@CAELT@
ZPX0082 050654@CAELT@GG SLZZYMYT@CAELT@050655 SLVRYGYZ@CAELT@SABO SLVR 050700@CAELT@METAR SLVR 050700Z 32006KT 8000 NSC 22/20 Q1009 A2981 HR84 FU NOSIG=@CAELT@
ZPX0083 050656@CAELT@GG SLLPZRZX@CAELT@050655 SLLPYGYZ@CAELT@SABO SLLP 050700@CAELT@METAR SLLP 050700Z 09007KT 4000E VCFG FEW002 SCT010 05/04 Q1038 A3068@CAELT@628.6 HR96 VCFG NE/E/SE NOSIG=@CAELT@
ZPX0085 050700@CAELT@GG SLZZYMYT@CAELT@050700 SLCBYGYZ@CAELT@SABO SLCB 050700@CAELT@METAR SLCB 050700Z 08003KT 9999 NSC@CAELT@14/06 Q1025 A3028 751.7 HR58 FU CI NOSIG=@CAELT@
ZPX0091 050754@CAELT@GG SLZZYMYT@CAELT@050755 SLVRYGYZ@CAELT@SABO SLVR 050800@CAELT@METAR SLVR 050800Z 22004KT 8000 NSC 21/19 Q1010 A2982 HR87 FU NOSIG=@CAELT@
ZPX0092 050755@CAELT@GG SLLPZRZX@CAELT@050756 SLLPYGYZ@CAELT@SABO SLLP 050800@CAELT@METAR SLLP 050800Z 09004KT 060V120 4000E VCFG FEW003 SCT010 05/04@CAELT@Q1038 A3068 628.5 HR93 VCFG NE/E/SE NOSIG=@CAELT@
ZPX0093 050757@CAELT@GG SLZZYMYT@CAELT@050756 SLCBYGYZ@CAELT@SABO SLCB 050800@CAELT@METAR SLCB 050800Z 00000KT 9999 NSC@CAELT@13/07 Q1025 A3027 751.5 HR68 CI FU NOSIG=@CAELT@
ZPX0100 050855@CAELT@GG SLZZYMYT@CAELT@050855 SLCBYGYZ@CAELT@SABO SLCB 050900@CAELT@METAR SLCB 050900Z 00000KT 9999 NSC 12/07 Q1025 A3028 751.6 HR70 FU@CAELT@CI NOSIG=@CAELT@
ZPX0101 050855@CAELT@GG SLLPZRZX@CAELT@050855 SLLPYGYZ@CAELT@SABO SLLP 050900@CAELT@METAR SLLP 050900Z 08004KT 4000E VCFG FEW003 04/04 Q1039 A3069 628.8@CAELT@HR94 VCFG NE/E/SE NOSIG=@CAELT@
ZPX0102 050856@CAELT@GG SLZZYMYT@CAELT@050856 SLTRYGYZ@CAELT@SABO SLTR 050900@CAELT@METAR SLTR 050900Z 00000KT 7000 NSC 24/23 Q1009 A2980 990.6 HR97@CAELT@BR NOSIG=@CAELT@
ZPX0103 050856@CAELT@GG SLZZYMYT@CAELT@050856 SLTRYGYZ@CAELT@SABO SLTR 050900@CAELT@METAR SLTR 050900Z 00000KT 7000 NSC 24/23 Q1009 A2980 990.6 HR97@CAELT@BR NOSIG=@CAELT@
ZPX0104 050857@CAELT@GG SLZZYMYT@CAELT@050857 SLVRYGYZ@CAELT@SABO SLVR 050900@CAELT@METAR SLVR 050900Z 21010G22KT 8000 NSC 23/19 Q1012 A2989 HR80 FU@CAELT@NOSIG=@CAELT@
ZPX0118 050952@CAELT@GG SLZZYMYT@CAELT@050952 SLCAYGYS@CAELT@SABO SLCA 051000@CAELT@METAR SLCA 051000Z 00000KT 9999 NSC 15/08 Q1020 A3012 HR62 FU RWY NML@CAELT@
ZPX0119 050954@CAELT@GG SLZZYMYT@CAELT@050953 SLSAYGYS@CAELT@SABO SLSA 051000@CAELT@METAR SLSA 051000Z 00000KT 8000 NSC 23/22 Q1009 A2982 HR97 FU CI=@CAELT@
ZPX0120 050954@CAELT@GG SLZZYMYT@CAELT@050953 SLRBYGYS@CAELT@SABO SLRB 051000@CAELT@METAR SLRB 051000Z 00000KT 8000 NSC 18/17 Q1015 A2997 HR91 FU RWY NML=@CAELT@
ZPX0121 050954@CAELT@GG SLZZYMYT@CAELT@050955 SLVRYGYZ@CAELT@SABO SLVR 051000@CAELT@METAR SLVR 051000Z 19012G23KT 9000 NSC 24/18 Q1013 A2992 HR68 FU@CAELT@NOSIG=@CAELT@
ZPX0124 050955@CAELT@GG SLZZYMYT@CAELT@050955 SLCOYGYZ@CAELT@SABO SLCO 051000@CAELT@METAR SLCO 051000Z 25004KT 9999 BKN090 25/23 Q1011 A2985 983.6 HR91@CAELT@FU CI=@CAELT@
ZPX0125 050955@CAELT@GG SLZZYMYT@CAELT@050955 SLLPYGYZ@CAELT@SABO SLLP 051000@CAELT@METAR SLLP 051000Z 09004KT 060V120 9999 FEW010 05/03 Q1039 A3070 629.@CAELT@1 HR88 NOSIG=@CAELT@
ZPX0126 050956@CAELT@GG SLZZYMYT@CAELT@050955 SLTRYGYZ@CAELT@SABO SLTR 051000@CAELT@METAR SLTR 051000Z 00000KT 5000 BR NSC 24/23 Q1009 A2981 991.1 HR97@CAELT@CI NOSIG=@CAELT@
ZPX0127 050956@CAELT@GG SLZZYMYT@CAELT@050956 SLSBYSYX@CAELT@SABO SLSB 051000@CAELT@METAR SLSB 051000Z 00000KT 5000 BR NSC 24/24 Q1008 A2979 HR99 RWY NML=@CAELT@
ZPX0128 050957@CAELT@GG SLZZYMYT@CAELT@050956 SLRQYSYX@CAELT@SABO SLRQ 051000@CAELT@METAR SLRQ 051000Z 00000KT 8000 NSC 24/24 Q1009 A2980 HR99 FU=@CAELT@
ZPX0130 050958@CAELT@GG SLZZYMYT@CAELT@050956 SLCBYGYZ@CAELT@SABO SLCB 051000@CAELT@METAR SLCB 051000Z 00000KT 9999 NSC 11/06 Q1026 A3031 752.4 HR72 FU@CAELT@CI NOSIG=@CAELT@
ZPX0135 050959@CAELT@GG SLZZYMYT@CAELT@050959 SLCBYGYS@CAELT@SABO SLCB 051000@CAELT@METAR SLCB 051000Z 00000KT 9999 NSC 11/06 Q1026 A3031 752.4 HR72 FU@CAELT@CI NOSIG=@CAELT@METAR SLAL 051000Z 01012KT 9999 FEW010 11/05 Q1029 A3041 704.0 HR66=@CAELT@
ZPX0136 051002@CAELT@GG SLZZYMYT@CAELT@051000 SLVRYGYS@CAELT@SABO SLVR 051000@CAELT@METAR SLVR 051000Z 19012G23KT 9000 NSC 24/18 Q1013 A2992 HR68 FU@CAELT@NOSIG=@CAELT@METAR SLET 051000Z NIL=@CAELT@METAR SLAS 051000Z 00000KT 1000 FU NSC 22/19 Q1012 A2989 HR84 RWY NML@CAELT@METAR SLCP 051000Z 00000KT 4000 FU NSC 23/20 Q1014 A2994 HR84 CI RWYNML=METAR SLSI 051000Z 00000KT 6000 NSC 23/19 Q1011 A2985 HR76 FU RWY NMLMETAR SLRB 051000Z 00000KT 8000 NSC 18/17 Q1015 A2997 HR91 FU RWY NMLMETAR SLCA 051000Z 00000KT 9999 NSC 15/08 Q1020 A3012 HR62 FU RWY NML=
ZPX0137 051002@CAELT@GG SLZZYMYT@CAELT@051001 SLLPYFYA@CAELT@SABO SLLP 051000@CAELT@METAR SLLP 051000Z 09004KT 060V120 9999 FEW010 05/03 Q1039 A3070@CAELT@629.1 HR88 NOSIG=@CAELT@METAR SLCO 051000Z 25004KT 9999 BKN090 25/23 Q1011 A2985@CAELT@983.6 HR91 FU CI=@CAELT@METAR SLRQ 051000Z 00000KT 8000 NSC 24/24 Q1009 A2980 HR99 FU=METAR SLSB 051000Z 00000KT 5000 BR NSC 24/24 Q1008 A2979 HR99RWY NML=METAR SLAP 051000Z 00000KT 9999 NSC 15/14 Q1019 A3011 860.1HR95 AC=
ZPX0139 051003@CAELT@GG SLZZYMYT@CAELT@051003 SLUYYGYS@CAELT@SABO SLUY 051000@CAELT@METAR SLUY 051000Z 00000KT 9999 NSC M01/M11 Q1034@CAELT@A3055 658.4 HR48=@CAELT@
ZPX0144 051007@CAELT@GG SLZZYMYT@CAELT@051001 SLTRYGYS@CAELT@SABO SLTR 051000@CAELT@METAR SLTR 051000Z 00000KT 5000 BR NSC 24/23 Q1009 A2981 991.1 HR97@CAELT@CI NOSIG=@CAELT@METAR SLGM 051000Z 00000KT 3000 FU FEW015 BKN200 24/23 Q1010 A2982@CAELT@HR96=@CAELT@METAR SLRI 051000Z 00000KT 5000 FU SCT080 BKN200 24/24 Q1010 A2984HR97=METAR SLJO 051000Z 00000KT 5000 FU NSC 24/23 Q1009 A2982 HR96 CIRWY NML=METAR SLRA 051000Z 00000KT 2000 FU NSC 25/23 Q1009 A2981 HR91 CIMETAR SLMG 051000Z 00000KT 8000 NSC 25/23 Q1009 A2980 HR87 FU CIMETAR SLBU 051000Z NIL=METAR SLSA 051000Z 00000KT 8000 NSC 23/22 Q1009 A2982 HR97 FU CI=METAR SLSR 051000Z 00000KT 8000 NSC 23/22 Q1008 A2977 HR96 FUMETAR SLSM 051000Z 00000KT 3000 BR FEW005 22/22 Q1009 A2980 HR97RWTY NML=
ZPX0145 051008@CAELT@GG SLZZYMYT@CAELT@051003 SLLPYFYA@CAELT@SABO SLLP 051000 RRA@CAELT@METAR SLLP 051000Z 09004KT 060V120 9999 FEW010 05/03 Q1039 A3070@CAELT@629.1 HR88 NOSIG=@CAELT@METAR SLCO 051000Z 25004KT 9999 BKN090 25/23 Q1011 A2985@CAELT@983.6 HR91 FU CI=@CAELT@METAR RTD SLRY 051000Z 00000KT 6000 NSC 23/22 Q1006A2973 HR95 FU CI WY NML=METAR SLRQ 051000Z 00000KT 8000 NSC 24/24 Q1009 A2980HR99 FU=METAR SLSB 051000Z 00000KT 5000 BR NSC 24/24 Q1008 A2979HR99 RWY NML=METAR SLAP 051000Z 00000KT 9999 NSC 15/14 Q1019 A3011 860.1HR95 AC=METAR RTD SLUY 051000Z 00000KT 9999 NSC M01/M11 Q1034A3055 658.4 HR48=
ZPX0146 051010@CAELT@GG SLZZYMYT@CAELT@051005 SLVRYGYS@CAELT@SABO SLVR 051000 RRA@CAELT@METAR SLVR 051000Z 19012G23KT 9000 NSC 24/18 Q1013 A2992 HR68 FU@CAELT@NOSIG=@CAELT@METAR SLET 051000Z NIL=@CAELT@METAR SLAS 051000Z 00000KT 1000 FU NSC 22/19 Q1012 A2989 HR84 RWY NML@CAELT@METAR SLCP 051000Z 00000KT 4000 FU NSC 23/20 Q1014 A2994 HR84 CI RWYNML=METAR SLSI 051000Z 00000KT 6000 NSC 23/19 Q1011 A2985 HR76 FU RWY NMLMETAR SLRB 051000Z 00000KT 8000 NSC 18/17 Q1015 A2997 HR91 FU RWY NMLMETAR RTD SLPS 051000Z 00000KT 6000 NSC 23/19 Q1010 A2983 HR76 FU=METAR SLCA 051000Z 00000KT 9999 NSC 15/08 Q1020 A3012 HR62 FU RWY NML=
ZPX0148 051017@CAELT@GG SLZZYMYT@CAELT@051016 SLETYMYC@CAELT@SABO SLET 051000@CAELT@METAR SLET 051000Z 17013G25KT 9999 NSC 23/16 Q1014 A2994 HR63 NOSIG=@CAELT@
ZPX0153 051026@CAELT@GG SLZZYMYT@CAELT@051026 SLVRYGYS@CAELT@SABO SLVR 051000 RRB@CAELT@METAR SLVR 051000Z 19012G23KT 9000 NSC 24/18 Q1013 A2992 HR68 FU@CAELT@NOSIG=@CAELT@METAR RTD SLET 051000Z 17013G25KT 9999 NSC 23/16 Q1014 A2994 HR63@CAELT@METAR SLAS 051000Z 00000KT 1000 FU NSC 22/19 Q1012 A2989 HR84 RWY NML@CAELT@METAR SLCP 051000Z 00000KT 4000 FU NSC 23/20 Q1014 A2994 HR84 CI RWYNML=METAR SLSI 051000Z 00000KT 6000 NSC 23/19 Q1011 A2985 HR76 FU RWY NMLMETAR SLRB 051000Z 00000KT 8000 NSC 18/17 Q1015 A2997 HR91 FU RWY NMLMETAR RTD SLPS 051000Z 00000KT 6000 NSC 23/19 Q1010 A2983 HR76 FU=METAR SLCA 051000Z 00000KT 9999 NSC 15/08 Q1020 A3012 HR62 FU RWY NML=
ZPX0164 051052@CAELT@GG SLZZYMYT@CAELT@051054 SLSAYGYS@CAELT@SABO SLSA 051100@CAELT@METAR SLSA 051100Z 00000KT 8000 NSC 22/22 Q1010 A2983 HR96 FU CI=@CAELT@
ZPX0165 051052@CAELT@GG SLZZYMYT@CAELT@051052 SLETYMYC@CAELT@SABO SLET 051100@CAELT@METAR SLET 051100Z 17013G25KT 9999 NSC 24/14 Q1014 A2997 HR53 NOSIG=@CAELT@
ZPX0167 051054@CAELT@GG SLZZYMYT@CAELT@051053 SLRBYGYS@CAELT@SABO SLRB 051100@CAELT@METAR SLRB 051100Z 00000KT 8000 NSC 20/19 Q1015 A2997 HR91 FU RWY NML=@CAELT@
ZPX0168 051054@CAELT@GG SLZZYMYT@CAELT@051053 SLRYYSYX@CAELT@SABO SLRY 051100@CAELT@METAR SLRY 051100Z 00000KT 6000 NSC 23/23 Q1006 A2973 HR95 FU CI RWY@CAELT@NML=@CAELT@
ZPX0169 051054@CAELT@GG SLZZYMYT@CAELT@051054 SLSBYSYX@CAELT@SABO SLSB 051100@CAELT@METAR SLSB 051100Z 00000KT 5000 FU NSC 24/24 Q1009 A2979 HR97 RWY NML=@CAELT@
ZPX0170 051054@CAELT@GG SLZZYMYT@CAELT@051055 SLRQYSYX@CAELT@SABO SLRQ 051100@CAELT@METAR SLRQ 051100Z 00000KT 8000 NSC 24/24 Q1010 A2983 HR98 FU CI=@CAELT@
ZPX0171 051055@CAELT@GG SLZZYMYT@CAELT@051055 SLTRYGYZ@CAELT@SABO SLTR 051100@CAELT@METAR SLTR 051100Z 00000KT 7000 NSC 24/23 Q1010 A2985 992.2@CAELT@HR96 CI BR NOSIG=@CAELT@
ZPX0172 051055@CAELT@GG SLZZYMYT@CAELT@051055 SLVRYGYZ@CAELT@SABO SLVR 051100@CAELT@METAR SLVR 051100Z 19014G26KT 9999 NSC 24/15 Q1014 A2995 HR56 FU@CAELT@NOSIG=@CAELT@
ZPX0173 051056@CAELT@GG SLZZYMYT@CAELT@051055 SLCOYGYZ@CAELT@SABO SLCO 051100@CAELT@METAR SLCO 051100Z 32003KT 7000 BKN090 BKN200 25/23 Q1011 A2987 984.1@CAELT@HR90 FU=@CAELT@
ZPX0174 051056@CAELT@GG SLZZYMYT@CAELT@051055 SLCAYGYS@CAELT@SABO SLCA 051100@CAELT@METAR SLCA 051100Z 00000KT 9999 NSC 16/09 Q1021 A3015 HR66 FU RWY NML@CAELT@
ZPX0175 051056@CAELT@GG SLZZYMYT@CAELT@051055 SLLPYGYZ@CAELT@SABO SLLP 051100@CAELT@METAR SLLP 051100Z VRB02KT 9999 FEW013 05/03 Q1040 A3072 629.4 HR89@CAELT@P3381 AC/CI NOSIG=@CAELT@
ZPX0176 051056@CAELT@GG SLZZYMYT@CAELT@051055 SLPSZTZX@CAELT@SABO SLPS 051100@CAELT@METAR SLPS 051100Z 24006KT 6000 NSC 25/20 Q1011 A2986 HR70 FU=@CAELT@
ZPX0177 051057@CAELT@GG SLZZYMYT@CAELT@051056 SLLPYGYZ@CAELT@SABO SLLP 051100@CAELT@METAR SLLP 051100Z VRB02KT 9999 FEW013 05/03 Q1040 A3072 629.4 HR89@CAELT@P3381 AC/CI NOSIG=@CAELT@
ZPX0178 051057@CAELT@GG SLZZYMYT@CAELT@051056 SLORYGYZ@CAELT@SABO SLOR 051100@CAELT@METAR SLOR 051100Z 01004KT 5000 FU NSC 04/00 Q1037 A3062 657.3 HR79@CAELT@VIS RED N/NE/E/SE HZ/S/SW RESTO 8000 CI=@CAELT@
ZPX0179 051057@CAELT@GG SLZZYMYT@CAELT@051056 SLCBYGYZ@CAELT@SABO SLCB 051100@CAELT@METAR SLCB 051100Z 00000KT 9999 NSC 15/07 Q1026 A3033 752.9 HR55 FU@CAELT@NOSIG=@CAELT@
ZPX0180 051057@CAELT@GG SLZZYMYT@CAELT@051057 SLLPYGYZ@CAELT@SABO SLLP 051100@CAELT@METAR SLLP 051100Z VRB02KT 9999 FEW013 05/03 Q1040 A3072 629.4 HR89@CAELT@P3381 AC/CI NOSIG=@CAELT@
ZPX0181 051057@CAELT@GG SLZZYMYT@CAELT@051056 SLORYGYZ@CAELT@SABO SLOR 051100@CAELT@METAR SLOR 051100Z 01004KT 5000 FU NSC 04/00 Q1037 A3062 657.3 HR79@CAELT@VIS RED N/NE/E/SE HZ/S/SW RESTO 8000 CI=@CAELT@
ZPX0182 051057@CAELT@GG SLZZYMYT@CAELT@051057 SLLPYGYZ@CAELT@SABO SLLP 051100@CAELT@METAR SLLP 051100Z VRB02KT 9999 FEW013 05/03 Q1040 A3072 629.4 HR89@CAELT@P3381 AC/CI NOSIG=@CAELT@
ZPX0183 051057@CAELT@GG SLZZYMYT@CAELT@051057 SLORYGYZ@CAELT@SABO SLOR 051100@CAELT@METAR SLOR 051100Z 01004KT 5000 FU NSC 04/00 Q1037 A3062 657.3 HR79@CAELT@VIS RED N/NE/E/SE HZ/S/SW RESTO 8000 CI=@CAELT@
ZPX0184 051057@CAELT@GG SLZZYMYT@CAELT@051057 SLVRYGYS@CAELT@SABO SLVR 051100@CAELT@METAR SLVR 051100Z 19014G26KT 9999 NSC 24/15 Q1014 A2995 HR56 FU@CAELT@NOSIG=@CAELT@METAR SLET 051100Z 17013G25KT 9999 NSC 24/14 Q1014 A2997 HR53 NOSIG=@CAELT@METAR SLAS 051100Z 00000KT 0500 FU NSC 24/20 Q1013 A2991 HR80 RWY NML@CAELT@METAR SLJV 051100Z 00000KT 5000 FU NSC 25/20 Q1011 A2985 HR82 RWY NMLMETAR SLCP 051100Z 00000KT 5000 FU NSC 23/21 Q1015 A2997 HR87 RWY NMLMETAR SLSI 051100Z 00000KT 6000 NSC 25/18 Q1012 A2988 HR68 FU RWY NMLMETAR SLTI 051100Z 00000KT 2000 FU NSC 26/20 Q1014 A2994 HR70 RWY NMLMETAR SLJE 051100Z 00000KT 5000 FU NSC 26/21 Q1015 A2997 HR76 RWY NMLMETAR SLRB 051100Z 00000KT 8000 NSC 20/19 Q1015 A2997 HR91 FU RWY NMLMETAR SLPS 051100Z 24006KT 6000 NSC 25/20 Q1011 A2986 HR70 FU=METAR SLCA 051100Z 00000KT 9999 NSC 16/09 Q1021 A3015 HR66 FU RWY NML=
ZPX0185 051058@CAELT@GG SLZZYMYT@CAELT@051057 SLUYYGYS@CAELT@SABO SLUY 051100@CAELT@METAR SLUY 051100Z 00000KT 9999 NSC 03/M09 Q1035 A3056 659.0@CAELT@HR40 FU=@CAELT@
ZPX0188 051101@CAELT@GG SLZZYMYT@CAELT@051059 SLTRYGYS@CAELT@SABO SLTR 051100@CAELT@METAR SLTR 051100Z 00000KT 7000 NSC 24/23 Q1010 A2985 992.2@CAELT@HR96 CI BR NOSIG=@CAELT@METAR SLGM 051100Z 02004KT 3000 FU SCT080 BKN200 24/23 Q1011 A2985@CAELT@HR96=@CAELT@METAR SLRI 051100Z 00000KT 5000 FU SCT080 BKN200 26/24 Q1011 A2987HR91=METAR SLJO 051100Z 00000KT 5000 FU NSC 24/23 Q1010 A2983 HR92 CIRWY NML=METAR SLRA 051100Z 00000KT 3000 FU NSC 25/23 Q1009 A2981 HR91 CIMETAR SLMG 051100Z 00000KT 8000 NSC 26/23 Q1009 A2982 HR83 FU CIMETAR SLBU 051100Z NIL=METAR SLSA 051100Z 00000KT 8000 NSC 22/22 Q1010 A2983 HR96 FU CI=METAR SLSR 051100Z 00000KT 8000 NSC 24/23 Q1008 A2979 HR92 FU CIMETAR SLSM 051100Z 00000KT 5000 FU NSC 23/23 Q1010 A2983 HR98
ZPX0190 051103@CAELT@GG SLZZYMYT@CAELT@051103 SLCBYGYS@CAELT@SABO SLCB 051100@CAELT@METAR SLCB 051100Z 00000KT 9999 NSC 15/07 Q1026 A3033 752.9 HR55 FU@CAELT@NOSIG=@CAELT@METAR SLAL 051100Z 01006KT 9999 NSC 12/06 Q1031 A3046 705.3 HR67=@CAELT@METAR SLVM 051100Z 18005KT 9999 NSC 18/13 Q1020 A3013 HR72 FU CI=@CAELT@METAR SLYA 051100Z 21005KT 9999 NSC 15/12 Q1020 A3014 944.8 HR82 FU=
ZPX0191 051104@CAELT@GG SLZZYMYT@CAELT@051100 SLLPYFYA@CAELT@SABO SLLP 051100@CAELT@METAR SLLP 051100Z VRB02KT 9999 FEW013 05/03 Q1040 A3072 629.4@CAELT@HR89 P3381 AC/CI NOSIG=@CAELT@METAR SLCO 051100Z 32003KT 7000 BKN090 BKN200 25/23 Q1011 A2987@CAELT@984.1 HR90 FU=@CAELT@METAR SLRY 051100Z 00000KT 6000 NSC 23/23 Q1006 A2973 HR95 FU CIRWY NML=METAR SLRQ 051100Z 00000KT 8000 NSC 24/24 Q1010 A2983 HR98 FU CI=METAR SLAP 051100Z 00000KT 9999 NSC 17/16 Q1020 A3013 860.7 HR95AC=METAR SLSB 051100Z 00000KT 5000 FU NSC 24/24 Q1009 A2979 HR97 RWY NMLMETAR SLOR 051100Z 01004KT 5000 FU NSC 04/00 Q1037 A3062 657.3HR79 VIS RED N/NE/E/SE HZ/S/SW RESTO 8000 CI=METAR SLUY 051100Z 00000KT 9999 NSC 03/M09 Q1035 A3056 659.0HR40 FU=
ZPX0216 051154@CAELT@GG SLZZYMYT@CAELT@051154 SLVRYGYZ@CAELT@SABO SLVR 051200@CAELT@METAR SLVR 051200Z 19020G30KT 9999 NSC 25/12 Q1015 A2999 HR43 NOSIG=@CAELT@
ZPX0217 051154@CAELT@GG SLZZYMYT@CAELT@051152 SLRYYSYX@CAELT@SABO SLRY 051200@CAELT@METAR SLRY 051200Z 00000KT 7000 NSC 25/24 Q1007 A2976 HR92 FU CI RWY@CAELT@NML=@CAELT@
ZPX0218 051154@CAELT@GG SLZZYMYT@CAELT@051154 SLSBYSYX@CAELT@SABO SLSB 051200@CAELT@METAR SLSB 051200Z 00000KT 5000 FU NSC 27/24 Q1009 A2981 HR84 RWY NML=@CAELT@
ZPX0219 051154@CAELT@GG SLZZYMYT@CAELT@051155 SLSAYGYS@CAELT@SABO SLSA 051200@CAELT@METAR SLSA 051200Z 00000KT 8000 SCT080 BKN200 26/24 Q1011 A2988@CAELT@HR85 FU=@CAELT@
ZPX0220 051155@CAELT@GG SLZZYMYT@CAELT@051153 SLPSZTZX@CAELT@SABO SLPS 051200@CAELT@METAR SLPS 051200Z 24010KT 6000 NSC 27/21 Q1011 A2986 HR68 FU=@CAELT@
ZPX0221 051155@CAELT@GG SLZZYMYT@CAELT@051154 SLETYMYC@CAELT@SABO SLET 051200@CAELT@METAR SLET 051200Z 17017G31KT 8000 NSC 25/14 Q1015 A2999 HR50 FU@CAELT@NOSIG=@CAELT@
ZPX0222 051155@CAELT@GG SLZZYMYT@CAELT@051155 SLORYGYZ@CAELT@SABO SLOR 051200@CAELT@METAR SLOR 051200Z 35006KT 9999 FEW015 08/M01 Q1037 A3064 657.7 HR56@CAELT@
ZPX0223 051156@CAELT@GG SLZZYMYT@CAELT@051153 SLRBYGYS@CAELT@SABO SLRB 051200@CAELT@METAR SLRB 051200Z 00000KT 8000 NSC 22/18 Q1017 A3003 HR85 FU RWY NML=@CAELT@
ZPX0225 051156@CAELT@GG SLZZYMYT@CAELT@051155 SLAGYSYX@CAELT@SABO SLAG 051200@CAELT@METAR SLAG 051200Z 00000KT 9999 NSC 20/10 Q1021 A3017 893.3 HR53 FU=@CAELT@
ZPX0226 051156@CAELT@GG SLZZYMYT@CAELT@051156 SLTRYGYZ@CAELT@SABO SLTR 051200@CAELT@METAR SLTR 051200Z 00000KT 7000 NSC 26/24 Q1011 A2988@CAELT@993.2 HR91 FU CI NOSIG=@CAELT@
ZPX0227 051156@CAELT@GG SLZZYMYT@CAELT@051155 SLLPYGYZ@CAELT@SABO SLLP 051200@CAELT@METAR SLLP 051200Z VRB02KT 9999 FEW005 07/03 Q1040 A3073 629.9 HR77@CAELT@P93// HZ SW/W/NW AC/CI NOSIG=@CAELT@
ZPX0228 051156@CAELT@GG SLZZYMYT@CAELT@051156 SLCAYGYS@CAELT@SABO SLCA 051200@CAELT@METAR SLCA 051200Z 00000KT 9999 NSC 19/09 Q1021 A3015 HR52 FU RWY NML@CAELT@
ZPX0230 051157@CAELT@GG SLZZYMYT@CAELT@051156 SLRQYSYX@CAELT@SABO SLRQ 051200@CAELT@METAR SLRQ 051200Z 00000KT 8000 NSC 27/25 Q1010 A2984 HR90 FU CI=@CAELT@
ZPX0231 051157@CAELT@GG SLZZYMYT@CAELT@051157 SLCOYGYZ@CAELT@SABO SLCO 051200@CAELT@METAR SLCO 051200Z 26003KT 5000 FU FEW090 BKN200 26/24 Q1012 A2990@CAELT@985.1 HR86=@CAELT@
ZPX0232 051157@CAELT@GG SLZZYMYT@CAELT@051158 SLUYYGYS@CAELT@SABO SLUY 051200@CAELT@METAR SLUY 051200Z 36007KT 9999 NSC 11/M05 Q1035 A3058 659.4@CAELT@HR31 FU=@CAELT@
ZPX0233 051158@CAELT@GG SLZZYMYT@CAELT@051156 SLCBYGYZ@CAELT@SABO SLCB 051200@CAELT@METAR SLCB 051200Z 00000KT 9999 NSC 19/05 Q1027 A3035 753.6 HR40 FU@CAELT@NOSIG=@CAELT@
ZPX0235 051159@CAELT@GG SLZZYMYT@CAELT@051158 SLTJYGYZ@CAELT@SABO SLTJ 051200@CAELT@METAR SLTJ 051200Z 15004KT 9999 NSC 15/07 Q1022 A3018 816.7 HR59 FU=@CAELT@
ZPX0236 051159@CAELT@GG SLZZYMYT@CAELT@051159 SLVRYGYS@CAELT@SABO SLVR 051200@CAELT@METAR SLVR 051200Z 19020G30KT 9999 NSC 25/12 Q1015 A2999 HR43 NOSIG=@CAELT@METAR SLET 051200Z 17017G31KT 8000 NSC 25/14 Q1015 A2999 HR50 FU@CAELT@NOSIG=@CAELT@METAR SLAS 051200Z 18003KT 1000 FU NSC 27/21 Q1014 A2994 HR69 RWY NML@CAELT@METAR SLJV 051200Z 00000KT 5000 FU NSC 26/21 Q1012 A2988 HR75 RWY NMLMETAR SLCP 051200Z 00000KT 8000 NSC 26/20 Q1016 A3000 HR73 FU RWY NMLMETAR SLSI 051200Z 00000KT 6000 NSC 27/20 Q1012 A2988 HR63 FU RWY NMLMETAR SLTI 051200Z 00000KT 2000 FU NSC 29/19 Q1014 A2994 HR57 RWY NMLMETAR SLJE 051200Z 18006KT 5000 FU NSC 30/19 Q1016 A3000 HR52 RWY NMLMETAR SLVG 051200Z 00000KT 9999 NSC 19/10 Q1026 A3030 HR54 FU RWY NMLMETAR SLRB 051200Z 00000KT 8000 NSC 22/18 Q1017 A3003 HR85 FU RWY NMLMETAR SLPS 051200Z 24010KT 6000 NSC 27/21 Q1011 A2986 HR68 FU=METAR SLCA 051200Z 00000KT 9999 NSC 19/09 Q1021 A3015 HR52 FU RWY NML=
ZPX0237 051159@CAELT@GG SLZZYMYT@CAELT@051159 SLTRYGYS@CAELT@SABO SLTR 051200@CAELT@METAR SLTR 051200Z 00000KT 7000 NSC 26/24 Q1011 A2988 993.2 HR91@CAELT@FU CI NOSIG=@CAELT@METAR SLGM 051200Z 02008KT 3000 FU SCT080 BKN200 25/24 Q1012 A2988@CAELT@HR90=@CAELT@METAR SLRI 051200Z 00000KT 5000 FU NSC 27/22 Q1012 A2991 HR74 CI=METAR SLJO 051200Z 34004KT 5000 FU FEW080 BKN200 27/24 Q1011 A2986HR83 RWY NML=METAR SLRA 051200Z 32004KT 5000 FU NSC 28/24 Q1010 A2984 HR81 CIRWY NML=METAR SLMG 051200Z 00000KT 8000 NSC 27/23 Q1010 A2984 HR79 FU CIMETAR SLBU 051200Z 00000KT 6000 NSC 27/24 Q1011 A2986 HR85 FU CIMETAR SLSA 051200Z 00000KT 8000 SCT080 BKN200 26/24 Q1011 A2988HR85 FU=METAR SLSR 051200Z 00000KT 8000 NSC 27/24 Q1009 A2981 HR85 FU CIMETAR SLSM 051200Z 00000KT 5000 FU NSC 25/24 Q1010 A2985 HR95
ZPX0241 051203@CAELT@GG SLZZYMYT@CAELT@051200 SLLPYFYA@CAELT@SABO SLLP 051200@CAELT@METAR SLLP 051200Z VRB02KT 9999 FEW005 07/03 Q1040 A3073 629.9@CAELT@HR77 P93// HZ SW/W/NW AC/CI NOSIG=@CAELT@METAR SLCO 051200Z 26003KT 5000 FU FEW090 BKN200 26/24 Q1012@CAELT@A2990 985.1 HR86=@CAELT@METAR SLRY 051200Z 00000KT 7000 NSC 25/24 Q1007 A2976 HR92FU CI RWY NML=METAR SLRQ 051200Z 00000KT 8000 NSC 27/25 Q1010 A2984HR90 FU CI=METAR SLSB 051200Z 00000KT 5000 FU NSC 27/24 Q1009 A2981HR84 RWY NML=METAR SLAP 051200Z 00000KT 9999 NSC 19/16 Q1020 A3015861.1 HR88=METAR SLOR 051200Z 35006KT 9999 FEW015 08/M01 Q1037 A3064657.7 HR56 FU=METAR SLUY 051200Z 36007KT 9999 NSC 11/M05 Q1035 A3058659.4 HR31 FU=
ZPX0246 051208@CAELT@GG SLZZYMYT@CAELT@051205 SLCBYGYS@CAELT@SABO SLCB 051200@CAELT@METAR SLCB 051200Z 00000KT 9999 NSC 19/05 Q1027 A3035 753.6 HR40 FU@CAELT@NOSIG=@CAELT@METAR SLAL 051200Z 35015KT 9999 NSC 13/05 Q1032 A3048 705.7 HR59=@CAELT@METAR SLAG 051200Z 00000KT 9999 NSC 20/10 Q1021 A3017 893.3 HR53 FU=@CAELT@METAR SLTJ 051200Z 15004KT 9999 NSC 15/07 Q1022 A3018 816.7 HR59 FU=METAR SLYA 051200Z 21006KT 9999 NSC 17/12 Q1021 A3014 945.4 HR75=
ZPX0247 051209@CAELT@GG SLZZYMYT@CAELT@051209 SLCBYGYS@CAELT@SABO SLCB 051200@CAELT@METAR SLCB 051200Z 00000KT 9999 NSC 19/05 Q1027 A3035 753.6 HR40 FU@CAELT@NOSIG=@CAELT@METAR SLAL 051200Z 35015KT 9999 NSC 13/05 Q1032 A3048 705.7 HR59=@CAELT@METAR SLAG 051200Z 00000KT 9999 NSC 20/10 Q1021 A3017 893.3 HR53 FU=@CAELT@METAR SLVM 051200Z 18007KT 9999 NSC 19/13 Q1021 A3016 HR68 FU CI=METAR SLTJ 051200Z 15004KT 9999 NSC 15/07 Q1022 A3018 816.7 HR59 FU=METAR SLYA 051200Z 21006KT 9999 NSC 17/12 Q1021 A3014 945.4 HR75=
ZPX0265 051253@CAELT@GG SLZZYMYT@CAELT@051254 SLSAYGYS@CAELT@SABO SLSA 051300@CAELT@METAR SLSA 051300Z 00000KT 8000 FEW080 BKN200 29/24 Q1011 A2988@CAELT@HR73 FU=@CAELT@
ZPX0267 051254@CAELT@GG SLZZYMYT@CAELT@051253 SLRBYGYS@CAELT@SABO SLRB 051300@CAELT@METAR SLRB 051300Z 00000KT 8000 NSC 26/20 Q1017 A3003 HR72 FU RWY NML=@CAELT@
ZPX0268 051254@CAELT@GG SLZZYMYT@CAELT@051255 SLCOYGYZ@CAELT@SABO SLCO 051300@CAELT@METAR SLCO 051300Z 31005KT 6000 FEW090 SCT200 29/24 Q1013 A2992 985.8@CAELT@HR75 FU=@CAELT@
ZPX0269 051255@CAELT@GG SLZZYMYT@CAELT@051255 SLRQYSYX@CAELT@SABO SLRQ 051300@CAELT@METAR SLRQ 051300Z 00000KT 8000 NSC 30/26 Q1011 A2987 HR77 FU CI=@CAELT@
ZPX0270 051255@CAELT@GG SLZZYMYT@CAELT@051255 SLAGYSYX@CAELT@SABO SLAG 051300@CAELT@METAR SLAG 051300Z 10003KT 9999 NSC 22/10 Q1021 A3017 893.2 HR47 FU=@CAELT@
ZPX0271 051255@CAELT@GG SLZZYMYT@CAELT@051255 SLCAYGYS@CAELT@SABO SLCA 051300@CAELT@METAR SLCA 051300Z 18003KT 9999 NSC 22/09 Q1021 A3015 HR44 FU RWY NML@CAELT@
ZPX0272 051256@CAELT@GG SLZZYMYT@CAELT@051255 SLTRYGYZ@CAELT@SABO SLTR 051300@CAELT@METAR SLTR 051300Z 30003KT 7000 NSC 29/25 Q1012 A2989 993.6 HR77@CAELT@FU CI NOSIG=@CAELT@
ZPX0273 051256@CAELT@GG SLZZYMYT@CAELT@051255 SLTRYGYZ@CAELT@SABO SLTR 051300@CAELT@METAR SLTR 051300Z 30003KT 7000 NSC 29/25 Q1012 A2989 993.6 HR77@CAELT@FU CI NOSIG=@CAELT@
ZPX0274 051256@CAELT@GG SLZZYMYT@CAELT@051255 SLLPYGYZ@CAELT@SABO SLLP 051300@CAELT@METAR SLLP 051300Z 12004KT 9999 FEW008 10/02 Q1041 A3076 630.3 HR58@CAELT@P4053 HZ SW/W/NW CI NOSIG=@CAELT@
ZPX0275 051257@CAELT@GG SLZZYMYT@CAELT@051258 SLTRYGYS@CAELT@SABO SLTR 051300@CAELT@METAR SLTR 051300Z 30003KT 7000 NSC 29/25 Q1012 A2989 993.6 HR77@CAELT@FU CI NOSIG=@CAELT@METAR SLGM 051300Z 02008KT 5000 FU BKN080 27/24 Q1012 A2989 HR82=@CAELT@METAR SLRI 051300Z 00000KT 5000 FU BKN080 BKN200 28/22 Q1013 A2993@CAELT@HR72=METAR SLJO 051300Z 34006KT 5000 FU NSC 31/23 Q1011 A2988 HR63 CIRWY NML=METAR SLRA 051300Z 32006KT 5000 FU NSC 31/24 Q1011 A2986 HR65 CIMETAR SLMG 051300Z 32004KT 8000 NSC 31/24 Q1011 A2985 HR68 FU CIMETAR SLBU 051300Z 00000KT 6000 NSC 31/24 Q1011 A2987 HR66 FU CIMETAR SLSA 051300Z 00000KT 8000 FEW080 BKN200 29/24 Q1011 A2988HR73 FU=METAR SLSR 051300Z 32004KT 8000 NSC 29/24 Q1010 A2983 HR77 FU CIMETAR SLSM 051300Z 00000KT 8000 NSC 30/25 Q1011 A2988 HR73 FU
ZPX0276 051257@CAELT@GG SLZZYMYT@CAELT@051258 SLVRYGYZ@CAELT@SABO SLVR 051300@CAELT@METAR SLVR 051300Z 18020G30KT 9999 NSC 27/12 Q1015 A2999 HR40 FU@CAELT@NOSIG=@CAELT@
ZPX0277 051257@CAELT@GG SLZZYMYT@CAELT@051257 SLCBYGYZ@CAELT@SABO SLCB 051300@CAELT@METAR SLCB 051300Z 00000KT 9999 FEW036 22/04 Q1028 A3037 754.0 HR31@CAELT@FU NOSIG=@CAELT@
ZPX0279 051258@CAELT@GG SLZZYMYT@CAELT@051257 SLUYYGYS@CAELT@SABO SLUY 051300@CAELT@METAR SLUY 051300Z 34015KT 9999 FEW025 13/M07 Q1036 A3059 659.7@CAELT@HR24 FU=@CAELT@
ZPX0280 051258@CAELT@GG SLZZYMYT@CAELT@051255 SLRYYSYX@CAELT@SABO SLRY 051300@CAELT@METAR SLRY 051300Z 00000KT 70000 NSC 30/25 Q1007 A2980 HR76 FU CI RWY@CAELT@NML=@CAELT@
ZPX0281 051258@CAELT@GG SLZZYMYT@CAELT@051258 SLORYGYZ@CAELT@SABO SLOR 051300@CAELT@METAR SLOR 051300Z 35008KT 9999 FEW015 12/03 Q1037 A3065 657.9 HR53@CAELT@
ZPX0282 051258@CAELT@GG SLZZYMYT@CAELT@051258 SLTJYGYZ@CAELT@SABO SLTJ 051300@CAELT@METAR SLTJ 051300Z 09006KT 9999 NSC 16/07 Q1022 A3018 816.6 HR53 FU=@CAELT@
ZPX0284 051300@CAELT@GG SLZZYMYT@CAELT@051258 SLSBYSYX@CAELT@SABO SLSB 051300@CAELT@METAR SLSB 051300Z 00000KT 5000 FU NSC 29/24 Q1011 A2986 HR72 RWY NML=@CAELT@
ZPX0285 051300@CAELT@GG SLZZYMYT@CAELT@051300 SLCBYGYS@CAELT@SABO SLCB 051300@CAELT@METAR SLCB 051300Z 00000KT 9999 FEW036 22/04 Q1028 A3037 754.0 HR31@CAELT@FU NOSIG=@CAELT@METAR SLAL 051300Z 34015KT 9999 NSC 16/05 Q1032 A3049 705.9 HR49=@CAELT@METAR SLAG 051300Z 10003KT 9999 NSC 22/10 Q1021 A3017 893.2 HR47 FU=@CAELT@METAR SLVM 051300Z 18012G25KT 9999 NSC 21/14 Q1021 A3016 HR67 FU CI=METAR SLTJ 051300Z 09006KT 9999 NSC 16/07 Q1022 A3018 816.6 HR53 FU=METAR SLYA 051300Z 21006KT 9999 NSC 20/12 Q1021 A3016 945.6 HR62=
ZPX0286 051301@CAELT@GG SLZZYMYT@CAELT@051300 SLLPYFYA@CAELT@SABO SLLP 051300@CAELT@METAR SLLP 051300Z 12004KT 9999 FEW008 10/02 Q1041 A3076@CAELT@630.3 HR58 P4053 HZ SW/W/NW CI NOSIG=@CAELT@METAR SLCO 051300Z 31005KT 6000 FEW090 SCT200 29/24 Q1013@CAELT@A2992 985.8 HR75 FU=@CAELT@METAR SLRY 051300Z 00000KT 70000 NSC 30/25 Q1007 A2980 HR76FU CI RWY NML=METAR SLRQ 051300Z 00000KT 8000 NSC 30/26 Q1011 A2987 HR77FU CI=METAR SLSB 051300Z 00000KT 5000 FU NSC 29/24 Q1011 A2986 HR72RWY NML=METAR SLAP 051300Z 00000KT 9999 NSC 23/18 Q1021 A3015 861.2HR73=METAR SLOR 051300Z 35008KT 9999 FEW015 12/03 Q1037 A3065657.9 HR53 FU=METAR SLUY 051300Z 34015KT 9999 FEW025 13/M07 Q1036 A3059659.7 HR24 FU=
ZPX0288 051301@CAELT@GG SLZZYMYT@CAELT@051302 SLVRYGYS@CAELT@SABO SLVR 051300@CAELT@METAR SLVR 051300Z 18020G30KT 9999 NSC 27/12 Q1015 A2999 HR40 FU@CAELT@NOSIG=@CAELT@METAR SLET 051300Z NIL=@CAELT@METAR SLAS 051300Z 18012KT 1500 FU NSC 31/22 Q1015 A2997 HR62 RWY NML@CAELT@METAR SLJV 051300Z 18014KT 5000 FU NSC 25/19 Q1013 A2991 HR70 RWY NMLMETAR SLCP 051300Z 21005KT 8000 NSC 30/19 Q1016 A3000 HR54 FU RWY NMLMETAR SLSI 051300Z 18010KT 6000 NSC 30/20 Q1013 A2991 HR54 FU RWY NMLMETAR SLTI 051300Z 00000KT 2000 FU NSC 34/18 Q1015 A2997 HR40 RWY NMLMETAR SLJE 051300Z 18008KT 4000 FU NSC 30/19 Q1016 A3000 HR51 RWY NMLMETAR SLVG 051300Z 34007KT 9999 NSC 23/09 Q1026 A3030 HR36 FU RWY NMLMETAR SLRB 051300Z 00000KT 8000 NSC 26/20 Q1017 A3003 HR72 FU RWY NMLMETAR SLPS 051300Z NIL=METAR SLCA 051300Z 18003KT 9999 NSC 22/09 Q1021 A3015 HR44 FU RWY NML
ZPX0292 051307@CAELT@GG SLZZYMYT@CAELT@051307 SLETYMYC@CAELT@SABO SLET 051300@CAELT@METAR SLET 051300Z 17017G32KT 9000 NSC 27/13 Q1016 A3001 HR42 FU@CAELT@NOSIG=@CAELT@
ZPX0301 051322@CAELT@GG SLZZYMYT@CAELT@051320 SLPSZTZX@CAELT@SABO SLPS RRA 051300@CAELT@METAR SLPS RTD 051300Z 24010KT 8000 NSC 31/23 Q1011 A2986 HR61 FU=@CAELT@
ZPX0320 051354@CAELT@GG SLZZYMYT@CAELT@051353 SLRBYGYS@CAELT@SABO SLRB 051400@CAELT@METAR SLRB 051400Z 00000KT 8000 NSC 28/19 Q1017 A3003 HR60 FU RWY NML=@CAELT@
ZPX0321 051354@CAELT@GG SLZZYMYT@CAELT@051355 SLCOYGYZ@CAELT@SABO SLCO 051400@CAELT@METAR SLCO 051400Z 32006KT 8000 NSC 31/24 Q1013 A2994 986.4 HR68 FU@CAELT@
ZPX0322 051354@CAELT@GG SLZZYMYT@CAELT@051354 SLSBYSYX@CAELT@SABO SLSB 051400@CAELT@METAR SLSB 051400Z 00000KT 5000 FU NSC 32/25 Q1011 A2986 HR68 RWY NML=@CAELT@
ZPX0323 051355@CAELT@GG SLZZYMYT@CAELT@051354 SLPSZTZX@CAELT@SABO SLPS 051400@CAELT@METAR SLPS 051400Z 24008KT 8000 NSC 33/23 Q1011 A2986 HR52 FU=@CAELT@
ZPX0325 051356@CAELT@GG SLZZYMYT@CAELT@051355 SLSAYGYS@CAELT@SABO SLSA 051400@CAELT@METAR SLSA 051400Z 34005KT 8000 NSC 33/24 Q1012 A2989@CAELT@HR58 FU CI=@CAELT@
ZPX0326 051356@CAELT@GG SLZZYMYT@CAELT@051355 SLORYGYZ@CAELT@SABO SLOR 051400@CAELT@METAR SLOR 051400Z 35007KT 9999 FEW017 15/02 Q1037 A3065 657.9 HR43=@CAELT@
ZPX0327 051356@CAELT@GG SLZZYMYT@CAELT@051355 SLLPYGYZ@CAELT@SABO SLLP 051400@CAELT@METAR SLLP 051400Z 14005KT 9999 FEW015 12/00 Q1041 A3075 630.2 HR44@CAELT@P93// HZ SW/W/NW CI NOSIG=@CAELT@
ZPX0328 051356@CAELT@GG SLZZYMYT@CAELT@051355 SLETYMYC@CAELT@SABO SLET 051400@CAELT@METAR SLET 051400Z 17017G30KT 9999 NSC 28/11 Q1016 A3001 HR35 NOSIG=@CAELT@
ZPX0329 051356@CAELT@GG SLZZYMYT@CAELT@051355 SLAGYSYX@CAELT@SABO SLAG 051400@CAELT@METAR SLAG 051400Z 15004KT 9999 NSC 24/10 Q1020 A3014 892.5 HR41 FU=@CAELT@
ZPX0330 051356@CAELT@GG SLZZYMYT@CAELT@051356 SLCBYGYZ@CAELT@SABO SLCB 051400@CAELT@METAR SLCB 051400Z 00000KT 9999 FEW040 24/04 Q1027 A3035 753.6 HR28@CAELT@FU NOSIG=@CAELT@
ZPX0331 051356@CAELT@GG SLZZYMYT@CAELT@051356 SLTRYGYZ@CAELT@SABO SLTR 051400@CAELT@METAR SLTR 051400Z 33005KT 7000 NSC 31/24 Q1012 A2990 994.0 HR66@CAELT@FU CI NOSIG=@CAELT@
ZPX0332 051356@CAELT@GG SLZZYMYT@CAELT@051357 SLVRYGYZ@CAELT@SABO SLVR 051400@CAELT@METAR SLVR 051400Z 18017G28KT 9999 NSC 28/13 Q1016 A3000 HR38 FU@CAELT@NOSIG=@CAELT@
ZPX0333 051357@CAELT@GG SLZZYMYT@CAELT@051355 SLRQYSYX@CAELT@SABO SLRQ 051400@CAELT@METAR SLRQ 051400Z 00000KT 8000 NSC 34/26 Q1012 A2989 HR64 FU=@CAELT@
ZPX0334 051357@CAELT@GG SLZZYMYT@CAELT@051358 SLUYYGYS@CAELT@SABO SLUY 051400@CAELT@METAR SLUY 051400Z 34013KT 9999 FEW027 15/M02 Q1035 A3059 659.6@CAELT@HR29 FU=@CAELT@
ZPX0335 051358@CAELT@GG SLZZYMYT@CAELT@051357 SLTRYGYS@CAELT@SABO SLTR 051400@CAELT@METAR SLTR 051400Z 33005KT 7000 NSC 31/24 Q1012 A2990 994.0 HR66@CAELT@FU CI NOSIG=@CAELT@METAR SLGM 051400Z 02004KT 5000 FU SCT023 BKN080 28/24 Q1012 A2991@CAELT@HR78=@CAELT@METAR SLRI 051400Z 27006KT 5000 FU SCT020 BKN080 29/23 Q1014 A2994HR71=METAR SLJO 051400Z 32006KT 5000 FU NSC 33/23 Q1012 A2989 HR55 CIRWY NML=METAR SLRA 051400Z 32008KT 6000 NSC 33/23 Q1011 A2987 HR57 FU CIMETAR SLMG 051400Z 32004KT 8000 NSC 33/24 Q1011 A2985 HR57 FU CIMETAR SLBU 051400Z 00000KT 6000 NSC 33/25 Q1011 A2988 HR62 FU CIMETAR SLSA 051400Z 34005KT 8000 NSC 33/24 Q1012 A2989 HR58 FU CI=METAR SLSR 051400Z 32006KT 8000 NSC 32/25 Q1010 A2984 HR64 FU CIMETAR SLSM 051400Z 00000KT 9999 NSC 33/24 Q1012 A2989 HR59 FU
ZPX0336 051358@CAELT@GG SLZZYMYT@CAELT@051357 SLCAYGYS@CAELT@SABO SLCA 051400@CAELT@METAR SLCA 051400Z 18004KT 9999 NSC 24/08 Q1021 A3015 HR38 FU RWY NML@CAELT@
ZPX0337 051358@CAELT@GG SLZZYMYT@CAELT@051356 SLRYYSYX@CAELT@SABO SLRY 051400@CAELT@METAR SLRY 051400Z 00000KT 7000 NSC 32/25 Q1009 A2982 HR64 FU CI RWY@CAELT@NML=@CAELT@
ZPX0339 051359@CAELT@GG SLZZYMYT@CAELT@051356 SLRYYSYX@CAELT@SABO SLRY 051400@CAELT@METAR SLRY 051400Z 00000KT 7000 NSC 32/25 Q1009 A2982 HR64 FU CI RWY@CAELT@NML=@CAELT@
ZPX0340 051359@CAELT@GG SLZZYMYT@CAELT@051359 SLLPYFYA@CAELT@SABO SLLP 051400@CAELT@METAR SLLP 051400Z 14005KT 9999 FEW015 12/00 Q1041 A3075 630.2@CAELT@HR44 P93// HZ SW/W/NW CI NOSIG=@CAELT@METAR SLCO 051400Z 32006KT 8000 NSC 31/24 Q1013 A2994 986.4@CAELT@HR68 FU CI=@CAELT@METAR SLRY 051400Z 00000KT 7000 NSC 32/25 Q1009 A2982 HR64 FUCI RWY NML=METAR SLRQ 051400Z 00000KT 8000 NSC 34/26 Q1012 A2989 HR64 FU=METAR SLAP 051500Z 00000KT 9999 NSC 27/17 Q1021 A3016 861.5HR55=METAR SLSB 051400Z 00000KT 5000 FU NSC 32/25 Q1011 A2986 HR68RWY NML=METAR SLOR 051400Z 35007KT 9999 FEW017 15/02 Q1037 A3065 657.9HR43=METAR SLUY 051400Z 34013KT 9999 FEW027 15/M02 Q1035 A3059659.6 HR29 FU=
ZPX0341 051359@CAELT@GG SLZZYMYT@CAELT@051359 SLTJYGYZ@CAELT@SABO SLTJ 051400@CAELT@METAR SLTJ 051400Z 00000KT 8000 NSC 18/06 Q1020 A3015 815.7 HR47 FU=@CAELT@
ZPX0342 051400@CAELT@GG SLZZYMYT@CAELT@051400 SLVRYGYS@CAELT@SABO SLVR 051400@CAELT@METAR SLVR 051400Z 18017G28KT 9999 NSC 28/13 Q1016 A3000 HR38 FU@CAELT@NOSIG=@CAELT@METAR SLET 051400Z 17017G30KT 9999 NSC 28/11 Q1016 A3001 HR35 NOSIG=@CAELT@METAR SLAS 051400Z 20012KT 3000 FU NSC 31/20 Q1015 A2997 HR51@CAELT@RWY NML=METAR SLJV 051400Z 18012KT 5000 FU NSC 26/19 Q1013 A2991 HR70METAR SLCP 051400Z 21008KT 8000 NSC 30/19 Q1017 A3003 HR54FU RWY NML=METAR SLSI 051400Z 22008KT 6000 NSC 32/19 Q1013 A2991 HR47METAR SLTI 051400Z 16005KT 3000 FU NSC 34/18 Q1015 A2997 HR36METAR SLJE 051400Z 18010KT 4000 FU NSC 31/19 Q1017 A3003 HR49METAR SLVG 051400Z 34013KT 9999 NSC 25/07 Q1026 A3030 HR28METAR SLRB 051400Z 00000KT 8000 NSC 28/19 Q1017 A3003 HR60METAR SLPS 051400Z 24008KT 8000 NSC 33/23 Q1011 A2986 HR52 FU=METAR SLCA 051400Z 18004KT 9999 NSC 24/08 Q1021 A3015 HR38
ZPX0348 051408@CAELT@GG SLZZYMYT@CAELT@051408 SLCBYGYS@CAELT@SABO SLCB 051400@CAELT@METAR SLCB 051400Z 00000KT 9999 FEW040 24/04 Q1027 A3035 753.6 HR28@CAELT@FU NOSIG=@CAELT@METAR SLAL 051400Z 01015KT 9999 NSC 17/04 Q101032 A3048 705.7 HR43=@CAELT@METAR SLAG 051400Z 15004KT 9999 NSC 24/10 Q1020 A3014 892.5 HR41 FU=@CAELT@METAR SLVM 051400Z 18010G22KT 9999 NSC 22/15 Q1020 A3014 HR64 FU=METAR SLTJ 051400Z 00000KT 8000 NSC 18/06 Q1020 A3015 815.7 HR47 FU=METAR SLYA 051400Z 21010KT 9999 FEW023 21/12 Q1020 A3014 945.0 HR59=
ZPX0375 051453@CAELT@GG SLZZYMYT@CAELT@051453 SLRBYGYS@CAELT@SABO SLRB 051500@CAELT@METAR SLRB 051500Z 00000KT 8000 NSC 29/19 Q1017 A3003 HR54 FU RWY NML=@CAELT@
ZPX0376 051454@CAELT@GG SLZZYMYT@CAELT@051455 SLORYGYZ@CAELT@SABO SLOR 051500@CAELT@METAR SLOR 051500Z 02006KT 9999 FEW020 18/03 Q1037 A3063 657.5 HR37=@CAELT@
ZPX0377 051454@CAELT@GG SLZZYMYT@CAELT@051453 SLETYMYC@CAELT@SABO SLET 051500@CAELT@METAR SLET 051500Z 17017G29KT 9999 NSC 30/11 Q1015 A3000 HR32 NOSIG=@CAELT@
ZPX0378 051454@CAELT@GG SLZZYMYT@CAELT@051455 SLRQYSYX@CAELT@SABO SLRQ 051500@CAELT@METAR SLRQ 051500Z 00000KT 8000 NSC 35/25 Q1011 A2988 HR55 FU=@CAELT@
ZPX0379 051455@CAELT@GG SLZZYMYT@CAELT@051453 SLPSZTZX@CAELT@SABO SLPS 051500@CAELT@METAR SLPS 051500Z 19006KT 8000 NSC 35/24 Q1011 A2986 HR54 FU=@CAELT@
ZPX0380 051455@CAELT@GG SLZZYMYT@CAELT@051455 SLCOYGYZ@CAELT@SABO SLCO 051500@CAELT@METAR SLCO 051500Z 35006KT 9999 NSC 33/25 Q1013 A2994 986.3 HR64 FU@CAELT@
ZPX0381 051455@CAELT@GG SLZZYMYT@CAELT@051455 SLSAYGYS@CAELT@SABO SLSA 051500@CAELT@METAR SLSA 051500Z 32006KT 8000 NSC 35/23 Q1012 A2989 HR52 FU CI=@CAELT@
ZPX0382 051455@CAELT@GG SLZZYMYT@CAELT@051455 SLCAYGYS@CAELT@SABO SLCA 051500@CAELT@METAR SLCA 051500Z 18003KT 9999 NSC 25/08 Q1020 A3012 HR35 FU RWY NML@CAELT@
ZPX0384 051456@CAELT@GG SLZZYMYT@CAELT@051457 SLVRYGYZ@CAELT@SABO SLVR 051500@CAELT@METAR SLVR 051500Z 17015G27KT 9000 NSC 30/13 Q1015 A2999 HR36 FU@CAELT@NOSIG=@CAELT@
ZPX0386 051456@CAELT@GG SLZZYMYT@CAELT@051455 SLAGYSYX@CAELT@SABO SLAG 051500@CAELT@METAR SLAG 051500Z 20003KT 9999 NSC 26/11 Q1019 A3011 891.4 HR38 FU=@CAELT@
ZPX0387 051456@CAELT@GG SLZZYMYT@CAELT@051452 SLRYYSYX@CAELT@SABO SLRY 051500@CAELT@METAR SLRY 051500Z 00000KT 6000 NSC 34/25 Q1009 A2982 HR60 FU CI RWY@CAELT@NML=@CAELT@
ZPX0388 051456@CAELT@GG SLZZYMYT@CAELT@051456 SLTRYGYZ@CAELT@SABO SLTR 051500@CAELT@METAR SLTR 051500Z 34005KT 8000 NSC 33/24 Q1012 A2990 994.0@CAELT@HR69 FU CI NOSIG=@CAELT@
ZPX0389 051456@CAELT@GG SLZZYMYT@CAELT@051455 SLLPYGYZ@CAELT@SABO SLLP 051500@CAELT@METAR SLLP 051500Z 08013G25KT 040V120 9999 FEW017 15/M05 Q1041 A3075@CAELT@630.1 HR25 P93// FU CI NOSIG=@CAELT@
ZPX0390 051457@CAELT@GG SLZZYMYT@CAELT@051456 SLUYYGYS@CAELT@SABO SLUY 051500@CAELT@METAR SLUY 051500Z 31013KT 9999 FEW030 17/M01 Q1035 A3058 659.3@CAELT@HR30 FU=@CAELT@
ZPX0392 051457@CAELT@GG SLZZYMYT@CAELT@051457 SLCBYGYZ@CAELT@SABO SLCB 051500@CAELT@METAR SLCB 051500Z 26005KT 9999 FEW040 27/01 Q1027 A3033 753.1 HR19@CAELT@FU NOSIG=@CAELT@
ZPX0393 051457@CAELT@GG SLZZYMYT@CAELT@051456 SLSBYSYX@CAELT@SABO SLSB 051500@CAELT@METAR SLSB 051500Z 33005KT 5000 FU NSC 34/25 Q1010 A2985 HR58 RWY NML=@CAELT@
ZPX0394 051458@CAELT@GG SLZZYMYT@CAELT@051458 SLTRYGYS@CAELT@SABO SLTR 051500@CAELT@METAR SLTR 051500Z 34005KT 8000 NSC 33/24 Q1012 A2990 994.0@CAELT@HR69 FU CI NOSIG=@CAELT@METAR SLGM 051500Z 02004KT 5000 FU SCT023 BKN080 28/24 Q1013 A2992@CAELT@HR79=@CAELT@METAR SLRI 051500Z 00000KT 5000 FU SCT020 BKN080 28/23 Q1014 A2995HR73=METAR SLJO 051500Z 32008KT 5000 FU NSC 35/22 Q1012 A2991 HR46 CIRWY NML=METAR SLRA 051500Z 32008KT 7000 NSC 35/23 Q1011 A2988 HR51 FU CIMETAR SLMG 051500Z 32006KT 8000 NSC 36/24 Q1011 A2987 HR50 FU CIMETAR SLBU 051500Z 27006KT 8000 NSC 35/24 Q1011 A2987 HR52 FU CIMETAR SLSA 051500Z 32006KT 8000 NSC 35/23 Q1012 A2989 HR52 FU CI=METAR SLSR 051500Z 30006KT 8000 NSC 34/24 Q1010 A2984 HR56 FU CIMETAR SLSM 051500Z 00000KT 9999 NSC 35/24 Q1012 A2988 HR58 FU
ZPX0397 051459@CAELT@GG SLZZYMYT@CAELT@051458 SLLPYFYA@CAELT@SABO SLLP 051500@CAELT@METAR SLLP 051500Z 08013G25KT 040V120 9999 FEW017 15/M05 Q1041@CAELT@A3075 630.1 HR25 P93// FU CI NOSIG=@CAELT@METAR SLCO 051500Z 35006KT 9999 NSC 33/25 Q1013 A2994 986.3@CAELT@HR64 FU CI=@CAELT@METAR SLRY 051500Z 00000KT 6000 NSC 34/25 Q1009 A2982 HR60FU CI RWY NML=METAR SLRQ 051500Z 00000KT 8000 NSC 35/25 Q1011 A2988 HR55METAR SLAP 051500Z 00000KT 9999 NSC 30/16 Q1021 A3015 861.2HR43=METAR SLSB 051500Z 33005KT 5000 FU NSC 34/25 Q1010 A2985HR58 RWY NML=METAR SLOR 051500Z 02006KT 9999 FEW020 18/03 Q1037 A3063657.5 HR37=METAR SLUY 051500Z 31013KT 9999 FEW030 17/M01 Q1035 A3058659.3 HR30 FU=
ZPX0398 051459@CAELT@GG SLZZYMYT@CAELT@051458 SLTRYGYZ@CAELT@SABO SLTR 051500 CCA@CAELT@METAR COR SLTR 051500Z 34005KT 8000 NSC 33/24 Q1012 A2990 994.0@CAELT@HR59 FU CI NOSIG=@CAELT@
ZPX0401 051501@CAELT@GG SLZZYMYT@CAELT@051501 SLTJYGYZ@CAELT@SABO SLTJ 051500 RRA@CAELT@METAR RTD SLTJ 051500Z 21006KT 8000 NSC 21/08 Q1019 A3011 814.7 HR42@CAELT@
ZPX0402 051501@CAELT@GG SLZZYMYT@CAELT@051500 SLTRYGYS@CAELT@SABO SLTR 051500 CCA@CAELT@METAR COR SLTR 051500Z 34005KT 8000 NSC 33/24 Q1012 A2990 994.0@CAELT@HR59 FU CI NOSIG=@CAELT@METAR SLGM 051500Z 02004KT 5000 FU SCT023 BKN080 28/24 Q1013 A2992@CAELT@HR79=@CAELT@METAR SLRI 051500Z 00000KT 5000 FU SCT020 BKN080 28/23 Q1014 A2995HR73=METAR SLJO 051500Z 32008KT 5000 FU NSC 35/22 Q1012 A2991 HR46 CIRWY NML=METAR SLRA 051500Z 32008KT 7000 NSC 35/23 Q1011 A2988 HR51 FU CIMETAR SLMG 051500Z 32006KT 8000 NSC 36/24 Q1011 A2987 HR50 FU CIMETAR SLBU 051500Z 27006KT 8000 NSC 35/24 Q1011 A2987 HR52 FU CIMETAR SLSA 051500Z 32006KT 8000 NSC 35/23 Q1012 A2989 HR52 FU CI=METAR SLSR 051500Z 30006KT 8000 NSC 34/24 Q1010 A2984 HR56 FU CIMETAR SLSM 051500Z 00000KT 9999 NSC 35/24 Q1012 A2988 HR58 FU
ZPX0406 051503@CAELT@GG SLZZYMYT@CAELT@051502 SLCBYGYS@CAELT@SABO SLCB 051500@CAELT@METAR SLCB 051500Z 26005KT 9999 FEW040 27/01 Q1027 A3033 753.1 HR19@CAELT@FU NOSIG=@CAELT@METAR SLAL 051500Z 01011KT 9999 FEW015 19/05 Q1032 A3047 705.6 HR41=@CAELT@METAR SLAG 051500Z 20003KT 9999 NSC 26/11 Q1019 A3011 891.4 HR38 FU=@CAELT@METAR SLVM 051500Z 18010KT 9999 NSC 23/15 Q1019 A3012 HR64 FU=METAR SLTJ 051500Z 21006KT 8000 NSC 21/08 Q1019 A3011 814.7 HR42
ZPX0408 051506@CAELT@GG SLZZYMYT@CAELT@051505 SLCBYGYS@CAELT@SABO SLCB 051500@CAELT@METAR SLCB 051500Z 26005KT 9999 FEW040 27/01 Q1027 A3033 753.1 HR19@CAELT@FU NOSIG=@CAELT@METAR SLAL 051500Z 01011KT 9999 FEW015 19/05 Q1032 A3047 705.6 HR41=@CAELT@METAR SLAG 051500Z 20003KT 9999 NSC 26/11 Q1019 A3011 891.4 HR38 FU=@CAELT@METAR SLVM 051500Z 18010KT 9999 NSC 23/15 Q1019 A3012 HR64 FU=METAR SLTJ 051500Z 21006KT 8000 NSC 21/08 Q1019 A3011 814.7 HR42METAR SLYA 051500Z 21010KT 9999 FEW023 22/13 Q1019 A3011 944.0 HR58=
ZPX0409 051508@CAELT@GG SLZZYMYT@CAELT@051508 SLVRYGYS@CAELT@SABO SLVR 051500@CAELT@METAR SLVR 051500Z 17015G27KT 9000 NSC 30/13 Q1015 A2999 HR36 FU@CAELT@NOSIG=@CAELT@METAR SLET 051500Z 17017G29KT 9999 NSC 30/11 Q1015 A3000 HR32@CAELT@METAR SLAS 051500Z 19012KT 5000 FU NSC 32/20 Q1015 A2997 HR50@CAELT@RWY NML=METAR SLJV 051500Z 18014KT 5000 FU NSC 28/17 Q1014 A2994 HR55METAR SLCP 051500Z 24008KT 8000 NSC 31/21 Q1017 A3003 HR54FU RWY NML=METAR SLSI 051500Z 22010KT 8000 NSC 35/19 Q1013 A2991 HR42METAR SLTI 051500Z 16006KT 4000 FU NSC 37/18 Q1015 A2997 HR33 RWY NMLMETAR SLJE 051500Z 18012KT 5000 FU NSC 33/21 Q1016 A3000 HR48 RWY NMLMETAR SLVG 051500Z 34015KT 9999 NSC 26/07 Q1025 A3027 HR24 FU RWY NMLMETAR SLRB 051500Z 00000KT 8000 NSC 29/19 Q1017 A3003 HR54METAR SLPS 051500Z 19006KT 8000 NSC 35/24 Q1011 A2986 HR54 FU=METAR SLCA 051500Z 18003KT 9999 NSC 25/08 Q1020 A3012 HR35
ZPX0437 051551@CAELT@GG SLZZYMYT@CAELT@051550 SLPSZTZX@CAELT@SABO SLPS 051600@CAELT@METAR SLPS 051600Z 24005KT 8000 NSC 37/24 Q1011 A2986 HR48 FU=@CAELT@
ZPX0438 051553@CAELT@GG SLZZYMYT@CAELT@051552 SLRYYSYX@CAELT@SABO SLRY 051600@CAELT@METAR SLRY 051600Z 32003KT 6000 NSC 35/24 Q1009 A2981 HR53 FU CI RWY@CAELT@NML=@CAELT@
ZPX0439 051554@CAELT@GG SLZZYMYT@CAELT@051553 SLRBYGYS@CAELT@SABO SLRB 051600@CAELT@METAR SLRB 051600Z 00000KT 8000 NSC 32/21 Q1016 A3000 HR52 FU RWY NML=@CAELT@
ZPX0440 051554@CAELT@GG SLZZYMYT@CAELT@051554 SLCAYGYS@CAELT@SABO SLCA 051600@CAELT@METAR SLCA 051600Z 18004KT 9999 NSC 27/10 Q1019 A3009 HR36 FU RWY NML@CAELT@
ZPX0441 051554@CAELT@GG SLZZYMYT@CAELT@051555 SLCOYGYZ@CAELT@SABO SLCO 051600@CAELT@METAR SLCO 051600Z 35004KT 9999 FEW027 SCT200 35/25 Q1013 A2992 985.7@CAELT@HR55 FU=@CAELT@
ZPX0443 051555@CAELT@GG SLZZYMYT@CAELT@051555 SLAGYSYX@CAELT@SABO SLAG 051600@CAELT@METAR SLAG 051600Z 18005KT 9999 NSC 28/11 Q1018 A3006 890.1 HR34 FU=@CAELT@
ZPX0444 051555@CAELT@GG SLZZYMYT@CAELT@051554 SLSAYGYS@CAELT@SABO SLSA 051600@CAELT@METAR SLSA 051600Z 32004KT 8000 FEW020 BKN200 36/23 Q1011 A2988@CAELT@HR49 FU=@CAELT@
ZPX0446 051555@CAELT@GG SLZZYMYT@CAELT@051556 SLUYYGYS@CAELT@SABO SLUY 051600@CAELT@METAR SLUY 051600Z 30015KT 9999 FEW030 FEW033CB 19/01 Q1034 A3055@CAELT@658.7 HR31 CB/SH E AC/CI=@CAELT@
ZPX0447 051556@CAELT@GG SLZZYMYT@CAELT@051555 SLCBYGYZ@CAELT@SABO SLCB 051600@CAELT@METAR SLCB 051600Z 09007KT 9999 FEW040 29/00 Q1026 A3030 752.3 HR16@CAELT@NOSIG=@CAELT@
ZPX0448 051556@CAELT@GG SLZZYMYT@CAELT@051555 SLLPYGYZ@CAELT@SABO SLLP 051600@CAELT@METAR SLLP 051600Z 06018G28KT 9999 FEW020 FEW023CB 16/M06 Q1040 A3074@CAELT@629.9 HR22 P1784 CB/NE CI NOSIG=@CAELT@
ZPX0450 051556@CAELT@GG SLZZYMYT@CAELT@051555 SLSBYSYX@CAELT@SABO SLSB 051600@CAELT@METAR SLSB 051600Z 30004KT 5000 FU NSC 35/25 Q1010 A2984 HR56 RWY NML=@CAELT@
ZPX0451 051556@CAELT@GG SLZZYMYT@CAELT@051556 SLRQYSYX@CAELT@SABO SLRQ 051600@CAELT@METAR SLRQ 051600Z 00000KT 8000 NSC 36/26 Q1011 A2986 HR54 FU=@CAELT@
ZPX0452 051556@CAELT@GG SLZZYMYT@CAELT@051556 SLTRYGYZ@CAELT@SABO SLTR 051600@CAELT@METAR SLTR 051600Z 30005KT 8000 NSC 34/24 Q1011 A2988 993.2 HR56@CAELT@FU CI NOSIG=@CAELT@
ZPX0453 051556@CAELT@GG SLZZYMYT@CAELT@051557 SLVRYGYZ@CAELT@SABO SLVR 051600@CAELT@METAR SLVR 051600Z 17012G23KT 9000 NSC 31/13 Q1014 A2996 HR34 FU@CAELT@NOSIG=@CAELT@
ZPX0454 051557@CAELT@GG SLZZYMYT@CAELT@051556 SLORYGYZ@CAELT@SABO SLOR 051600@CAELT@METAR SLOR 051600Z 03010G20KT 9999 SCT020 20/04 Q1036 A3061 657.1@CAELT@HR34=@CAELT@
ZPX0455 051557@CAELT@GG SLZZYMYT@CAELT@051557 SLTRYGYS@CAELT@SABO SLTR 051600@CAELT@METAR SLTR 051600Z 30005KT 8000 NSC 34/24 Q1011 A2988 993.2 HR56@CAELT@FU CI NOSIG=@CAELT@METAR SLGM 051600Z 02005KT 5000 FU SCT023 BKN080 28/24 Q1013 A2991@CAELT@HR81=@CAELT@METAR SLRI 051600Z 36004KT 5000 FU SCT020 BKN080 29/23 Q1013 A2994HR69=METAR SLJO 051600Z 34006KT 7000 FEW020 BKN200 36/22 Q1012 A2990 HR45FU RWY NML=METAR SLRA 051600Z 32006KT 7000 FEW020 BKN200 36/22 Q1011 A2986 HR47METAR SLMG 051600Z 30004KT 8000 FEW017 BKN200 36/24 Q1011 A2986 HR48METAR SLBU 051600Z 27004KT 8000 FEW017 BKN200 37/23 Q1010 A2984 HR46METAR SLSA 051600Z 32004KT 8000 FEW020 BKN200 36/23 Q1011 A2988 HR49METAR SLSR 051600Z 30006KT 8000 FEW017 BKN200 35/23 Q1011 A2986 HR49METAR SLSM 051600Z 33004KT 9999 NSC 36/24 Q1011 A2987 HR50 FURWY NML=
ZPX0456 051557@CAELT@GG SLZZYMYT@CAELT@051557 SLTJYGYZ@CAELT@SABO SLTJ 051600@CAELT@METAR SLTJ 051600Z 09004KT 8000 NSC 23/09 Q1018 A3008 813.7 HR41 FU=@CAELT@
ZPX0458 051558@CAELT@GG SLZZYMYT@CAELT@051557 SLETYMYC@CAELT@SABO SLET 051600@CAELT@METAR SLET 051600Z 17013G24KT 9999 NSC 31/12 Q1015 A2997 HR32 NOSIG=@CAELT@
ZPX0461 051601@CAELT@GG SLZZYMYT@CAELT@051600 SLCBYGYS@CAELT@SABO SLCB 051600@CAELT@METAR SLCB 051600Z 09007KT 9999 FEW040 29/00 Q1026 A3030 752.3 HR16@CAELT@NOSIG=@CAELT@METAR SLAL 051600Z 04014KT 9999 FEW017 20/05 Q1031 A3045 705.1 HR38=@CAELT@METAR SLAG 051600Z 18005KT 9999 NSC 28/11 Q1018 A3006 890.1 HR34 FU=@CAELT@METAR SLVM 051500Z 18010G20KT 9999 NSC 25/16 Q1018 A3007 HR59 FU=METAR SLTJ 051600Z 09004KT 8000 NSC 23/09 Q1018 A3008 813.7 HR41 FU=METAR SLYA 051600Z 21010KT 9999 FEW023 23/13 Q1018 A3007 942.8 HR53=
ZPX0462 051603@CAELT@GG SLZZYMYT@CAELT@051603 SLVRYGYS@CAELT@SABO SLVR 051600@CAELT@METAR SLVR 051600Z 17012G23KT 9000 NSC 31/13 Q1014 A2996 HR34 FU@CAELT@NOSIG=@CAELT@METAR SLET 051600Z 17013G24KT 9999 NSC 31/12 Q1015 A2997 HR32 NOSIG=@CAELT@METAR SLAS 051600Z 18010KT 6000 NSC 35/20 Q1014 A2994 HR42 FU RWY NML@CAELT@METAR SLJV 051600Z NIL=METAR SLCP 051600Z 27005KT 9999 NSC 33/19 Q1016 A3000 HR44 FU RWY NMLMETAR SLSI 051600Z 22008KT 8000 NSC 36/21 Q1012 A2988 HR42 FU RWY NMLMETAR SLTI 051600Z NIL=METAR SLJE 051600Z NIL=METAR SLVG 051600Z NIL=METAR SLRB 051600Z 00000KT 8000 NSC 32/21 Q1016 A3000 HR52 FU RWY NMLMETAR SLPS 051600Z 24005KT 8000 NSC 37/24 Q1011 A2986 HR48 FU=METAR SLCA 051600Z 18004KT 9999 NSC 27/10 Q1019 A3009 HR36 FU RWY NML
ZPX0464 051603@CAELT@GG SLZZYMYT@CAELT@051602 SLLPYFYA@CAELT@SABO SLLP 051600@CAELT@METAR SLLP 051600Z 06018G28KT 9999 FEW020 FEW023CB 16/M06 Q1040@CAELT@A3074 629.9 HR22 P1784 CB/NE CI NOSIG=@CAELT@METAR SLCO 051600Z 35004KT 9999 FEW027 SCT200 35/25 Q1013 A2992@CAELT@985.7 HR55 FU=@CAELT@METAR SLRQ 051600Z 00000KT 8000 NSC 36/26 Q1011 A2986 HR54 FU=METAR SLRY 051600Z 32003KT 6000 NSC 35/24 Q1009 A2981 HR53 FU CIRWY NML=METAR SLAP 051600Z 00000KT 9999 FEW025 30/17 Q1020 A3014 860.9HR45=METAR SLSB 051600Z 30004KT 5000 FU NSC 35/25 Q1010 A2984 HR56 RWY NMLMETAR SLOR 051600Z 03010G20KT 9999 SCT020 20/04 Q1036 A3061 657.1HR34=METAR SLUY 051600Z 30015KT 9999 FEW030 FEW033CB 19/01 Q1034 A3055658.7 HR31 CB/SH E AC/CI=
