
ZPX0014 280056@CAELT@GG SLLPZRZX@CAELT@280055 SLLPYGYZ@CAELT@SABO SLLP 280100@CAELT@METAR SLLP 280100Z 23011KT 200V270 9999 FEW012 FEW017CB SCT200@CAELT@11/M08 Q1034 A3056 625.8 HR25 CB/LT SW AC NOSIG=@CAELT@
ZPX0015 280058@CAELT@GG SLZZYMYT@CAELT@280057 SLCBYGYZ@CAELT@SABO SLCB 280100@CAELT@METAR SLCB 280100Z 16006KT 9999 FEW033 21/06 Q1016 A3003 745.0 HR36@CAELT@NOSIG=@CAELT@
ZPX0018 280059@CAELT@GG SLZZYMYT@CAELT@280059 SLCBYGYS@CAELT@SABO SLCB 280100@CAELT@METAR SLCB 280100Z 16006KT 9999 FEW033 21/06 Q1016 A3003 745.0 HR36@CAELT@NOSIG=@CAELT@
ZPX0019 280100@CAELT@GG SLZZYMYT@CAELT@280100 SLVRYGYZ@CAELT@SABO SLVR 280100@CAELT@METAR SLVR 280100Z 32008KT 9999 NSC 25/20 Q1005 A2969 HR72 NOSIG=@CAELT@
ZPX0028 280156@CAELT@GG SLLPZRZX@CAELT@280155 SLLPYGYZ@CAELT@SABO SLLP 280200@CAELT@METAR SLLP 280200Z 26007KT 9999 FEW012 FEW017CB SCT200 09/M10@CAELT@Q1035 A3058 626.4 HR26 CB/LT SW AC NOSIG=@CAELT@
ZPX0029 280157@CAELT@GG SLZZYMYT@CAELT@280158 SLVRYGYZ@CAELT@SABO SLVR 280200@CAELT@METAR SLVR 280200Z 32007KT 9999 NSC 24/20 Q1005 A2969 HR77 NOSIG=@CAELT@
ZPX0030 280157@CAELT@GG SLZZYMYT@CAELT@280157 SLCBYGYZ@CAELT@SABO SLCB 280200@CAELT@METAR SLCB 280200Z 21003KT 9999 FEW033 SCT080 19/08 Q1017 A3006 745.9@CAELT@HR48 NOSIG=@CAELT@
ZPX0031 280159@CAELT@GG SLZZYMYT@CAELT@280159 SLCBYGYS@CAELT@SABO SLCB 280200@CAELT@METAR SLCB 280200Z 21003KT 9999 FEW033 SCT080 19/08 Q1017 A3006 745.9@CAELT@HR48 NOSIG=@CAELT@
