
ZPX0007 240055@CAELT@GG SLZZYMYT@CAELT@240055 SLVRYGYZ@CAELT@SABO SLVR 240100@CAELT@METAR SLVR 240100Z 35004KT 7000 NSC 24/18 Q1014 A2997 HR68 FU NOSIG=@CAELT@
ZPX0008 240056@CAELT@GG SLLPZRZX@CAELT@240056 SLLPYGYZ@CAELT@SABO SLLP 240100@CAELT@METAR SLLP 240100Z 11014KT 9999 NSC 09/M21 Q1041 A3075 630.1 HR10@CAELT@NOSIG=@CAELT@
ZPX0009 240057@CAELT@GG SLZZYMYT@CAELT@240057 SLCBYGYZ@CAELT@SABO SLCB 240100@CAELT@METAR SLCB 240100Z 10008KT 9999 NSC 20/00 Q1028 A3036 753.7 HR25 FU@CAELT@NOSIG=@CAELT@
ZPX0020 240155@CAELT@GG SLZZYMYT@CAELT@240155 SLCBYGYZ@CAELT@SABO SLCB 240200@CAELT@METAR SLCB 240200Z 12004KT 9999 NSC 19/M01 Q1028 A3038 754.4 HR26 FU@CAELT@NOSIG=@CAELT@
ZPX0021 240155@CAELT@GG SLZZYMYT@CAELT@240155 SLVRYGYZ@CAELT@SABO SLVR 240200@CAELT@METAR SLVR 240200Z 32004KT 7000 NSC 24/18 Q1015 A2998 HR67 FU NOSIG=@CAELT@
ZPX0022 240156@CAELT@GG SLZZYMYT@CAELT@240156 SLLPYGYZ@CAELT@SABO SLLP 240200@CAELT@METAR SLLP 240200Z VRB02KT 9999 NSC 04/M21 Q1041 A3077 630.5 HR14@CAELT@NOSIG=@CAELT@
ZPX0029 240255@CAELT@GG SLZZYMYT@CAELT@240255 SLVRYGYZ@CAELT@SABO SLVR 240300@CAELT@METAR SLVR 240300Z 30005KT 7000 NSC 23/18 Q1015 A2999 HR72 FU NOSIG=@CAELT@
ZPX0030 240256@CAELT@GG SLZZYMYT@CAELT@240255 SLCBYGYZ@CAELT@SABO SLCB 240300@CAELT@METAR SLCB 240300Z 02003KT 9999 NSC 17/01 Q1029 A3040 754.8 HR32 FU@CAELT@NOSIG=@CAELT@
ZPX0031 240257@CAELT@GG SLLPZRZX@CAELT@240257 SLLPYGYZ@CAELT@SABO SLLP 240300@CAELT@METAR SLLP 240300Z VRB02KT 9999 NSC 00/M15 Q1041 A3077 630.6 HR31@CAELT@NOSIG=@CAELT@
ZPX0039 240355@CAELT@GG SLZZYMYT@CAELT@240355 SLVRYGYZ@CAELT@SABO SLVR 240400@CAELT@METAR SLVR 240400Z 32006KT 7000 NSC 23/18 Q1015 A2999 HR74 FU NOSIG=@CAELT@
ZPX0040 240355@CAELT@GG SLZZYMYT@CAELT@240354 SLCBYGYZ@CAELT@SABO SLCB 240400@CAELT@METAR SLCB 240400Z 00000KT 9999 NSC 13/01 Q1029 A3040 754.8 HR43 FU@CAELT@NOSIG=@CAELT@
ZPX0041 240356@CAELT@GG SLLPZRZX@CAELT@240356 SLLPYGYZ@CAELT@SABO SLLP 240400@CAELT@METAR SLLP 240400Z 08006KT 9999 NSC M00/M10 Q1041 A3077 630.5 HR48@CAELT@NOSIG=@CAELT@
ZPX0048 240454@CAELT@GG SLZZYMYT@CAELT@240455 SLCBYGYZ@CAELT@SABO SLCB 240500@CAELT@METAR SLCB 240500Z 00000KT 9999 NSC 12/00 Q1028 A3038 754.4 HR43 FU@CAELT@NOSIG=@CAELT@
ZPX0049 240455@CAELT@GG SLZZYMYT@CAELT@240456 SLVRYGYZ@CAELT@SABO SLVR 240500@CAELT@METAR SLVR 240500Z 29006KT 7000 NSC 22/18 Q1015 A2998 HR77 FU NOSIG=@CAELT@
ZPX0050 240456@CAELT@GG SLLPZRZX@CAELT@240456 SLLPYGYZ@CAELT@SABO SLLP 240500@CAELT@METAR SLLP 240500Z VRB02KT 9999 NSC M01/M07 Q1041 A3075 630.1 HR62@CAELT@NOSIG=@CAELT@
ZPX0058 240554@CAELT@GG SLZZYMYT@CAELT@240554 SLCBYGYZ@CAELT@SABO SLCB 240600@CAELT@METAR SLCB 240600Z 22003KT 9999 NSC 12/00 Q1028 A3037 754.0 HR43 FU@CAELT@NOSIG=@CAELT@
ZPX0059 240554@CAELT@GG SLZZYMYT@CAELT@240555 SLVRYGYZ@CAELT@SABO SLVR 240600@CAELT@METAR SLVR 240600Z 30006KT 7000 NSC 22/18 Q1014 A2995 HR77 FU NOSIG=@CAELT@
ZPX0060 240556@CAELT@GG SLLPZRZX@CAELT@240556 SLLPYGYZ@CAELT@SABO SLLP 240600@CAELT@METAR SLLP 240600Z 09005KT 9999 NSC M03/M09 Q1040 A3073 629.6 HR66@CAELT@NOSIG=@CAELT@
ZPX0067 240653@CAELT@GG SLZZYMYT@CAELT@240654 SLCBYGYZ@CAELT@SABO SLCB 240700@CAELT@METAR SLCB 240700Z 00000KT 9999 NSC 11/00 Q1028 A3036 753.9 HR47 FU@CAELT@NOSIG=@CAELT@
ZPX0068 240654@CAELT@GG SLZZYMYT@CAELT@240655 SLVRYGYZ@CAELT@SABO SLVR 240700@CAELT@METAR SLVR 240700Z 29004KT 7000 NSC 22/18 Q1013 A2993 HR77 FU CI@CAELT@NOSIG=@CAELT@
ZPX0069 240656@CAELT@GG SLLPZRZX@CAELT@240657 SLLPYGYZ@CAELT@SABO SLLP 240700@CAELT@METAR SLLP 240700Z VRB02KT 9999 NSC M04/M09 Q1039 A3070 629.1 HR70@CAELT@NOSIG=@CAELT@
ZPX0078 240753@CAELT@GG SLZZYMYT@CAELT@240754 SLCBYGYZ@CAELT@SABO SLCB 240800@CAELT@METAR SLCB 240800Z 00000KT 9999 NSC 09/01 Q1028 A3036 753.9 HR56 FU@CAELT@NOSIG=@CAELT@
ZPX0079 240757@CAELT@GG SLLPZRZX@CAELT@240757 SLLPYGYZ@CAELT@SABO SLLP 240800@CAELT@METAR SLLP 240800Z 05006KT 9999 NSC M02/M08 Q1039 A3069 628.8 HR65@CAELT@NOSIG=@CAELT@
ZPX0080 240800@CAELT@GG SLZZYMYT@CAELT@240800 SLVRYGYZ@CAELT@SABO SLVR 240800@CAELT@METAR SLVR 240800Z 29004KT 7000 NSC 22/18 Q1012 A2991 HR77 FU CI@CAELT@NOSIG=@CAELT@
ZPX0090 240854@CAELT@GG SLZZYMYT@CAELT@240854 SLCBYGYZ@CAELT@SABO SLCB 240900@CAELT@METAR SLCB 240900Z 00000KT 9999 NSC 08/01 Q1028 A3038 754.4 HR62 FU@CAELT@NOSIG=@CAELT@
ZPX0091 240855@CAELT@GG SLZZYMYT@CAELT@240855 SLVRYGYZ@CAELT@SABO SLVR 240900@CAELT@METAR SLVR 240900Z 30004KT 8000 NSC 22/18 Q1013 A2992 HR76 FU CI@CAELT@NOSIG=@CAELT@
ZPX0092 240856@CAELT@GG SLLPZRZX@CAELT@240855 SLLPYGYZ@CAELT@SABO SLLP 240900@CAELT@METAR SLLP 240900Z 08006KT 9999 FEW004 M03/M05 Q1039 A3069 629.0@CAELT@HR89 NOSIG=@CAELT@
ZPX0106 240954@CAELT@GG SLZZYMYT@CAELT@240953 SLRBYGYS@CAELT@SABO SLRB 241000@CAELT@METAR SLRB 241000Z 00000KT 9999 NSC 19/18 Q1017 A3003 HR91 FU RWY NML=@CAELT@
ZPX0108 240954@CAELT@GG SLZZYMYT@CAELT@240955 SLVRYGYZ@CAELT@SABO SLVR 241000@CAELT@METAR SLVR 241000Z 04003KT 7000 NSC 19/17 Q1013 A2993 HR88 FU NOSIG=@CAELT@
ZPX0109 240955@CAELT@GG SLZZYMYT@CAELT@240954 SLSAYGYS@CAELT@SABO SLSA 241000@CAELT@METAR SLSA 241000Z 00000KT 6000 SCT080 21/20 Q1013 A2994 HR94 FU=@CAELT@
ZPX0110 240955@CAELT@GG SLZZYMYT@CAELT@240954 SLSAYGYS@CAELT@SABO SLSA 241000@CAELT@METAR SLSA 241000Z 00000KT 6000 SCT080 21/20 Q1013 A2994 HR94 FU=@CAELT@
ZPX0111 240955@CAELT@GG SLZZYMYT@CAELT@240955 SLTRYGYZ@CAELT@SABO SLTR 241000@CAELT@METAR SLTR 241000Z 00000KT 3000 FU NSC 21/19 Q1014 A2995 995.5 HR90@CAELT@NOSIG=@CAELT@
ZPX0112 240955@CAELT@GG SLZZYMYT@CAELT@240954 SLRYYSYX@CAELT@SABO SLRY 241000@CAELT@METAR SLRY 241000Z 00000KT 7000 SCT080 19/19 Q1010 A2985 HR98 FU RWY@CAELT@NML=@CAELT@
ZPX0113 240956@CAELT@GG SLZZYMYT@CAELT@240955 SLLPYGYZ@CAELT@SABO SLLP 241000@CAELT@METAR SLLP 241000Z 09006KT 4000E VCFG FEW003 M02/M02 Q1040@CAELT@A3072 629.5 HR94 P/INV VCFG N/NE/E/SE/S NOSIG=@CAELT@
ZPX0114 240956@CAELT@GG SLZZYMYT@CAELT@240956 SLUYYGYS@CAELT@SABO SLUY 241000@CAELT@METAR SLUY 241000Z VRB02KT 9999 NSC M07/M17 Q1038 A3066@CAELT@661.2 HR43 FU=@CAELT@
ZPX0115 240956@CAELT@GG SLZZYMYT@CAELT@240956 SLCAYGYS@CAELT@SABO SLCA 241000@CAELT@METAR SLCA 241000Z 00000KT 9999 NSC 14/10 Q1018 A3006 HR79 FU RWY NML@CAELT@
ZPX0116 240956@CAELT@GG SLZZYMYT@CAELT@240956 SLCBYGYZ@CAELT@SABO SLCB 241000@CAELT@METAR SLCB 241000Z 00000KT 9999 NSC 07/M01 Q1029 A3041 755.1 HR55 FU@CAELT@NOSIG=@CAELT@
ZPX0117 240957@CAELT@GG SLZZYMYT@CAELT@240955 SLCOYGYZ@CAELT@SABO SLCO 241000@CAELT@METAR SLCO 241000Z 23003KT 7000 SCT080 22/21 Q1014 A2996 987.1 HR90@CAELT@
ZPX0118 240957@CAELT@GG SLZZYMYT@CAELT@240957 SLSBYSYX@CAELT@SABO SLSB 241000@CAELT@METAR SLSB 241000Z 00000KT 8000 SCT080 21/21 Q1014 A2995 HR98 RWY NML=@CAELT@
ZPX0119 240958@CAELT@GG SLZZYMYT@CAELT@240958 SLCBYGYS@CAELT@SABO SLCB 241000@CAELT@METAR SLCB 241000Z 00000KT 9999 NSC 07/M01 Q1029 A3041 755.1 HR55 FU@CAELT@NOSIG=@CAELT@
ZPX0121 241000@CAELT@GG SLZZYMYT@CAELT@240959 SLRQYSYX@CAELT@SABO SLRQ 241000@CAELT@METAR SLRQ 241000Z 00000KT 7000 BKN080 20/20 Q1014 A2995 990.1 HR100@CAELT@
ZPX0122 241000@CAELT@GG SLZZYMYT@CAELT@241001 SLVRYGYS@CAELT@SABO SLVR 241000@CAELT@METAR SLVR 241000Z 04003KT 7000 NSC 19/17 Q1013 A2993 HR88 FU NOSIG=@CAELT@METAR SLET 241000Z NIL=@CAELT@METAR SLAS 241000Z 00000KT 3000 FU NSC 22/19 Q1016 A3000 HR84 RWY NML@CAELT@METAR SLJV 241000Z 00000KT 7000 NSC 20/18 Q1014 A2994 HR87 FU RWY NML@CAELT@METAR SLCP 241000Z 00000KT 3000 FU SCT070 19/17 Q1018 A3006 HR84RWY NML=METAR SLSI 241000Z 00000KT 5000 FU NSC 22/19 Q1015 A2997 HR85 RWY NMLMETAR SLTI 241000Z 00000KT 6000 NSC 22/19 Q1018 A3006 HR86 FU RWY NMLMETAR SLJE 241000Z 00000KT 6000 NSC 22/19 Q1018 A3006 HR83 FU RWY NMLMETAR SLVG 241000Z 00000KT 9999 NSC 10/10 Q1028 A3036 HR94 RWY NML=METAR SLRB 241000Z 00000KT 9999 NSC 19/18 Q1017 A3003 HR91 FU RWY NMLMETAR SLPS 241000Z NIL=METAR SLCA 241000Z 00000KT 9999 NSC 14/10 Q1018 A3006 HR79 FU RWY NML
ZPX0124 241004@CAELT@GG SLZZYMYT@CAELT@241003 SLETYMYC@CAELT@SABO SLET 241000@CAELT@METAR SLET 241000Z 29004KT 8000 NSC 20/17 Q1014 A2995 HR80 NOSIG=@CAELT@
ZPX0125 241008@CAELT@GG SLZZYMYT@CAELT@241007 SLSBYSYX@CAELT@SABO SLSB 241000 CCA@CAELT@METAR COR SLSB 241000Z 00000KT 8000 SCT080 21/21 Q1014 A2995 HR98 FU@CAELT@RWY NML=@CAELT@
ZPX0126 241008@CAELT@GG SLZZYMYT@CAELT@241005 SLTRYGYS@CAELT@SABO SLTR 241000@CAELT@METAR SLTR 241000Z 00000KT 3000 FU NSC 21/19 Q1014 A2995 995.5 HR90@CAELT@NOSIG=@CAELT@METAR SLGM 241000Z 00000KT 2000 FU BKN080 24/24 Q1013 A2991 HR97=@CAELT@METAR SLRI 241000Z 18005KT 2000 FU SCT080 BKN200 24/21 Q1014 A2997@CAELT@HR94=METAR SLJO 241000Z 00000KT 7000 FEW080 BKN200 20/20 Q1013 A2991 HR89FU RWY NML=METAR SLRA 241000Z 00000KT 6000 BKN080 23/20 Q1013 A2993 HR85 FU CIRWY NML=METAR SLMG 241000Z NIL=METAR SLBU 241000Z NIL=METAR SLSA 241000Z 00000KT 6000 SCT080 21/20 Q1013 A2994 HR94 FU=METAR SLSR 241000Z 00000KT 8000 SCT080 BBKN200 22/20 Q1012 A2991 HR89FU CI RWY NML=METAR SLSM 241000Z NIL=
ZPX0127 241014@CAELT@GG SLZZYMYT@CAELT@241010 SLTRYGYS@CAELT@SABO SLTR 241000 RRA@CAELT@METAR SLTR 241000Z 00000KT 3000 FU NSC 21/19 Q1014 A2995 995.5 HR90@CAELT@NOSIG=@CAELT@METAR SLGM 241000Z 00000KT 2000 FU BKN080 24/24 Q1013 A2991 HR97=@CAELT@METAR SLRI 241000Z 18005KT 2000 FU SCT080 BKN200 24/21 Q1014 A2997@CAELT@HR94=METAR SLJO 241000Z 00000KT 7000 FEW080 BKN200 20/20 Q1013 A2991 HR89FU RWY NML=METAR SLRA 241000Z 00000KT 6000 BKN080 23/20 Q1013 A2993 HR85 FU CIRWY NML=METAR RTD SLMG 241000Z 00000KT 7000 BKN080 24/22 Q1012 A2988 HR91 FUMETAR SLBU 241000Z NIL=METAR SLSA 241000Z 00000KT 6000 SCT080 21/20 Q1013 A2994 HR94 FU=METAR SLSR 241000Z 00000KT 8000 SCT080 BKN200 22/20 Q1012 A2991 HR89FU CI RWY NML=METAR RTD SLSM 241000Z 00000KT 1000 BR FEW005 20/20 Q1014 A2995 HR96
ZPX0128 241014@CAELT@GG SLZZYMYT@CAELT@241006 SLLPYFYA@CAELT@SABO SLLP 241000 RRA@CAELT@METAR SLLP 241000Z 09006KT 4000E VCFG FEW003 M02/M02 Q1040@CAELT@A3072 629.5 HR94 P/INV VCFG N/NE/E/SE/S NOSIG=@CAELT@METAR SLCO 241000Z 23003KT 7000 SCT080 22/21 Q1014 A2996 987.1 HR90@CAELT@METAR SLRY 241000Z 00000KT 7000 SCT080 19/19 Q1010 A2985 HR98 FU RWY@CAELT@NML=METAR SLRQ 241000Z 00000KT 7000 BKN080 20/20 Q1014 A2995 990.1 HR100METAR SLSB 241000Z 00000KT 8000 SCT080 21/21 Q1014 A2995 HR98 FURWY NML=METAR SLUY 241000Z VRB02KT 9999 NSC M07/M17 Q1038 A3066661.2 HR43 FU=
ZPX0131 241024@CAELT@GG SLZZYMYT@CAELT@241024 SLETYMYC@CAELT@SABO SLET 241000@CAELT@METAR COR SLET 241000Z 29004KT 8000 NSC 20/17 Q1014 A2995 HR80 FU@CAELT@NOSIG=@CAELT@
ZPX0147 241053@CAELT@GG SLZZYMYT@CAELT@241053 SLRBYGYS@CAELT@SABO SLRB 241100@CAELT@METAR SLRB 241100Z 00000KT 9999 NSC 21/20 Q1018 A3006 HR91 FU RWY NML=@CAELT@
ZPX0148 241054@CAELT@GG SLZZYMYT@CAELT@241055 SLVRYGYZ@CAELT@SABO SLVR 241100@CAELT@METAR SLVR 241100Z 04003KT 8000 NSC 21/18 Q1015 A2997 HR87 FU NOSIG=@CAELT@
ZPX0149 241054@CAELT@GG SLZZYMYT@CAELT@241055 SLRQYSYX@CAELT@SABO SLRQ 241100@CAELT@METAR SLRQ 241100Z 00000KT 7000 SCT080 21/20 Q1014 A2997 990.7 HR97@CAELT@
ZPX0150 241055@CAELT@GG SLZZYMYT@CAELT@241055 SLTRYGYZ@CAELT@SABO SLTR 241100@CAELT@METAR SLTR 241100Z 00000KT 3000 FU NSC 22/20 Q1014 A2997 996.2 HR89@CAELT@NOSIG=@CAELT@
ZPX0151 241055@CAELT@GG SLZZYMYT@CAELT@241053 SLRYYSYX@CAELT@SABO SLRY 241100@CAELT@METAR SLRY 241100Z 00000KT 6000 SCT080 19/19 Q1011 A2985 HR100 FU RWY@CAELT@NML=@CAELT@
ZPX0153 241056@CAELT@GG SLZZYMYT@CAELT@241055 SLLPYGYZ@CAELT@SABO SLLP 241100@CAELT@METAR SLLP 241100Z 08007KT 4000E VCFG FEW003 01/00 Q1041@CAELT@A3074 630.0 HR92 P90// VCFG NE/E/SE/S CI BECMG 9999 NSW=@CAELT@
ZPX0154 241056@CAELT@GG SLZZYMYT@CAELT@241055 SLSAYGYS@CAELT@SABO SLSA 241100@CAELT@METAR SLSA 241100Z 00000KT 6000 SCT080 21/20 Q1014 A2996 HR94 FU=@CAELT@
ZPX0155 241056@CAELT@GG SLZZYMYT@CAELT@241055 SLSAYGYS@CAELT@SABO SLSA 241100@CAELT@METAR SLSA 241100Z 00000KT 6000 SCT080 21/20 Q1014 A2996 HR94 FU=@CAELT@
ZPX0156 241056@CAELT@GG SLZZYMYT@CAELT@241055 SLSBYSYX@CAELT@SABO SLSB 241100@CAELT@METAR SLSB 241100Z 00000KT 5000 FU SCT080 21/21 Q1015 A2998 HR98 RWY@CAELT@NML=@CAELT@
ZPX0157 241056@CAELT@GG SLZZYMYT@CAELT@241056 SLORYGYZ@CAELT@SABO SLOR 241100@CAELT@METAR SLOR 241100Z 01003KT 9999 NSC M01/M10 Q1039 A3070 659.0 HR50 FU@CAELT@/N/NE/E=@CAELT@
ZPX0158 241056@CAELT@GG SLZZYMYT@CAELT@241055 SLCOYGYZ@CAELT@SABO SLCO 241100@CAELT@METAR SLCO 241100Z 00000KT 5000 FU BKN080 23/21 Q1015 A2998 987.7@CAELT@HR90=@CAELT@
ZPX0159 241057@CAELT@GG SLZZYMYT@CAELT@241057 SLORYGYZ@CAELT@SABO SLOR 241100@CAELT@METAR SLOR 241100Z 01003KT 9999 NSC M01/M10 Q1039 A3070 659.0 HR50 FU@CAELT@/N/NE/E=@CAELT@
ZPX0160 241057@CAELT@GG SLZZYMYT@CAELT@241057 SLCAYGYS@CAELT@SABO SLCA 241100@CAELT@METAR SLCA 241100Z 00000KT 9999 NSC 13/12 Q1019 A3009 HR90 FU RWY NML@CAELT@
ZPX0161 241057@CAELT@GG SLZZYMYT@CAELT@241057 SLCBYGYZ@CAELT@SABO SLCB 241100@CAELT@METAR SLCB 241100Z 00000KT 9999 NSC 09/00 Q1030 A3044 756.0 HR54 FU@CAELT@NOSIG=@CAELT@
ZPX0163 241057@CAELT@GG SLZZYMYT@CAELT@241057 SLORYGYZ@CAELT@SABO SLOR 241100@CAELT@METAR SLOR 241100Z 01003KT 9999 NSC M01/M10 Q1039 A3070 659.0 HR50 FU@CAELT@/N/NE/E=@CAELT@
ZPX0164 241057@CAELT@GG SLZZYMYT@CAELT@241058 SLTRYGYS@CAELT@SABO SLTR 241100@CAELT@METAR SLTR 241100Z 00000KT 3000 FU NSC 22/20 Q1014 A2997 996.2 HR89@CAELT@NOSIG=@CAELT@METAR SLGM 241100Z 00000KT 2000 FU BKN080 25/24 Q1013 A2994 HR94=@CAELT@METAR SLRI 241100Z 27005KT 2000 FU BKN080 25/23 Q1015 A2998 HR89 CI=@CAELT@METAR SLJO 241100Z 00000KT 6000 FEW080 BKN200 22/20 Q1013 A2994 HR88FU RWY NML=METAR SLRA 241100Z 00000KT 6000 SCT080 23/20 Q1013 A2994 HR82 FUCI RWY NML=METAR SLMG 241100Z 00000KT 6000 BKN080 24/22 Q1012 A2990 HR87 FURWY NML=METAR SLBU 241100Z NIL=METAR SLSA 241100Z 00000KT 6000 SCT080 21/20 Q1014 A2996 HR94 FU=METAR SLSR 241100Z 00000KT 8000 FEW080 BKN200 22/20 Q1013 A2992 HR88FU CI RWY NML=METAR SLSM 241100Z 00000KT 3000 FU NSC 21/20 Q1014 A2997 HR94
ZPX0165 241058@CAELT@GG SLZZYMYT@CAELT@241057 SLETYMYC@CAELT@SABO SLET 241100@CAELT@METAR SLET 241100Z 30003KT 9000 NSC 24/18 Q1015 A2997 HR69 FU NOSIG=@CAELT@
ZPX0166 241058@CAELT@GG SLZZYMYT@CAELT@241100 SLVRYGYS@CAELT@SABO SLVR 241100@CAELT@METAR SLVR 241100Z 04003KT 8000 NSC 21/18 Q1015 A2997 HR87 FU NOSIG=@CAELT@METAR SLET 241100Z 30003KT 9000 NSC 24/18 Q1015 A2997 HR69 FU NOSIG=@CAELT@METAR SLAS 241100Z 00000KT 3000 FU NSC 22/18 Q1017 A3003 HR82 RWY NML@CAELT@METAR SLJV 241100Z 00000KT 7000 NSC 21/18 Q1014 A2994 HR85 FU RWY NML@CAELT@METAR SLCP 241100Z 00000KT 3000 FU NSC 21/18 Q1018 A3006 HR86 RWY NMLMETAR SLSI 241100Z 00000KT 5000 FU NSC 22/19 Q1016 A3000 HR85 RWY NMLMETAR SLTI 241100Z 00000KT 6000 NSC 24/20 Q1019 A3009 HR77 FU RWY NMLMETAR SLJE 241100Z 00000KT 6000 NSC 23/19 Q1018 A3006 HR80 FU RWY NMLMETAR SLVG 241100Z 00000KT 3000 BR NSC 10/09 Q1028 A3036 HR94 RWY NMLMETAR SLRB 241100Z 00000KT 9999 NSC 21/20 Q1018 A3006 HR91 FU RWY NMLMETAR SLPS 241100Z NIL=METAR SLCA 241100Z 00000KT 9999 NSC 13/12 Q1019 A3009 HR90 FU RWY NML
ZPX0170 241100@CAELT@GG SLZZYMYT@CAELT@241100 SLCBYGYS@CAELT@SABO SLCB 241100@CAELT@METAR SLCB 241100Z 00000KT 9999 NSC 09/00 Q1030 A3044 756.0 HR54 FU@CAELT@NOSIG=@CAELT@
ZPX0171 241101@CAELT@GG SLZZYMYT@CAELT@241046 SLUYYGYS@CAELT@SABO SLUY 241100@CAELT@METAR SLUY 241100Z 00000KT 9999 NSC M06/M17 Q1038 A3067@CAELT@661.6 HR42 FU=@CAELT@
ZPX0173 241104@CAELT@GG SLZZYMYT@CAELT@241100 SLLPYFYA@CAELT@SABO SLLP 241100@CAELT@METAR SLLP 241100Z 08007KT 4000E VCFG FEW003 01/00 Q1041@CAELT@A3074 630.0 HR92 P90// VCFG NE/E/SE/S CI BECMG 9999 NSW=@CAELT@METAR SLCO 241100Z 00000KT 5000 FU BKN080 23/21 Q1015 A2998 987.7@CAELT@HR90=@CAELT@METAR SLRY 241100Z 00000KT 6000 SCT080 19/19 Q1011 A2985 HR100 FU RWYNML=METAR SLRQ 241100Z 00000KT 7000 SCT080 21/20 Q1014 A2997 990.7 HR97METAR SLSB 241100Z 00000KT 5000 FU SCT080 21/21 Q1015 A2998 HR98 RWYMETAR SLOR 241100Z 01003KT 9999 NSC M01/M10 Q1039 A3070 659.0 HR50 FU/N/NE/E=METAR SLUY 241100Z 00000KT 9999 NSC M06/M17 Q1038 A3067661.6 HR42 FU=
ZPX0174 241104@CAELT@GG SLZZYMYT@CAELT@241103 SLTRYGYS@CAELT@SABO SLTR 241100 CCA@CAELT@METAR SLTR 241100Z 00000KT 3000 FU NSC 22/20 Q1014 A2997 996.2 HR89@CAELT@NOSIG=@CAELT@METAR SLGM 241100Z 00000KT 2000 FU BKN080 25/24 Q1013 A2994 HR94=@CAELT@METAR SLRI 241100Z 27005KT 2000 FU BKN080 25/23 Q1015 A2998 HR89 CI=@CAELT@METAR SLJO 241100Z 00000KT 6000 FEW080 BKN200 22/20 Q1013 A2994 HR88FU RWY NML=METAR SLRA 241100Z 00000KT 6000 SCT080 23/20 Q1013 A2994 HR82 FUCI RWY NML=METAR SLMG 241100Z 00000KT 6000 BKN080 24/22 Q1012 A2990 HR87 FURWY NML=METAR SLBU 241100Z NIL=METAR SLSA 241100Z 00000KT 6000 SCT080 21/20 Q1014 A2996 HR94 FU=METAR COR SLSR 241100Z 00000KT 8000 FEW080 BKN200 22/20 Q1013 A2992HR88 FU RWY NML=METAR SLSM 241100Z 00000KT 3000 FU NSC 21/20 Q1014 A2997 HR94
ZPX0195 241129@CAELT@GG SLZZYMYT@CAELT@241110 SLYAYGYS@CAELT@SABO SLYA 241100 RRA@CAELT@METAR RTD SLYA 241100Z 00000KT 9999 NSC 20/17 Q1013 A2992 937.9 HR83=@CAELT@
ZPX0199 241138@CAELT@GG SLZZYMYT@CAELT@241138 SLCBYGYS@CAELT@SABO SLCB 241100@CAELT@METAR SLCB 241100Z 00000KT 9999 NSC 09/00 Q1030 A3044 756.0 HR54 FU@CAELT@NOSIG=@CAELT@METAR SLAL RTD 241100Z 34005KT 9999 NSC 08/06 Q1034 A3055 707.4 HR87=@CAELT@METAR SLYA RTD 241100Z 00000KT 9999 NSC 20/17 Q1013 A2992 937.9 HR83=@CAELT@
ZPX0208 241154@CAELT@GG SLZZYMYT@CAELT@241153 SLRBYGYS@CAELT@SABO SLRB 241200@CAELT@METAR SLRB 241200Z 00000KT 9999 NSC 25/21 Q1018 A3006 HR80 FU RWY NML=@CAELT@
ZPX0209 241154@CAELT@GG SLZZYMYT@CAELT@241155 SLETYMYC@CAELT@SABO SLET 241200@CAELT@METAR SLET 241200Z 32005KT 9000 NSC 27/18 Q1015 A2998 HR58 FU NOSIG=@CAELT@
ZPX0211 241154@CAELT@GG SLZZYMYT@CAELT@241155 SLAGYSYX@CAELT@SABO SLAG 241200@CAELT@METAR SLAG 241200Z 00000KT 5000 FU NSC 18/11 Q1019 A3010 891.2 HR65=@CAELT@
ZPX0212 241154@CAELT@GG SLZZYMYT@CAELT@241155 SLRQYSYX@CAELT@SABO SLRQ 241200@CAELT@METAR SLRQ 241200Z 00000KT 6000 FEW080 23/22 Q1015 2999 991.3 HR93 FU=@CAELT@
ZPX0213 241154@CAELT@GG SLZZYMYT@CAELT@241155 SLVRYGYZ@CAELT@SABO SLVR 241200@CAELT@METAR SLVR 241200Z 36005KT 8000 NSC 24/20 Q1015 A2999 HR77 FU NOSIG=@CAELT@
ZPX0214 241155@CAELT@GG SLZZYMYT@CAELT@241155 SLORYGYZ@CAELT@SABO SLOR 241200@CAELT@METAR SLOR 241200Z 00000KT 8000 NSC 03/M08 Q1039 A3070 659.1 HR45 VIS@CAELT@RED FU/N/NE/E=@CAELT@
ZPX0215 241155@CAELT@GG SLZZYMYT@CAELT@241153 SLRYYSYX@CAELT@SABO SLRY 241200@CAELT@METAR SLRY 241200Z 00000KT 5000 FU SCT080 22/21 Q1011 A2988 HR92 RWY@CAELT@NML=@CAELT@
ZPX0216 241155@CAELT@GG SLZZYMYT@CAELT@241152 SLUYYGYS@CAELT@SABO SLUY 241200@CAELT@METAR SLUY 241200Z 00000KT 9999 NSC 02/M11 Q1039 A3069@CAELT@661.9 HR40 HZ=@CAELT@
ZPX0217 241155@CAELT@GG SLZZYMYT@CAELT@241154 SLSAYGYS@CAELT@SABO SLSA 241200@CAELT@METAR SLSA 241200Z 00000KT 6000 SCT080 24/21 Q1015 A2998 HR87 FU=@CAELT@
ZPX0218 241155@CAELT@GG SLZZYMYT@CAELT@241154 SLSAYGYS@CAELT@SABO SLSA 241200@CAELT@METAR SLSA 241200Z 00000KT 6000 SCT080 24/21 Q1015 A2998 HR87 FU=@CAELT@
ZPX0219 241155@CAELT@GG SLZZYMYT@CAELT@241155 SLORYGYZ@CAELT@SABO SLOR 241200@CAELT@METAR SLOR 241200Z 00000KT 8000 NSC 03/M08 Q1039 A3070 659.1 HR45 VIS@CAELT@RED FU/N/NE/E=@CAELT@
ZPX0220 241156@CAELT@GG SLZZYMYT@CAELT@241155 SLCOYGYZ@CAELT@SABO SLCO 241200@CAELT@METAR SLCO 241200Z 00000KT 5000 FU BKN080 24/22 Q1016 A3000 988.5@CAELT@HR83=@CAELT@
ZPX0222 241156@CAELT@GG SLZZYMYT@CAELT@241156 SLTRYGYZ@CAELT@SABO SLTR 241200@CAELT@METAR SLTR 241200Z 00000KT 3000 FU FEW080 24/21 Q1015 A2999 996.9@CAELT@HR81 NOSIG=@CAELT@
ZPX0223 241156@CAELT@GG SLZZYMYT@CAELT@241156 SLTRYGYZ@CAELT@SABO SLTR 241200@CAELT@METAR SLTR 241200Z 00000KT 3000 FU FEW080 24/21 Q1015 A2999 996.9@CAELT@HR81 NOSIG=@CAELT@
ZPX0224 241157@CAELT@GG SLZZYMYT@CAELT@241157 SLTJYGYZ@CAELT@SABO SLTJ 241200@CAELT@METAR SLTJ 241200Z 00000KT 9999 NSC 15/07 Q1023 A3021 817.5 HR60 FU=@CAELT@
ZPX0225 241158@CAELT@GG SLZZYMYT@CAELT@241157 SLCAYGYS@CAELT@SABO SLCA 241200@CAELT@METAR SLCA 241200Z 00000KT 9999 NSC 18/13 Q1019 A3009 HR76 FU RWY NML@CAELT@
ZPX0227 241158@CAELT@GG SLZZYMYT@CAELT@241159 SLVRYGYS@CAELT@SABO SLVR 241200@CAELT@METAR SLVR 241200Z 36005KT 8000 NSC 24/20 Q1015 A2999 HR77 FU NOSIG=@CAELT@METAR SLET 241200Z 32005KT 9000 NSC 27/18 Q1015 A2998 HR58 FU NOSIG=@CAELT@METAR SLAS 241200Z 34004KT 3500 FU NSC 24/20 Q1017 A3003 HR75 RWY NML@CAELT@METAR SLJV 241200Z 00000KT 7000 NSC 24/18 Q1015 A2997 HR72 FU RWY NML@CAELT@METAR SLCP 241200Z 00000KT 3500 FU NSC 22/20 Q1019 A3009 HR87 RWY NMLMETAR SLSI 241200Z 00000KT 5000 FU NSC 26/21 Q1016 A3000 HR74 RWY NMLMETAR SLTI 241200Z 00000KT 6000 NSC 28/20 Q1019 A3009 HR62 FU RWY NMLMETAR SLJE 241200Z 00000KT 5000 FU 27/21 Q1019 A3009 HR69 RWY NML=METAR SLVG 241200Z 00000KT 9999 NSC 15/13 Q1028 A3036 HR85 RWY NML=METAR SLRB 241200Z 00000KT 9999 NSC 25/21 Q1018 A3006 HR80 FU RWY NMLMETAR SLPS 241200Z NIL=METAR SLCA 241200Z 00000KT 9999 NSC 18/13 Q1019 A3009 HR76 FU RWY NML
ZPX0228 241159@CAELT@GG SLZZYMYT@CAELT@241158 SLCBYGYZ@CAELT@SABO SLCB 241200@CAELT@METAR SLCB 241200Z 00000KT 9999 NSC 14/00 Q1031 A3046 756.4 HR39 FU@CAELT@NOSIG=@CAELT@
ZPX0229 241159@CAELT@GG SLZZYMYT@CAELT@241158 SLSBYSYX@CAELT@SABO SLSB 241200@CAELT@METAR SLSB 241200Z 00000KT 5000 FU NSC 24/22 Q1015 A2999 HR90 RWY NML=@CAELT@
ZPX0230 241159@CAELT@GG SLZZYMYT@CAELT@241159 SLTRYGYS@CAELT@SABO SLTR 241200@CAELT@METAR SLTR 241200Z 00000KT 3000 FU FEW080 24/21 Q1015 A2999 996.9@CAELT@HR81 NOSIG=@CAELT@METAR SLGM 241200Z 00000KT 2000 FU SCT080 25/24 Q1014 A2995 HR90=@CAELT@METAR SLRI 241200Z 00000KT 2000 FU BKN080 25/23 Q1015 A2999 HR87 CI=@CAELT@METAR SLJO 241200Z 00000KT 6000 FEW080 BKN200 24/20 Q1014 A2995 HR77FU RWY NML=METAR SLRA 241200Z 00000KT 6000 NSC 25/21 Q1014 A2996 HR78 FU AC/CIRWY NML=METAR SLMG 241200Z 00000KT 6000 BKN080 25/22 Q1013 A2992 HR84 FUMETAR SLBU 241200Z NIL=METAR SLSA 241200Z 00000KT 6000 SCT080 24/21 Q1015 A2998 HR87 FU=METAR SLSR 241200Z 00000KT 8000 NSC 24/20 Q1013 A2994 HR81 FU CIMETAR SLSM 241200Z 00000KT 5000 FU NSC 24/21 Q1015 A2999 HR86
ZPX0233 241201@CAELT@GG SLZZYMYT@CAELT@241200 SLYAYGYS@CAELT@SABO SLYA 241200@CAELT@METAR SLYA 241200Z 00000KT 9999 NSC 25/18 Q1014 A2995 939.0 HR64=@CAELT@
ZPX0234 241201@CAELT@GG SLZZYMYT@CAELT@241200 SLLPYGYZ@CAELT@SABO SLLP 241200@CAELT@METAR SLLP 241200Z 10008KT 070V140 9999 FEW006 05/00 Q1042@CAELT@A3077 630.7 HR73 P90// HZ W/NW NOSIG=@CAELT@
ZPX0236 241201@CAELT@GG SLZZYMYT@CAELT@241159 SLLPYFYA@CAELT@SABO SLLP 241200@CAELT@METAR SLLP 241200Z 10008KT 070V140 9999 FEW006 05/00 Q1042@CAELT@A3077 630.7 HR73 P90// HZ W/NW NOSIG=@CAELT@METAR SLCO 241200Z 00000KT 5000 FU BKN080 24/22 Q1016 A3000@CAELT@988.5 HR83=@CAELT@METAR SLRY 241200Z 00000KT 5000 FU SCT080 22/21 Q1011 A2988HR92 RWY NML=METAR SLRQ 241200Z 00000KT 6000 FEW080 23/22 Q1015 2999 991.3HR93 FU=METAR SLSB 241200Z 00000KT 5000 FU NSC 24/22 Q1015 A2999 HR90RWY NML=METAR SLOR 241200Z 00000KT 8000 NSC 03/M08 Q1039 A3070 659.1HR45 VIS RED FU/N/NE/E=METAR SLUY 241200Z 00000KT 9999 NSC 02/M11 Q1039 A3069661.9 HR40 HZ=
ZPX0237 241201@CAELT@GG SLZZYMYT@CAELT@241201 SLCBYGYS@CAELT@SABO SLCB 241200@CAELT@METAR SLCB 241200Z 00000KT 9999 NSC 14/00 Q1031 A3046 756.4 HR39 FU@CAELT@NOSIG=@CAELT@METAR SLAL 241200Z 23005KT 9999 NSC 13/05 Q1035 A3057 707.8 HR60=@CAELT@METAR SLAG 241200Z 00000KT 5000 FU NSC 18/11 Q1019 A3010 891.2 HR65=@CAELT@METAR SLVM 241200Z 00000KT 9999 NSC 22/15 Q1013 A2994 HR64 FU CI=METAR SLTJ 241200Z 00000KT 9999 NSC 15/07 Q1023 A3021 817.5 HR60 FU=METAR SLYA 241200Z 00000KT 9999 NSC 25/18 Q1014 A2995 939.0 HR64=
ZPX0266 241253@CAELT@GG SLZZYMYT@CAELT@241253 SLRBYGYS@CAELT@SABO SLRB 241300@CAELT@METAR SLRB 241300Z 00000KT 9999 NSC 27/23 Q1018 A3006 HR78 FU RWY NML=@CAELT@
ZPX0268 241254@CAELT@GG SLZZYMYT@CAELT@241254 SLSAYGYS@CAELT@SABO SLSA 241300@CAELT@METAR SLSA 241300Z 00000KT 6000 SCT080 28/23 Q1015 A3000 HR75 FU=@CAELT@
ZPX0269 241254@CAELT@GG SLZZYMYT@CAELT@241254 SLSAYGYS@CAELT@SABO SLSA 241300@CAELT@METAR SLSA 241300Z 00000KT 6000 SCT080 28/23 Q1015 A3000 HR75 FU=@CAELT@
ZPX0270 241255@CAELT@GG SLZZYMYT@CAELT@241255 SLAGYGYB@CAELT@SABO SLAG 241300@CAELT@METAR SLAG 241300Z 03005KT 5000 FU NSC 26/12 Q1019 A3010 891.1 HR42=@CAELT@
ZPX0271 241255@CAELT@GG SLZZYMYT@CAELT@241255 SLORYGYZ@CAELT@SABO SLOR 241300@CAELT@METAR SLOR 241300Z 00000KT 9999 NSC 09/M04 Q1040 A3072 659.5 HR40 FU=@CAELT@
ZPX0272 241255@CAELT@GG SLZZYMYT@CAELT@241255 SLCAYGYS@CAELT@SABO SLCA 241300@CAELT@METAR SLCA 241300Z 00000KT 9999 NSC 23/14 Q1018 A3006 HR59 FU RWY NML@CAELT@
ZPX0273 241255@CAELT@GG SLZZYMYT@CAELT@241255 SLRQYSYX@CAELT@SABO SLRQ 241300@CAELT@METAR SLRQ 241300Z 00000KT 6000 FEW080 29/25 Q1015 A3000 991.6 HR81@CAELT@
ZPX0274 241255@CAELT@GG SLZZYMYT@CAELT@241255 SLTJYGYZ@CAELT@SABO SLTJ 241300@CAELT@METAR SLTJ 241300Z 00000KT 9999 NSC 19/07 Q1022 A3020 817.3 HR48 FU=@CAELT@
ZPX0275 241255@CAELT@GG SLZZYMYT@CAELT@241255 SLTRYGYZ@CAELT@SABO SLTR 241300@CAELT@METAR SLTR 241300Z 22003KT 5000 FU NSC 28/21 Q1016 A3001 997.5 HR65@CAELT@NOSIG=@CAELT@
ZPX0277 241255@CAELT@GG SLZZYMYT@CAELT@241255 SLSBYSYX@CAELT@SABO SLSB 241300@CAELT@METAR SLSB 241300Z 00000KT 5000 FU NSC 27/23 Q1015 A3000 HR82 RWY NML=@CAELT@
ZPX0278 241255@CAELT@GG SLZZYMYT@CAELT@241255 SLCOYGYZ@CAELT@SABO SLCO 241300@CAELT@METAR SLCO 241300Z 00000KT 3000 FU BKN080 26/23 Q1016 A3001 988.8@CAELT@HR81=@CAELT@
ZPX0280 241256@CAELT@GG SLZZYMYT@CAELT@241255 SLETYMYC@CAELT@SABO SLET 241300@CAELT@METAR SLET 241300Z 32009KT 9000 NSC 29/18 Q1015 A3000 HR52 NOSIG=@CAELT@
ZPX0281 241256@CAELT@GG SLZZYMYT@CAELT@241257 SLVRYGYZ@CAELT@SABO SLVR 241300@CAELT@METAR SLVR 241300Z 34010KT 8000 NSC 29/19 Q1015 A2999 HR57 FU NOSIG=@CAELT@
ZPX0282 241256@CAELT@GG SLZZYMYT@CAELT@241256 SLCBYGYZ@CAELT@SABO SLCB 241300@CAELT@METAR SLCB 241300Z 00000KT 9999 NSC 18/00 Q1031 A3047 756.6 HR28 FU@CAELT@NOSIG=@CAELT@
ZPX0283 241256@CAELT@GG SLZZYMYT@CAELT@241244 SLUYYGYS@CAELT@SABO SLUY 241300@CAELT@METAR SLUY 241300Z 00000KT 9999 NSC 09/M05 Q1039 A3070@CAELT@662.1 HR38 HZ=@CAELT@
ZPX0284 241257@CAELT@GG SLZZYMYT@CAELT@241255 SLRYYSYX@CAELT@SABO SLRY 241300@CAELT@METAR SLRY 241300Z 00000KT 5000 FU FEW080 27/23 Q1012 A2989 HR78 RWY@CAELT@NML=@CAELT@
ZPX0285 241257@CAELT@GG SLZZYMYT@CAELT@241257 SLLPYGYZ@CAELT@SABO SLLP 241300@CAELT@METAR SLLP 241300Z 10009KT 070V130 9999 FEW013 07/M00 Q1042@CAELT@A3079 630.9 HR59 P4053 FU NOSIG=@CAELT@
ZPX0286 241258@CAELT@GG SLZZYMYT@CAELT@241259 SLVRYGYS@CAELT@SABO SLVR 241300@CAELT@METAR SLVR 241300Z 34010KT 8000 NSC 29/19 Q1015 A2999 HR57 FU NOSIG=@CAELT@METAR SLET 241300Z 32009KT 9000 NSC 29/18 Q1015 A3000 HR52 NOSIG=@CAELT@METAR SLAS 241300Z 34004KT 4000 FU NSC 29/20 Q1018 A3006 HR61 RWY NML@CAELT@METAR SLJV 241300Z 00000KT 7000 NSC 25/19 Q1015 A2997 HR68 FU RWY NML@CAELT@METAR SLCP 241300Z 00000KT 5000 FU NSC 26/21 Q1019 A3009 HR77 RWY NMLMETAR SLSI 241300Z 00000KT 5000 FU NSC 29/21 Q1016 A3000 HR61 RWY NMLMETAR SLTI 241300Z 00000KT 7000 NSC 33/20 Q1020 A3012 HR48 FU RWY NMLMETAR SLJE 241300Z 35005KT 5000 FU 30/21 Q1019 A3009 HR59 RWY NML=METAR SLVG 241300Z 00000KT 9999 NSC 19/12 Q1028 A3036 HR62 RWY NML=METAR SLRB 241300Z 00000KT 9999 NSC 27/23 Q1018 A3006 HR78 FU RWY NMLMETAR SLPS 241300Z NIL=METAR SLCA 241300Z 00000KT 9999 NSC 23/14 Q1018 A3006 HR59 FU RWY NML
ZPX0287 241258@CAELT@GG SLZZYMYT@CAELT@241258 SLTRYGYS@CAELT@SABO SLTR 241300@CAELT@METAR SLTR 241300Z 22003KT 5000 FU NSC 28/21 Q1016 A3001 997.5 HR65@CAELT@NOSIG=@CAELT@METAR SLGM 241300Z 18004KT 2000 FU SCT080 28/25 Q1014 A2997 HR81=@CAELT@METAR SLRI 241300Z 19008KT 3000 FU BKN080 29/23 Q1016 A3001 HR76 C@CAELT@METAR SLJO 241300Z 00000KT 6000 NSC 26/21 Q1015 A2997 HR74 AC/CIFU RWY NML=METAR SLRA 241300Z 12003KT 5000 FU NSC 29/22 Q1015 A2997 HR67 AC/CIRWY NML=METAR SLMG 241300Z 00000KT 6000 BKN080 28/23 Q1013 A2993 HR74 FUMETAR SLBU 241300Z NIL=METAR SLSA 241300Z 00000KT 6000 SCT080 28/23 Q1015 A3000 HR75 FU=METAR SLSR 241300Z 00000KT 8000 NSC 26/21 Q1014 A2995 HR71 FU CIMETAR SLSM 241300Z 00000KT 5000 FU NSC 27/22 Q1015 A3000 HR74
ZPX0289 241259@CAELT@GG SLZZYMYT@CAELT@241259 SLCBYGYS@CAELT@SABO SLCB 241300@CAELT@METAR SLCB 241300Z 00000KT 9999 NSC 18/00 Q1031 A3047 756.6 HR28 FU@CAELT@NOSIG=@CAELT@METAR SLAL 241300Z 35004KT 9999 NSC 14/06 Q1035 A3058 708.1 HR58=@CAELT@METAR SLAG 241300Z 03005KT 5000 FU NSC 26/12 Q1019 A3010 891.1 HR42=@CAELT@METAR SLVM 241300Z 00000KT 9999 NSC 28/18 Q1013 A2993 HR54 FU CI=METAR SLTJ 241300Z 00000KT 9999 NSC 19/07 Q1022 A3020 817.3 HR48 FU=METAR SLYA 241300Z 00000KT 9999 NSC 28/20 Q1013 A2994 938.2 HR60=
ZPX0291 241301@CAELT@GG SLZZYMYT@CAELT@241300 SLLPYFYA@CAELT@SABO SLLP 241300@CAELT@METAR SLLP 241300Z 10009KT 070V130 9999 FEW013 07/M00 Q1042@CAELT@A3079 630.9 HR59 P4053 FU NOSIG=@CAELT@METAR SLCO 241300Z 00000KT 3000 FU BKN080 26/23 Q1016 A3001@CAELT@988.8 HR81=@CAELT@METAR SLRY 241300Z 00000KT 5000 FU FEW080 27/23 Q1012 A2989HR78 RWY NML=METAR SLRQ 241300Z 00000KT 6000 FEW080 29/25 Q1015 A3000991.6 HR81 FU=METAR SLSB 241300Z 00000KT 5000 FU NSC 27/23 Q1015 A3000HR82 RWY NML=METAR SLOR 241300Z 00000KT 9999 NSC 09/M04 Q1040 A3072 659.5HR40 FU=METAR SLUY 241300Z 00000KT 9999 NSC 09/M05 Q1039 A3070662.1 HR38 HZ=
ZPX0336 241353@CAELT@GG SLZZYMYT@CAELT@241353 SLRBYGYS@CAELT@SABO SLRB 241400@CAELT@METAR SLRB 241400Z 00000KT 9999 NSC 31/23 Q1018 A3006 HR65 FU RWY NML=@CAELT@
ZPX0337 241354@CAELT@GG SLZZYMYT@CAELT@241354 SLORYGYZ@CAELT@SABO SLOR 241400@CAELT@METAR SLOR 241400Z 21004KT 999 NSC 14/M04 Q1040 A3073 659.7 HR30=@CAELT@
ZPX0339 241354@CAELT@GG SLZZYMYT@CAELT@241355 SLETYMYC@CAELT@SABO SLET 241400@CAELT@METAR SLET 241400Z 30012G22KT 9999 NSC 31/18 Q1015 A2999 HR47 FU@CAELT@NOSIG=@CAELT@
ZPX0340 241355@CAELT@GG SLZZYMYT@CAELT@241355 SLCOYGYZ@CAELT@SABO SLCO 241400@CAELT@METAR SLCO 241400Z 00000KT 3000 FU BKN080 27/23 Q1017 A3003 989.5@CAELT@HR79=@CAELT@
ZPX0341 241355@CAELT@GG SLZZYMYT@CAELT@241355 SLRQYSYX@CAELT@SABO SLRQ 241400@CAELT@METAR SLRQ 241400Z 00000KT 6000 NSC 32/25 Q1015 A3000 991.6 HR66 FU=@CAELT@
ZPX0342 241355@CAELT@GG SLZZYMYT@CAELT@241352 SLUYYGYS@CAELT@SABO SLUY 241400@CAELT@METAR SLUY 241400Z 00000KT 9999 NSC 12/M08 Q1039 A3070@CAELT@662.2 HR24 HZ=@CAELT@
ZPX0343 241355@CAELT@GG SLZZYMYT@CAELT@241355 SLAGYSYX@CAELT@SABO SLAG 241400@CAELT@METAR SLAG 241400Z 36007KT 7000 FU NSC 29/11 Q1018 A3009 890.8 HR32=@CAELT@
ZPX0344 241356@CAELT@GG SLZZYMYT@CAELT@241354 SLTJYGYZ@CAELT@SABO SLTJ 241400@CAELT@METAR SLTJ 241400Z 17004KT 9999 NSC 23/06 Q1022 A3018 816.7 HR33 FU=@CAELT@
ZPX0345 241356@CAELT@GG SLZZYMYT@CAELT@241357 SLLPYGYZ@CAELT@SABO SLLP 241400@CAELT@METAR SLLP 241400Z 14008KT 9999 FEW015 10/M01 Q1042 A3079@CAELT@631.1 HR47 P4053 FU NOSIG=@CAELT@
ZPX0346 241356@CAELT@GG SLZZYMYT@CAELT@241355 SLSBYSYX@CAELT@SABO SLSB 241400@CAELT@METAR SLSB 241400Z 00000KT 6000 NSC 30/24 Q1015 A3000 HR69 FU RWY NML=@CAELT@
ZPX0347 241356@CAELT@GG SLZZYMYT@CAELT@241356 SLORYGYZ@CAELT@SABO SLOR 241400@CAELT@METAR SLOR 241400Z 21004KT 999 NSC 14/M04 Q1040 A3073 659.7 HR30=@CAELT@
ZPX0348 241356@CAELT@GG SLZZYMYT@CAELT@241356 SLTRYGYZ@CAELT@SABO SLTR 241400@CAELT@METAR SLTR 241400Z 21003KT 5000 FU NSC 31/21 Q1016 A3000 997.4 HR56@CAELT@NOSIG=@CAELT@
ZPX0349 241356@CAELT@GG SLZZYMYT@CAELT@241354 SLRYYSYX@CAELT@SABO SLRY 241400@CAELT@METAR SLRY 241400Z 00000KT 5000 FU NSC 31/24 Q1012 A2991 HR66 RWY NML@CAELT@
ZPX0350 241356@CAELT@GG SLZZYMYT@CAELT@241355 SLCBYGYZ@CAELT@SABO SLCB 241400@CAELT@METAR SLCB 241400Z 25003KT 9999 NSC 20/M02 Q1031 A3045 756.3 HR21 FU@CAELT@NOSIG=@CAELT@
ZPX0351 241358@CAELT@GG SLZZYMYT@CAELT@241358 SLTRYGYS@CAELT@SABO SLTR 241400@CAELT@METAR SLTR 241400Z 21003KT 5000 FU NSC 31/21 Q1016 A3000 997.4 HR56@CAELT@NOSIG=@CAELT@METAR SLGM 241400Z 18006KT 2000 FU FEW080 31/24 Q1015 A2999 HR67=@CAELT@METAR SLRI 241400Z 19005KT 5000 FU SCT080 31/22 Q1016 A3002 HR59 CI=@CAELT@METAR SLJO 241400Z 00000KT 5000 FU NSC 31/22 Q1015 A2997 HR59 AC/CIRWY NML=METAR SLRA 241400Z 09003KT 5000 FU NSC 32/21 Q1015 A2998 HR55 AC/CIMETAR SLMG 241400Z 00000KT 6000 BKN080 31/24 Q1015 A2998 HR66 FUMETAR SLBU 241400Z NIL=METAR SLSA 241400Z 00000KT 6000 BKN080 29/21 Q1015 A3000 HR66 FU=METAR SLSR 241400Z 00000KT 8000 NSC 30/21 Q1014 A2996 HR61 FU CIMETAR SLSM 241400Z 00000KT 5000 FU NSC 30/21 Q1016 A3000 HR58
ZPX0352 241359@CAELT@GG SLZZYMYT@CAELT@241359 SLCAYGYS@CAELT@SABO SLCA 241400@CAELT@METAR SLCA 241400Z 36004KT 9999 NSC 30/13 Q1018 A3006 HR36 FU RWY NML@CAELT@
ZPX0355 241400@CAELT@GG SLZZYMYT@CAELT@241359 SLLPYFYA@CAELT@SABO SLLP 241400@CAELT@METAR SLLP 241400Z 14008KT 9999 FEW015 10/M01 Q1042 A3079@CAELT@631.1 HR47 P4053 FU NOSIG=@CAELT@METAR SLCO 241400Z 00000KT 3000 FU BKN080 27/23 Q1017 A3003@CAELT@989.5 HR79=@CAELT@METAR SLRY 241400Z 00000KT 5000 FU NSC 31/24 Q1012 A2991HR66 RWY NML=METAR SLRQ 241400Z 00000KT 6000 NSC 32/25 Q1015 A3000 991.6HR66 FU=METAR SLSB 241400Z 00000KT 6000 NSC 30/24 Q1015 A3000 HR69FU RWY NML=METAR SLOR 241400Z 21004KT 999 NSC 14/M04 Q1040 A3073 659.7HR30=METAR SLUY 241400Z 00000KT 9999 NSC 12/M08 Q1039 A3070662.2 HR24 HZ=
ZPX0356 241402@CAELT@GG SLZZYMYT@CAELT@241403 SLVRYGYZ@CAELT@SABO SLVR 241400@CAELT@METAR SLVR 241400Z 32014KT 8000 NSC 32/19 Q1015 A3000 HR48 FU NOSIG=@CAELT@
ZPX0357 241402@CAELT@GG SLZZYMYT@CAELT@241403 SLVRYGYS@CAELT@SABO SLVR 241400@CAELT@METAR SLVR 241400Z 32014KT 8000 NSC 32/19 Q1015 A3000 HR48 FU NOSIG=@CAELT@METAR SLET 241400Z 30012G22KT 9999 NSC 31/18 Q1015 A2999 HR47 FU@CAELT@NOSIG=@CAELT@METAR SLAS 241400Z 00000KT 4000 FU NSC 32/19 Q1018 A3006 HR49 RWY NML@CAELT@METAR SLJV 241400Z 00000KT 5000 FU NSC 27/20 Q1015 A2997 HR60 RWY NMLMETAR SLCP 241400Z 00000KT 5000 FU NSC 29/20 Q1019 A3009 HR58 RWY NMLMETAR SLSI 241400Z 00000KT 5000 FU NSC 32/21 Q1016 A3000 HR50 RWY NMLMETAR SLTI 241400Z 35006KT 9999 NSC 36/20 Q1019 A3009 HR39 FU RWY NMLMETAR SLJE 241400Z 35005KT 5000 FU NSC 33/22 Q1019 A3009 HR53 RWY NMLMETAR SLVG 241400Z 35006KT 9999 NSC 22/08 Q1028 A3036 HR34 RWY NML=METAR SLRB 241400Z 00000KT 9999 NSC 31/23 Q1018 A3006 HR65 FU RWY NMLMETAR SLPS 241400Z NIL=METAR SLCA 241400Z 36004KT 9999 NSC 30/13 Q1018 A3006 HR36 FU RWY NML=
ZPX0360 241403@CAELT@GG SLZZYMYT@CAELT@241403 SLCBYGYS@CAELT@SABO SLCB 241400@CAELT@METAR SLCB 241400Z 25003KT 9999 NSC 20/M02 Q1031 A3045 756.3 HR21 FU@CAELT@NOSIG=@CAELT@METAR SLAL 241400Z 35004KT 9999 NSC 18/07 Q1036 A3059 708.2 HR50=@CAELT@METAR SLAG 241400Z 36007KT 7000 FU NSC 29/11 Q1018 A3009 890.8 HR32=@CAELT@METAR SLTJ 241400Z 17004KT 9999 NSC 23/06 Q1022 A3018 816.7 HR33 FU=METAR SLYA 241400Z 00000KT 9999 NSC 31/20 Q1013 A2994 938.2 HR51=
ZPX0366 241413@CAELT@GG SLZZYMYT@CAELT@241413 SLCBYGYS@CAELT@SABO SLCB 241400@CAELT@METAR SLCB 241400Z 25003KT 9999 NSC 20/M02 Q1031 A3045 756.3 HR21 FU@CAELT@NOSIG=@CAELT@METAR SLAL 241400Z 35004KT 9999 NSC 18/07 Q1036 A3059 708.2 HR50=@CAELT@METAR SLAG 241400Z 36007KT 7000 FU NSC 29/11 Q1018 A3009 890.8 HR32=@CAELT@METAR RTD SLVM 241400Z 18005KT 9999 NSC 31/20 Q1012 A2991 HR51 FU CI=METAR SLTJ 241400Z 17004KT 9999 NSC 23/06 Q1022 A3018 816.7 HR33 FU=METAR SLYA 241400Z 00000KT 9999 NSC 31/20 Q1013 A2994 938.2 HR51=
ZPX0392 241453@CAELT@GG SLZZYMYT@CAELT@241453 SLRBYGYS@CAELT@SABO SLRB 241500@CAELT@METAR SLRB 241500Z 00000KT 9999 NSC 34/22 Q1018 A3006 HR50 FU RWY NML=@CAELT@
ZPX0393 241454@CAELT@GG SLZZYMYT@CAELT@241455 SLORYGYZ@CAELT@SABO SLOR 241500@CAELT@METAR SLOR 241500Z 09013KT 9999 NSC 18/M01 Q1040 A3073 659.5 HR29=@CAELT@
ZPX0394 241455@CAELT@GG SLZZYMYT@CAELT@241455 SLETYMYC@CAELT@SABO SLET 241500@CAELT@METAR SLET 241500Z 30014G25KT 9000 NSC 32/18 Q1015 A2998 HR44 FU@CAELT@NOSIG=@CAELT@
ZPX0395 241455@CAELT@GG SLZZYMYT@CAELT@241455 SLRQYSYX@CAELT@SABO SLRQ 241500@CAELT@METAR SLRQ 241500Z 00000KT 6000 NSC 33/24 Q1015 A2999 991.3 HR59 FU=@CAELT@
ZPX0396 241455@CAELT@GG SLZZYMYT@CAELT@241455 SLAGYSYX@CAELT@SABO SLAG 241500@CAELT@METAR SLAG 241500Z 36009KT 7000 FU NSC 32/11 Q1018 A3007 890.3 HR28=@CAELT@
ZPX0397 241455@CAELT@GG SLZZYMYT@CAELT@241444 SLUYYGYS@CAELT@SABO SLUY 241500@CAELT@METAR SLUY 241500Z 29004KT 9999 NSC 13/M10 Q1039 A3069@CAELT@662.0 HR18 HZ S/SW=@CAELT@
ZPX0398 241455@CAELT@GG SLZZYMYT@CAELT@241456 SLVRYGYZ@CAELT@SABO SLVR 241500@CAELT@METAR SLVR 241500Z 34015KT 8000 NSC 33/19 Q1015 A2999 HR44 FU NOSIG=@CAELT@
ZPX0399 241456@CAELT@GG SLZZYMYT@CAELT@241455 SLSBYSYX@CAELT@SABO SLSB 241500@CAELT@METAR SLSB 241500Z 05004KT 7000 NSC 32/23 Q1015 A2999 HR60 FU RWY NML=@CAELT@
ZPX0400 241456@CAELT@GG SLZZYMYT@CAELT@241455 SLCBYGYZ@CAELT@SABO SLCB 241500@CAELT@METAR SLCB 241500Z 22004KT 9999 NSC 24/M03 Q1030 A3044 755.8 HR17 FU@CAELT@NOSIG=@CAELT@
ZPX0401 241456@CAELT@GG SLZZYMYT@CAELT@241454 SLRYYSYX@CAELT@SABO SLRY 241500@CAELT@METAR SLRY 241500Z 00000KT 7000 NSC 33/22 Q1012 A2991 HR54 FU RWY NML@CAELT@
ZPX0402 241456@CAELT@GG SLZZYMYT@CAELT@241457 SLLPYGYZ@CAELT@SABO SLLP 241500@CAELT@METAR SLLP 241500Z 15008KT 060V190 9999 FEW015 12/M01 Q1042@CAELT@A3079 630.9 HR41 P0083 FU NOSIG=@CAELT@
ZPX0405 241457@CAELT@GG SLZZYMYT@CAELT@241457 SLCAYGYS@CAELT@SABO SLCA 241500@CAELT@METAR SLCA 241500Z 36010KT 9999 NSC 33/10 Q1017 A3003 HR25 FU RWY NML@CAELT@
ZPX0406 241457@CAELT@GG SLZZYMYT@CAELT@241456 SLTRYGYZ@CAELT@SABO SLTR 241500@CAELT@METAR SLTR 241500Z 25003KT 5000 FU NSC 33/21 Q1016 A3000@CAELT@997.4 HR49 NOSIG=@CAELT@
ZPX0408 241457@CAELT@GG SLZZYMYT@CAELT@241456 SLSAYGYS@CAELT@SABO SLSA 241500@CAELT@METAR SLSA 241500Z 00000KT 7000 SCT080 32/20 Q1015 A2999 HR47 FU=@CAELT@
ZPX0409 241457@CAELT@GG SLZZYMYT@CAELT@241456 SLSAYGYS@CAELT@SABO SLSA 241500@CAELT@METAR SLSA 241500Z 00000KT 7000 SCT080 32/20 Q1015 A2999 HR47 FU=@CAELT@
ZPX0410 241458@CAELT@GG SLZZYMYT@CAELT@241456 SLCOYGYZ@CAELT@SABO SLCO 241500@CAELT@METAR SLCO 241500Z 21006KT 5000 FU BKN080 31/23 Q1016 A3002 989.2@CAELT@HR62=@CAELT@
ZPX0411 241458@CAELT@GG SLZZYMYT@CAELT@241456 SLTJYGYZ@CAELT@SABO SLTJ 241500@CAELT@METAR SLTJ 241500Z 18005KT 9999 NSC 26/04 Q1021 A3016 815.9 HR25 FU=@CAELT@
ZPX0412 241458@CAELT@GG SLZZYMYT@CAELT@241458 SLTRYGYS@CAELT@SABO SLTR 241500@CAELT@METAR SLTR 241500Z 25003KT 5000 FU NSC 33/21 Q1016 A3000@CAELT@997.4 HR49 NOSIG=@CAELT@METAR SLGM 241500Z 18004KT 2000 FU NSC 33/24 Q1015 A2997 HR60 CI=@CAELT@METAR SLRI 241500Z 20010KT 5000 FU FEW080 BKN200 33/21 Q1016 A3002@CAELT@HR49=METAR SLJO 241500Z 00000KT 5000 FU NSC 33/22 Q1015 A2999 HR51 CIRWY NML=METAR SLRA 241500Z 09003KT 5000 FU NSC 33/21 Q1014 A2997 HR48 AC/CIMETAR SLMG 241500Z 00000KT 6000 BKN080 33/23 Q1015 A2998 HR58 FUMETAR SLBU 241500Z NIL=METAR SLSA 241500Z 00000KT 7000 SCT080 32/20 Q1015 A2999 HR47 FU=METAR SLSR 241500Z 00000KT 8000 NSC 32/21 Q1014 A2995 HR52 FU CIMETAR SLSM 241500Z 00000KT 5000 FU NSC 32/21 Q1015 A2999 HR51
ZPX0416 241500@CAELT@GG SLZZYMYT@CAELT@241501 SLVRYGYS@CAELT@SABO SLVR 241500@CAELT@METAR SLVR 241500Z 34015KT 8000 NSC 33/19 Q1015 A2999 HR44 FU NOSIG=@CAELT@METAR SLET 241500Z 30014G25KT 9000 NSC 32/18 Q1015 A2998 HR44 FU@CAELT@NOSIG=@CAELT@METAR SLAS 241500Z 00000KT 4000 FU NSC 33/19 Q1018 A3006 HR44 RWY NML@CAELT@METAR SLJV 241500Z 36010KT 5000 FU NSC 32/20 Q1015 A2997 HR50 RWY NMLMETAR SLCP 241500Z 00000KT 5000 FU NSC 32/21 Q1019 A3009 HR52 RWY NMLMETAR SLSI 241500Z 00000KT 5000 FU NSC 35/21 Q1016 A3000 HR46 RWY NMLMETAR SLTI 241500Z 35008KT 9999 NSC 37/20 Q1019 A3009 HR38 FU RWY NMLMETAR SLJE 241500Z 35006KT 4000 FU NSC 35/23 Q1018 A3006 HR50 RWY NMLMETAR SLVG 241500Z 35009KT 9999 NSC 24/06 Q1028 A3036 HR26 RWY NML=METAR SLRB 241500Z 00000KT 9999 NSC 34/22 Q1018 A3006 HR50 FU RWY NMLMETAR SLPS 241500Z NIL=METAR SLCA 241500Z 36010KT 9999 NSC 33/10 Q1017 A3003 HR25 FU RWY NML
ZPX0418 241502@CAELT@GG SLZZYMYT@CAELT@241500 SLLPYFYA@CAELT@SABO SLLP 241500@CAELT@METAR SLLP 241500Z 15008KT 060V190 9999 FEW015 12/M01 Q1042@CAELT@A3079 630.9 HR41 P0083 FU NOSIG=@CAELT@METAR SLCO 241500Z 21006KT 5000 FU BKN080 31/23 Q1016 A3002@CAELT@989.2 HR62=@CAELT@METAR SLRY 241500Z 00000KT 7000 NSC 33/22 Q1012 A2991 HR54FU RWY NML=METAR SLRQ 241500Z 00000KT 6000 NSC 33/24 Q1015 A2999 991.3HR59 FU=METAR SLSB 241500Z 05004KT 7000 NSC 32/23 Q1015 A2999 HR60METAR SLOR 241500Z 09013KT 9999 NSC 18/M01 Q1040 A3073 659.5HR29=METAR SLUY 241500Z 29004KT 9999 NSC 13/M10 Q1039 A3069662.0 HR18 HZ S/SW=
ZPX0420 241503@CAELT@GG SLZZYMYT@CAELT@241503 SLCBYGYS@CAELT@SABO SLCB 241500@CAELT@METAR SLCB 241500Z 22004KT 9999 NSC 24/M03 Q1030 A3044 755.8 HR17 FU@CAELT@NOSIG=@CAELT@METAR SLAL 241500Z 32010KT 9999 NSC 19/07 Q1035 A3058 708.0 HR48=@CAELT@METAR SLAG 241500Z 36009KT 7000 FU NSC 32/11 Q1018 A3007 890.3 HR28=@CAELT@METAR SLVM 241500Z 00000KT 9999 NSC 36/21 Q1011 A2987 HR43 FU CI=METAR SLTJ 241500Z 18005KT 9999 NSC 26/04 Q1021 A3016 815.9 HR25 FU=METAR SLYA 241500Z 06008KT 9999 NSC 33/18 Q1012 A2991 937.6 HR43=
ZPX0450 241554@CAELT@GG SLZZYMYT@CAELT@241555 SLSBYSYX@CAELT@SABO SLSB 241600@CAELT@METAR SLSB 241600Z 36004KT 7000 NSC 34/23 Q1015 A2998 HR50 FU RWY NML=@CAELT@
ZPX0451 241554@CAELT@GG SLZZYMYT@CAELT@241554 SLRBYGYS@CAELT@SABO SLRB 241600@CAELT@METAR SLRB 241600Z 36006KT 9999 NSC 35/23 Q1017 A3003 HR49 FU RWY NML=@CAELT@
ZPX0452 241554@CAELT@GG SLZZYMYT@CAELT@241554 SLTJYGYZ@CAELT@SABO SLTJ 241600@CAELT@METAR SLTJ 241600Z 00000KT 9999 NSC 30/03 Q1019 A3011 814.7 HR19 FU=@CAELT@
ZPX0453 241554@CAELT@GG SLZZYMYT@CAELT@241554 SLSAYGYS@CAELT@SABO SLSA 241600@CAELT@METAR SLSA 241600Z 00000KT 7000 SCT080 34/21 Q1015 A2998 HR45 FU=@CAELT@
ZPX0454 241554@CAELT@GG SLZZYMYT@CAELT@241554 SLSAYGYS@CAELT@SABO SLSA 241600@CAELT@METAR SLSA 241600Z 00000KT 7000 SCT080 34/21 Q1015 A2998 HR45 FU=@CAELT@
ZPX0456 241554@CAELT@GG SLZZYMYT@CAELT@241554 SLCAYGYS@CAELT@SABO SLCA 241600@CAELT@METAR SLCA 241600Z 36006KT 9999 NSC 35/08 Q1016 A3000 HR21 FU RWY NML@CAELT@
ZPX0457 241554@CAELT@GG SLZZYMYT@CAELT@241555 SLAGYSYX@CAELT@SABO SLAG 241600@CAELT@METAR SLAG 241600Z 02010KT 9999 NSC 34/11 Q1017 A3004 889.4 HR24 FU=@CAELT@
ZPX0458 241555@CAELT@GG SLZZYMYT@CAELT@241555 SLCBYGYZ@CAELT@SABO SLCB 241600@CAELT@METAR SLCB 241600Z 34003KT 9999 FEW040 25/02 Q1029 A3039 754.7 HR21@CAELT@FU NOSIG=@CAELT@
ZPX0459 241555@CAELT@GG SLZZYMYT@CAELT@241556 SLVRYGYZ@CAELT@SABO SLVR 241600@CAELT@METAR SLVR 241600Z 35015KT 8000 NSC 35/19 Q1014 A2997 HR41 FU NOSIG=@CAELT@
ZPX0460 241555@CAELT@GG SLZZYMYT@CAELT@241555 SLETYMYC@CAELT@SABO SLET 241600@CAELT@METAR SLET 241600Z 30012G23KT 9000 NSC 33/18 Q1014 A2996 HR40 FU@CAELT@NOSIG=@CAELT@
ZPX0461 241556@CAELT@GG SLZZYMYT@CAELT@241555 SLCOYGYZ@CAELT@SABO SLCO 241600@CAELT@METAR SLCO 241600Z 17005KT 6000 SCT080 33/23 Q1016 A3001 988.6 HR56@CAELT@FU CI=@CAELT@
ZPX0462 241556@CAELT@GG SLZZYMYT@CAELT@241555 SLRQYSYX@CAELT@SABO SLRQ 241600@CAELT@METAR SLRQ 241600Z 00000KT 6000 FEW017 34/24 Q1014 A2996 990.5 HR56@CAELT@
ZPX0463 241556@CAELT@GG SLZZYMYT@CAELT@241556 SLORYGYZ@CAELT@SABO SLOR 241600@CAELT@METAR SLOR 241600Z 08010KT 9999 NSC 20/M02 Q1039 A3070 659.2 HR25=@CAELT@
ZPX0464 241556@CAELT@GG SLZZYMYT@CAELT@241556 SLTRYGYZ@CAELT@SABO SLTR 241600@CAELT@METAR SLTR 241600Z 30004KT 5000 FU NSC 33/21 Q1015 A2998 996.6 HR47@CAELT@NOSIG=@CAELT@
ZPX0465 241556@CAELT@GG SLZZYMYT@CAELT@241554 SLRYYSYX@CAELT@SABO SLRY 241600@CAELT@METAR SLRY 241600Z 00000KT 8000 NSC 34/22 Q1012 A2990 HR50 FU RWY NML@CAELT@
ZPX0466 241557@CAELT@GG SLZZYMYT@CAELT@241557 SLLPYGYZ@CAELT@SABO SLLP 241600@CAELT@METAR SLLP 241600Z 15009KT 080V170 9999 FEW017 13/M01 Q1041@CAELT@A3077 630.6 HR38 P93// FU NOSIG=@CAELT@
ZPX0469 241557@CAELT@GG SLZZYMYT@CAELT@241548 SLUYYGYS@CAELT@SABO SLUY 241600@CAELT@METAR SLUY 241600Z 23003KT 9999 NSC 16/M12 Q1038 A3067@CAELT@661.4 HR14=@CAELT@
ZPX0470 241558@CAELT@GG SLZZYMYT@CAELT@241558 SLTRYGYS@CAELT@SABO SLTR 241600@CAELT@METAR SLTR 241600Z 30004KT 5000 FU NSC 33/21 Q1015 A2998 996.6 HR47@CAELT@NOSIG=@CAELT@METAR SLGM 241600Z 18006KT 4000 FU SCT017 BKN200 34/24 Q1014 A2994@CAELT@HR56=@CAELT@METAR SLRI 241600Z 20005KT 5000 FU NSC 34/21 Q1015 A3000 HR47 CI=METAR SLJO 241600Z 09003KT 5000 FU NSC 34/22 Q1014 A2997 HR50 CIRWY NML=METAR SLRA 241600Z 09005KT 5000 FU FEW023 SCT200 36/21 Q1014 A2995HR42 AC RWY NML=METAR SLMG 241600Z 18004KT 6000 SCT080 34/22 Q1014 A2996 HR49 FUMETAR SLBU 241600Z NIL=METAR SLSA 241600Z 00000KT 7000 SCT080 34/21 Q1015 A2998 HR45 FU=METAR SLSR 241600Z 00000KT 8000 NSC 33/21 Q1013 A2992 HR48 FU CIMETAR SLSM 241600Z 00000KT 5000 FU NSC 33/21 Q1014 A2996 HR48
ZPX0471 241559@CAELT@GG SLZZYMYT@CAELT@241600 SLVRYGYS@CAELT@SABO SLVR 241600@CAELT@METAR SLVR 241600Z 35015KT 8000 NSC 35/19 Q1014 A2997 HR41 FU NOSIG=@CAELT@METAR SLET 241600Z 30012G23KT 9000 NSC 33/18 Q1014 A2996 HR40 FU@CAELT@NOSIG=@CAELT@METAR SLAS 241600Z 00000KT 4000 FU NSC 34/18 Q1017 A3003 HR42 RWY NML@CAELT@METAR SLJV 241600Z 36010KT 5000 FU NSC 32/20 Q1015 A2997 HR48 RWY NMLMETAR SLCP 241600Z 30004KT 5000 FU NSC 33/21 Q1018 A3006 HR47 RWY NMLMETAR SLSI 241600Z 36005KT 5000 FU SCT020 36/21 Q1015 A2997 HR41 RWYNML=METAR SLTI 241600Z 36005KT 9999 NSC 39/21 Q1017 A3003 HR36 FU RWY NMLMETAR SLJE 241600Z 35006KT 4000 FU NSC 38/24 Q1017 A3003 HR45 RWY NMLMETAR SLVG 241600Z 34007KT 9999 NSC 27/06 Q1027 A3033 HR21 RWY NML=METAR SLRB 241600Z 36006KT 9999 NSC 35/23 Q1017 A3003 HR49 FU RWY NMLMETAR SLPS 241600Z NIL=METAR SLCA 241600Z 36006KT 9999 NSC 35/08 Q1016 A3000 HR21 FU RWY NML
ZPX0473 241601@CAELT@GG SLZZYMYT@CAELT@241601 SLCBYGYS@CAELT@SABO SLCB 241600@CAELT@METAR SLCB 241600Z 34003KT 9999 FEW040 25/02 Q1029 A3039 754.7 HR21@CAELT@FU NOSIG=@CAELT@METAR SLAL 241600Z 34012KT 9999 NSC 20/08 Q1034 A3055 707.3 HR45=@CAELT@METAR SLAG 241600Z 02010KT 9999 NSC 34/11 Q1017 A3004 889.4 HR24 FU=@CAELT@METAR SLVM 241600Z 03012G25KT 9999 NSC 39/21 Q1010 A2983 HR36 FU CI=METAR SLTJ 241600Z 00000KT 9999 NSC 30/03 Q1019 A3011 814.7 HR19 FU=
ZPX0474 241602@CAELT@GG SLZZYMYT@CAELT@241600 SLLPYFYA@CAELT@SABO SLLP 241600@CAELT@METAR SLLP 241600Z 15009KT 080V170 9999 FEW017 13/M01 Q1041@CAELT@A3077 630.6 HR38 P93// FU NOSIG=@CAELT@METAR SLCO 241600Z 17005KT 6000 SCT080 33/23 Q1016 A3001@CAELT@988.6 HR56 FU CI=@CAELT@METAR SLRY 241600Z 00000KT 8000 NSC 34/22 Q1012 A2990 HR50FU RWY NML=METAR SLRQ 241600Z 00000KT 6000 FEW017 34/24 Q1014 A2996990.5 HR56 FU=METAR SLSB 241600Z 36004KT 7000 NSC 34/23 Q1015 A2998 HR50METAR SLOR 241600Z 08010KT 9999 NSC 20/M02 Q1039 A3070 659.2HR25=METAR SLUY 241600Z 23003KT 9999 NSC 16/M12 Q1038 A3067661.4 HR14=
ZPX0505 241645@CAELT@GG SLZZYMYT@CAELT@241644 SLCBYGYS@CAELT@METAR SLYA DLA 241600Z 06008KT 9999 NSC 34719 Q1012 A2989 937.0@CAELT@HR42=@CAELT@
ZPX0508 241653@CAELT@GG SLZZYMYT@CAELT@241653 SLRBYGYS@CAELT@SABO SLRB 241700@CAELT@METAR SLRB 241700Z 00000KT 9999 NSC 36/22 Q1015 A2997 HR46 FU RWY NML=@CAELT@
ZPX0509 241653@CAELT@GG SLZZYMYT@CAELT@241653 SLCBYGYS@CAELT@SABO SLYA 241600 RRA@CAELT@METAR SLYA 241600Z 06008KT 9999 NSC 34719 Q1012 A2989 937.0@CAELT@HR42=@CAELT@
ZPX0510 241654@CAELT@GG SLZZYMYT@CAELT@241655 SLAGYSYX@CAELT@SABO SLAG 241700@CAELT@METAR SLAG 241700Z 02012KT 9999 NSC 35/10 Q1015 A2998 887.7 HR22 FU=@CAELT@
ZPX0511 241654@CAELT@GG SLZZYMYT@CAELT@241655 SLORYGYZ@CAELT@SABO SLOR 241700@CAELT@METAR SLOR 241700Z 06012KT 9999 NSC 22/M12 Q1039 A3069 658.8 HR09=@CAELT@
ZPX0512 241654@CAELT@GG SLZZYMYT@CAELT@241655 SLRQYSYX@CAELT@SABO SLRQ 241700@CAELT@METAR SLRQ 241700Z 36005KT 6000 FEW017 35/25 Q1013 A2994 989.6 HR55@CAELT@
ZPX0513 241654@CAELT@GG SLZZYMYT@CAELT@241655 SLVRYGYZ@CAELT@SABO SLVR 241700@CAELT@METAR SLVR 241700Z 32014KT 8000 NSC 36/19 Q1013 A2994 HR38 FU NOSIG=@CAELT@
ZPX0514 241655@CAELT@GG SLZZYMYT@CAELT@241654 SLSAYGYS@CAELT@SABO SLSA 241700@CAELT@METAR SLSA 241700Z 27005KT 7000 FEW020 SCT080 35/21 Q1015 A2998@CAELT@HR44 FU=@CAELT@
ZPX0515 241655@CAELT@GG SLZZYMYT@CAELT@241654 SLSAYGYS@CAELT@SABO SLSA 241700@CAELT@METAR SLSA 241700Z 27005KT 7000 FEW020 SCT080 35/21 Q1015 A2998@CAELT@HR44 FU=@CAELT@
ZPX0516 241655@CAELT@GG SLZZYMYT@CAELT@241654 SLCAYGYS@CAELT@SABO SLCA 241700@CAELT@METAR SLCA 241700Z 36006KT 9999 NSC 36/08 Q1014 A2994 HR19 FU RWY NML@CAELT@
ZPX0517 241655@CAELT@GG SLZZYMYT@CAELT@241655 SLSBYSYX@CAELT@SABO SLSB 241700@CAELT@METAR SLSB 241700Z 31005KT 7000 NSC 35/22 Q1013 A2993 HR48 FU RWY NML=@CAELT@
ZPX0518 241655@CAELT@GG SLZZYMYT@CAELT@241655 SLTRYGYZ@CAELT@SABO SLTR 241700@CAELT@METAR SLTR 241700Z 29004KT 5000 FU NSC 35/21 Q1013 A2994 995.2 HR45@CAELT@NOSIG=@CAELT@
ZPX0519 241655@CAELT@GG SLZZYMYT@CAELT@241653 SLRYYSYX@CAELT@SABO SLRY 241700@CAELT@METAR SLRY 241700Z 00000KT 8000 NSC 34/22 Q1011 A2988 HR50 FU RWY NML@CAELT@
ZPX0520 241655@CAELT@GG SLZZYMYT@CAELT@241655 SLCOYGYZ@CAELT@SABO SLCO 241700@CAELT@METAR SLCO 241700Z 21005KT 6000 FEW080 SCT200 34/22 Q1015 A2997 987.5@CAELT@HR51 FU=@CAELT@
ZPX0522 241656@CAELT@GG SLZZYMYT@CAELT@241655 SLETYMYC@CAELT@SABO SLET 241700@CAELT@METAR SLET 241700Z 30012G23KT 8000 FEW020 34/19 Q1013 A2993 HR39 FU@CAELT@NOSIG=@CAELT@
ZPX0523 241657@CAELT@GG SLZZYMYT@CAELT@241657 SLLPYGYZ@CAELT@SABO SLLP 241600@CAELT@METAR SLLP 241600Z 13009KT 070V180 9999 FEW017 15/M02 Q1041@CAELT@A3074 629.9 HR32 P93// FU NOSIG=@CAELT@
ZPX0524 241657@CAELT@GG SLZZYMYT@CAELT@241657 SLCBYGYZ@CAELT@SABO SLCB 241700@CAELT@METAR SLCB 241700Z 25005KT 9999 FEW040 26/M02 Q1027 A3034 753.4 HR15@CAELT@FU NOSIG=@CAELT@
ZPX0526 241658@CAELT@GG SLZZYMYT@CAELT@241657 SLLPYFYA@CAELT@SABO SLLP 241600@CAELT@METAR SLLP 241600Z 13009KT 070V180 9999 FEW017 15/M02 Q1041@CAELT@A3074 629.9 HR32 P93// FU NOSIG=@CAELT@METAR SLCO 241700Z 21005KT 6000 FEW080 SCT200 34/22 Q1015@CAELT@A2997 987.5 HR51 FU=@CAELT@METAR SLRY 241700Z 00000KT 8000 NSC 34/22 Q1011 A2988 HR50FU RWY NML=METAR SLRQ 241700Z 36005KT 6000 FEW017 35/25 Q1013 A2994989.6 HR55 FU=METAR SLSB 241700Z 31005KT 7000 NSC 35/22 Q1013 A2993 HR48METAR SLOR 241700Z 06012KT 9999 NSC 22/M12 Q1039 A3069658.8 HR09=METAR SLUY 241700Z 28009KT 9999 NSC 17/M11 Q1036 A3062660.3 HR14=
ZPX0527 241658@CAELT@GG SLZZYMYT@CAELT@241658 SLTRYGYS@CAELT@SABO SLTR 241700@CAELT@METAR SLTR 241700Z 29004KT 5000 FU NSC 35/21 Q1013 A2994 995.2 HR45@CAELT@NOSIG=@CAELT@METAR SLGM 241700Z NIL=@CAELT@METAR SLRI 241700Z 22005KT 5000 FU FEW017 BKN200 34/20 Q1015 A2997@CAELT@HR44=METAR SLJO 241700Z 03006KT 5000 FU NSC 35/22 Q1013 A2994 HR47 CIRWY NML=METAR SLRA 241700Z 09004KT 5000 FU FEW023 SCT200 37/20 Q1013 A2993HR39 AC RWY NML=METAR SLMG 241700Z 00000KT 6000 FEW020 SCT080 BKN200 36/20 Q1013A2994 HR41 FU RWY NML=METAR SLBU 241700Z NIL=METAR SLSA 241700Z 27005KT 7000 FEW020 SCT080 35/21 Q1015 A2998HR44 FU=METAR SLSR 241700Z 00000KT 8000 NSC 34/21 Q1012 A2989 HR48 FU CIMETAR SLSM 241700Z 00000KT 5000 FU NSC 35/20 Q1013 A2993 HR43
ZPX0528 241659@CAELT@GG SLZZYMYT@CAELT@241657 SLTJYGYZ@CAELT@SABO SLTJ 241700@CAELT@METAR SLTJ 241700Z 32008KT 9999 NSC 34/01 Q1017 A3005 812.9 HR12 FU=@CAELT@
ZPX0532 241703@CAELT@GG SLZZYMYT@CAELT@241703 SLCBYGYS@CAELT@SABO SLCB 241700@CAELT@METAR SLCB 241700Z 25005KT 9999 FEW040 26/M02 Q1027 A3034 753.4 HR15@CAELT@FU NOSIG=@CAELT@METAR SLAL 241700Z 33005KT 9999 NSC 21/08 Q1033 A3051 706.5 HR43=@CAELT@METAR SLVM 241700Z 03015G25KT 9999 NSC 39/21 Q1008 A2978 HR35 FU CI=@CAELT@METAR SLTJ 241700Z 32008KT 9999 NSC 34/01 Q1017 A3005 812.9 HR12 FU=
ZPX0533 241703@CAELT@GG SLZZYMYT@CAELT@241704 SLVRYGYS@CAELT@SABO SLVR 241700@CAELT@METAR SLVR 241700Z 32014KT 8000 NSC 36/19 Q1013 A2994 HR38 FU NOSIG=@CAELT@METAR SLET 241700Z 30012G23KT 8000 FEW020 34/19 Q1013 A29.93 HR39 FU@CAELT@NOSIG=@CAELT@METAR SLAS 241700Z 00000KT 4000 FU NSC 35/18 Q1016 A3000 HR40 RWY NML@CAELT@METAR SLJV 241700Z 36010KT 5000 FU NSC 34/20 Q1014 A2994 HR43 RWY NMLMETAR SLCP 241700Z 30005KT 5000 FU FEW020 34/20 Q1017 A3003 HR43 RWYNML=METAR SLSI 241700Z 36005KT 5000 FU SCT020 37/21 Q1014 A2994 HR41 RWYMETAR SLTI 241700Z 36014KT 9999 NSC 39/20 Q1016 A3000 HR34 FU RWY NMLMETAR SLJE 241700Z 35006KT 4000 FU NSC 39/24 Q1016 A3000 HR44 RWY NMLMETAR SLVG 241700Z 34007KT 9999 NSC 27/03 Q1026 A3030 HR14 RWY NML=METAR SLRB 241700Z 00000KT 9999 NSC 36/22 Q1015 A2997 HR46 FU RWY NMLMETAR SLPS 241700Z NIL=METAR SLCA 241700Z 36006KT 9999 NSC 36/08 Q1014 A2994 HR19 FU RWY NML=
ZPX0534 241706@CAELT@GG SLZZYMYT@CAELT@241704 SLTRYGYS@CAELT@SABO SLTR 241700 RRB@CAELT@METAR SLTR 241700Z 29004KT 5000 FU NSC 35/21 Q1013 A2994 995.2 HR45@CAELT@NOSIG=@CAELT@METAR RTD SLGM 241700Z 18010KT 4000 FU SCT017 BKN200 35/24 Q1013@CAELT@A2993 HR53=@CAELT@METAR SLRI 241700Z 22005KT 5000 FU FEW017 BKN200 34/20 Q1015 A2997HR44=METAR SLJO 241700Z 03006KT 5000 FU NSC 35/22 Q1013 A2994 HR47 CIRWY NML=METAR SLRA 241700Z 09004KT 5000 FU FEW023 SCT200 37/20 Q1013 A2993HR39 AC RWY NML=METAR SLMG 241700Z 00000KT 6000 FEW020 SCT080 BKN200 36/20 Q1013A2994 HR41 FU RWY NML=METAR SLBU 241700Z NIL=METAR SLSA 241700Z 27005KT 7000 FEW020 SCT080 35/21 Q1015 A2998HR44 FU=METAR SLSR 241700Z 00000KT 8000 NSC 34/21 Q1012 A2989 HR48 FU CIMETAR SLSM 241700Z 00000KT 5000 FU NSC 35/20 Q1013 A2993 HR43
ZPX0540 241714@CAELT@GG SLZZYMYT@CAELT@241712 SLLPYGYZ@CAELT@SABO SLLP 241700 CCA@CAELT@METAR COR SLLP 241700Z 13009KT 070V180 9999 FEW017 15/M02 Q1041@CAELT@A3074 629.9 HR32 P93// FU NOSIG=@CAELT@
ZPX0541 241715@CAELT@GG SLZZYMYT@CAELT@241711 SLLPYFYA@CAELT@SABO SLLP 241700@CAELT@METAR SLLP 241700Z 13009KT 070V180 9999 FEW017 15/M02 Q1041@CAELT@A3074 629.9 HR32 P93// FU NOSIG=@CAELT@METAR SLCO 241700Z 21005KT 6000 FEW080 SCT200 34/22 Q1015@CAELT@A2997 987.5 HR51 FU=@CAELT@METAR SLRY 241700Z 00000KT 8000 NSC 34/22 Q1011 A2988 HR50FU RWY NML=METAR SLRQ 241700Z 36005KT 6000 FEW017 35/25 Q1013 A2994989.6 HR55 FU=METAR SLSB 241700Z 31005KT 7000 NSC 35/22 Q1013 A2993 HR48METAR SLOR 241700Z 06012KT 9999 NSC 22/M12 Q1039 A3069658.8 HR09=METAR SLUY 241700Z 28009KT 9999 NSC 17/M11 Q1036 A3062660.3 HR14=
ZPX0558 241752@CAELT@GG SLZZYMYT@CAELT@241753 SLORYGYZ@CAELT@SABO SLOR 241800@CAELT@METAR SLOR 241800Z 10014KT 9999 NSC 22/M06 Q1037 A3063 657.5 HR14=@CAELT@
ZPX0561 241754@CAELT@GG SLZZYMYT@CAELT@241755 SLETYMYC@CAELT@SABO SLET 241800@CAELT@METAR SLET 241800Z 32012G25KT 9000 FEW020 35/20 Q1012 A2989 HR40 FU@CAELT@NOSIG=@CAELT@
ZPX0563 241755@CAELT@GG SLZZYMYT@CAELT@241754 SLSAYGYS@CAELT@SABO SLSA 241800@CAELT@METAR SLSA 241800Z 26004KT 6000 FEW020 BKN200 36/20 Q1013 A2992@CAELT@HR40 FU=@CAELT@
ZPX0564 241755@CAELT@GG SLZZYMYT@CAELT@241756 SLVRYGYZ@CAELT@SABO SLVR 241800@CAELT@METAR SLVR 241800Z 34013G23KT 8000 NSC 36/18 Q1013 A2992 HR34 FU@CAELT@NOSIG=@CAELT@
ZPX0565 241755@CAELT@GG SLZZYMYT@CAELT@241755 SLCOYGYZ@CAELT@SABO SLCO 241800@CAELT@METAR SLCO 241800Z 12003KT 7000 SCT030 35/24 Q1014 A2995 986.6 HR52@CAELT@
ZPX0566 241756@CAELT@GG SLZZYMYT@CAELT@241755 SLAGYSYX@CAELT@SABO SLAG 241800@CAELT@METAR SLAG 241800Z 02010KT 9999 NSC 37/10 Q1014 A2996 887.0 HR20 FU=@CAELT@
ZPX0569 241756@CAELT@GG SLZZYMYT@CAELT@241755 SLCBYGYZ@CAELT@SABO SLCB 241800@CAELT@METAR SLCB 241800Z 20005KT 9999 FEW040 27/M06 Q1026 A3031 752.5 HR11@CAELT@FU NOSIG=@CAELT@
ZPX0570 241756@CAELT@GG SLZZYMYT@CAELT@241755 SLTJYGYZ@CAELT@SABO SLTJ 241800@CAELT@METAR SLTJ 241800Z 04008KT 9999 NSC 34/01 Q1016 A3002 812.0 HR12 FU=@CAELT@
ZPX0572 241757@CAELT@GG SLZZYMYT@CAELT@241756 SLTRYGYZ@CAELT@SABO SLTR 241800@CAELT@METAR SLTR 241800Z 30005KT 5000 FU FEW020 36/21 Q1012 A2991@CAELT@994.3 HR42 NOSIG=@CAELT@
ZPX0574 241757@CAELT@GG SLZZYMYT@CAELT@241757 SLLPYGYZ@CAELT@SABO SLLP 241800@CAELT@METAR SLLP 241800Z 11012KT 060V160 9999 FEW017 16/M04 Q1040@CAELT@A3072 629.4 HR26 P93// NOSIG=@CAELT@
ZPX0575 241758@CAELT@GG SLZZYMYT@CAELT@241758 SLTRYGYS@CAELT@SABO SLTR 241800@CAELT@METAR SLTR 241800Z 30005KT 5000 FU FEW020 36/21 Q1012 A2991@CAELT@994.3 HR42 NOSIG=@CAELT@METAR SLGM 241800Z 19008KT 5000 FU SCT017 BKN200 35/24 Q1013 A2991@CAELT@HR52=@CAELT@METAR SLRI 241800Z 30006KT 5000 FU SCT017 BKN200 34/21 Q1013 A2994HR46=METAR SLJO 241800Z NIL=METAR SLRA 241800Z NIL=METAR SLMG 241800Z NIL=METAR SLBU 241800Z NIL=METAR SLSA 241800Z 26004KT 6000 FEW020 BKN200 36/20 Q1013 A2992HR40 FU=METAR SLSR 241800Z NIL=METAR SLSM 241800Z 00000KT 5000 FU NSC 36/22 Q1012 A2990 HR44RWY NML=
ZPX0576 241759@CAELT@GG SLZZYMYT@CAELT@241800 SLVRYGYS@CAELT@SABO SLVR 241800@CAELT@METAR SLVR 241800Z 34013G23KT 8000 NSC 36/18 Q1013 A2992 HR34 FU@CAELT@NOSIG=@CAELT@METAR SLET 241800Z 32012G25KT 9000 FEW020 35/20 Q1012 A2989 HR40 FU@CAELT@METAR SLSI 241800Z 33006KT 5000 FU SCT020 37/21 Q1013 A2991 HR39 RWY@CAELT@NML=METAR SLTI 241800Z 36012KT 9999 FEW020 41/20 Q1015 A2997 HR31 FU RWY
ZPX0578 241800@CAELT@GG SLZZYMYT@CAELT@241759 SLSBYSYX@CAELT@SABO SLSB 241800@CAELT@METAR SLSB 241800Z 00000KT 8000 NSC 36/23 Q1012 A2991 HR48 FU RWY NML=@CAELT@
ZPX0580 241801@CAELT@GG SLZZYMYT@CAELT@241800 SLLPYFYA@CAELT@SABO SLLP 241800@CAELT@METAR SLLP 241800Z 11012KT 060V160 9999 FEW017 16/M04 Q1040@CAELT@A3072 629.4 HR26 P93// NOSIG=@CAELT@METAR SLCO 241800Z 12003KT 7000 SCT030 35/24 Q1014 A2995 986.6 HR52@CAELT@METAR SLSB 241800Z 00000KT 8000 NSC 36/23 Q1012 A2991 HR48 FU RWY NML@CAELT@METAR SLOR 241800Z 10014KT 9999 NSC 22/M06 Q1037 A3063 657.5 HR14=
ZPX0583 241803@CAELT@GG SLZZYMYT@CAELT@241803 SLCBYGYS@CAELT@SABO SLCB 241800@CAELT@METAR SLCB 241800Z 20005KT 9999 FEW040 27/M06 Q1026 A3031 752.5 HR11@CAELT@FU NOSIG=@CAELT@METAR SLAG 241800Z 02010KT 9999 NSC 37/10 Q1014 A2996 887.0 HR20 FU=@CAELT@METAR SLAL 241800Z 35004KT 9999 NSC 22/M04 Q1032 A3049 705.8 HR17=@CAELT@METAR SLVM 241800Z 36015G27KT 9999 NSC 40/21 Q1007 A2974 HR34 FU CI=METAR SLTJ 241800Z 04008KT 9999 NSC 34/01 Q1016 A3002 812.0 HR12 FU=METAR SLYA 241800Z 06015KT 9999 NSC 35/19 Q1009 A2982 934.6 HR40=
ZPX0598 241854@CAELT@GG SLZZYMYT@CAELT@241855 SLETYMYC@CAELT@SABO SLET 241900@CAELT@METAR SLET 241900Z 32013G25KT 8000 NSC 35/19 Q1011 A2987 HR39 FU@CAELT@NOSIG=@CAELT@
ZPX0599 241855@CAELT@GG SLZZYMYT@CAELT@241855 SLCBYGYZ@CAELT@SABO SLCB 241900@CAELT@METAR SLCB 241900Z 28005KT 9999 FEW040 28/M01 Q1025 A3028 751.6 HR15@CAELT@FU NOSIG=@CAELT@
ZPX0600 241855@CAELT@GG SLZZYMYT@CAELT@241854 SLSAYGYS@CAELT@SABO SLSA 241900@CAELT@METAR SLSA 241900Z 19004KT 6000 FEW020 BKN200 36/21 Q1012 A2990@CAELT@HR42 FU=@CAELT@
ZPX0601 241855@CAELT@GG SLZZYMYT@CAELT@241855 SLTRYGYZ@CAELT@SABO SLTR 241900@CAELT@METAR SLTR 241900Z 30006KT 5000 FU FEW020 36/21 Q1011 A2988 993.3@CAELT@HR42 NOSIG=@CAELT@
ZPX0602 241855@CAELT@GG SLZZYMYT@CAELT@241856 SLVRYGYZ@CAELT@SABO SLVR 241900@CAELT@METAR SLVR 241900Z 32015G25KT 8000 NSC 36/18 Q1012 A2989 HR35 FU@CAELT@NOSIG=@CAELT@
ZPX0603 241855@CAELT@GG SLZZYMYT@CAELT@241855 SLSBYSYX@CAELT@SABO SLSB 241900@CAELT@METAR SLSB 241900Z 30005KT 8000 NSC 36/23 Q1011 A2988 HR45 FU RWY NML=@CAELT@
ZPX0604 241855@CAELT@GG SLZZYMYT@CAELT@241855 SLCOYGYZ@CAELT@SABO SLCO 241900@CAELT@METAR SLCO 241900Z 14003KT 5000 FU SCT030 35/23 Q1012 A2990 985.2@CAELT@HR48=@CAELT@
ZPX0605 241856@CAELT@GG SLZZYMYT@CAELT@241857 SLLPYGYZ@CAELT@SABO SLLP 241900@CAELT@METAR SLLP 241900Z 10013KT 060V140 9999 FEW020 17/M04 Q1039@CAELT@A3069 628.7 HR24 P93// NOSIG=@CAELT@
ZPX0607 241859@CAELT@GG SLZZYMYT@CAELT@241857 SLTJYGYZ@CAELT@SABO SLTJ 241900@CAELT@METAR SLTJ 241900Z 06008KT 9999 NSC 34/00 Q1015 A2999 811.2 HR11 FU=@CAELT@
ZPX0610 241900@CAELT@GG SLZZYMYT@CAELT@241859 SLTRYGYS@CAELT@SABO SLTR 241900@CAELT@METAR SLTR 241900Z 30006KT 5000 FU FEW020 36/21 Q1011 A2988 993.3@CAELT@HR42 NOSIG=@CAELT@METAR SLGM 241900Z 18008KT 5000 TS VCSH FU SCT017 FEW020CB BKN200 35/@CAELT@23 Q1011 A2985 HR50 CBSH NE/E/SE TS NE/E=@CAELT@METAR SLRI 241900Z 30004KT 5000 FU SCT017 BKN200 35/22 Q1012 A2989HR46=METAR SLJO 241900Z NIL=METAR SLRA 241900Z NIL=METAR SLMG 241900Z NIL=METAR SLBU 241900Z NIL=METAR SLSA 241900Z 19004KT 6000 FEW020 BKN200 36/21 Q1012 A2990HR42 FU=METAR SLSR 241900Z NIL=METAR SLSM 241900Z NIL=
ZPX0611 241900@CAELT@GG SLZZYMYT@CAELT@241900 SLLPYSYX@CAELT@SABO SLLP 241900@CAELT@METAR SLLP 241900Z 10013KT 060V140 9999 FEW020 17/M04 Q1039@CAELT@A3069 628.7 HR24 P93// NOSIG=@CAELT@METAR SLCO 241900Z 14003KT 5000 FU SCT030 35/23 Q1012 A2990@CAELT@985.2 HR48=@CAELT@METAR SLSB 241900Z 30005KT 8000 NSC 36/23 Q1011 A2988 HR45FU RWY NML=
ZPX0612 241900@CAELT@GG SLZZYMYT@CAELT@241902 SLVRYGYS@CAELT@SABO SLVR 241900@CAELT@METAR SLVR 241900Z 32015G25KT 8000 NSC 36/18 Q1012 A2989 HR35 FU@CAELT@NOSIG=@CAELT@METAR SLET 241900Z 32013G25KT 8000 NSC 35/19 Q1011 A2987 HR39 FU@CAELT@METAR SLSI 241900Z 36005KT 700 SCT020 37/21 Q1012 A2988 HR39 FU RWY@CAELT@NML=
ZPX0613 241902@CAELT@GG SLZZYMYT@CAELT@241902 SLCBYGYS@CAELT@SABO SLCB 241900@CAELT@METAR SLCB 241900Z 28005KT 9999 FEW040 28/M01 Q1025 A3028 751.6 HR15@CAELT@FU NOSIG=@CAELT@METAR SLAL 241900Z 02008KT 9999 NSC 22/08 Q1031 A3045 705.1 HR22=@CAELT@METAR SLTJ 241900Z 06008KT 9999 NSC 34/00 Q1015 A2999 811.2 HR11 FU=@CAELT@
ZPX0646 241954@CAELT@GG SLZZYMYT@CAELT@241955 SLSBYSYX@CAELT@SABO SLSB 242000@CAELT@METAR SLSB 242000Z 31004KT 8000 NSC 36/22 Q1011 A2987 HR43 FU RWY NML=@CAELT@
ZPX0647 241955@CAELT@GG SLZZYMYT@CAELT@241955 SLVRYGYZ@CAELT@SABO SLVR 242000@CAELT@METAR SLVR 242000Z 34011G21KT 8000 NSC 35/17 Q1011 A2987 HR36 FU@CAELT@NOSIG=@CAELT@
ZPX0648 241955@CAELT@GG SLZZYMYT@CAELT@241955 SLTRYGYZ@CAELT@SABO SLTR 242000@CAELT@METAR SLTR 242000Z 32007KT 5000 FU NSC 35/21 Q1011 A2986 992.5 HR44@CAELT@NOSIG=@CAELT@
ZPX0649 241955@CAELT@GG SLZZYMYT@CAELT@241954 SLSAYGYS@CAELT@SABO SLSA 242000@CAELT@METAR SLSA 242000Z 20004KT 6000 FEW020 BKN200 35/21 Q1011 A2987@CAELT@HR43 FU=@CAELT@
ZPX0650 241956@CAELT@GG SLZZYMYT@CAELT@241955 SLETYMYC@CAELT@SABO SLET 242000@CAELT@METAR SLET 242000Z 32013G25KT 9000 NSC 35/20 Q1011 A2985 HR42 FU@CAELT@NOSIG=@CAELT@
ZPX0651 241956@CAELT@GG SLZZYMYT@CAELT@241955 SLTJYGYZ@CAELT@SABO SLTJ 242000@CAELT@METAR SLTJ 242000Z 05006KT 9999 NSC 33/04 Q1015 A2999 811.1 HR16 FU=@CAELT@
ZPX0652 241956@CAELT@GG SLZZYMYT@CAELT@241955 SLCOYGYZ@CAELT@SABO SLCO 242000@CAELT@METAR SLCO 242000Z 24006KT 5000 FU FEW033 35/23 Q1011 A2987 984.0@CAELT@HR49=@CAELT@
ZPX0653 241956@CAELT@GG SLZZYMYT@CAELT@241957 SLVRYGYS@CAELT@SABO SLVR 242000@CAELT@METAR SLVR 242000Z 34011G21KT 8000 NSC 35/17 Q1011 A2987 HR36 FU@CAELT@NOSIG=@CAELT@METAR SLET 242000Z 32013G25KT 9000 NSC 35/20 Q1011 A2985 HR42 FU@CAELT@METAR SLSI 242000Z 36005KT 7000 SCT020 37/21 Q1011 A2985 HR39 FU RWY@CAELT@NML=
ZPX0655 241957@CAELT@GG SLZZYMYT@CAELT@241957 SLCBYGYZ@CAELT@SABO SLCB 242000@CAELT@METAR SLCB 242000Z 07015KT 9999 FEW040 27/M01 Q1024 A3025 750.9 HR15@CAELT@FU NOSIG=@CAELT@
ZPX0656 241958@CAELT@GG SLZZYMYT@CAELT@241955 SLLPYGYZ@CAELT@SABO SLLP 242000@CAELT@METAR SLLP 242000Z 13009G19KT 9999 FEW020 17/M03 Q1038 A3068@CAELT@628.6 HR25 P93// NOSIG=@CAELT@
ZPX0657 241958@CAELT@GG SLZZYMYT@CAELT@241959 SLVRYGYS@CAELT@SABO SLVR 242000@CAELT@METAR SLVR 242000Z 34011G21KT 8000 NSC 35/17 Q1011 A2987 HR36 FU@CAELT@NOSIG=@CAELT@METAR SLET 242000Z 32013G25KT 9000 NSC 35/20 Q1011 A2985 HR42 FU@CAELT@METAR SLSI 242000Z 36005KT 7000 SCT020 37/21 Q1011 A2985 HR39 FU RWY@CAELT@NML=
ZPX0658 241958@CAELT@GG SLZZYMYT@CAELT@241958 SLTRYGYS@CAELT@SABO SLTR 242000@CAELT@METAR SLTR 242000Z 32007KT 5000 FU NSC 35/21 Q1011 A2986 992.5 HR44@CAELT@NOSIG=@CAELT@METAR SLGM 242000Z 18006KT 5000 TS VCSH FU SCT017 FEW020CB BKN200 35/@CAELT@22 Q1010 A2982 HR48 CBTSSH N/NE=@CAELT@METAR SLRI 242000Z 00000KT 5000 FU SCT017 BKN200 35/22 Q1011A2987 HR46=METAR SLJO 242000Z NIL=METAR SLRA 242000Z NIL=METAR SLMG 242000Z NIL=METAR SLBU 242000Z NIL=METAR SLSA 242000Z 20004KT 6000 FEW020 BKN200 35/21 Q1011 A2987HR43 FU=METAR SLSR 242000Z NIL=METAR SLSM 242000Z NIL=
ZPX0659 241958@CAELT@GG SLZZYMYT@CAELT@241958 SLLPYFYA@CAELT@SABO SLLP 242000@CAELT@METAR SLLP 242000Z 13009G19KT 9999 FEW020 17/M03 Q1038 A3068@CAELT@628.6 HR25 P93// NOSIG=@CAELT@METAR SLCO 242000Z 24006KT 5000 FU FEW033 35/23 Q1011 A2987@CAELT@984.0 HR49=@CAELT@METAR SLSB 242000Z 31004KT 8000 NSC 36/22 Q1011 A2987 HR43FU RWY NML=
ZPX0662 242000@CAELT@GG SLZZYMYT@CAELT@242000 SLCBYGYS@CAELT@SABO SLCB 242000@CAELT@METAR SLCB 242000Z 07015KT 9999 FEW040 27/M01 Q1024 A3025 750.9 HR15@CAELT@FU NOSIG=@CAELT@METAR SLAL 242000Z 02009KT 9999 NSC 22/M09 Q1030 A3044 704.8 HR11=@CAELT@METAR SLTJ 242000Z 05006KT 9999 NSC 33/04 Q1015 A2999 811.1 HR16 FU=@CAELT@
ZPX0696 242054@CAELT@GG SLZZYMYT@CAELT@242054 SLSAYGYS@CAELT@SABO SLSA 242100@CAELT@METAR SLSA 242100Z 19005KT 6000 NSC 35/21 Q1010 A2985 HR44 FU CI=@CAELT@
ZPX0697 242055@CAELT@GG SLZZYMYT@CAELT@242055 SLVRYGYZ@CAELT@SABO SLVR 242100@CAELT@METAR SLVR 242100Z 36010G20KT 8000 NSC 34/18 Q1011 A2987 HR38 FU@CAELT@NOSIG=@CAELT@
ZPX0698 242056@CAELT@GG SLZZYMYT@CAELT@242055 SLETYMYC@CAELT@SABO SLET 242100@CAELT@METAR SLET 242100Z 32013KT 9000 NSC 33/20 Q1010 A2985 HR45 FU NOSIG=@CAELT@
ZPX0700 242057@CAELT@GG SLZZYMYT@CAELT@242056 SLTRYGYZ@CAELT@SABO SLTR 242100@CAELT@METAR SLTR 242100Z 30007KT 5000 FU NSC 35/21 Q1010 A2984 992.0@CAELT@HR43 NOSIG=@CAELT@
ZPX0702 242058@CAELT@GG SLZZYMYT@CAELT@242058 SLTRYGYS@CAELT@SABO SLTR@CAELT@METAR SLTR 242100@CAELT@METAR SLTR 242100Z 30007KT 5000 FU NSC 35/21 Q1010 A2984 992.0@CAELT@HR43 NOSIG=@CAELT@METAR SLGM 242100Z 16004KT 3000 TS VCSH FU SCT017 FEW020CB BKN200 33/@CAELT@23 Q1010 A2982 HR55 CBTSSH N/NW=METAR SLRI 242100Z 27006KT 5000 FU FEW017 BKN200 32/23 Q1011 A2986HR60=METAR SLJO 242100Z NIL=METAR SLRA 242100Z NIL=METAR SLMG 242100Z NIL=METAR SLBU 242100Z NIL=METAR SLSA 242100Z 19005KT 6000 NSC 35/21 Q1010 A2985 HR44 FU CI=METAR SLSR 242100Z NIL=METAR SLSM 242100Z NIL=
ZPX0703 242058@CAELT@GG SLZZYMYT@CAELT@242055 SLLPYGYZ@CAELT@SABO SLLP 242100@CAELT@METAR SLLP 242100Z 10011G21KT 9999 FEW020 16/M06 Q1039 A3068@CAELT@628.6 HR22 P93// NOSIG=@CAELT@
ZPX0704 242058@CAELT@GG SLZZYMYT@CAELT@242058 SLCBYGYZ@CAELT@SABO SLCB 242100@CAELT@METAR SLCB 242100Z 06008KT 9999 FEW040 26/M01 Q1024 A3025 750.9 HR16@CAELT@FU NOSIG=@CAELT@
ZPX0706 242059@CAELT@GG SLZZYMYT@CAELT@242058 SLSBYSYX@CAELT@SABO SLSB 242100@CAELT@METAR SLSB 242100Z 33004KT 8000 NSC 36/22 Q1011 A2986 HR46 FU RWY NML=@CAELT@
ZPX0707 242059@CAELT@GG SLZZYMYT@CAELT@242058 SLCOYGYZ@CAELT@SABO SLCO 242100@CAELT@METAR SLCO 242100Z 21004KT 5000 FU FEW033 34/22 Q1010 A2985 983.3@CAELT@HR49=@CAELT@
