
ZPX0010 080055@CAELT@GG SLZZYMYT@CAELT@080055 SLVRYGYZ@CAELT@SABO SLVR 080100@CAELT@METAR SLVR 080100Z 28005KT 2000 FU NSC 29/21 Q1010 A2985 HR63 NOSIG=@CAELT@
ZPX0011 080055@CAELT@GG SLLPZRZX@CAELT@080055 SLLPYGYZ@CAELT@SABO SLLP 080100@CAELT@METAR SLLP 080100Z 06007KT 9999 NSC 08/M13 Q1039 A3069 628.9 HR22 FU@CAELT@NOSIG=@CAELT@
ZPX0012 080056@CAELT@GG SLZZYMYT@CAELT@080055 SLCBYGYZ@CAELT@SABO SLCB 080100@CAELT@METAR SLCB 080100Z 10007KT 9999 NSC 19/03 Q1026 A3032 752.7 HR34 FU@CAELT@NOSIG=@CAELT@
ZPX0027 080155@CAELT@GG SLZZYMYT@CAELT@080155 SLCBYGYZ@CAELT@SABO SLCB 080200@CAELT@METAR SLCB 080200Z 12006KT 9999 NSC 18/04 Q1027 A3035 753.5 HR39 FU@CAELT@NOSIG=@CAELT@
ZPX0028 080156@CAELT@GG SLLPZRZX@CAELT@080155 SLLPYGYZ@CAELT@SABO SLLP 080200@CAELT@METAR SLLP 080200Z 07008KT 9999 NSC 05/M17 Q1040 A3072 629.4 HR19 FU@CAELT@NOSIG=@CAELT@
ZPX0029 080157@CAELT@GG SLZZYMYT@CAELT@080157 SLVRYGYZ@CAELT@SABO SLVR 080200@CAELT@METAR SLVR 080200Z VRB02KT 3000 FU NSC 27/21 Q1011 A2986 HR68 NOSIG=@CAELT@
ZPX0038 080254@CAELT@GG SLZZYMYT@CAELT@080255 SLVRYGYZ@CAELT@SABO SLVR 080300@CAELT@METAR SLVR 080300Z 28004KT 3000 FU NSC 26/21 Q1011 A2988 HR73 NOSIG=@CAELT@
ZPX0039 080255@CAELT@GG SLLPZRZX@CAELT@080255 SLLPYGYZ@CAELT@SABO SLLP 080300@CAELT@METAR SLLP 080300Z 08011KT 9999 NSC 06/M18 Q1040 A3073 629.6 HR16 FU@CAELT@NOSIG=@CAELT@
ZPX0040 080257@CAELT@GG SLZZYMYT@CAELT@080256 SLCBYGYZ@CAELT@SABO SLCB 080300@CAELT@METAR SLCB 080300Z 12006KT 9999 NSC 17/04 Q1028 A3036 753.9 HR42 FU@CAELT@NOSIG=@CAELT@
ZPX0049 080354@CAELT@GG SLZZYMYT@CAELT@080355 SLVRYGYZ@CAELT@SABO SLVR 080400@CAELT@METAR SLVR 080400Z VRB02KT 4000 FU NSC 25/20 Q1011 A2986 HR73 NOSIG=@CAELT@
ZPX0050 080356@CAELT@GG SLZZYMYT@CAELT@080355 SLCBYGYZ@CAELT@SABO SLCB 080400@CAELT@METAR SLCB 080400Z 00000KT 9999 NSC 17/03 Q1028 A3036 753.9 HR39 FU@CAELT@NOSIG=@CAELT@
ZPX0051 080357@CAELT@GG SLLPZRZX@CAELT@080355 SLLPYGYZ@CAELT@SABO SLLP 080400@CAELT@METAR SLLP 080400Z 06005KT 030V140 9999 NSC 04/M15 Q1040 A3071 629.3@CAELT@HR24 FU NOSIG=@CAELT@
ZPX0060 080455@CAELT@GG SLZZYMYT@CAELT@080455 SLCBYGYZ@CAELT@SABO SLCB 080500@CAELT@METAR SLCB 080500Z 12003KT 9999 NSC 16/02 Q1028 A3036 753.9 HR38 FU@CAELT@NOSIG=@CAELT@
ZPX0061 080455@CAELT@GG SLZZYMYT@CAELT@080455 SLVRYGYZ@CAELT@SABO SLVR 080500@CAELT@METAR SLVR 080500Z 00000KT 4000 FU NSC 25/20 Q1011 A2985 HR74 NOSIG=@CAELT@
ZPX0062 080456@CAELT@GG SLLPZRZX@CAELT@080455 SLLPYGYZ@CAELT@SABO SLLP 080500@CAELT@METAR SLLP 080500Z VRB02KT 9999 NSC 03/M06 Q1039 A3070 629.1 HR52 FU@CAELT@NOSIG=@CAELT@
ZPX0069 080554@CAELT@GG SLZZYMYT@CAELT@080555 SLVRYGYZ@CAELT@SABO SLVR 080600@CAELT@METAR SLVR 080600Z VRB02KT 4000 FU NSC 25/20 Q1011 A2985 HR76 NOSIG=@CAELT@
ZPX0070 080555@CAELT@GG SLLPZRZX@CAELT@080555 SLLPYGYZ@CAELT@SABO SLLP 080600@CAELT@METAR SLLP 080600Z VRB02KT 9999 NSC M01/M09 Q1039 A3069 628.8 HR55 FU@CAELT@NOSIG=@CAELT@
ZPX0071 080557@CAELT@GG SLZZYMYT@CAELT@080555 SLCBYGYZ@CAELT@SABO SLCB 080600@CAELT@METAR SLCB 080600Z 00000KT 9999 NSC 14/02 Q1028 A3036 753.9 HR42 FU@CAELT@NOSIG=@CAELT@
ZPX0080 080655@CAELT@GG SLZZYMYT@CAELT@080655 SLVRYGYZ@CAELT@SABO SLVR 080700@CAELT@METAR SLVR 080700Z VRB02KT 3000 FU NSC 24/20 Q1010 A2985 HR78 NOSIG=@CAELT@
ZPX0081 080655@CAELT@GG SLLPZRZX@CAELT@080655 SLLPYGYZ@CAELT@SABO SLLP 080700@CAELT@METAR SLLP 080700Z 00000KT 9999 NSC M02/M09 Q1039 A3068 628.7 HR60 FU@CAELT@NOSIG=@CAELT@
ZPX0084 080707@CAELT@GG SLZZYMYT@CAELT@080700 SLCBYGYZ@CAELT@SABO SLCB 080700@CAELT@METAR SLCB 080700Z 00000KT 9999 NSC 13/02 Q1028 A3036 753.9 HR45 FU@CAELT@NOSIG=@CAELT@
ZPX0089 080753@CAELT@GG SLZZYMYT@CAELT@080755 SLVRYGYZ@CAELT@SABO SLVR 080800@CAELT@METAR SLVR 080800Z 28004KT 3000 FU NSC 24/21 Q1011 A2985 HR81 NOSIG=@CAELT@
ZPX0090 080755@CAELT@GG SLLPZRZX@CAELT@080755 SLLPYGYZ@CAELT@SABO SLLP 080800@CAELT@METAR SLLP 080800Z 00000KT 9999 NSC M02/M03 Q1039 A3070 629.1 HR87 FU@CAELT@NOSIG=@CAELT@
ZPX0091 080756@CAELT@GG SLZZYMYT@CAELT@080755 SLCBYGYZ@CAELT@SABO SLCB 080800@CAELT@METAR SLCB 080800Z 00000KT 9999 NSC 13/02 Q1028 A3038 754.2 HR44 FU@CAELT@NOSIG=@CAELT@
ZPX0099 080854@CAELT@GG SLZZYMYT@CAELT@080855 SLVRYGYZ@CAELT@SABO SLVR 080900@CAELT@METAR SLVR 080900Z 28004KT 2500 FU NSC 24/21 Q1011 A2986 HR81 NOSIG=@CAELT@
ZPX0100 080855@CAELT@GG SLZZYMYT@CAELT@080855 SLTRYGYZ@CAELT@SABO SLTR 080900@CAELT@METAR SLTR 080900Z 00000KT 2000 FU NSC 26/24 Q1010 A2983 991.8 HR88@CAELT@NOSIG=@CAELT@
ZPX0101 080856@CAELT@GG SLLPZRZX@CAELT@080856 SLLPYGYZ@CAELT@SABO SLLP 080900@CAELT@METAR SLLP 080900Z VRB02KT 9999 NSC 00/M06 Q1040 A3073 629.6 HR63 FU@CAELT@NOSIG=@CAELT@
ZPX0102 080856@CAELT@GG SLZZYMYT@CAELT@080855 SLTRYGYS@CAELT@SABO SLTR 080900@CAELT@METAR SLTR 080900Z 00000KT 2000 FU NSC 26/24 Q1010 A2983 991.8 HR88@CAELT@NOSIG=@CAELT@METAR SLRI 080900Z 00000KT 5000 BR NSC 24/23 Q1011 A2987 HR93 CI=@CAELT@
ZPX0103 080859@CAELT@GG SLZZYMYT@CAELT@080858 SLCBYGYZ@CAELT@SABO SLCB 080900@CAELT@METAR SLCB 080900Z 06004KT 9999 NSC 11/04 Q1029 A3039 754.5 HR61 FU@CAELT@NOSIG=@CAELT@
ZPX0114 080951@CAELT@GG SLZZYMYT@CAELT@080941 SLETYMYC@CAELT@SABO SLET 081000@CAELT@METAR SLET 081000Z 27002KT 2500 FU NSC 26/18 Q1011 A2988 HR64 NOSIG=@CAELT@
ZPX0115 080952@CAELT@GG SLZZYMYT@CAELT@080952 SLCAYGYS@CAELT@SABO SLCA 081000@CAELT@METAR SLCA 081000Z 00000KT 4000 FU SCT080 20/12 Q1018 A3006 HR60 RWY@CAELT@NML=@CAELT@
ZPX0116 080953@CAELT@GG SLZZYMYT@CAELT@080955 SLVRYGYZ@CAELT@SABO SLVR 081000@CAELT@METAR SLVR 081000Z 28004KT 1600 FU NSC 23/20 Q1012 A2989 HR82 NOSIG=@CAELT@
ZPX0117 080954@CAELT@GG SLZZYMYT@CAELT@080954 SLRBYGYS@CAELT@SABO SLRB 081000@CAELT@METAR SLRB 081000Z 00000KT 8000 NSC 22/18 Q1013 A2991 HR80 FU RWY NML=@CAELT@
ZPX0118 080954@CAELT@GG SLZZYMYT@CAELT@080954 SLSAYGYS@CAELT@SABO SLSA 081000@CAELT@METAR SLSA 081000Z 00000KT 5000 FU NSC 24/23 Q1009 A2982 HR94 CI=@CAELT@
ZPX0119 080955@CAELT@GG SLZZYMYT@CAELT@080955 SLLPYFYA@CAELT@SABO SLRY 081000@CAELT@METAR SLRY 081000Z 00000KT 2000 FU NSC 22/22 Q1009 A2981@CAELT@HR97 RWY NML=@CAELT@
ZPX0121 080955@CAELT@GG SLZZYMYT@CAELT@080955 SLTRYGYZ@CAELT@SABO SLTR 081000@CAELT@METAR SLTR 081000Z 00000KT 2000 FU FEW080 BKN200 25/23 Q1011 A2986@CAELT@992.8 HR89 NOSIG=@CAELT@
ZPX0122 080956@CAELT@GG SLZZYMYT@CAELT@080955 SLCBYGYZ@CAELT@SABO SLCB 081000@CAELT@METAR SLCB 081000Z 00000KT 6000 NSC 10/04 Q1029 A3041 755.0 HR63 FU@CAELT@NOSIG=@CAELT@
ZPX0124 080956@CAELT@GG SLZZYMYT@CAELT@080955 SLRQYSYX@CAELT@SABO SLRQ 081000@CAELT@METAR SLRQ 081000Z 00000KT 5000 FU NSC 24/23 Q1010 A2985 HR95=@CAELT@
ZPX0125 080956@CAELT@GG SLZZYMYT@CAELT@080957 SLLPYGYZ@CAELT@SABO SLLP 081000@CAELT@METAR SLLP 081000Z 01003KT 9000 FEW006 M00/M05 Q1040 A3073 629.6 HR70@CAELT@P2280 FU NOSIG=@CAELT@
ZPX0126 080957@CAELT@GG SLZZYMYT@CAELT@080956 SLSBYSYX@CAELT@SABO SLSB 081000@CAELT@METAR SLSB 081000Z 00000KT 2000 FU NSC 23/23 Q1010 A2984 HR96 RWY NML=@CAELT@
ZPX0128 081001@CAELT@GG SLZZYMYT@CAELT@081000 SLTRYGYS@CAELT@SABO SLTR 081000@CAELT@METAR SLTR 081000Z 00000KT 2000 FU FEW080 BKN200 25/23 Q1011 A2986@CAELT@992.8 HR89 NOSIG=@CAELT@METAR SLGM 081000Z 00000KT 3000 BR FEW008 BKN200 24/23 Q1010 A2983@CAELT@HR92=@CAELT@METAR SLRI 081000Z 00000KT 3000 FU NSC 24/23 Q1012 A2989 HR93 CI=METAR SLJO 081000Z 00000KT 5000 FU FEW080 BKN200 24/23 Q1010 A2985HR96 RWY NML=METAR SLRA 081000Z 00000KT 5000 FU SCT080 BKN200 24/23 Q1009 A2982METAR SLMG 081000Z 00000KT 5000 FU BKN080 BKN200 25/24 Q1009 A2982HR93 RWY HUM OPR=METAR SLBU 081000Z NIL=METAR SLSA 081000Z 00000KT 5000 FU NSC 24/23 Q1009 A2982 HR94 CI=METAR SLSR 081000Z 00000KT 2000 FU NSC 24/23 Q1009 A2982 HR93 CIRWY NML=METAR SLSM 081000Z NIL=
ZPX0129 081002@CAELT@GG SLZZYMYT@CAELT@081001 SLLPYFYA@CAELT@SABO SLLP 081000@CAELT@METAR SLLP 081000Z 01003KT 9000 FEW006 M00/M05 Q1040 A3073 629.6 HR70@CAELT@P2280 FU NOSIG=@CAELT@METAR SLRY 081000Z 00000KT 2000 FU NSC 22/22 Q1009 A2981@CAELT@HR97 RWY NML=@CAELT@METAR SLRQ 081000Z 00000KT 5000 FU NSC 24/23 Q1010 A2985 HR95=METAR SLSB 081000Z 00000KT 2000 FU NSC 23/23 Q1010 A2984 HR96 RWY NML
ZPX0131 081003@CAELT@GG SLZZYMYT@CAELT@081002 SLVRYGYS@CAELT@SABO SLVR 081000@CAELT@METAR SLVR 081000Z 28004KT 1600 FU NSC 23/20 Q1012 A2989 HR82 NOSIG=@CAELT@METAR SLET 081000Z 27002KT 2500 FU NSC 26/18 Q1011 A29.88 HR64 NOSIG=@CAELT@METAR SLCP 081000Z 00000KT 0300 FU NSC 23/20 Q1015 A2997 RWY NML=@CAELT@METAR SLSI 081000Z 00000KT 2000 FU NSC 22/21 Q1012 A2988 RWY NML=@CAELT@METAR SLRB 081000Z 00000KT 8000 NSC 22/18 Q1013 A2991 HR80 FU RWY NMLMETAR SLCA 081000Z 00000KT 4000 FU SCT080 20/12 Q1018 A3006HR60 RWY NML=
ZPX0145 081052@CAELT@GG SLZZYMYT@CAELT@081052 SLETYMYC@CAELT@SABO SLET 081100@CAELT@METAR SLET 081100Z 17005KT 2500 FU NSC 26/16 Q1013 A2993 HR55 NOSIG=@CAELT@
ZPX0147 081053@CAELT@GG SLZZYMYT@CAELT@081053 SLCAYGYS@CAELT@SABO SLCA 081100@CAELT@METAR SLCA 081100Z 00000KT 4000 FU SCT080 21/12 Q1018 A3006 HR58 RWY@CAELT@NML=@CAELT@
ZPX0148 081054@CAELT@GG SLZZYMYT@CAELT@081055 SLVRYGYZ@CAELT@SABO SLVR 081100@CAELT@METAR SLVR 081100Z 28004KT 1600 FU NSC 25/21 Q1013 A2992 HR79 NOSIG=@CAELT@
ZPX0149 081054@CAELT@GG SLZZYMYT@CAELT@081053 SLRBYGYS@CAELT@SABO SLRB 081100@CAELT@METAR SLRB 081100Z 00000KT 8000 NSC 26/20 Q1014 A2994 HR70 FU RWY NML=@CAELT@
ZPX0150 081055@CAELT@GG SLZZYMYT@CAELT@081055 SLLPYGYZ@CAELT@SABO SLLP 081100@CAELT@METAR SLLP 081100Z VRB02KT 6000 NSC 05/M03 Q1041 A3075 630.2 HR61 FU@CAELT@NOSIG=@CAELT@
ZPX0151 081055@CAELT@GG SLZZYMYT@CAELT@081054 SLPSZTZX@CAELT@SABO SLPS 081100@CAELT@METAR SLPS 08100Z 00000KT 8000 NSC 31/23 Q1011 A2986 HR61 FU=@CAELT@
ZPX0152 081055@CAELT@GG SLZZYMYT@CAELT@081055 SLSBYSYX@CAELT@SABO SLSB 081100@CAELT@METAR SLSB 081100Z 00000KT 2000 FU NSC 24/23 Q1011 A2986 HR91 RWY NML=@CAELT@
ZPX0153 081055@CAELT@GG SLZZYMYT@CAELT@081055 SLLPYFYA@CAELT@SABO SLRY 081100@CAELT@METAR SLRY 081100Z 00000KT 2000 FU NSC 23/23 Q1009 A2982@CAELT@HR97 RWY NML=@CAELT@
ZPX0154 081055@CAELT@GG SLZZYMYT@CAELT@081054 SLSAYGYS@CAELT@SABO SLSA 081100@CAELT@METAR SLSA 081100Z 00000KT 5000 FU SCT080 BKN200 25/23@CAELT@Q1010 A2984 HR92=@CAELT@
ZPX0155 081056@CAELT@GG SLZZYMYT@CAELT@081056 SLRQYSYX@CAELT@SABO SLRQ 081100@CAELT@METAR SLRQ 081100Z 00000KT 3000 FU NSC 25/24 Q1011 A2988 987.8 HR94=@CAELT@
ZPX0156 081057@CAELT@GG SLZZYMYT@CAELT@081057 SLCBYGYZ@CAELT@SABO SLCB 081100@CAELT@METAR SLCB 081100Z 21003KT 6000 NSC 14/05 Q1030 A3043 755.7 HR55 FU@CAELT@NOSIG=@CAELT@
ZPX0157 081057@CAELT@GG SLZZYMYT@CAELT@081057 SLVRYGYS@CAELT@SABO SLVR 081100@CAELT@METAR SLVR 081100Z 28004KT 1600 FU NSC 25/21 Q1013 A2992 HR79 NOSIG=@CAELT@METAR SLET 081100Z 17005KT 2500 FU NSC 26/16 Q1013 A2993 HR55 NOSIG=@CAELT@METAR SLAS 081100Z 00000KT 0300 FU NSC 26/23 Q1014 A2994 HR82 RWY NML@CAELT@METAR SLJV 081100Z 34005KT 2000 FU NSC 24/21 Q1013 A2991 HR87 RWY NML@CAELT@METAR SLCP 081100Z 00000KT 0300 FU NSC 24/22 Q1016 A3000 HR87 RWY NMLMETAR SLSI 081100Z 00000KT 2000 FU NSC 23/20 Q1013 A2991 HR83 RWY NMLMETAR SLTI 081100Z 00000KT 9999 NSC 28/22 Q1016 A3000 HR67 FU RWY NMLMETAR SLJE 081100Z 00000KT 0500 FU NSC 26/18 Q1015 A2997 HR60 RWY NMLMETAR SLVG 081100Z 00000KT 3000 FU NSC 13/06 Q1028 A3036 HR54 RWY NMLMETAR SLRB 081100Z 00000KT 8000 NSC 26/20 Q1014 A2994 HR70 FU RWY NMLMETAR SLPS 081100Z 00000KT 8000 NSC 31/23 Q1011 A2986 HR61 FU=METAR SLCA 081100Z 00000KT 4000 FU SCT080 21/12 Q1018 A3006 HR58RWY NML=
ZPX0158 081059@CAELT@GG SLZZYMYT@CAELT@081058 SLTRYGYZ@CAELT@SABO SLTR 081100@CAELT@METAR SLTR 081100Z 00000KT 2000 FU FEW080 BKN200 26/24 Q1012 A2989@CAELT@993.7 HR88 NOSIG=@CAELT@
ZPX0161 081100@CAELT@GG SLZZYMYT@CAELT@081100 SLTRYGYS@CAELT@SABO SLTR 081100@CAELT@METAR SLTR 081100Z 00000KT 2000 FU FEW080 BKN200 26/24 Q1012 A2989@CAELT@993.7 HR88 NOSIG=@CAELT@METAR SLGM 081100Z 00000KT 3000 BR FEW080 BKN200 25/24 Q1011 A2987@CAELT@HR94=@CAELT@METAR SLRI 081100Z 00000KT 2000 FU NSC 24/23 Q1012 A2991 HR93 CI=METAR SLJO 081100Z 00000KT 5000 FU FEW080 BKN200 24/23 Q1011 A2986HR94 RWY NML=METAR SLRA 081100Z 00000KT 5000 FU BKN080 25/24 Q1010 A2983 HR92RWY NML=METAR SLMG 081100Z 00000KT 5000 FU NSC 26/24 Q1010 A2985 HR91 CIRWY HUM OPR=METAR SLBU 081100Z NIL=METAR SLSA 081100Z 00000KT 5000 FU SCT080 BKN200 25/23 Q1010 A2984HR92=METAR SLSR 081100Z 32004KT 2000 FU NSC 25/24 Q1010 A2983 HR92 CIMETAR SLSM 081100Z 00000KT 2000 FU NSC 24/23 Q1011 A2987 HR97
ZPX0164 081103@CAELT@GG SLZZYMYT@CAELT@081100 SLLPYFYA@CAELT@SABO SLLP 081100@CAELT@METAR SLLP 081100Z VRB02KT 6000 NSC 05/M03 Q1041 A3075 630.2 HR61 FU@CAELT@NOSIG=@CAELT@METAR SLRY 081100Z 00000KT 2000 FU NSC 23/23 Q1009 A2982@CAELT@HR97 RWY NML=@CAELT@METAR SLRQ 081100Z 00000KT 3000 FU NSC 25/24 Q1011 A2988 987.8 HR94=METAR SLSB 081100Z 00000KT 2000 FU NSC 24/23 Q1011 A2986 HR91 RWY NML
ZPX0174 081152@CAELT@GG SLZZYMYT@CAELT@081151 SLPSZTZX@CAELT@SABO SLPS 081200@CAELT@METAR SLPS 081200Z 09004KT 6000 NSC 31/23 Q1011 A2986 HR61 FU=@CAELT@
ZPX0175 081152@CAELT@GG SLZZYMYT@CAELT@081152 SLETYMYC@CAELT@SABO SLET 081200@CAELT@METAR SLET 081200Z 17006KT 2500 FU NSC 28/15 Q1014 A2994 HR44 NOSIG=@CAELT@
ZPX0177 081153@CAELT@GG SLZZYMYT@CAELT@081155 SLVRYGYZ@CAELT@SABO SLVR 081200@CAELT@METAR SLVR 081200Z 25005KT 1600 FU NSC 29/20 Q1014 A2995 HR60 NOSIG=@CAELT@
ZPX0179 081154@CAELT@GG SLZZYMYT@CAELT@081154 SLRBYGYS@CAELT@SABO SLRB 081200@CAELT@METAR SLRB 081200Z 00000KT 8000 NSC 33/20 Q1015 A2997 HR49 FU RWY NML=@CAELT@
ZPX0180 081154@CAELT@GG SLZZYMYT@CAELT@081154 SLSBYSYX@CAELT@SABO SLSB 081200@CAELT@METAR SLSB 081200Z 00000KT 1500 FU NSC 27/23 Q1011 A2987 HR82 RWY NML=@CAELT@
ZPX0181 081155@CAELT@GG SLZZYMYT@CAELT@081155 SLTJYGYZ@CAELT@SABO SLTJ 081200@CAELT@METAR SLTJ 081200Z 22004KT 5000 FU FEW020 SCT033 BKN070 15/14 Q1022@CAELT@A3020 817.3 HR92 FU=@CAELT@
ZPX0182 081155@CAELT@GG SLZZYMYT@CAELT@081155 SLSAYGYS@CAELT@SABO SLSA 081200@CAELT@METAR SLSA 081200Z 00000KT 5000 FU FEW080 BKN200 28/25@CAELT@Q1011 A2988 HR84=@CAELT@
ZPX0183 081155@CAELT@GG SLZZYMYT@CAELT@081155 SLRQYSYX@CAELT@SABO SLRQ 081200@CAELT@METAR SLRQ 081200Z 00000KT 3000 FU SCT070 27/25 Q1012 A2990 988.3@CAELT@HR87=@CAELT@
ZPX0184 081156@CAELT@GG SLZZYMYT@CAELT@081155 SLCBYGYZ@CAELT@SABO SLCB 081200@CAELT@METAR SLCB 081200Z 00000KT 7000 NSC 18/03 Q1030 A3044 756.0 HR35 FU@CAELT@NOSIG=@CAELT@
ZPX0185 081156@CAELT@GG SLZZYMYT@CAELT@081156 SLCAYGYS@CAELT@SABO SLCA 081200@CAELT@METAR SLCA 081200Z 00000KT 4000 FU BKN080 23/15 Q1019 A3009 HR60 RWY@CAELT@NML=@CAELT@
ZPX0186 081158@CAELT@GG SLZZYMYT@CAELT@081157 SLVRYGYS@CAELT@SABO SLVR 081200@CAELT@METAR SLVR 081200Z 25005KT 1600 FU NSC 29/20 Q1014 A2995 HR60 NOSIG=@CAELT@METAR SLET 081200Z 17006KT 2500 FU NSC 28/15 Q1014 A2994 HR44 NOSIG=@CAELT@METAR SLAS 081200Z 00000KT 0300 FU NSC 28/23 Q1015 A2997 HR75@CAELT@RWY NML=@CAELT@METAR SLJV 081200Z 34005KT 2000 FU NSC 26/22 Q1013 A2991 HR82METAR SLCP 081200Z 00000KT 0500 FU NSC 26/22 Q1016 A3000 HR78METAR SLSI 081200Z 00000KT 2000 FU NSC 26/22 Q1014 A2994 HR75METAR SLTI 081200Z 36007KT 9999 NSC 32/22 Q1016 A3000 HR54FU RWY NML=METAR SLJE 081200Z 00000KT 0500 FU NSC 31/19 Q1016 A3000 HR52METAR SLVG 081200Z 00000KT 3000 FU NSC 17/08 Q1028 A3036 HR51METAR SLRB 081200Z 00000KT 8000 NSC 33/20 Q1015 A2997 HR49METAR SLPS 081200Z 09004KT 6000 NSC 31/23 Q1011 A2986 HR61 FU=METAR SLCA 081200Z 00000KT 4000 FU BKN080 23/15 Q1019 A3009 HR60
ZPX0187 081158@CAELT@GG SLZZYMYT@CAELT@081158 SLTRYGYZ@CAELT@SABO SLTR 081200@CAELT@METAR SLTR 081200Z 00000KT 3000 FU NSC 28/24 Q1012 A2991@CAELT@994.3 HR80 CI NOSIG=@CAELT@
ZPX0188 081158@CAELT@GG SLZZYMYT@CAELT@081157 SLLPYGYZ@CAELT@SABO SLLP 081200@CAELT@METAR SLLP 081200Z VRB02KT 5000 FU FEW006 08/M01 Q1041 A3077 630.6@CAELT@HR54 P2280 NOSIG=@CAELT@
ZPX0191 081200@CAELT@GG SLZZYMYT@CAELT@081200 SLCBYGYS@CAELT@SABO SLCB 081200@CAELT@METAR SLCB 081200Z 00000KT 7000 NSC 18/03 Q1030 A3044 756.0 HR35 FU@CAELT@NOSIG=@CAELT@METAR SLAL 081200Z 36011KT 9999 NSC 13/05 Q1035 A3057 707.8 HR59 FU@CAELT@METAR SLTJ 081200Z 22004KT 5000 FU FEW020 SCT033 BKN070 15/14 Q1022@CAELT@A3020 817.3 HR92 FU=
ZPX0192 081200@CAELT@GG SLZZYMYT@CAELT@081200 SLTRYGYS@CAELT@SABO SLTR 081200@CAELT@METAR SLTR 081200Z 00000KT 3000 FU NSC 28/24 Q1012 A2991@CAELT@994.3 HR80 CI NOSIG=@CAELT@METAR SLGM 081200Z 00000KT 5000 FU NSC 27/24 Q1011 A2988 HR83 CI=@CAELT@METAR SLRI 081200Z 00000KT 3000 FU NSC 26/24 Q1013 A2993 HR86=@CAELT@METAR SLJO 081200Z 00000KT 5000 FU NSC 26/24 Q1011 A2988 HR90 CIRWY NML=METAR SLRA 081200Z 36004KT 5000 FU SCT080 27/24 Q1010 A2985 HR85METAR SLMG 081200Z 00000KT 5000 FU NSC 28/24 Q1011 A2985 HR81 CIRWY HUM OPR=METAR SLBU 081200Z NIL=METAR SLSA 081200Z 00000KT 5000 FU FEW080 BKN200 28/25 Q1011 A2988HR84=METAR SLSR 081200Z 32004KT 2000 FU NSC 27/24 Q1011 A2986 HR85 CIMETAR SLSM 081200Z 00000KT 2000 FU NSC 27/24 Q1012 A2990 HR86
ZPX0193 081201@CAELT@GG SLZZYMYT@CAELT@081200 SLLPYFYA@CAELT@SABO SLLP 081200@CAELT@METAR SLLP 081200Z VRB02KT 5000 FU FEW006 08/M01 Q1041@CAELT@A3077 630.6 HR54 P2280 NOSIG=@CAELT@METAR SLRY 081200Z 00000KT 2000 FU NSC 26/24 Q1010 A2985@CAELT@HR89 RWY NML=@CAELT@METAR SLRQ 081200Z 00000KT 3000 FU SCT070 27/25 Q1012 A2990988.3 HR87=METAR SLSB 081200Z 00000KT 1500 FU NSC 27/23 Q1011 A2987HR82 RWY NML=
ZPX0208 081252@CAELT@GG SLZZYMYT@CAELT@081252 SLETYMYC@CAELT@SABO SLET 081300@CAELT@METAR SLET 081300Z 17010KT 2500 FU NSC 31/15 Q1014 A2996 HR38=@CAELT@
ZPX0210 081254@CAELT@GG SLZZYMYT@CAELT@081253 SLRBYGYS@CAELT@SABO SLRB 081300@CAELT@METAR SLRB 081300Z 36006KT 8000 NSC 36/21 Q1015 A2997 HR42 FU RWY NML=@CAELT@
ZPX0211 081255@CAELT@GG SLZZYMYT@CAELT@081255 SLVRYGYZ@CAELT@SABO SLVR 081300@CAELT@METAR SLVR 081300Z 17011KT 3000 FU NSC 31/18 Q1014 A2996 HR45 NOSIG=@CAELT@
ZPX0212 081255@CAELT@GG SLZZYMYT@CAELT@081254 SLPSZTZX@CAELT@SABO SLPS 081300@CAELT@METAR SLPS 081300Z 06005KT 5000 FU NSC 34/24 Q1012 A2986 HR58=@CAELT@
ZPX0213 081255@CAELT@GG SLZZYMYT@CAELT@081255 SLCAYGYS@CAELT@SABO SLCA 081300@CAELT@METAR SLCA 081300Z 00000KT 4000 FU SCT080 27/14 Q1019 A3009 HR46 RWY@CAELT@NML=@CAELT@
ZPX0215 081256@CAELT@GG SLZZYMYT@CAELT@081255 SLSAYGYS@CAELT@SABO SLSA 081300@CAELT@METAR SLSA 081300Z 30004KT 5000 FU NSC 31/25 Q1011 A2988 HR71 CI=@CAELT@
ZPX0216 081256@CAELT@GG SLZZYMYT@CAELT@081256 SLRQYSYX@CAELT@SABO SLRQ 081300@CAELT@METAR SLRQ 081300Z 00000KT 3000 FU 31/27 Q1012 A2990 988.5 HR77 CI=@CAELT@
ZPX0217 081257@CAELT@GG SLZZYMYT@CAELT@081255 SLLPYGYZ@CAELT@SABO SLLP 081300@CAELT@METAR SLLP 081300Z 20005KT 6000 FEW008 10/M00 Q1042 A3079 630.9 HR48@CAELT@P90// FU NOSIG=@CAELT@
ZPX0218 081257@CAELT@GG SLZZYMYT@CAELT@081256 SLVRYGYS@CAELT@SABO SLVR 081300@CAELT@METAR SLVR 081300Z 17011KT 3000 FU NSC 31/18 Q1014 A2996 HR45 NOSIG=@CAELT@METAR SLET 081300Z 17010KT 2500 FU NSC 31/15 Q1014 A2996 HR38=@CAELT@METAR SLAS 081300Z 00000KT 0500 FU NSC 31/22 Q1015 A2997 HR59 RWY NML@CAELT@METAR SLJV 081300Z 34005KT 3000 FU NSC 30/24 Q1014 A2994 HR70 RWY NML@CAELT@METAR SLCP 081300Z 00000KT 0500 FU NSC 30/23 Q1017 A3003 HR68 RWY NMLMETAR SLSI 081300Z 00000KT 2000 FU NSC 31/21 Q1014 A2994 HR56 RWY NMLMETAR SLTI 081300Z 36010KT 9999 NSC 34/21 Q1017 A3003 HR47 FU RWY NMLMETAR SLJE 081300Z 00000KT 0500 FU NSC 33/21 Q1016 A3000 HR48 RWY NMLMETAR SLVG 081300Z 35006KT 3000 FU NSC 22/07 Q1028 A3036 HR31 RWY NMLMETAR SLRB 081300Z 36006KT 8000 NSC 36/21 Q1015 A2997 HR42 FU RWY NMLMETAR SLPS 081300Z 06005KT 5000 FU NSC 34/24 Q1012 A2986 HR58=METAR SLCA 081300Z 00000KT 4000 FU SCT080 27/14 Q1019 A3009 HR46 RWYNML=
ZPX0219 081257@CAELT@GG SLZZYMYT@CAELT@081257 SLTRYGYZ@CAELT@SABO SLTR 081300@CAELT@METAR SLTR 081300Z 00000KT 5000 FU NSC 30/24 Q1013 A2993@CAELT@994.9 HR68 CI NOSIG=@CAELT@
ZPX0220 081257@CAELT@GG SLZZYMYT@CAELT@081257 SLCBYGYZ@CAELT@SABO SLCB 081300@CAELT@METAR SLCB 081300Z 20003KT 8000 NSC 20/03 Q1030 A3044 755.9 HR32 FU@CAELT@NOSIG=@CAELT@
ZPX0221 081257@CAELT@GG SLZZYMYT@CAELT@081256 SLSBYSYX@CAELT@SABO SLSB 081300@CAELT@METAR SLSB 081300Z 00000KT 1500 FU NSC 29/24 Q1013 A2992 HR79 RWY NML=@CAELT@
ZPX0222 081257@CAELT@GG SLZZYMYT@CAELT@081257 SLRQYSYX@CAELT@SABO SLRQ 081300 CCA@CAELT@METAR COR SLRQ 081300Z 00000KT 3000 FU SCT070 31/27 Q1012 A2990 988.5@CAELT@HR77 CI=@CAELT@
ZPX0223 081258@CAELT@GG SLZZYMYT@CAELT@081257 SLTRYGYS@CAELT@SABO SLTR 081300@CAELT@METAR SLTR 081300Z 00000KT 5000 FU NSC 30/24 Q1013 A2993 994.9 HR68@CAELT@CI NOSIG=@CAELT@METAR SLGM 081300Z 36004KT 5000 FU FEW020 BKN200 30/24 Q1012 A2990@CAELT@HR70=@CAELT@METAR SLRI 081300Z 32006KT 5000 FU NSC 30/25 Q1013 A2994 HR74 CI=METAR SLJO 081300Z 03003KT 5000 FU FEW080 SCT200 29/24 Q1012 A2989HR78 RWY NML=METAR SLRA 081300Z 36006KT 5000 FU FEW020 BKN080 30/24 Q1011 A2988HR71 RWY NML=METAR SLMG 081300Z 00000KT 6000 NSC 29/24 Q1011 A2987 HR76 FU CIRWY HUM OPR=METAR SLBU 081300Z NIL=METAR SLSA 081300Z 30004KT 5000 FU NSC 31/25 Q1011 A2988 HR71 CI=METAR SLSR 081300Z 32006KT 3000 FU BKN080 29/24 Q1011 A2988 HR75RWY NML=METAR SLSM 081300Z 00000KT 2000 FU NSC 30/25 Q1013 A2991 HR77 CI
ZPX0227 081300@CAELT@GG SLZZYMYT@CAELT@081300 SLLPYFYA@CAELT@SABO SLLP 081300@CAELT@METAR SLLP 081300Z 20005KT 6000 FEW008 10/M00 Q1042 A3079@CAELT@630.9 HR48 P90// FU NOSIG=@CAELT@METAR SLRY 081300Z 00000KT 2000 FU NSC 31/25 Q1011 A2986@CAELT@HR71 RWY NML=@CAELT@METAR SLRQ 081300Z 00000KT 3000 FU SCT070 31/27 Q1012 A2990988.5 HR77 CI=METAR SLSB 081300Z 00000KT 1500 FU NSC 29/24 Q1013 A2992HR79 RWY NML=
ZPX0228 081303@CAELT@GG SLZZYMYT@CAELT@081301 SLCBYGYS@CAELT@SABO SLCB 081300@CAELT@METAR SLCB 081300Z 20003KT 8000 NSC 20/03 Q1030 A3044 755.9 HR32 FU@CAELT@NOSIG=@CAELT@METAR SLAL 081300Z 35010KT 9999 NSC 15/06 Q1035 A3057 707.7 HR55 FU@CAELT@METAR SLPO 081300Z NIL=@CAELT@METAR SLAG 081300Z NIL=METAR SLVM 081300Z NIL=METAR SLTJ 081300Z NIL=METAR SLYA 081300Z NIL=METAR SLBJ 081300Z NIL=METAR SLHI 081300Z NIL=
ZPX0246 081352@CAELT@GG SLZZYMYT@CAELT@081352 SLETYMYC@CAELT@SABO SLET 081400@CAELT@METAR SLET 081400Z 17005KT 3000 FU NSC 33/15 Q1014 A2994 HR35 NOSIG=@CAELT@
ZPX0247 081353@CAELT@GG SLZZYMYT@CAELT@081353 SLRBYGYS@CAELT@SABO SLRB 081400@CAELT@METAR SLRB 081400Z 36008KT 8000 NSC 37/20 Q1015 A2997 HR39 FU RWY NML=@CAELT@
ZPX0248 081353@CAELT@GG SLZZYMYT@CAELT@081353 SLPSZTZX@CAELT@SABO SLPS 081400@CAELT@METAR SLPS 081400Z 36010KT 5000 FU NSC 34/24 Q1011 A2986 HR50=@CAELT@
ZPX0250 081354@CAELT@GG SLZZYMYT@CAELT@081354 SLSBYSYX@CAELT@SABO SLSB 081400@CAELT@METAR SLSB 081400Z 00000KT 3000 FU NSC 33/25 Q1013 A2992 HR62 RWY NML=@CAELT@
ZPX0251 081354@CAELT@GG SLZZYMYT@CAELT@081355 SLCBYGYZ@CAELT@SABO SLCB 081400@CAELT@METAR SLCB 081400Z 00000KT 9999 NSC 22/02 Q1030 A3042 755.4 HR27 FU@CAELT@NOSIG=@CAELT@
ZPX0252 081355@CAELT@GG SLZZYMYT@CAELT@081356 SLVRYGYZ@CAELT@SABO SLVR 081400@CAELT@METAR SLVR 081400Z 17006KT 3000 FU NSC 33/17 Q1014 A2995 HR39 NOSIG=@CAELT@
ZPX0253 081355@CAELT@GG SLZZYMYT@CAELT@081355 SLTRYGYZ@CAELT@SABO SLTR 081400@CAELT@METAR SLTR 081400Z 34004KT 5000 FU NSC 32/25 Q1013 A2993 994.9@CAELT@HR64 CI NOSIG=@CAELT@
ZPX0254 081355@CAELT@GG SLZZYMYT@CAELT@081355 SLRQYSYX@CAELT@SABO SLRQ 081400@CAELT@METAR SLRQ 081400Z 00000KT 3000 FU NSC 34/26 Q1013 A2991 988.8 HR63@CAELT@
ZPX0256 081356@CAELT@GG SLZZYMYT@CAELT@081355 SLSAYGYS@CAELT@SABO SLSA 081400@CAELT@METAR SLSA 081400Z 30005KT 5000 FU NSC 33/25 Q1012 A2989 HR65 CI=@CAELT@
ZPX0257 081356@CAELT@GG SLZZYMYT@CAELT@081355 SLLPYGYZ@CAELT@SABO SLLP 081400@CAELT@METAR SLLP 081400Z 25005KT 8000 FEW015 13/M01 Q1042 A3077 630.7 HR38@CAELT@P7380 FU NOSIG=@CAELT@
ZPX0258 081357@CAELT@GG SLZZYMYT@CAELT@081357 SLTRYGYS@CAELT@SABO SLTR 081400@CAELT@METAR SLTR 081400Z 34004KT 5000 FU NSC 32/25 Q1013 A2993 994.9@CAELT@HR64 CI NOSIG=@CAELT@METAR SLGM 081400Z 02006KT 7000 NSC 33/24 Q1013 A2991 HR60 FU CI=@CAELT@METAR SLRI 081400Z 00000KT 5000 FU NSC 30/25 Q1013 A2994 HR73 CI=@CAELT@METAR SLJO 081400Z 36004KT 5000 FU FEW080 SCT200 30/25 Q1012 A2989HR73 RWY NML=METAR SLRA 081400Z 36008KT 5000 FU BKN080 33/24 Q1012 A2989 HR58RWY NML=METAR SLMG 081400Z 00000KT 6000 NSC 31/24 Q1011 A2988 HR66 FFU CIMETAR SLBU 081400Z NIL=METAR SLSA 081400Z 30005KT 5000 FU NSC 33/25 Q1012 A2989 HR65 CI=METAR SLSR 081400Z 32006KT 5000 FU SCT080 BKN200 33/25 Q1012 A2988HR64 RWY NML=METAR SLSM 081400Z 00000KT 3000 FU NSC 33/24 Q1012 A2991 HR62 CI
ZPX0259 081358@CAELT@GG SLZZYMYT@CAELT@081358 SLVRYGYS@CAELT@SABO SLVR 081400@CAELT@METAR SLVR 081400Z 17006KT 3000 FU NSC 33/17 Q1014 A2995 HR39 NOSIG=@CAELT@METAR SLET 081400Z 17005KT 3000 FU NSC 33/15 Q1014 A2994 HR35 NOSIG=@CAELT@METAR SLAS 081400Z 34004KT 0800 FU NSC 33/22 Q1015 A2997 HR53 RWY NML@CAELT@METAR SLJV 081400Z 34005KT 3000 FU NSC 33/24 Q1014 A2994 HR61 RWY NML@CAELT@METAR SLCP 081400Z 00000KT 0500 FU NSC 31/22 Q1017 A3003 HR60 RWY NMLMETAR SLSI 081400Z 00000KT 2000 FU NSC 31/22 Q1014 A2994 HR53 RWY NMLMETAR SLTI 081400Z 36010KT 9999 NSC 36/22 Q1016 A3000 HR45 FU RWY NMLMETAR SLJE 081400Z 00000KT 0500 FU NSC 36/22 Q1016 A3000 HR44 RWY NMLMETAR SLVG 081400Z 34012KT 3000 FU NSC 24/06 Q1028 A3036 HR26 RWY NMLMETAR SLRB 081400Z 36008KT 8000 NSC 37/20 Q1015 A2997 HR39 FU RWY NMLMETAR SLPS 081400Z 36010KT 5000 FU NSC 34/24 Q1011 A2986 HR50=METAR SLCA 081400Z 00000KT 4000 FU NSC 30/16 Q1019 A3009 HR46 RWY NML
ZPX0260 081358@CAELT@GG SLZZYMYT@CAELT@081358 SLCAYGYS@CAELT@SABO SLCA 081400@CAELT@METAR SLCA 081400Z 00000KT 4000 FU NSC 30/16 Q1019 A3009 HR46 RWY NML@CAELT@
ZPX0262 081359@CAELT@GG SLZZYMYT@CAELT@081358 SLCBYGYS@CAELT@SABO SLCB 081400@CAELT@METAR SLCB 081400Z 00000KT 9999 NSC 22/02 Q1030 A3042 755.4 HR27 FU@CAELT@NOSIG=@CAELT@METAR SLAL 081400Z 36015KT 9999 NSC 16/M01 Q1034 A3055 707.4 HR30 FU@CAELT@METAR SLPO 081400Z NIL=@CAELT@METAR SLAG 081400Z NIL=METAR SLVM 081400Z NIL=METAR SLTJ 081400Z NIL=METAR SLYA 081400Z NIL=METAR SLBJ 081400Z NIL=METAR SLHI 081400Z NIL=
ZPX0263 081359@CAELT@GG SLZZYMYT@CAELT@081400 SLLPYFYA@CAELT@SABO SLLP 081400@CAELT@METAR SLLP 081400Z 25005KT 8000 FEW015 13/M01 Q1042 A3077@CAELT@630.7 HR38 P7380 FU NOSIG=@CAELT@METAR SLRY 081400Z 3000 NSC 33/24 Q1011 A2989 HR59 RWY NML=@CAELT@METAR SLRQ 081400Z 00000KT 3000 FU NSC 34/26 Q1013 A2991 988.8@CAELT@HR63 CI=METAR SLSB 081400Z 00000KT 3000 FU NSC 33/25 Q1013 A2992HR62 RWY NML=
ZPX0265 081401@CAELT@GG SLZZYMYT@CAELT@081401 SLCAYGYS@CAELT@SABO SLCA 081400 CCA@CAELT@METAR COR SLCA 081400Z 00000KT 4000 FU NSC 30/16 Q1019 A3009 HR35 RWY@CAELT@NML=@CAELT@
ZPX0278 081448@CAELT@GG SLZZYMYT@CAELT@081447 SLCAYGYS@CAELT@SABO SLCA 081500@CAELT@METAR SLCA 081500Z 00000KT 4000 FU NSC 32/12 Q1016 A3000 HR30 RWY NML@CAELT@
ZPX0279 081453@CAELT@GG SLZZYMYT@CAELT@081453 SLPSZTZX@CAELT@SABO SLPS 081500@CAELT@METAR SLPS 081500Z 36008KT 5000 FU NSC 38/23 Q1011 A2986 HR43=@CAELT@
ZPX0280 081453@CAELT@GG SLZZYMYT@CAELT@081452 SLETYMYC@CAELT@SABO SLET 081500@CAELT@METAR SLET 081500Z 17007KT 3000 FU NSC 35/17 Q1013 A2992 HR34 NOSIG=@CAELT@
ZPX0281 081453@CAELT@GG SLZZYMYT@CAELT@081454 SLSAYGYS@CAELT@SABO SLSA 081500@CAELT@METAR SLSA 081500Z 32005KT 5000 FU NSC 34/25 Q1012 A2989 HR60 CI=@CAELT@
ZPX0283 081454@CAELT@GG SLZZYMYT@CAELT@081453 SLRBYGYS@CAELT@SABO SLRB 081500@CAELT@METAR SLRB 081500Z 36006KT 8000 NSC 38/20 Q1014 A2994 HR34 FU RWY NML=@CAELT@
ZPX0285 081455@CAELT@GG SLZZYMYT@CAELT@081456 SLVRYGYZ@CAELT@SABO SLVR 081500@CAELT@METAR SLVR 081500Z VRB02KT 3000 FU NSC 36/18 Q1013 A2992 HR36 NOSIG=@CAELT@
ZPX0286 081455@CAELT@GG SLZZYMYT@CAELT@081455 SLTRYGYZ@CAELT@SABO SLTR 081500@CAELT@METAR SLTR 081500Z 33005KT 5000 FU NSC 34/24 Q1013 A2992 994.5@CAELT@HR58 CI NOSIG=@CAELT@
ZPX0287 081455@CAELT@GG SLZZYMYT@CAELT@081455 SLRQYSYX@CAELT@SABO SLRQ 081500@CAELT@METAR SLRQ 081500Z 00000KT 3000 FU NSC 36/27 Q1012 A2989 988.2 HR59=@CAELT@
ZPX0288 081455@CAELT@GG SLZZYMYT@CAELT@081455 SLSBYSYX@CAELT@SABO SLSB 081500@CAELT@METAR SLSB 081500Z 00000KT 3000 FU NSC 35/25 Q1012 A2991 HR57 RWY NML=@CAELT@
ZPX0289 081456@CAELT@GG SLZZYMYT@CAELT@081455 SLLPYGYZ@CAELT@SABO SLLP 081500@CAELT@METAR SLLP 081500Z 14008KT 030V200 8000 FEW017 15/M04 Q1041 A3076@CAELT@630.3 HR28 P3083 FU NOSIG=@CAELT@
ZPX0290 081456@CAELT@GG SLZZYMYT@CAELT@081455 SLVRYGYS@CAELT@SABO SLVR 081500@CAELT@METAR SLVR 081500Z VRB02KT 3000 FU NSC 36/18 Q1013 A2992 HR36 NOSIG=@CAELT@METAR SLET 081500Z 17007KT 3000 FU NSC 35/17 Q1013 A2992 HR34 NOSIG=@CAELT@METAR SLAS 081500Z 35006KT 1000 FU NSC 35/23 Q1015 A2997 HR60 RWY NML@CAELT@METAR SLJV 081500Z 34005KT 3000 FU NSC 34/24 Q1013 A2991 HR55 RWY NML@CAELT@METAR SLCP 081500Z 00000KT 0600 FU NSC 33/23 Q1017 A3003 HR55 RWY NMLMETAR SLSI 081500Z 00000KT 2000 FU NSC 33/21 Q1014 A2994 HR48 RWY NMLMETAR SLTI 081500Z 36014KT 9999 NSC 38/22 Q1016 A3000 HR41 FU RWY NMLMETAR SLJE 081500Z 00000KT 0500 FU NSC 38/22 Q1016 A3000 HR41 RWY NMLMETAR SLVG 081500Z 34015KT 4000 FU FEW023 25/07 Q1028 A3036 HR28 RWYNML=METAR SLRB 081500Z 36006KT 8000 NSC 38/20 Q1014 A2994 HR34 FU RWY NMLMETAR SLPS 081500Z 36008KT 5000 FU NSC 38/23 Q1011 A2986 HR43=METAR SLCA 081500Z 00000KT 4000 FU NSC 32/12 Q1016 A3000 HR30 RWY NML
ZPX0291 081457@CAELT@GG SLZZYMYT@CAELT@081457 SLCBYGYZ@CAELT@SABO SLCB 081500@CAELT@METAR SLCB 081500Z 20004KT 9999 NSC 24/01 Q1028 A3038 754.3 HR21 FU@CAELT@NOSIG=@CAELT@
ZPX0294 081458@CAELT@GG SLZZYMYT@CAELT@081458 SLCBYGYS@CAELT@SABO SLCB 081500@CAELT@METAR SLCB 081500Z 20004KT 9999 NSC 24/01 Q1028 A3038 754.3 HR21 FU@CAELT@NOSIG=@CAELT@METAR SLAL 081500Z 35009KT 9999 NSC 18/M02 Q1033 A3053 706.8 HR26 FU@CAELT@METAR SLPO 081500Z NIL=@CAELT@METAR SLAG 081500Z NIL=METAR SLVM 081500Z NIL=METAR SLTJ 081500Z NIL=METAR SLYA 081500Z NIL=METAR SLBJ 081500Z NIL=METAR SLHI 081500Z NIL=
ZPX0295 081459@CAELT@GG SLZZYMYT@CAELT@081458 SLTRYGYS@CAELT@SABO SLTR 081500@CAELT@METAR SLTR 081500Z 33005KT 5000 FU NSC 34/24 Q1013 A2992 994.5@CAELT@HR58 CI NOSIG=@CAELT@METAR SLGM 081500Z 36004KT 7000 FEW017 BKN200 34/25 Q1012 A2989 HR59@CAELT@METAR SLRI 081500Z 36006KT 5000 FU FEW017 BKN200 33/25 Q1013@CAELT@A2993 HR63=METAR SLJO 081500Z 36005KT 5000 FU SCT080 BKN200 33/25 Q1012 A2989HR66 RWY NML=METAR SLRA 081500Z 36006KT 5000 FU FEW020 SCT200 35/24 Q1012 A2989HR53 RWY NML=METAR SLMG 081500Z 00000KT 6000 NSC 33/24 Q1011 A2988 HR59 FU CIRWY NML=METAR SLBU 081500Z NIL=METAR SLSA 081500Z 32005KT 5000 FU NSC 34/25 Q1012 A2989 HR60 CI=METAR SLSR 081500Z 32006KT 5000 FU NSC 34/25 Q1011 A2987 HR59 CIMETAR SLSM 081500Z 33004KT 5000 FU NSC 34/24 Q1012 A2990 HR56 CI
ZPX0299 081505@CAELT@GG SLZZYMYT@CAELT@081505 SLLPYFYA@CAELT@SABO SLLP 081500@CAELT@METAR SLLP 081500Z 14008KT 030V200 8000 FEW017 15/M04 Q1041 A3076@CAELT@630.3 HR28 P3083 FU NOSIG=@CAELT@METAR SLRY 081500Z 00000KT 3000 FU NSC 36/24 Q1011 A2987 HR50 RWY NML@CAELT@METAR SLRQ 081500Z 00000KT 3000 FU NSC 36/27 Q1012 A2989 988.2@CAELT@HR59=METAR SLSB 081500Z 00000KT 3000 FU NSC 35/25 Q1012 A2991 HR57 RWY NML
ZPX0324 081551@CAELT@GG SLZZYMYT@CAELT@081552 SLETYMYC@CAELT@SABO SLET 081600@CAELT@METAR SLET 30004KT 3000 FU NSC 37/16 Q1012 A2990 HR30 NOSIG=@CAELT@
ZPX0326 081553@CAELT@GG SLZZYMYT@CAELT@081553 SLRBYGYS@CAELT@SABO SLRB 081600@CAELT@METAR SLRB 081600Z 36006KT 8000 FEW020 40/19 Q1013 A2991 HR30 FU RWY@CAELT@NML=@CAELT@
ZPX0328 081554@CAELT@GG SLZZYMYT@CAELT@081555 SLVRYGYZ@CAELT@SABO SLVR 081600@CAELT@METAR SLVR 081600Z 32005KT 3000 FU NSC 37/19 Q1012 A2989 HR35 NOSIG=@CAELT@
ZPX0329 081554@CAELT@GG SLZZYMYT@CAELT@081555 SLCBYGYZ@CAELT@SABO SLCB 081600@CAELT@METAR SLCB 081600Z 20005KT 9999 NSC 26/00 Q1027 A3034 753.3 HR18 FU@CAELT@NOSIG=@CAELT@
ZPX0330 081554@CAELT@GG SLZZYMYT@CAELT@081553 SLPSZTZX@CAELT@SABO SLPS 081600@CAELT@METAR SLPS 081600Z 06010KT 5000 FU SCT020 39/23 Q1010 A2983 HR39=@CAELT@
ZPX0332 081556@CAELT@GG SLZZYMYT@CAELT@081555 SLSAYGYS@CAELT@SABO SLSA 081600@CAELT@METAR SLSA 081600Z 30005KT 5000 FU NSC 35/25 Q1012 A2989 HR55 CI=@CAELT@
ZPX0333 081556@CAELT@GG SLZZYMYT@CAELT@081555 SLLPYGYZ@CAELT@SABO SLLP 081600@CAELT@METAR SLLP 081600Z 11008G19KT 050V210 9000 FEW020 16/M06 Q1041 A3074@CAELT@629.9 HR21 P93// FU NOSIG=@CAELT@
ZPX0334 081556@CAELT@GG SLZZYMYT@CAELT@081555 SLSBYSYX@CAELT@SABO SLSB 081600@CAELT@METAR SLSB 081600Z 00000KT 5000 FU NSC 36/25 Q1011 A2988 HR53 RWY NML=@CAELT@
ZPX0335 081556@CAELT@GG SLZZYMYT@CAELT@081556 SLTRYGYZ@CAELT@SABO SLTR 081600@CAELT@METAR SLTR 081600Z 32005KT 5000 FU FEW020 BKN200 35/25 Q1012 A2989@CAELT@993.6 HR56 NOSIG=@CAELT@
ZPX0336 081557@CAELT@GG SLZZYMYT@CAELT@081556 SLCAYGYS@CAELT@SABO SLCA 081600@CAELT@METAR SLCA 081600Z 36005KT 4000 FU NSC 34/11 Q1014 A2994 HR25 RWY NML@CAELT@
ZPX0337 081557@CAELT@GG SLZZYMYT@CAELT@081557 SLRQYSYX@CAELT@SABO SLRQ 081600@CAELT@METAR SLRQ 081600Z 00000KT 3000 FU NSC 37/27 Q1011 A2987 987.4 HR57=@CAELT@
ZPX0339 081558@CAELT@GG SLZZYMYT@CAELT@081558 SLTRYGYS@CAELT@SABO SLTR 081600@CAELT@METAR SLTR 081600Z 32005KT 5000 FU FEW020 BKN200 35/25 Q1012 A2989@CAELT@993.6 HR56 NOSIG=@CAELT@METAR SLGM 081600Z NIL=@CAELT@METAR SLRI 081600Z 35008KT 5000 FU FEW017 BKN200 33/25 Q1012 A2991@CAELT@HR61=METAR SLJO 081600Z 36006KT 5000 FU SCT080 BKN200 35/25 Q1012 A2989HR57 RWY NML=METAR SLRA 081600Z 36006KT 5000 FU SCT017 BKN200 37/24 Q1011 A2986HR48 RWY NML=METAR SLMG 081600Z 32004KT 6000 FEW017 BKN200 34/24 Q1011 A2987 HR55FU RWY NML=METAR SLBU 081600Z NIL=METAR SLSA 081600Z 30005KT 5000 FU NSC 35/25 Q1012 A2989 HR55 CI=METAR SLSR 081600Z 32010KT 5000 FU FEW017 BKN200 36/24 Q1011 A2985HR49 RWY NML=METAR SLSM 081600Z 00000KT 5000 FU NSC 36/24 Q1011 A2988 HR51 CIRWY NML=
ZPX0340 081559@CAELT@GG SLZZYMYT@CAELT@081558 SLCBYGYS@CAELT@SABO SLCB 081600@CAELT@METAR SLCB 081600Z 20005KT 9999 NSC 26/00 Q1027 A3034 753.3 HR18 FU@CAELT@NOSIG=@CAELT@METAR SLAL 081600Z 03014KT 9999 NSC 20/M02 Q1033 A3050 706.2 HR23 FU@CAELT@METAR SLPO 081600Z NIL=@CAELT@METAR SLAG 081600Z NIL=METAR SLVM 081600Z NIL=METAR SLTJ 081600Z NIL=METAR SLYA 081600Z NIL=METAR SLBJ 081600Z NIL=METAR SLHI 081600Z NIL=
ZPX0342 081601@CAELT@GG SLZZYMYT@CAELT@081600 SLLPYFYA@CAELT@SABO SLLP 081600@CAELT@METAR SLLP 081600Z 11008G19KT 050V210 9000 FEW020 16/M06 Q1041@CAELT@A3074 629.9 HR21 P93// FU NOSIG=@CAELT@METAR SLRY 081600Z 00000KT 3000 FU FEW017 37/23 Q1010 A2985@CAELT@HR45 RWY NML=@CAELT@METAR SLRQ 081600Z 00000KT 3000 FU NSC 37/27 Q1011 A2987987.4 HR57=METAR SLSB 081600Z 00000KT 5000 FU NSC 36/25 Q1011 A2988 HR53RWY NML=
ZPX0343 081602@CAELT@GG SLZZYMYT@CAELT@081602 SLVRYGYS@CAELT@SABO SLVR 081600@CAELT@METAR SLVR 081600Z 32005KT 3000 FU NSC 37/19 Q1012 A2989 HR35 NOSIG=@CAELT@METAR SLET 30004KT 3000 FU NSC 37/16 Q1012 A2990 HR30 NOSIG=@CAELT@METAR SLAS 081600Z 35008KT 1500 FU NSC 37/24 Q1014 A2994 HR47 RWY NML@CAELT@METAR SLJV 081600Z 34005KT 3000 FU NSC 36/21 Q1012 A2988 HR42 RWY NML@CAELT@METAR SLCP 081600Z 00000KT 0600 FU NSC 34/22 Q1015 A2997 HR48 RWY NMLMETAR SLSI 081600Z 36006KT 3000 FU SCT020 36/21 Q1012 A2988 HR42 RWYNML=METAR SLTI 081600Z 36014KT 9999 FEW020 39/21 Q1015 A2997 HR37 RWY NMLMETAR SLJE 081600Z 36005KT 1000 FU FEW020 38/22 Q1015 A2997 HR40 RWYMETAR SLVG 081600Z 36014KT 4000 FU FEW023 26/08 Q1026 A3030 HR26 RWYMETAR SLRB 081600Z 36006KT 8000 FEW020 40/19 Q1013 A2991 HR30 FU RWYMETAR SLPS 081600Z 06010KT 5000 FU SCT020 39/23 Q1010 A2983 HR39=METAR SLCA 081600Z 36005KT 4000 FU NSC 34/11 Q1014 A2994 HR25 RWY NML
ZPX0348 081606@CAELT@GG SLZZYMYT@CAELT@081558 SLTRYGYS@CAELT@SABO SLTR 081600@CAELT@METAR SLTR 081600Z 32005KT 5000 FU FEW020 BKN200 35/25 Q1012 A2989@CAELT@993.6 HR56 NOSIG=@CAELT@METAR SLGM 081600Z NIL=@CAELT@METAR SLRI 081600Z 35008KT 5000 FU FEW017 BKN200 33/25 Q1012 A2991@CAELT@HR61=METAR SLJO 081600Z 36006KT 5000 FU SCT080 BKN200 35/25 Q1012 A2989HR57 RWY NML=METAR SLRA 081600Z 36006KT 5000 FU SCT017 BKN200 37/24 Q1011 A2986HR48 RWY NML=METAR SLMG 081600Z 32004KT 6000 FEW017 BKN200 34/24 Q1011 A2987 HR55FU RWY NML=METAR SLBU 081600Z NIL=METAR SLSA 081600Z 30005KT 5000 FU NSC 35/25 Q1012 A2989 HR55 CI=METAR SLSR 081600Z 32010KT 5000 FU FEW017 BKN200 36/24 Q1011 A2985HR49 RWY NML=METAR SLSM 081600Z 00000KT 5000 FU NSC 36/24 Q1011 A2988 HR51 CIRWY NML=
ZPX0349 081606@CAELT@GG SLZZYMYT@CAELT@081558 SLTRYGYS@CAELT@SABO SLTR 081600@CAELT@METAR SLTR 081600Z 32005KT 5000 FU FEW020 BKN200 35/25 Q1012 A2989@CAELT@993.6 HR56 NOSIG=@CAELT@METAR SLGM 081600Z NIL=@CAELT@METAR SLRI 081600Z 35008KT 5000 FU FEW017 BKN200 33/25 Q1012 A2991@CAELT@HR61=METAR SLJO 081600Z 36006KT 5000 FU SCT080 BKN200 35/25 Q1012 A2989HR57 RWY NML=METAR SLRA 081600Z 36006KT 5000 FU SCT017 BKN200 37/24 Q1011 A2986HR48 RWY NML=METAR SLMG 081600Z 32004KT 6000 FEW017 BKN200 34/24 Q1011 A2987 HR55FU RWY NML=METAR SLBU 081600Z NIL=METAR SLSA 081600Z 30005KT 5000 FU NSC 35/25 Q1012 A2989 HR55 CI=METAR SLSR 081600Z 32010KT 5000 FU FEW017 BKN200 36/24 Q1011 A2985HR49 RWY NML=METAR SLSM 081600Z 00000KT 5000 FU NSC 36/24 Q1011 A2988 HR51 CIRWY NML=
ZPX0369 081646@CAELT@GG SLZZYMYT@CAELT@081645 SLPSZTZX@CAELT@SABO SLPS 081700@CAELT@METAR SLPS 081700Z 03008KT 5000 FU BKN020 40/24 Q1009 A2980 HR40=@CAELT@
ZPX0372 081653@CAELT@GG SLZZYMYT@CAELT@081652 SLETYMYC@CAELT@SABO SLET 081700@CAELT@METAR SLET 081700Z 32010KT 3000 FU NSC 38/17 Q1011 A2986 HR31 NOSIG=@CAELT@
ZPX0373 081653@CAELT@GG SLZZYMYT@CAELT@081653 SLRBYGYS@CAELT@SABO SLRB 081700@CAELT@METAR SLRB 081700Z 36006KT 8000 SCT020 40/19 Q1012 A2988 HR29 FU RWY@CAELT@NML=@CAELT@
ZPX0374 081653@CAELT@GG SLZZYMYT@CAELT@081654 SLVRYGYZ@CAELT@SABO SLVR 081700@CAELT@METAR SLVR 081700Z 34010KT 3000 FU NSC 37/20 Q1011 A2985 HR37 NOSIG=@CAELT@
ZPX0375 081654@CAELT@GG SLZZYMYT@CAELT@081654 SLSAYGYS@CAELT@SABO SLSA 081700@CAELT@METAR SLSA 081700Z 27005KT 5000 FU SCT020 BKN200 36/25@CAELT@Q1010 A2984 HR54=@CAELT@
ZPX0376 081655@CAELT@GG SLZZYMYT@CAELT@081655 SLTJYGYZ@CAELT@SABO SLTJ 081700@CAELT@METAR SLTJ 081700Z 19006KT 5000 FU FEW036 27/15 Q1016 A3002 812.1@CAELT@HR48=@CAELT@
ZPX0377 081655@CAELT@GG SLZZYMYT@CAELT@081655 SLTRYGYZ@CAELT@SABO SLTR 081700@CAELT@METAR SLTR 081700Z 33005KT 5000 FU FEW020 BKN200 35/24 Q1010 A2985@CAELT@992.4 HR53 NOSIG=@CAELT@
ZPX0378 081655@CAELT@GG SLZZYMYT@CAELT@081655 SLCBYGYZ@CAELT@SABO SLCB 081700@CAELT@METAR SLCB 081700Z 21008KT 140V280 9999 FEW040 27/00 Q1026 A3030 752.@CAELT@3 HR17 FU NOSIG=@CAELT@
ZPX0379 081655@CAELT@GG SLZZYMYT@CAELT@081655 SLRQYSYX@CAELT@SABO SLRQ 081700@CAELT@METAR SLRQ 081700Z 34004KT 3000 FU NSC 38/26 Q1010 A2984 986.5 HR52=@CAELT@
ZPX0380 081656@CAELT@GG SLZZYMYT@CAELT@081655 SLTRYGYS@CAELT@SABO SLTR 081700@CAELT@METAR SLTR 081700Z 33005KT 5000 FU FEW020 BKN200 35/24 Q1010 A2985@CAELT@992.4 HR53 NOSIG=@CAELT@METAR SLGM 081700Z NIL=@CAELT@METAR SLRI 081700Z 36008KT 5000 FU SCT017 FEW020CB BKN200 34/25 Q1012@CAELT@A2989 HR58 CB NW=METAR SLJO 081700Z 36005KT 5000 FU FEW020 BKN200 36/25 Q1011 A2988HR53 AC RWY NML=METAR SLRA 081700Z 16015KT 5000 TS VCSH FU SCT017 FEW020CB BKN20037/24 Q1010 A2985 HR48 CB/TS/SH SE/S/SW RWY NML=METAR SLMG 081700Z 18010KT 6000 TS VCSH SCT017 FEW023CB BKN200 35/24Q1010 A2985 HR51 CB/TS/SH S/SW RWY NML=METAR SLBU 081700Z NIL=METAR SLSA 081700Z 27005KT 5000 FU SCT020 BKN200 36/25 Q1010 A2984HR54=METAR SLSR 081700Z 32010KT 5000 FU FEW017 FEW023CB BKN200 36/23Q1010 A2984 HR47 CB SE RWY NML=METAR SLSM 081700Z 00000KT 5000 FU NSC 37/24 Q1010 A2984 HR49 CIRWY NML=
ZPX0381 081656@CAELT@GG SLZZYMYT@CAELT@081656 SLCAYGYS@CAELT@SABO SLCA 081700@CAELT@METAR SLCA 081700Z 36010KT 4000 FU NSC 36/10 Q1013 A2991 HR21 RWY NML@CAELT@
ZPX0382 081658@CAELT@GG SLZZYMYT@CAELT@081656 SLLPYGYZ@CAELT@SABO SLLP 081700@CAELT@METAR SLLP 081700Z 09011G22KT 020V180 9000 SCT023 FEW025CB 17/M06@CAELT@Q1040 A3072 629.5 HR20 P0784 CB N/NW CI FU NOSIG=@CAELT@
ZPX0383 081659@CAELT@GG SLZZYMYT@CAELT@081659 SLVRYGYS@CAELT@SABO SLVR 081600@CAELT@METAR SLVR 081700Z 34010KT 3000 FU NSC 37/20 Q1011 A2985 HR37 NOSIG=@CAELT@METAR SLET 081700Z 32010KT 3000 FU NSC 38/17 Q1011 A2986 HR31 NOSIG=@CAELT@METAR SLAS 081600Z 34006KT 1500 FU NSC 37/24 Q1013 A2991 HR47 RWY NML@CAELT@METAR SLJV 081600Z 19005KT 3000 TSFU SCT017 FEW030CB 33/21 Q1011@CAELT@A2985 HR51 CB/TS/S/SW RWY NML=METAR SLCP 081600Z 00000KT 0800 FU NSC 35/22 Q1015 A2997 HR47 RWY NMLMETAR SLSI 081600Z 36006KT 5000 FU SCT020 37/20 Q1011 A2985 HR 38 RWYNML=METAR SLTI 081600Z 36015KT 9999 SCT020 40/20 Q1013 A2991 HR32 RWY NMLMETAR SLJE 081600Z 36005KT 1000 FU FEW020 39/22 Q1013 A2991 HR38 RWYMETAR SLVG 081600Z 35010KT 5000 FU SCT025 26/08 Q1025 A3027 HR26 RWYMETAR SLRB 081700Z 36006KT 8000 SCT020 40/19 Q1012 A2988 HR29 FU RWYMETAR SLPS 081700Z 03008KT 5000 FU BKN020 40/24 Q1009 A2980 HR40=METAR SLCA 081700Z 36010KT 4000 FU NSC 36/10 Q1013 A2991 HR21 RWY NML=
ZPX0384 081659@CAELT@GG SLZZYMYT@CAELT@081658 SLSBYSYX@CAELT@SABO SLSB 081700@CAELT@METAR SLSB 081700Z 00000KT 5000 FU NSC 37/25 Q1010 A2985 HR50 RWY NML=@CAELT@
ZPX0386 081700@CAELT@GG SLZZYMYT@CAELT@081659 SLCBYGYS@CAELT@SABO SLCB 081700@CAELT@METAR SLCB 081700Z 21008KT 140V280 9999 FEW040 27/00 Q1026 A3030 752.@CAELT@3 HR17 FU NOSIG=@CAELT@METAR SLAL 081700Z 35016KT 9999 NSC 21/M03 Q1032 A3048 705.7 HR20 FU=@CAELT@METAR SLPO 081700Z NIL=@CAELT@METAR SLAG 081700Z NIL=METAR SLVM 081700Z NIL=METAR SLTJ 081700Z 19006KT 5000 FU FEW036 27/15 Q1016 A3002 812.1HR48=METAR SLYA 081700Z NIL=METAR SLBJ 081700Z NIL=METAR SLHI 081700Z NIL=
ZPX0388 081701@CAELT@GG SLZZYMYT@CAELT@081701 SLLPYFYA@CAELT@SABO SLLP 081700@CAELT@METAR SLLP 081700Z 09011G22KT 020V180 9000 SCT023 FEW025CB 17/M06@CAELT@Q1040 A3072 629.5 HR20 P0784 CB N/NW CI FU NOSIG=@CAELT@METAR SLRQ 081700Z 34004KT 3000 FU NSC 38/26 Q1010 A2984 986.5@CAELT@HR52=@CAELT@METAR SLSB 081700Z 00000KT 5000 FU NSC 37/25 Q1010 A2985 HR50RWY NML=
ZPX0396 081710@CAELT@GG SLZZYMYT@CAELT@081708 SLLPYFYA@CAELT@SABO SLLP 081700 RRA@CAELT@METAR SLLP 081700Z 09011G22KT 020V180 9000 SCT023 FEW025CB 17/M06@CAELT@Q1040 A3072 629.5 HR20 P0784 CB N/NW CI FU NOSIG=@CAELT@METAR RTD SLRY 081700Z 00000KT 3000 FU FEW020 38/23 Q1010@CAELT@A2984 HR42 RWY NML=@CAELT@METAR SLRQ 081700Z 34004KT 3000 FU NSC 38/26 Q1010 A2984 986.5HR52=METAR SLSB 081700Z 00000KT 5000 FU NSC 37/25 Q1010 A2985 HR50RWY NML=
ZPX0409 081746@CAELT@GG SLZZYMYT@CAELT@081744 SLPSZTZX@CAELT@SABO SLPS 081800@CAELT@METAR SLPS 081800Z 03006KT 5000 FU BKN020 40/24 Q1008 A2977 HR40=@CAELT@
ZPX0412 081750@CAELT@GG SLZZYMYT@CAELT@081727 SLETYMYC@CAELT@SABO SLET 081800@CAELT@METAR SLET 081800Z 31010KT 3000 FU NSC 38/18 Q1009 A2982 HR30 NOSIG=@CAELT@
ZPX0414 081754@CAELT@GG SLZZYMYT@CAELT@081753 SLRBYGYS@CAELT@SABO SLRB 081800@CAELT@METAR SLRB 081800Z 36006KT 8000 FEW020 40/19 Q1010 A2983 HR29 FU RWY@CAELT@NML=@CAELT@
ZPX0415 081754@CAELT@GG SLZZYMYT@CAELT@081755 SLVRYGYZ@CAELT@SABO SLVR 081800@CAELT@METAR SLVR 081800Z 32010KT 2500 FU FEW030CB 38/21 Q1009 A2981 HR38 CB@CAELT@NE NOSIG=@CAELT@
ZPX0416 081755@CAELT@GG SLZZYMYT@CAELT@081754 SLSAYGYS@CAELT@SABO SLSA 081800@CAELT@METAR SLSA 081800Z 34005KT 5000 FU SCT020 FEW023CB BKN200 37/25@CAELT@Q1008 A2977 HR51 CB N/NW=@CAELT@
ZPX0417 081755@CAELT@GG SLZZYMYT@CAELT@081754 SLSAYGYS@CAELT@SABO SLSA 081800@CAELT@METAR SLSA 081800Z 34005KT 5000 FU SCT020 FEW023CB BKN200 37/25@CAELT@Q1008 A2977 HR51 CB N/NW=@CAELT@
ZPX0418 081755@CAELT@GG SLZZYMYT@CAELT@081755 SLCBYGYZ@CAELT@SABO SLCB 081800@CAELT@METAR SLCB 081800Z 23007KT 150V300 9999 FEW040 28/00 Q1024 A3025 750.@CAELT@9 HR16 FU NOSIG=@CAELT@
ZPX0419 081756@CAELT@GG SLZZYMYT@CAELT@081756 SLTJYGYZ@CAELT@SABO SLTJ 081800@CAELT@METAR SLTJ 081800Z 09004KT 5000 FU FEW036 30/12 Q1014 A2997 810.4@CAELT@HR33=@CAELT@
ZPX0420 081756@CAELT@GG SLZZYMYT@CAELT@081755 SLLPYGYZ@CAELT@SABO SLLP 081800@CAELT@METAR SLLP 081800Z 04012G23KT 340V130 9999 SCT023 FEW025CB 17/M05@CAELT@Q1039 A3069 628.8 HR22 P0784 CB N/W/NW AC/CI FU NOSIG=@CAELT@
ZPX0421 081756@CAELT@GG SLZZYMYT@CAELT@081756 SLTRYGYZ@CAELT@SABO SLTR 081800@CAELT@METAR SLTR 081800Z 33006KT 5000 FU FEW020 BKN200 37/24 Q1008 A2977@CAELT@989.8 HR48 NOSIG=@CAELT@
ZPX0422 081757@CAELT@GG SLZZYMYT@CAELT@081756 SLRQYSYX@CAELT@SABO SLRQ 081800@CAELT@METAR SLRQ 081800Z 36004KT 3000 FU NSC 39/26 Q1008 A2978 984.3 HR48=@CAELT@
ZPX0423 081757@CAELT@GG SLZZYMYT@CAELT@081757 SLCAYGYS@CAELT@SABO SLCA 081800@CAELT@METAR SLCA 081800Z 36010KT 4000 FU NSC 37/10 Q1011 A2985 HR20 RWY NML@CAELT@
ZPX0424 081757@CAELT@GG SLZZYMYT@CAELT@081756 SLSBYSYX@CAELT@SABO SLSB 081800@CAELT@METAR SLSB 081800Z 00000KT 5000 FU NSC 37/25 Q1008 A2979 HR46 RWY NML=@CAELT@
ZPX0425 081758@CAELT@GG SLZZYMYT@CAELT@081757 SLTRYGYS@CAELT@SABO SLTR 081800@CAELT@METAR SLTR 081800Z 33006KT 5000 FU FEW020 BKN200 37/24 Q1008 A2977@CAELT@989.8 HR48 NOSIG=@CAELT@METAR SLGM 081800Z NIL=@CAELT@METAR SLRI 081800Z 36008KT 5000 FU SCT017 FEW020CB BKN200 35/25@CAELT@Q1011 A2986 HR56 CB N/SW/NW=METAR SLJO 081800Z NIL=METAR SLRA 081800Z 27015KT 5000 TS VCSH FU SCT017 FEW020CB BKN20032/23 Q1009 A2982 HR60 CB/TS/SH SW/W RWY NML=METAR SLMG 081800Z 18004KT 8000 VCSH FEW017 FEW023CB BKN200 33/23Q1009 A2980 HR57 CB/SH E/SE/S RWY NML=METAR SLBU 081800Z NIL=METAR SLSA 081800Z 34005KT 5000 FU SCT020 FEW023CB BKN200 37/25Q1008 A2977 HR51 CB N/NW=METAR SLSR 081800Z 32010KT 5000 TS VCSH FU SCT017 FEW023CB BKN20027/22 Q1008 A2979 HR43 CB/SH E/SE/S TS SE RWY NML=METAR SLSM 081800Z 28003KT 5000 FU NSC 37/24 Q1009 A2982 HR46 CIRWY NML=
ZPX0427 081758@CAELT@GG SLZZYMYT@CAELT@081758 SLVRYGYS@CAELT@SABO SLVR 081800@CAELT@METAR SLVR 081800Z 32010KT 2500 FU FEW030CB 38/21 Q1009 A2981 HR38 CB@CAELT@NE NOSIG=@CAELT@METAR SLET 081800Z 31010KT 3000 FU NSC 38/18 Q1009 A2982 HR30 NOSIG=@CAELT@METAR SLAS 081800Z 34008KT 1500 FU FEW020 38/23 Q1010 A2983 HR42 RWY@CAELT@NML=METAR SLJV 081800Z 19005KT 3000 TSFU SCT017 FEW030CB 29/21 Q1011A2985 HR64 CB/TS/S/SE RWY NML=METAR SLCP 081800Z 36005KT 0800 FU SCT020 FEW030 CB 35/22 Q1013 A2991HR47 CB/SW RWY NML=METAR SLSI 081800Z 00000KT 5000 FU SCT020 37/20 Q1010 A2983 HR36 RWYMETAR SLTI 081800Z 36016KT 9999 SCT020 40/20 Q1012 A988 HR31 RWY NML=METAR SLJE 081800Z 36005KT 1000 FU SCT020 41/22 Q1012 A2988 HR35 RWYMETAR SLVG 081800Z 35010KT 5000 FU SCT025 28/09 Q1024 A3024 HR25 RWYMETAR SLRB 081800Z 36006KT 8000 FEW020 40/19 Q1010 A2983 HR29 FU RWYMETAR SLPS 081800Z 03006KT 5000 FU BKN020 40/24 Q1008 A2977 HR40=METAR SLCA 081800Z 36010KT 4000 FU NSC 37/10 Q1011 A2985 HR20 RWY NML
ZPX0428 081759@CAELT@GG SLZZYMYT@CAELT@081759 SLCBYGYS@CAELT@SABO SLCB 081800@CAELT@METAR SLCB 081800Z 23007KT 150V300 9999 FEW040 28/00 Q1024 A3025 750.@CAELT@9 HR16 FU NOSIG=@CAELT@METAR SLAL 081800Z 35019KT 9999 NSC 22/M03 Q1030 A3042 704.3 HR18 FU=@CAELT@METAR SLPO 081800Z NIL=@CAELT@METAR SLAG 081800Z NIL=METAR SLVM 081800Z NIL=METAR SLTJ 081800Z 09004KT 5000 FU FEW036 30/12 Q1014 A2997 810.4HR33=METAR SLYA 081800Z NIL=METAR SLBJ 081800Z NIL=METAR SLHI 081800Z NIL=
ZPX0430 081800@CAELT@GG SLZZYMYT@CAELT@081800 SLLPYFYA@CAELT@SABO SLLP 081800@CAELT@METAR SLLP 081800Z 04012G23KT 340V130 9999 SCT023 FEW025CB 17/M05@CAELT@Q1039 A3069 628.8 HR22 P0784 CB N/W/NW AC/CI FU NOSIG=@CAELT@METAR SLRY 081800Z 36003KT 3000 FU FEW020 39/23 Q1008 A2879 HR40@CAELT@RWY NML=@CAELT@METAR SLRQ 081800Z 36004KT 3000 FU NSC 39/26 Q1008 A2978 984.3HR48=METAR SLSB 081800Z 00000KT 5000 FU NSC 37/25 Q1008 A2979 HR46
ZPX0453 081852@CAELT@GG SLZZYMYT@CAELT@081851 SLCAYGYS@CAELT@SABO SLCA 081900@CAELT@METAR SLCA 081900Z 36010KT 4000 FU NSC 37/10 Q1009 A2980 HR20 RWY NML@CAELT@
ZPX0455 081852@CAELT@GG SLZZYMYT@CAELT@081852 SLETYMYC@CAELT@SABO SLET 081900@CAELT@METAR SLET 081900Z 30010KT 3000 FU NSC 38/18 Q1008 A2978 HR31 NOSIG=@CAELT@
ZPX0456 081852@CAELT@GG SLZZYMYT@CAELT@081853 SLVRYGYZ@CAELT@SABO SLVR 081900@CAELT@METAR SLVR 081900Z 05015G25KT 2000 FU SCT023 FEW030CB 32/18 Q1009@CAELT@A2980 HR42 CB N/NE/NW NOSIG=@CAELT@
ZPX0458 081854@CAELT@GG SLZZYMYT@CAELT@081849 SLPSZTZX@CAELT@SABO SLPS 081900@CAELT@METAR SLPS 081900Z 03010KT 5000 TSFU SCT020 FEW030CB 39/23 Q1007@CAELT@A2974 HR39 TS/CB/N=@CAELT@
ZPX0459 081855@CAELT@GG SLZZYMYT@CAELT@081853 SLRBYGYS@CAELT@SABO SLRB 081900@CAELT@METAR SLRB 081900Z 36005KT 8000 FEW020 40/19 Q1009 A2980 HR29 FU RWY@CAELT@NML=@CAELT@
ZPX0460 081855@CAELT@GG SLZZYMYT@CAELT@081855 SLVRYGYS@CAELT@SABO SLVR 081900@CAELT@METAR SLVR 081900Z 05015G25KT 2000 FU SCT023 FEW030CB 32/18 Q1009@CAELT@A2980 HR42 CB N/NE/NW NOSIG=@CAELT@METAR SLET 081900Z 30010KT 3000 FU NSC 38/18 Q1008 A2978 HR31 NOSIG=@CAELT@METAR SLAS 081900Z 36008KT 1500 FU FEW020 39/22 Q1009 A2980 HR38 RWY@CAELT@NML=METAR SLCP 081900Z 18004KT 0800 FU SCT020 FEW030 CB 33/21 Q1012 A2988HR52 CB/SE RWY NML=METAR SLSI 081900Z 00000KT 5000 FU SCT020 37/21 Q1008 A2977 HR38 RWYMETAR SLRB 081900Z 36005KT 8000 FEW020 40/19 Q1009 A2980 HR29 FU RWYMETAR SLPS 081900Z 03010KT 5000 TSFU SCT020 FEW030CB 39/23 Q1007A2974 HR39 TS/CB/N=METAR SLCA 081900Z 36010KT 4000 FU NSC 37/10 Q1009 A2980 HR20 RWY NML=
ZPX0461 081855@CAELT@GG SLZZYMYT@CAELT@081855 SLCBYGYZ@CAELT@SABO SLCB 081900@CAELT@METAR SLCB 081900Z 16006KT 090V200 9999 FEW040 28/00 Q1022 A3020 749.@CAELT@6 HR16 FU NOSIG=@CAELT@
ZPX0462 081856@CAELT@GG SLZZYMYT@CAELT@081856 SLRQYSYX@CAELT@SABO SLRQ 081900@CAELT@METAR SLRQ 081900Z 00000KT 3000 FU NSC 40/27 Q1006 A2971 982.2 HR47=@CAELT@
ZPX0464 081857@CAELT@GG SLZZYMYT@CAELT@081855 SLLPYGYZ@CAELT@SABO SLLP 081900@CAELT@METAR SLLP 081900Z 06008G18KT 9999 SCT023 FEW025CB 16/M05 Q1038 A3066@CAELT@628.1 HR22 P0784 CB N/SW/W AC/CI FU NOSIG=@CAELT@
ZPX0466 081857@CAELT@GG SLZZYMYT@CAELT@081857 SLTRYGYZ@CAELT@SABO SLTR 081900@CAELT@METAR SLTR 081900Z 30006KT 5000 FU FEW020 FEW023CB BKN200 37/23@CAELT@Q1006 A2972 988.1 HR44 CB NE NOSIG=@CAELT@
ZPX0467 081857@CAELT@GG SLZZYMYT@CAELT@081856 SLSAYGYS@CAELT@SABO SLSA 081900@CAELT@METAR SLSA 081900Z 04020G30KT 5000 TS VCSH FU SCT020 FEW023CB BKN200@CAELT@35/24 Q1007 A2974 HR52 CB/SH N/NE/E/NW TS E=@CAELT@
ZPX0468 081858@CAELT@GG SLZZYMYT@CAELT@081856 SLSAYGYS@CAELT@SABO SLSA 081900@CAELT@METAR SLSA 081900Z 04020G30KT 5000 TS VCSH FU SCT020 FEW023CB BKN200@CAELT@35/24 Q1007 A2974 HR52 CB/SH N/NE/E/NW TS E=@CAELT@
ZPX0469 081858@CAELT@GG SLZZYMYT@CAELT@081857 SLSBYSYX@CAELT@SABO SLSB 081900@CAELT@METAR SLSB 081900Z 00000KT 5000 FU NSC 38/23 Q1006 A2972 HR41 RWY NML=@CAELT@
ZPX0470 081858@CAELT@GG SLZZYMYT@CAELT@081858 SLTRYGYS@CAELT@SABO SLTR 081900@CAELT@METAR SLTR 081900Z 30006KT 5000 FU FEW020 FEW023CB BKN200 37/23@CAELT@Q1006 A2972 988.1 HR44 CB NE NOSIG=@CAELT@METAR SLGM 081900Z NIL=@CAELT@METAR SLRI 081900Z 35010KT 5000 VCSH FU BKN017 FEW020CB BKN200 35/25@CAELT@Q1007 A2975 HR56 CB/SH N/NE/E/SE=METAR SLJO 081900Z NIL=METAR SLRA 081900Z 09006KT 5000 TS VCSH FU SCT017 FEW023CB OVC20031/23 Q1009 A2980 HR61 CB/TS/SH E/SE RWY NML=METAR SLMG 081900Z 16006KT 8000 TS VCSH FEW020 FEW023CB BKN200 32/24Q1007 A2976 HR63 CB/TS/SH NE/SW RWY NML=METAR SLBU 081900Z NIL=METAR SLSA 081900Z 04020G30KT 5000 TS VCSH FU SCT020 FEW023CB BKN20035/24 Q1007 A2974 HR52 CB/SH N/NE/E/NW TS E=METAR SLSR 081900Z 32008KT 5000 TS VCSH FU SCT017 FEW023CB BKN20037/23 Q1006 A2973 HR45 CB/SH S/SW TS SW RWY NML=METAR SLSM 081900Z 00000KT 5000 FU NSC 38/24 Q1005 A2970 HR43 CIRWY NML=
ZPX0471 081859@CAELT@GG SLZZYMYT@CAELT@081859 SLTJYGYZ@CAELT@SABO SLTJ 081900@CAELT@METAR SLTJ 081900Z 13008KT 5000 FU FEW036 31/12 Q1013 A2992 809.3@CAELT@HR32=@CAELT@
ZPX0474 081900@CAELT@GG SLZZYMYT@CAELT@081900 SLLPYFYA@CAELT@SABO SLLP 081900@CAELT@METAR SLLP 081900Z 06008G18KT 9999 SCT023 FEW025CB 16/M05 Q1038@CAELT@A3066 628.1 HR22 P0784 CB N/SW/W AC/CI FU NOSIG=@CAELT@METAR SLRY 081900Z 36003KT 3000 FU FEW020 39/22 Q1006 A2973@CAELT@HR38 RWY NML=@CAELT@METAR SLRQ 081900Z 00000KT 3000 FU NSC 40/27 Q1006 A2971 982.2HR47=METAR SLSB 081900Z 00000KT 5000 FU NSC 38/23 Q1006 A2972 HR41RWY NML=
ZPX0475 081901@CAELT@GG SLZZYMYT@CAELT@081900 SLCBYGYS@CAELT@SABO SLCB 081900@CAELT@METAR SLCB 081900Z 16006KT 090V200 9999 FEW040 28/00 Q1022 A3020 749.@CAELT@6 HR16 FU NOSIG=@CAELT@METAR SLAL 081900Z 35018KT 9999 NSC 22/M01 Q1029 A3038 703.4 HR22 FU=@CAELT@METAR SLPO 081900Z NIL=@CAELT@METAR SLAG 081900Z NIL=METAR SLVM 081900Z NIL=METAR SLTJ 081900Z 13008KT 5000 FU FEW036 31/12 Q1013 A2992 809.3HR32=METAR SLYA 081900Z NIL=METAR SLBJ 081900Z NIL=METAR SLHI 081900Z NIL=
ZPX0498 081949@CAELT@GG SLZZYMYT@CAELT@081948 SLPSZTZX@CAELT@SABO SLPS 082000@CAELT@METAR SLPS 082000Z 03010KT 5000 FU SCT020 FEW030CB 38/23 Q1006 A2971@CAELT@HR41=@CAELT@
ZPX0503 081953@CAELT@GG SLZZYMYT@CAELT@081953 SLCAYGYS@CAELT@SABO SLCA 082000@CAELT@METAR SLCA 082000Z 36010KT 4000 FU NSC 37/10 Q1008 A2977 HR20 RWY NML@CAELT@
ZPX0504 081954@CAELT@GG SLZZYMYT@CAELT@081954 SLETYMYC@CAELT@SABO SLET 082000@CAELT@METAR SLET 082000Z 31010KT 2500 FU FEW020 FEW027CB 34/19 Q1008 A2978@CAELT@HR43 CB N/NE NOSIG=@CAELT@
ZPX0505 081955@CAELT@GG SLZZYMYT@CAELT@081953 SLRBYGYS@CAELT@SABO SLRB 082000@CAELT@METAR SLRB 082000Z 36008KT 8000 TS BKN020 FEW025CB 36/21 Q1008 A2977@CAELT@HR41 FU CB TS N/NE/NW RWY NML=@CAELT@
ZPX0507 081955@CAELT@GG SLZZYMYT@CAELT@081956 SLVRYGYZ@CAELT@SABO SLVR 082000@CAELT@METAR SLVR 082000Z 03015KT 4000 FU SCT023 FEW030CB 33/18 Q1008 A2978@CAELT@HR40 CB N/NW NOSIG=@CAELT@
ZPX0508 081956@CAELT@GG SLZZYMYT@CAELT@081955 SLTRYGYZ@CAELT@SABO SLTR 082000@CAELT@METAR SLTR 082000Z 36008KT 5000 TS VCSH FU FEW020 FEW023CB BKN200 37/@CAELT@23 Q1005 A2969 987.1 HR44 CB/SH NE/E TS NE NOSIG=@CAELT@
ZPX0509 081956@CAELT@GG SLZZYMYT@CAELT@081956 SLTJYGYZ@CAELT@SABO SLTJ 08200@CAELT@METAR SLTJ 082000Z 09006KT 5000 FEW036 30/12 Q1013 A2991 809.2 HR34@CAELT@
ZPX0510 081956@CAELT@GG SLZZYMYT@CAELT@081956 SLVRYGYS@CAELT@SABO SLVR 082000@CAELT@METAR SLVR 082000Z 03015KT 4000 FU SCT023 FEW030CB 33/18 Q1008 A2978@CAELT@HR40 CB N/NW NOSIG=@CAELT@METAR SLET 082000Z 31010KT 2500 FU FEW020 FEW027CB 34/19 Q1008 A2978@CAELT@HR43 CB N/NE NOSIG=@CAELT@METAR SLAS 082000Z 34004KT 2000 TSVCSH FU SCT020 FEW030CB BKN200 27/24 Q1009A2980 HR83 CB/TS/SH/NW/N/NE/E RESH RWY NML=METAR SLCP 082000Z 19008KT 1000 FU BKN020 29/22 Q1012 A2988 HR65 RWYNML=METAR SLSI 082000Z 000000KT 5000 FU SCT020 BKN200 36/21 Q1007 A2974HR 42 RWY NML=METAR SLRB 082000Z 36008KT 8000 TS BKN020 FEW025CB 36/21 Q1008 A2977HR41 FU CB TS N/NE/NW RWY NML=METAR SLPS 082000Z 03010KT 5000 FU SCT020 FEW030CB 38/23 Q1006 A2971HR41=METAR SLCA 082000Z 36010KT 4000 FU NSC 37/10 Q1008 A2977 HR20 RWY NML=
ZPX0511 081956@CAELT@GG SLZZYMYT@CAELT@081955 SLSAYGYS@CAELT@SABO SLSA 082000@CAELT@METAR SLSA 082000Z 36006KT 6000 TS VCSH SCT020 FEW023CB BKN200@CAELT@28/22 Q1006 A2973 HR68 FU CB/SH E/NW TS NW=@CAELT@
ZPX0512 081956@CAELT@GG SLZZYMYT@CAELT@081955 SLLPYGYZ@CAELT@SABO SLLP 082000@CAELT@METAR SLLP 082000Z 09008G18KT 9999 SCT023 FEW025CB 17/M05 Q1036@CAELT@A3062 627.2 HR22 P93// CB/SW AC/CI FU NOSIG=@CAELT@
ZPX0513 081956@CAELT@GG SLZZYMYT@CAELT@081955 SLSAYGYS@CAELT@SABO SLSA 082000@CAELT@METAR SLSA 082000Z 36006KT 6000 TS VCSH SCT020 FEW023CB BKN200@CAELT@28/22 Q1006 A2973 HR68 FU CB/SH E/NW TS NW=@CAELT@
ZPX0514 081956@CAELT@GG SLZZYMYT@CAELT@081956 SLRQYSYX@CAELT@SABO SLRQ 082000@CAELT@METAR SLRQ 082000Z 00000KT 3000 FU NSC 39/26 Q1005 A2968 981.2 HR46=@CAELT@
ZPX0517 081957@CAELT@GG SLZZYMYT@CAELT@081957 SLCBYGYZ@CAELT@SABO SLCB 082000@CAELT@METAR SLCB 082000Z 32010G20KT 9999 FEW040 28/02 Q1021 A3017 748.7@CAELT@HR18 FU TEMPO 06015KT=@CAELT@
ZPX0519 081957@CAELT@GG SLZZYMYT@CAELT@081956 SLSBYSYX@CAELT@SABO SLSB 082000@CAELT@METAR SLSB 082000Z 00000KT 5000 FU NSC 37/24 Q1004 A2967 HR46 RWY NML=@CAELT@
ZPX0520 081958@CAELT@GG SLZZYMYT@CAELT@081958 SLTRYGYS@CAELT@SABO SLTR 082000@CAELT@METAR SLTR 082000Z 36008KT 5000 TS VCSH FU FEW020 FEW023CB BKN200@CAELT@37/23 Q1005 A2969 987.1 HR44 CB/SH NE/E TS NE NOSIG=@CAELT@METAR SLGM 082000Z NIL=@CAELT@METAR SLRI 082000Z 35008KT 5000 VCSH FU BKN017 FEW020CB BKN200 35/24@CAELT@Q1006 A2971 HR55 CB/SH N/NE/E=METAR SLJO 082000Z NIL=METAR SLRA 082000Z 00000KT 5000 FU FEW020 FEW023CB OVC200 32/23 Q1007A2976 HR60 RETS CB E RWY NML=METAR SLMG 082000Z 18006KT 9999 FEW020 FEW023CB BKN200 32/25 Q1007A2974 HR66 CB N/E RWY NML=METAR SLBU 082000Z NIL=METAR SLSA 082000Z 36006KT 6000 TS VCSH SCT020 FEW023CB BKN20028/22 Q1006 A2973 HR68 FU CB/SH E/NW TS NW=METAR SLSR 082000Z 00000KT 5000 FU SCT017 FEW023CB BKN200 36/24 Q1004A2967 HR48 RETS CB SW RWY NML=METAR SLSM 082000Z 36008KT 5000 FU TS FEW017 FEW020CB SCT200 38/24Q1004 A2967 HR44 CB/TS SE RWY NML=
ZPX0522 082001@CAELT@GG SLZZYMYT@CAELT@082000 SLLPYFYA@CAELT@SABO SLLP 082000@CAELT@METAR SLLP 082000Z 09008G18KT 9999 SCT023 FEW025CB 17/M05 Q1036@CAELT@A3062 627.2 HR22 P93// CB/SW AC/CI FU NOSIG=@CAELT@METAR SLRY 082000Z 00000KT 3000 FU FEW020 39/22 Q1005 A2969@CAELT@HR38 RWY NML=@CAELT@METAR SLRQ 082000Z 00000KT 3000 FU NSC 39/26 Q1005 A2968 981.2HR46=METAR SLSB 082000Z 00000KT 5000 FU NSC 37/24 Q1004 A2967 HR46RWY NML=
ZPX0523 082001@CAELT@GG SLZZYMYT@CAELT@082000 SLCBYGYS@CAELT@SABO SLCB 082000@CAELT@METAR SLCB 082000Z 32010G20KT 9999 FEW040 28/02 Q1021 A3017 748.7@CAELT@HR18 FU TEMPO 06015KT=@CAELT@METAR SLAL 082000Z 34018KT 9999 NSC 21/00 Q1028 A3036 702.9 HR24 FU=@CAELT@METAR SLPO 082000Z NIL=@CAELT@METAR SLAG 082000Z NIL=METAR SLVM 082000Z NIL=METAR SLTJ 082000Z 09006KT 5000 FEW036 30/12 Q1013 A2991 809.2 HR34METAR SLYA 082000Z NIL=METAR SLBJ 082000Z NIL=METAR SLHI 082000Z NIL=
ZPX0537 082028@CAELT@GG SLLPZRZX@CAELT@082028 SBBRYZYX@CAELT@MMBZ SBBR 082028@CAELT@METAR SBGR 082000Z 17007KT CAVOK 28/14 Q1017=@CAELT@METAR SGES 082000Z 18003KT 9999 SCT033 BKN070 30/14 Q1010=@CAELT@METAR SAEZ 082000Z 10012KT CAVOK 26/06 Q1018 NOSIG=@CAELT@
ZPX0550 082052@CAELT@GG SLZZYMYT@CAELT@082052 SLCAYGYS@CAELT@SABO SLCA 082100@CAELT@METAR SLCA 082100Z 36008KT 4000 FU NSC 37/11 Q1008 A2977 HR21 RWY NML@CAELT@
ZPX0551 082052@CAELT@GG SLZZYMYT@CAELT@082051 SLPSZTZX@CAELT@SABO SLPS 082100@CAELT@METAR SLPS 082100Z 06006KT 5000 FU NSC 37/24 Q1006 A2971 HR44=@CAELT@
ZPX0553 082053@CAELT@GG SLZZYMYT@CAELT@082053 SLRBYGYS@CAELT@SABO SLRB 082100@CAELT@METAR SLRB 082100Z 36004KT 8000 SCT020 36/21 Q1008 A2977 HR41 FU RETS@CAELT@RWY NML=@CAELT@
ZPX0554 082054@CAELT@GG SLZZYMYT@CAELT@082052 SLETYMYC@CAELT@SABO SLET 082100@CAELT@METAR SLET 082100Z 32008KT 2500 FU FEW020 FEW027CB 34/16 Q1007 A2975@CAELT@HR33 CB N/NE NOSIG=@CAELT@
ZPX0556 082055@CAELT@GG SLZZYMYT@CAELT@082054 SLSBYSYX@CAELT@SABO SLSB 082100@CAELT@METAR SLSB 082100Z 00000KT 5000 FU NSC 37/24 Q1004 A2966 HR47 RWY NML=@CAELT@
ZPX0559 082055@CAELT@GG SLZZYMYT@CAELT@082055 SLSAYGYS@CAELT@SABO SLSA 082100@CAELT@METAR SLSA 082100Z 31005KT 6000 SCT020 FEW023CB BKN200 30/23 Q1005@CAELT@A2968 HR68 FU RETS CB NW=@CAELT@
ZPX0560 082055@CAELT@GG SLZZYMYT@CAELT@082055 SLSAYGYS@CAELT@SABO SLSA 082100@CAELT@METAR SLSA 082100Z 31005KT 6000 SCT020 FEW023CB BKN200 30/23 Q1005@CAELT@A2968 HR68 FU RETS CB NW=@CAELT@
ZPX0561 082056@CAELT@GG SLZZYMYT@CAELT@082055 SLTRYGYZ@CAELT@SABO SLTR 082100@CAELT@METAR SLTR 082100Z 14018KT 5000 TS VCSH FU FEW020 FEW023CB BKN200@CAELT@31/23 Q1007 A2975 989.0 HR64 CB/SH NE/E/SE/S/SW TS S/SW TEMPO TSRA=@CAELT@
ZPX0562 082056@CAELT@GG SLZZYMYT@CAELT@082055 SLRQYSYX@CAELT@SABO SLRQ 082100@CAELT@METAR SLRQ 082100Z 00000KT 3000 FU NSC 38/26 Q1004 A2966 980.5 HR50=@CAELT@
ZPX0563 082056@CAELT@GG SLZZYMYT@CAELT@082057 SLVRYGYZ@CAELT@SABO SLVR 082100@CAELT@METAR SLVR 082100Z 36009KT 7000 FEW030CB SCT200 33/16 Q1007 A2975@CAELT@HR35 FU CB N/NW NOSIG=@CAELT@
ZPX0564 082057@CAELT@GG SLZZYMYT@CAELT@082056 SLVRYGYS@CAELT@SABO SLVR 082100@CAELT@METAR SLVR 082100Z 36009KT 7000 FEW030CB SCT200 33/16 Q1007 A2975@CAELT@HR35 FU CB N/NW NOSIG=@CAELT@METAR SLET 082100Z 32008KT 2500 FU FEW020 FEW027CB 34/16 Q1007 A2975@CAELT@HR33 CB N/NE NOSIG=@CAELT@METAR SLAS 082100Z 18010KT 2000 FU FEW020 FEW030CB OVC200 27/21 Q1009A2980 HR72 CB/TS/NE/S/SW RWY NML=METAR SLCP 082100Z 00000KT 1000 FU SCT020 FEW030 CB OVC200 28/22Q1011 A2985 HR70 CB/NE RWY NML=METAR SLSI 082100Z 09008KT 5000 FU SCT020 FEW030CB BKN200 32/22 Q1008A2977 HR55 CB/N/NW RWY NML=METAR SLRB 082100Z 36004KT 8000 SCT020 36/21 Q1008 A2977 HR41 FU RETSRWY NML=METAR SLPS 082100Z 06006KT 5000 FU NSC 37/24 Q1006 A2971 HR44=METAR SLCA 082100Z 36008KT 4000 FU NSC 37/11 Q1008 A2977 HR21 RWY NML
ZPX0565 082057@CAELT@GG SLZZYMYT@CAELT@082055 SLLPYGYZ@CAELT@SABO SLLP 082100@CAELT@METAR SLLP 082100Z 14007KT 030V190 9999 FEW023 FEW025CB 16/M05 Q1036@CAELT@A3060 626.9 HR24 P90// CB/SW AC/CI FU NOSIG=@CAELT@
ZPX0567 082058@CAELT@GG SLZZYMYT@CAELT@082057 SLCBYGYZ@CAELT@SABO SLCB 082100@CAELT@METAR SLCB 082100Z 04006KT 9999 FEW040 27/03 Q1020 A3013 747.8 HR20@CAELT@FU NOSIG=@CAELT@
ZPX0568 082058@CAELT@GG SLZZYMYT@CAELT@082058 SLTJYGYZ@CAELT@SABO SLTJ 082100@CAELT@METAR SLTJ 082100Z 09006KT 5000 FU FEW036 29/11 Q1013 A2993 809.4@CAELT@HR32=@CAELT@
ZPX0569 082059@CAELT@GG SLZZYMYT@CAELT@082058 SLCBYGYS@CAELT@SABO SLCB 082100@CAELT@METAR SLCB 082100Z 04006KT 9999 FEW040 27/03 Q1020 A3013 747.8 HR20@CAELT@FU NOSIG=@CAELT@METAR SLAL 082100Z 34008KT 9999 NSC 20/01 Q1027 A3033 702.4 HR28 FU=@CAELT@METAR SLPO 082100Z NIL=@CAELT@METAR SLAG 082100Z NIL=METAR SLVM 082000Z NIL=METAR SLTJ 082100Z 09006KT 5000 FU FEW036 29/11 Q1013 A2993 809.4HR32=METAR SLYA 082100Z NIL=METAR SLBJ 082100Z NIL=METAR SLHI 082100Z NIL=
ZPX0570 082059@CAELT@GG SLZZYMYT@CAELT@082100 SLLPYFYA@CAELT@SABO SLLP 082100@CAELT@METAR SLLP 082100Z 14007KT 030V190 9999 FEW023 FEW025CB 16/M05@CAELT@Q1036 A3060 626.9 HR24 P90// CB/SW AC/CI FU NOSIG=@CAELT@METAR SLRY 082100Z 00000KT 3000 FU NSC 38/23 Q1004 A2967 HR42@CAELT@RWY NML=@CAELT@METAR SLRQ 082100Z 00000KT 3000 FU NSC 38/26 Q1004 A2966 980.5HR50=METAR SLSB 082100Z 00000KT 5000 FU NSC 37/24 Q1004 A2966 HR47
ZPX0572 082100@CAELT@GG SLZZYMYT@CAELT@082100 SLTRYGYS@CAELT@SABO SLTR 082100@CAELT@METAR SLTR 082100Z 14018KT 5000 TS VCSH FU FEW020 FEW023CB BKN200@CAELT@31/23 Q1007 A2975 989.0 HR64 CB/SH NE/E/SE/S/SW TS S/SW TEMPO TSRA=@CAELT@METAR SLGM 082100Z NIL=@CAELT@METAR SLRI 082100Z NIL=@CAELT@METAR SLJO 082100Z NIL=METAR SLRA 082100Z 00000KT 5000 FU FEW020 OVC200 32/23 Q1007 A2974HR60 RWY NML=METAR SLMG 082100Z 18004KT 9999 FEW020 FEW023CB BKN200 31/24 Q1007A2974 HR67 CB N RWY NML=METAR SLBU 082100Z NIL=METAR SLSA 082100Z 31005KT 6000 SCT020 FEW023CB BKN200 30/23 Q1005A2968 HR68 FU RETS CB NW=METAR SLSR 082100Z 00000KT 3000 FU FEW017 FEW023CB BKN200 35/23 Q1004A2965 HR50 CB SW RWY NML=METAR SLSM 082100Z 36004KT 5000 FU FEW017 FEW020CB BKN200 37/21 Q1004A2966 HR40 CB NE/SE RETS RWY NML=
ZPX0594 082149@CAELT@GG SLZZYMYT@CAELT@082147 SLPSZTZX@CAELT@SABO SLPS 082200@CAELT@METAR SLPS 082200Z 06005KT 5000 FU NSC 35/24 Q1006 A2971 HR51=@CAELT@
ZPX0595 082152@CAELT@GG SLZZYMYT@CAELT@082150 SLETYMYC@CAELT@SABO SLET 082200@CAELT@METAR SLET 082200Z 32010KT 4000 FU FEW020 FEW027CB 32/15 Q1006 A2973@CAELT@HR35 CB/NE NOSIG=@CAELT@
ZPX0596 082154@CAELT@GG SLZZYMYT@CAELT@082153 SLRBYGYS@CAELT@SABO SLRB 082200@CAELT@METAR SLRB 082200Z 00000KT 8000 NSC 36/21 Q1008 A2977 HR42 FU RWY NML=@CAELT@
ZPX0597 082154@CAELT@GG SLZZYMYT@CAELT@082154 SLCBYGYZ@CAELT@SABO SLCB 082200@CAELT@METAR SLCB 082200Z 14004KT 9999 NSC 26/02 Q1020 A3014 747.9 HR20 FU@CAELT@NOSIG=@CAELT@
ZPX0599 082155@CAELT@GG SLZZYMYT@CAELT@082154 SLSAYGYS@CAELT@SABO SLSA 082200@CAELT@METAR SLSA 082200Z 00000KT 6000 FEW020 BKN200 29/23 Q1006 A2971@CAELT@HR69 FU=@CAELT@
ZPX0600 082155@CAELT@GG SLZZYMYT@CAELT@082154 SLSAYGYS@CAELT@SABO SLSA 082200@CAELT@METAR SLSA 082200Z 00000KT 6000 FEW020 BKN200 29/23 Q1006 A2971@CAELT@HR69 FU=@CAELT@
ZPX0601 082155@CAELT@GG SLZZYMYT@CAELT@082155 SLTRYGYZ@CAELT@SABO SLTR 082200@CAELT@METAR SLTR 082200Z 03006KT 5000 FU FEW020 FEW023CB BKN200 29/23 Q1006@CAELT@A2973 988.3 HR67 RETS CB SE/S/SW NOSIG=@CAELT@
ZPX0602 082155@CAELT@GG SLZZYMYT@CAELT@082155 SLCAYGYS@CAELT@SABO SLCA 082200@CAELT@METAR SLCA 082200Z 09005KT 3000 FU NSC 34/13 Q1008 A2977 HR27 RWY NML@CAELT@
ZPX0603 082155@CAELT@GG SLZZYMYT@CAELT@082156 SLVRYGYZ@CAELT@SABO SLVR 082200@CAELT@METAR SLVR 082200Z 31007KT 6000 FEW030CB BKN200 30/17 Q1006 A2973@CAELT@HR44 FU CB NW NOSIG=@CAELT@
ZPX0604 082156@CAELT@GG SLZZYMYT@CAELT@082155 SLRQYSYX@CAELT@SABO SLRQ 082200@CAELT@METAR SLRQ 082200Z 00000KT 3000 FU NSC 35/27 Q1004 A2966 980.5 HR63=@CAELT@
ZPX0605 082157@CAELT@GG SLZZYMYT@CAELT@082155 SLLPYGYZ@CAELT@SABO SLLP 082200@CAELT@METAR SLLP 082200Z 11005KT 9999 FEW020 FEW023CB 15/M05 Q1036 A3061@CAELT@627.0 HR25 P90// CB/S CI FU NOSIG=@CAELT@
ZPX0606 082157@CAELT@GG SLZZYMYT@CAELT@082157 SLTJYGYZ@CAELT@SABO SLTJ 082200@CAELT@METAR SLTJ 082200Z 15007KT 5000 FU SCT036 26/11 Q1015 A2999 811.2@CAELT@HR39=@CAELT@
ZPX0608 082157@CAELT@GG SLZZYMYT@CAELT@082157 SLVRYGYS@CAELT@SABO SLVR 082200@CAELT@METAR SLVR 082200Z 31007KT 6000 FEW030CB BKN200 30/17 Q1006 A2973@CAELT@HR44 FU CB NW NOSIG=@CAELT@METAR SLET 082200Z 32010KT 4000 FU FEW020 FEW027CB 32/15 Q1006 A2973@CAELT@HR35 CB/NE NOSIG=@CAELT@METAR SLAS 082200Z 00000KT 2000 TS FU SCT020 FEW030CB OVC200 26/21Q1010 A2983 HR73 CB/TS/SH/NE/E/S RWY NML=METAR SLCP 082200Z 00000KT 1000 FU SCT020 FEW030 CB OVC200 27/21Q1012 A2988 HR72 CB/E RWY NML=METAR SLSI 082200Z 00000KT 5000 FU SCT020 FEW030CB BKN200 30/21 Q1008A2977 HR58 CN/N/NE RWY NML=METAR SLRB 082200Z 00000KT 8000 NSC 36/21 Q1008 A2977 HR42 FU RWY NMLMETAR SLPS 082200Z 06005KT 5000 FU NSC 35/24 Q1006 A2971 HR51=METAR SLCA 082200Z 09005KT 3000 FU NSC 34/13 Q1008 A2977 HR27 RWY NML=
ZPX0609 082158@CAELT@GG SLZZYMYT@CAELT@082157 SLSBYSYX@CAELT@SABO SLSB 082200@CAELT@METAR SLSB 082200Z 00000KT 5000 FU NSC 34/24 Q1005 A2968 HR54 RWY NML=@CAELT@
ZPX0610 082158@CAELT@GG SLZZYMYT@CAELT@082158 SLTRYGYS@CAELT@SABO SLTR 082200@CAELT@METAR SLTR 082200Z 03006KT 5000 FU FEW020 FEW023CB BKN200 29/23@CAELT@Q1006 A2973 988.3 HR67 RETS CB SE/S/SW NOSIG=@CAELT@METAR SLGM 082200Z NIL=@CAELT@METAR SLRI 082200Z 00000KT 7000 VCSH SCT017 FEW020CB BKN200@CAELT@28/25 Q1007 A2975 HR76 CB/SH N/NE/NW=METAR SLJO 082200Z NIL=METAR SLRA 082200Z 12004KT 5000 FU FEW080 OVC200 31/23 Q1006 A2973HR62 RWY NML=METAR SLMG 082200Z 18004KT 9999 FEW020 FEW023CB OVC200 30/26 Q1006A2974 HR77 CB N RWY NML=METAR SLBU 082200Z NIL=METAR SLSA 082200Z 00000KT 6000 FEW020 BKN200 29/23 Q1006 A2971HR69 FU=METAR SLSR 082200Z 00000KT 3000 FU FEW017 FEW023CB BKN200 34/23 Q1003A2964 HR55 CB S RWY NML=METAR SLSM 082200Z 36004KT 5000 FU FEW017 FEW020CB BKN200 34/23 Q1005A2968 HR52 CB E RWY NML=
ZPX0612 082159@CAELT@GG SLZZYMYT@CAELT@082200 SLLPYFYA@CAELT@SABO SLLP 082200@CAELT@METAR SLLP 082200Z 11005KT 9999 FEW020 FEW023CB 15/M05 Q1036@CAELT@A3061 627.0 HR25 P90// CB/S CI FU NOSIG=@CAELT@METAR SLRY 082200Z 00000KT 3000 FU NSC 36/24 Q1004 A2966 HR49@CAELT@RWY NML=@CAELT@METAR SLRQ 082200Z 00000KT 3000 FU NSC 35/27 Q1004 A2966 980.5HR63=METAR SLSB 082200Z 00000KT 5000 FU NSC 34/24 Q1005 A2968 HR54
ZPX0614 082200@CAELT@GG SLZZYMYT@CAELT@082159 SLCBYGYS@CAELT@SABO SLCB 082200@CAELT@METAR SLCB 082200Z 14004KT 9999 NSC 26/02 Q1020 A3014 747.9 HR20 FU@CAELT@NOSIG=@CAELT@METAR SLAL 082200Z 36009KT 9999 NSC 20/01 Q1027 A3033 702.3 HR29 FU=@CAELT@METAR SLTJ 082200Z 15007KT 5000 FU SCT036 26/11 Q1015 A2999 811.2@CAELT@HR39=
ZPX0617 082201@CAELT@GG SLZZYMYT@CAELT@082200 SLCBYGYS@CAELT@SABO SLCB 082200@CAELT@METAR SLCB 082200Z 14004KT 9999 NSC 26/02 Q1020 A3014 747.9 HR20 FU@CAELT@NOSIG=@CAELT@METAR SLAL 082200Z 36009KT 9999 NSC 20/01 Q1027 A3033 702.3 HR29 FU=@CAELT@METAR SLTJ 082200Z 15007KT 5000 FU SCT036 26/11 Q1015 A2999 811.2@CAELT@HR39=
ZPX0634 082251@CAELT@GG SLZZYMYT@CAELT@082250 SLCAYGYS@CAELT@SABO SLCA 082300@CAELT@METAR SLCA 082300Z 36005KT 3000 FU NSC 32/13 Q1008 A2977 HR32 RWY NML@CAELT@
ZPX0636 082253@CAELT@GG SLZZYMYT@CAELT@082253 SLSAYGYS@CAELT@SABO SLSA 082300@CAELT@METAR SLSA 082300Z 00000KT 6000 NSC 28/23 Q1006 A2973 HR76 FU CI=@CAELT@
ZPX0637 082253@CAELT@GG SLZZYMYT@CAELT@082253 SLSAYGYS@CAELT@SABO SLSA 082300@CAELT@METAR SLSA 082300Z 00000KT 6000 NSC 28/23 Q1006 A2973 HR76 FU CI=@CAELT@
ZPX0639 082255@CAELT@GG SLZZYMYT@CAELT@082255 SLVRYGYS@CAELT@SABO SLVR 082300@CAELT@METAR SLVR 082300Z 36003KT 6000 FEW030CB BKN200 29/19 Q1008 A2977@CAELT@HR56 FU CB NW NOSIG=@CAELT@METAR SLSI 082300Z 00000KT 5000 FU SCT020 BKN200 29/22 Q1009 A2980@CAELT@HR62 RWY NML=@CAELT@METAR SLRB 082309Z 00000KT 8000 FEW020 34/21 Q1008 A2977 HR47 FU RWYNNL=METAR SLCA 082300Z 36005KT 3000 FU NSC 32/13 Q1008 A2977 HR32 RWY NML
ZPX0641 082255@CAELT@GG SLZZYMYT@CAELT@082256 SLVRYGYZ@CAELT@SABO SLVR 082300@CAELT@METAR SLVR 082300Z 36003KT 6000 FEW030CB BKN200 29/19 Q1008 A2977@CAELT@HR56 FU CB NW NOSIG=@CAELT@
ZPX0642 082256@CAELT@GG SLZZYMYT@CAELT@082255 SLCBYGYZ@CAELT@SABO SLCB 082300@CAELT@METAR SLCB 082300Z 01006KT 9999 FEW040 23/04 Q1021 A3017 748.8 HR29@CAELT@FU NOSIG=@CAELT@
ZPX0643 082256@CAELT@GG SLZZYMYT@CAELT@082256 SLTRYGYZ@CAELT@SABO SLTR 082300@CAELT@METAR SLTR 082300Z 04008KT 5000 FU NSC 29/23 Q1007 A2975 989.0 HR69@CAELT@CI NOSIG=@CAELT@
ZPX0644 082257@CAELT@GG SLLPZRZX@CAELT@082255 SLLPYGYZ@CAELT@SABO SLLP 082300@CAELT@METAR SLLP 082300Z 14004KT 9999 FEW017 FEW020CB SCT200 13/M06 Q1037@CAELT@A3064 627.7 HR28 CB S/SW AC FU NOSIG=@CAELT@
ZPX0647 082259@CAELT@GG SLZZYMYT@CAELT@082258 SLSBYSYX@CAELT@SABO SLSB 082300@CAELT@METAR SLSB 082300Z 00000KT 5000 FU NSC 32/23 Q1006 A2972 HR59 RWY NML=@CAELT@
ZPX0649 082301@CAELT@GG SLZZYMYT@CAELT@082300 SLTRYGYS@CAELT@SABO SLTR 082300@CAELT@METAR SLTR 082300Z 04008KT 5000 FU NSC 29/23 Q1007 A2975 989.0 HR69@CAELT@CI NOSIG=@CAELT@METAR SLRI 082300Z 00000KT 7000 VCSH SCT017 FEW020CB BKN200 27/25@CAELT@Q1008 A2979 HR92 CB/SH N/NE/E/SW=@CAELT@METAR SLSA 082300Z 00000KT 6000 NSC 28/23 Q1006 A2973 HR76 FU CI=
ZPX0651 082302@CAELT@GG SLZZYMYT@CAELT@082302 SLTRYGYS@CAELT@SABO SLTR 082300 CCA@CAELT@METAR SLTR 082300Z 04008KT 5000 FU NSC 29/23 Q1007 A2975 989.0 HR69@CAELT@CI NOSIG=@CAELT@METAR COR SLRI 082300Z 00000KT 7000 VCSH SCT017 FEW020CB BKN200 26/25@CAELT@Q1008 A2979 HR92 CB/SH N/NE/E/SW=@CAELT@METAR SLSA 082300Z 00000KT 6000 NSC 28/23 Q1006 A2973 HR76 FU CI=
ZPX0655 082310@CAELT@GG SLZZYMYT@CAELT@082310 SLLPYFYA@CAELT@SABO SLLP 082300@CAELT@METAR SLLP 082300Z 14004KT 9999 FEW017 FEW020CB SCT200 13/M06 Q1037@CAELT@A3064 627.7 HR28 CB S/SW AC FU NOSIG=@CAELT@METAR SLSB 082300Z 00000KT 5000 FU NSC 32/23 Q1006 A2972 HR59 RWY NML=@CAELT@
ZPX0665 082355@CAELT@GG SLZZYMYT@CAELT@082356 SLVRYGYZ@CAELT@SABO SLVR 090000@CAELT@METAR SLVR 090000Z 04007KT 6000 NSC 26/18 Q1010 A2983 HR62 FU CI@CAELT@NOSIG=@CAELT@
ZPX0666 082357@CAELT@GG SLZZYMYT@CAELT@082356 SLCBYGYZ@CAELT@SABO SLCB 090000@CAELT@METAR SLCB 090000Z 19006KT 9999 FEW040 20/06 Q1023 A3022 750.0 HR40@CAELT@FU NOSIG=@CAELT@
