
ZPX0010 030055@CAELT@GG SLZZYMYT@CAELT@030056 SLVRYGYZ@CAELT@SABO SLVR 030100@CAELT@METAR SLVR 030100Z 01004KT 9999 NSC 25/21 Q1009 A2980 HR75 NOSIG=@CAELT@
ZPX0011 030056@CAELT@GG SLLPZRZX@CAELT@030057 SLLPYGYZ@CAELT@SABO SLLP 030100@CAELT@METAR SLLP 030100Z 09007KT 9999 FEW015 FEW017CB BKN200 07/01@CAELT@Q1037 A3065 627.8 HR66 CB/LT DIST/SW AC NOSIG=@CAELT@
ZPX0012 030058@CAELT@GG SLZZYMYT@CAELT@030058 SLCBYGYZ@CAELT@SABO SLCB 030100@CAELT@METAR SLCB 030100Z 12006KT 9999 FEW036 BKN200 20/06 Q1023 A3022 750.2@CAELT@HR39 FU AC NOSIG=@CAELT@
ZPX0013 030059@CAELT@GG SLZZYMYT@CAELT@030059 SLCBYGYS@CAELT@SABO SLCB 030100@CAELT@METAR SLCB 030100Z 12006KT 9999 FEW036 BKN200 20/06 Q1023 A3022 750.2@CAELT@HR39 FU AC NOSIG=@CAELT@
ZPX0020 030155@CAELT@GG SLZZYMYT@CAELT@030155 SLVRYGYZ@CAELT@SABO SLVR 030200@CAELT@METAR SLVR 030200Z 36005KT 9999 NSC 26/21 Q1009 A2981 HR75 NOSIG=@CAELT@
ZPX0021 030156@CAELT@GG SLLPZRZX@CAELT@030157 SLLPYGYZ@CAELT@SABO SLLP 030200@CAELT@METAR SLLP 030200Z 06005KT 9999 FEW015 FEW017CB BKN200 04/00@CAELT@Q1037 A3065 627.9 HR74 CB/LT DIST/SW AC NOSIG=@CAELT@
ZPX0022 030158@CAELT@GG SLZZYMYT@CAELT@030157 SLCBYGYZ@CAELT@SABO SLCB 030200@CAELT@METAR SLCB 030200Z 12007KT 9999 FEW036 SCT080 BKN200 20/05 Q1024@CAELT@A3025 751.0 HR38 FU NOSIG=@CAELT@
ZPX0023 030158@CAELT@GG SLZZYMYT@CAELT@030158 SLCBYGYS@CAELT@SABO SLCB 030200@CAELT@METAR SLCB 030200Z 12007KT 9999 FEW036 SCT080 BKN200 20/05 Q1024@CAELT@A3025 751.0 HR38 FU NOSIG=@CAELT@
ZPX0032 030255@CAELT@GG SLZZYMYT@CAELT@030255 SLCBYGYZ@CAELT@SABO SLCB 030300@CAELT@METAR SLCB 030300Z 14004KT 9999 FEW036 SCT080 BKN200 20/06 Q1025@CAELT@A3028 751.6 HR40 FU NOSIG=@CAELT@
ZPX0033 030256@CAELT@GG SLZZYMYT@CAELT@030257 SLVRYGYZ@CAELT@SABO SLVR 030300@CAELT@METAR SLVR 030300Z 34005KT 9999 NSC 25/21 Q1009 A2982 HR78 NOSIG=@CAELT@
ZPX0034 030257@CAELT@GG SLLPZRZX@CAELT@030257 SLLPYGYZ@CAELT@SABO SLLP 030300@CAELT@METAR SLLP 030300Z VRB02KT 9999 FEW015 FEW017CB BKN200 06/01@CAELT@Q1038 A3067 628.3 HR70 CB/LT DIST/SW AC NOSIG=@CAELT@
ZPX0035 030259@CAELT@GG SLZZYMYT@CAELT@030258 SLCBYGYS@CAELT@SABO SLCB 030300@CAELT@METAR SLCB 030300Z 14004KT 9999 FEW036 SCT080 BKN200 20/06 Q1025@CAELT@A3028 751.6 HR40 FU NOSIG=@CAELT@
ZPX0042 030354@CAELT@GG SLZZYMYT@CAELT@030355 SLVRYGYZ@CAELT@SABO SLVR 030400@CAELT@METAR SLVR 030400Z 32006KT 9999 NSC 25/21 Q1009 A2982 HR80 NOSIG=@CAELT@
ZPX0043 030357@CAELT@GG SLLPZRZX@CAELT@030357 SLLPYGYZ@CAELT@SABO SLLP 030400@CAELT@METAR SLLP 030400Z 07005KT 9999 FEW007 BKN200 04/02 Q1038@CAELT@A3068 628.6 HR85 AC NOSIG=@CAELT@
ZPX0044 030357@CAELT@GG SLZZYMYT@CAELT@030357 SLCBYGYZ@CAELT@SABO SLCB 030400@CAELT@METAR SLCB 030400Z 13007KT 9999 FEW036 SCT080 BKN200 19/07 Q1025@CAELT@A3028 751.7 HR45 FU NOSIG=@CAELT@
ZPX0045 030359@CAELT@GG SLZZYMYT@CAELT@030358 SLCBYGYS@CAELT@SABO SLCB 030400@CAELT@METAR SLCB 030400Z 13007KT 9999 FEW036 SCT080 BKN200 19/07 Q1025@CAELT@A3028 751.7 HR45 FU NOSIG=@CAELT@
ZPX0052 030455@CAELT@GG SLLPZRZX@CAELT@030457 SLLPYGYZ@CAELT@SABO SLLP 030500@CAELT@METAR SLLP 030500Z 06004KT 4000E VCFG FEW003 BKN200 04/03 Q1038@CAELT@A3068 628.5 HR95 VCFG NE/E/SE AC NOSIG=@CAELT@
ZPX0053 030456@CAELT@GG SLZZYMYT@CAELT@030455 SLCBYGYZ@CAELT@SABO SLCB 030500@CAELT@METAR SLCB 030500Z 13007KT 9999 FEW036 SCT080 BKN200 19/06 Q1025@CAELT@A3029 752.0 HR44 FU NOSIG=@CAELT@
ZPX0054 030457@CAELT@GG SLZZYMYT@CAELT@030457 SLVRYGYZ@CAELT@SABO SLVR 030500@CAELT@METAR SLVR 030500Z 31006KT 9999 NSC 24/21 Q1009 A2982 HR81 NOSIG=@CAELT@
ZPX0055 030457@CAELT@GG SLZZYMYT@CAELT@030457 SLCBYGYS@CAELT@SABO SLCB 030500@CAELT@METAR SLCB 030500Z 13007KT 9999 FEW036 SCT080 BKN200 19/06 Q1025@CAELT@A3029 752.0 HR44 FU NOSIG=@CAELT@
ZPX0063 030555@CAELT@GG SLZZYMYT@CAELT@030556 SLVRYGYZ@CAELT@SABO SLVR 030600@CAELT@METAR SLVR 030600Z 31004KT 9999 NSC 24/21 Q1009 A2982 HR83 NOSIG=@CAELT@
ZPX0064 030556@CAELT@GG SLLPZRZX@CAELT@030557 SLLPYGYZ@CAELT@SABO SLLP 030600@CAELT@METAR SLLP 030600Z 08006KT 4000E VCFG FEW003 BKN200 03/03 Q1038@CAELT@A3066 628.1 HR98 VCFG NE/E/SE AC NOSIG=@CAELT@
ZPX0065 030557@CAELT@GG SLZZYMYT@CAELT@030557 SLCBYGYZ@CAELT@SABO SLCB 030600@CAELT@METAR SLCB 030600Z 12006KT 9999 FEW036 SCT070 18/06 Q1025 A3028 751.8@CAELT@HR45 FU CI NOSIG=@CAELT@
ZPX0066 030558@CAELT@GG SLZZYMYT@CAELT@030558 SLCBYGYS@CAELT@SABO SLCB 030600@CAELT@METAR SLCB 030600Z 12006KT 9999 FEW036 SCT070 18/06 Q1025 A3028 751.8@CAELT@HR45 FU CI NOSIG=@CAELT@
ZPX0075 030653@CAELT@GG SLZZYMYT@CAELT@030655 SLVRYGYZ@CAELT@SABO SLVR 030700@CAELT@METAR SLVR 030700Z 01004KT 9999 NSC 24/21 Q1009 A2982 HR82 NOSIG=@CAELT@
ZPX0076 030656@CAELT@GG SLLPZRZX@CAELT@030656 SLLPYGYZ@CAELT@SABO SLLP 030700@CAELT@METAR SLLP 030700Z 09006KT 4000E VCFG FEW002 SCT010 BKN200 04/03@CAELT@Q1037 A3065 627.9 HR99 VCFG N/NE/E/SE/S AC NOSIG=@CAELT@
ZPX0077 030657@CAELT@GG SLZZYMYT@CAELT@030657 SLCBYGYZ@CAELT@SABO SLCB 030700@CAELT@METAR SLCB 030700Z 12006KT 9999 FEW036 SCT070 18/07 Q1025 A3028 751.7@CAELT@HR47 FU CI NOSIG=@CAELT@
ZPX0078 030659@CAELT@GG SLZZYMYT@CAELT@030659 SLCBYGYS@CAELT@SABO SLCB 030700@CAELT@METAR SLCB 030700Z 12006KT 9999 FEW036 SCT070 18/07 Q1025 A3028 751.7@CAELT@HR47 FU CI NOSIG=@CAELT@
ZPX0085 030754@CAELT@GG SLZZYMYT@CAELT@030755 SLVRYGYZ@CAELT@SABO SLVR 030800@CAELT@METAR SLVR 030800Z VRB02KT 9999 NSC 23/21 Q1010 A2982 HR86 NOSIG=@CAELT@
ZPX0086 030756@CAELT@GG SLLPZRZX@CAELT@030756 SLLPYGYZ@CAELT@SABO SLLP 030800@CAELT@METAR SLLP 030800Z 08006KT 4000E VCFG FEW002 BKN200 03/03 Q1037@CAELT@A3065 627.8 HR99 VCFG NE/E/SE/S AC NOSIG=@CAELT@
ZPX0087 030757@CAELT@GG SLZZYMYT@CAELT@030757 SLCBYGYZ@CAELT@SABO SLCB 030800@CAELT@METAR SLCB 030800Z 12008KT 9999 SCT036 SCT070 17/07 Q1025 A3028 751.7@CAELT@HR50 FU CI NOSIG=@CAELT@
ZPX0088 030758@CAELT@GG SLZZYMYT@CAELT@030758 SLCBYGYS@CAELT@SABO SLCB 030800@CAELT@METAR SLCB 030800Z 12008KT 9999 SCT036 SCT070 17/07 Q1025 A3028 751.7@CAELT@HR50 FU CI NOSIG=@CAELT@
ZPX0095 030854@CAELT@GG SLZZYMYT@CAELT@030855 SLVRYGYZ@CAELT@SABO SLVR 030900@CAELT@METAR SLVR 030900Z 00000KT 9999 NSC 22/20 Q1010 A2984 HR88 NOSIG=@CAELT@
ZPX0096 030857@CAELT@GG SLLPZRZX@CAELT@030857 SLLPYGYZ@CAELT@SABO SLLP 030900@CAELT@METAR SLLP 030900Z 09007KT 4000E VCFG FEW002 SCT010 BKN200 03/03@CAELT@Q1037 A3065 627.8 HR99 VCFG N/NE/E/SE/S AC NOSIG=@CAELT@
ZPX0098 030901@CAELT@GG SLZZYMYT@CAELT@030857 SLCBYGYZ@CAELT@SABO SLCB 030900@CAELT@METAR SLCB 030900Z 12006KT 9999 FEW033 SCT070 17/06 Q1025 A3029 752.0@CAELT@HR49 FU CI NOSIG=@CAELT@
ZPX0099 030902@CAELT@GG SLZZYMYT@CAELT@030902 SLCBYGYS@CAELT@SABO SLCB 030900@CAELT@METAR SLCB 030900Z 12006KT 9999 FEW033 SCT070 17/06 Q1025 A3029 752.0@CAELT@HR49 FU CI NOSIG=@CAELT@
ZPX0105 030953@CAELT@GG SLZZYMYT@CAELT@030953 SLRBYGYS@CAELT@SABO SLRB 031000@CAELT@METAR SLRB 031000Z 00000KT 8000 FEW020 24/21 Q1013 A2991 HR82 FU RWY@CAELT@NML=@CAELT@
ZPX0106 030953@CAELT@GG SLZZYMYT@CAELT@030951 SLCAYGYS@CAELT@SABO SLCA 031000@CAELT@METAR SLCA 031000Z 00000KT 8000 NSC 16/10 Q1020 A3012 HR69 FU RWY NML@CAELT@
ZPX0107 030954@CAELT@GG SLZZYMYT@CAELT@030954 SLCOYGYZ@CAELT@SABO SLCO 031000@CAELT@METAR SLCO 031000Z 00000KT 4000 FU FEW080 24/22 Q1010 A2984 983.1@CAELT@HR90=@CAELT@
ZPX0108 030955@CAELT@GG SLZZYMYT@CAELT@030954 SLSBYSYX@CAELT@SABO SLSB 031000@CAELT@METAR SLSB 031000Z 00000KT 8000 NSC 24/23 Q1008 A2979 HR97 FU RWY NML=@CAELT@
ZPX0109 030955@CAELT@GG SLZZYMYT@CAELT@030955 SLVRYGYZ@CAELT@SABO SLVR 031000@CAELT@METAR SLVR 031000Z VRB02KT 8000 SCT070 21/20 Q1011 A2987 HR90 FU@CAELT@NOSIG=@CAELT@
ZPX0110 030955@CAELT@GG SLZZYMYT@CAELT@030953 SLRYYSYX@CAELT@SABO SLRY 031000@CAELT@METAR SLRY 031000Z 00000KT 9999 NSC 22/22 Q1006 A2973 HR98 FU RWY NML@CAELT@
ZPX0111 030955@CAELT@GG SLZZYMYT@CAELT@030953 SLPSZTZX@CAELT@SABO SLPS 031000@CAELT@METAR SLPS 031000Z 00000KT 5000 FU NSC 28/22 Q1010 A2983 HR69=@CAELT@
ZPX0112 030956@CAELT@GG SLZZYMYT@CAELT@030956 SLLPYGYZ@CAELT@SABO SLLP 031000@CAELT@METAR SLLP 031000Z 10009KT 4000E VCFG FEW003 SCT200 03/02 Q1038@CAELT@A3065 628.0 HR95 P92// VCFG NE/E/SE AC NOSIG=@CAELT@
ZPX0113 030958@CAELT@GG SLZZYMYT@CAELT@030957 SLRQYSYX@CAELT@SABO SLRQ 031000@CAELT@METAR SLRQ 031000Z 00000KT 9999 NSC 23/23 Q1009 A2981 HR99=@CAELT@
ZPX0114 030958@CAELT@GG SLZZYMYT@CAELT@030958 SLTRYGYZ@CAELT@SABO SLTR 031000@CAELT@METAR SLTR 031000Z 00000KT 6000 SCT080 24/22 Q1009 A2982 991.3@CAELT@HR87 FU NOSIG=@CAELT@
ZPX0116 031001@CAELT@GG SLZZYMYT@CAELT@031002 SLVRYGYS@CAELT@SABO SLVR 031000@CAELT@METAR SLVR 031000Z VRB02KT 8000 SCT070 21/20 Q1011 A2987 HR90 FU@CAELT@NOSIG=@CAELT@METAR SLET 031000Z NIL=@CAELT@METAR SLAS 031000Z 00000KT 1500 FU NSC 26/23 Q1012 A2989 HR81@CAELT@RWY NML=METAR SLJV 031000Z 00000KT 5000 FU 23/19 Q1011 A1095 HR83 RWY NML=METAR SLCP 031000Z 00000KT 1000 FU OVC070 24/21 Q1015 A2997 HR84METAR SLSI 031000Z 00000KT 5000 FU NSC 23/21 Q1012 A2988 HR93 RWY NMLMETAR SLRB 031000Z 00000KT 8000 FEW020 24/21 Q1013 A2991 HR82FU RWY NML=METAR SLPS 031000Z 00000KT 5000 FU NSC 28/22 Q1010 A2983 HR69=METAR SLCA 031000Z 00000KT 8000 NSC 16/10 Q1020 A3012 HR69
ZPX0118 031005@CAELT@GG SLZZYMYT@CAELT@031005 SLLPYFYA@CAELT@SABO SLLP 031000@CAELT@METAR SLLP 031000Z 10009KT 4000E VCFG FEW003 SCT200 03/02 Q1038@CAELT@A3065 628.0 HR95 P92// VCFG NE/E/SE AC NOSIG=@CAELT@METAR SLCO 031000Z 00000KT 4000 FU FEW080 24/22 Q1010 A2984@CAELT@983.1 HR90=@CAELT@METAR SLRY 031000Z 00000KT 9999 NSC 22/22 Q1006 A2973 HR98 FURWY NML=METAR SLRQ 031000Z 00000KT 9999 NSC 23/23 Q1009 A2981 HR99=METAR SLAP 031000Z 00000KT 9999 NSC 16/13 Q1018 A3008 859.2HR87 AC=METAR SLSB 031000Z 00000KT 8000 NSC 24/23 Q1008 A2979 HR97FU RWY NML=
ZPX0119 031007@CAELT@GG SLZZYMYT@CAELT@031000 SLTRYGYS@CAELT@SABO SLTR 031000@CAELT@METAR SLTR 031000Z 00000KT 6000 SCT080 24/22 Q1009 A2982 991.3@CAELT@HR87 FU NOSIG=@CAELT@METAR SLRI 031000Z 00000KT 9999 SCT080 23/23 Q1010 A2984 HR97=@CAELT@
ZPX0120 031007@CAELT@GG SLZZYMYT@CAELT@031007 SLCBYGYZ@CAELT@SABO SLCB 031000@CAELT@METAR SLCB 031000Z 13007KT 9999 FEW036 SCT070 17/05 Q1026 A3031 752.5@CAELT@HR47 FU CI NOSIG=@CAELT@
ZPX0121 031011@CAELT@GG SLZZYMYT@CAELT@031008 SLETYMYC@CAELT@SABO SLET 031000@CAELT@METAR SLET 031000Z 18008KT 8000 BKN070 23/20 Q1012 A2990 HR83 FU@CAELT@NOSIG=@CAELT@
ZPX0134 031049@CAELT@GG SLZZYMYT@CAELT@031048 SLPSZTZX@CAELT@SABO SLPS 031100@CAELT@METAR SLPS 031100Z 00000KT 5000 FU NSC 29/23 Q1010 A2983 HR66=@CAELT@
ZPX0136 031053@CAELT@GG SLZZYMYT@CAELT@031055 SLVRYGYZ@CAELT@SABO SLVR 031100@CAELT@METAR SLVR 031100Z 16003KT 8000 SCT070 23/20 Q1013 A2992 HR83 FU@CAELT@NOSIG=@CAELT@
ZPX0137 031053@CAELT@GG SLZZYMYT@CAELT@031052 SLETYMYC@CAELT@SABO SLET 031100@CAELT@METAR SLET 031100Z 18008KT 4000 BKN070 26/18 Q1013 A2993 HR60 NOSIG=@CAELT@
ZPX0138 031054@CAELT@GG SLZZYMYT@CAELT@031054 SLCBYGYZ@CAELT@SABO SLCB 031100@CAELT@METAR SLCB 031100Z 11005KT 9999 FEW036 SCT200 16/04 Q1026 A3033 752.9@CAELT@HR44 AC FU NOSIG=@CAELT@
ZPX0139 031054@CAELT@GG SLZZYMYT@CAELT@031053 SLRBYGYS@CAELT@SABO SLRB 031100@CAELT@METAR SLRB 031100Z 00000KT 8000 FEW020 26/22 Q1014 A2994 HR78 FU RWY@CAELT@NML=@CAELT@
ZPX0140 031054@CAELT@GG SLZZYMYT@CAELT@031055 SLVRYGYZ@CAELT@SABO SLVR 031100@CAELT@METAR SLVR 031100Z 16003KT 8000 SCT070 23/20 Q1013 A2992 HR83 FU@CAELT@NOSIG=@CAELT@
ZPX0141 031055@CAELT@GG SLZZYMYT@CAELT@031055 SLCAYGYS@CAELT@SABO SLCA 031100@CAELT@METAR SLCA 031100Z 00000KT 8000 NSC 18/13 Q1020 A3012 HR72 FU RWY NML@CAELT@
ZPX0142 031055@CAELT@GG SLZZYMYT@CAELT@031055 SLCOYGYZ@CAELT@SABO SLCO 031100@CAELT@METAR SLCO 031100Z 00000KT 4000 FU FEW080 25/22 Q1011 A2987 984.2@CAELT@HR87=@CAELT@
ZPX0143 031055@CAELT@GG SLZZYMYT@CAELT@031055 SLSBYSYX@CAELT@SABO SLSB 031100@CAELT@METAR SLSB 031100Z 00000KT 8000 NSC 24/23 Q1009 A2980 HR94 FU RWY NML=@CAELT@
ZPX0144 031056@CAELT@GG SLZZYMYT@CAELT@031055 SLRQYSYX@CAELT@SABO SLRQ 021100@CAELT@METAR SLRQ 021100Z 00000KT 9999 NSC 24/24 Q1010 A2984 HR98 CI=@CAELT@
ZPX0145 031056@CAELT@GG SLZZYMYT@CAELT@031055 SLETYMYC@CAELT@SABO SLET 031100 CCA@CAELT@METAR SLET 031100Z 18008KT 4000 FU BKN070 26/18 Q1013 A2993 HR60@CAELT@NOSIG=@CAELT@COR 4000 FU@CAELT@
ZPX0146 031056@CAELT@GG SLZZYMYT@CAELT@031056 SLLPYGYZ@CAELT@SABO SLLP 031100@CAELT@METAR SLLP 031100Z 10006KT 4000E VCFG FEW003 SCT010 03/03 Q1038@CAELT@A3066 628.2 HR99 PINV/ VCFG N/NE/E/SE AC/CI NOSIG=@CAELT@
ZPX0147 031056@CAELT@GG SLZZYMYT@CAELT@031056 SLTRYGYZ@CAELT@SABO SLTR 031100@CAELT@METAR SLTR 031100Z 00000KT 5000 FU FEW080 24/22 Q1011 A2984 992.1@CAELT@HR90 NOSIG=@CAELT@
ZPX0148 031058@CAELT@GG SLZZYMYT@CAELT@031058 SLVRYGYS@CAELT@SABO SLVR 031100@CAELT@METAR SLVR 031100Z 16003KT 8000 SCT070 23/20 Q1013 A2992 HR83 FU@CAELT@NOSIG=@CAELT@METAR SLET 031100Z 18008KT 4000 FU BKN070 26/18 Q1013 A2993 HR60@CAELT@METAR SLAS 031100Z 00000KT 1500 FU NSC 27/23 Q1013 A2291 HR77 RWY NML@CAELT@METAR SLJV 031100Z 00000KT 5000 FU NSC 24/20 Q1011 A2985 HR85 RWY NMLMETAR SLCP 031100Z 00000KT 1000 FU BKN070 24/21 Q1015 A2997 HR83RWY NML=METAR SLSI 031100Z 00000KT 4000 FU NSC 24/22 Q1012 A2988 HR86 RWY NMLMETAR SLTI 031100Z 00000KT 9999 NSC 24/20 Q1015 A2997 HR77 RWY NML=METAR SLJE 031100Z 00000KT 4000 FU NSC 25/22 Q1014 A2994 HR80 RWY NMLMETAR SLVG 031100Z 00000KT 9999 NSC 14/07 Q1026 A3030 HR56 RWY NML=METAR SLRB 031100Z 00000KT 8000 FEW020 26/22 Q1014 A2994 HR78FU RWY NML=METAR SLPS 031100Z 00000KT 5000 FU NSC 29/23 Q1010 A2983 HR66=METAR SLCA 031100Z 00000KT 8000 NSC 18/13 Q1020 A3012 HR72
ZPX0149 031058@CAELT@GG SLZZYMYT@CAELT@031057 SLRYYSYX@CAELT@SABO SLRY 031100@CAELT@METAR SLRY 031100 00000KT 9999 FEW080 23/23 Q1007 A2975 HR97 FU RWY@CAELT@NML=@CAELT@
ZPX0151 031101@CAELT@GG SLZZYMYT@CAELT@031100 SLTRYGYS@CAELT@SABO SLTR 031100@CAELT@METAR SLTR 031100Z 00000KT 5000 FU FEW080 24/22 Q1011 A2984 992.1@CAELT@HR90 NOSIG=@CAELT@METAR SLRI 031100Z 00000KT 7000 SCT080 23/23 Q1011 A2986 HR97 FU=@CAELT@
ZPX0153 031104@CAELT@GG SLZZYMYT@CAELT@031101 SLLPYFYA@CAELT@SABO SLLP 031100@CAELT@METAR SLLP 031100Z 10006KT 4000E VCFG FEW003 SCT010 03/03 Q1038@CAELT@A3066 628.2 HR99 PINV/ VCFG N/NE/E/SE AC/CI NOSIG=@CAELT@METAR SLCO 031100Z 00000KT 4000 FU FEW080 25/22 Q1011 A2987 984.2@CAELT@HR87=@CAELT@METAR SLRY 031100Z 00000KT 9999 FEW080 23/23 Q1007 A2975 HR97 FU RWYNML=METAR SLRQ 021100Z 00000KT 9999 NSC 24/24 Q1010 A2984 HR98 CI=METAR SLAP 031100Z 00000KT 9999 NSC 16/14 Q1019 A3011 860.1 HR86 AC=METAR SLSB 031100Z 00000KT 8000 NSC 24/23 Q1009 A2980 HR94 FU RWY NML
ZPX0176 031153@CAELT@GG SLZZYMYT@CAELT@031153 SLRBYGYS@CAELT@SABO SLRB 031200@CAELT@METAR SLRB 031200Z 00000KT 8000 FEW070 29/24 Q1014 A2994 HR73 FU RWY@CAELT@NML=@CAELT@
ZPX0177 031154@CAELT@GG SLZZYMYT@CAELT@031152 SLPSZTZX@CAELT@SABO SLPS 031200@CAELT@METAR SLPS 031200Z 00000KT 5000 FU NSC 33/23 Q1011 A2986 HR57=@CAELT@
ZPX0179 031154@CAELT@GG SLZZYMYT@CAELT@031154 SLSAYGYS@CAELT@SABO SLSA 031200@CAELT@METAR SLSA 031200Z 00000KT 7000 BKN080 26/22 Q1011 A2986 HR81 FU=@CAELT@
ZPX0180 031154@CAELT@GG SLZZYMYT@CAELT@031154 SLCBYGYZ@CAELT@SABO SLCB 031200@CAELT@METAR SLCB 031200Z 10005KT 9999 FEW036 SCT200 19/03 Q1027 A3035 753.5@CAELT@HR34 AC FU NOSIG=@CAELT@
ZPX0181 031154@CAELT@GG SLZZYMYT@CAELT@031153 SLRYYSYX@CAELT@SABO SLRY 031200@CAELT@METAR SLRY 031200Z 00000KT 9999 FEW080 26/24 Q1007 A2976 HR89 FU RWY@CAELT@NML=@CAELT@
ZPX0182 031154@CAELT@GG SLZZYMYT@CAELT@031154 SLSBYSYX@CAELT@SABO SLSB 031200@CAELT@METAR SLSB 031200Z 00000KT 6000 NSC 27/24 Q1010 A2985 HR82 FU RWY NML=@CAELT@
ZPX0183 031155@CAELT@GG SLZZYMYT@CAELT@031155 SLTJYGYZ@CAELT@SABO SLTJ 031200@CAELT@METAR SLTJ 031200Z 00000KT 8000 NSC 18/09 Q1022 A3020 817.3 HR55 FU@CAELT@
ZPX0184 031155@CAELT@GG SLZZYMYT@CAELT@031155 SLTRYGYZ@CAELT@SABO SLTR 031200@CAELT@METAR SLTR 031200Z 00000KT 5000 FU FEW080 26/23 Q1011 A2988 993.3@CAELT@HR83 NOSIG=@CAELT@
ZPX0185 031155@CAELT@GG SLZZYMYT@CAELT@031155 SLCOYGYZ@CAELT@SABO SLCO 031200@CAELT@METAR SLCO 031200Z 32003KT 5000 FU SCT080 26/23 Q1012 A2990 985.2@CAELT@HR87=@CAELT@
ZPX0186 031155@CAELT@GG SLZZYMYT@CAELT@031155 SLLPYGYZ@CAELT@SABO SLLP 031200@CAELT@METAR SLLP 031200Z 11007KT 6000 FEW004 SCT012 05/03 Q1039 A3070@CAELT@629.0 HR88 P92// VIS RED/ST BJOS N/NE/E/SE AC/CI NOSIG=@CAELT@
ZPX0187 031156@CAELT@GG SLZZYMYT@CAELT@031155 SLRQYSYX@CAELT@SABO SLRQ 031200@CAELT@METAR SLRQ 031200Z 00000KT 9999 NSC 26/24 Q1011 A2987 HR89 CC=@CAELT@
ZPX0188 031156@CAELT@GG SLZZYMYT@CAELT@031133 SLETYMYC@CAELT@SABO SLET 031200@CAELT@METAR SLET 031200Z 17014KT 4000 FU BKN070 28/14 Q1014 A2996 HR44@CAELT@NOSIG=@CAELT@
ZPX0191 031158@CAELT@GG SLZZYMYT@CAELT@031158 SLCAYGYS@CAELT@SABO SLCA 031200@CAELT@METAR SLCA 031200Z 00000KT 8000 NSC 23/15 Q1021 A3015 HR65 FU RWY NML@CAELT@
ZPX0193 031158@CAELT@GG SLZZYMYT@CAELT@031158 SLTRYGYS@CAELT@SABO SLTR 031200@CAELT@METAR SLTR 031200Z 00000KT 5000 FU FEW080 26/23 Q1011 A2988 993.3@CAELT@HR83 NOSIG=@CAELT@METAR SLRI 031200Z 36005KT 5000 FU BKN070 25/22 Q1012 A2990 HR82 CI=@CAELT@METAR SLSA 031200Z 00000KT 7000 BKN080 26/22 Q1011 A2986 HR81 FU=@CAELT@
ZPX0194 031159@CAELT@GG SLZZYMYT@CAELT@031200 SLVRYGYS@CAELT@SABO SLVR 031200@CAELT@METAR SLVR 031200Z 18009KT 8000 SCT070 28/17 Q1014 A2995 HR51 FU@CAELT@NOSIG=@CAELT@METAR SLET 031200Z 17014KT 4000 FU BKN070 28/14 Q1014 A2996 HR44@CAELT@METAR SLAS 031200Z 00000KT 1500 FU BKN070 29/23 Q1013 A2991 HR71@CAELT@RWY NML=METAR SLJV 031200Z 36010KT 4000 FU NSC 27/19 Q1012 A2988 HR64 RWY NMLMETAR SLCP 031200Z 00000KT 2000 FU NSC 26/22 Q1016 A3000 HR77 RWY NMLMETAR SLSI 031200Z 00000KT 4000 FU NSC 25/22 Q1013 A2991 HR82 RWY NMLMETAR SLTI 031200Z 00000KT 9999 NSC 28/20 Q1015 A2997 HR62 RWY NML=METAR SLJE 031200Z 00000KT 4000 FU NSC 30/21 Q1015 A2997 HR61 RWY NMLMETAR SLVG 031200Z 00000KT 9999 NSC 18/08 Q1027 A3033 HR49 RWY NML=METAR SLRB 031200Z 00000KT 8000 FEW070 29/24 Q1014 A2994 HR73FU RWY NML=METAR SLPS 031200Z 00000KT 5000 FU NSC 33/23 Q1011 A2986 HR57=METAR SLCA 031200Z 00000KT 8000 NSC 23/15 Q1021 A3015 HR65
ZPX0199 031202@CAELT@GG SLZZYMYT@CAELT@031201 SLTRYGYS@CAELT@SABO SLTR 031200 RRA@CAELT@METAR SLTR 031200Z 00000KT 5000 FU FEW080 26/23 Q1011 A2988 993.3@CAELT@HR83 NOSIG=@CAELT@METAR RTD SLGM 031200Z 00000KT 3000 VCSH FU BKN015 FEW020CB BKN070@CAELT@26/23 Q1011 A2987 HR86 CB/SH NE/E=@CAELT@METAR SLRI 031200Z 36005KT 5000 FU BKN070 25/22 Q1012 A2990 HR82 CI=METAR SLSA 031200Z 00000KT 7000 BKN080 26/22 Q1011 A2986 HR81 FU=
ZPX0202 031204@CAELT@GG SLZZYMYT@CAELT@031201 SLLPYFYA@CAELT@SABO SLLP 031200@CAELT@METAR SLLP 031200Z 11007KT 6000 FEW004 SCT012 05/03 Q1039 A3070@CAELT@629.0 HR88 P92// VIS RED/ST BJOS N/NE/E/SE AC/CI NOSIG=@CAELT@METAR SLCO 031200Z 32003KT 5000 FU SCT080 26/23 Q1012 A2990 985.2@CAELT@HR87=@CAELT@METAR SLRY 031200Z 00000KT 9999 FEW080 26/24 Q1007 A2976 HR89 FU RWYNML=METAR SLRQ 031200Z 00000KT 9999 NSC 26/24 Q1011 A2987 HR89 CC=METAR SLSB 031200Z 00000KT 6000 NSC 27/24 Q1010 A2985 HR82 FU RWY NMLMETAR SLAP 031200Z 00000KT 9999 NSC 19/16 Q1020 A3013 860.5 HR85=
ZPX0203 031205@CAELT@GG SLZZYMYT@CAELT@031202 SLCBYGYS@CAELT@SABO SLCB 031200@CAELT@METAR SLCB 031200Z 10005KT 9999 FEW036 SCT200 19/03 Q1027 A3035 753.5@CAELT@HR34 AC FU NOSIG=@CAELT@METAR SLAL 031200Z 00000KT 9999 NSC 14/08 Q1032 A3050 706.2 HR71=@CAELT@METAR SLTJ 031200Z 00000KT 8000 NSC 18/09 Q1022 A3020 817.3 HR55 FU@CAELT@
ZPX0229 031251@CAELT@GG SLZZYMYT@CAELT@031252 SLVRYGYZ@CAELT@SABO SLVR 031300@CAELT@METAR SLVR 031300Z 18016G28KT 7000 FEW070 30/15 Q1014 A2995 HR41 FU@CAELT@NOSIG=@CAELT@
ZPX0231 031254@CAELT@GG SLZZYMYT@CAELT@031254 SLCBYGYZ@CAELT@SABO SLCB 031300@CAELT@METAR SLCB 031300Z 18004KT 9999 FEW036 22/05 Q1028 A3037 754.0 HR33@CAELT@FU CI NOSIG=@CAELT@
ZPX0232 031254@CAELT@GG SLZZYMYT@CAELT@031253 SLCAYGYS@CAELT@SABO SLCA 031300@CAELT@METAR SLCA 031300Z 18005KT 8000 NSC 24/13 Q1021 A3015 HR51 FU RWY NML@CAELT@
ZPX0234 031254@CAELT@GG SLZZYMYT@CAELT@031253 SLRBYGYS@CAELT@SABO SLRB 031300@CAELT@METAR SLRB 031300Z 00000KT 8000 FEW070 31/23 Q1016 A3000 HR63 FU RWY@CAELT@NML=@CAELT@
ZPX0236 031255@CAELT@GG SLZZYMYT@CAELT@031254 SLSAYGYS@CAELT@SABO SLSA 031300@CAELT@METAR SLSA 031300Z 00000KT 7000 BKN080 29/22 Q1011 A2988 HR66 FU=@CAELT@
ZPX0237 031255@CAELT@GG SLZZYMYT@CAELT@031255 SLRQYSYX@CAELT@SABO SLRQ 031300@CAELT@METAR SLRQ 031300Z 00000KT 9999 NSC 29/25 Q1012 A2990 HR78 CC=@CAELT@
ZPX0238 031255@CAELT@GG SLZZYMYT@CAELT@031255 SLLPYGYZ@CAELT@SABO SLLP 031300@CAELT@METAR SLLP 031300Z 11008KT 9999 FEW008 SCT015 08/04 Q1040 A3073@CAELT@629.7 HR74 P93// CI NOSIG=@CAELT@
ZPX0239 031255@CAELT@GG SLZZYMYT@CAELT@031254 SLETYMYC@CAELT@SABO SLET 031300@CAELT@METAR SLET 031300Z 17015G27KT 5000 FU SCT070 29/13 Q1015 A2998 HR38@CAELT@NOSIG=@CAELT@
ZPX0241 031257@CAELT@GG SLZZYMYT@CAELT@031257 SLTRYGYZ@CAELT@SABO SLTR 031300@CAELT@METAR SLTR 031300Z 32006KT 5000 FU FEW080 29/23 Q1012 A2990 994.1@CAELT@HR72 NOSIG=@CAELT@
ZPX0242 031257@CAELT@GG SLZZYMYT@CAELT@031258 SLVRYGYS@CAELT@SABO SLVR 031300@CAELT@METAR SLVR 031300Z 18016G28KT 7000 FEW070 30/15 Q1014 A2995 HR41 FU@CAELT@NOSIG=@CAELT@METAR SLET 031300Z 17015G27KT 5000 FU SCT070 29/13 Q1015 A2998 HR38@CAELT@METAR SLAS 031300Z 00000KT 1200 FU BKN070 30/24 Q1014 A2994 HR69 RWY@CAELT@NML=METAR SLJV 031300Z 36010KT 4000 FU NSC 28/20 Q1012 A2988 HR61 RWY NMLMETAR SLCP 031300Z 00000KT 4000 FU NSC 30/22 Q1017 A3003 HR62 RWY NMLMETAR SLSI 031300Z 33005KT 5000 FU NSC 29/22 Q1014 A2994 HR66 RWY NMLMETAR SLTI 031300Z 00000KT 9999 NSC 32/20 Q1016 A3000 HR50 RWY NML=METAR SLJE 031300Z 00000KT 4000 FU NSC 34/23 Q1016 A3000 HR55 RWY NMLMETAR SLVG 031300Z 02004KT 9999 NSC 22/11 Q1027 A3033 HR47 FU RWY NMLMETAR SLRB 031300Z 00000KT 8000 FEW070 31/23 Q1016 A3000 HR63 FU RWYMETAR SLPS 031300Z 27010KT 5000 FU NSC 35/23 Q1011 A2986 HR49=METAR SLCA 031300Z 18005KT 8000 NSC 24/13 Q1021 A3015 HR51 FU RWY NML=
ZPX0244 031258@CAELT@GG SLZZYMYT@CAELT@031257 SLSBYSYX@CAELT@SABO SLSB 031300@CAELT@METAR SLSB 031300Z 00000KT 6000 NSC 30/24 Q1011 A2987 HR73 FU RWY NML@CAELT@
ZPX0245 031258@CAELT@GG SLZZYMYT@CAELT@031255 SLRYYSYX@CAELT@SABO SLRY 031300@CAELT@METAR SLRY 031300Z 00000KT 9999 NSC 30/25 Q1009 A2980 HR75 FU RWY NML=@CAELT@
ZPX0246 031259@CAELT@GG SLZZYMYT@CAELT@031259 SLCOYGYZ@CAELT@SABO SLCO 031300@CAELT@METAR SLCO 031300Z 32004KT 6000 SCT080 27/24 Q1013 A2993 986.2 HR84@CAELT@
ZPX0248 031301@CAELT@GG SLZZYMYT@CAELT@031300 SLCBYGYS@CAELT@SABO SLCB 031300@CAELT@METAR SLCB 031300Z 18004KT 9999 FEW036 22/05 Q1028 A3037 754.0 HR33@CAELT@FU CI NOSIG=@CAELT@METAR SLAL 031300Z 00000KT 9999 NSC 15/09 Q1033 A3052 706.8 HR66=@CAELT@
ZPX0249 031301@CAELT@GG SLZZYMYT@CAELT@031259 SLLPYFYA@CAELT@SABO SLLP 031300@CAELT@METAR SLLP 031300Z 11008KT 9999 FEW008 SCT015 08/04 Q1040 A3073@CAELT@629.7 HR74 P93// CI NOSIG=@CAELT@METAR SLCO 031300Z 32004KT 6000 SCT080 27/24 Q1013 A2993 986.2@CAELT@HR84 FU=@CAELT@METAR SLRY 031300Z 00000KT 9999 NSC 30/25 Q1009 A2980 HR75FU RWY NML=METAR SLRQ 031300Z 00000KT 9999 NSC 29/25 Q1012 A2990 HR78 CC=METAR SLAP 031300Z 00000KT 9999 NSC 23/17 Q1021 A3017 861.9HR70=METAR SLSB 031300Z 00000KT 6000 NSC 30/24 Q1011 A2987 HR73 FURWY NML=
ZPX0250 031302@CAELT@GG SLZZYMYT@CAELT@031301 SLTRYGYS@CAELT@SABO SLTR 031300@CAELT@METAR SLTR 031300Z 32006KT 5000 FU FEW080 29/23 Q1012 A2990 994.1@CAELT@HR72 NOSIG=@CAELT@METAR SLGM 031300Z 03006KT 5000 FU BKN015 FEW020CB BKN070 27/23 Q1012@CAELT@A2989 HR80 CB NE=@CAELT@METAR SLRI 031300Z 36005KT 5000 FU BKN070 26/24 Q1014 A2994 HR88=METAR SLJO 031300Z 34006KT 6000 SCT080 29/22 Q1012 A2989 HR70 FURWY NML=METAR SLRA 031300ZMETAR SLMG 031300Z 32004KT 8000 FEW020 BKN080 29/22 Q1011 A2986 HR66METAR SLBU 021300Z NIL=METAR SLSA 031300Z 00000KT 7000 BKN080 29/22 Q1011 A2988 HR66 FU=METAR SLSR 031300Z NIL=METAR SLSM 031300Z NIL=
ZPX0251 031302@CAELT@GG SLZZYMYT@CAELT@031301 SLTRYGYS@CAELT@SABO SLTR 031300@CAELT@METAR SLTR 031300Z 32006KT 5000 FU FEW080 29/23 Q1012 A2990 994.1@CAELT@HR72 NOSIG=@CAELT@METAR SLGM 031300Z 03006KT 5000 FU BKN015 FEW020CB BKN070 27/23 Q1012@CAELT@A2989 HR80 CB NE=@CAELT@METAR SLRI 031300Z 36005KT 5000 FU BKN070 26/24 Q1014 A2994 HR88=METAR SLJO 031300Z 34006KT 6000 SCT080 29/22 Q1012 A2989 HR70 FURWY NML=METAR SLRA 031300Z NIL=METAR SLMG 031300Z 32004KT 8000 FEW020 BKN080 29/22 Q1011 A2986 HR66METAR SLBU 021300Z NIL=METAR SLSA 031300Z 00000KT 7000 BKN080 29/22 Q1011 A2988 HR66 FU=METAR SLSR 031300Z NIL=METAR SLSM 031300Z NIL=
ZPX0255 031307@CAELT@GG SLZZYMYT@CAELT@031301 SLTRYGYS@CAELT@SABO SLTR 031300 RRA@CAELT@METAR SLTR 031300Z 32006KT 5000 FU FEW080 29/23 Q1012 A2990 994.1@CAELT@HR72 NOSIG=@CAELT@METAR SLGM 031300Z 03006KT 5000 FU BKN015 FEW020CB BKN070 27/23 Q1012@CAELT@A2989 HR80 CB NE=@CAELT@METAR SLRI 031300Z 36005KT 5000 FU BKN070 26/24 Q1014 A2994 HR88=METAR SLJO 031300Z 34006KT 6000 SCT080 29/22 Q1012 A2989 HR70 FURWY NML=METAR RTD SLRA 031300Z 35004KT 8000 FEW020 BKN200 29/22 Q1011 A2988HR65 FU RWY NML=METAR SLMG 031300Z 32004KT 8000 FEW020 BKN080 29/22 Q1011 A2986 HR66METAR SLBU 031300Z NIL=METAR SLSA 031300Z 00000KT 7000 BKN080 29/22 Q1011 A2988 HR66 FU=METAR SLSR 031300Z NIL=METAR SLSM 031300Z NIL=
ZPX0271 031351@CAELT@GG SLZZYMYT@CAELT@031350 SLPSZTZX@CAELT@SABO SLPS 031400@CAELT@METAR SLPS 031400Z 27008KT 5000 FU NSC 37/23 Q1011 A2986 HR44=@CAELT@
ZPX0273 031354@CAELT@GG SLZZYMYT@CAELT@031354 SLCBYGYZ@CAELT@SABO SLCB 031400@CAELT@METAR SLCB 031400Z 15004KT 9999 FEW036 23/06 Q1028 A3037 754.0 HR33@CAELT@FU NOSIG=@CAELT@
ZPX0274 031355@CAELT@GG SLZZYMYT@CAELT@031353 SLETYMYC@CAELT@SABO SLET031400@CAELT@METAR SLET 031400Z 16013G24KT 6000 SCT070 31/13 Q1015 A2997 HR34 FU@CAELT@NOSIG=@CAELT@
ZPX0275 031355@CAELT@GG SLZZYMYT@CAELT@031353 SLRBYGYS@CAELT@SABO SLRB 031400@CAELT@METAR SLRB 031400Z 00000KT 8000 FEW070 34/23 Q1015 A2997 HR55 FU RWY@CAELT@NML=@CAELT@
ZPX0276 031355@CAELT@GG SLZZYMYT@CAELT@031355 SLTRYGYZ@CAELT@SABO SLTR 031400@CAELT@METAR SLTR 031400Z 30006KT 5000 FU FEW080 31/24 Q1012 A2991 994.2@CAELT@HR66 NOSIG=@CAELT@
ZPX0277 031355@CAELT@GG SLZZYMYT@CAELT@031355 SLCOYGYZ@CAELT@SABO SLCO 031400@CAELT@METAR SLCO 031400Z 30006KT 8000 BKN080 29/25 Q1014 A2995 986.6 HR77@CAELT@
ZPX0278 031355@CAELT@GG SLZZYMYT@CAELT@031355 SLSBYSYX@CAELT@SABO SLSB 031400@CAELT@METAR SLSB 031400Z 34003KT 5000 FU NSC 31/24 Q1011 A2987 HR66 RWY NML=@CAELT@
ZPX0279 031356@CAELT@GG SLZZYMYT@CAELT@031356 SLVRYGYZ@CAELT@SABO SLVR 031400@CAELT@METAR SLVR 031400Z 18016KT 7000 FEW070 31/15 Q1014 A2995 HR38 FU NOSI@CAELT@
ZPX0280 031356@CAELT@GG SLZZYMYT@CAELT@031354 SLRYYSYX@CAELT@SABO SLRY 031400@CAELT@METAR SLRY 031400Z 00000KT 9999 NSC 32/25 Q1009 A2982 HR68 FU RWY NML@CAELT@
ZPX0281 031356@CAELT@GG SLZZYMYT@CAELT@031355 SLSAYGYS@CAELT@SABO SLSA 031400@CAELT@METAR SLSA 031400Z 34006KT 7000 BKN080 31/22 Q1012 A2989 HR59 FU=@CAELT@
ZPX0282 031356@CAELT@GG SLZZYMYT@CAELT@031355 SLLPYGYZ@CAELT@SABO SLLP 031400@CAELT@METAR SLLP 031400Z 10008KT 9999 FEW017 11/01 Q1040 A3073 629.7@CAELT@HR51 P93// HZ SW/W CI NOSIG=@CAELT@
ZPX0283 031358@CAELT@GG SLZZYMYT@CAELT@031358 SLCAYGYS@CAELT@SABO SLCA 031400@CAELT@METAR SLCA 031400Z 18005KT 8000 NSC 26/13 Q1021 A3015 HR46 FU RWY NML@CAELT@
ZPX0284 031359@CAELT@GG SLZZYMYT@CAELT@031400 SLVRYGYS@CAELT@SABO SLVR 031400@CAELT@METAR SLVR 031400Z 18016KT 7000 FEW070 31/15 Q1014 A2995 HR38 FU NOSI@CAELT@METAR SLET 031400Z 16013G24KT 6000 SCT070 31/13 Q1015 A2997 HR34 FU@CAELT@NOSIG=@CAELT@METAR SLAS 031400Z 34006KT 1200 FU SCT070 34/25 Q1015 A2997 HR58 RWY@CAELT@NML=METAR SLJV 031400Z 36010KT 3000 FU NSC 29/20 Q1014 A2994 HR60 RWY NMLMETAR SLCP 031400Z 00000KT 5000 FU NSC 32/22 Q1017 A3003 HR59 RWY NMLMETAR SLSI 031400Z 33006KT 6000 NSC 30/22 Q1014 A2994 HR62 FU RWY NMLMETAR SLTI 031400Z 35010KT 9999 NSC 35/19 Q1016 A3000 HR40 RWY NML=METAR SLJE 031400Z 32006KT 4000 FU NSC 36/24 Q1016 A3000 HR52 RWY NMLMETAR SLVG 031400Z 34005KT 9999 NSC 23/11 Q1027 A3033 HR42 FU RWY NMLMETAR SLRB 031400Z 00000KT 8000 FEW070 34/23 Q1015 A2997 HR55 FU RWYMETAR SLPS 031400Z 27008KT 5000 FU NSC 37/23 Q1011 A2986 HR44=METAR SLCA 031400Z 18005KT 8000 NSC 26/13 Q1021 A3015 HR46 FU RWY NML
ZPX0285 031359@CAELT@GG SLZZYMYT@CAELT@031357 SLRQYSYX@CAELT@SABO SLRQ 031400@CAELT@METAR SLRQ 031400Z 00000KT 9999 FEW020 32/26 Q1012 A2990 HR69 CC=@CAELT@
ZPX0287 031400@CAELT@GG SLZZYMYT@CAELT@031401 SLVRYGYS@CAELT@SABO SLVR 031400@CAELT@METAR SLVR 031400Z 18016KT 7000 FEW070 31/15 Q1014 A2995 HR38 FU@CAELT@NOSIG=@CAELT@METAR SLET 031400Z 16013G24KT 6000 SCT070 31/13 Q1015 A2997 HR34 FU@CAELT@METAR SLAS 031400Z 34006KT 1200 FU SCT070 34/25 Q1015 A2997 HR58 RWY@CAELT@NML=METAR SLJV 031400Z 36010KT 3000 FU NSC 29/20 Q1014 A2994 HR60 RWY NMLMETAR SLCP 031400Z 00000KT 5000 FU NSC 32/22 Q1017 A3003 HR59 RWY NMLMETAR SLSI 031400Z 33006KT 6000 NSC 30/22 Q1014 A2994 HR62 FU RWY NMLMETAR SLTI 031400Z 35010KT 9999 NSC 35/19 Q1016 A3000 HR40 RWY NML=METAR SLJE 031400Z 32006KT 4000 FU NSC 36/24 Q1016 A3000 HR52 RWY NMLMETAR SLVG 031400Z 34005KT 9999 NSC 23/11 Q1027 A3033 HR42 FU RWY NMLMETAR SLRB 031400Z 00000KT 8000 FEW070 34/23 Q1015 A2997 HR55 FU RWYMETAR SLPS 031400Z 27008KT 5000 FU NSC 37/23 Q1011 A2986 HR44=METAR SLCA 031400Z 18005KT 8000 NSC 26/13 Q1021 A3015 HR46 FU RWY NML
ZPX0289 031401@CAELT@GG SLZZYMYT@CAELT@031359 SLTRYGYS@CAELT@SABO SLTR 031400@CAELT@METAR SLTR 031400Z 30006KT 5000 FU FEW080 31/24 Q1012 A2991 994.2@CAELT@HR66 NOSIG=@CAELT@METAR SLGM 031400Z 02010KT 5000 FU BKN015 FEW020CB BKN070 29/23@CAELT@Q1013 A2991 HR70 CB NE=@CAELT@METAR SLRI 031400Z 36005KT 7000 BKN070 28/24 Q1014 A2996 HR80 FU=METAR SLJO 031400Z 36006KT 7000 SCT080 30/22 Q1012 A2991 HR63 FURWY NML=METAR SLRA 031400Z 35006KT 8000 FEW020 BKN080 30/22 Q1011 A2988 HR61FU RWY NML=METAR SLMG 031400Z 32004KT 8000 SCT080 BKN200 32/22 Q1011 A2988 HR55METAR SLBU 031400Z NIL=METAR SLSA 031400Z 34006KT 7000 BKN080 31/22 Q1012 A2989 HR59 FU=METAR SLSR 031400Z 35006KT 8000 SCT080 32/23 Q1010 A2984 HR61 FUMETAR SLSM 031400Z NIL=
ZPX0292 031403@CAELT@GG SLZZYMYT@CAELT@031401 SLLPYFYA@CAELT@SABO SLLP 031400@CAELT@METAR SLLP 031400Z 10008KT 9999 FEW017 11/01 Q1040 A3073 629.7@CAELT@HR51 P93// HZ SW/W CI NOSIG=@CAELT@METAR SLCO 031400Z 30006KT 8000 BKN080 29/25 Q1014 A2995 986.6 HR77@CAELT@METAR SLRY 031400Z 00000KT 9999 NSC 32/25 Q1009 A2982 HR68 FU RWY NML@CAELT@METAR SLRQ 031400Z 00000KT 9999 FEW020 32/26 Q1012 A2990 HR69 CC=METAR SLAP 031400Z 00000KT 9999 FEW020 27/16 Q1020 A3014 861.0 HR51=METAR SLSB 031400Z 34003KT 5000 FU NSC 31/24 Q1011 A2987 HR66 RWY NML
ZPX0295 031412@CAELT@GG SLZZYMYT@CAELT@031408 SLCBYGYS@CAELT@SABO SLCB 031400@CAELT@METAR SLCB 031400Z 15004KT 9999 FEW036 23/06 Q1028 A3037 754.0 HR33@CAELT@FU NOSIG=@CAELT@METAR SLAL 031400Z 01010KT 9999 FEW013 16/09 Q1034 A3053 706.9 HR60=@CAELT@
ZPX0315 031455@CAELT@GG SLZZYMYT@CAELT@031451 SLETYMYC@CAELT@SABO SLET 031500@CAELT@METAR SLET 031500Z 16013G24KT 6000 FEW070 33/12 Q1014 A2997 HR28 FU@CAELT@NOSIG=@CAELT@
ZPX0316 031455@CAELT@GG SLZZYMYT@CAELT@031455 SLVRYGYZ@CAELT@SABO SLVR 031500@CAELT@METAR SLVR 031500Z 18015G26KT 8000 FEW070 32/16 Q1014 A2995 HR37 FU@CAELT@NOSIG=@CAELT@
ZPX0317 031455@CAELT@GG SLZZYMYT@CAELT@031455 SLLPYGYZ@CAELT@SABO SLLP 031500@CAELT@METAR SLLP 031500Z 10010KT 9999 FEW017 14/00 Q1040 A3073 629.7@CAELT@HR40 P93// HZ/SW CI NOSIG=@CAELT@
ZPX0318 031455@CAELT@GG SLZZYMYT@CAELT@031455 SLTRYGYZ@CAELT@SABO SLTR 031500@CAELT@METAR SLTR 031500Z 33007KT 5000 FU BKN080 33/24 Q1012 A2991 994.4@CAELT@HR62 NOSIG=@CAELT@
ZPX0319 031455@CAELT@GG SLZZYMYT@CAELT@031455 SLCAYGYS@CAELT@SABO SLCA 031500@CAELT@METAR SLCA 031500Z 18005KT 8000 NSC 28/10 Q1020 A3012 HR34 FU RWY NML@CAELT@
ZPX0320 031455@CAELT@GG SLZZYMYT@CAELT@031453 SLRYYSYX@CAELT@SABO SLRY 031500@CAELT@METAR SLRY 031500Z 00000KT 9999 NSC 33/25 Q1009 A2982 HR62 FU RWY NML@CAELT@
ZPX0321 031455@CAELT@GG SLZZYMYT@CAELT@031455 SLRQYSYX@CAELT@SABO SLRQ 031500@CAELT@METAR SLRQ 031500Z 00000KT 9999 FEW020 34/26 Q1012 A2991 HR63 CC=@CAELT@
ZPX0322 031455@CAELT@GG SLZZYMYT@CAELT@031455 SLCBYGYZ@CAELT@SABO SLCB 031500@CAELT@METAR SLCB 031500Z 15005KT 9999 SCT036 25/05 Q1027 A3035 753.5 HR27@CAELT@FU NOSIG=@CAELT@
ZPX0323 031456@CAELT@GG SLZZYMYT@CAELT@031455 SLSAYGYS@CAELT@SABO SLSA 031500@CAELT@METAR SLSA 031500Z 34008KT 7000 BKN080 33/23 Q1012 A2989 HR56 FU=@CAELT@
ZPX0324 031456@CAELT@GG SLZZYMYT@CAELT@031453 SLRBYGYS@CAELT@SABO SLRB 031500@CAELT@METAR SLRB 031500Z 00000KT 8000 FEW070 36/23 Q1015 A2997 HR48 FU RWY@CAELT@NML=@CAELT@
ZPX0326 031457@CAELT@GG SLZZYMYT@CAELT@031456 SLSBYSYX@CAELT@SABO SLSB 031500@CAELT@METAR SLSB 031500Z 00000KT 5000 FU NSC 33/25 Q1011 A2987 HR63 RWY NML=@CAELT@
ZPX0327 031457@CAELT@GG SLZZYMYT@CAELT@031457 SLCBYGYS@CAELT@SABO SLCB 031500@CAELT@METAR SLCB 031500Z 15005KT 9999 SCT036 25/05 Q1027 A3035 753.5 HR27@CAELT@FU NOSIG=@CAELT@METAR SLAL 031500Z 02016KT 9999 FEW015 18/09 Q1033 A3052 706.8 HR56=@CAELT@
ZPX0328 031457@CAELT@GG SLZZYMYT@CAELT@031457 SLCOYGYZ@CAELT@SABO SLCO 031500@CAELT@METAR SLCO 031500Z 32006KT 9999 FEW025 SCT080 32/25 Q1013 A2994 986.4@CAELT@HR68 FU=@CAELT@
ZPX0330 031458@CAELT@GG SLZZYMYT@CAELT@031456 SLPSZTZX@CAELT@SABO SLPS 031500@CAELT@METAR SLPS 031500Z 30012KT 5000 FU NSC 39/23 Q1011 A2986 HR39=@CAELT@
ZPX0331 031459@CAELT@GG SLZZYMYT@CAELT@031458 SLTRYGYS@CAELT@SABO SLTR 031500@CAELT@METAR SLTR 031500Z 33007KT 5000 FU BKN080 33/24 Q1012 A2991 994.4@CAELT@HR62 NOSIG=@CAELT@METAR SLGM 031500Z 36008KT 5000 FU BKN015 FE020CB BKN080 30/24 Q1013@CAELT@A2992 HR69 CB NE=@CAELT@METAR SLRI 031500Z 36005KT 7000 BKN070 28/24 Q1014 A2908 HR76 FU=METAR SLJO 031500Z 36006KT 7000 FEW020 FEW023CB SCT080 34/22 Q1012A2991 HR59 FU CB SW RWY NML=METAR SLRA 031500Z 35006KT 8000 FEW020 FEW023CB BKN080 33/23 Q1012A2989 HR55 FU CB SW/W RWY NML=METAR SLMG 031500Z 34004KT 8000 SCT080 BKN200 34/20 Q1011 A2988 HR43FU RWY NML=METAR SLBU 031500Z NIL=METAR SLSA 031500Z 34008KT 7000 BKN080 33/23 Q1012 A2989 HR56 FU=METAR SLSR 031500Z 35006KT 8000 BKN080 32/22 Q1011 A2986 HR56 FURWY NML=METAR SLSM 031500Z 33004KT 8000 BKN080 33/24 Q1012 A2990 HR61 FU
ZPX0334 031501@CAELT@GG SLZZYMYT@CAELT@031500 SLVRYGYS@CAELT@SABO SLVR 031500@CAELT@METAR SLVR 031500Z 18015G26KT 8000 FEW070 32/16 Q1014 A2995 HR37 FU@CAELT@NOSIG=@CAELT@METAR SLET 031500Z 16013G24KT 6000 FEW070 33/12 Q1014 A2997 HR28 FU@CAELT@METAR SLAS 031500Z 34004KT 2000 FU NSC 35/24 Q1015 A2997 HR52 RWY NML@CAELT@METAR SLJV 031500Z 36010KT 3000 FU SCT020 34/21 Q1013 A2991 HR48 RWYNML=METAR SLCP 031500Z 00000KT 5000 FU NSC 33/21 Q1017 A3003 HR51 RWY NMLMETAR SLSI 031500Z 36006KT 6000 NSC 33/22 Q1014 A2994 HR52 FU RWY NMLMETAR SLTI 031500Z 35010KT 9999 NSC 37/20 Q1015 A2997 HR37 RWY NML=METAR SLJE 031500Z 32006KT 4000 FU NSC 38/25 Q1016 A3000 HR49 RWY NMLMETAR SLVG 031500Z 34007KT 9999 NSC 25/09 Q1027 A3033 HR33 FU RWY NMLMETAR SLRB 031500Z 00000KT 8000 FEW070 36/23 Q1015 A2997 HR48 FU RWYMETAR SLPS 031500Z 30012KT 5000 FU NSC 39/23 Q1011 A2986 HR39=METAR SLCA 031500Z 18005KT 8000 NSC 28/10 Q1020 A3012 HR34 FU RWY NML
ZPX0335 031501@CAELT@GG SLZZYMYT@CAELT@031500 SLLPYFYA@CAELT@SABO SLLP 031500@CAELT@METAR SLLP 031500Z 10010KT 9999 FEW017 14/00 Q1040 A3073 629.7@CAELT@HR40 P93// HZ/SW CI NOSIG=@CAELT@METAR SLCO 031500Z 32006KT 9999 FEW025 SCT080 32/25 Q1013 A2994 986.4@CAELT@HR68 FU=@CAELT@METAR SLRY 031500Z 00000KT 9999 NSC 33/25 Q1009 A2982 HR62 FU RWY NMLMETAR SLRQ 031500Z 00000KT 9999 FEW020 34/26 Q1012 A2991 HR63 CC=METAR SLAP 031500Z 00000KT 9999 FEW025 28/17 Q1020 A3014 860.9 HR50=METAR SLSB 031500Z 00000KT 5000 FU NSC 33/25 Q1011 A2987 HR63 RWY NML
ZPX0362 031554@CAELT@GG SLZZYMYT@CAELT@031554 SLCBYGYZ@CAELT@SABO SLCB 031600@CAELT@METAR SLCB 031600Z 19007KT 9999 SCT036 26/03 Q1026 A3031 752.6 HR22@CAELT@FU NOSIG=@CAELT@
ZPX0363 031554@CAELT@GG SLZZYMYT@CAELT@031553 SLRBYGYS@CAELT@SABO SLRB 031600@CAELT@METAR SLRB 031600Z 00000KT 8000 FEW070 37/22 Q1014 A2994 HR42 FU RWY@CAELT@NML=@CAELT@
ZPX0364 031554@CAELT@GG SLZZYMYT@CAELT@031554 SLSBYSYX@CAELT@SABO SLSB 031600@CAELT@METAR SLSB 031600Z 29004KT 5000 FU FEW020 34/25 Q1011 A2987 HR58@CAELT@RWY NML=@CAELT@
ZPX0365 031554@CAELT@GG SLZZYMYT@CAELT@031555 SLCOYGYZ@CAELT@SABO SLCO 031600@CAELT@METAR SLCO 031600Z 36008KT 9999 SCT025 32/24 Q1013 A2992 985.8 HR63=@CAELT@
ZPX0366 031555@CAELT@GG SLZZYMYT@CAELT@031555 SLLPYGYZ@CAELT@SABO SLLP 031600@CAELT@METAR SLLP 031600Z 03015G27KT 9999 FEW017 14/M05 Q1040 A3073@CAELT@629.6 HR27 P93// CI NOSIG=@CAELT@
ZPX0367 031555@CAELT@GG SLZZYMYT@CAELT@031553 SLRYYSYX@CAELT@SABO SLRY 031600@CAELT@METAR SLRY 031600Z 34006KT 9999 FEW080 34/25 Q1009 A2982 HR61 FU RWY@CAELT@NML=@CAELT@
ZPX0368 031555@CAELT@GG SLZZYMYT@CAELT@031555 SLCAYGYS@CAELT@SABO SLCA 031600@CAELT@METAR SLCA 031600Z 18005KT 8000 NSC 30/11 Q1018 A3006 HR32 FU RWY NML@CAELT@
ZPX0369 031555@CAELT@GG SLZZYMYT@CAELT@031555 SLTRYGYZ@CAELT@SABO SLTR 031600@CAELT@METAR SLTR 031600Z 34008KT 5000 FU FEW017 BKN080 33/24 Q1012 A2989@CAELT@993.7 HR59 NOSIG=@CAELT@
ZPX0370 031555@CAELT@GG SLZZYMYT@CAELT@031556 SLSAYGYS@CAELT@SABO SLSA 031600@CAELT@METAR SLSA 031600Z 34008KT 7000 VCSH FEW020 FEW023CB BKN080 34/23@CAELT@Q1011 A2987 HR54 FU CB/SH N/NW=@CAELT@
ZPX0371 031556@CAELT@GG SLZZYMYT@CAELT@031555 SLRQYSYX@CAELT@SABO SLRQ 031600@CAELT@METAR SLRQ 031600Z 34004KT 9999 FEW020 35/26 Q1012 A2989 HR60=@CAELT@
ZPX0372 031556@CAELT@GG SLZZYMYT@CAELT@031556 SLVRYGYZ@CAELT@SABO SLVR 031600@CAELT@METAR SLVR 031600Z 17011KT 8000 FEW070 33/15 Q1013 A2992 HR34 FU@CAELT@NOSIG=@CAELT@
ZPX0373 031556@CAELT@GG SLZZYMYT@CAELT@031554 SLETYMYC@CAELT@SABO SLET 031600@CAELT@METAR SLET 031600Z 16012KT 6000 FEW080 34/14 Q1013 A2993 HR30 FU@CAELT@NOSIG=@CAELT@
ZPX0374 031557@CAELT@GG SLZZYMYT@CAELT@031557 SLTRYGYS@CAELT@SABO SLTR 031600@CAELT@METAR SLTR 031600Z 34008KT 5000 FU FEW017 BKN080 33/24 Q1012 A2989@CAELT@993.7 HR59 NOSIG=@CAELT@METAR SLGM 031600Z NIL=@CAELT@METAR SLRI 031600Z 00000KT 7000 BKN080 30/25 Q1013 A2993 HR72 FU=@CAELT@METAR SLJO 031600Z 36005KT 8000 VCSH FEW020 FEW023CB BKN080 25/22Q1012 A2989 HR46 FU CB/SH SW/W RWY NML=METAR SLRA 031600Z 35006KT 8000 SCT020 FEW023CB BKN080 35/22 Q1011A2987 HR49 FU CB SW/W RWY NML=METAR SLMG 031600Z 06004KT 8000 NSC 36/21 Q1011 A2987 HR41 FU CIRWY NML=METAR SLBU 031600Z NIL=METAR SLSA 031600Z 34008KT 7000 VCSH FEW020 FEW023CB BKN080 34/23Q1011 A2987 HR54 FU CB/SH N/NW=METAR SLSR 031600Z 35006KT 8000 BKN080 33/23 Q1010 A2984 HR56 FUMETAR SLSM 031600Z 33004KT 8000 FEW017 SCT080 34/24 Q1011 A2988HR57 FU RWY NML=
ZPX0375 031557@CAELT@GG SLZZYMYT@CAELT@031556 SLPSZTZX@CAELT@SABO SLPS 031600@CAELT@METAR SLPS 031600Z 30006KT 5000 FU NSC 41/24 Q1010 A2983 HR38=@CAELT@
ZPX0377 031558@CAELT@GG SLZZYMYT@CAELT@031558 SLVRYGYS@CAELT@SABO SLVR 031600@CAELT@METAR SLVR 031600Z 17011KT 8000 FEW070 33/15 Q1013 A2992 HR34 FU@CAELT@NOSIG=@CAELT@METAR SLET 031600Z 16012KT 6000 FEW080 34/14 Q1013 A2993 HR30 FU@CAELT@METAR SLAS 031600Z 00000KT 3000 FU FEW020 38/24 Q1014 A2994 HR47 RWY@CAELT@NML=METAR SLCP 031600Z 00000KT 5000 FU FEW020 35/22 Q1016 A3000 HR50 RWYMETAR SLSI 031600Z 00000KT 6000 NSC 36/23 Q1013 A2991 HR50 FU RWY NMLMETAR SLRB 031600Z 00000KT 8000 FEW070 37/22 Q1014 A2994 HR42 FU RWYMETAR SLPS 031600Z 30006KT 5000 FU NSC 41/24 Q1010 A2983 HR38=METAR SLCA 031600Z 18005KT 8000 NSC 30/11 Q1018 A3006 HR32 FU RWY NML=
ZPX0382 031601@CAELT@GG SLZZYMYT@CAELT@031600 SLCBYGYS@CAELT@SABO SLCB 031600@CAELT@METAR SLCB 031600Z 19007KT 9999 SCT036 26/03 Q1026 A3031 752.6 HR22@CAELT@FU NOSIG=@CAELT@METAR SLAL 031600Z 35018KT 9999 FEW017 19/09 Q1033 A3051 706.4 HR52=@CAELT@
ZPX0383 031602@CAELT@GG SLZZYMYT@CAELT@031600 SLLPYFYA@CAELT@SABO SLLP 031600@CAELT@METAR SLLP 031600Z 03015G27KT 9999 FEW017 14/M05 Q1040 A3073@CAELT@629.6 HR27 P93// CI NOSIG=@CAELT@METAR SLCO 031600Z 36008KT 9999 SCT025 32/24 Q1013 A2992 985.8 HR63=@CAELT@METAR SLRY 031600Z 34006KT 9999 FEW080 34/25 Q1009 A2982 HR61 FU RWY@CAELT@NML=METAR SLRQ 031600Z 34004KT 9999 FEW020 35/26 Q1012 A2989 HR60=METAR SLSB 031600Z 29004KT 5000 FU FEW020 34/25 Q1011 A2987 HR58RWY NML=METAR SLAP 031600Z 00000KT 9999 FEW025 29/14 Q1018 A3009 859.4 HR40=
ZPX0395 031650@CAELT@GG SLZZYMYT@CAELT@031650 SLCAYGYS@CAELT@SABO SLCA 031700@CAELT@METAR SLCA 031700Z 00000KT 8000 NSC 32/10 Q1017 A3003 HR27 FU RWY NML@CAELT@
ZPX0399 031654@CAELT@GG SLZZYMYT@CAELT@031654 SLVRYGYZ@CAELT@SABO SLVR 031700@CAELT@METAR SLVR 031700Z 14005KT 9000 NSC 35/17 Q1012 A2989 HR34 FU CI@CAELT@NOSIG=@CAELT@
ZPX0401 031654@CAELT@GG SLZZYMYT@CAELT@031654 SLSBYSYX@CAELT@SABO SLSB 031700@CAELT@METAR SLSB 031700Z 28006KT 7000 SCT020 35/25 Q1010 A2984 HR56 FU@CAELT@RWY NML=@CAELT@
ZPX0403 031654@CAELT@GG SLZZYMYT@CAELT@031645 SLETYMYC@CAELT@SABO SLET 031700@CAELT@METAR SLET 031700Z 15006KT 7000 NSC 35/15 Q1012 A2990 HR31 FU NOSIG=@CAELT@
ZPX0404 031654@CAELT@GG SLZZYMYT@CAELT@031653 SLRBYGYS@CAELT@SABO SLRB 031700@CAELT@METAR SLRB 031700Z 00000KT 8000 FEW020 38/21 Q1012 A2988 HR39 FU RWY@CAELT@NML=@CAELT@
ZPX0406 031655@CAELT@GG SLZZYMYT@CAELT@031655 SLLPYGYZ@CAELT@SABO SLLP 031700@CAELT@METAR SLLP 031700Z 04013G23KT 9999 FEW017 15/M05 Q1039 A3071@CAELT@629.1 HR24 P93// CI NOSIG=@CAELT@
ZPX0407 031655@CAELT@GG SLZZYMYT@CAELT@031655 SLTRYGYZ@CAELT@SABO SLTR 031700@CAELT@METAR SLTR 031700Z 33008KT 5000 FU FEW017 FEW020CB 35/24 Q1010 A2984@CAELT@992.0 HR53 AC CB NE NOSIG=@CAELT@
ZPX0409 031656@CAELT@GG SLZZYMYT@CAELT@031655 SLRQYSYX@CAELT@SABO SLRQ 031700@CAELT@METAR SLRQ 031700Z 00000KT 9999 FEW020 36/26 Q1010 A2985 HR58=@CAELT@
ZPX0411 031656@CAELT@GG SLZZYMYT@CAELT@031655 SLCOYGYZ@CAELT@SABO SLCO 031700@CAELT@METAR SLCO 031700Z 33009KT 9999 SCT025 33/24 Q1012 A2989 984.9 HR58=@CAELT@
ZPX0413 031658@CAELT@GG SLZZYMYT@CAELT@031656 SLPSZTZX@CAELT@SABO SLPS 031700@CAELT@METAR SLPS 031700Z 33006KT 6000 NSC 41/24 Q1009 A2980 HR37 FU=@CAELT@
ZPX0414 031658@CAELT@GG SLZZYMYT@CAELT@031658 SLCBYGYZ@CAELT@SABO SLCB 031700@CAELT@METAR SLCB 031700Z 10015KT 050V160 9999 SCT036 28/05 Q1025 A3027 751.@CAELT@5 HR22 FU NOSIG=@CAELT@
ZPX0415 031658@CAELT@GG SLZZYMYT@CAELT@031659 SLVRYGYS@CAELT@SABO SLVR 031700@CAELT@METAR SLVR 031700Z 14005KT 9000 NSC 35/17 Q1012 A2989 HR34 FU CI@CAELT@NOSIG=@CAELT@METAR SLET 031700Z 15006KT 7000 NSC 35/15 Q1012 A2990 HR31 FU NOSIG=@CAELT@METAR SLAS 031700Z 00000KT 3000 FU SCT020 37/24 Q1013 A2991 HR48 RWY@CAELT@NML=METAR SLCP 031700Z 00000KT 5000 FU SCT020 35/22 Q1015 A2997 HR47 RWYMETAR SLSI 031700Z 00000KT 6000 NSC 37/21 Q1011 A2985 HR44 FU RWY NMLMETAR SLRB 031700Z 00000KT 8000 FEW020 38/21 Q1012 A2988 HR39 FU RWYMETAR SLPS 031700Z 33006KT 6000 NSC 41/24 Q1009 A2980 HR37 FU=METAR SLCA 031700Z 00000KT 8000 NSC 32/10 Q1017 A3003 HR27 FU RWY NML
ZPX0416 031659@CAELT@GG SLZZYMYT@CAELT@031657 SLRYYSYX@CAELT@SABO SLRY 031700@CAELT@METAR SLRY 031700Z 00000KT 9999 FEW023 34/25 Q1009 A2980 HR61 FU RWY@CAELT@NML=@CAELT@
ZPX0417 031700@CAELT@GG SLZZYMYT@CAELT@031659 SLTJYGYZ@CAELT@SABO SLTJ 031700@CAELT@METAR SLTJ 031700Z 30006KT 8000 NSC 29/09 Q1017 A3006 813.1 HR28 CI@CAELT@
ZPX0419 031700@CAELT@GG SLZZYMYT@CAELT@031659 SLLPYFYA@CAELT@SABO SLLP 031700@CAELT@METAR SLLP 031700Z 04013G23KT 9999 FEW017 15/M05 Q1039 A3071@CAELT@629.1 HR24 P93// CI NOSIG=@CAELT@METAR SLCO 031700Z 33009KT 9999 SCT025 33/24 Q1012 A2989 984.9@CAELT@HR58=@CAELT@METAR SLRY 031700Z 00000KT 9999 FEW023 34/25 Q1009 A2980 HR61FU RWY NML=METAR SLRQ 031700Z 00000KT 9999 FEW020 36/26 Q1010 A2985 HR58=METAR SLAP 031700Z 00000KT 9999 SCT025 30/16 Q1019 A3010 859.6HR43=METAR SLSB 031700Z 28006KT 7000 SCT020 35/25 Q1010 A2984 HR56
ZPX0420 031701@CAELT@GG SLZZYMYT@CAELT@031700 SLTRYGYS@CAELT@SABO SLTR 031700@CAELT@METAR SLTR 031700Z 33008KT 5000 FU FEW017 FEW020CB 35/24 Q1010 A2984@CAELT@992.0 HR53 AC CB NE NOSIG=@CAELT@METAR SLGM 031700Z NIL=@CAELT@METAR SLRI 031700Z 32005KT 7000 BKN080 31/24 Q1012 A2989 HR66 FU CI=@CAELT@METAR SLJO 031700Z 27010KT 8000 FEW020 FEW023CB BKN080 31/23 Q1011A2988 HR66 FU CB W RWY NML=METAR SLRA 031700Z 35008KT 8000 SCT020 FEW023CB BKN080 33/22 Q1011A2986 HR54 FU CB W RWY NML=METAR SLMG 031700Z 14004KT 8000 FEW020 BKN200 37/29 Q1010 A2985HR35 FU RWY NML=METAR SLBU 031700Z NIL=METAR SLSA 031700Z NIL=METAR SLSR 031700Z 35015KT 8000 FEW015 SCT080 34/23 Q1009 A2981HR55 FU RWY NML=METAR SLSM 031700Z 00000KT 8000 FEW017 SCT080 34/25 Q1010 A2984HR58 FU RWY NML=
ZPX0424 031703@CAELT@GG SLZZYMYT@CAELT@031701 SLCBYGYS@CAELT@SABO SLCB 031700@CAELT@METAR SLCB 031700Z 10015KT 050V160 9999 SCT036 28/05 Q1025 A3027 751.@CAELT@5 HR22 FU NOSIG=@CAELT@METAR SLAL 031700Z 34012KT 9999 FEW020 20/01 Q1032 A3048 705.7 HR28=@CAELT@METAR SLTJ 031700Z 30006KT 8000 NSC 29/09 Q1017 A3006 813.1 HR28 CI@CAELT@
ZPX0439 031752@CAELT@GG SLZZYMYT@CAELT@031752 SLVRYGYZ@CAELT@SABO SLVR 031800@CAELT@METAR SLVR 031800Z 16004KT 9000 NSC 36/18 Q1011 A2985 HR34 FU CI@CAELT@NOSIG=@CAELT@
ZPX0440 031752@CAELT@GG SLZZYMYT@CAELT@031751 SLPSZTZX@CAELT@SABO SLPS 031800@CAELT@METAR SLPS 031800Z 33005KT 5000 FU NSC 42/23 Q10080 A2977 HR35=@CAELT@
ZPX0441 031754@CAELT@GG SLZZYMYT@CAELT@031754 SLCBYGYZ@CAELT@SABO SLCB 031800@CAELT@METAR SLCB 031800Z 08012KT 9999 FEW036 28/04 Q1024 A3024 750.7 HR20@CAELT@FU NOSIG=@CAELT@
ZPX0442 031755@CAELT@GG SLZZYMYT@CAELT@031754 SLCAYGYS@CAELT@SABO SLCA 031800@CAELT@METAR SLCA 031800Z 00000KT 8000 NSC 34/11 Q1015 A2997 HR25 FU RWY NML@CAELT@
ZPX0443 031755@CAELT@GG SLZZYMYT@CAELT@031731 SLETYMYC@CAELT@SABO SLET 031800@CAELT@METAR SLET 031800Z 21004KT 8000 NSC 36/17 Q1011 A2986 HR32 FU NOSIG=@CAELT@
ZPX0444 031755@CAELT@GG SLZZYMYT@CAELT@031755 SLRQYSYX@CAELT@SABO SLRQ 031800@CAELT@METAR SLRQ 031800Z 36004KT 9999 FEW020 36/27 Q1009 A2981 HR58=@CAELT@
ZPX0445 031755@CAELT@GG SLZZYMYT@CAELT@031755 SLLPYGYZ@CAELT@SABO SLLP 031800@CAELT@METAR SLLP 031800Z 02017G28KT 9999 SCT020 15/M06 Q1039 A3068@CAELT@628.6 HR23 P93// CI NOSIG=@CAELT@
ZPX0446 031755@CAELT@GG SLZZYMYT@CAELT@031755 SLRBYGYS@CAELT@SABO SLRB 031800@CAELT@METAR SLRB 031800Z 00000KT 8000 SCT020 38/21 Q1011 A2985 HR39 FU RWY@CAELT@NML=@CAELT@
ZPX0447 031756@CAELT@GG SLZZYMYT@CAELT@031754 SLRYYSYX@CAELT@SABO SLRY 031800@CAELT@METAR SLRY 031800Z 34006KT 8000 FEW023 35/25 Q1008 A2978 HR56 FU RWY@CAELT@NML=@CAELT@
ZPX0448 031756@CAELT@GG SLZZYMYT@CAELT@031756 SLTRYGYZ@CAELT@SABO SLTR 031800@CAELT@METAR SLTR 031800Z 28008KT 5000 FU FEW017 FEW020CB SCT200 35/24 Q1009@CAELT@A2980 990.6 HR52 CB N/NE/E NOSIG=@CAELT@
ZPX0450 031756@CAELT@GG SLZZYMYT@CAELT@031755 SLSBYSYX@CAELT@SABO SLSB 031800@CAELT@METAR SLSB 031800Z 29004KT 7000 SCT020 36/25 Q1009 A2979 HR53 FU@CAELT@RWY NML=@CAELT@
ZPX0451 031757@CAELT@GG SLZZYMYT@CAELT@031756 SLTJYGYZ@CAELT@SABO SLTJ 031800@CAELT@METAR SLTJ 031800Z 12012KT 8000 NSC 30/09 Q1016 A3001 811.9 HR28 CI@CAELT@
ZPX0453 031758@CAELT@GG SLZZYMYT@CAELT@031758 SLCBYGYS@CAELT@SABO SLCB 031800@CAELT@METAR SLCB 031800Z 08012KT 9999 FEW036 28/04 Q1024 A3024 750.7 HR20@CAELT@FU NOSIG=@CAELT@METAR SLTJ 031800Z 12012KT 8000 NSC 30/09 Q1016 A3001 811.9 HR28 CI@CAELT@
ZPX0454 031759@CAELT@GG SLZZYMYT@CAELT@031800 SLVRYGYS@CAELT@SABO SLVR 031800@CAELT@METAR SLVR 031800Z 16004KT 9000 NSC 36/18 Q1011 A2985 HR34 FU CI@CAELT@NOSIG=@CAELT@METAR SLET 031800Z 21004KT 8000 NSC 36/17 Q1011 A2986 HR32 FU NOSIG=@CAELT@METAR SLAS 031800Z 34012KT 3000 TS FU SCT020 FEW030CB 36/24 Q1012@CAELT@A2989 HR50 CB/TS/W RWY NML=METAR SLJV 031800Z 36010KT 3000 FU SCT020 28/20 Q1011 A2985 HR63 RWYNML=METAR SLCP 031800Z 00000KT 6000 BKN020 36/21 Q1013 A2991 HR4 FU RWYMETAR SLSI 031800Z 33005KT 6000 SCT020 37/20 Q1009 A2980 HR37 FU RWYMETAR SLTI 031800Z 00000KT 9999 FEW020 41/19 Q1011 A2985 HR30 RWY NMLMETAR SLJE 031800Z 18005KT 5000 FU SCT020 39/25 Q1012 A2988 HR46 RWYMETAR SLVG 031800Z 34006KT 9999 SCT023 26/09 Q1025 A3027 HR29 FU RWYMETAR SLRB 031800Z 00000KT 8000 SCT020 38/21 Q1011 A2985 HR39 FU RWYMETAR SLPS 031800Z 33005KT 5000 FU NSC 42/23 Q10080 A2977 HR35=METAR SLCA 031800Z 00000KT 8000 NSC 34/11 Q1015 A2997 HR25 FU RWY NML
ZPX0456 031801@CAELT@GG SLZZYMYT@CAELT@031800 SLTRYGYS@CAELT@SABO SLTR 031800@CAELT@METAR SLTR 031800Z 28008KT 5000 FU FEW017 FEW020CB SCT200 35/24 Q1009@CAELT@A2980 990.6 HR52 CB N/NE/E NOSIG=@CAELT@METAR SLGM 031800Z NIL=@CAELT@METAR SLRI 031800Z 00000KT 8000 BKN080 BKN200 32/25 Q1011 A2987 HR65@CAELT@FU CI=METAR SLJO 031800Z 27012KT 8000 FEW020 FEW023CB BKN080 31/23 Q1010A2985 HR62 FU CB W RWY NML=METAR SLRA 031800Z 30010KT 8000 FEW020 FEW023CB BKN200 32/22 Q1010A2983 HR58 FU AC CB NE RWY NML=METAR SLMG 031800Z 00000KT 8000 SCT020 FEW023CB 38/20 Q1011 A2986HR35 CB S HUM RWY NML=METAR SLBU 031800Z NIL=METAR SLSA 031800Z NIL=METAR SLSR 031800Z 35015KT 8000 FEW015 SCT080 34/23 Q1009 A2980 HR53FU RWY NML=METAR SLSM 031800Z 00000KT 8000 FEW017 36/24 Q1009 A2980 HR51 FURWY NML=
ZPX0458 031803@CAELT@GG SLZZYMYT@CAELT@031801 SLLPYFYA@CAELT@SABO SLLP 031800@CAELT@METAR SLLP 031800Z 02017G28KT 9999 SCT020 15/M06 Q1039 A3068@CAELT@628.6 HR23 P93// CI NOSIG=@CAELT@METAR SLRY 031800Z 34006KT 8000 FEW023 35/25 Q1008 A2978 HR56 FU RWY@CAELT@NML=@CAELT@METAR SLRQ 031800Z 36004KT 9999 FEW020 36/27 Q1009 A2981 HR58=METAR SLSB 031800Z 29004KT 7000 SCT020 36/25 Q1009 A2979 HR53 FURWY NML=
ZPX0459 031804@CAELT@GG SLZZYMYT@CAELT@031801 SLLPYFYA@CAELT@SABO SLLP 031800@CAELT@METAR SLLP 031800Z 02017G28KT 9999 SCT020 15/M06 Q1039 A3068@CAELT@628.6 HR23 P93// CI NOSIG=@CAELT@METAR SLRY 031800Z 34006KT 8000 FEW023 35/25 Q1008 A2978 HR56 FU RWY@CAELT@NML=@CAELT@METAR SLRQ 031800Z 36004KT 9999 FEW020 36/27 Q1009 A2981 HR58=METAR SLAP 031800Z 00000KT 9999 SCT025 30/16 Q1018 A3006 858.7 HR42AC=METAR SLSB 031800Z 29004KT 7000 SCT020 36/25 Q1009 A2979 HR53 FURWY NML=
ZPX0476 031851@CAELT@GG SLZZYMYT@CAELT@031852 SLVRYGYZ@CAELT@SABO SLVR 031900@CAELT@METAR SLVR 031900Z 27005KT 9000 NSC 36/18 Q1009 A2980 HR34 FU CI@CAELT@NOSIG=@CAELT@
ZPX0478 031854@CAELT@GG SLZZYMYT@CAELT@031855 SLLPYGYZ@CAELT@SABO SLLP 031900@CAELT@METAR SLLP 031900Z 04012G24KT 9999 SCT020 15/M06 Q1038 A3066@CAELT@628.0 HR22 P93// CI NOSIG=@CAELT@
ZPX0479 031855@CAELT@GG SLZZYMYT@CAELT@031854 SLETYMYC@CAELT@SABO SLET 031900@CAELT@METAR SLET 031900Z 32005KT 8000 NSC 36/16 Q1009 A2982 HR32 FU NOSIG=@CAELT@
ZPX0480 031856@CAELT@GG SLZZYMYT@CAELT@031855 SLRQYSYX@CAELT@SABO SLRQ 031900@CAELT@METAR SLRQ 031900Z 36003KT 9999 FEW020 FEW023CB 36/27 Q1008 A2977@CAELT@HR57 CB/DIST/W/NW CC=@CAELT@
ZPX0481 031856@CAELT@GG SLZZYMYT@CAELT@031856 SLCAYGYS@CAELT@SABO SLCA 031900@CAELT@METAR SLCA 031900Z 00000KT 8000 NSC 34/11 Q1014 A2994 HR25 FU RWY NML@CAELT@
ZPX0482 031856@CAELT@GG SLZZYMYT@CAELT@031855 SLSBYSYX@CAELT@SABO SLSB 031900@CAELT@METAR SLSB 031900Z 03004KT 6000 TS VCSH SCT020 FEW023CB 36/24 Q1008@CAELT@A2976 HR48 TS/CB N NE FU RWY NML=@CAELT@
ZPX0483 031857@CAELT@GG SLZZYMYT@CAELT@031855 SLRYYSYX@CAELT@SABO SLRY 031900@CAELT@METAR SLRY 031900Z 34006KT 8000 FEW023 35/25 Q1006 A2973 HR56 FU RWY@CAELT@NML=@CAELT@
ZPX0485 031857@CAELT@GG SLZZYMYT@CAELT@031857 SLCBYGYZ@CAELT@SABO SLCB 031900@CAELT@METAR SLCB 031900Z 04010KT 9999 FEW036 27/03 Q1022 A3020 749.7 HR21@CAELT@FU NOSIG=@CAELT@
ZPX0486 031858@CAELT@GG SLZZYMYT@CAELT@031857 SLTJYGYZ@CAELT@SABO SLTJ 031900@CAELT@METAR SLTJ 031900Z 10010KT 8000 NSC 29/08 Q1015 A3000 811.4 HR27 CI@CAELT@
ZPX0487 031859@CAELT@GG SLZZYMYT@CAELT@031857 SLRBYGYS@CAELT@SABO SLRB 031900@CAELT@METAR SLRB 031900Z 00000KT 8000 SCT020 FEW025CB 37/22 Q1010 A2983@CAELT@HR42 FU CB/NE/E RWY NML=@CAELT@
ZPX0488 031859@CAELT@GG SLZZYMYT@CAELT@031900 SLVRYGYS@CAELT@SABO SLVR 031900@CAELT@METAR SLVR 031900Z 27005KT 9000 NSC 36/18 Q1009 A2980 HR34 FU CI@CAELT@NOSIG=@CAELT@METAR SLET 031900Z 32005KT 8000 NSC 36/16 Q1009 A2982 HR32 FU NOSIG=@CAELT@METAR SLAS 031900Z 00000KT 4000 TS FU BKN020 FEW030CB 32/24 Q1011@CAELT@A2986 HR62 CB/TS/SW RWY NML=METAR SLJV 031900Z 36008KT 3000 FU SCT020 30/20 Q1010 A2883 HR60 RWYNML =METAR SLCP 031900Z 18008KT 6000 BKN020 36/21 Q1012 A2988 HR44 FU RWYNML=METAR SLSI 031900Z 33005KT 6000 SCT020 37/20 Q1008 A2977 HR36 FU RWYMETAR SLTI 031900Z 00000KT 9999 FEW020 41/20 Q1010 A2983 HR30 RWYMETAR SLJE 031900Z 00000KT 5000 FU SCT020 FEW030CB 38/24 Q1012 A2988HR46 CB/NE/SE/W RWY NML=METAR SLVG 031900Z 35007KT 9999 SCT023 25/10 Q1024 A3024 HR36 FU RWYMETAR SLRB 031900Z 00000KT 8000 SCT020 FEW025CB 37/22 Q1010 A2983HR42 FU CB/NE/E RWY NML=METAR SLCA 031900Z 00000KT 8000 NSC 34/11 Q1014 A2994 HR25 FU RWY NML
ZPX0490 031902@CAELT@GG SLZZYMYT@CAELT@031901 SLLPYFYA@CAELT@SABO SLLP 031900@CAELT@METAR SLLP 031900Z 04012G24KT 9999 SCT020 15/M06 Q1038 A3066@CAELT@628.0 HR22 P93// CI NOSIG=@CAELT@METAR SLRY 031900Z 34006KT 8000 FEW023 35/25 Q1006 A2973 HR56 FU RWY@CAELT@NML=@CAELT@METAR SLRQ 031900Z 36003KT 9999 FEW020 FEW023CB 36/27 Q1008 A2977HR57 CB/DIST/W/NW CC=METAR SLSB 031900Z 03004KT 6000 TS VCSH SCT020 FEW023CB 36/24 Q1008A2976 HR48 TS/CB N NE FU RWY NML=
ZPX0492 031903@CAELT@GG SLZZYMYT@CAELT@031901 SLCBYGYS@CAELT@SABO SLCB 031900@CAELT@METAR SLCB 031900Z 04010KT 9999 FEW036 27/03 Q1022 A3020 749.7 HR21@CAELT@FU NOSIG=@CAELT@METAR SLTJ 031900Z 10010KT 8000 NSC 29/08 Q1015 A3000 811.4 HR27 CI@CAELT@
ZPX0507 031953@CAELT@GG SLZZYMYT@CAELT@031952 SLRBYGYS@CAELT@SABO SLRB 032000@CAELT@METAR SLRB 032000Z 00000KT 8000 SCT020 FEW025CB 33/22 Q1011 A2985@CAELT@HR51 FU CB NE/E/SE RWY NML=@CAELT@
ZPX0508 031954@CAELT@GG SLZZYMYT@CAELT@031954 SLCBYGYZ@CAELT@SABO SLCB 032000@CAELT@METAR SLCB 032000Z 15007KT 9999 FEW036 27/03 Q1021 A3017 748.8 HR20@CAELT@FU NOSIG=@CAELT@
ZPX0509 031954@CAELT@GG SLZZYMYT@CAELT@031955 SLTJYGYZ@CAELT@SABO SLTJ 032000@CAELT@METAR SLTJ 032000Z 11012KT 8000 NSC 27/09 Q1015 A3000 811.5 HR33 CI@CAELT@
ZPX0510 031954@CAELT@GG SLZZYMYT@CAELT@031753 SLTRYGYS@CAELT@SABO SLTR 032000@CAELT@METAR SLTR 032000Z 36015KT 5000 -TSRA SCT005 SCT020CB OVC070 23/23@CAELT@Q1011 A2987 993.0 HR98 CB ON STN N/NE/SW/W/NW TS ON STN/N/NW NOSIG=@CAELT@
ZPX0511 031955@CAELT@GG SLZZYMYT@CAELT@031955 SLLPYGYZ@CAELT@SABO SLLP 032000@CAELT@METAR SLLP 032000Z 08010G25KT 9999 FEW020 16/M03 Q1036 A3062@CAELT@627.2 HR26 P93// CI NOSIG=@CAELT@
ZPX0512 031956@CAELT@GG SLZZYMYT@CAELT@031954 SLRYYSYX@CAELT@SABO SLRY 032000@CAELT@METAR SLRY 032000Z 34006KT 8000 FEW023 SCT200 34/25 Q1006 A2971 HR57@CAELT@FU RWY NML=@CAELT@
ZPX0513 031956@CAELT@GG SLZZYMYT@CAELT@031956 SLCAYGYS@CAELT@SABO SLCA 032000@CAELT@METAR SLCA 032000Z 00000KT 8000 NSC 34/10 Q1013 A2991 HR24 FU RWY NML@CAELT@
ZPX0514 031957@CAELT@GG SLZZYMYT@CAELT@031955 SLSBYSYX@CAELT@SABO SLSB 032000@CAELT@METAR SLSB 032000Z 00000KT 8000 VCSH SCT020 FEW023CB BKN080 28/23@CAELT@Q1007 A2974 HR77 CB/SH NE E FU RWY NML=@CAELT@
ZPX0515 031957@CAELT@GG SLZZYMYT@CAELT@031958 SLVRYGYZ@CAELT@SABO SLVR 032000@CAELT@METAR SLVR 032000Z 27005KT 9000 NSC 34/18 Q1008 A2979 HR38 FU CI@CAELT@NOSIG=@CAELT@
ZPX0516 031958@CAELT@GG SLZZYMYT@CAELT@031957 SLRQYSYX@CAELT@SABO SLRQ 032000@CAELT@METAR SLRQ 032000Z 36004KT 9999 FEW020 SCT200 36/27 Q1007 A2974@CAELT@HR60=@CAELT@
ZPX0517 031958@CAELT@GG SLZZYMYT@CAELT@031958 SLCBYGYS@CAELT@SABO SLCB 032000@CAELT@METAR SLCB 032000Z 15007KT 9999 FEW036 27/03 Q1021 A3017 748.8 HR20@CAELT@FU NOSIG=@CAELT@METAR SLTJ 032000Z 11012KT 8000 NSC 27/09 Q1015 A3000 811.5 HR33 CI@CAELT@
ZPX0519 032000@CAELT@GG SLZZYMYT@CAELT@031959 SLLPYFYA@CAELT@SABO SLLP 032000@CAELT@METAR SLLP 032000Z 08010G25KT 9999 FEW020 16/M03 Q1036 A3062@CAELT@627.2 HR26 P93// CI NOSIG=@CAELT@METAR SLRY 032000Z 34006KT 8000 FEW023 SCT200 34/25 Q1006 A2971 HR57@CAELT@FU RWY NML=@CAELT@METAR SLRQ 032000Z 36004KT 9999 FEW020 SCT200 36/27 Q1007 A2974HR60=METAR SLSB 032000Z 00000KT 8000 VCSH SCT020 FEW023CB BKN080 28/23Q1007 A2974 HR77 CB/SH NE E FU RWY NML=
ZPX0522 032001@CAELT@GG SLZZYMYT@CAELT@032002 SLVRYGYS@CAELT@SABO SLVR 032000@CAELT@METAR SLVR 032000Z 27005KT 9000 NSC 34/18 Q1008 A2979 HR38 FU CI@CAELT@NOSIG=@CAELT@METAR SLET 032000Z 23003KT 8000 NSC 36/17 Q1009 A29.80 HR32 FU NOSIG=@CAELT@METAR SLAS 032000Z 00000KT 4000 FU FEW020 FEW030CB BKN200 31/22 Q1010@CAELT@A2983 HR59 CB/SW RETS RWY NML=METAR SLJV 032000Z 36006KT 3000 FU SCT020 30/21 Q1010 A2983 HR62 RWYNML=METAR SLCP 032000Z 18006KT 6000 BKN020 FEW030 CB 29/21 Q1012 A2988HR61 FU CB/NE RWY NML=METAR SLSI 032000Z 00000KT 6000 SCT020 37/20 Q1008 A2977 HR36 FU RWYMETAR SLTI 032000Z 00000KT 9999 FEW020 41/19 Q1009 A2980 HR27 RWY NMLMETAR SLJE 032000Z 18006KT 6000 TS SCT020 FEW030CB OVC070 28/23 Q1013A2991 HR75 CB/TS/S/SW/W FU RESH RWY NML=METAR SLVG 032000Z 35008KT 9999 SCT023 26/11 Q1023 A3021 HR34 FU RWYMETAR SLRB 032000Z 00000KT 8000 SCT020 FEW025CB 33/22 Q1011 A2985HR51 FU CB NE/E/SE RWY NML=METAR SLCA 032000Z 00000KT 8000 NSC 34/10 Q1013 A2991 HR24 FU RWY NML=
ZPX0525 032006@CAELT@GG SLZZYMYT@CAELT@032000 SLTRYGYS@CAELT@SABO SLTR 032000@CAELT@METAR SLTR 032000Z 36015KT 5000 -TSRA SCT005 SCT020CB OVC070 23/23@CAELT@Q1011 A2987 993.0 HR98 CB ON STN N/NE/SW/W/NW TS ON STN/N/NW NOSIG=@CAELT@METAR SLGM 032000Z NIL=@CAELT@METAR SLRI 032000Z 00000KT 8000 FEW017 FEW020CB BKN200 35/24 Q1007@CAELT@A2976 HR54 CB NE AC FU=METAR SLJO 032000Z 30010KT 8000 FEW020 BKN200 33/23 Q1009 A2982 HR55FU AC RWY NML=METAR SLRA 032000Z 22012KT 8000 VCSH FEW020 FEW023CB BKN200 31/23Q1008 A2978 HR63 FU AC CB/SH S/SW RWY NML=METAR SLMG 032000Z 24010KT 8000 FEW020 FEW023CB BKN200 30/24 Q1008A2977 HR70 FU CB SW RWY NML=METAR SLBU 032000Z NIL=METAR SLSA 032000Z NIL=METAR SLSR 032000Z 35015KT 8000 FEW015 FEW023CB SCT080 35/24 Q1006A2973 HR52 FU CB NE/E/SE RWY NML=METAR SLSM 032000Z 33015G25KT 8000 -TSRA FEW0017 FEW020CB SCT20024/22 Q1009 A2981 HR93 CB/ON/STN N/NE/E/SE/W/NW TS ON/STN N/NWRWY HUM OPR=
ZPX0543 032051@CAELT@GG SLZZYMYT@CAELT@032052 SLVRYGYZ@CAELT@SABO SLVR 032100@CAELT@METAR SLVR 032100Z 30004KT 9000 NSC 34/18 Q1008 A2979 HR40 FU NOSIG=@CAELT@
ZPX0545 032054@CAELT@GG SLZZYMYT@CAELT@032054 SLSBYSYX@CAELT@SABO SLSB 032100@CAELT@METAR SLSB 032100Z 02010KT 6000 TS VCSH SCT020 FEW023CB BKN080 26/22@CAELT@Q1007 A2970 HR75 TS/CB/SH N NE E SE RWY NML=@CAELT@
ZPX0546 032054@CAELT@GG SLZZYMYT@CAELT@032036 SLETYMYC@CAELT@SABO SLET 032100@CAELT@METAR SLET 032100Z 29003KT 8000 NSC 35/18 Q1009 A2980 HR36 FU NOSIG=@CAELT@
ZPX0547 032055@CAELT@GG SLZZYMYT@CAELT@032054 SLCBYGYZ@CAELT@SABO SLCB 032100@CAELT@METAR SLCB 032100Z 19006KT 9999 FEW036 FEW040CB 27/03 Q1021 A3015 748@CAELT@.3 HR20 CB/NE FU NOSIG=@CAELT@
ZPX0548 032055@CAELT@GG SLZZYMYT@CAELT@032054 SLRBYGYS@CAELT@SABO SLRB 032100@CAELT@METAR SLRB 032100Z 00000KT 8000 SCT020 FEW025CB 32/21 Q1011 A2985@CAELT@HR54 FU CB/NE/E/SE RWY NML=@CAELT@
ZPX0549 032055@CAELT@GG SLZZYMYT@CAELT@032053 SLRYYSYX@CAELT@SABO SLRY 032100@CAELT@METAR SLRY 032100Z 34006KT 8000 FEW023 BKN200 35/26 Q1005 A2969 HR60@CAELT@FU RWY NML=@CAELT@
ZPX0550 032057@CAELT@GG SLZZYMYT@CAELT@032055 SLLPYGYZ@CAELT@SABO SLLP 032100@CAELT@METAR SLLP 032100Z 06009KT 9999 FEW020 FEW023CB 14/M03 Q1036@CAELT@A3061 627.1 HR30 P1483 CB/NE CI NOSIG=@CAELT@
ZPX0552 032057@CAELT@GG SLZZYMYT@CAELT@032055 SLTRYGYS@CAELT@SABO SLTR 032100@CAELT@METAR SLTR 032100Z 03006KT 8000 -TSRA SCT005 FEW020CB OVC070 23/22@CAELT@Q1011 A2988 993.2 HR97 CB SW/W/NW TS NW NOSIG=@CAELT@
ZPX0553 032057@CAELT@GG SLZZYMYT@CAELT@032055 SLRQYSYX@CAELT@SABO SLRQ 032100@CAELT@METAR SLRQ 032100Z 00000KT 9999 FEW020 SCT200 35/26 Q1006 A2973 HR59=@CAELT@
ZPX0554 032058@CAELT@GG SLZZYMYT@CAELT@032057 SLCAYGYS@CAELT@SABO SLCA 032100@CAELT@METAR SLCA 032100Z 00000KT 8000 NSC 32/10 Q1014 A2994 HR27 FU RWY NML@CAELT@
ZPX0555 032058@CAELT@GG SLZZYMYT@CAELT@032058 SLVRYGYS@CAELT@SABO SLVR 032100@CAELT@METAR SLVR 032100Z 30004KT 9000 NSC 34/18 Q1008 A2979 HR40 FU NOSIG=@CAELT@METAR SLET 032100Z 29003KT 8000 NSC 35/18 Q1009 A2980 HR36 FU NOSIG=@CAELT@METAR SLAS 032100Z 00000KT 4000 FU NSC 31/22 Q1010 A2983 HR60 RWY NML@CAELT@METAR SLJV 032100Z 6010KT 3000 FU SCT020 30/22 Q1009 A2980 HR59 RWY@CAELT@NML =METAR SLCP 032100Z 00000KT 5000 FU BKN020 FEW030CB OVC200 27/22 Q1012A2988 HR73 CB/N RWY NML=METAR SLSI 031200Z 24008KT 6000 BKN020 FEW025CB 33/22 Q1008 A2977HR53 FU CB/N/S/SW RWY NML=METAR SLTI 032100Z 00000KT 9999 FEW020 41/18 Q1009 A2980 HR27 RWY NMLMETAR SLJE 032100Z 18005KT 6000 SCT020 OVC070 27/22 Q1012 A2988 HR75FU RETS RWY NML=METAR SLVG 032100Z 34006KT 9999 FEW023 25/10 Q1023 A3021 HR36 FU RWYNML=METAR SLRB 032100Z 00000KT 8000 SCT020 FEW025CB 32/21 Q1011 A2985HR54 FU CB/NE/E/SE RWY NML=METAR SLCA 032100Z 00000KT 8000 NSC 32/10 Q1014 A2994 HR27 FU RWY NML
ZPX0556 032058@CAELT@GG SLZZYMYT@CAELT@032057 SLLPYFYA@CAELT@SABO SLLP 032100@CAELT@METAR SLLP 032100Z 06009KT 9999 FEW020 FEW023CB 14/M03 Q1036@CAELT@A3061 627.1 HR30 P1483 CB/NE CI NOSIG=@CAELT@METAR SLRY 032100Z 34006KT 8000 FEW023 BKN200 35/26 Q1005 A2969 HR60@CAELT@FU RWY NML=@CAELT@METAR SLSB 032100Z 02010KT 6000 TS VCSH SCT020 FEW023CB BKN080 26/22Q1007 A2970 HR75 TS/CB/SH N NE E SE RWY NML=
ZPX0558 032102@CAELT@GG SLZZYMYT@CAELT@032057 SLLPYFYA@CAELT@SABO SLLP 032100@CAELT@METAR SLLP 032100Z 06009KT 9999 FEW020 FEW023CB 14/M03 Q1036@CAELT@A3061 627.1 HR30 P1483 CB/NE CI NOSIG=@CAELT@METAR SLRY 032100Z 34006KT 8000 FEW023 BKN200 35/26 Q1005 A2969 HR60@CAELT@FU RWY NML=@CAELT@METAR SLRQ 032100Z 00000KT 9999 FEW020 SCT200 35/26 Q1006 A2973 HR59=METAR SLSB 032100Z 02010KT 6000 TS VCSH SCT020 FEW023CB BKN080 26/22Q1007 A2970 HR75 TS/CB/SH N NE E SE RWY NML=
ZPX0561 032105@CAELT@GG SLZZYMYT@CAELT@032101 SLTRYGYS@CAELT@SABO SLTR 032100@CAELT@METAR SLTR 032100Z 03006KT 8000 -TSRA SCT005 FEW020CB OVC070 23/22@CAELT@Q1011 A2988 993.2 HR97 CB SW/W/NW TS NW NOSIG=@CAELT@METAR SLGM 032100Z@CAELT@METAR SLRI 032100Z 18005KT 8000 FEW017 FEW020CB BKN200 25/24 Q1008@CAELT@A2977 HR53 CB NE/SE FU=METAR SLJO 032100Z 24006KT 8000 FEW020 BKN200 31/23 Q1009 A2980 HR62FU RWY NML=METAR SLRA 032100Z 20008KT 8000 VCSH FEW020 FEW023CB SCT080 BKN200 30/23 Q1008 A2978 HR66 FU CB/SH SW RWY NML=METAR SLMG 032100Z 00000KT 8000 FEW020 BKN200 30/23 Q1008 A2977 HR66METAR SLBU 032100Z NIL=METAR SLSA 032100Z NIL=METAR SLSR 032100Z 03015G25KT 6000 VCSH SCT015 FEW020CB BKN080 32/23Q1006 A2973 HR57 FU CB/SH NE/E/SE/S RWY NML=METAR SLSM 032100Z 09008KT 8000 -TSRA SCT017 FEW020CB BKN080 23/22Q1010 A2983 HR94 CB ON STN N/NE/E/SE/W/NW TS ON STN N/NE/E RWY HUMOPR=
ZPX0571 032153@CAELT@GG SLZZYMYT@CAELT@032151 SLRBYGYS@CAELT@SABO SLRB 032200@CAELT@METAR SLRB 032200Z 00000KT 8000 SCT020 FEW025CB 30/22 Q1011 A2985@CAELT@HR61 FU CB/NE/E/SE RWY NML=@CAELT@
ZPX0572 032153@CAELT@GG SLZZYMYT@CAELT@032154 SLVRYGYZ@CAELT@SABO SLVR 032200@CAELT@METAR SLVR 032200Z 32003KT 9000 FEW070 32/19 Q1009 A2980 HR46 FU@CAELT@NOSIG=@CAELT@
ZPX0573 032153@CAELT@GG SLZZYMYT@CAELT@032149 SLETYMYC@CAELT@SABO SLET 032200@CAELT@METAR SLET 032200Z 00000KT 8000 NSC 33/18 Q1009 A2981 HR40 FU NOSIG=@CAELT@
ZPX0574 032155@CAELT@GG SLZZYMYT@CAELT@032155 SLTRYGYZ@CAELT@SABO SLTR 032200@CAELT@METAR SLTR 032200Z 24004KT 8000 -RA SCT005 FEW020CB OVC070 23/22@CAELT@Q1010 A2985 992.2 HR98 RETS CB SW/W/NW NOSIG=@CAELT@
ZPX0575 032155@CAELT@GG SLZZYMYT@CAELT@032155 SLCAYGYS@CAELT@SABO SLCA 032200@CAELT@METAR SLCA 032200Z 18005KT 9999 NSC 30/11 Q1015 A2997 HR33 FU RWY NML@CAELT@
ZPX0576 032155@CAELT@GG SLZZYMYT@CAELT@032155 SLLPYGYZ@CAELT@SABO SLLP 032200@CAELT@METAR SLLP 032200Z 04010KT 9999 FEW020 FEW023CB 13/M05 Q1036@CAELT@A3061 627.1 HR28 P1483 CB/NE CI NOSIG=@CAELT@
ZPX0577 032156@CAELT@GG SLZZYMYT@CAELT@032154 SLRYYSYX@CAELT@SABO SLRY 032200@CAELT@METAR SLRY 032200Z 09006KT 8000 FEW020 FEW025CB BKN200 32/25 Q1005@CAELT@A2970 HR66 FU CB/SE/E RWY NML=@CAELT@
ZPX0578 032156@CAELT@GG SLZZYMYT@CAELT@032155 SLRQYSYX@CAELT@SABO SLRQ 032200@CAELT@METAR SLRQ 032200Z 00000KT 9999 FEW020 BKN200 33/27 Q1007 A2976 HR71=@CAELT@
ZPX0579 032157@CAELT@GG SLZZYMYT@CAELT@032157 SLVRYGYS@CAELT@SABO SLVR 032200@CAELT@METAR SLVR 032200Z 32003KT 9000 FEW070 32/19 Q1009 A2980 HR46 FU@CAELT@NOSIG=@CAELT@METAR SLET 032200Z 00000KT 8000 NSC 33/18 Q1009 A29.81 HR40 FU NOSIG=@CAELT@METAR SLAS 032200Z 00000KT 4000 FU SCT020 BKN200 31/22 Q1011 A2986@CAELT@HR61 RWY NML=METAR SLJV 032200Z 00000KT 3000 TS FU SCT020 FEW023CB 28/21 Q1009A2980 HR67 FU CB/TS/N/NE/NW RWY NML=METAR SLCP 032200Z 00000KT 5000 FU SCT020 OVC200 27/22 Q1012 A2988HR77 RWY NML=METAR SLSI 032200Z 24005KT 6000 BKN020 FEW025CB 31/21 Q1008 A2977HR58 FU CB/S/NW RWY NML=METAR SLTI 032200Z 00000KT 9999 NSC 37/18 Q1009 A2980 HR32 RWY NML=METAR SLJE 032200Z 00000KT 6000 FEW020 OVC070 27/22 Q1011 A2985 HR73FU RWY NML=METAR SLRB 032200Z 00000KT 8000 SCT020 FEW025CB 30/22 Q1011 A2985HR61 FU CB/NE/E/SE RWY NML=METAR SLCA 032200Z 18005KT 9999 NSC 30/11 Q1015 A2997 HR33 FU RWY NML=
ZPX0580 032158@CAELT@GG SLZZYMYT@CAELT@032157 SLCBYGYZ@CAELT@SABO SLCB 032200@CAELT@METAR SLCB 032200Z 05012KT 9999 FEW036 FEW040CB 24/05 Q1021 A3016 748@CAELT@.6 HR28 CB/N/NE FU AC NOSIG=@CAELT@
ZPX0581 032158@CAELT@GG SLZZYMYT@CAELT@032156 SLSBYSYX@CAELT@SABO SLSB 032200@CAELT@METAR SLSB 032200Z 00000KT 6000 VCSH SCT020 FEW023CB BKN080 26/22@CAELT@Q1007 A2970 HR77 CB/SH NE E SE RWY NML=@CAELT@
ZPX0583 032158@CAELT@GG SLZZYMYT@CAELT@032158 SLLPYFYA@CAELT@SABO SLLP 032200@CAELT@METAR SLLP 032200Z 04010KT 9999 FEW020 FEW023CB 13/M05 Q1036@CAELT@A3061 627.1 HR28 P1483 CB/NE CI NOSIG=@CAELT@METAR SLRY 032200Z 09006KT 8000 FEW020 FEW025CB BKN200 32/25 Q1005@CAELT@A2970 HR66 FU CB/SE/E RWY NML=@CAELT@METAR SLRQ 032200Z 00000KT 9999 FEW020 BKN200 33/27 Q1007 A2976 HR71=METAR SLSB 032200Z 00000KT 6000 VCSH SCT020 FEW023CB BKN080 26/22Q1007 A2970 HR77 CB/SH NE E SE RWY NML=
ZPX0586 032200@CAELT@GG SLZZYMYT@CAELT@032156 SLTRYGYS@CAELT@SABO SLTR 032200@CAELT@METAR SLTR 032200Z 24004KT 8000 -RA SCT005 FEW020CB OVC070 23/22@CAELT@Q1010 A2985 992.2 HR98 RETS CB SW/W/NW NOSIG=@CAELT@METAR SLGM 032200Z NIL=@CAELT@METAR SLJO 032200Z 24005KT 8000 FEW020 SCT080 OVC200 29/23 Q1008@CAELT@A2979 HR64 FU RWY NML=METAR SLRI 032200Z 00000KT 8000 FEW017 SCT080 BKN200 32/27 Q1008A2979 HR76 FU=METAR SLRA 032200Z 18003KT 8000 FEW020 SCT080 OVC200 29/23 Q1008A2979 HR70 FU RWY NML=METAR SLMG 032200Z 00000KT 8000 FEW020 BKN200 29/22 Q1008 A2977 HR68FU RWY NML=METAR SLBU 032200Z NIL=METAR SLSA 032200Z NIL=METAR SLSR 032200Z 12006KT 8000 SCT015 FEW023CB BKN080 28/21 Q1006A2973 HR66 FU CB S/SW/NW RWY NML=METAR SLSM 032200Z 00000KT 8000 -TSRA SCT017 FEW020CB OVC070 23/22Q1010 A2984 HR96 CB ON STN N/NE/E/SE/W/NW TS ON STN N/NE/E RWY HUMOPR=
ZPX0592 032248@CAELT@GG SLZZYMYT@CAELT@032248 SLCAYGYS@CAELT@SABO SLCA 032300@CAELT@METAR SLCA 032300Z 18005KT 9999 NSC 26/10 Q1016 A3000 HR37 FU RWY NML@CAELT@
ZPX0593 032254@CAELT@GG SLZZYMYT@CAELT@032255 SLVRYGYZ@CAELT@SABO SLVR 032300@CAELT@METAR SLVR 032300Z 32003KT 9000 FEW070 30/20 Q1010 A2983 HR55 FU@CAELT@NOSIG=@CAELT@
ZPX0594 032255@CAELT@GG SLZZYMYT@CAELT@032254 SLRBYGYS@CAELT@SABO SLRB 032300@CAELT@METAR SLRB 032300Z 00000KT 8000 FEW025CB 28/22 Q1012 A2988 HR72 FU CB@CAELT@/NE/E RWY NML=@CAELT@
ZPX0595 032256@CAELT@GG SLLPZRZX@CAELT@032255 SLLPYGYZ@CAELT@SABO SLLP 032300@CAELT@METAR SLLP 032300Z 04008KT 9999 FEW017 FEW020CB 10/M04 Q1036@CAELT@A3062 627.2 HR35 CB/LT N CI NOSIG=@CAELT@
ZPX0596 032257@CAELT@GG SLZZYMYT@CAELT@032257 SLCBYGYZ@CAELT@SABO SLCB 032300@CAELT@METAR SLCB 032300Z 08010KT 9999 FEW036 FEW040CB SCT200 23/05 Q1022@CAELT@A3019 749.2 HR31 CB/NW/N/NE FU AC NOSIG=@CAELT@
ZPX0597 032258@CAELT@GG SLZZYMYT@CAELT@032255 SLSBYSYX@CAELT@SABO SLSB 032300@CAELT@METAR SLSB 032300Z 00000KT 6000 BKN020 OVC070 25/22 Q1007 A2976 HR84@CAELT@FU RWY NML=@CAELT@
ZPX0600 032303@CAELT@GG SLZZYMYT@CAELT@032303 SLVRYGYS@CAELT@SABO SLVR 032300@CAELT@METAR SLVR 032300Z 32003KT 9000 FEW070 30/20 Q1010 A2983 HR55 FU@CAELT@NOSIG=@CAELT@METAR SLSI 032300Z 00000KT 5000 FU SCT020 BKN200 29/22 Q1009 A2980@CAELT@HR66 RWY NML=@CAELT@METAR SLRB 032300Z 00000KT 8000 FEW025CB 28/22 Q1012 A2988 HR72 FU CB/NE/E RWY NML=METAR SLCA 032300Z 18005KT 9999 NSC 26/10 Q1016 A3000 HR37 FU RWY NML
ZPX0606 032351@CAELT@GG SLZZYMYT@CAELT@032352 SLVRYGYZ@CAELT@SABO SLVR 040000@CAELT@METAR SLVR 040000Z 30005KT 9000 FEW070 27/20 Q1010 A2983 HR65 FU@CAELT@NOSIG=@CAELT@
