
ZPX0002 040001@CAELT@GG SLZZYMYT@CAELT@040000 SLVRYGYZ@CAELT@SABO SLVR 040000@CAELT@METAR SLVR 040000Z 33006KT 9999 SCT015 BKN017 FEW027CB BKN200 24/22@CAELT@Q1008 A2978 HR92 CB/NW RETSRA TEMPO SHRA=@CAELT@
ZPX0034 040054@CAELT@GG SLZZYMYT@CAELT@040054 SLCBYGYZ@CAELT@SABO SLCB 040100@CAELT@METAR SLCB 040100Z 21005KT 160V270 9999 FEW036 BKN200 19/09 Q1020@CAELT@A3012 747.5 HR49 AC FU NOSIG=@CAELT@
ZPX0035 040055@CAELT@GG SLLPZRZX@CAELT@040055 SLLPYGYZ@CAELT@SABO SLLP 040100@CAELT@METAR SLLP 040100Z 12004KT 060V180 9999 FEW013 BKN200 09/04 Q1035@CAELT@A3057 626.2 HR72 AC NOSIG=@CAELT@
ZPX0036 040056@CAELT@GG SLZZYMYT@CAELT@040056 SLVRYGYZ@CAELT@SABO SLVR 040100@CAELT@METAR SLVR 040100Z 36005KT 9999 FEW017 FEW030CB BKN200 24/22 Q1009@CAELT@A2981 HR91 CB/LT/NW NOSIG=@CAELT@
ZPX0057 040155@CAELT@GG SLLPZRZX@CAELT@040155 SLLPYGYZ@CAELT@SABO SLLP 040200@CAELT@METAR SLLP 040200Z 09004KT 9999 FEW008 BKN200 07/05 Q1036 A3061 626.9@CAELT@HR87 AC NOSIG=@CAELT@
ZPX0058 040155@CAELT@GG SLZZYMYT@CAELT@040155 SLVRYGYZ@CAELT@SABO SLVR 040200@CAELT@METAR SLVR 040200Z 35007KT 9999 FEW017 FEW030CB BKN200 24/22 Q1010@CAELT@A2984 HR91 CB/LT/NW NOSIG=@CAELT@
ZPX0059 040156@CAELT@GG SLZZYMYT@CAELT@040155 SLCBYGYZ@CAELT@SABO SLCB 040200@CAELT@METAR SLCB 040200Z 19005KT 9999 FEW036 SCT080 BKN200 20/09 Q1021@CAELT@A3016 748.5 HR49 FU NOSIG=@CAELT@
ZPX0072 040254@CAELT@GG SLZZYMYT@CAELT@040254 SLCBYGYZ@CAELT@SABO SLCB 040300@CAELT@METAR SLCB 040300Z 19004KT 9999 FEW036 SCT080 BKN200 19/06 Q1021@CAELT@A3017 748.7 HR52 FU NOSIG=@CAELT@
ZPX0073 040255@CAELT@GG SLZZYMYT@CAELT@040255 SLVRYGYZ@CAELT@SABO SLVR 040300@CAELT@METAR SLVR 040300Z 36005KT 9999 SCT017 FEW030CB BKN200 24/22 Q1010@CAELT@A2985 HR90 CB/LT/NW AC NOSIG=@CAELT@
ZPX0074 040256@CAELT@GG SLLPZRZX@CAELT@040255 SLLPYGYZ@CAELT@SABO SLLP 040300@CAELT@METAR SLLP 040300Z 08007KT 4000E VCFG FEW003 SCT200 07/06 Q1036 A3062@CAELT@627.2 HR95 VCFG NE/E/SE NOSIG=@CAELT@
ZPX0090 040355@CAELT@GG SLZZYMYT@CAELT@040355 SLCBYGYZ@CAELT@SABO SLCB 040400@CAELT@METAR SLCB 040400Z 14003KT 9999 FEW036 BKN200 19/09 Q1021 A3015 748.4@CAELT@HR52 AC FU NOSIG=@CAELT@
ZPX0091 040357@CAELT@GG SLLPZRZX@CAELT@040355 SLLPYGYZ@CAELT@SABO SLLP 040400@CAELT@METAR SLLP 040400Z 08007KT 4000E VCFG FEW003 SCT200 06/06 Q1036 A3061@CAELT@626.9 HR97 VCFG NE/E/SE AC NOSIG=@CAELT@
ZPX0092 040357@CAELT@GG SLZZYMYT@CAELT@040355 SLVRYGYZ@CAELT@SABO SLVR 040400@CAELT@METAR SLVR 040400Z 03006KT 9999 SCT015 SCT070 BKN200 24/22 Q1010@CAELT@A2985 HR92 NOSIG=@CAELT@
ZPX0102 040454@CAELT@GG SLZZYMYT@CAELT@040454 SLCBYGYZ@CAELT@SABO SLCB 040500@CAELT@METAR SLCB 040500Z 15004KT 9999 FEW036 BKN200 18/09 Q1020 A3014 748.1@CAELT@HR54 AC FU NOSIG=@CAELT@
ZPX0103 040455@CAELT@GG SLLPZRZX@CAELT@040455 SLLPYGYZ@CAELT@SABO SLLP 040500@CAELT@METAR SLLP 040500Z 12006KT 4000E VCFG FEW003 SCT010 BKN200 07/06@CAELT@Q1036 A3060 626.7 HR96 VCFG NE/E/SE AC NOSIG=@CAELT@
ZPX0104 040455@CAELT@GG SLZZYMYT@CAELT@040456 SLVRYGYZ@CAELT@SABO SLVR 040500@CAELT@METAR SLVR 040500Z 02008KT 9999 SCT015 BKN070 BKN200 24/22 Q1010@CAELT@A2985 HR92 NOSIG=@CAELT@
ZPX0111 040555@CAELT@GG SLZZYMYT@CAELT@040555 SLVRYGYZ@CAELT@SABO SLVR 040600@CAELT@METAR SLVR 040600Z 36008KT 9999 SCT015 BKN070 BKN200 24/22 Q1010@CAELT@A2984 HR92 NOSIG=@CAELT@
ZPX0112 040555@CAELT@GG SLLPZRZX@CAELT@040555 SLLPYGYZ@CAELT@SABO SLLP 040600@CAELT@METAR SLLP 040600Z VRB02KT 4000E VCFG FEW003 BKN200 06/05 Q1035 A3057@CAELT@626.2 HR94 VCFG E/SE AC NOSIG=@CAELT@
ZPX0113 040557@CAELT@GG SLZZYMYT@CAELT@040556 SLCBYGYZ@CAELT@SABO SLCB 040600@CAELT@METAR SLCB 040600Z 13006KT 9999 FEW036 BKN200 17/09 Q1020 A3014 747.9@CAELT@HR56 AC FU NOSIG=@CAELT@
ZPX0120 040653@CAELT@GG SLZZYMYT@CAELT@040653 SLVRYGYZ@CAELT@SABO SLVR 040700@CAELT@METAR SLVR 040700Z 36008KT 9999 SCT015 FEW030CB OVC070 23/22 Q1010@CAELT@A2982 HR92 CB/LT W/NW NOSIG=@CAELT@
ZPX0121 040653@CAELT@GG SLZZYMYT@CAELT@040654 SLCBYGYZ@CAELT@SABO SLCB 040700@CAELT@METAR SLCB 040700Z 12004KT 9999 FEW036 BKN200 18/09 Q1020 A3014 747.9@CAELT@HR55 AC FU NOSIG=@CAELT@
ZPX0122 040656@CAELT@GG SLLPZRZX@CAELT@040655 SLLPYGYZ@CAELT@SABO SLLP 040700@CAELT@METAR SLLP 040700Z VRB02KT 4000E VCFG FEW002 SCT010 BKN200 06/05@CAELT@Q1035 A3057 626.1 HR96 VCFG NE/E/SE AC NOSIG=@CAELT@
ZPX0129 040753@CAELT@GG SLZZYMYT@CAELT@040754 SLCBYGYZ@CAELT@SABO SLCB 040800@CAELT@METAR SLCB 040800Z 11004KT 9999 FEW036 BKN200 18/08 Q1020 A3013 747.8@CAELT@HR53 AC FU NOSIG=@CAELT@
ZPX0130 040753@CAELT@GG SLZZYMYT@CAELT@040754 SLVRYGYZ@CAELT@SABO SLVR 040800@CAELT@METAR SLVR 040800Z 35007KT 9999 FEW007 SCT015 FEW030CB OVC070 23/22@CAELT@Q1010 A2982 HR93 CB/LT W NOSIG=@CAELT@
ZPX0131 040755@CAELT@GG SLLPZRZX@CAELT@040755 SLLPYGYZ@CAELT@SABO SLLP 040800@CAELT@METAR SLLP 040800Z VRB02KT 4000E VCFG FEW002 SCT010 06/05 Q1035@CAELT@A3057 626.2 HR92 VCFG NE/E/SE AC /CI NOSIG=@CAELT@
ZPX0145 040850@CAELT@GG SLZZYMYT@CAELT@040851 SLVRYGYZ@CAELT@SABO SLVR 040900@CAELT@METAR SLVR 040900Z 35007KT 9999 FEW007 SCT015 FEW030CB OVC070 23/22@CAELT@Q1011 A2985 HR93 CB/LT W NOSIG=@CAELT@
ZPX0146 040855@CAELT@GG SLZZYMYT@CAELT@040854 SLPSYGYS@CAELT@SABO SLPS 040900@CAELT@METAR SLPS 040900Z 00000KT 9999 NSC 25/24 Q1010 A2983 HR92 CI=@CAELT@
ZPX0147 040855@CAELT@GG SLZZYMYT@CAELT@040854 SLCBYGYZ@CAELT@SABO SLCB 040900@CAELT@METAR SLCB 040900Z 13004KT 9999 FEW036 SCT200 17/08 Q1020 A3014 748.0@CAELT@HR58 AC FU NOSIG=@CAELT@
ZPX0148 040856@CAELT@GG SLLPZRZX@CAELT@040855 SLLPYGYZ@CAELT@SABO SLLP 040900@CAELT@METAR SLLP 040900Z VRB02KT 9999 FEW002 SCT200 06/04 Q1035 A3057@CAELT@626.2 HR90 AC NOSIG=@CAELT@
ZPX0149 040858@CAELT@GG SLZZYMYT@CAELT@040857 SLTRYGYZ@CAELT@SABO SLTR 040900@CAELT@METAR SLTR 040900Z 00000KT 5000 -TSRA SCT005 FEW020CB OVC070 24/24@CAELT@Q1010 A2985 992.2 HR96 CB N/W/NW TS NW TEMPO 3000=@CAELT@
ZPX0151 040901@CAELT@GG SLZZYMYT@CAELT@040900 SLTRYGYS@CAELT@SABO SLTR 040900@CAELT@METAR SLTR 040900Z 00000KT 5000 -TSRA SCT005 FEW020CB OVC070 24/24@CAELT@Q1010 A2985 992.2 HR96 CB N/W/NW TS NW TEMPO 3000=@CAELT@METAR SLRI 040900Z 00000KT 9999 BKN080 23/23 Q1011 A2986 HR97=@CAELT@
ZPX0167 040951@CAELT@GG SLZZYMYT@CAELT@040951 SLVRYGYZ@CAELT@SABO SLVR 041000@CAELT@METAR SLVR 041000Z 35006KT 9999 BKN006 FEW030CB OVC070 23/22 Q1012@CAELT@A2989 HR93 CB/S NOSIG=@CAELT@
ZPX0169 040953@CAELT@GG SLZZYMYT@CAELT@040952 SLPSYGYS@CAELT@SABO SLPS 041000@CAELT@METAR SLPS 041000Z 00000KT 9999 NSC 26/24 Q1010 A2983 HR90 CI=@CAELT@
ZPX0170 040954@CAELT@GG SLZZYMYT@CAELT@040954 SLETYMYC@CAELT@SABO SLET 041000@CAELT@METAR SLET 041000Z 33006KT 8000 VCSH BKN007 BKN015 FEW030CB OVC070 23@CAELT@/22 Q1011 A2987 HR96 CB/SH S/SW TEMPO SHRA=@CAELT@
ZPX0171 040954@CAELT@GG SLZZYMYT@CAELT@040953 SLRBYGYS@CAELT@SABO SLRB 041000@CAELT@METAR SLRB 041000Z 00000KT 9999 NSC 25/22 Q1014 A2994 HR84 CI RWY NML=@CAELT@
ZPX0172 040955@CAELT@GG SLZZYMYT@CAELT@040954 SLSAYGYS@CAELT@SABO SLSA 041000@CAELT@METAR SLSA 041000Z 34006KT 9999 SCT020 FEW023CB SCT080 BKN200 25/24@CAELT@Q1009 A2981 HR96 CB S=@CAELT@
ZPX0173 040955@CAELT@GG SLZZYMYT@CAELT@040954 SLSAYGYS@CAELT@SABO SLSA 041000@CAELT@METAR SLSA 041000Z 34006KT 9999 SCT020 FEW023CB SCT080 BKN200 25/24@CAELT@Q1009 A2981 HR96 CB S=@CAELT@
ZPX0175 040956@CAELT@GG SLZZYMYT@CAELT@040956 SLLPYGYZ@CAELT@SABO SLLP 041000@CAELT@METAR SLLP 041000Z VRB02KT 4000E VCFG FEW002 BKN200 04/04 Q1035@CAELT@A3058 626.3 HR95 P0082 VCFG NE/E/SE AC NOSIG=@CAELT@
ZPX0177 040957@CAELT@GG SLZZYMYT@CAELT@040956 SLCBYGYZ@CAELT@SABO SLCB 041000@CAELT@METAR SLCB 041000Z 09005KT 9999 FEW036 BKN200 17/09 Q1021 A3017 748.7@CAELT@HR59 AC FU NOSIG=@CAELT@
ZPX0178 040957@CAELT@GG SLZZYMYT@CAELT@040956 SLSBYSYX@CAELT@SABO SLSB 041000@CAELT@METAR SLSB 041000Z 00000KT 9999 BKN020 25/24 Q1010 A2985 HR96 SH/S@CAELT@RWY NML=@CAELT@
ZPX0179 040957@CAELT@GG SLZZYMYT@CAELT@040956 SLUYYGYS@CAELT@SABO SLUY 041000@CAELT@METAR SLUY 041000Z 00000KT 9999 NSC 02/M09 Q1031 A3045 656.3@CAELT@HR44 CI=@CAELT@
ZPX0180 040957@CAELT@GG SLZZYMYT@CAELT@040957 SLCAYGYS@CAELT@SABO SLCA 041000@CAELT@METAR SLCA 041000Z 00000KT 9999 OVC070 21/17 Q1016 A3000 HR80 RWY NML@CAELT@
ZPX0181 040959@CAELT@GG SLZZYMYT@CAELT@040959 SLVRYFYC@CAELT@SABO SLVR 041000@CAELT@METAR SLVR 041000Z 35006KT 9999 BKN006 FEW030CB OVC070 23/22@CAELT@Q1012 A2989 HR93 CB/S NOSIG=@CAELT@METAR SLET 041000Z 33006KT 8000 VCSH BKN007 BKN015 FEW030CB@CAELT@OVC070 23/22 Q1011@CAELT@A2987 HR96 CB/SH S/SW TEMPO SHRA=METAR SLCP 041000ZMETAR SLSI 041000Z 00000KT 9999 BKN070 23/22 Q1012 A2988 HR95RWY NML=METAR SLRB 041000Z 00000KT 9999 NSC 25/22 Q1014 A2994 HR84 CIMETAR SLPS 041000Z 00000KT 9999 NSC 26/24 Q1010 A2983 HR90 CI=METAR SLCA 041000Z 00000KT 9999 OVC070 21/17 Q1016 A3000 HR80
ZPX0183 041000@CAELT@GG SLZZYMYT@CAELT@040959 SLTRYGYZ@CAELT@SABO SLTR 041000@CAELT@METAR SLTR 041000Z 00000KT 8000 VCSH SCT012 FEW020CB BKN070 BKN200@CAELT@24/23 Q1011 A2986 992.7 HR95 RETSRA CB/SH W/NW NOSIG=@CAELT@
ZPX0184 041000@CAELT@GG SLZZYMYT@CAELT@041000 SLCBYGYS@CAELT@SABO SLCB 041000@CAELT@METAR SLCB 041000Z 09005KT 9999 FEW036 BKN200 17/09 Q1021 A3017 748.7@CAELT@HR59 AC FU NOSIG=@CAELT@METAR SLAL 041000Z 01008KT 9999 BKN008 OVC070 12/11 Q1027 A3033 701.8@CAELT@HR91=@CAELT@METAR SLVM 041000Z 00000KT 9999 OVC070 23/19 Q1011 A2988 HR81=
ZPX0185 041001@CAELT@GG SLZZYMYT@CAELT@041000 SLTRYGYS@CAELT@SABO SLTR 041000@CAELT@METAR SLTR 041000Z 00000KT 8000 VCSH SCT012 FEW020CB BKN070 BKN200@CAELT@24/23 Q1012 A2986 992.7 HR95 RETSRA CB/SH W/NW NOSIG=@CAELT@METAR SLGM 041000Z 04008KT 9999 SCT008 SCT070 BKN200 25/23 Q1011@CAELT@A2986 HR91=@CAELT@METAR SLRI 041000Z 36006KT 9999 BKN080 23/23 Q1011 A2988 HR97=METAR SLJO 041000Z 00000KT 9999 FEW080 SCT200 23/22 Q1009 A2982 HR96RWY NML=METAR SLRA 041000Z 36004KT 9999 SCT080 BKN200 24/23 Q1009 A2982 HR96METAR SLMG 041000Z NIL=METAR SLBU 041000Z NIL=METAR SLSA 041000Z 34006KT 9999 SCT020 FEW023CB SCT080 BKN200 25/24Q1009 A2981 HR96 CB S=METAR SLSR 041000Z 32008KT 9999 SCT017 FEW023CB BKN080 23/22 Q1009A2980 HR97 CB NE/E RWY NML=METAR SLSM 041000Z NIL=
ZPX0188 041007@CAELT@GG SLZZYMYT@CAELT@041006 SLLPYFYA@CAELT@SABO SLLP 041000@CAELT@METAR SLLP 041000Z VRB02KT 4000E VCFG FEW002 BKN200 04/04 Q1035@CAELT@A3058 626.3 HR95 P0082 VCFG NE/E/SE AC NOSIG=@CAELT@METAR SLCO 041000Z NIL=@CAELT@METAR SLRY 041000Z 00000KT 9999 BKN005 OVC070 23/23 Q1008 A2979@CAELT@HR98 RWY NML=METAR SLRQ 041000Z 00000KT 9999 BKN010 OVC070 25/24 Q1009 A2982985.8 HR98=METAR SLAP 041000Z 36005KT 9999 SCT015 BKN070 20/17 Q1016 A3001857.0 HR86 CI=METAR SLSB 041000Z 00000KT 9999 BKN020 25/24 Q1010 A2985 HR96SH/S RWY NML=METAR SLUY 041000Z 00000KT 9999 NSC 02/M09 Q1031 A3045 656.3HR44 CI=
ZPX0189 041011@CAELT@GG SLZZYMYT@CAELT@041007 SLTRYGYS@CAELT@SABO SLTR 041000 RRA@CAELT@METAR SLTR 041000Z 00000KT 8000 VCSH SCT012 FEW020CB BKN070 BKN200@CAELT@24/23 Q1012 A2986 992.7 HR95 RETSRA CB/SH W/NW NOSIG=@CAELT@METAR SLGM 041000Z 04008KT 9999 SCT008 SCT070 BKN200 25/23 Q1011@CAELT@A2986 HR91=@CAELT@METAR SLRI 041000Z 36006KT 9999 BKN080 23/23 Q1011 A2988 HR97=METAR SLJO 041000Z 00000KT 9999 FEW080 SCT200 23/22 Q1009 A2982 HR96RWY NML=METAR SLRA 041000Z 36004KT 9999 SCT080 BKN200 24/23 Q1009 A2982 HR96METAR RTD SLMG 041000Z 06004KT 9999 BKN080 24/24 Q1009 A2982 HR97METAR SLBU 041000Z NIL=METAR SLSA 041000Z 34006KT 9999 SCT020 FEW023CB SCT080 BKN200 25/24Q1009 A2981 HR96 CB S=METAR SLSR 041000Z 32008KT 9999 SCT017 FEW023CB BKN080 23/22 Q1009A2980 HR97 CB NE/E RWY NML=METAR SLSM 041000Z 00000KT 9999 BKN015 OVC070 25/25 Q1010 A2985 HR100RWY HUM OPR=
ZPX0192 041019@CAELT@GG SLZZYMYT@CAELT@041018 SLCOYSYX@CAELT@SABO SLCO 041000 RRA@CAELT@METAR RTD SLCO 041000Z 00000KT 9999 BKN006 BKN080 23/23 Q1011 A2988@CAELT@HR97=@CAELT@
ZPX0196 041022@CAELT@GG SLZZYMYT@CAELT@041010 SLLPYFYA@CAELT@SABO SLLP 041000 RRA@CAELT@METAR SLLP 041000Z VRB02KT 4000E VCFG FEW002 BKN200 04/04 Q1035@CAELT@A3058 626.3 HR95 P0082 VCFG NE/E/SE AC NOSIG=@CAELT@METAR RTD SLCO 041000Z 00000KT 9999 BKN006 BKN080 23/23 Q1011 A2988@CAELT@HR97=@CAELT@METAR SLRY 041000Z 00000KT 9999 BKN005 OVC070 23/23 Q1008 A2979HR98 RWY NML=METAR SLRQ 041000Z 00000KT 9999 BKN010 OVC070 25/24 Q1009 A2982985.8 HR98=METAR SLAP 041000Z 36005KT 9999 SCT015 BKN070 20/17 Q1016 A3001857.0 HR86 CI=METAR SLSB 041000Z 00000KT 9999 BKN020 25/24 Q1010 A2985 HR96SH/S RWY NML=METAR SLUY 041000Z 00000KT 9999 NSC 02/M09 Q1031 A3045 656.3HR44 CI=
ZPX0198 041024@CAELT@GG SLZZYMYT@CAELT@041000 SLLPYFYA@CAELT@SABO SLRY 041000@CAELT@METAR SLRY 041000Z 00000KT 9999 BKN005 OVC070 23/23 Q1008 A2979@CAELT@HR98 RWY NML=@CAELT@
ZPX0207 041052@CAELT@GG SLZZYMYT@CAELT@041052 SLPSYGYS@CAELT@SABO SLPS 041100@CAELT@METAR SLPS 041100Z 00000KT 9999 NSC 28/26 Q1011 A2986 HR88 CI=@CAELT@
ZPX0208 041053@CAELT@GG SLZZYMYT@CAELT@041054 SLVRYGYZ@CAELT@SABO SLVR 041100@CAELT@METAR SLVR 041100Z 35007KT 9999 BKN006 FEW030CB OVC070 23/22 Q1012@CAELT@A2991 HR93 CB/S TEMPO SHRA=@CAELT@
ZPX0210 041054@CAELT@GG SLZZYMYT@CAELT@041054 SLCAYGYS@CAELT@SABO SLCA 041100@CAELT@METAR SLCA 041100Z 00000KT 9999 OVC070 21/17 Q1016 A3000 HR80 RWY NML@CAELT@
ZPX0211 041054@CAELT@GG SLZZYMYT@CAELT@041054 SLSAYGYS@CAELT@SABO SLSA 041100@CAELT@METAR SLSA 041100Z 33006KT 9999 SCT020 FEW023CB SCT080 BKN200 25/24@CAELT@Q1010 A2984 HR94 CB S=@CAELT@
ZPX0212 041055@CAELT@GG SLZZYMYT@CAELT@041055 SLSBYSYX@CAELT@SABO SLSB 041100@CAELT@METAR SLSB 041100Z 00000KT 6000 VCSH BKN017 FEW020CB BKN200 25/24@CAELT@Q1011 A2987 HR95 CB/SH W NW RWY NML=@CAELT@
ZPX0213 041055@CAELT@GG SLZZYMYT@CAELT@041055 SLTRYGYZ@CAELT@SABO SLTR 041100@CAELT@METAR SLTR 041100Z 00000KT 8000 VCSH SCT012 FEW020CB BKN070 25/24@CAELT@Q1012 A2989 993.6 HR95 CB/SH SW/W NOSIG=@CAELT@
ZPX0216 041055@CAELT@GG SLZZYMYT@CAELT@041055 SLETYMYC@CAELT@SABO SLET 041100@CAELT@METAR SLET 041100Z 33006KT 8000 -RA BKN007 BKN015 FEW030CB OVC070 23/@CAELT@22 Q1012 A2991 HR96 CB S/W NOSIG=@CAELT@
ZPX0217 041056@CAELT@GG SLZZYMYT@CAELT@041055 SLRBYGYS@CAELT@SABO SLRB 041100@CAELT@METAR SLRB 041100Z 00000KT 9999 NSC 27/23 Q1014 A2994 HR78 CI RWY NML=@CAELT@
ZPX0218 041056@CAELT@GG SLZZYMYT@CAELT@041056 SLLPYGYZ@CAELT@SABO SLLP 041100@CAELT@METAR SLLP 041100Z 12005KT 3000E VCFG FEW002 SCT012 BKN200 06/06@CAELT@Q1036 A3061 626.9 HR98 P92// VCFG NE/E/SE AC NOSIG=@CAELT@
ZPX0219 041056@CAELT@GG SLZZYMYT@CAELT@041055 SLORYGYZ@CAELT@SABO SLOR 041100@CAELT@METAR SLOR 041100Z 03003KT 8000 FEW015 BKN200 08/03 Q1032 A3049 654.3@CAELT@HR66 VIS RED FU E/SE/S=@CAELT@
ZPX0220 041056@CAELT@GG SLZZYMYT@CAELT@041055 SLTJYGYZ@CAELT@SABO SLTJ 041100@CAELT@METAR SLTJ 041100Z 00000KT 9999 BKN027 BKN070 17/13 Q1021 A3016 816.0@CAELT@HR75=@CAELT@
ZPX0221 041057@CAELT@GG SLZZYMYT@CAELT@041056 SLCBYGYZ@CAELT@SABO SLCB 041100@CAELT@METAR SLCB 041100Z 25004KT 9999 FEW036 BKN200 17/10 Q1022 A3020 749.7@CAELT@HR62 FU NOSIG=@CAELT@
ZPX0223 041057@CAELT@GG SLZZYMYT@CAELT@041057 SLCOYGYZ@CAELT@SABO SLCO 041100@CAELT@METAR SLCO 041100Z VRB02KT 9999 BKN006 BKN080 25/24 Q1011 A2988 984.5@CAELT@HR92 CI=@CAELT@
ZPX0224 041058@CAELT@GG SLZZYMYT@CAELT@041057 SLUYYGYS@CAELT@SABO SLUY 041100@CAELT@METAR SLUY 041100Z 00000KT 9999 NSC 05/M10 Q1032 A3048 657.0@CAELT@HR32 CI=@CAELT@
ZPX0225 041059@CAELT@GG SLZZYMYT@CAELT@041059 SLVRYFYC@CAELT@SABO SLVR 041100@CAELT@METAR SLVR 041100Z 35007KT 9999 BKN006 FEW030CB OVC070 23/22 Q1012@CAELT@A2991 HR93 CB/S TEMPO SHRA=@CAELT@METAR SLET 041100Z 33006KT 8000 -RA BKN007 BKN015 FEW030CB OVC070@CAELT@23/22 Q1012 A2991 HR96 CB S/W NOSIG=@CAELT@METAR SLAS 041100Z 00000KT 9999 SCT020 BKN070 24/23 Q1014A2994 HR91 RWY NML=METAR SLJV 041100Z 34005KT 9999 SCT070 22/21 Q1012 A2988 HR95 RWY NMLMETAR SLCP 041100Z 00000KT 9999 SCT007 BKN070 23/22 Q1016 A3000HR96 RWY NML=METAR SLSI 041100Z 00000KT 9999 BKN070 24/23 Q1013 A2991 HR90 RWY NMLMETAR SLTI 041100Z 00000KT 9999 NSC 29/24 Q1015 A2997 HR76 CI RWY NMLMETAR SLJE 041100Z 00000KT 9999 BKN070 26/23 Q1015 A2997 HR83 RWY NMLMETAR SLVG 041100Z 18005KT 9999 OVC015 15/13 Q1024 A3024 HR90 RWY NMLMETAR SLRB 041100Z 00000KT 9999 NSC 27/23 Q1014 A2994 HR78 CI RWY NMLMETAR SLPS 041100Z 00000KT 9999 NSC 28/26 Q1011 A2986 HR88 CI=METAR SLCA 041100Z 00000KT 9999 OVC070 21/17 Q1016 A3000 HR80 RWY NML
ZPX0228 041101@CAELT@GG SLZZYMYT@CAELT@041101 SLTRYGYS@CAELT@SABO SLTR 041100@CAELT@METAR SLTR 041100Z 00000KT 8000 VCSH SCT012 FEW020CB BKN070 25/24@CAELT@Q1012 A2989 993.6 HR95 CB/SH SW/W NOSIG=@CAELT@METAR SLGM 041100Z 04008KT 7000 VCSH SCT008 BKN015 OVC070 25/24 Q1012@CAELT@A2990 HR94 SH E/SE=@CAELT@METAR SLRI 041100Z 36006KT 9999 SCT004 SCT015 BKN080 24/23 Q1013A2992 HR93=METAR SLJO 041100Z 36003KT 9999 FEW080 BKN200 24/23 Q1010 A2983 HR92RWY NML=METAR SLRA 041100Z 36004KT 9999 SCT080 BKN200 25/23 Q1011 A2986 HR93METAR SLMG 041100Z 00000KT 9999 BKN080 25/24 Q1010 A2985 HR94METAR SLBU 041100Z NIL=METAR SLSA 041100Z 33006KT 9999 SCT020 FEW023CB SCT080 BKN200 25/24Q1010 A2984 HR94 CB S=METAR SLSR 041100Z 32010KT 7000 -RA BKN010 FEW020CB OVC070 23/22Q1010 A2984 HR97 CB S/SW/W RWY HUM OPR=METAR SLSM 041100Z 36004KT 8000 VCSH SCT015 OVC070 25/24 Q1011 A2987HR96 SH N RWY HUM OPR=
ZPX0229 041102@CAELT@GG SLZZYMYT@CAELT@041101 SLLPYFYA@CAELT@SABO SLRQ 041100@CAELT@METAR SLRQ 041100Z 00000KT 9999 SCT012 BKN200 25/25 Q1010 A2985@CAELT@986,6 HR98=@CAELT@
ZPX0232 041103@CAELT@GG SLZZYMYT@CAELT@041101 SLCBYGYS@CAELT@SABO SLCB 041100@CAELT@METAR SLCB 041100Z 25004KT 9999 FEW036 BKN200 17/10 Q1022 A3020 749.7@CAELT@HR62 FU NOSIG=@CAELT@METAR SLAL 041100Z 01010KT 9999 BKN008 OVC070 12/11 Q1028 A3037 703.0@CAELT@HR92=@CAELT@METAR SLPO 041100Z 00000KT 9999 FEW013 BKN200 09/06 Q1034 A3055 635.8HR83=METAR SLAG 041100Z 36003KT 9999 SCT015 OVC070 20/17 Q1018 A3007 890.3HR85=METAR SLVM 041100Z 00000KT 9999 OVC070 23/20 Q1012 A2991 HR83=METAR SLTJ 041100Z 00000KT 9999 BKN027 BKN070 17/13 Q1021 A3016 816.0HR75=METAR SLYA 041100Z 00000KT 9999 SCT027 BNK070 21/21 Q1015 A3000 940.3HR98=
ZPX0235 041105@CAELT@GG SLZZYMYT@CAELT@041102 SLLPYFYA@CAELT@SABO SLLP 041100@CAELT@METAR SLLP 041100Z 12005KT 3000E VCFG FEW002 SCT012 BKN200 06/06@CAELT@Q1036 A3061 626.9 HR98 P92// VCFG NE/E/SE AC NOSIG=@CAELT@METAR SLCO 041100Z VRB02KT 9999 BKN006 BKN080 25/24 Q1011 A2988@CAELT@984.5 HR92 CI=@CAELT@METAR SLRY 041100Z 00000KT 9999 FEW015 SCT070 BKN200 24/23 Q1009A2981 HR95 RWY NML=METAR SLRQ 041100Z 00000KT 9999 SCT012 BKN200 25/25 Q1010 A2985986,6 HR98=METAR SLAP 041100Z 36005KT 9999 SCT015 BKN070 20/17 Q1017 A3003857.8 HR84 CI=METAR SLSB 041100Z 00000KT 6000 VCSH BKN017 FEW020CB BKN200 25/24Q1011 A2987 HR95 CB/SH W NW RWY NML=METAR SLOR 041100Z 03003KT 8000 FEW015 BKN200 08/03 Q1032 A3049654.3 HR66 VIS RED FU E/SE/S=METAR SLUY 041100Z 00000KT 9999 NSC 05/M10 Q1032 A3048 657.0HR32 CI=
ZPX0154 041151@CAELT@GG SLZZYMYT@CAELT@041150 SLPSYGYS@CAELT@SABO SLPS 041200@CAELT@METAR SLPS 041200Z 00000KT 9999 NSC 30/26 Q1012 A2989 HR81 CI=@CAELT@
ZPX0158 041153@CAELT@GG SLZZYMYT@CAELT@041154 SLVRYGYZ@CAELT@SABO SLVR 041200@CAELT@METAR SLVR 041200Z 35010KT 9999 BKN007 FEW030CB OVC070 24/23 Q1013@CAELT@A2993 HR91 CB/S TEMPO 8000 RA=@CAELT@
ZPX0159 041154@CAELT@GG SLZZYMYT@CAELT@041153 SLSBYSYX@CAELT@SABO SLSB 041200@CAELT@METAR SLSB 041200Z 00000KT 3000 -RA BKN015 FEW020CB OVC070 24/24@CAELT@Q1012 A2990 HR98 CB/SE S RWY WET OPR C210=@CAELT@
ZPX0161 041154@CAELT@GG SLZZYMYT@CAELT@041154 SLSAYGYS@CAELT@SABO SLSA 041200@CAELT@METAR SLSA 041200Z 34008KT 9999 SCT015 BKN080 26/24 Q1011 A2987 HR87=@CAELT@
ZPX0162 041155@CAELT@GG SLZZYMYT@CAELT@041155 SLORYGYZ@CAELT@SABO SLOR 041200@CAELT@METAR SLOR 041200Z 35008KT 9999 FEW017 BKN200 12/04 Q1033 A3051 654.7@CAELT@HR58 FU=@CAELT@
ZPX0163 041155@CAELT@GG SLZZYMYT@CAELT@041155 SLCAYGYS@CAELT@SABO SLCA 041200@CAELT@METAR SLCA 041200Z 00000KT 9999 OVC070 22/18 Q1017 A3003 HR76 RWY NML@CAELT@
ZPX0165 041155@CAELT@GG SLZZYMYT@CAELT@041155 SLETYMYC@CAELT@SABO SLET 041200@CAELT@METAR SLET 041200Z 32007KT 9000 -RA BKN007 BKN015 FEW030CB OVC070 23/@CAELT@22 Q1013 A2993 HR94 CB W NOSIG=@CAELT@
ZPX0166 041156@CAELT@GG SLZZYMYT@CAELT@041155 SLAGYSYX@CAELT@SABO SLAG 041200@CAELT@METAR SLAG 041200Z 00000KT 9999 FEW015 OVC070 20/17 Q1018 A3009 890.8@CAELT@HR82=@CAELT@
ZPX0167 041156@CAELT@GG SLZZYMYT@CAELT@041155 SLCBYGYZ@CAELT@SABO SLCB 041200@CAELT@METAR SLCB 041200Z 00000KT 9999 FEW036 BKN200 21/09 Q1023 A3022 750.0@CAELT@HR46 FU NOSIG=@CAELT@
ZPX0169 041156@CAELT@GG SLZZYMYT@CAELT@041154 SLRBYGYS@CAELT@SABO SLRB 041200@CAELT@METAR SLRB 041200Z 36006KT 9999 NSC 30/23 Q1014 A2994 HR67 CI RWY NML=@CAELT@
ZPX0170 041156@CAELT@GG SLZZYMYT@CAELT@041156 SLTRYGYZ@CAELT@SABO SLTR 041200@CAELT@METAR SLTR 041200Z 33003KT 8000 VCSH SCT005 FEW020CB BKN070 26/25@CAELT@Q1013 A2992 994.5 HR94 CB/SH N/SW/W TEMPO BKN005=@CAELT@
ZPX0171 041157@CAELT@GG SLZZYMYT@CAELT@041156 SLLPYFYA@CAELT@SABO SLRQ 041200@CAELT@METAR SLRQ 00000KT 9999 SCT012 BKN070 27/26 Q1011 A2986@CAELT@987.2 HR95=@CAELT@
ZPX0173 041158@CAELT@GG SLZZYMYT@CAELT@041156 SLTJYGYZ@CAELT@SABO SLTJ 041200@CAELT@METAR SLTJ 041200Z 00000KT 9999 BKN036 19/08 Q1021 A3017 816.4 HR49@CAELT@
ZPX0174 041158@CAELT@GG SLZZYMYT@CAELT@041155 SLLPYGYZ@CAELT@SABO SLLP 041200@CAELT@METAR SLLP 041200Z 10005KT 9999 FEW006 BKN200 11/05 Q1036@CAELT@A3061 627.1 HR68 P93// HZ S/SW/W/NW AC NOSIG=@CAELT@
ZPX0175 041159@CAELT@GG SLZZYMYT@CAELT@041159 SLUYYGYS@CAELT@SABO SLUY 041200@CAELT@METAR SLUY 041200Z 00000KT 9999 NSC 10/M12 Q1032 A3049 657.2@CAELT@HR20 CI=@CAELT@
ZPX0178 041200@CAELT@GG SLZZYMYT@CAELT@041200 SLTRYGYS@CAELT@SABO SLTR 041200@CAELT@METAR SLTR 041200Z 33003KT 8000 VCSH SCT005 FEW020CB BKN070 26/25@CAELT@Q1013 A2992 994.5 HR94 CB/SH N/SW/W TEMPO BKN005=@CAELT@METAR SLGM 041200Z 06008KT 7000 VCSH SCT008 BKN015 OVC070 25/24@CAELT@Q1013 A2991 HR90 SH S/SW=@CAELT@METAR SLRI 041200Z 00000KT 8000 VCSH BKN007 FEW020CB OVC200 24/23Q1014 A2995 HR93 CB/SH NE/E/SW=METAR SLJO 041200Z 36006KT 9999 FEW080 BKN200 26/23 Q1011 A2988 HR88RWY NML=METAR SLRA 041200Z 32006KT 9999 FEW020 SCT080 BKN200 26/23 Q1012A2989 HR88 RWY NML=METAR SLMG 041200Z 03004KT 9999 BKN080 26/24 Q1011 A2988 HR91METAR SLBU 041200Z 00000KT 9999 SCT080 BKN200 25/24 Q1011 A2987 HR92RWY HUM OPR=METAR SLSA 041200Z 34008KT 9999 SCT015 BKN080 26/24 Q1011 A2987 HR87=METAR SLSR 041200Z 32008KT 7000 VCSH SCT012 FEW020CB BKN070 BKN20024/23 Q1010 A2985 HR91 RERA CB/SH S/SW RWY HUM OPR=METAR SLSM 041200Z 02004KT 8000 VCSH SCT017 BKN070 26/25 Q1012 A2988HR94 SH NW RWY HUM OPR=
ZPX0179 041201@CAELT@GG SLZZYMYT@CAELT@041201 SLCBYGYS@CAELT@SABO SLCB 041200@CAELT@METAR SLCB 041200Z 00000KT 9999 FEW036 BKN200 21/09 Q1023 A3022 750.0@CAELT@HR46 FU NOSIG=@CAELT@METAR SLAL 041200Z 02011KT 9999 BKN010 OVC070 12/10 Q1028 A3038 703.4@CAELT@HR86=@CAELT@METAR SLPO 041200Z 06006KT 9999 FEW015 BKN200 11/06 Q1035 A3056 636.0HR71=METAR SLAG 041200Z 00000KT 9999 FEW015 OVC070 20/17 Q1018 A3009 890.8HR82=METAR SLVM 041200Z 00000KT 9999 OVC070 24/19 Q1013 A2992 HR73=METAR SLTJ 041200Z 00000KT 9999 BKN036 19/08 Q1021 A3017 816.4 HR49METAR SLYA 041200Z NIL=METAR SLBJ 041200Z NIL=METAR SLHI 041200Z NIL=
ZPX0180 041201@CAELT@GG SLZZYMYT@CAELT@041201 SLVRYFYC@CAELT@SABO SLVR 041200@CAELT@METAR SLVR 041200Z 35010KT 9999 BKN007 FEW030CB OVC070 24/23 Q1013@CAELT@A2993 HR91 CB/S TEMPO 8000 RA=@CAELT@METAR SLET 041200Z 32007KT 9000 -RA BKN007 BKN015 FEW030CB OVC070 23/@CAELT@22 Q1013 A2993 HR94 CB W NOSIG=@CAELT@METAR SLAS 041200Z 00000KT 9999 SCT020 25/23 Q1015 A2997 HR87 RWY NMLMETAR SLJV 041200Z 34005KT 9999 SCT070 24/22 Q1013 A2991 HR92 RWY NMLMETAR SLCP 041200Z 00000KT 9999 BKN070 25/21 Q1016 A3000 HR82 RWY NMLMETAR SLSI 041200Z 33006KT 9999 SCT070 26/22 Q1014 A2994 HR78 RWY NMLMETAR SLTI 041200Z 00000KT 9999 NSC 30/23 Q1016 A3000 HR66 CI RWY NMLMETAR SLJE 041200Z 00000KT 9999 BKN070 28/22 Q1016 A3000 HR72 RWY NMLMETAR SLVG 041200Z 18006KT 4000 -DZ OVC015 14/13 Q1024 A3024HR95 RWY NML=METAR SLRB 041200Z 36006KT 9999 NSC 30/23 Q1014 A2994 HR67 CI RWY NMLMETAR SLPS 041200Z 00000KT 9999 NSC 30/26 Q1012 A2989 HR81 CI=METAR SLCA 041200Z 00000KT 9999 OVC070 22/18 Q1017 A3003 HR76 RWY NML
ZPX0181 041202@CAELT@GG SLZZYMYT@CAELT@041156 SLCOYGYZ@CAELT@SABO SLCO 041200@CAELT@METAR SLCO 041200Z 32004KT 9999 SCT006 BKN017 BKN080 25/24 Q1013@CAELT@A2992 985.6 HR92=@CAELT@
ZPX0184 041204@CAELT@GG SLZZYMYT@CAELT@041200 SLLPYFYA@CAELT@SABO SLLP 041200@CAELT@METAR SLLP 041200Z 10005KT 9999 FEW006 BKN200 11/05 Q1036@CAELT@A3061 627.1 HR68 P93// HZ S/SW/W/NW AC NOSIG=@CAELT@METAR SLCO 041200Z 32004KT 9999 SCT006 BKN017 BKN080 25/24 Q1013@CAELT@A2992 985.6 HR92=@CAELT@METAR SLRY 041200Z 36003KT 9999 FEW016 SCT070 BKN200 25/24 Q1009A2982 HR89 RWY NML=METAR SLRQ 041200Z 00000KT 9999 SCT012 BKN070 27/26 Q1011 A2986987.2 HR95=METAR SLAP 041200Z 36008KT 9999 FEW015 BKN070 20/17 Q1017 A3004 858.1HR81 CI=METAR SLSB 041200Z 00000KT 3000 -RA BKN015 FEW020CB OVC070 24/24Q1012 A2990 HR98 CB/SE S RWY WET OPR C210=METAR SLOR 041200Z 35008KT 9999 FEW017 BKN200 12/04 Q1033 A3051 654.7HR58 FU=METAR SLUY 041200Z 00000KT 9999 NSC 10/M12 Q1032 A3049 657.2HR20 CI=
ZPX0185 041205@CAELT@GG SLZZYMYT@CAELT@041205 SLCBYGYS@CAELT@SABO SLCB 041200 RRA@CAELT@METAR SLCB 041200Z 00000KT 9999 FEW036 BKN200 21/09 Q1023 A3022 750.0@CAELT@HR46 FU NOSIG=@CAELT@METAR SLAL 041200Z 02011KT 9999 BKN010 OVC070 12/10 Q1028 A3038 703.4@CAELT@HR86=@CAELT@METAR SLPO 041200Z 06006KT 9999 FEW015 BKN200 11/06 Q1035 A3056 636.0HR71=METAR SLAG 041200Z 00000KT 9999 FEW015 OVC070 20/17 Q1018 A3009 890.8HR82=METAR SLVM 041200Z 00000KT 9999 OVC070 24/19 Q1013 A2992 HR73=METAR SLTJ 041200Z 00000KT 9999 BKN036 19/08 Q1021 A3017 816.4 HR49METAR RTD SLYA 041200Z 00000KT 9999 SCT030 OVC070 24/20 Q1013 A2994938.9 HR64=METAR SLBJ 041200Z NIL=METAR SLHI 041200Z NIL=
ZPX0214 041252@CAELT@GG SLZZYMYT@CAELT@041251 SLPSYGYS@CAELT@SABO SLPS 041300@CAELT@METAR SLPS 041300Z 00000KT 9999 NSC 33/27 Q1012 A2989 HR70 CI=@CAELT@
ZPX0215 041253@CAELT@GG SLZZYMYT@CAELT@041254 SLVRYGYZ@CAELT@SABO SLVR 041300@CAELT@METAR SLVR 041300Z 34015G26KT 9999 SCT008 BKN017 26/23 Q1013 A2994@CAELT@HR84 NOSIG=@CAELT@
ZPX0216 041254@CAELT@GG SLZZYMYT@CAELT@041254 SLSAYGYS@CAELT@SABO SLSA 041300@CAELT@METAR SLSA 041300Z 34010KT 9999 SCT015 BKN080 28/24 Q1012 A2990 HR80=@CAELT@
ZPX0217 041254@CAELT@GG SLZZYMYT@CAELT@041254 SLSAYGYS@CAELT@SABO SLSA 041300@CAELT@METAR SLSA 041300Z 34010KT 9999 SCT015 BKN080 28/24 Q1012 A2990 HR80=@CAELT@
ZPX0218 041254@CAELT@GG SLZZYMYT@CAELT@041255 SLORYGYZ@CAELT@SABO SLOR 041300@CAELT@METAR SLOR 041300Z 35006KT 9999 FEW017 SCT200 15/05 Q1034 A3053 655.2@CAELT@HR52=@CAELT@
ZPX0219 041255@CAELT@GG SLZZYMYT@CAELT@041253 SLRBYGYS@CAELT@SABO SLRB 041300@CAELT@METAR SLRB 041300Z 36004KT 9999 FEW020 BKN200 31/23 Q1014 A2994 HR63@CAELT@RWY NML=@CAELT@
ZPX0220 041255@CAELT@GG SLZZYMYT@CAELT@041255 SLCAYGYS@CAELT@SABO SLCA 041300@CAELT@METAR SLCA 041300Z 00000KT 9999 OVC070 23/17 Q1017 A3003 HR71 RWY NML@CAELT@
ZPX0221 041255@CAELT@GG SLZZYMYT@CAELT@041255 SLTRYGYZ@CAELT@SABO SLTR 041300@CAELT@METAR SLTR 041300Z 36006KT 9999 SCT005 FEW020CB BKN070 26/25@CAELT@Q1013 A2992 994.8 HR94 CB W NOSIG=@CAELT@
ZPX0222 041256@CAELT@GG SLZZYMYT@CAELT@041256 SLUYYGYS@CAELT@SABO SLUY 041300@CAELT@METAR SLUY 041300Z 32003KT 9999 FEW025 13/M12 Q1032 A3049 657.3@CAELT@HR20 CI=@CAELT@
ZPX0223 041256@CAELT@GG SLZZYMYT@CAELT@041253 SLLPYGYZ@CAELT@SABO SLLP 041300@CAELT@METAR SLLP 041300Z 11005KT 9999 SCT013 BKN200 12/06 Q1037@CAELT@A3063 627.5 HR67 P93// NOSIG=@CAELT@
ZPX0224 041256@CAELT@GG SLZZYMYT@CAELT@041255 SLAGYSYX@CAELT@SABO SLAG 041300@CAELT@METAR SLAG 041300Z 00000KT 9999 FEW015 OVC070 21/17 Q1019 A3010 891.2@CAELT@HR76=@CAELT@
ZPX0225 041257@CAELT@GG SLZZYMYT@CAELT@041255 SLCBYGYZ@CAELT@SABO SLCB 041300@CAELT@METAR SLCB 041300Z 00000KT 9999 FEW036 BKN200 23/08 Q1023 A3022 750.1@CAELT@HR39 FU NOSIG=@CAELT@
ZPX0226 041257@CAELT@GG SLZZYMYT@CAELT@041256 SLETYMYC@CAELT@SABO SLET 041300@CAELT@METAR SLET 041300Z 32010KT 9999 BKN010 BKN070 24/23 Q1013 A2994 HR92@CAELT@NOSIG=@CAELT@
ZPX0227 041257@CAELT@GG SLZZYMYT@CAELT@041256 SLTJYGYZ@CAELT@SABO SLTJ 041300@CAELT@METAR SLTJ 041300Z 00000KT 9999 SCT036 20/07 Q1021 A3018 816.5 HR44@CAELT@
ZPX0228 041258@CAELT@GG SLZZYMYT@CAELT@041257 SLVRYFYC@CAELT@SABO SLVR 041300@CAELT@METAR SLVR 041300Z 34015G26KT 9999 SCT008 BKN017 26/23 Q1013 A2994@CAELT@HR84 NOSIG=@CAELT@METAR SLET 041300Z 32010KT 9999 BKN010 BKN070 24/23 Q1013 A2994 HR92@CAELT@NOSIG=@CAELT@METAR SLAS 041300Z 00000KT 9999 SCT020 SCT070 27/23 Q1015 A2997 HR84RWY NML=METAR SLJV 041300Z 34005KT 9999 BKN070 26/23 Q1014 A2994 HR82 RWY NMLMETAR SLCP 041300Z 33005KT 9999 FEW015 BKN070 27/23 Q1017 A3003 HR78METAR SLSI 041300Z 36006KT 9999 FEW017 SCT070 29/23 Q1014 A2994 HR75METAR SLTI 041300Z 35006KT 9999 NSC 33/24 Q1017 A3003 HR59 CI RWY NMLMETAR SLJE 041300Z 00000KT 9999 SCT070 31/22 Q1016 A3000 HR72 RWY NMLMETAR SLVG 041300Z 18004KT 3000 -DZ BKN015 OVC070 15/14 Q1025 A3027HR90 RWY NML=METAR SLRB 041300Z 36004KT 9999 FEW020 BKN200 31/23 Q1014 A2994 HR63METAR SLPS 041300Z 00000KT 9999 NSC 33/27 Q1012 A2989 HR70 CI=METAR SLCA 041300Z 00000KT 9999 OVC070 23/17 Q1017 A3003 HR71 RWY NML
ZPX0230 041259@CAELT@GG SLZZYMYT@CAELT@041259 SLTRYGYS@CAELT@SABO SLTR 041300@CAELT@METAR SLTR 041300Z 36006KT 9999 SCT005 FEW020CB BKN070 26/25@CAELT@Q1013 A2992 994.8 HR94 CB W NOSIG=@CAELT@METAR SLGM 041300Z 02010KT 5000 VCSH SCT005 SCT015 FEW020CB BKN070@CAELT@26/24 Q1013 A2993 HR93 RERA CB/SH SW/W=@CAELT@METAR SLRI 041300Z 03006KT 8000 VCSH SCT007 BKN015 FEW020CB BKN20026/24 Q1014 A2997 HR89 CB/SH S/SW=METAR SLJO 041300Z 36012KT 9999 FEW020 BKN080 BKN200 28/23 Q1012A2991 HR73 RWY NML=METAR SLRA 041300Z 36010KT 9999 FEW015 BKN080 28/23 Q1012 A2989 HR75RWY NML=METAR SLMG 041300Z 03006KT 9999 BKN080 27/24 Q1012 A2989 HR84METAR SLBU 041300Z 00000KT 9999 SCT080 BKN200 28/24 Q1012 A2989 HR83RWY HUM OPR=METAR SLSA 041300Z 34010KT 9999 SCT015 BKN080 28/24 Q1012 A2990 HR80=METAR SLSR 041300Z 32012KT 7000 VCSH SCT012 FEW020CB SCT070 BKN20026/23 Q1011 A2987 HR83 CB/SH N/NE/NW RWY HUM OPR=METAR SLSM 041300Z 33005KT 9999 SCT015 BKN070 28/25 Q1012 A2991 HR86
ZPX0234 041300@CAELT@GG SLZZYMYT@CAELT@041259 SLSBYSYX@CAELT@SABO SLSB 041300@CAELT@METAR SLSB 041300Z 00000KT 9999 SCT015 BKN080 27/24 Q1012 A2991 HR94@CAELT@RERA SH/SE RWY WET OPR C210=@CAELT@
ZPX0235 041300@CAELT@GG SLZZYMYT@CAELT@041300 SLCOYGYZ@CAELT@SABO SLCO 041300@CAELT@METAR SLCO 041300Z 33003KT 9999 SCT006 BKN080 26/24 Q1013 A2993 986.1@CAELT@HR90=@CAELT@
ZPX0236 041301@CAELT@GG SLZZYMYT@CAELT@041300 SLCBYGYS@CAELT@SABO SLCB 041300@CAELT@METAR SLCB 041300Z 00000KT 9999 FEW036 BKN200 23/08 Q1023 A3022 750.1@CAELT@HR39 FU NOSIG=@CAELT@METAR SLAL 041300Z 02011KT 9999 BKN012 OVC070 13/11 Q1028 A3038 703.4@CAELT@HR87=@CAELT@METAR SLPO 041300Z 06004KT 9999 FEW015 SCT200 13/06 Q1035 A3058 636.4HR64=METAR SLAG 041300Z 00000KT 9999 FEW015 OVC070 21/17 Q1019 A3010 891.2HR76=METAR SLVM 041300Z 00000KT 9999 OVC070 26/20 Q1014 A2994 HR69=METAR SLTJ 041300Z 00000KT 9999 SCT036 20/07 Q1021 A3018 816.5 HR44METAR SLYA 041300Z NIL=METAR SLBJ 041300Z NIL=METAR SLHI 041300Z NIL=
ZPX0242 041305@CAELT@GG SLZZYMYT@CAELT@041300 SLLPYFYA@CAELT@SABO SLLP 041300@CAELT@METAR SLLP 041300Z 11005KT 9999 SCT013 BKN200 12/06 Q1037@CAELT@A3063 627.5 HR67 P93// NOSIG=@CAELT@METAR SLCO 041300Z 33003KT 9999 SCT006 BKN080 26/24 Q1013 A2993 986.1@CAELT@HR90=@CAELT@METAR SLRY 041300Z 34005KT 9999 FEW016 SCT070 BKN200 28/24 Q1010A2983 HR79 RWY NML=METAR SLRQ 041300Z 36004KT 9999 BKN012 BKN070 27/25 Q1012 A2989987.9 HR88 CI=METAR SLAP 041300Z 36005KT 9999 FEW015 BKN070 22/17 Q1017 A3004 858.1HR73 CI=METAR SLSB 041300Z 00000KT 9999 SCT015 BKN080 27/24 Q1012 A2991 HR94RERA SH/SE RWY WET OPR C210=METAR SLOR 041300Z 35006KT 9999 FEW017 SCT200 15/05 Q1034 A3053 655.2HR52=METAR SLUY 041300Z 32003KT 9999 FEW025 13/M12 Q1032 A3049 657.3HR20 CI=
ZPX0244 041315@CAELT@GG SLZZYMYT@CAELT@041312 SLCBYGYS@CAELT@SABO SLCB 041300 RRB@CAELT@METAR SLCB 041300Z 00000KT 9999 FEW036 BKN200 23/08 Q1023 A3022 750.1@CAELT@HR39 FU NOSIG=@CAELT@METAR SLAL 041300Z 02011KT 9999 BKN012 OVC070 13/11 Q1028 A3038 703.4@CAELT@HR87=@CAELT@METAR SLPO 041300Z 06004KT 9999 FEW015 SCT200 13/06 Q1035 A3058 636.4HR64=METAR SLAG 041300Z 00000KT 9999 FEW015 OVC070 21/17 Q1019 A3010 891.2HR76=METAR SLVM 041300Z 00000KT 9999 OVC070 26/20 Q1014 A2994 HR69=METAR SLTJ 041300Z 00000KT 9999 SCT036 20/07 Q1021 A3018 816.5 HR44METAR RTD SLYA 041300Z 21006KT 9999 OVC070 25/24 Q1013 A2992 938.0HR89=METAR SLBJ 041300Z NIL=METAR SLHI 041300Z NIL=
ZPX0269 041353@CAELT@GG SLZZYMYT@CAELT@041352 SLPSYGYS@CAELT@SABO SLPS 041400@CAELT@METAR SLPS 041400Z 36012KT 9999 FEW017 SCT200 34/26 Q1012 A2989 HR65=@CAELT@
ZPX0271 041353@CAELT@GG SLZZYMYT@CAELT@041354 SLVRYGYZ@CAELT@SABO SLVR 041400@CAELT@METAR SLVR 041400Z 34012KT 9999 BKN010 BKN017 26/23 Q1014 A2995 HR82@CAELT@AC NOSIG=@CAELT@
ZPX0272 041354@CAELT@GG SLZZYMYT@CAELT@041355 SLCOYGYZ@CAELT@SABO SLCO 041400@CAELT@METAR SLCO 041400Z 34004KT 9999 BKN007 BKN080 27/24 Q1013 A2994 986.4@CAELT@HR84=@CAELT@
ZPX0273 041354@CAELT@GG SLZZYMYT@CAELT@041354 SLCOYGYZ@CAELT@SABO SLCO 041400@CAELT@METAR SLCO 041400Z 34004KT 9999 BKN007 BKN080 27/24 Q1013 A2994 986.4@CAELT@HR84=@CAELT@
ZPX0274 041354@CAELT@GG SLZZYMYT@CAELT@041354 SLETYMYC@CAELT@SABO SLET 041400@CAELT@METAR SLET 041400Z 32008KT 9999 SCT008 BKN015 BKN070 25/23 Q1013@CAELT@A2994 HR89 SH S/SW TEMPO BKN008=@CAELT@
ZPX0275 041354@CAELT@GG SLZZYMYT@CAELT@041355 SLORYGYZ@CAELT@SABO SLOR 041400@CAELT@METAR SLOR 041400Z 35010KT 9999 SCT020 17/05 Q1033 A3051 654.7 HR44@CAELT@
ZPX0276 041354@CAELT@GG SLZZYMYT@CAELT@041353 SLRBYGYS@CAELT@SABO SLRB 041400@CAELT@METAR SLRB 041400Z 36006KT 9999 FEW020 BKN200 33/22 Q1015 A2997 HR53@CAELT@RWY NML=@CAELT@
ZPX0277 041354@CAELT@GG SLZZYMYT@CAELT@041354 SLSAYGYS@CAELT@SABO SLSA 041400@CAELT@METAR SLSA 041400Z 36014KT 7000 VCSH BKN017 FEW023CB BKN080 30/24@CAELT@Q1012 A2990 HR73 CB N SH N/NE/S=@CAELT@
ZPX0278 041355@CAELT@GG SLZZYMYT@CAELT@041356 SLUYYGYS@CAELT@SABO SLUY 041400@CAELT@METAR SLUY 041400Z 32008KT 9999 FEW027 16/M12 Q1032 A3048 657.0@CAELT@HR18 CI=@CAELT@
ZPX0280 041355@CAELT@GG SLZZYMYT@CAELT@041355 SLCAYGYS@CAELT@SABO SLCA 041400@CAELT@METAR SLCA 041400Z 00000KT 9999 SCT040 BKN080 24/17 Q1017 A3003 HR64@CAELT@RWY NML=@CAELT@
ZPX0281 041355@CAELT@GG SLZZYMYT@CAELT@041356 SLLPYGYZ@CAELT@SABO SLLP 041400@CAELT@METAR SLLP 041400Z 08006KT 9999 SCT015 FEW017CB BKN200 13/05 Q1037@CAELT@A3064 627.7 HR59 P0784 CB/SH N NOSIG=@CAELT@
ZPX0282 041356@CAELT@GG SLZZYMYT@CAELT@041356 SLTRYGYZ@CAELT@SABO SLTR 041400@CAELT@METAR SLTR 041400Z 35006KT 9999 SCT012 FEW020CB BKN070 Q1013 A2993@CAELT@995.1 HR87 CB W NOSIG=@CAELT@
ZPX0283 041356@CAELT@GG SLZZYMYT@CAELT@041356 SLTJYGYZ@CAELT@SABO SLTJ 041400@CAELT@METAR SLTJ 041400Z 12005KT 9999 FEW036 BKN070 21/08 Q1022 A3018 816.6@CAELT@HR43=@CAELT@
ZPX0285 041357@CAELT@GG SLZZYMYT@CAELT@041357 SLCBYGYZ@CAELT@SABO SLCB 041400@CAELT@METAR SLCB 041400Z 20003KT 9999 SCT040 BKN200 26/08 Q1023 A3022 750.2@CAELT@HR32 FU NOSIG=@CAELT@
ZPX0286 041357@CAELT@GG SLZZYMYT@CAELT@041356 SLAGYSYX@CAELT@SABO SLAG 041400@CAELT@METAR SLAG 041400Z 00000KT 9999 FEW017 BKN070 23/17 Q1019 A3010 891.1@CAELT@HR70=@CAELT@
ZPX0287 041358@CAELT@GG SLZZYMYT@CAELT@041358 SLVRYFYC@CAELT@SABO SLVR 041400@CAELT@METAR SLVR 041400Z 34012KT 9999 BKN010 BKN017 26/23 Q1014 A2995 HR82@CAELT@AC NOSIG=@CAELT@METAR SLET 041400Z 32008KT 9999 SCT008 BKN015 BKN070 25/23 Q1013@CAELT@A2994 HR89 SH S/SW TEMPO BKN008=@CAELT@METAR SLAS 041400Z 36010KT 9999 SCT020 SCT070 29/24 Q1016 A3000 HR76RWY NML=METAR SLJV 041400Z 34005KT 9999 FEW017 BKN070 29/24 Q1014 A2994 HR75METAR SLCP 041400Z 30010KT 9999 SCT015 28/23 Q1017 A3003 HR72 AC RWYNML=METAR SLSI 041400Z 33008KT 9999 SCT017 30/23 Q1014 A2994 HR67 RWY NMLMETAR SLTI 041400Z 34010KT 9999 SCT070 BKN200 34/22 Q1017 A3003 HR49METAR SLJE 041400Z 35008KT 9999 FEW017 33/22 Q1016 A3000 HR53 RWY NMLMETAR SLVG 041400Z 00000KT 4000 -DZ OVC015 16/15 Q1025 A3027 HR90 RWYHUM OPR=METAR SLRB 041400Z 36006KT 9999 FEW020 BKN200 33/22 Q1015 A2997 HR53METAR SLPS 041400Z 36012KT 9999 FEW017 SCT200 34/26 Q1012 A2989 HR65=METAR SLCA 041400Z 00000KT 9999 SCT040 BKN080 24/17 Q1017 A3003 HR64
ZPX0288 041358@CAELT@GG SLZZYMYT@CAELT@041357 SLSBYSYX@CAELT@SABO SLSB 041400@CAELT@METAR SLSB 041400Z 34003KT 9999 SCT015 BKN200 29/26 Q1013 A2992 HR84@CAELT@SH/SE RWY WET OPR C210=@CAELT@
ZPX0289 041358@CAELT@GG SLZZYMYT@CAELT@041358 SLTRYGYS@CAELT@SABO SLTR 041400@CAELT@METAR SLTR 041400Z 35006KT 9999 SCT012 FEW020CB BKN070 Q1013 A2993@CAELT@995.1 HR87 CB W NOSIG=@CAELT@METAR SLGM 041400Z 02006KT 6000 VCSH BKN015 FEW020CB BKN080 28/24@CAELT@Q1013 A2993 HR80 CB/SH N/NW=@CAELT@METAR SLRI 041400Z 03006KT 5000 VCSH SCT007 BKN015 FEW020CB BKN07028/24 Q1015 A2998 HR80 CB/SH NE/E/SE/SW/W=METAR SLJO 041400Z 34015KT 9999 FEW020 BKN080 29/23 Q1013 A2992 HR70CI RWY NML=METAR SLRA 041400Z 36012KT 9999 FEW017 BKN080 29/23 Q1012 A2991 HR71RWY NML=METAR SLMG 041400Z 36006KT 9999 BKN080 29/24 Q1012 A2991 HR77METAR SLBU 041400Z 00000KT 9999 SCT080 BKN200 29/24 Q1012 A2990 HR77METAR SLSA 041400Z 36014KT 7000 VCSH BKN017 FEW023CB BKN080 30/24Q1012 A2990 HR73 CB N SH N/NE/S=METAR SLSR 041400Z 32010KT 7000 VCSH SCT012 FEW023CB BKN200 27/23Q1012 A2990 HR79 CB/SH N/NE/E RWY NML=METAR SLSM 041400Z 33004KT 9999 SCT015 BKN070 28/25 Q1013 A2992 HR84
ZPX0292 041400@CAELT@GG SLZZYMYT@CAELT@041400 SLLPYFYA@CAELT@SABO SLLP 041400@CAELT@METAR SLLP 041400Z 08006KT 9999 SCT015 FEW017CB BKN200 13/05 Q1037@CAELT@A3064 627.7 HR59 P0784 CB/SH N NOSIG=@CAELT@METAR SLCO 041400Z 34004KT 9999 BKN007 BKN080 27/24 Q1013 A2994 986.4@CAELT@HR84=@CAELT@METAR SLRY 041400Z 32006KT 9999 SCT016 SCT070 BKN200 29/23 Q1010A2985 HR71 RWY NML=METAR SLRQ 041400Z 00000KT 9999 BKN015 SCT070 29/25 Q1012 A2990988.4 HR77 CI=METAR SLAP 041400Z 36005KT 9999 FEW025 BKN080 26/17 Q1017 A3005 858.3HR61 CI=METAR SLSB 041400Z 34003KT 9999 SCT015 BKN200 29/26 Q1013 A2992 HR84SH/SE RWY WET OPR C210=METAR SLOR 041400Z 35010KT 9999 SCT020 17/05 Q1033 A3051 654.7 HR44METAR SLUY 041400Z 32008KT 9999 FEW027 16/M12 Q1032 A3048 657.0HR18 CI=
ZPX0293 041401@CAELT@GG SLZZYMYT@CAELT@041401 SLCBYGYS@CAELT@SABO SLCB 041400@CAELT@METAR SLCB 041400Z 20003KT 9999 SCT040 BKN200 26/08 Q1023 A3022 750.2@CAELT@HR32 FU NOSIG=@CAELT@METAR SLAL 041400Z 02011KT 9999 BKN013 OVC070 14/10 Q1028 A3038 703.4@CAELT@HR82=@CAELT@METAR SLPO 041400Z 06005KT 9999 SCT017 14/06 Q1035 A3058 636.5 HR59METAR SLAG 041400Z 00000KT 9999 FEW017 BKN070 23/17 Q1019 A3010 891.1HR70=METAR SLVM 041400Z 00000KT 9999 OVC070 27/20 Q1014 A2995 HR68=METAR SLTJ 041400Z 12005KT 9999 FEW036 BKN070 21/08 Q1022 A3018 816.6HR43=METAR SLYA 041400Z 00000KT 9999 BKN070 28/24 Q1014 A2995 939.0 HR81=METAR SLBJ 041400Z NIL=METAR SLHI 041400Z NIL=
ZPX0313 041431@CAELT@GG SLZZYMYT@CAELT@041430 SLTRYGYZ@CAELT@SABO SLTR 041400 CCA@CAELT@METAR COR SLTR 041400Z 35006KT 9999 SCT012 FEW020CB BKN070 28/25@CAELT@Q1013 A2993 995.1 HR87 CB W NOSIG=@CAELT@
ZPX0325 041445@CAELT@GG SLZZYMYT@CAELT@041055 SLRQYSYX@CAELT@SABO SLRQ 041100@CAELT@METAR SLRQ 041100Z 00000KT 9999 BKN012 OVC070 27/26 Q1010 A2985 987.2@CAELT@HR98=@CAELT@
ZPX0326 041445@CAELT@GG SLZZYMYT@CAELT@041155 SLRQYSYX@CAELT@SABO SLRQ 041200@CAELT@METAR SLRQ 041200Z 00000KT 9999 SCT012 BKN070 27/26 Q1011 A2986 987.2@CAELT@HR95=@CAELT@
ZPX0328 041445@CAELT@GG SLZZYMYT@CAELT@041255 SLRQYSYX@CAELT@SABO SLRQ 041300@CAELT@METAR SLRQ 041300Z 36004KT 9999 BKN012 BKN070 27/25 Q1012 A2989 987.9@CAELT@HR88 CI=@CAELT@
ZPX0332 041451@CAELT@GG SLZZYMYT@CAELT@041450 SLPSYGYS@CAELT@SABO SLPS 041500@CAELT@METAR SLPS 041500Z 36006KT 9999 FEW017 SCT200 35/26 Q1011 A2986 HR60=@CAELT@
ZPX0334 041451@CAELT@GG SLZZYMYT@CAELT@041451 SLCAYGYS@CAELT@SABO SLCA 041500@CAELT@METAR SLCA 041500Z 00000KT 9999 BKN080 28/13 Q1017 A3003 HR43 RWY NML@CAELT@
ZPX0337 041453@CAELT@GG SLZZYMYT@CAELT@041454 SLVRYGYZ@CAELT@SABO SLVR 041500@CAELT@METAR SLVR 041500Z 36006KT 9999 SCT010 BKN017 25/22 Q1014 A2995 HR85@CAELT@AC NOSIG=@CAELT@
ZPX0338 041454@CAELT@GG SLZZYMYT@CAELT@041453 SLRBYGYS@CAELT@SABO SLRB 041500@CAELT@METAR SLRB 041500Z 36010KT 9999 SCT020 BKN200 35/22 Q1014 A2994 HR46@CAELT@RWY NML=@CAELT@
ZPX0339 041454@CAELT@GG SLZZYMYT@CAELT@041454 SLSAYGYS@CAELT@SABO SLSA 041500@CAELT@METAR SLSA 041500Z 32014KT 7000 TS VCSH BKN017 FEW023CB BKN080 27/25@CAELT@Q1012 A2989 HR87 RESHRA CB/SH N/NE/SE/S TS S=@CAELT@
ZPX0340 041455@CAELT@GG SLZZYMYT@CAELT@041455 SLORYGYZ@CAELT@SABO SLOR 041500@CAELT@METAR SLOR 041500Z 36010KT 9999 SCT020 18/06 Q1033 A3051 654.6 HR45@CAELT@
ZPX0341 041455@CAELT@GG SLZZYMYT@CAELT@041456 SLUYYGYS@CAELT@SABO SLUY 041500@CAELT@METAR SLUY 041500Z 32012KT 9999 FEW030 17/M04 Q1031 A3047 656.7@CAELT@HR24 CI=@CAELT@
ZPX0342 041456@CAELT@GG SLZZYMYT@CAELT@041455 SLTRYGYZ@CAELT@SABO SLTR 041500@CAELT@METAR SLTR 041500Z 34005KT 8000 -SHRA SCT015 FEW020CB BKN070 28/26@CAELT@Q1013 A2992 994.8 HR88 CB N/NW NOSIG=@CAELT@
ZPX0343 041456@CAELT@GG SLZZYMYT@CAELT@041455 SLCBYGYZ@CAELT@SABO SLCB 041500@CAELT@METAR SLCB 041500Z 26003KT 9999 SCT040 27/07 Q1022 A3020 749.7 HR29@CAELT@FU CI NOSIG=@CAELT@
ZPX0344 041456@CAELT@GG SLZZYMYT@CAELT@041455 SLAGYSYX@CAELT@SABO SLAG 041500@CAELT@METAR SLAG 041500Z 00000KT 9999 FEW017 BKN070 26/16 Q1018 A3008 890.5@CAELT@HR56 CI=@CAELT@
ZPX0345 041456@CAELT@GG SLZZYMYT@CAELT@041455 SLTJYGYZ@CAELT@SABO SLTJ 041500@CAELT@METAR SLTJ 041500Z 16004KT 9999 FEW036 BKN070 22/08 Q1021 A3015 815.8@CAELT@HR40=@CAELT@
ZPX0347 041456@CAELT@GG SLZZYMYT@CAELT@041456 SLETYMYC@CAELT@SABO SLET 041500@CAELT@METAR SLET 041500Z 23008KT 9000 -RA BKN008 BKN015 FEW030CB BKN070 22/@CAELT@20 Q1013 A2994 HR90 CB SW/W TEMPO 3000=@CAELT@
ZPX0348 041457@CAELT@GG SLZZYMYT@CAELT@041456 SLRQYSYX@CAELT@SABO SLRQ 041500@CAELT@METAR SLRQ 041500Z 36004KT 9999 BKN017 SCT080 30/25 Q1012 A2989 988.2@CAELT@HR73 CI=@CAELT@
ZPX0350 041458@CAELT@GG SLZZYMYT@CAELT@041455 SLLPYGYZ@CAELT@SABO SLLP 041500@CAELT@METAR SLLP 041500Z 08008KT 9999 FEW015 FEW017CB BKN200 14/05 Q1037@CAELT@A3063 627.5 HR55 P3487 CB/N/NE/E/SW SH NE/E AC NOSIG=@CAELT@
ZPX0351 041458@CAELT@GG SLZZYMYT@CAELT@041458 SLVRYFYC@CAELT@SABO SLVR 041500@CAELT@METAR SLVR 041500Z 36006KT 9999 SCT010 BKN017 25/22 Q1014 A2995 HR85@CAELT@AC NOSIG=@CAELT@METAR SLET 041500Z 23008KT 9000 -RA BKN008 BKN015 FEW030CB BKN070 22/@CAELT@20 Q1013 A2994 HR90 CB SW/W TEMPO 3000=@CAELT@METAR SLAS 041500Z 36010KT 9999 BKN020 BKN070 29/24 Q1015 A2997 HR72RWY NML=METAR SLJV 041500Z 34005KT 9999 SCT020 BKN070 30/23 Q1013 A2991 HR68METAR SLCP 041500Z 30014KT 9999 BKN017 29/23 Q1017 A3003 HR70 RWY NMLMETAR SLSI 041500Z 33010KT 9999 SCT017 31/23 Q1014 A2994 HR62 RWY NMLMETAR SLTI 041500Z 34010KT 9999 FEW017 SCT070 BKN200 35/23 Q1017A3003 HR50 RWY NML=METAR SLJE 041500Z 35012KT 9999 FEW017 34/22 Q1016 A3000 HR50 RWY NMLMETAR SLVG 041500Z 00000KT 9999 OVC015 17/16 Q1025 A3027 HR90 REDZRWY HUM OPR=METAR SLRB 041500Z 36010KT 9999 SCT020 BKN200 35/22 Q1014 A2994 HR46METAR SLPS 041500Z 36006KT 9999 FEW017 SCT200 35/26 Q1011 A2986 HR60=METAR SLCA 041500Z 00000KT 9999 BKN080 28/13 Q1017 A3003 HR43 RWY NML
ZPX0353 041459@CAELT@GG SLZZYMYT@CAELT@041458 SLCOYGYZ@CAELT@SABO SLCO 041500@CAELT@METAR SLCO 041500Z 35004KT 9999 SCT010 BKN080 28/24 Q1013 A2993 986.2@CAELT@HR80=@CAELT@
ZPX0354 041459@CAELT@GG SLZZYMYT@CAELT@041458 SLCOYGYZ@CAELT@SABO SLCO 041500@CAELT@METAR SLCO 041500Z 35004KT 9999 SCT010 BKN080 28/24 Q1013 A2993 986.2@CAELT@HR80=@CAELT@
ZPX0355 041459@CAELT@GG SLZZYMYT@CAELT@041458 SLSBYSYX@CAELT@SABO SLSB 041500@CAELT@METAR SLSB 041500Z 31007KT 8000 VCSH SCT017 FEW020CB BKN200 30/24@CAELT@Q1012 A2991 HR73 CB/NE NW SH/NE E SW W NW RWY WET OPR C210=@CAELT@
ZPX0359 041500@CAELT@GG SLZZYMYT@CAELT@041459 SLTRYGYS@CAELT@SABO SLTR 041500@CAELT@METAR SLTR 041500Z 34005KT 8000 -SHRA SCT015 FEW020CB BKN070 28/26@CAELT@Q1013 A2992 994.8 HR88 CB N/NW NOSIG=@CAELT@METAR SLGM 041500Z 36012KT 5000 TS VCSH SCT007 BKN015 FEW020CB OVC070@CAELT@26/24 Q1013 A2993 HR93 CB/SH N/S/SW/NW TS NW=@CAELT@METAR SLRI 041500Z 32008KT 5000 VCSH SCT004 BKN015 FEW020CB OVC07027/24 Q1015 A2998 HR82 RESHRA CB/SH E/SE/W/NW=METAR SLJO 041500Z 34014KT 9999 FEW020 BKN080 29/23 Q1012 A2991 HR70RWY NML=METAR SLRA 041500Z 35012KT 9999 FEW017 BKN080 30/23 Q1013 A2992 HR66METAR SLMG 041500Z 36008KT 9999 FEW015 BKN080 30/24 Q1012 A2991 HR72METAR SLBU 041500Z 32006KT 9999 FEW015 SCT080 BKN200 29/25 Q1012A2989 HR77 RWY NML=METAR SLSA 041500Z 32014KT 7000 TS VCSH BKN017 FEW023CB BKN080 27/25Q1012 A2989 HR87 RESHRA CB/SH N/NE/SE/S TS S=METAR SLSR 041500Z 32010KT 7000 VCSH SCT012 FEW023CB OVC070 28/24Q1011 A2988 HR76 CB/SH NE/E/SE/NW RWY NML=METAR SLSM 041500Z 33004KT 9999 SCT015 BKN070 29/25 Q1013 A2991 HR82
ZPX0362 041501@CAELT@GG SLZZYMYT@CAELT@041501 SLCBYGYS@CAELT@SABO SLCB 041500@CAELT@METAR SLCB 041500Z 26003KT 9999 SCT040 27/07 Q1022 A3020 749.7 HR29@CAELT@FU CI NOSIG=@CAELT@METAR SLAL 041500Z 02011KT 9999 BKN015 BKN070 16/10 Q1028 A3038 703.4@CAELT@HR67=@CAELT@METAR SLPO 041500Z 02003KT 9999 SCT017 15/05 Q1035 A3056 635.9 HR53METAR SLAG 041500Z 00000KT 9999 FEW017 BKN070 26/16 Q1018 A3008 890.5HR56 CI=METAR SLVM 041500Z 00000KT 9999 FEW025 OVC070 28/21 Q1013 A2993 HR66=METAR SLTJ 041500Z 16004KT 9999 FEW036 BKN070 22/08 Q1021 A3015 815.8HR40=METAR SLYA 041500Z 9999 BKN070 28/24 Q1014 A2995 929.5 HR81=METAR SLBJ 041500Z NIL=METAR SLHI 041500Z NIL=
ZPX0366 041506@CAELT@GG SLZZYMYT@CAELT@041503 SLLPYFYA@CAELT@SABO SLLP 041500@CAELT@METAR SLLP 041500Z 08008KT 9999 FEW015 FEW017CB BKN200 14/05 Q1037@CAELT@A3063 627.5 HR55 P3487 CB/N/NE/E/SW SH NE/E AC NOSIG=@CAELT@METAR SLCO 041500Z 35004KT 9999 SCT010 BKN080 28/24 Q1013 A2993 986.2@CAELT@HR80=@CAELT@METAR SLRY 041500Z 32008KT 9999 VCSH SCT016 SCT070 BKN200 30/23 Q1011A2987 HR68 SH NW RWY NML=METAR SLRQ 041500Z 36004KT 9999 BKN017 SCT080 30/25 Q1012 A2989 988.2HR73 CI=METAR SLAP 041500Z 36015KT 9999 FEW025 BKN080 26/17 Q1017 A3005 858.3HR58 CI=METAR SLSB 041500Z 31007KT 8000 VCSH SCT017 FEW020CB BKN200 30/24Q1012 A2991 HR73 CB/NE NW SH/NE E SW W NW RWY WET OPR C210=METAR SLOR 041500Z 36010KT 9999 SCT020 18/06 Q1033 A3051 654.6 HR45METAR SLUY 041500Z 32012KT 9999 FEW030 17/M04 Q1031 A3047 656.7HR24 CI=
ZPX0371 041511@CAELT@GG SLZZYMYT@CAELT@041511 SLCBYGYS@CAELT@SABO SLCB 041500 CCA@CAELT@METAR SLCB 041500Z 26003KT 9999 SCT040 27/07 Q1022 A3020 749.7 HR29@CAELT@FU CI NOSIG=@CAELT@METAR SLAL 041500Z 02011KT 9999 BKN015 BKN070 16/10 Q1028 A3038 703.4@CAELT@HR67=@CAELT@METAR SLPO 041500Z 02003KT 9999 SCT017 15/05 Q1035 A3056 635.9 HR53METAR SLAG 041500Z 00000KT 9999 FEW017 BKN070 26/16 Q1018 A3008 890.5HR56 CI=METAR SLVM 041500Z 00000KT 9999 FEW025 OVC070 28/21 Q1013 A2993 HR66=METAR SLTJ 041500Z 16004KT 9999 FEW036 BKN070 22/08 Q1021 A3015 815.8HR40=METAR COR SLYA 041500Z 00000KT 9999 BKN070 28/24 Q1014 A2995 929.5HR80=METAR SLBJ 041500Z NIL=METAR SLHI 041500Z NIL=
ZPX0392 041553@CAELT@GG SLZZYMYT@CAELT@041553 SLSBYSYX@CAELT@SABO SLSB 041600@CAELT@METAR SLSB 041600Z 30010KT 6000 VCSH BKN017 FEW020CB BKN200 30/25@CAELT@Q1011 A2988 HR73 CB/NW SH/S SW W NW RWY WET OPR C210=@CAELT@
ZPX0393 041553@CAELT@GG SLZZYMYT@CAELT@041553 SLPSYGYS@CAELT@SABO SLPS 041600@CAELT@METAR SLPS 041600Z 36008KT 9999 SCT017 FEW030CB SCT200 36/26 Q1011@CAELT@A2986 HR57 CB/NE=@CAELT@
ZPX0394 041554@CAELT@GG SLZZYMYT@CAELT@041553 SLRBYGYS@CAELT@SABO SLRB 041600@CAELT@METAR SLRB 041600Z 36008KT 9999 SCT020 BKN200 36/21 Q1013 A2991 HR43@CAELT@RWY NML=@CAELT@
ZPX0395 041554@CAELT@GG SLZZYMYT@CAELT@041555 SLORYGYZ@CAELT@SABO SLOR 041600@CAELT@METAR SLOR 041600Z 04010KT 9999 SCT023 FEW025CB 20/06 Q1032 A3049 654@CAELT@.2 HR40 CB/E/W CI=@CAELT@
ZPX0396 041554@CAELT@GG SLZZYMYT@CAELT@041555 SLVRYGYZ@CAELT@SABO SLVR 041600@CAELT@METAR SLVR 041600Z 34012G23KT 9999 SCT012 BKN017 28/23 Q1013 A2993@CAELT@HR76 AC NOSIG=@CAELT@
ZPX0398 041555@CAELT@GG SLZZYMYT@CAELT@041555 SLCOYGYZ@CAELT@SABO SLCO 041600@CAELT@METAR SLCO 041600Z 35006KT 9999 BKN015 BKN080 29/24 Q1013 A2993 986.0@CAELT@HR75=@CAELT@
ZPX0399 041555@CAELT@GG SLZZYMYT@CAELT@041555 SLETYMYC@CAELT@SABO SLET 041600@CAELT@METAR SLET 041600Z 16005KT 9999 SCT008 BKN015 FEW030CB 23/20 Q1013@CAELT@A2992 HR84 CB W AC/CI NOSIG=@CAELT@
ZPX0401 041556@CAELT@GG SLZZYMYT@CAELT@041555 SLRQYSYX@CAELT@SABO SLRQ 041600@CAELT@METAR SLRQ 041600Z 36006KT 9999 BKN020 SCT200 31/25 Q1011 A2986 987.2@CAELT@HR68 AC=@CAELT@
ZPX0402 041556@CAELT@GG SLZZYMYT@CAELT@041555 SLSAYGYS@CAELT@SABO SLSA 041600@CAELT@METAR SLSA 041600Z 34014KT 3000 -TSRA SCT007 BKN017 FEW023CB BKN070@CAELT@25/24 Q1011 A2987 HR94 CB N/SE/S/NW TS S=@CAELT@
ZPX0403 041556@CAELT@GG SLZZYMYT@CAELT@041555 SLTJYGYZ@CAELT@SABO SLTJ 041600@CAELT@METAR SLTJ 041600Z 21004KT 9999 FEW036 BKN070 23/08 Q1020 A3013 815.3@CAELT@HR38=@CAELT@
ZPX0404 041557@CAELT@GG SLZZYMYT@CAELT@041555 SLCBYGYZ@CAELT@SABO SLCB 041600@CAELT@METAR SLCB 041600Z 32004KT 9999 SCT040 FEW042CB SCT200 28/08 Q1021@CAELT@A3017 748.8 HR26 CB/NW FU AC NOSIG=@CAELT@
ZPX0405 041557@CAELT@GG SLZZYMYT@CAELT@041555 SLLPYGYZ@CAELT@SABO SLLP 041600@CAELT@METAR SLLP 041600Z 07013KT 8000 VCTSSH SCT015 FEW017CB SCT070 BKN200@CAELT@12/04 Q1037 A3063 627.4 HR59 P7784 CB/SH NE/E/S/SW/W TS/S NOSIG=@CAELT@
ZPX0406 041558@CAELT@GG SLZZYMYT@CAELT@041557 SLUYYGYS@CAELT@SABO SLUY 041600@CAELT@METAR SLUY 041600Z 31013KT 9999 FEW035 18/M02 Q1031 A3042 656.0@CAELT@HR20 CI=@CAELT@
ZPX0407 041558@CAELT@GG SLZZYMYT@CAELT@041557 SLAGYSYX@CAELT@SABO SLAG 041600@CAELT@METAR SLAG 041600Z 16003KT 9999 FEW017 SCT070 BKN200 26/17 Q1017@CAELT@A3006 889.9 HR56=@CAELT@
ZPX0408 041558@CAELT@GG SLZZYMYT@CAELT@041558 SLTRYGYZ@CAELT@SABO SLTR 041600@CAELT@METAR SLTR 041600Z 03006KT 3000 -TSRA SCT015 FEW020CB BKN070 25/24@CAELT@Q1012 A2991 994.2 HR96 CB E/SE/S TS SE TEMPO 5000=@CAELT@
ZPX0411 041600@CAELT@GG SLZZYMYT@CAELT@041600 SLTRYGYS@CAELT@SABO SLTR 041600@CAELT@METAR SLTR 041600Z 03006KT 3000 -TSRA SCT015 FEW020CB BKN070 25/24@CAELT@Q1012 A2991 994.2 HR96 CB E/SE/S TS SE TEMPO 5000=@CAELT@METAR SLGM 041600Z 36008KT 5000 TS VCSH SCT007 BKN015 FEW020CB OVC070@CAELT@25/24 Q1013 A2992 HR93 CB/SH N/S/SW/NW TS NW=@CAELT@METAR SLRI 041600Z 34010KT 5000 -RA SCT004 BKN015 FEW020CB OVC07024/23 Q1015 A2998 HR94 CB SW/W=METAR SLJO 041600Z 34012KT 9999 FEW020 BKN080 31/23 Q1012 A2989 HR65RWY NML=METAR SLRA 041600Z 35010KT 9999 FEW017 BKN080 32/22 Q1012 A2989 HR56METAR SLMG 041600Z 32010KT 9999 FEW017 BKN080 32/24 Q1012 A2990 HR65METAR SLBU 041600Z 32008KT 9999 FEW017 SCT080 BKN200 32/24 Q1011A2986 HR63 RWY NML=METAR SLSA 041600Z 34014KT 3000 -TSRA SCT007 BKN017 FEW023CB BKN07025/24 Q1011 A2987 HR94 CB N/SE/S/NW TS S=METAR SLSR 041600Z 32015KT 7000 VCSH SCT012 FEW023CB BKN070 29/24Q1010 A2985 HR74 CB/SH N/NE/E/SE/NW RWY NML=METAR SLSM 041600Z 36008KT 8000 -TSRA SCT015 FEW023CB BKN070 29/25Q1011 A2988 HR81 CB N/NE/E/SE TS N/NE RWY HUM OPR=
ZPX0412 041601@CAELT@GG SLZZYMYT@CAELT@041601 SLCAYGYS@CAELT@SABO SLCA 041600@CAELT@METAR SLCA 041600Z 00000KT 9999 BKN080 29/13 Q1017 A3003 HR39 RWY NML@CAELT@
ZPX0413 041601@CAELT@GG SLZZYMYT@CAELT@041600 SLCBYGYS@CAELT@SABO SLCB 041600@CAELT@METAR SLCB 041600Z 32004KT 9999 SCT040 FEW042CB SCT200 28/08 Q1021@CAELT@A3017 748.8 HR26 CB/NW FU AC NOSIG=@CAELT@METAR SLAL 041600Z 03011KT 9999 SCT017 SCT200 18/09 Q1028 A3038 703.4@CAELT@HR54 AC=@CAELT@METAR SLPO 041600Z 06005KT 9999 SCT020 16/05 Q1034 A3053 635.4 HR50METAR SLAG 041600Z 16003KT 9999 FEW017 SCT070 BKN200 26/17 Q1017A3006 889.9 HR56=METAR SLVM 041600Z 18005KT 9999 FEW025 FEW030CB OVC070 30/20 Q1012A2991 HR56 CB NE/E=METAR SLTJ 041600Z 21004KT 9999 FEW036 BKN070 23/08 Q1020 A3013 815.3HR38=METAR SLYA 041600Z 00000KT 9999 BKN070 28/24 Q1013 A2994 938.5 HR79=METAR SLBJ 041600Z NIL=METAR SLHI 041600Z NIL=
ZPX0414 041601@CAELT@GG SLZZYMYT@CAELT@041601 SLVRYFYC@CAELT@SABO SLVR 041600@CAELT@METAR SLVR 041600Z 34012G23KT 9999 SCT012 BKN017 28/23 Q1013 A2993@CAELT@HR76 AC NOSIG=@CAELT@METAR SLET 041600Z 16005KT 9999 SCT008 BKN015 FEW030CB 23/20 Q1013@CAELT@A2992 HR84 CB W AC/CI NOSIG=@CAELT@METAR SLAS 041600Z 36010KT 9999 BKN020 BKN070 30/24 Q1014 A2994 HR68RWY NML=METAR SLCP 041600Z 30012KT 9999 SCT017 29/22 Q1016 A3000 HR67 RWY NMLMETAR SLSI 041600Z 36012KT 9999 BKN017 32/22 Q1013 A2991 HR58 RWY NMLMETAR SLRB 041600Z 36008KT 9999 SCT020 BKN200 36/21 Q1013 A2991 HR43METAR SLPS 041600Z 36008KT 9999 SCT017 FEW030CB SCT200 36/26 Q1011A2986 HR57 CB/NE=METAR SLCA 041600Z NIL=
ZPX0418 041604@CAELT@GG SLZZYMYT@CAELT@041601 SLLPYFYA@CAELT@SABO SLLP 041600@CAELT@METAR SLLP 041600Z 07013KT 8000 VCTSSH SCT015 FEW017CB SCT070 BKN200@CAELT@12/04 Q1037 A3063 627.4 HR59 P7784 CB/SH NE/E/S/SW/W TS/S NOSIG=@CAELT@METAR SLCO 041600Z 35006KT 9999 BKN015 BKN080 29/24 Q1013 A2993 986.0@CAELT@HR75=@CAELT@METAR SLRY 041600Z 32005KT 9999 ST016 BKN200 27/25 Q1011A2986 H85 RESHRA RWY HUM OPR=METAR SLRQ 041600Z 36006KT 9999 BKN020 SCT200 31/25 Q1011 A2986 987.2HR68 AC=METAR SLAP 041600Z 36015KT 9999 FEW025 BKN200 25/15 Q1017 A3005 858.3HR52 AC=METAR SLSB 041600Z 30010KT 6000 VCSH BKN017 FEW020CB BKN200 30/25Q1011 A2988 HR73 CB/NW SH/S SW W NW RWY WET OPR C210=METAR SLOR 041600Z 04010KT 9999 SCT023 FEW025CB 20/06 Q1032 A3049 654.2 HR40 CB/E/W CI=METAR SLUY 041600Z 31013KT 9999 FEW035 18/M02 Q1031 A3042 656.0HR20 CI=
ZPX0423 041616@CAELT@GG SLZZYMYT@CAELT@041601 SLLPYFYA@CAELT@SABO SLLP 041600@CAELT@METAR SLLP 041600Z 07013KT 8000 VCTSSH SCT015 FEW017CB SCT070 BKN200@CAELT@12/04 Q1037 A3063 627.4 HR59 P7784 CB/SH NE/E/S/SW/W TS/S NOSIG=@CAELT@METAR SLCO 041600Z 35006KT 9999 BKN015 BKN080 29/24 Q1013 A2993 986.0@CAELT@HR75=@CAELT@METAR SLRY 041600Z 32005KT 9999 SCT016 BKN200 27/25 Q1011A2986 H85 RESHRA RWY HUM OPR=METAR SLRQ 041600Z 36006KT 9999 BKN020 SCT200 31/25 Q1011 A2986 987.2HR68 AC=METAR SLAP 041600Z 36015KT 9999 FEW025 BKN200 25/15 Q1017 A3005 858.3HR52 AC=METAR SLSB 041600Z 30010KT 6000 VCSH BKN017 FEW020CB BKN200 30/25Q1011 A2988 HR73 CB/NW SH/S SW W NW RWY WET OPR C210=METAR SLOR 041600Z 04010KT 9999 SCT023 FEW025CB 20/06 Q1032 A3049 654.2 HR40 CB/E/W CI=METAR SLUY 041600Z 31013KT 9999 FEW035 18/M02 Q1031 A3042 656.0HR20 CI=
ZPX0443 041652@CAELT@GG SLZZYMYT@CAELT@041652 SLCAYGYS@CAELT@SABO SLCA 041700@CAELT@METAR SLCA 041700Z 00000KT 9999 BKN080 30/12 Q1016 A3000 HR34 RWY NML@CAELT@
ZPX0444 041653@CAELT@GG SLZZYMYT@CAELT@041652 SLPSYGYS@CAELT@SABO SLPS 041700@CAELT@METAR SLPS 041700Z 36006KT 9999 BKN017 FEW030CB BKN200 36/25 Q1010@CAELT@A2983 HR56 CB/N/NE/E=@CAELT@
ZPX0445 041654@CAELT@GG SLZZYMYT@CAELT@041654 SLVRYGYZ@CAELT@SABO SLVR 041700@CAELT@METAR SLVR 041700Z 33012KT 9999 FEW013 BKN017 30/24 Q1012 A2991 HR72@CAELT@AC NOSIG=@CAELT@
ZPX0446 041654@CAELT@GG SLZZYMYT@CAELT@041653 SLRBYGYS@CAELT@SABO SLRB 041700@CAELT@METAR SLRB 041700Z 36006KT 9999 BKN020 36/21 Q1012 A2988 HR41 RWY NML=@CAELT@
ZPX0447 041654@CAELT@GG SLZZYMYT@CAELT@041655 SLTJYGYZ@CAELT@SABO SLTJ 041700@CAELT@METAR SLTJ 041700Z 22006KT 9999 FEW036 BKN070 24/08 Q1019 A3011 814.6@CAELT@HR37=@CAELT@
ZPX0448 041655@CAELT@GG SLZZYMYT@CAELT@041655 SLSBYSYX@CAELT@SABO SLSB 041700@CAELT@METAR SLSB 041700Z 31005KT 6000 TS VCSH SCT017 FEW020CB BKN070 BKN200@CAELT@27/25 Q1010 A2985 HR89 TS/CB NE E S NW SH/TODIR RWY WET OPR C210=@CAELT@
ZPX0449 041655@CAELT@GG SLZZYMYT@CAELT@041655 SLETYMYC@CAELT@SABO SLET 041700@CAELT@METAR SLET 041700Z 15005KT 9999 SCT008 BKN015 FEW030CB 24/22 Q1012@CAELT@A2990 HR85 CB S AC/CI NOSIG=@CAELT@
ZPX0450 041655@CAELT@GG SLZZYMYT@CAELT@041655 SLRQYSYX@CAELT@SABO SLRQ 041700@CAELT@METAR SLRQ 041700Z 36006KT 9999 BKN020 SCT200 32/25 Q1009 A2982 985.8@CAELT@HR63 AC=@CAELT@
ZPX0451 041656@CAELT@GG SLZZYMYT@CAELT@041655 SLSAYGYS@CAELT@SABO SLSA 041700@CAELT@METAR SLSA 041700Z 34006KT 8000 VCSH SCT017 FEW023CB BKN200 25/24@CAELT@Q1010 A2983 HR96 RETSRA CB/SH S/SW/W=@CAELT@
ZPX0452 041656@CAELT@GG SLZZYMYT@CAELT@041655 SLAGYSYX@CAELT@SABO SLAG 041700@CAELT@METAR SLAG 041700Z 14004KT 9999 FEW020 SCT070 BKN200 28/14 Q1017@CAELT@A3003 889.2 HR44=@CAELT@
ZPX0453 041656@CAELT@GG SLZZYMYT@CAELT@041655 SLCOYGYZ@CAELT@SABO SLCO 041700@CAELT@METAR SLCO 041700Z 01006KT 9999 BKN017 SCT080 31/24 Q1011 A2988 984.5@CAELT@HR68=@CAELT@
ZPX0454 041656@CAELT@GG SLZZYMYT@CAELT@041656 SLORYGYZ@CAELT@SABO SLOR 041700@CAELT@METAR SLOR 041700Z 04009KT 9999 SCT023 FEW025CB BKN200 19/05 Q1032@CAELT@A3048 653.9 HR41 CB/SH SE/W AC=@CAELT@
ZPX0455 041657@CAELT@GG SLZZYMYT@CAELT@041655 SLUYYGYS@CAELT@SABO SLUY 041700@CAELT@METAR SLUY 041700Z 29015KT 9999 FEW037 20/M04 Q1030 A3041 655.5@CAELT@HR20 CI=@CAELT@
ZPX0456 041657@CAELT@GG SLZZYMYT@CAELT@041656 SLTRYGYZ@CAELT@SABO SLTR 041700@CAELT@METAR SLTR 041700Z 30005KT 5000 -TSRA SCT017 FEW020CB BKN070 26/25@CAELT@Q1011 A2988 993.3 HR94 CB N/NE/SW/NW TS N/NE TEMPO 3000=@CAELT@
ZPX0457 041658@CAELT@GG SLZZYMYT@CAELT@041658 SLVRYFYC@CAELT@SABO SLVR 041700@CAELT@METAR SLVR 041700Z 33012KT 9999 FEW013 BKN017 30/24 Q1012 A2991 HR72@CAELT@AC NOSIG=@CAELT@METAR SLET 041700Z 15005KT 9999 SCT008 BKN015 FEW030CB 24/22 Q1012@CAELT@A2990 HR85 CB S AC/CI NOSIG=@CAELT@METAR SLAS 041700Z 36010KT 9999 BKN020 FEW030CB 32/25 Q1013 A2991HR67 CB/W RWY NML=METAR SLCP 041700Z 30010KT 9999 SCT017 FEW027CB 29/22 Q1015 A2997HR67 CB/W/NW RWY NML=METAR SLSI 041700Z 33010KT 9999 BKN017 33/23 Q1012 A2988 HR53 RWY NMLMETAR SLRB 041700Z 36006KT 9999 BKN020 36/21 Q1012 A2988 HR41 RWY NMLMETAR SLPS 041700Z 36006KT 9999 BKN017 FEW030CB BKN200 36/25 Q1010A2983 HR56 CB/N/NE/E=METAR SLCA 041700Z 00000KT 9999 BKN080 30/12 Q1016 A3000 HR34 RWY NML
ZPX0458 041658@CAELT@GG SLZZYMYT@CAELT@041657 SLCBYGYZ@CAELT@SABO SLCB 041700@CAELT@METAR SLCB 041700Z 35015KT 8000 -TSRA SCT036 FEW040CB SCT080 BKN200@CAELT@23/10 Q1021 A3016 748.5 HR43 CB/TS/ON STN/SW/W BECMG NSW=@CAELT@
ZPX0460 041658@CAELT@GG SLZZYMYT@CAELT@041657 SLLPYGYZ@CAELT@SABO SLLP 041700@CAELT@METAR SLLP 041700Z 10012KT 9999 SCT015 FEW017CB SCT070 BKN200 12/02@CAELT@Q1036 A3061 627.0 HR48 P2784 CB/SH E/S/SW/W TS/W NOSIG=@CAELT@
ZPX0462 041700@CAELT@GG SLZZYMYT@CAELT@041659 SLTRYGYS@CAELT@SABO SLTR 041700@CAELT@METAR SLTR 041700Z 30005KT 5000 -TSRA SCT017 FEW020CB BKN070 26/25@CAELT@Q1011 A2988 993.3 HR94 CB N/NE/SW/NW TS N/NE TEMPO 3000=@CAELT@METAR SLGM 041700Z 32008KT 7000 TS VCSH FEW007 SCT015 FEW020CB BKN070@CAELT@25/23 Q1012 A2991 HR92 CB/SH N/S/SW/NW TS S/SW=@CAELT@METAR SLRI 041700Z 32006KT 5000 -RA SCT004 BKN015 FEW020CB OVC07024/22 Q1014 A2997 HR92 CB W/NW=METAR SLJO 041700Z 34012KT 9999 SCT020 FEW023CB BKN080 32/24 Q1011A2987 HR63 CB N RWY NML=METAR SLRA 041700Z 35012KT 9999 SCT017 BKN080 32/23 Q1011 A2988 HR61RWY NML=METAR SLMG 041700Z 32010KT 9999 SCT017 32/25 Q1011 A2987 HR64METAR SLBU 041700Z 32006KT 9999 SCT017 BKN200 33/24 Q1010 A2983 HR62AC RWY NML=METAR SLSA 041700Z 34006KT 8000 VCSH SCT017 FEW023CB BKN200 25/24Q1010 A2983 HR96 RETSRA CB/SH S/SW/W=METAR SLSR 041700Z 32012KT 8000 VCSH SCT015 FEW023CB SCT070 BKN20028/25 Q1009 A2982 HR82 RESHRA CB/SH NE/E/SE RWY NML=METAR SLSM 041700Z 03003KT 9999 TS SCT015 FEW023CB BKN070 27/24Q1010 A2988 HR85 RERA CB N/NE/E/SW TS N/NE/W RWY HUM OPR
ZPX0463 041701@CAELT@GG SLZZYMYT@CAELT@041700 SLLPYFYA@CAELT@SABO SLLP 041700@CAELT@METAR SLLP 041700Z 10012KT 9999 SCT015 FEW017CB SCT070 BKN200 12/02@CAELT@Q1036 A3061 627.0 HR48 P2784 CB/SH E/S/SW/W TS/W NOSIG=@CAELT@METAR SLCO 041700Z 01006KT 9999 BKN017 SCT080 31/24 Q1011 A2988 984.5@CAELT@HR68=@CAELT@METAR SLRY 041700Z 34010KT 9999 SCT016 BKN200 29/24 Q1010A2984 H7 RWY HUM OPR=METAR SLRQ 041700Z 36006KT 9999 BKN020 SCT200 32/25 Q1009 A2982 985.8HR63 AC=METAR SLAP 041700Z 36015KT 9999 FEW025 FEW027CB BKN200 27/16 Q1016A3002 857.3 HR51 CB SE/S AC=METAR SLSB 041700Z 31005KT 6000 TS VCSH SCT017 FEW020CB BKN070 BKN20027/25 Q1010 A2985 HR89 TS/CB NE E S NW SH/TODIR RWY WET OPR C210=METAR SLOR 041700Z 04009KT 9999 SCT023 FEW025CB BKN200 19/05 Q1032A3048 653.9 HR41 CB/SH SE/W AC=METAR SLUY 041700Z 29015KT 9999 FEW037 20/M04 Q1030 A3041 655.5HR20 CI=
ZPX0464 041701@CAELT@GG SLZZYMYT@CAELT@041701 SLCBYGYS@CAELT@SABO SLCB 041700@CAELT@METAR SLCB 041700Z 35015KT 8000 -TSRA SCT036 FEW040CB SCT080 BKN200@CAELT@23/10 Q1021 A3016 748.5 HR43 CB/TS/ON STN/SW/W BECMG NSW=@CAELT@METAR SLAL 041700Z 03011KT 9999 BKN020 SCT200 19/09 Q1028 A3038 703.4@CAELT@HR50=@CAELT@METAR SLPO 041700Z 06010KT 9999 SCT020 17/05 Q1033 A3051 634.8 HR46METAR SLAG 041700Z 14004KT 9999 FEW020 SCT070 BKN200 28/14 Q1017A3003 889.2 HR44=METAR SLVM 041700Z 18007KT 9999 FEW025 FEW030CB OVC070 30/21 Q1012A2990 HR58 CB E/SE=METAR SLTJ 041700Z 22006KT 9999 FEW036 BKN070 24/08 Q1019 A3011 814.6HR37=METAR SLYA 041700Z 00000KT 9999 FEW023 BKN070 29/24 Q1012 A2991 938.0HR74=METAR SLBJ 041600Z NIL=METAR SLHI 041600Z NIL=
ZPX0466 041704@CAELT@GG SLZZYMYT@CAELT@041702 SLLPYFYA@CAELT@SABO SLLP 041700@CAELT@METAR SLLP 041700Z 10012KT 9999 SCT015 FEW017CB SCT070 BKN200 12/02@CAELT@Q1036 A3061 627.0 HR48 P2784 CB/SH E/S/SW/W TS/W NOSIG=@CAELT@METAR SLRQ 041700Z 36006KT 9999 BKN020 SCT200 32/25 Q1009 A2982 985.8@CAELT@HR63 AC=@CAELT@METAR SLSB 041700Z 31005KT 6000 TS VCSH SCT017 FEW020CB BKN070 BKN20027/25 Q1010 A2985 HR89 TS/CB NE E S NW SH/TODIR RWY WET OPR C210=METAR SLCB 041700Z 35015KT 8000 -TSRA SCT036 FEW040CB SCT080 BKN20023/10 Q1021 A3016 748.5 HR43 CB/TS/ON STN/SW/W BECMG NSW=METAR SLYA 041700Z 00000KT 9999 FEW023 BKN070 29/24 Q1012 A2991 938.0HR74=METAR SLTR 041700Z 30005KT 5000 -TSRA SCT017 FEW020CB BKN070 26/25Q1011 A2988 993.3 HR94 CB N/NE/SW/NW TS N/NE TEMPO 3000=METAR SLSA 041700Z 34006KT 8000 VCSH SCT017 FEW023CB BKN200 25/24Q1010 A2983 HR96 RETSRA CB/SH S/SW/W=METAR SLSR 041700Z 32012KT 8000 VCSH SCT015 FEW023CB SCT070 BKN20028/25 Q1009 A2982 HR82 RESHRA CB/SH NE/E/SE RWY NML=METAR SLVR 041700Z 33012KT 9999 FEW013 BKN017 30/24 Q1012 A2991 HR72AC NOSIG=METAR SLET 041700Z 15005KT 9999 SCT008 BKN015 FEW030CB 24/22 Q1012A2990 HR85 CB S AC/CI NOSIG=METAR SLCA 041700Z 00000KT 9999 BKN080 30/12 Q1016 A3000HR34 RWY NML=
ZPX0470 041716@CAELT@GG SLZZYMYT@CAELT@041715 SLLPYGYZ@CAELT@SABO SLLP 041700 CCA@CAELT@METAR COR SLLP 041700Z 10012KT 9999 VCTS SCT015 FEW017CB SCT070@CAELT@BKN200 12/02 Q1036 A3061 627.0 HR48 P2784 CB/SH E/S/SW/W TS/W NOSIG=@CAELT@
ZPX0471 041717@CAELT@GG SLZZYMYT@CAELT@041717 SLLPYFYA@CAELT@SABO SLLP 041700 CCA@CAELT@METAR COR SLLP 041700Z 10012KT 9999 VCTS SCT015 FEW017CB SCT070@CAELT@BKN200 12/02 Q1036 A3061 627.0 HR48 P2784 CB/SH E/S/SW/W TS/W NOSIG=@CAELT@METAR SLCO 041700Z 01006KT 9999 BKN017 SCT080 31/24 Q1011 A2988 984.5@CAELT@HR68=@CAELT@METAR SLRY 041700Z 34010KT 9999 SCT016 BKN200 29/24 Q1010A2984 H7 RWY HUM OPR=METAR SLRQ 041700Z 36006KT 9999 BKN020 SCT200 32/25 Q1009 A2982 985.8HR63 AC=METAR SLAP 041700Z 36015KT 9999 FEW025 FEW027CB BKN200 27/16 Q1016A3002 857.3 HR51 CB SE/S AC=METAR SLSB 041700Z 31005KT 6000 TS VCSH SCT017 FEW020CB BKN070 BKN20027/25 Q1010 A2985 HR89 TS/CB NE E S NW SH/TODIR RWY WET OPR C210=METAR SLOR 041700Z 04009KT 9999 SCT023 FEW025CB BKN200 19/05 Q1032A3048 653.9 HR41 CB/SH SE/W AC=METAR SLUY 041700Z 29015KT 9999 FEW037 20/M04 Q1030 A3041 655.5HR20 CI=
ZPX0491 041752@CAELT@GG SLZZYMYT@CAELT@041750 SLPSYGYS@CAELT@SABO SLPS 041800@CAELT@METAR SLPS 041800Z 36009KT 9999 SCT017 FEW030CB BKN200 37/24 Q1009@CAELT@A2980 HR51 CB/N/S/SE=@CAELT@
ZPX0493 041754@CAELT@GG SLZZYMYT@CAELT@041754 SLVRYGYZ@CAELT@SABO SLVR 041800@CAELT@METAR SLVR 041800Z 33008KT 8000 VCSH FEW013 BKN020 31/23 Q1010 A2985@CAELT@HR66 W/SH NW CI NOSIG=@CAELT@
ZPX0494 041754@CAELT@GG SLZZYMYT@CAELT@041754 SLCAYGYS@CAELT@SABO SLCA 041800@CAELT@METAR SLCA 041800Z 00000KT 9999 OVC070 30/12 Q1015 A2997 HR34 RWY NML@CAELT@
ZPX0495 041754@CAELT@GG SLZZYMYT@CAELT@041755 SLSBYSYX@CAELT@SABO SLSB 041800@CAELT@METAR SLSB 041800Z 3604KT 8000 VCSH SCT015 FEW025CB OVC070 27/23@CAELT@Q1009 A2980 HR83 RETS CB SH N NE E SE S RWY WET OPR C210=@CAELT@
ZPX0496 041755@CAELT@GG SLZZYMYT@CAELT@041755 SLORYGYZ@CAELT@SABO SLOR 041800@CAELT@METAR SLOR 041800Z 36011KT 9999 SCT023 FEW025CB BKN200 18/05 Q1031@CAELT@A3046 653.6 HR42 CB/N/S/W SH/S/W AC=@CAELT@
ZPX0497 041755@CAELT@GG SLZZYMYT@CAELT@041755 SLETYMYC@CAELT@SABO SLET 041800@CAELT@METAR SLET 041800Z VRB02KT 9999 FEW012 SCT017 FEW030CB BKN200 27/23@CAELT@Q1010 A2985 HR81 CB NW AC NOSIG=@CAELT@
ZPX0498 041755@CAELT@GG SLZZYMYT@CAELT@041754 SLSAYGYS@CAELT@SABO SLSA 041800@CAELT@METAR SLSA 041800Z 34006KT 8000 VCSH SCT017 FEW023CB BKN200 26/24@CAELT@Q1010 A2983 HR85 CB/SH S/SW=@CAELT@
ZPX0499 041756@CAELT@GG SLZZYMYT@CAELT@041755 SLRQYSYX@CAELT@SABO SLRQ 041800@CAELT@METAR SLRQ 041800Z 36006KT 9999 SCT020 FEW023CB BKN200 31/24 Q1008@CAELT@A2979 HR68 CB/N/NE/E=@CAELT@
ZPX0501 041756@CAELT@GG SLZZYMYT@CAELT@041755 SLTJYGYZ@CAELT@SABO SLTJ 041800@CAELT@METAR SLTJ 041800Z 14008KT 9999 SCT040 BKN070 24/10 Q1019 A3009 814.1@CAELT@HR42=@CAELT@
ZPX0502 041756@CAELT@GG SLZZYMYT@CAELT@041756 SLCOYGYZ@CAELT@SABO SLCO 041800@CAELT@METAR SLCO 041800Z 02007KT 8000 VCSH BKN020 FEW023CB 32/24 Q1009@CAELT@A2982 982.4 HR64 CB/SH/SE/W CI=@CAELT@
ZPX0503 041757@CAELT@GG SLZZYMYT@CAELT@041755 SLAGYSYX@CAELT@SABO SLAG 041800@CAELT@METAR SLAG 041800Z 15003KT 9999 FEW020 BKN070 BKN200 28/14 Q1016@CAELT@A3000 888.2 HR42=@CAELT@
ZPX0504 041757@CAELT@GG SLZZYMYT@CAELT@041756 SLRBYGYS@CAELT@SABO SLRB 041800@CAELT@METAR SLRB 041800Z 36010KT 9999 BKN020 36/21 Q1011 A2985 HR41 RWY NML=@CAELT@
ZPX0506 041758@CAELT@GG SLZZYMYT@CAELT@041758 SLVRYGYZ@CAELT@SABO SLVR 041800CCA@CAELT@METAR COR SLVR 041800Z 33008KT 7000 -SHRA FEW013 BKN020 31/23 Q1010@CAELT@A2985 HR66 CI NOSIG=@CAELT@
ZPX0507 041758@CAELT@GG SLZZYMYT@CAELT@041758 SLVRYFYC@CAELT@SABO SLVR 041800@CAELT@METAR SLVR 041800Z 33008KT 8000 VCSH FEW013 BKN020 31/23 Q1010 A2985@CAELT@HR66 W/SH NW CI NOSIG=@CAELT@METAR SLET 041800Z VRB02KT 9999 FEW012 SCT017 FEW030CB BKN200 27/23@CAELT@Q1010 A2985 HR81 CB NW AC NOSIG=@CAELT@METAR SLAS 041800Z 36006KT 9999 SCT020 31/26 Q1013 A2991 HR73 RWY NMLMETAR SLJV 041800Z 34010KT 9999 TS FEW020 FEW030CB SCT200 31/23 Q1011A2985 HR63 CB/TS/N/NE RWY NML=METAR SLCP 041800Z 30008KT 9999 SCT017 FEW027CB BKN200 29/24 Q1014A2994 HR72 CB/S/N RWY NML=METAR SLSI 041800Z 33012KT 9999 BKN017 33/22 Q1011 A2985 HR52 RWY NMLMETAR SLTI 041800Z 35012KT 9999 BKN020 FEW030CB 36/23 Q1013 A2991HR47 CB/SH/S RWY NML=METAR SLJE 041800Z 35008KT 9999 FEW020 FEW030CB 35/21 Q1013 A2991HR45 CB/E RWY NML=METAR SLVG 041800Z 36005KT 9999 BKN015 BKN070 20/16 Q1023 A3021 HR74RWY NML=METAR SLRB 041800Z 36010KT 9999 BKN020 36/21 Q1011 A2985 HR41 RWY NMLMETAR SLPS 041800Z 36009KT 9999 SCT017 FEW030CB BKN200 37/24 Q1009A2980 HR51 CB/N/S/SE=METAR SLCA 041800Z 00000KT 9999 OVC070 30/12 Q1015 A2997 HR34 RWY NML
ZPX0508 041758@CAELT@GG SLZZYMYT@CAELT@041757 SLCBYGYZ@CAELT@SABO SLCB 041800@CAELT@METAR SLCB 041800Z 25010KT 9999 FEW036 FEW040CB SCT080 BKN200 22/09@CAELT@Q1020 A3013 747.7 HR42 CB/N/NE/S/SW RETS BECMG 04012KT=@CAELT@
ZPX0509 041759@CAELT@GG SLZZYMYT@CAELT@041755 SLTRYGYZ@CAELT@SABO SLTR 041800@CAELT@METAR SLTR 041800Z 25003KT 7000 -TSRA FEW008 SCT017 FEW020CB BKN070@CAELT@24/23 Q1011 A2986 992.6 HR96 CB SE/SW/NW TS SE/NW TEMPO 2000=@CAELT@
ZPX0511 041800@CAELT@GG SLZZYMYT@CAELT@041758 SLLPYGYZ@CAELT@SABO SLLP 041800@CAELT@METAR SLLP 041800Z 11008KT 9999 FEW017 FEW020CB SCT070 BKN200 14/00@CAELT@Q1035 A3057 626.1 HR38 P3783 CB/SH SE/S/SW RETS NOSIG=@CAELT@
ZPX0512 041801@CAELT@GG SLZZYMYT@CAELT@041800 SLCBYGYS@CAELT@SABO SLCB 041800@CAELT@METAR SLCB 041800Z 25010KT 9999 FEW036 FEW040CB SCT080 BKN200 22/09@CAELT@Q1020 A3013 747.7 HR42 CB/N/NE/S/SW RETS BECMG 04012KT=@CAELT@METAR SLAL 041800Z 03011KT 9999 SCT023 SCT200 20/08 Q1028 A3038 703.4@CAELT@HR44=@CAELT@METAR SLPO 041800Z NIL=METAR SLAG 041800Z 15003KT 9999 FEW020 BKN070 BKN200 28/14 Q1016A3000 888.2 HR42=METAR SLVM 041800Z NIL=METAR SLTJ 041800Z 14008KT 9999 SCT040 BKN070 24/10 Q1019 A3009 814.1HR42=METAR SLYA 041800Z 00000KT 9999 FEW023 OVC070 29/24 Q1013 A2992 938.0HR74=METAR SLBJ 041800Z NIL=METAR SLHI 041800Z NIL=
ZPX0513 041801@CAELT@GG SLZZYMYT@CAELT@041800 SLLPYFYA@CAELT@SABO SLLP 041800@CAELT@METAR SLLP 041800Z 11008KT 9999 FEW017 FEW020CB SCT070 BKN200 14/00@CAELT@Q1035 A3057 626.1 HR38 P3783 CB/SH SE/S/SW RETS NOSIG=@CAELT@METAR SLCO 041800Z 02007KT 8000 VCSH BKN020 FEW023CB 32/24 Q1009@CAELT@A2982 982.4 HR64 CB/SH/SE/W CI=@CAELT@METAR SLRY 041800Z 32008KT 9999 FEW017 BKN200 29/2 Q1009A2980 HR70 RWY NML=METAR SLRQ 041800Z 36006KT 9999 SCT020 FEW023CB BKN200 31/24 Q1008A2979 HR68 CB/N/NE/E=METAR SLAP 041800Z 36015KT 9999 FEW025 FEW027CB SCT200 28/15 Q1015A2998 856.3 HR46 CB SE/S AC=METAR SLSB 041800Z 3604KT 8000 VCSH SCT015 FEW025CB OVC070 27/23Q1009 A2980 HR83 RETS CB SH N NE E SE S RWY WET OPR C210=METAR SLOR 041800Z 36011KT 9999 SCT023 FEW025CB BKN200 18/05 Q1031A3046 653.6 HR42 CB/N/S/W SH/S/W AC=
ZPX0515 041803@CAELT@GG SLZZYMYT@CAELT@041800 SLTRYGYS@CAELT@SABO SLTR 041800@CAELT@METAR SLTR 041800Z 25003KT 7000 -TSRA FEW008 SCT017 FEW020CB BKN070@CAELT@24/23 Q1011 A2986 992.6 HR96 CB SE/SW/NW TS SE/NW TEMPO 2000=@CAELT@METAR SLGM 041800Z 29006KT 8000 TS VCSH FEW007 FEW015 FEW020CB@CAELT@BKN070 26/23 Q1012 A2988 HR85 CB/SH N/SE/S/SW/W TS SW=@CAELT@METAR SLRI 041800Z 00000KT 5000 -RA SCT005 BKN015 FEW020CB OVC07024/22 Q1013 A2993 HR92 CB SW/W=METAR SLJO 041800Z NIL=METAR SLRA 041800Z 36012KT 7000 VCSH SCT017 FEW023CB BKN080 30/25Q1011 A2986 HR73 CB/SH N/NE/NW RWY NML=METAR SLMG 041800Z 32008KT 9999 SCT017 32/24 Q1010 A2984 HR60RWY NML=METAR SLBU 041800Z NIL=METAR SLSA 041800Z 34006KT 8000 VCSH SCT017 FEW023CB BKN200 26/24Q1010 A2983 HR85 CB/SH S/SW=METAR SLSR 041800Z 32012KT 8000 VCSH SCT015 FEW023CB BKN200 28/24Q1008 A2979 HR76 CB/SH N/NE/E/SE/NW RWY NML=METAR SLSM 041800Z NIL=
ZPX0516 041806@CAELT@GG SLZZYMYT@CAELT@041804 SLVRYGYU@CAELT@SABO SLVR 041800 CCA@CAELT@METAR COR SLVR 041800Z 33008KT 7000 -SHRA FEW013 BKN020 31/23 Q1010@CAELT@A2985 HR66 CI NOSIG=@CAELT@
ZPX0518 041810@CAELT@GG SLZZYMYT@CAELT@041807 SLTRYGYS@CAELT@SABO SLTR 041800 RRA@CAELT@METAR SLTR 041800Z 25003KT 7000 -TSRA FEW008 SCT017 FEW020CB BKN070@CAELT@24/23 Q1011 A2986 992.6 HR96 CB SE/SW/NW TS SE/NW TEMPO 2000=@CAELT@METAR SLGM 041800Z 29006KT 8000 TS VCSH FEW007 FEW015 FEW020CB@CAELT@BKN070 26/23 Q1012 A2988 HR85 CB/SH N/SE/S/SW/W TS SW=@CAELT@METAR SLRI 041800Z 00000KT 5000 -RA SCT005 BKN015 FEW020CB OVC07024/22 Q1013 A2993 HR92 CB SW/W=METAR SLJO 041800Z NIL=METAR SLRA 041800Z 36012KT 7000 VCSH SCT017 FEW023CB BKN080 30/25Q1011 A2986 HR73 CB/SH N/NE/NW RWY NML=METAR SLMG 041800Z 32008KT 9999 SCT017 32/24 Q1010 A2984 HR60RWY NML=METAR SLBU 041800Z NIL=METAR SLSA 041800Z 34006KT 8000 VCSH SCT017 FEW023CB BKN200 26/24Q1010 A2983 HR85 CB/SH S/SW=METAR SLSR 041800Z 32012KT 8000 VCSH SCT015 FEW023CB BKN200 28/24Q1008 A2979 HR76 CB/SH N/NE/E/SE/NW RWY NML=METAR RTD SLSM 041800Z 03003KT 9999 TS SCT017 FEW023CB BKN070 25/24Q1011 A2986 HR90 CB N/NE/E/SE TS N/NE RWY HUM OPR=
ZPX0519 041816@CAELT@GG SLZZYMYT@CAELT@041816 SLSBYSYX@CAELT@SABO SLSB 041800 CCA@CAELT@METAR COR SLSB 041800Z 36004KT 8000 VCSH SCT015 FEW025CB OVC070 27/23@CAELT@Q1009 A2980 HR83 RETS CB SH N NE E SE S RWY WET OPR C210=@CAELT@
ZPX0523 041819@CAELT@GG SLZZYMYT@CAELT@041817 SLLPYFYA@CAELT@SABO SLLP 041800 CCB@CAELT@METAR SLLP 041800Z 11008KT 9999 FEW017 FEW020CB SCT070 BKN200 14/00@CAELT@Q1035 A3057 626.1 HR38 P3783 CB/SH SE/S/SW RETS NOSIG=@CAELT@METAR SLCO 041800Z 02007KT 8000 VCSH BKN020 FEW023CB 32/24 Q1009@CAELT@A2982 982.4 HR64 CB/SH/SE/W CI=@CAELT@METAR SLRY 041800Z 32008KT 9999 FEW017 BKN200 29/24 Q1009A2980 HR70 RWY NML=METAR SLRQ 041800Z 36006KT 9999 SCT020 FEW023CB BKN200 31/24 Q1008A2979 HR68 CB/N/NE/E=METAR SLAP 041800Z 36015KT 9999 FEW025 FEW027CB SCT200 28/15 Q1015A2998 856.3 HR46 CB SE/S AC=METAR COR SLSB 041800Z 36004KT 8000 VCSH SCT015 FEW025CB OVC070 27/23Q1009 A2980 HR83 RETS CB SH N NE E SE S RWY WET OPR C210=METAR SLOR 041800Z 36011KT 9999 SCT023 FEW025CB BKN200 18/05 Q1031A3046 653.6 HR42 CB/N/S/W SH/S/W AC=
ZPX0540 041853@CAELT@GG SLZZYMYT@CAELT@041852 SLPSYGYS@CAELT@SABO SLPS 041900@CAELT@METAR SLPS 041900Z 36006KT 9999 SCT017 FEW030CB BKN200 36/24 Q1008@CAELT@A2977 HR52 CB/NE=@CAELT@
ZPX0541 041853@CAELT@GG SLZZYMYT@CAELT@041854 SLCOYGYZ@CAELT@SABO SLCO 041900@CAELT@METAR SLCO 041900Z 28011KT 6000 -RA SCT020 FEW023CB BKN200 28/26@CAELT@Q1009 A2981 982.1 HR90 CB/SW/W/NW AC=@CAELT@
ZPX0542 041854@CAELT@GG SLZZYMYT@CAELT@041854 SLCAYGYS@CAELT@SABO SLCA 041900@CAELT@METAR SLCA 041900Z 00000KT 9999 OVC070 29/13 Q1014 A2994 HR37 RWY NML@CAELT@
ZPX0543 041855@CAELT@GG SLZZYMYT@CAELT@041855 SLORYGYZ@CAELT@SABO SLOR 041900@CAELT@METAR SLOR 041900Z 36012KT 9999 SCT023 FEW025CB BKN200 18/03 Q1031@CAELT@A3046 653.4 HR37 CB/SH/E/S AC=@CAELT@
ZPX0544 041856@CAELT@GG SLZZYMYT@CAELT@041855 SLETYMYC@CAELT@SABO SLET 041900@CAELT@METAR SLET 041900Z 31008KT 8000 VCSH FEW010 BKN017 FEW030CB BKN200 25@CAELT@/23 Q1010 A2983 HR90 RESHRA CB/SH NE/SE TEMPO SHRA=@CAELT@
ZPX0545 041856@CAELT@GG SLZZYMYT@CAELT@041855 SLSBYSYX@CAELT@SABO SLSB 041900@CAELT@METAR SLSB 041900Z 05005KT 7000 TS VCSH SCT015 FEW025CB BKN070 27/24@CAELT@Q1009 A2979 HR86 TS CB SH NE E SE S RWY WET OPR C210=@CAELT@
ZPX0546 041856@CAELT@GG SLZZYMYT@CAELT@041855 SLTJYGYZ@CAELT@SABO SLTJ 041900@CAELT@METAR SLTJ 041900Z 13006KT 9999 BKN040 OVC070 22/11 Q1018 A3007 813.6@CAELT@HR50=@CAELT@
ZPX0547 041856@CAELT@GG SLZZYMYT@CAELT@041855 SLRQYSYX@CAELT@SABO SLRQ 041900@CAELT@METAR SLRQ 041900Z 36012KT 9999 SCT020 FEW023CB BKN200 32/25 Q1008@CAELT@A2976 HR68 CB/N/NE/E=@CAELT@
ZPX0548 041856@CAELT@GG SLZZYMYT@CAELT@041854 SLSAYGYS@CAELT@SABO SLSA 041900@CAELT@METAR SLSA 041900Z 34005KT 8000 VCSH SCT017 FEW023CB BKN200 30/24@CAELT@Q1008 A2979 HR70 CB/SH N/SW=@CAELT@
ZPX0549 041857@CAELT@GG SLZZYMYT@CAELT@041856 SLCBYGYZ@CAELT@SABO SLCB 041900@CAELT@METAR SLCB 041900Z 22014KT 9999 FEW036 FEW040CB BKN200 27/08 Q1019@CAELT@A3009 746.8 HR29 CB/NE/E/SE/S AC NOSIG=@CAELT@
ZPX0550 041857@CAELT@GG SLZZYMYT@CAELT@041856 SLRBYGYS@CAELT@SABO SLRB 041900@CAELT@METAR SLRB 041900Z 36010KT 9999 BKN020 36/21 Q1010 A2983 HR41 RWY NML=@CAELT@
ZPX0551 041858@CAELT@GG SLZZYMYT@CAELT@041858 SLVRYGYZ@CAELT@SABO SLVR 041900@CAELT@METAR SLVR 041900Z 30010KT 7000 VCSH FEW013 BKN020 28/24 Q1010 A2982@CAELT@HR79 SH W CI NOSIG=@CAELT@
ZPX0554 041859@CAELT@GG SLZZYMYT@CAELT@041859 SLVRYFYC@CAELT@SABO SLVR 041900@CAELT@METAR SLVR 041900Z 30010KT 7000 VCSH FEW013 BKN020 28/24 Q1010 A2982@CAELT@HR79 SH W CI NOSIG=@CAELT@METAR SLET 041900Z 31008KT 8000 VCSH FEW010 BKN017 FEW030CB BKN200 25@CAELT@/23 Q1010 A2983 HR90 RESHRA CB/SH NE/SE TEMPO SHRA=@CAELT@METAR SLAS 041900Z 36006KT 9999 SCT020 32/25 Q1012 A2989 HR69 RWY NMLMETAR SLJV 041900Z 34010KT 9999 TS SCT020 FEW030CB BKN200 26/22 Q1010A2983 HR80 CB/TS/N/NW/W RWY NML=METAR SLCP 041900Z 30006KT 9999 SCT017 FEW027CB BKN200 30/23 Q1013A2991 HR70 CB/S/N RWY NML=METAR SLSI 041900Z 33010KT 9999 BKN017 32/22 Q1010 A2983 HR57 RWY NMLMETAR SLTI 041900Z 00000KT 9999 BKN020 31/22 Q1012 A2988 HR59 RWY NMLMETAR SLJE 041900Z 35006KT 9999 SCT020 FEW030CB 37/22 Q1011A2985 HR43CB/ NE/E RWY NML=METAR SLVG 041900Z 36005KT 7000 VCSH BKN015 BKN070 19/16 Q1022 A3018HR87 SH/SE/S/W RWY NML=METAR SLRB 041900Z 36010KT 9999 BKN020 36/21 Q1010 A2983 HR41 RWY NMLMETAR SLPS 041900Z 36006KT 9999 SCT017 FEW030CB BKN200 36/24 Q1008A2977 HR52 CB/NE=METAR SLCA 041900Z 00000KT 9999 OVC070 29/13 Q1014 A2994 HR37 RWY NML
ZPX0556 041859@CAELT@GG SLZZYMYT@CAELT@041852 SLLPYGYZ@CAELT@SABO SLLP 041900@CAELT@METAR SLLP 041900Z 11007KT 9999 FEW017 FEW020CB BKN200 16/01 Q1033@CAELT@A3053 625.1 P3483 CB/SH SE/S/SW AC NOSIG=@CAELT@
ZPX0557 041900@CAELT@GG SLZZYMYT@CAELT@041858 SLTRYGYZ@CAELT@SABO SLTR 041900@CAELT@METAR SLTR 041900Z 29003KT 7000 -TSRA FEW008 SCT017 FEW020CB BKN070@CAELT@24/23 Q1010 A2984 992.1 HR96 CB N/SE/SW TS SE NOSIG=@CAELT@
ZPX0558 041901@CAELT@GG SLZZYMYT@CAELT@041900 SLTRYGYS@CAELT@SABO SLTR 041900@CAELT@METAR SLTR 041900Z 29003KT 7000 -TSRA FEW008 SCT017 FEW020CB BKN070@CAELT@24/23 Q1010 A2984 992.1 HR96 CB N/SE/SW TS SE NOSIG=@CAELT@METAR SLGM 041900Z 36006KT 8000 VCSH SCT015 FEW020CB BKN200 26/23@CAELT@Q1010 A2985 HR85 AS RETS CB NE/E/SE SH SE=@CAELT@METAR SLRI 041900Z 06005KT 8000 VCSH FEW005 SCT015 FEW020CB OVC07024/23 Q1011 A2988 HR93 CB/SH SE/W=METAR SLJO 041900Z NIL=METAR SLRA 041900Z 36010KT 6000 TS VCSH SCT017 FEW020CB BKN08026/24 Q1010 A2983 HR89 CB/TS/SH N/W/NW RWY NML=METAR SLMG 041900Z 32006KT 8000 VCSH BKN017 FEW023CB 32/23 Q1009A2981 HR60 CB/SH S/SW RWY NML=METAR SLBU 041900Z NIL=METAR SLSA 041900Z 34005KT 8000 VCSH SCT017 FEW023CB BKN200 30/24Q1008 A2979 HR70 CB/SH N/SW=METAR SLSR 041900Z 32015KT 3000 -TSRA BKN015 FEW023CB BKN070 OVC20025/24 Q1008 A2979 HR92 CB N/NE/E/SE TS NE/E RWY WET OPT C210=METAR SLSM 041900Z 36003KT 8000 -TSRA SCT017 FEW023CB OV070 24/24Q1010 A2985 HR96 CB N/NE/E TS NE RWY WET OPR=
ZPX0560 041901@CAELT@GG SLZZYMYT@CAELT@041901 SLCBYGYS@CAELT@SABO SLCB 041900@CAELT@METAR SLCB 041900Z 22014KT 9999 FEW036 FEW040CB BKN200 27/08 Q1019@CAELT@A3009 746.8 HR29 CB/NE/E/SE/S AC NOSIG=@CAELT@METAR SLAL 041900Z 03011KT 9999 SCT023 FEW033CB SCT200 21/08 Q1028@CAELT@A3039 703.4 HR43 CB SW/W=@CAELT@METAR SLPO 041800Z NIL=METAR SLAG 041800Z NIL=METAR SLVM 041800Z NIL=METAR SLTJ 041900Z 13006KT 9999 BKN040 OVC070 22/11 Q1018 A3007 813.6HR50=METAR SLYA 041800Z NIL=METAR SLBJ 041800Z NIL=METAR SLHI 041800Z NIL=
ZPX0561 041902@CAELT@GG SLZZYMYT@CAELT@041902 SLCBYGYS@CAELT@SABO SLCB 041900@CAELT@METAR SLCB 041900Z 22014KT 9999 FEW036 FEW040CB BKN200 27/08 Q1019@CAELT@A3009 746.8 HR29 CB/NE/E/SE/S AC NOSIG=@CAELT@METAR SLAL 041900Z 03011KT 9999 SCT023 FEW033CB SCT200 21/08 Q1028@CAELT@A3039 703.4 HR43 CB SW/W=@CAELT@METAR SLPO 041900Z NIL=METAR SLAG 041900Z NIL=METAR SLVM 041900Z NIL=METAR SLTJ 041900Z 13006KT 9999 BKN040 OVC070 22/11 Q1018 A3007 813.6HR50=METAR SLYA 041900Z NIL=METAR SLBJ 041900Z NIL=METAR SLHI 041900Z NIL=
ZPX0563 041903@CAELT@GG SLZZYMYT@CAELT@041903 SLLPYFYA@CAELT@SABO SLLP 041900@CAELT@METAR SLLP 041900Z 11007KT 9999 FEW017 FEW020CB BKN200 16/01 Q1033@CAELT@A3053 625.1 P3483 CB/SH SE/S/SW AC NOSIG=@CAELT@METAR SLRY 041900Z 34012KT 9999 FEW017 BKN200 29/23 Q1008@CAELT@A977 HR69 RWY NML=@CAELT@METAR SLRQ 041900Z 36012KT 9999 SCT020 FEW023CB BKN200 32/25 Q1008A2976 HR68 CB/N/NE/E=METAR SLSB 041900Z 05005KT 7000 TS VCSH SCT015 FEW025CB BKN070 27/24Q1009 A2979 HR86 TS CB SH NE E SE S RWY WET OPR C210=METAR SLOR 041900Z 36012KT 9999 SCT023 FEW025CB BKN200 18/03 Q1031A3046 653.4 HR37 CB/SH/E/S AC=
ZPX0567 041910@CAELT@GG SLZZYMYT@CAELT@041910 SLLPYGYZ@CAELT@SABO SLLP 041900 CCB@CAELT@METAR COR SLLP 041900Z 11007KT 9999 FEW017 FEW020CB BKN200 16/01@CAELT@Q1033 A3053 625.1 HR35 P3483 CB/SH SE/S/SW AC NOSIG=@CAELT@
ZPX0577 041919@CAELT@GG SLZZYMYT@CAELT@041918 SLLPYFYA@CAELT@SABO SLLP 041800 CCC@CAELT@METAR COR SLLP 041900Z 11007KT 9999 FEW017 FEW020CB BKN200 16/01@CAELT@Q1033 A3053 625.1 HR35 P3483 CB/SH SE/S/SW AC NOSIG=@CAELT@METAR SLCO 041800Z 02007KT 8000 VCSH BKN020 FEW023CB 32/24 Q1009@CAELT@A2982 982.4 HR64 CB/SH/SE/W CI=@CAELT@METAR SLRY 041800Z 32008KT 9999 FEW017 BKN200 29/24 Q1009A2980 HR70 RWY NML=METAR SLRQ 041800Z 36006KT 9999 SCT020 FEW023CB BKN200 31/24 Q1008A2979 HR68 CB/N/NE/E=METAR SLAP 041800Z 36015KT 9999 FEW025 FEW027CB SCT200 28/15 Q1015A2998 856.3 HR46 CB SE/S AC=METAR SLSB 041800Z 36004KT 8000 VCSH SCT015 FEW025CB OVC070 27/23Q1009 A2980 HR83 RETS CB SH N NE E SE S RWY WET OPR C210=METAR SLOR 041800Z 36011KT 9999 SCT023 FEW025CB BKN200 18/05 Q1031A3046 653.6 HR42 CB/N/S/W SH/S/W AC=
ZPX0595 041951@CAELT@GG SLZZYMYT@CAELT@041951 SLCAYGYS@CAELT@SABO SLCA 042000@CAELT@METAR SLCA 042000Z 00000KT 9999 OVC070 29/14 Q1014 A2994 HR41 RWY NML@CAELT@
ZPX0597 041953@CAELT@GG SLZZYMYT@CAELT@041952 SLPSYGYS@CAELT@SABO SLPS 042000@CAELT@METAR SLPS 042000Z 36005KT 9999 SCT017 FEW030CB BKN200 35/25 Q1007@CAELT@A2974 HR56 CB/W/E=@CAELT@
ZPX0598 041954@CAELT@GG SLZZYMYT@CAELT@041955 SLVRYGYZ@CAELT@SABO SLVR 042000@CAELT@METAR SLVR 042000Z 29009KT 9999 FEW006 SCT020 BKN200 28/24 Q1009@CAELT@A2982 HR80 NOSIG=@CAELT@
ZPX0599 041954@CAELT@GG SLZZYMYT@CAELT@041955 SLRQYSYX@CAELT@SABO SLRQ 042000@CAELT@METAR SLRQ 042000Z 35007KT 9999 FEW020 FEW027CB BKN200 31/25 Q1007@CAELT@A2974 HR70 CB/DIST/N/NE/E=@CAELT@
ZPX0601 041955@CAELT@GG SLZZYMYT@CAELT@041955 SLSBYSYX@CAELT@SABO SLSB 042000@CAELT@METAR SLSB 042000Z 02006KT 7000 TS VCSH SCT015 FEW025CB BKN070 26/24@CAELT@Q1008 A2978 HR88 TS CB SH NE E SE S SW RWY WET OPR C210=@CAELT@
ZPX0602 041955@CAELT@GG SLZZYMYT@CAELT@041954 SLRBYGYS@CAELT@SABO SLRB 042000@CAELT@METAR SLRB 042000Z 36010KT 9999 SCT020 FEW025CB 36/21 Q1009 A2980@CAELT@HR41 CB/E RWY NML=@CAELT@
ZPX0603 041955@CAELT@GG SLZZYMYT@CAELT@041955 SLCOYGYZ@CAELT@SABO SLCO 042000@CAELT@METAR SLCO 042000Z 31004KT 8000 VCSH SCT020 FEW023CB BKN200 25/24@CAELT@Q1009 A2981 982.0 HR94 CB/SH/SE/NW AC RERA=@CAELT@
ZPX0604 041955@CAELT@GG SLZZYMYT@CAELT@041954 SLSAYGYS@CAELT@SABO SLSA 042000@CAELT@METAR SLSA 042000Z 34008KT 5000 -TSRA BKN017 FEW023CB BKN200 25/24@CAELT@Q1008 A2979 HR92 CB N/W/NW TS W=@CAELT@
ZPX0605 041955@CAELT@GG SLZZYMYT@CAELT@041955 SLETYMYC@CAELT@SABO SLET 042000@CAELT@METAR SLET 042000Z 30010KT 9999 FEW012 SCT017 FEW030CB BKN200 26/24@CAELT@Q1010 A2982 HR88 CB NE/E/NW SH E/SE/NW TEMPO SHRA=@CAELT@
ZPX0606 041956@CAELT@GG SLZZYMYT@CAELT@041955 SLORYGYZ@CAELT@SABO SLOR 042000@CAELT@METAR SLOR 042000Z 34010KT 9999 FEW023 FEW025CB BKN200 19/02 Q1030@CAELT@A3044 653.1 HR32 CB/SH DIST SW=@CAELT@
ZPX0608 041957@CAELT@GG SLZZYMYT@CAELT@041956 SLCBYGYZ@CAELT@SABO SLCB 042000@CAELT@METAR SLCB 042000Z 29008KT 9999 SCT036 FEW040CB BKN200 29/08 Q1018@CAELT@A3007 746.1 HR28 CB/NW/N/NE/E SH/NW/NAC NOSIG=@CAELT@
ZPX0609 041957@CAELT@GG SLZZYMYT@CAELT@041956 SLTRYGYZ@CAELT@SABO SLTR 042000@CAELT@METAR SLTR 042000Z 29003KT 8000 -RA FEW008 SCT017 FEW020CB BKN070@CAELT@24/24 Q1008 A2978 990.0 RETS CB N/SE/SW NOSIG=@CAELT@
ZPX0610 041958@CAELT@GG SLZZYMYT@CAELT@041957 SLTJYGYZ@CAELT@SABO SLTJ 042000@CAELT@METAR SLTJ 042000Z 09006KT 9999 BKN036 OVC070 20/11 Q1019 A3010 814.3@CAELT@HR56 SH N/NE=@CAELT@
ZPX0611 041958@CAELT@GG SLZZYMYT@CAELT@041958 SLTRYGYZ@CAELT@SABO SLTR 042000 CCA@CAELT@METAR COR SLTR 042000Z 29003KT 8000 -RA FEW008 SCT017 FEW020CB@CAELT@BKN070 24/24 Q1008 A2978 990.0 HR96 RETS CB N/SE/SW NOSIG=@CAELT@
ZPX0612 041958@CAELT@GG SLZZYMYT@CAELT@041955 SLLPYGYZ@CAELT@SABO SLLP 042000@CAELT@METAR SLLP 042000Z 12013KT 9999 FEW017 FEW020CB BKN200 15/04 Q1032@CAELT@A3050 624.6 HR48 P93// CB/SH S/SW AC NOSIG=@CAELT@
ZPX0613 041959@CAELT@GG SLZZYMYT@CAELT@041959 SLVRYFYC@CAELT@SABO SLVR 042000@CAELT@METAR SLVR 042000Z 29009KT 9999 FEW006 SCT020 BKN200 28/24 Q1009@CAELT@A2982 HR80 NOSIG=@CAELT@METAR SLET 042000Z 30010KT 9999 FEW012 SCT017 FEW030CB BKN200 26/24@CAELT@Q1010 A2982 HR88 CB NE/E/NW SH E/SE/NW TEMPO SHRA=@CAELT@METAR SLAS 042000Z 34012KT 9999 BKN020 FEW030CB BKN200 31/23 Q1010A2983 HR64 CB/SH/W/NW/E RWY NML=METAR SLJV 042000Z 34010KT 9999 FEW020 FEW030CB BKN200 27/23 Q1009A2980 HR83 CB/N RETS RWY NML=METAR SLCP 042000Z 30006KT 9999 FEW017 FEW027CB BKN200 29/22 Q1012A2988 HR67 CB NW RWY NML=METAR SLSI 042000Z 34006KT 9999 SCT017 31 / 23 Q1009 A2980 HR62 RWYNML=METAR SLTI 042000Z 00000KT 9999 SCT020 BKN200 32/22 Q1012 A2988 HR56RWY NML=METAR SLJE 042000Z 35006KT 9999 SCT020 FEW030CB 36/22 Q1011 A2985HR43 CB/NE/SW RWY NML=METAR SLVG 042000Z 36008KT 9999 BKN017 BKN070 20/16 Q1022 A3018 HR74METAR SLRB 042000Z 36010KT 9999 SCT020 FEW025CB 36/21 Q1009 A2980HR41 CB/E RWY NML=METAR SLPS 042000Z 36005KT 9999 SCT017 FEW030CB BKN200 35/25 Q1007A2974 HR56 CB/W/E=METAR SLCA 042000Z 00000KT 9999 OVC070 29/14 Q1014 A2994 HR41 RWY NML
ZPX0615 042000@CAELT@GG SLZZYMYT@CAELT@041959 SLCBYGYS@CAELT@SABO SLCB 042000@CAELT@METAR SLCB 042000Z 29008KT 9999 SCT036 FEW040CB BKN200 29/08 Q1018@CAELT@A3007 746.1 HR28 CB/NW/N/NE/E SH/NW/NAC NOSIG=@CAELT@METAR SLAL 042000Z 05015KT 9999 SCT023 FEW033CB SCT200 21/09 Q1024@CAELT@A3026 HR49 CB S/SW/W=@CAELT@METAR SLPO 042000Z NIL=METAR SLAG 042000Z NIL=METAR SLVM 042000Z NIL=METAR SLTJ 042000Z 09006KT 9999 BKN036 OVC070 20/11 Q1019 A3010 814.3HR56 SH N/NE=METAR SLYA 042000Z NIL=METAR SLBJ 042000Z NIL=METAR SLHI 042000Z NIL=
ZPX0616 042001@CAELT@GG SLZZYMYT@CAELT@042000 SLLPYFYA@CAELT@SABO SLLP 042000@CAELT@METAR SLLP 042000Z 12013KT 9999 FEW017 FEW020CB BKN200 15/04 Q1032@CAELT@A3050 624.6 HR48 P93// CB/SH S/SW AC NOSIG=@CAELT@METAR SLCO 042000Z 31004KT 8000 VCSH SCT020 FEW023CB BKN200 25/24@CAELT@Q1009 A2981 982.0 HR94 CB/SH/SE/NW AC RERA=@CAELT@METAR SLRY 042000Z 32006KT 9999 FEW017 BKN200 29/23 Q1007A2975 HR70 RWY NML=METAR SLRQ 042000Z 35007KT 9999 FEW020 FEW027CB BKN200 31/25 Q1007A2974 HR70 CB/DIST/N/NE/E=METAR SLSB 042000Z 02006KT 7000 TS VCSH SCT015 FEW025CB BKN070 26/24Q1008 A2978 HR88 TS CB SH NE E SE S SW RWY WET OPR C210=METAR SLOR 042000Z 34010KT 9999 FEW023 FEW025CB BKN200 19/02 Q1030A3044 653.1 HR32 CB/SH DIST SW=
ZPX0618 042002@CAELT@GG SLZZYMYT@CAELT@041959 SLTRYGYS@CAELT@SABO SLTR 042000@CAELT@METAR SLTR 042000Z 29003KT 8000 -RA FEW008 SCT017 FEW020CB BKN070@CAELT@24/24 Q1008 A2978 990.0 HR96 RETS CB N/SE/SW NOSIG=@CAELT@METAR SLGM 042000Z 32008KT 9999 SCT015 FEW020CB BKN200 26/23 Q1009@CAELT@A2980 HR88 CB NE/E=@CAELT@METAR SLRI 042000Z 36008KT 8000 VCSH SCT015 FEW020CB BKN070 25/24Q1010 Q2983 HR92 CB/SH W CI=METAR SLJO 042000Z NIL=METAR SLRA 042000Z 32004KT 8000 -TSRA SCT017 FEW023CB BKN200 24/23Q1010 A2983 HR94 CB/TS SW/W RWY HUM OPR=METAR SLMG 042000Z 32008KT 7000 VCSH SCT017 FEW023CB 31/24 Q1008A2979 HR66 CB/SH S/SW/W/NW RWY NML=METAR SLBU 042000Z 32008KT 9999 SCT017 FEW023CB BKN200 30/23 Q1007A2974 HR68 CB SW/NW RWY NML=METAR SLSA 042000Z 34008KT 5000 -TSRA BKN017 FEW023CB BKN200 25/24Q1008 A2979 HR92 CB N/W/NW TS W=METAR SLSR 042000Z 00000KT 5000 TS VCSH BKN012 FEW023CB OVC070 25/24Q1008 A2977 HR96 RERA CB/SH E/SE/S/SW TS S/SW RWY OPR C210=METAR SLSM 042000Z 00000KT 8000 -RA BKN017 OVC070 24/24 Q1009 A2981HR98 RERTS RWY HUM OPR=
ZPX0629 042018@CAELT@GG SLZZYMYT@CAELT@042015 SLTRYGYS@CAELT@SABO SLTR 042000 CCA@CAELT@METAR SLTR 042000Z 29003KT 8000 -RA FEW008 SCT017 FEW020CB BKN070@CAELT@24/24 Q1008 A2978 990.0 HR96 RETS CB N/SE/SW NOSIG=@CAELT@METAR SLGM 042000Z 32008KT 9999 SCT015 FEW020CB BKN200 26/23 Q1009@CAELT@A2980 HR88 CB NE/E=@CAELT@METAR COR SLRI 042000Z 36008KT 8000 VCSH SCT015 FEW020CB BKN07025/24 Q1010 A2983 HR92 CB/SH W CI=METAR SLJO 042000Z NIL=METAR SLRA 042000Z 32004KT 8000 -TSRA SCT017 FEW023CB BKN200 24/23Q1010 A2983 HR94 CB/TS SW/W RWY HUM OPR=METAR SLMG 042000Z 32008KT 7000 VCSH SCT017 FEW023CB 31/24 Q1008A2979 HR66 CB/SH S/SW/W/NW RWY NML=METAR SLBU 042000Z 32008KT 9999 SCT017 FEW023CB BKN200 30/23 Q1007A2974 HR68 CB SW/NW RWY NML=METAR SLSA 042000Z 34008KT 5000 -TSRA BKN017 FEW023CB BKN200 25/24Q1008 A2979 HR92 CB N/W/NW TS W=METAR SLSR 042000Z 00000KT 5000 TS VCSH BKN012 FEW023CB OVC070 25/24Q1008 A2977 HR96 RERA CB/SH E/SE/S/SW TS S/SW RWY OPR C210=METAR SLSM 042000Z 00000KT 8000 -RA BKN017 OVC070 24/24 Q1009 A2981HR98 RERTS RWY HUM OPR=
ZPX0633 042023@CAELT@GG SLZZYMYT@CAELT@042021 SLTRYGYS@CAELT@SABO SLTR 042000 CCB@CAELT@METAR SLTR 042000Z 29003KT 8000 -RA FEW008 SCT017 FEW020CB BKN070@CAELT@24/24 Q1008 A2978 990.0 HR96 RETS CB N/SE/SW NOSIG=@CAELT@METAR SLGM 042000Z 32008KT 9999 SCT015 FEW020CB BKN200 26/23 Q1009@CAELT@A2980 HR88 CB NE/E=@CAELT@METAR SLRI 042000Z 36008KT 8000 VCSH SCT015 FEW020CB BKN07025/24 Q1010 A2983 HR92 CB/SH W CI=METAR SLJO 042000Z NIL=METAR SLRA 042000Z 32004KT 8000 -TSRA SCT017 FEW023CB BKN200 24/23Q1010 A2983 HR94 CB/TS SW/W RWY HUM OPR=METAR SLMG 042000Z 32008KT 7000 VCSH SCT017 FEW023CB 31/24 Q1008A2979 HR66 CB/SH S/SW/W/NW RWY NML=METAR SLBU 042000Z 32008KT 9999 SCT017 FEW023CB BKN200 30/23 Q1007A2974 HR68 CB SW/NW RWY NML=METAR SLSA 042000Z 34008KT 5000 -TSRA BKN017 FEW023CB BKN200 25/24Q1008 A2979 HR92 CB N/W/NW TS W=METAR SLSR 042000Z 00000KT 5000 TS VCSH BKN012 FEW023CB OVC070 25/24Q1008 A2977 HR96 RERA CB/SH E/SE/S/SW TS S/SW RWY OPR C210=METAR COR SLSM 042000Z 00000KT 8000 -RA BKN017 OVC070 24/24 Q1009A2981 HR98 RETS RWY HUM OPR=
ZPX0642 042050@CAELT@GG SLZZYMYT@CAELT@042050 SLRBYGYS@CAELT@SABO SLRB 042100@CAELT@METAR SLRB 042100Z 36006KT 9999 FEW020 FEW025CB 36/21 Q1009 A2980@CAELT@HR43 RWY NML=@CAELT@
ZPX0645 042052@CAELT@GG SLZZYMYT@CAELT@042051 SLPSYGYS@CAELT@SABO SLPS 042100@CAELT@METAR SLPS 042100Z 36004KT 9999 SCT017 FEW030CB BKN200 35/25 Q1007@CAELT@A2974 HR58 CB/W=@CAELT@
ZPX0648 042054@CAELT@GG SLZZYMYT@CAELT@042054 SLVRYGYZ@CAELT@SABO SLVR 042100@CAELT@METAR SLVR 042100Z 29009KT 9999 SCT020 FEW030CB BKN200 27/23 Q1010@CAELT@A2982 HR81 CB NE NOSIG=@CAELT@
ZPX0650 042054@CAELT@GG SLZZYMYT@CAELT@042055 SLETYMYC@CAELT@SABO SLET 042100@CAELT@METAR SLET 042100Z 30006KT 9999 SCT017 FEW030CB BKN200 25/23 Q1009@CAELT@A2982 HR88 CB NE/SE NOSIG=@CAELT@
ZPX0651 042055@CAELT@GG SLZZYMYT@CAELT@042054 SLSAYGYS@CAELT@SABO SLSA 042100@CAELT@METAR SLSA 042100Z 34006KT 5000 -TSRA BKN017 FEW023CB BKN200 24/23@CAELT@Q1009 A2980 HR96 CB N/SW TS SW=@CAELT@
ZPX0652 042055@CAELT@GG SLZZYMYT@CAELT@042055 SLORYGYZ@CAELT@SABO SLOR 042100@CAELT@METAR SLOR 042100Z 36015KT 9999 FEW023 FEW025CB BKN200 19/03 Q1031@CAELT@A3046 653.6 HR35 CB/SH DIST SW AC=@CAELT@
ZPX0653 042056@CAELT@GG SLZZYMYT@CAELT@042055 SLTRYGYZ@CAELT@SABO SLTR 042100@CAELT@METAR SLTR 042100Z 31005KT 9999 FEW008 SCT017 FEW020CB BKN070 25/24@CAELT@Q1008 A2979 990.2 HR95 CB N/NE/SW NOSIG=@CAELT@
ZPX0655 042056@CAELT@GG SLZZYMYT@CAELT@042055 SLRQYSYX@CAELT@SABO SLRQ 042100@CAELT@METAR SLRQ 042100Z 36006KT 9999 FEW020 BKN200 30/24 Q1007 A2975 HR72=@CAELT@
ZPX0656 042057@CAELT@GG SLZZYMYT@CAELT@042057 SLCAYGYS@CAELT@SABO SLCA 042100@CAELT@METAR SLCA 042100Z 00000KT 9999 OVC070 28/13 Q1014 A2994 HR42 RWY NML@CAELT@
ZPX0657 042057@CAELT@GG SLZZYMYT@CAELT@042054 SLLPYGYZ@CAELT@SABO SLLP 042100@CAELT@METAR SLLP 042100Z 12013KT 9999 FEW017 FEW020CB BKN200 14/03 Q1033@CAELT@A3050 624.7 HR46 P3483 CB/SH SW/W/NW AC NOSIG=@CAELT@
ZPX0658 042058@CAELT@GG SLZZYMYT@CAELT@042058 SLTJYGYZ@CAELT@SABO SLTJ 042100@CAELT@METAR SLTJ 042100Z 09008KT 9999 BKN036 OVC070 19/12 Q1018 A3009 814.0@CAELT@HR62 SH/N/NE/SW/W/NW=@CAELT@
ZPX0659 042059@CAELT@GG SLZZYMYT@CAELT@042057 SLSBYSYX@CAELT@SABO SLSB 042100@CAELT@METAR SLSB 042100Z 01008KT 7000 TS VCSH SCT015 FEW025CB BKN070 25/D24@CAELT@Q1008 A2976 HR92 TS CB SH NE E SE RWY WET OPR C210=@CAELT@
ZPX0660 042059@CAELT@GG SLZZYMYT@CAELT@042058 SLCOYGYZ@CAELT@SABO SLCO 042100@CAELT@METAR SLCO 042100Z 30005KT 8000 -RA SCT004 FEW023CB BKN080 25/24@CAELT@Q1009 A2981 982.0 HR96 CB/SW/NW=@CAELT@
ZPX0662 042059@CAELT@GG SLZZYMYT@CAELT@042057 SLRBYGYS@CAELT@SABO SLRB 042100 CCA@CAELT@METAR COR SLRB 042100Z 36006KT 9999 FEW020 FEW025CB 36/21 Q1009 A2980@CAELT@HR43 CB/E RWY NML=@CAELT@
ZPX0664 042059@CAELT@GG SLZZYMYT@CAELT@042057 SLTRYGYS@CAELT@SABO SLTR 042100@CAELT@METAR SLTR 042100Z 31005KT 9999 FEW008 SCT017 FEW020CB BKN070 25/24@CAELT@Q1008 A2979 990.2 HR95 CB N/NE/SW NOSIG=@CAELT@METAR SLGM 042100Z 28006KT 9999 SCT015 FEW020CB BKN200 28/23 Q1008@CAELT@A2977 HR75 CB NE/E=@CAELT@METAR SLRI 042100Z 02008KT 9999 SCT015 FEW020CB BKN070 BKN200 26/23Q1009 A2981 HR85 CB/W=METAR SLJO 042100Z NIL=METAR SLRA 042100Z 32004KT 7000 VCSH SCT017 FEW023CB BKN200 24/23Q1009 A2980 HR94 RETSRA CB/SH SW/W RWY HUM OPR=METAR SLMG 042100Z 32006KT 7000 VCSH FEW017 FEW023CB BKN200 25/24Q1008 A2979 HR92 RESHRA CB/SH S/SW RWY HUM OPRMETAR SLBU 042100Z 00000KT 9999 SCT017 FEW023CB BKN200 27/24 Q1006A2972 HR83 CB S/SW/W RWY NML=METAR SLSA 042100Z 34006KT 5000 -TSRA BKN017 FEW023CB BKN200 24/23Q1009 A2980 HR96 CB N/SW TS SW=METAR SLSR 042100Z 36004KT 7000 VCSH SCT012 FEW023CB OVC070 25/24Q1008 A2977 HR94 RETS CB/SH N/NE/SE RWY OPR C210=METAR SLSM 042100Z 00000KT 9999 SCT017 BKN070 24/24 Q1008 A2978HR97 RERA RWY HUM OPR=
ZPX0665 042059@CAELT@GG SLZZYMYT@CAELT@042059 SLVRYFYC@CAELT@SABO SLVR 042100@CAELT@METAR SLVR 042100Z 29009KT 9999 SCT020 FEW030CB BKN200 27/23 Q1010@CAELT@A2982 HR81 CB NE NOSIG=@CAELT@METAR SLET 042100Z 30006KT 9999 SCT017 FEW030CB BKN200 25/23 Q1009@CAELT@A2982 HR88 CB NE/SE NOSIG=@CAELT@METAR SLAS 042100Z 00000KT 9999 SCT020 FEW030CB OVC200 28/23 Q1010A2983 HR75 CB/SH/E/S/SW RWY NML=METAR SLJV 042100Z 00000KT 9999 FEW020 FEW030CB BKN200 30/24 Q1009A2980 HR71 CB/N RWY NML=METAR SLCP 042100Z 30006KT 9999 SCT020 FEW027CB BKN200 29/22 Q1012A2988 HR69 CB NW RWY NML=METAR SLSI 042100Z 36008KT 9999 SCT017 FEW025CB 32/22 Q1009 A2980HR57 CB/W/S RWY NML=METAR SLTI 042100Z 00000KT 9999 SCT020 BKN200 33/23 Q1011 A2985 HR58RWY NML=METAR SLJE 042100Z 35005KT 9999 TS FEW020 FEW030CB BKN200 36/22 Q1010A2983 HR45 CB/TS/NE/SE RWY NML=METAR SLVG 042100Z 36005KT 9999 BKN015 18/16 Q1022 A3018 HR86 SH/SEMETAR SLRB 042100Z 36006KT 9999 FEW020 FEW025CB 36/21 Q1009 A2980HR43 RWY NML=METAR SLPS 042100Z 36004KT 9999 SCT017 FEW030CB BKN200 35/25 Q1007A2974 HR58 CB/W=METAR SLCA 042100Z 00000KT 9999 OVC070 28/13 Q1014 A2994 HR42 RWY NML
ZPX0666 042059@CAELT@GG SLZZYMYT@CAELT@042058 SLCBYGYZ@CAELT@SABO SLCB 042100@CAELT@METAR SLCB 042100Z 35012KT 9999 TS SCT036 SCT040CB BKN070 BKN200 23/@CAELT@09 Q1019 A3009 746.7 HR38 CB/SH/SE/SW/NW/N TS/SW BECMG NSW=@CAELT@
ZPX0668 042100@CAELT@GG SLZZYMYT@CAELT@042100 SLCBYGYS@CAELT@SABO SLCB 042100@CAELT@METAR SLCB 042100Z 35012KT 9999 TS SCT036 SCT040CB BKN070 BKN200 23/@CAELT@09 Q1019 A3009 746.7 HR38 CB/SH/SE/SW/NW/N TS/SW BECMG NSW=@CAELT@METAR SLAL 042100Z 06014KT 9999 SCT023 SCT033CB BKN200 19/09 Q1025@CAELT@A3027 700.8 HR54 CB S/SW/W/NW/N=@CAELT@METAR SLPO 042100Z NIL=METAR SLAG 042100Z NIL=METAR SLVM 042100Z NIL=METAR SLTJ 042100Z 09008KT 9999 BKN036 OVC070 19/12 Q1018 A3009 814.0HR62 SH/N/NE/SW/W/NW=METAR SLYA 042100Z NIL=METAR SLBJ 042100Z NIL=METAR SLHI 042100Z NIL=
ZPX0669 042102@CAELT@GG SLZZYMYT@CAELT@042100 SLVRYFYC@CAELT@SABO SLVR 042100 CCA@CAELT@METAR SLVR 042100Z 29009KT 9999 SCT020 FEW030CB BKN200 27/23 Q1010@CAELT@A2982 HR81 CB NE NOSIG=@CAELT@METAR SLET 042100Z 30006KT 9999 SCT017 FEW030CB BKN200 25/23 Q1009@CAELT@A2982 HR88 CB NE/SE NOSIG=@CAELT@METAR SLAS 042100Z 00000KT 9999 SCT020 FEW030CB OVC200 28/23 Q1010A2983 HR75 CB/SH/E/S/SW RWY NML=METAR SLJV 042100Z 00000KT 9999 FEW020 FEW030CB BKN200 30/24 Q1009A2980 HR71 CB/N RWY NML=METAR SLCP 042100Z 30006KT 9999 SCT020 FEW027CB BKN200 29/22 Q1012A2988 HR69 CB NW RWY NML=METAR SLSI 042100Z 36008KT 9999 SCT017 FEW025CB 32/22 Q1009 A2980HR57 CB/W/S RWY NML=METAR SLTI 042100Z 00000KT 9999 SCT020 BKN200 33/23 Q1011 A2985 HR58RWY NML=METAR SLJE 042100Z 35005KT 9999 TS FEW020 FEW030CB BKN200 36/22 Q1010A2983 HR45 CB/TS/NE/SE RWY NML=METAR SLVG 042100Z 36005KT 9999 BKN015 18/16 Q1022 A3018 HR86 SH/SEMETAR COR SLRB 042100Z 36006KT 9999 FEW020 FEW025CB 36/21 Q1009 A2980HR43 CB/E RWY NML=METAR SLPS 042100Z 36004KT 9999 SCT017 FEW030CB BKN200 35/25 Q1007A2974 HR58 CB/W=METAR SLCA 042100Z 00000KT 9999 OVC070 28/13 Q1014 A2994 HR42 RWY NML
ZPX0672 042104@CAELT@GG SLZZYMYT@CAELT@042100 SLLPYFYA@CAELT@SABO SLLP 042100@CAELT@METAR SLLP 042100Z 12013KT 9999 FEW017 FEW020CB BKN200 14/03 Q1033@CAELT@A3050 624.7 HR46 P3483 CB/SH SW/W/NW AC NOSIG=@CAELT@METAR SLCO 042100Z 30005KT 8000 -RA SCT004 FEW023CB BKN080 25/24@CAELT@Q1009 A2981 982.0 HR96 CB/SW/NW=@CAELT@METAR SLRY 042100Z 3503KT 9999 FEW020 BKN200 29/23 Q1007 A2975HR73 RWY NML=METAR SLRQ 042100Z 36006KT 9999 FEW020 BKN200 30/24 Q1007 A2975 HR72=METAR SLSB 042100Z 01008KT 7000 TS VCSH SCT015 FEW025CB BKN070 25/D24Q1008 A2976 HR92 TS CB SH NE E SE RWY WET OPR C210=METAR SLOR 042100Z 36015KT 9999 FEW023 FEW025CB BKN200 19/03 Q1031A3046 653.6 HR35 CB/SH DIST SW AC=
ZPX0674 042108@CAELT@GG SLZZYMYT@CAELT@042106 SLLPYFYA@CAELT@SABO SLLP 042100 CCD@CAELT@METAR SLLP 042100Z 12013KT 9999 FEW017 FEW020CB BKN200 14/03 Q1033@CAELT@A3050 624.7 HR46 P3483 CB/SH SW/W/NW AC NOSIG=@CAELT@METAR SLCO 042100Z 30005KT 8000 -RA SCT004 FEW023CB BKN080 25/24@CAELT@Q1009 A2981 982.0 HR96 CB/SW/NW=@CAELT@METAR COR SLRY 042100Z 35003KT 9999 FEW020 BKN200 29/23 Q1007 A2975HR73 RWY NML=METAR SLRQ 042100Z 36006KT 9999 FEW020 BKN200 30/24 Q1007 A2975 HR72=METAR COR SLSB 042100Z 01008KT 7000 TS VCSH SCT015 FEW025CB BKN070 25Q1008 A2976 HR92 TS CB SH NE E SE RWY WET OPR C210=METAR SLOR 042100Z 36015KT 9999 FEW023 FEW025CB BKN200 19/03 Q1031A3046 653.6 HR35 CB/SH DIST SW AC=
ZPX0695 042153@CAELT@GG SLZZYMYT@CAELT@042153 SLPSYGYS@CAELT@SABO SLPS 042200@CAELT@METAR SLPS 042200Z 00000KT 9999 SCT017 FEW030CB BKN200 33/26 Q1008@CAELT@A2977 HR69 CB/W=@CAELT@
ZPX0696 042154@CAELT@GG SLZZYMYT@CAELT@042154 SLVRYGYZ@CAELT@SABO SLVR 042200@CAELT@METAR SLVR 042200Z 29010KT 8000 VCSH FEW013 BKN020 FEW030CB BKN200 26@CAELT@/22 Q1010 A2983 HR79 CB/SH NE/E NOSIG=@CAELT@
ZPX0698 042155@CAELT@GG SLZZYMYT@CAELT@042154 SLSAYGYS@CAELT@SABO SLSA 042200@CAELT@METAR SLSA 042200Z 00000KT 8000 -RA FEW005 BKN015 FEW020CB OVC070 23/@CAELT@23 Q1009 A2980 HR98 RETS CB SE/S/SW=@CAELT@
ZPX0699 042155@CAELT@GG SLZZYMYT@CAELT@042155 SLETYMYC@CAELT@SABO SLET 042200@CAELT@METAR SLET 042200Z 28006KT 9999 SCT017 FEW030CB BKN200 25/23 Q1010@CAELT@A2983 HR86 CB NE/SE NOSIG=@CAELT@
ZPX0700 042156@CAELT@GG SLZZYMYT@CAELT@042155 SLRBYGYS@CAELT@SABO SLRB 042200@CAELT@METAR SLRB 042200Z 36006KT 9999 FEW025CB 33/22 Q1011 A2985 HR52 CB/SE@CAELT@/E RWY NML=@CAELT@
ZPX0701 042156@CAELT@GG SLZZYMYT@CAELT@042156 SLCAYGYS@CAELT@SABO SLCA 042200@CAELT@METAR SLCA 042200Z 21005KT 9999 SCT033 OVC070 26/15 Q1015 A2997 HR51@CAELT@RWY NML=@CAELT@
ZPX0702 042156@CAELT@GG SLZZYMYT@CAELT@042155 SLRQYSYX@CAELT@SABO SLRQ 042200@CAELT@METAR SLRQ 042200Z 36004KT 9999 FEW020 BKN200 29/24 Q1008 A2977@CAELT@HR75=@CAELT@
ZPX0703 042157@CAELT@GG SLZZYMYT@CAELT@042156 SLORYGYZ@CAELT@SABO SLOR 042200@CAELT@METAR SLOR 042200Z 01013KT 9999 SCT023 FEW025CB BKN200 16/02 Q1031@CAELT@A3047 653.7 HR37 CB/SH S/SW/W=@CAELT@
ZPX0704 042157@CAELT@GG SLZZYMYT@CAELT@042156 SLCOYGYZ@CAELT@SABO SLCO 042200@CAELT@METAR SLCO 042200Z 21004KT 8000 -RA SCT004 FEW023CB BKN080 24/24@CAELT@Q1009 A2982 982.4 HR98 CB/E/NW=@CAELT@
ZPX0705 042157@CAELT@GG SLZZYMYT@CAELT@042155 SLSBYSYX@CAELT@SABO SLSB 042200@CAELT@METAR SLSB 042200Z 02005KT 8000 TS VCSH SCT015 FEW025CB BKN070 25/24@CAELT@Q1008 A2977 HR81 TS CB SH NE E SE RWY WET OPR C210=@CAELT@
ZPX0707 042158@CAELT@GG SLZZYMYT@CAELT@042157 SLCBYGYZ@CAELT@SABO SLCB 042200@CAELT@METAR SLCB 042200Z 19007KT 9999 TS FEW036 FEW040CB BKN200 22/09 Q1019@CAELT@A3012 747.4 HR42 CB/SE/S TS/S AC NOSIG=@CAELT@
ZPX0708 042159@CAELT@GG SLZZYMYT@CAELT@042158 SLTJYGYZ@CAELT@SABO SLTJ 042200@CAELT@METAR SLTJ 042200Z 13008KT 9999 BKN030 OVC070 18/12 Q1020 A3012 815.0@CAELT@HR68 SH NE/E/SE/SW=@CAELT@
ZPX0709 042159@CAELT@GG SLZZYMYT@CAELT@042157 SLTRYGYZ@CAELT@SABO SLTR 042200@CAELT@METAR SLTR 042200Z 36003KT 8000 VCSH FEW008 SCT017 FEW020CB BKN070@CAELT@25/24 Q1010 A2983 991.5 HR94 CB/SH N/NE/E TEMPO TSRA=@CAELT@
ZPX0711 042200@CAELT@GG SLZZYMYT@CAELT@042200 SLVRYFYC@CAELT@SABO SLVR 042200@CAELT@METAR SLVR 042200Z 29010KT 8000 VCSH FEW013 BKN020 FEW030CB BKN200 26@CAELT@/22 Q1010 A2983 HR79 CB/SH NE/E NOSIG=@CAELT@METAR SLET 042200Z 28006KT 9999 SCT017 FEW030CB BKN200 25/23 Q1010@CAELT@A2983 HR86 CB NE/SE NOSIG=@CAELT@METAR SLAS 042200Z 00000KT 9999 FEW020 OVC200 27/23 Q1011 A2986 HR80RWY NML=METAR SLJV 042200Z 34010KT 9999 SCT020 FEW030CB BKN200 28/20 Q1009A2980 HR69 CB/N/NW RWY NML=METAR SLCP 042200Z 31005KT 9999 SCT020 FEW027CB BKN200 27/23 Q1013A2991 HR81 CB NW RWY NML=METAR SLSI 042200Z 33006KT 9999 SCT017 28/22 Q1010 A2983 HR69 RWY NMLMETAR SLTI 042200Z 00000KT 9999 SCT020 BKN200 34/24 Q1011 A2985 HR58METAR SLJE 042200Z 35005KT 9999 TS FEW020 FEW030CB BKN200 34/22 Q1011A2985 HR48 CB/TS/NE/E/SE SH/E/SE RWY NML=METAR SLRB 042200Z 36006KT 9999 FEW025CB 33/22 Q1011 A2985 HR52 CB/SE/E RWY NML=METAR SLPS 042200Z 00000KT 9999 SCT017 FEW030CB BKN200 33/26 Q1008A2977 HR69 CB/W=METAR SLCA 042200Z 21005KT 9999 SCT033 OVC070 26/15 Q1015 A2997 HR51
ZPX0712 042200@CAELT@GG SLZZYMYT@CAELT@042159 SLTRYGYS@CAELT@SABO SLTR 042200@CAELT@METAR SLTR 042200Z 36003KT 8000 VCSH FEW008 SCT017 FEW020CB BKN070@CAELT@25/24 Q1010 A2983 991.5 HR94 CB/SH N/NE/E TEMPO TSRA=@CAELT@METAR SLGM 042200Z 34004KT 9999 FEW017 BKN200 28/24 Q1008 A2977 HR79=@CAELT@METAR SLRI 042200Z 00000KT 9999 SCT015 FEW020CB BKN200 26/23 Q1009@CAELT@A2980 HR82 CB DIST W AC=METAR SLJO 042200Z NIL=METAR SLRA 042200Z 32004KT 8000 VCSH FEW017 FEW023CB BKN200 25/24Q1009 A2980 HR94 CB/SH SW/W RWY HUM OPR=METAR SLMG 042200Z 32003KT 8000 VCSH FEW017 FEW023CB SCT080 BKN20026/24 Q1009 A2980 HR91 CB/SH SW RWY HUM OPR=METAR SLBU 042200Z NIL=METAR SLSA 042200Z 00000KT 8000 -RA FEW005 BKN015 FEW020CB OVC07023/23 Q1009 A2980 HR98 RETS CB SE/S/SW=METAR SLSR 042200Z 34008KT 6000 VCSH SCT012 FEW023CB OVC070 25/25Q1007 A2975 HR96 CB/SH N/NE/NW RWY WET OPR C210=METAR SLSM 042200Z 00000KT 9999 SCT017 BKN070 25/24 Q1008 A2979 HR95RWY HUM OPR=
ZPX0714 042200@CAELT@GG SLZZYMYT@CAELT@042200 SLCBYGYS@CAELT@SABO SLCB 042200@CAELT@METAR SLCB 042200Z 19007KT 9999 TS FEW036 FEW040CB BKN200 22/09 Q1019@CAELT@A3012 747.4 HR42 CB/SE/S TS/S AC NOSIG=@CAELT@METAR SLAL 042200Z 05010KT 9999 FEW023 FEW033CB BKN200 17/10 Q1026@CAELT@A3030 701.5 HR64 CB S/SW/W/NW=@CAELT@METAR SLTJ 042200Z 13008KT 9999 BKN030 OVC070 18/12 Q1020 A3012 815.0HR68 SH NE/E/SE/SW=
ZPX0716 042201@CAELT@GG SLZZYMYT@CAELT@042200 SLLPYGYZ@CAELT@SABO SLLP 042200@CAELT@METAR SLLP 042200Z 10017KT 8000 VCTSSH FEW017 FEW020CB SCT070 BKN200@CAELT@12/03 Q1033 A3056 625.3 HR56 P0784 CB/SH N/SW/W/NW TS/W NOSIG=@CAELT@
ZPX0718 042201@CAELT@GG SLZZYMYT@CAELT@042201 SLLPYFYA@CAELT@SABO SLLP 042200@CAELT@METAR SLLP 042200Z 10017KT 8000 VCTSSH FEW017 FEW020CB SCT070 BKN200@CAELT@12/03 Q1033 A3056 625.3 HR56 P0784 CB/SH N/SW/W/NW TS/W NOSIG=@CAELT@METAR SLCO 042200Z 21004KT 8000 -RA SCT004 FEW023CB BKN080 24/24@CAELT@Q1009 A2982 982.4 HR98 CB/E/NW=@CAELT@METAR SLRY 042200Z 32003KT 9999 FEW020 BKN200 29/24 Q1006A2973 HR70 RWY NML=METAR SLRQ 042200Z 36004KT 9999 FEW020 BKN200 29/24 Q1008 A2977HR75=METAR SLSB 042200Z 02005KT 8000 TS VCSH SCT015 FEW025CB BKN070 25/24Q1008 A2977 HR81 TS CB SH NE E SE RWY WET OPR C210=METAR SLOR 042200Z 01013KT 9999 SCT023 FEW025CB BKN200 16/02 Q1031A3047 653.7 HR37 CB/SH S/SW/W=
