
ZPX0018 300054@CAELT@GG SLZZYMYT@CAELT@300055 SLVRYGYZ@CAELT@SABO SLVR 300100@CAELT@METAR SLVR 300100Z 16019G30KT 9999 FEW025 SCT070 BKN200 24/15 Q1015@CAELT@A2998 HR55 NOSIG=@CAELT@
ZPX0020 300056@CAELT@GG SLLPZRZX@CAELT@300055 SLLPYGYZ@CAELT@SABO SLLP 300100@CAELT@METAR SLLP 300100Z 06008KT 9999 FEW017CB SCT200 09/M02 Q1034 A3055@CAELT@625.7 HR47 CB/LT N/NE AC NOSIG=@CAELT@
ZPX0021 300059@CAELT@GG SLZZYMYT@CAELT@300059 SLCBYGYZ@CAELT@SABO SLCB 300100@CAELT@METAR SLCB 300100Z 11007KT 9999 FEW030 BKN070 20/07 Q1020 A3015 748.2@CAELT@HR42 FU CI NOSIG=@CAELT@
ZPX0031 300154@CAELT@GG SLZZYMYT@CAELT@300154 SLCBYGYZ@CAELT@SABO SLCB 300200@CAELT@METAR SLCB 300200Z 16009KT 9999 FEW030 BKN070 19/09 Q1022 A3020 749.5@CAELT@HR50 FU CI NOSIG=@CAELT@
ZPX0032 300155@CAELT@GG SLZZYMYT@CAELT@300156 SLVRYGYZ@CAELT@SABO SLVR 300200@CAELT@METAR SLVR 300200Z 17017G27KT 9999 BKN070 BKN200 22/14 Q1015 A2999@CAELT@HR59 NOSIG=@CAELT@
ZPX0033 300156@CAELT@GG SLLPZRZX@CAELT@300155 SLLPYGYZ@CAELT@SABO SLLP 300200@CAELT@METAR SLLP 300200Z 09009KT 9999 FEW015 FEW017CB BKN200 08/01 Q1035@CAELT@A3058 626.4 HR61 CB/LT N/NE/E AC NOSIG=@CAELT@
ZPX0040 300256@CAELT@GG SLZZYMYT@CAELT@300256 SLVRYGYZ@CAELT@SABO SLVR 300300@CAELT@METAR SLVR 300300Z 18016G26KT 9999 SCT023 BKN070 BKN200 22/14 Q1015@CAELT@A2999 HR60 NOSIG=@CAELT@
ZPX0041 300256@CAELT@GG SLZZYMYT@CAELT@300256 SLCBYGYZ@CAELT@SABO SLCB 300300@CAELT@METAR SLCB 300300Z 24005KT 9999 FEW030 SCT070 BKN200 18/09 Q1023@CAELT@A3021 749.9 HR53 FU NOSIG=@CAELT@
ZPX0042 300257@CAELT@GG SLLPZRZX@CAELT@300256 SLLPYGYZ@CAELT@SABO SLLP 300300@CAELT@METAR SLLP 300300Z 04008KT 9999 FEW015 FEW017CB BKN200 09/M01 Q1036@CAELT@A3060 626.7 HR50 CB/LT N/NE AC NOSIG=@CAELT@
ZPX0049 300354@CAELT@GG SLZZYMYT@CAELT@300355 SLVRYGYZ@CAELT@SABO SLVR 300400@CAELT@METAR SLVR 300400Z 17018G28KT 9999 SCT023 BKN070 BKN200 22/13 Q1015@CAELT@A2998 HR58 NOSIG=@CAELT@
ZPX0050 300355@CAELT@GG SLZZYMYT@CAELT@300355 SLCBYGYZ@CAELT@SABO SLCB 300400@CAELT@METAR SLCB 300400Z 29004KT 9999 FEW030 SCT080 BKN200 16/10 Q1023@CAELT@A3021 749.8 HR64 FU NOSIG=@CAELT@
ZPX0051 300356@CAELT@GG SLLPZRZX@CAELT@300355 SLLPYGYZ@CAELT@SABO SLLP 300400@CAELT@METAR SLLP 300400Z VRB02KT 9999 FEW015 FEW017CB BKN200 06/01 Q1035@CAELT@A3059 626.5 HR74 CB/LT N/NE/E AC NOSIG=@CAELT@
ZPX0059 300454@CAELT@GG SLZZYMYT@CAELT@300453 SLCBYGYZ@CAELT@SABO SLCB 300500@CAELT@METAR SLCB 300500Z 33006KT 9999 FEW030 BKN070 16/10 Q1023 A3021 749.9@CAELT@HR64 FU CI NOSIG=@CAELT@
ZPX0060 300456@CAELT@GG SLLPZRZX@CAELT@300455 SLLPYGYZ@CAELT@SABO SLLP 300500@CAELT@METAR SLLP 300500Z VRB02KT 9999 FEW008 BKN200 06/03 Q1035 A3059@CAELT@626.5 HR82 AC NOSIG=@CAELT@
ZPX0061 300456@CAELT@GG SLZZYMYT@CAELT@300457 SLVRYGYZ@CAELT@SABO SLVR 300500@CAELT@METAR SLVR 300500Z 17019G31KT 9999 SCT023 BKN070 BKN200 22/13 Q1014@CAELT@A2997 HR58 NOSIG=@CAELT@
ZPX0063 300502@CAELT@GG SLZZYMYT@CAELT@300500 SLCBYGYS@CAELT@METAR 300500@CAELT@METAR SLCB 300500Z 33006KT 9999 FEW030 BKN070 16/10 Q1023 A3021 749.9@CAELT@HR64 FU CI NOSIG=@CAELT@METAR SLLP 300500Z VRB02KT 9999 FEW008 BKN200 06/03 Q1035 A3059@CAELT@626.5 HR82 AC NOSIG=@CAELT@METAR SLVR 300500Z 17019G31KT 9999 SCT023 BKN070 BKN200 22/13 Q1014A2997 HR58 NOSIG=
ZPX0069 300554@CAELT@GG SLZZYMYT@CAELT@300554 SLCBYGYZ@CAELT@SABO SLCB 300600@CAELT@METAR SLCB 300600Z 02006KT 9999 SCT030 BKN070 16/10 Q1023 A3021 749.8@CAELT@HR65 FU CI NOSIG=@CAELT@
ZPX0070 300555@CAELT@GG SLZZYMYT@CAELT@300555 SLVRYGYZ@CAELT@SABO SLVR 300600@CAELT@METAR SLVR 300600Z 19022G32KT 9999 SCT023 BKN070 BKN200 22/13 Q1014@CAELT@A2995 HR57 NOSIG=@CAELT@
ZPX0071 300557@CAELT@GG SLLPZRZX@CAELT@300556 SLLPYGYZ@CAELT@SABO SLLP 300600@CAELT@METAR SLLP 300600Z 26004KT 4000E VCFG FEW003 BKN200 05/04 Q1035@CAELT@A3057 626.1 HR89 VCFG NE/E/SE AC NOSIG=@CAELT@
ZPX0080 300653@CAELT@GG SLZZYMYT@CAELT@300653 SLVRYGYZ@CAELT@SABO SLVR 300700@CAELT@METAR SLVR 300700Z 18018G30KT 9999 BKN023 BKN070 21/11 Q1014 A2996@CAELT@HR53 NOSIG=@CAELT@
ZPX0081 300654@CAELT@GG SLZZYMYT@CAELT@300654 SLCBYGYZ@CAELT@SABO SLCB 300700@CAELT@METAR SLCB 300700Z 14010KT 9999 SCT027 BKN070 15/09 Q1022 A3020 749.5@CAELT@HR64 FU CI NOSIG=@CAELT@
ZPX0082 300655@CAELT@GG SLLPZRZX@CAELT@300655 SLLPYGYZ@CAELT@SABO SLLP 300700@CAELT@METAR SLLP 300700Z VRB02KT 4000E VCFG FEW003 SCT070 BKN200 06/03@CAELT@Q1034 A3055 625.7 HR85 VCFG NE/E/SE NOSIG=@CAELT@
ZPX0089 300753@CAELT@GG SLZZYMYT@CAELT@300753 SLCBYGYZ@CAELT@SABO SLCB 300800@CAELT@METAR SLCB 300800Z 16012KT 9999 SCT027 BKN070 15/09 Q1023 A3021 749.9@CAELT@HR65 FU CI NOSIG=@CAELT@
ZPX0090 300754@CAELT@GG SLZZYMYT@CAELT@300755 SLVRYGYZ@CAELT@SABO SLVR 300800@CAELT@METAR SLVR 300800Z 18017G29KT 9999 BKN023 BKN070 21/10 Q1014 A2997@CAELT@HR48 NOSIG=@CAELT@
ZPX0091 300756@CAELT@GG SLLPZRZX@CAELT@300755 SLLPYGYZ@CAELT@SABO SLLP 300800@CAELT@METAR SLLP 300800Z 00000KT 4000E VCFG FEW003 SCT070 BKN200 06/03@CAELT@Q1034 A3054 625.4 HR82 VCFG NE/E/SE NOSIG=@CAELT@
ZPX0092 300756@CAELT@GG SLZZYMYT@CAELT@300755 SLCBYGYZ@CAELT@SABO SLCB 300800 CCA@CAELT@METAR COR SLCB 300800Z 16012KT 7000 -TSRA SCT027 FEW030CB BKN070 15/@CAELT@09 Q1023 A3021 749.9 HR65 CB S/SW/W TS/SW CI NOSIG=@CAELT@
ZPX0101 300851@CAELT@GG SLZZYMYT@CAELT@300852 SLVRYGYZ@CAELT@SABO SLVR 300900@CAELT@METAR SLVR 300900Z 18017G29KT 9999 FEW023 BKN070 22/11 Q1015 A2998@CAELT@HR49 NOSIG=@CAELT@
ZPX0102 300853@CAELT@GG SLZZYMYT@CAELT@300853 SLPSYGYS@CAELT@SABO SLPS 300900@CAELT@METAR SLPS 300900Z 18008KT 9999 FEW012 BKN070 20/20 Q1013 A2992 HR100@CAELT@
ZPX0103 300855@CAELT@GG SLZZYMYT@CAELT@300855 SLCBYGYZ@CAELT@SABO SLCB 300900@CAELT@METAR SLCB 300900Z 12004KT 9999 SCT023 FEW030CB OVC070 13/11 Q1024@CAELT@A3024 750.6 HR86 CB/SW NOSIG=@CAELT@
