
ZPX0001 180000@CAELT@GG SLZZYMYT@CAELT@180000 SLCBYGYZ@CAELT@SABO SLCB 180000@CAELT@METAR SLCB 180000Z 24005KT 9999 FEW036 BKN200 21/06 Q1017 A3005 745.5@CAELT@HR38 FU NOSIG=@CAELT@
ZPX0002 180001@CAELT@GG SLZZYMYT@CAELT@180001 SLCBYGYZ@CAELT@SABO SLCB 180000@CAELT@METAR SLCB 180000Z 24005KT 9999 FEW036 BKN200 21/06 Q1017 A3005 745.5@CAELT@HR38 FU NOSIG=@CAELT@
ZPX0003 180001@CAELT@GG SLZZYMYT@CAELT@180000 SLCBYGYS@CAELT@SABO SLCB 180000@CAELT@METAR SLCB 180000Z 24005KT 9999 FEW036 BKN200 21/06 Q1017 A3005 745.5@CAELT@HR38 FU NOSIG=@CAELT@METAR SLAL 180000Z 04010KT 9999 FEW015 16/08 Q1022 A3018 698.9 HR58@CAELT@
ZPX0004 180002@CAELT@GG SLZZYMYT@CAELT@180002 SLVRYGYU@CAELT@SABO SLVR 180000@CAELT@METAR SLVR 180000Z 34004KT 9999 SCT017 BKN200 23/21 Q1005 A2969 HR87@CAELT@AC NOSIG=@CAELT@
ZPX0028 180054@CAELT@GG SLZZYMYT@CAELT@180054 SLCBYGYZ@CAELT@SABO SLCB 180100@CAELT@METAR SLCB 180100Z 11005KT 9999 FEW036 BKN200 21/07 Q1018 A3008 746.4@CAELT@HR38 FU NOSIG=@CAELT@
ZPX0029 180056@CAELT@GG SLLPZRZX@CAELT@180056 SLLPYGYZ@CAELT@SABO SLLP 180100@CAELT@METAR SLLP 180100Z 20007KT 9999 FEW015 SCT200 12/M09 Q1035 A3059@CAELT@626.6 HR22 FU NOSIG=@CAELT@
ZPX0030 180056@CAELT@GG SLZZYMYT@CAELT@180056 SLVRYMYX@CAELT@SABO SLVR 180100@CAELT@METAR SLVR 180100Z 34005KT 9999 SCT017 BKN200 23/22 Q1005 A2970 HR91@CAELT@AC NOSIG=@CAELT@
ZPX0042 180155@CAELT@GG SLLPZRZX@CAELT@180155 SLLPYGYZ@CAELT@SABO SLLP 180200@CAELT@METAR SLLP 180200Z 20005KT 9999 FEW015 SCT200 10/M13 Q1037 A3062@CAELT@627.3 HR19 FU NOSIG=@CAELT@
ZPX0043 180155@CAELT@GG SLZZYMYT@CAELT@180155 SLCBYGYZ@CAELT@SABO SLCB 180200@CAELT@METAR SLCB 180200Z 12004KT 9999 FEW036 SCT200 20/07 Q1019 A3011 747.3@CAELT@HR41 FU NOSIG=@CAELT@
ZPX0052 180235@CAELT@GG SLZZYMYT@CAELT@180234 SLVRYGYU@CAELT@SABO SLVR 180200@CAELT@METAR SLVR 180200Z 28003KT 9999 SCT017 BKN200 22/21 Q1006 A2972 HR92@CAELT@AC NOSIG=@CAELT@
ZPX0055 180255@CAELT@GG SLZZYMYT@CAELT@180254 SLCBYGYZ@CAELT@SABO SLCB 180300@CAELT@METAR SLCB 180300Z 13004KT 9999 NSC 18/07 Q1020 A3013 747.8 HR49 FU@CAELT@CI NOSIG=@CAELT@
ZPX0056 180255@CAELT@GG SLZZYMYT@CAELT@180254 SLVRYMYX@CAELT@SABO SLVR 180300@CAELT@METAR SLVR 180300Z VRB02KT 9999 FEW070 BKN200 21/21 Q1007 A2974 HR97@CAELT@NOSIG=@CAELT@
ZPX0057 180255@CAELT@GG SLLPZRZX@CAELT@180255 SLLPYGYZ@CAELT@SABO SLLP 180300@CAELT@METAR SLLP 180300Z 26005KT 9999 FEW012 SCT200 07/M13 Q1037 A3063@CAELT@627.4 HR23 FU NOSIG=@CAELT@
ZPX0064 180354@CAELT@GG SLZZYMYT@CAELT@180354 SLCBYGYZ@CAELT@SABO SLCB 180400@CAELT@METAR SLCB 180400Z 15004KT 9999 NSC 18/07 Q1020 A3014 748.0 HR47 FU@CAELT@CI NOSIG=@CAELT@
ZPX0065 180357@CAELT@GG SLZZYMYT@CAELT@180357 SLVRYMYX@CAELT@SABO SLVR 180400@CAELT@METAR SLVR 180400Z VRB02KT 9999 SCT015 BKN200 21/21 Q1007 A2975 HR98@CAELT@NOSIG=@CAELT@
ZPX0066 180357@CAELT@GG SLLPZRZX@CAELT@180358 SLLPYGYZ@CAELT@SABO SLLP 180400@CAELT@METAR SLLP 180400Z VRB02KT 9999 FEW010 SCT200 06/M12 Q1036 A3061@CAELT@627.1 HR26 FU NOSIG=@CAELT@
ZPX0075 180455@CAELT@GG SLZZYMYT@CAELT@180454 SLVRYMYX@CAELT@SABO SLVR 180500@CAELT@METAR SLVR 180500Z VRB02KT 9999 BKN015 BKN200 22/21 Q1007 A2976 HR96@CAELT@AC NOSIG=@CAELT@
ZPX0076 180455@CAELT@GG SLLPZRZX@CAELT@180455 SLLPYGYZ@CAELT@SABO SLLP 180500@CAELT@METAR SLLP 180500Z 36005KT 9999 FEW010 SCT200 06/M13 Q1035 A3059@CAELT@626.5 HR25 FU NOSIG=@CAELT@
ZPX0084 180555@CAELT@GG SLZZYMYT@CAELT@180554 SLCBYGYZ@CAELT@SABO SLCB 180600@CAELT@METAR SLCB 180600Z 00000KT 9999 NSC 14/07 Q1020 A3014 748.0 HR64 FU@CAELT@CI NOSIG=@CAELT@
ZPX0085 180557@CAELT@GG SLLPZRZX@CAELT@180557 SLLPYGYZ@CAELT@SABO SLLP 180600@CAELT@METAR SLLP 180600Z VRB02KT 9999 FEW010 SCT200 02/M13 Q1034 A3056@CAELT@625.9 HR32 FU NOSIG=@CAELT@
ZPX0088 180610@CAELT@GG SLZZYMYT@CAELT@180610 SLVRYGYU@CAELT@SABO SLVR 180600@CAELT@METAR SLVR 180600Z VRB02KT 9999 FEW015 SCT070 BKN200 22/22 Q1007@CAELT@A2975 HR98 NOSIG=@CAELT@
ZPX0095 180656@CAELT@GG SLLPZRZX@CAELT@180655 SLLPYGYZ@CAELT@SABO SLLP 180700@CAELT@METAR SLLP 180700Z 01004KT 9999 NSC 04/M17 Q1034 A3055 625.7 HR20@CAELT@FU CI NOSIG=@CAELT@
ZPX0096 180659@CAELT@GG SLZZYMYT@CAELT@180659 SLVRYGYZ@CAELT@SABO SLVR 180700@CAELT@METAR SLVR 180700Z 23003KT 9999 FEW015 SCT070 BKN200 23/22 Q1007@CAELT@A2975 HR93 NOSIG=@CAELT@
ZPX0097 180659@CAELT@GG SLZZYMYT@CAELT@180659 SLVRYGYU@CAELT@SABO SLVR 180700@CAELT@METAR SLVR 180700Z 23003KT 9999 FEW015 SCT070 BKN200 23/22 Q1007@CAELT@A2975 HR93 NOSIG=@CAELT@
ZPX0100 180714@CAELT@GG SLZZYMYT@CAELT@180713 SLCBYGYZ@CAELT@SABO SLCB 180700 RRA@CAELT@METAR RTD SLCB 180700Z 00000KT 9999 NSC 12/06 Q1020 A3013 747.8 HR68@CAELT@FU CI NOSIG=@CAELT@
ZPX0105 180754@CAELT@GG SLZZYMYT@CAELT@180754 SLCBYGYZ@CAELT@SABO SLCB 180800@CAELT@METAR SLCB 180800Z 00000KT 9999 NSC 12/06 Q1020 A3014 747.9 HR67 FU@CAELT@CI NOSIG=@CAELT@
ZPX0106 180754@CAELT@GG SLZZYMYT@CAELT@180755 SLVRYGYZ@CAELT@SABO SLVR 180800@CAELT@METAR SLVR 180800Z 19003KT 9999 BKN017 FEW030CB BKN200 23/22 Q1007@CAELT@A2975 HR93 CB/LT NW NOSIG=@CAELT@
ZPX0107 180756@CAELT@GG SLLPZRZX@CAELT@180755 SLLPYGYZ@CAELT@SABO SLLP 180800@CAELT@METAR SLLP 180800Z 36004KT 9999 NSC M01/M20 Q1034 A3055 625.6 HR22@CAELT@FU CI NOSIG=@CAELT@
ZPX0108 180759@CAELT@GG SLZZYMYT@CAELT@180758 SLVRYGYU@CAELT@SABO SLVR 180800@CAELT@METAR SLVR 180800Z 19003KT 9999 BKN017 FEW030CB BKN200 23/22 Q1007@CAELT@A2975 HR93 CB/LT NW NOSIG=@CAELT@
ZPX0116 180854@CAELT@GG SLZZYMYT@CAELT@180854 SLCBYGYZ@CAELT@SABO SLCB 180900@CAELT@METAR SLCB 180900Z 00000KT 9999 NSC 11/05 Q1020 A3015 748.2 HR67 FU@CAELT@CI NOSIG=@CAELT@
ZPX0117 180855@CAELT@GG SLZZYMYT@CAELT@180855 SLTRYGYZ@CAELT@SABO SLTR 180900@CAELT@METAR SLTR 180900Z 35004KT 9999 NSC 26/23 Q1006 A2972 988.0 HR85@CAELT@CI NOSIG=@CAELT@
ZPX0118 180855@CAELT@GG SLZZYMYT@CAELT@180854 SLPSYGYS@CAELT@SABO SLPS 180900@CAELT@METAR SLPS 180900Z 00000KT 9999 SCT070 BKN200 22/21 Q1008 A2977 HR98=@CAELT@
ZPX0119 180856@CAELT@GG SLLPZRZX@CAELT@180855 SLLPYGYZ@CAELT@SABO SLLP 180900@CAELT@METAR SLLP 180900Z VRB02KT 9999 NSC 01/M20 Q1034 A3055 625.8 HR20@CAELT@FU CI NOSIG=@CAELT@
ZPX0120 180857@CAELT@GG SLZZYMYT@CAELT@180857 SLVRYGYZ@CAELT@SABO SLVR 180900@CAELT@METAR SLVR 180900Z VRB02KT 8000 -TSRA BKN017 FEW030CB BKN200 23/22@CAELT@Q1007 A2976 HR94 CB/LT N/NE/E TS E NOSIG=@CAELT@
ZPX0134 180950@CAELT@GG SLZZYMYT@CAELT@180950 SLCAYGYS@CAELT@SABO SLCA 181000@CAELT@METAR SLCA 181000Z 18006KT 9999 BKN020 OVC070 18/15 Q1016 A3000 HR83@CAELT@SH SW/W/NW RERA RWY WET INOP=@CAELT@
ZPX0135 180952@CAELT@GG SLZZYMYT@CAELT@180951 SLPSYGYS@CAELT@SABO SLPS 181000@CAELT@METAR SLPS 181000Z 00000KT 9999 FEW017 SCT070 BKN200 24/23 Q1008@CAELT@A2977 HR97=@CAELT@
ZPX0136 180954@CAELT@GG SLZZYMYT@CAELT@180954 SLSBYSYX@CAELT@SABO SLSB 181000@CAELT@METAR SLSB 181000Z 00000KT 3000 BR NSC 23/23 Q1006 A2973 HR98 CI@CAELT@RWY NML=@CAELT@
ZPX0137 180954@CAELT@GG SLZZYMYT@CAELT@180953 SLRBYGYS@CAELT@SABO SLRB 181000@CAELT@METAR SLRB 181000Z 00000KT 9999 NSC 23/21 Q1010 A2983 HR88 CI RWY NML=@CAELT@
ZPX0140 180954@CAELT@GG SLZZYMYT@CAELT@180950 SLETYMYC@CAELT@SABO SLET 181000@CAELT@METAR SLET 181000Z 00000KT 0900 +TSRA SCT006 BKN020 FEW030CB OVC070@CAELT@22/22 Q1008 A2978 HR98 CB/TS/LT N/NE/W NOSIG=@CAELT@
ZPX0141 180954@CAELT@GG SLZZYMYT@CAELT@180953 SLSAYGYS@CAELT@SABO SLSA 181000@CAELT@METAR SLSA 181000Z 36003KT 9999 NSC 24/23 Q1007 A2974 HR96 CI=@CAELT@
ZPX0142 180955@CAELT@GG SLZZYMYT@CAELT@180955 SLTRYGYZ@CAELT@SABO SLTR 181000@CAELT@METAR SLTR 181000Z 34005KT 9999 NSC 26/23 Q1007 A2974 988.7 HR87@CAELT@CI NOSIG=@CAELT@
ZPX0143 180955@CAELT@GG SLZZYMYT@CAELT@180957 SLUYYGYS@CAELT@SABO SLUY 181000@CAELT@METAR SLUY 181000Z 04003KT 9999 NSC M04/M18 Q1031 A3045 656.3@CAELT@HR35=@CAELT@
ZPX0144 180956@CAELT@GG SLZZYMYT@CAELT@180957 SLVRYGYZ@CAELT@SABO SLVR 181000@CAELT@METAR SLVR 181000Z 15004KT 8000 -TSRA FEW007 BKN017 FEW030CB BKN070@CAELT@23/22 Q1008 A2978 HR93 CB/ NW/NE/E TS NW NOSIG=@CAELT@
ZPX0145 180956@CAELT@GG SLZZYMYT@CAELT@180955 SLLPYGYZ@CAELT@SABO SLLP 181000@CAELT@METAR SLLP 181000Z 36006KT 9999 NSC 03/M22 Q1035 A3057 626.1 HR15@CAELT@FU CI NOSIG=@CAELT@
ZPX0146 180956@CAELT@GG SLZZYMYT@CAELT@180956 SLRQYSYX@CAELT@SABO SLRQ 181000@CAELT@METAR SLRQ 181000Z 00000KT 9999 FEW020 24/24 Q1005 A2970 981.9 HR98@CAELT@
ZPX0147 180957@CAELT@GG SLZZYMYT@CAELT@180957 SLCOYGYZ@CAELT@SABO SLCO 181000@CAELT@METAR SLCO 181000Z 36003KT 9999 FEW025 SCT200 25/23 Q1008 A2978 981.0@CAELT@HR89=@CAELT@
ZPX0148 180957@CAELT@GG SLZZYMYT@CAELT@180957 SLVRYFYC@CAELT@SABO SLVR 181000@CAELT@METAR SLVR 181000Z 15004KT 8000 -TSRA FEW007 BKN017 FEW030CB BKN070@CAELT@23/22 Q1008 A2978 HR93 CB/ NW/NE/E TS NW NOSIG=@CAELT@METAR SLET 181000Z 00000KT 0900 +TSRA SCT006 BKN020 FEW030CB OVC070@CAELT@22/22 Q1008 A2978 HR98 CB/TS/LT N/NE/W NOSIG=@CAELT@METAR SLCP 181000Z 00000KT 3000 VCFG OVC007 24/23 Q1011 A2985 HR98RWY HUM OPR=METAR SLSI 181000Z 00000KT 9999 TS BKN010 FEW027CB OVC070 23/23 Q1008A2977 HR98 CB TS/N/NW/NE RERA RWY WET OPR=METAR SLRB 181000Z 00000KT 9999 NSC 23/21 Q1010 A2983 HR88 CI RWY NMLMETAR SLPS 181000Z 00000KT 9999 FEW017 SCT070 BKN200 24/23 Q1008A2977 HR97=METAR SLCA 181000Z 18006KT 9999 BKN020 OVC070 18/15 Q1016 A3000 HR83SH SW/W/NW RERA RWY WET INOP=
ZPX0150 180958@CAELT@GG SLZZYMYT@CAELT@180958 SLCBYGYZ@CAELT@SABO SLCB 181000@CAELT@METAR SLCB 181000Z 00000KT 9000 NSC 09/04 Q1021 A3017 748.8 HR72 FU@CAELT@CI NOSIG=@CAELT@
ZPX0151 180959@CAELT@GG SLZZYMYT@CAELT@180959 SLTRYGYS@CAELT@SABO SLTR 181000@CAELT@METAR SLTR 181000Z 34005KT 9999 NSC 26/23 Q1007 A2974 988.7 HR87@CAELT@CI NOSIG=@CAELT@METAR SLGM 181000Z 02006KT 9999 SCT004 BKN080 BKN200 24/23 Q1008@CAELT@A2979 HR98=@CAELT@METAR SLRI 181000Z 36008KT 9999 BKN006 FEW020CB BKN080 24/24Q1009 A2982 HR96 CB NE/NW=METAR SLJO 181000Z NIL=METAR SLRA 181000Z 35006KT 9999 NSC 25/24 Q1006 A2972 HR92 CIRWY NML=METAR SLMG 181000Z 34004KT 9999 NSC 25/24 Q1007 A2976 HR94 CIMETAR SLBU 181000Z NIL=METAR SLSA 181000Z 36003KT 9999 NSC 24/23 Q1007 A2974 HR96 CI=METAR SLSR 181000Z 32004KT 8000 FEW020 BKN200 25/23 Q1005 A2969 HR92FU RWY NML=METAR SLSM 181000Z 00000KT 9999 NSC 23/23 Q1006 A2973 HR98 CI
ZPX0152 180959@CAELT@GG SLZZYMYT@CAELT@180959 SLCBYGYS@CAELT@SABO SLCB 181000@CAELT@METAR SLCB 181000Z 00000KT 9000 NSC 09/04 Q1021 A3017 748.8 HR72 FU@CAELT@CI NOSIG=@CAELT@METAR SLAL 181000Z 33004KT 6000 VCFG SCT006 10/07 Q1026 A3030 701.6@CAELT@HR85 VCFG S/SW/NW/N=@CAELT@
ZPX0157 181003@CAELT@GG SLZZYMYT@CAELT@181000 SLLPYFYA@CAELT@SABO SLRY 181000@CAELT@METAR SLRY 181000Z 00000KT 9999 NSC 22/22 Q1004 A2967 HR98@CAELT@CI RWY NML=@CAELT@
ZPX0158 181006@CAELT@GG SLZZYMYT@CAELT@181005 SLLPYFYA@CAELT@SABO SLLP 181000@CAELT@METAR SLLP 181000Z 36006KT 9999 NSC 03/M22 Q1035 A3057 626.1 HR15@CAELT@FU CI NOSIG=@CAELT@METAR SLCO 181000Z 36003KT 9999 FEW025 SCT200 25/23 Q1008 A2978@CAELT@981.0 HR89=@CAELT@METAR SLRY 181000Z 00000KT 9999 NSC 22/22 Q1004 A2967 HR98CI RWY NML=METAR SLRQ 181000Z 00000KT 9999 FEW020 24/24 Q1005 A2970 981.9HR98 CI=METAR SLAP 181000Z 36008KT 9999 SCT030 19/17 Q1019 A3010 859.7HR86 AC=METAR SLSB 181000Z 00000KT 3000 BR NSC 23/23 Q1006 A2973 HR98METAR SLUY 181000Z 04003KT 9999 NSC M04/M18 Q1031 A3045 656.3HR35=
ZPX0182 181052@CAELT@GG SLZZYMYT@CAELT@181052 SLPSYGYS@CAELT@SABO SLPS 181100@CAELT@METAR SLPS 181100Z 00000KT 9999 FEW017 SCT070 BKN200 25/24 Q1008@CAELT@A2977 HR93=@CAELT@
ZPX0183 181053@CAELT@GG SLZZYMYT@CAELT@181052 SLCAYGYS@CAELT@SABO SLCA 181100@CAELT@METAR SLCA 181100Z 18004KT 8000 -RA BKN020 OVC070 16/14 Q1017 A3003@CAELT@HR88 RWY WET INOP=@CAELT@
ZPX0184 181054@CAELT@GG SLZZYMYT@CAELT@181055 SLUYYGYS@CAELT@SABO SLUY 181100@CAELT@METAR SLUY 181100Z 00000KT 9999 NSC 02/M14 Q1031 A3046 656.6@CAELT@HR30 HZ SE/S CI=@CAELT@
ZPX0185 181054@CAELT@GG SLZZYMYT@CAELT@181055 SLRQYSYX@CAELT@SABO SLRQ 181100@CAELT@METAR SLRQ 181100Z 00000KT 9999 FEW020 25/25 Q1006 A2973 982.8 HR97@CAELT@
ZPX0188 181055@CAELT@GG SLZZYMYT@CAELT@181055 SLSBYSYX@CAELT@SABO SLSB 181100@CAELT@METAR SLSB 181100Z 00000KT 6000 SCT080 SCT200 25/24 Q1007 A2976 HR96@CAELT@BR RWY NML=@CAELT@
ZPX0189 181055@CAELT@GG SLZZYMYT@CAELT@181055 SLORYGYZ@CAELT@SABO SLOR 181100@CAELT@METAR SLOR 181100Z 35003KT 8000 NSC 01/M08 Q1033 A3051 654.7 HR50 VIS@CAELT@RED FU E/SE/S CI=@CAELT@
ZPX0190 181056@CAELT@GG SLZZYMYT@CAELT@181057 SLLPYFYA@CAELT@SABO SLRY 181100@CAELT@METAR SLRY 181100Z 00000KT 9999 NSC 24/23 Q1005 A2968 HR96@CAELT@CI RWY NML=@CAELT@
ZPX0191 181056@CAELT@GG SLZZYMYT@CAELT@181055 SLSAYGYS@CAELT@SABO SLSA 181000@CAELT@METAR SLSA 181100Z 33003KT 9999 NSC 25/24 Q1007 A2974 HR92 CI=@CAELT@
ZPX0192 181056@CAELT@GG SLZZYMYT@CAELT@181055 SLLPYGYZ@CAELT@SABO SLLP 181100@CAELT@METAR SLLP 181100Z 01005KT 9999 NSC 06/M21 Q1036 A3059 626.6 HR12@CAELT@CI NOSIG=@CAELT@
ZPX0193 181056@CAELT@GG SLZZYMYT@CAELT@181056 SLCBYGYZ@CAELT@SABO SLCB 181100@CAELT@METAR SLCB 181100Z 00000KT 9000 NSC 15/05 Q1022 A3019 749.4 HR51 FU@CAELT@CI NOSIG=@CAELT@
ZPX0194 181057@CAELT@GG SLZZYMYT@CAELT@181057 SLVRYGYZ@CAELT@SABO SLVR 181100@CAELT@METAR SLVR 181100Z 21012KT 3000 -TSRA SCT007 BKN017 FEW030CB BKN070@CAELT@22/21 Q1009 A2980 HR94 CB/TS W/NW/NE/E NOSIG=@CAELT@
ZPX0195 181057@CAELT@GG SLZZYMYT@CAELT@181057 SLTJYGYZ@CAELT@SABO SLTJ 181100@CAELT@METAR SLTJ 181100Z 18004KT 9999 SCT008 BKN020 OVC070 12/08 Q1020@CAELT@A3014 815.4 HR80 SH SC BAJOS N/NE/SW/W/NW=@CAELT@
ZPX0196 181058@CAELT@GG SLZZYMYT@CAELT@181056 SLSAYGYS@CAELT@SABO SLSA 181100@CAELT@METAR SLSA 181100Z 33003KT 9999 NSC 25/24 Q1007 A2974 HR92 CI=@CAELT@
ZPX0197 181059@CAELT@GG SLZZYMYT@CAELT@181057 SLLPYFYA@CAELT@SABO SLLP 181100@CAELT@METAR SLLP 181100Z 01005KT 9999 NSC 06/M21 Q1036 A3059 626.6 HR12@CAELT@CI NOSIG=@CAELT@METAR SLRY 181100Z 00000KT 9999 NSC 24/23 Q1005 A2968 HR96@CAELT@CI RWY NML=@CAELT@METAR SLRQ 181100Z 00000KT 9999 FEW020 25/25 Q1006 A2973 982.8 HR97METAR SLAP 181100Z 36010KT 9999 FEW030 20/17 Q1014 A2996 855.5 HR86=METAR SLSB 181100Z 00000KT 6000 SCT080 SCT200 25/24 Q1007 A2976 HR96BR RWY NML=METAR SLOR 181100Z 35003KT 8000 NSC 01/M08 Q1033 A3051 654.7 HR50 VISRED FU E/SE/S CI=METAR SLUY 181100Z 00000KT 9999 NSC 02/M14 Q1031 A3046 656.6HR30 HZ SE/S CI=
ZPX0198 181059@CAELT@GG SLZZYMYT@CAELT@181059 SLCOYGYZ@CAELT@SABO SLCO 181100@CAELT@METAR SLCO 181100Z 36003KT 9999 NSC 25/23 Q1009 A2981 982.0 HR88 CI=@CAELT@
ZPX0200 181100@CAELT@GG SLZZYMYT@CAELT@181055 SLETYMYC@CAELT@SABO SLET 181100@CAELT@METAR SLET 181100Z 17005KT 4000 -TSRA FEW006 BKN020 FEW027CB OVC070@CAELT@22/22 Q1009 A2980 HR95 CB/TS N/NE/W NOSIG=@CAELT@
ZPX0201 181100@CAELT@GG SLZZYMYT@CAELT@181059 SLTRYGYZ@CAELT@SABO SLTR 181100@CAELT@METAR SLTR 181100Z 35005KT 9999 NSC 26/23 Q1008 A2977 989.5 HR85@CAELT@CI NOSIG=@CAELT@
ZPX0202 181101@CAELT@GG SLZZYMYT@CAELT@181100 SLCBYGYS@CAELT@SABO SLCB 181100@CAELT@METAR SLCB 181100Z 00000KT 9000 NSC 15/05 Q1022 A3019 749.4 HR51 FU@CAELT@CI NOSIG=@CAELT@METAR SLAL 181100Z 34007KT 9999 SCT007 11/09 Q1026 A3032 702.0 HR86=@CAELT@METAR SLVM 181100Z 18010KT 9999 BKN020 OVC070 16/15 Q1017 A3005 HR90=@CAELT@METAR SLTJ 181100Z 18004KT 9999 SCT008 BKN020 OVC070 12/08 Q1020A3014 815.4 HR80 SH SC BAJOS N/NE/SW/W/NW=METAR SLYA 181100Z 21010KT 3000 -RA BKN005 OVC070 14/14 Q1018 A3008943.0 HR100=
ZPX0203 181101@CAELT@GG SLZZYMYT@CAELT@181101 SLVRYFYC@CAELT@SABO SLVR 181100@CAELT@METAR SLVR 181100Z 21012KT 3000 -TSRA SCT007 BKN017 FEW030CB BKN070@CAELT@22/21 Q1009 A2980 HR94 CB/TS W/NW/NE/E NOSIG=@CAELT@METAR SLET 181100Z 17005KT 4000 -TSRA FEW006 BKN020 FEW027CB OVC070@CAELT@22/22 Q1009 A2980 HR95 CB/TS N/NE/W NOSIG=@CAELT@METAR SLAS 181100Z 35005KT 9999 FEW013 OVC200 25/24 Q1009 A2980 HR90RWY NML=METAR SLJV 181100Z 00000KT 9999 FEW015 BKN200 23/22 Q1008 A2977 HR90FU RWY NML=METAR SLCP 181100Z 33005KT 4000 VCFG BKN007 OVC070 24/23 Q1011 A2985HR96 RWY HUM OPR=METAR SLSI 181100Z 00000KT 9999 TS BKN010 FEW027 CB OVC070 24/23Q1009 A2980 HR96 CB TS/N/NE RWY WET OPR=METAR SLTI 181100Z 00000KT 9999 NSC 26/21 Q1012 A2988 HR84 CI RWY NMLMETAR SLJE 181100Z 00000KT 9999 SCT015 BKN200 25/22 Q1011 A2985 HR79METAR SLRB 181100Z 00000KT 9999 SCT017 24/21 Q1010 A2983 HR85 RWY NMLMETAR SLPS 181100Z 00000KT 9999 FEW017 SCT070 BKN200 25/24 Q1008A2977 HR93=METAR SLCA 181100Z 18004KT 8000 -RA BKN020 OVC070 16/14 Q1017 A3003HR88 RWY WET INOP=
ZPX0205 181102@CAELT@GG SLZZYMYT@CAELT@181101 SLLPYFYA@CAELT@SABO SLLP 181100 RRA@CAELT@METAR SLLP 181100Z 01005KT 9999 NSC 06/M21 Q1036 A3059 626.6 HR12@CAELT@CI NOSIG=@CAELT@METAR RTD SLCO 181100Z 36003KT 9999 NSC 25/23 Q1009 A2981 982.0@CAELT@HR88 CI=@CAELT@METAR SLRY 181100Z 00000KT 9999 NSC 24/23 Q1005 A2968 HR96CI RWY NML=METAR SLRQ 181100Z 00000KT 9999 FEW020 25/25 Q1006 A2973 982.8 HR97METAR SLAP 181100Z 36010KT 9999 FEW030 20/17 Q1014 A2996 855.5 HR86=METAR SLSB 181100Z 00000KT 6000 SCT080 SCT200 25/24 Q1007 A2976 HR96BR RWY NML=METAR SLOR 181100Z 35003KT 8000 NSC 01/M08 Q1033 A3051 654.7 HR50 VISRED FU E/SE/S CI=METAR SLUY 181100Z 00000KT 9999 NSC 02/M14 Q1031 A3046 656.6HR30 HZ SE/S CI=
ZPX0208 181103@CAELT@GG SLZZYMYT@CAELT@181059 SLTRYGYS@CAELT@SABO SLTR 181100@CAELT@METAR SLTR 181100Z 35005KT 9999 NSC 26/23 Q1008 A2977 989.5 HR85@CAELT@CI NOSIG=@CAELT@METAR SLGM 181100Z 36008KT 9999 SCT004 BKN080 BKN200 24/23 Q1009@CAELT@A2982 HR97=@CAELT@METAR SLRI 181100Z 36008KT 5000 VCSH BKN006 FEW020CB BKN080 24/24Q1010 A2983 HR95 CB/SH NE/NW=METAR SLJO 181100Z NIL=METAR SLRA 181100Z 35008KT 9999 FEW020 BKN200 25/22 Q1007 A2974 HR84RWY NML=METAR SLMG 181100Z 34004KT 9999 NSC 25/23 Q1008 A2978 HR90 CIMETAR SLBU 181100Z NIL=METAR SLSA 181100Z 33003KT 9999 NSC 25/24 Q1007 A2974 HR92 CI=METAR SLSR 181100Z 32004KT 8000 FEW020 BKN200 26/23 Q1005 A2970 HR82FU RWY NML=METAR SLSM 181100Z 36004KT 9999 NSC 25/24 Q1007 A2975 HR95 CI
ZPX0231 181152@CAELT@GG SLZZYMYT@CAELT@181151 SLETYMYC@CAELT@SABO SLET 181200@CAELT@METAR SLET 181200Z 17012KT 3000 -TSRA FEW006 BKN020 FEW027CB OVC070@CAELT@22/22 Q1010 A2983 HR97 CB/TS/LT N/NE/W NOSIG=@CAELT@
ZPX0232 181152@CAELT@GG SLZZYMYT@CAELT@181151 SLPSYGYS@CAELT@SABO SLPS 181200@CAELT@METAR SLPS 181200Z 09004KT 9999 FEW017 SCT070 27/25 Q1008 A2977 HR89=@CAELT@
ZPX0234 181155@CAELT@GG SLZZYMYT@CAELT@181155 SLTRYGYZ@CAELT@SABO SLTR 181200@CAELT@METAR SLTR 181200Z 33008KT 9999 NSC 28/24 Q1008 A2978 990.0 HR78@CAELT@CI NOSIG=@CAELT@
ZPX0236 181155@CAELT@GG SLZZYMYT@CAELT@181155 SLORYGYZ@CAELT@SABO SLOR 181200@CAELT@METAR SLOR 181200Z 35007KT 8000 NSC 06/M04 Q1034 A3053 655.2 HR47 VIS@CAELT@RED FU E/SE/S CI=@CAELT@
ZPX0237 181155@CAELT@GG SLZZYMYT@CAELT@181155 SLCOYGYZ@CAELT@SABO SLCO 181200@CAELT@METAR SLCO 181200Z 35004KT 9999 NSC 27/23 Q1009 A2982 982.5 HR82 CI=@CAELT@
ZPX0238 181155@CAELT@GG SLZZYMYT@CAELT@181155 SLRQYSYX@CAELT@SABO SLRQ 181200@CAELT@METAR SLRQ 181200Z 00000KT 9999 SCT020 27/25 Q1007 A2976 983.6 HR89@CAELT@
ZPX0239 181155@CAELT@GG SLZZYMYT@CAELT@181155 SLLPYGYZ@CAELT@SABO SLLP 181200@CAELT@METAR SLLP 181200Z VRB02KT 9999 NSC 10/M18 Q1036 A3061 627.1 HR13@CAELT@CI NOSIG=@CAELT@
ZPX0240 181155@CAELT@GG SLZZYMYT@CAELT@181153 SLRBYGYS@CAELT@SABO SLRB 181200@CAELT@METAR SLRB 181200Z 00000KT 9999 FEW020 29/23 Q1010 A2983 HR72 RWY NML=@CAELT@
ZPX0241 181156@CAELT@GG SLZZYMYT@CAELT@181155 SLCBYGYZ@CAELT@SABO SLCB 181200@CAELT@METAR SLCB 181200Z 00000KT 9999 NSC 19/02 Q1023 A3021 749.8 HR32 FU@CAELT@CI NOSIG=@CAELT@
ZPX0244 181156@CAELT@GG SLZZYMYT@CAELT@181155 SLSAYGYS@CAELT@SABO SLSA 181200@CAELT@METAR SLSA 181200Z 34006KT 9999 NSC 27/24 Q1008 A2977 HR85 CI=@CAELT@
ZPX0245 181156@CAELT@GG SLZZYMYT@CAELT@181156 SLCAYGYS@CAELT@SABO SLCA 181200@CAELT@METAR SLCA 181200Z 18006KT 9999 BKN025 OVC070 16/14 Q1018 A3006 HR88@CAELT@SH SW/W/E RERA RWY WET INOP=@CAELT@
ZPX0246 181157@CAELT@GG SLZZYMYT@CAELT@181156 SLUYYGYS@CAELT@SABO SLUY 181200@CAELT@METAR SLUY 181200Z 32007KT 9999 NSC 06/M12 Q1032 A3048 657.0@CAELT@HR27 CI=@CAELT@
ZPX0247 181157@CAELT@GG SLZZYMYT@CAELT@181155 SLAGYSYX@CAELT@SABO SLAG 181200@CAELT@METAR SLAG 181200Z 18010KT 6000 -RA SCT002 BKN010 OVC070 15/13 Q1019@CAELT@A3009 890.9 HR86 VIS RED ST BAJOS TODAS DIRECC=@CAELT@
ZPX0248 181157@CAELT@GG SLZZYMYT@CAELT@181156 SLSBYSYX@CAELT@SABO SLSB 181200@CAELT@METAR SLSB 181200Z 00000KT 8000 SCT023 BKN080 27/24 Q1008 A2978 HR88@CAELT@FU RWY NML=@CAELT@
ZPX0250 181158@CAELT@GG SLZZYMYT@CAELT@181158 SLTRYGYS@CAELT@SABO SLTR 181200@CAELT@METAR SLTR 181200Z 33008KT 9999 NSC 28/24 Q1008 A2978 990.0 HR78 CI@CAELT@NOSIG=@CAELT@METAR SLGM 181200Z 36006KT 9999 SCT004 BKN080 BKN200 25/24 Q1010@CAELT@A2983 HR96=@CAELT@METAR SLRI 181200Z 36008KT 8000 VCSH SCT004 BKN015 FEW020CB BKN08025/24 Q1011 A2986 HR88 CB/SH N/NE/E=METAR SLJO 181200Z NIL=METAR SLRA 181200Z 35010KT 9999 NSC 27/23 Q1008 A2977 HR77 CIRWY NML=METAR SLMG 181200Z 34010KT 9999 NSC 27/23 Q1008 A2979 HR77 CIMETAR SLBU 181200Z NIL=METAR SLSA 181200Z 34006KT 9999 NSC 27/24 Q1008 A2977 HR85 CI=METAR SLSR 181200Z 32010KT 8000 FEW020 BKN200 27/23 Q1007 A2974 HR80FU RWY NML=METAR SLSM 181200Z 33006KT 9999 SCT080 27/25 Q1008 A2977 HR87
ZPX0251 181158@CAELT@GG SLZZYMYT@CAELT@181159 SLVRYGYZ@CAELT@SABO SLVR 181200@CAELT@METAR SLVR 181200Z 21008KT 1100 -TSRA SCT006 BKN017 FEW030CB OVC070@CAELT@22/22 Q1011 A2986 HR98 CB/TS N/NE/E/SE TEMPO 2000=@CAELT@
ZPX0252 181158@CAELT@GG SLZZYMYT@CAELT@181158 SLTJYGYZ@CAELT@SABO SLTJ 181200@CAELT@METAR SLTJ 181200Z 15006KT 9999 SCT010 BKN020 OVC070 13/09 Q1020@CAELT@A3014 815.5 HR78 SH SC BAJOS N/S/SW/W/NW=@CAELT@
ZPX0253 181200@CAELT@GG SLZZYMYT@CAELT@181200 SLVRYFYC@CAELT@SABO SLVR 181200@CAELT@METAR SLVR 181200Z 21008KT 1100 -TSRA SCT006 BKN017 FEW030CB@CAELT@OVC070 22/22 Q1011 A2986 HR98 CB/TS N/NE/E/SE TEMPO 2000=@CAELT@METAR SLET 181200Z 17012KT 3000 -TSRA FEW006 BKN020 FEW027CB@CAELT@OVC070 22/22 Q1010 A2983 HR97 CB/TS/LT N/NE/W NOSIG=@CAELT@METAR SLAS 181200Z 34010KT 9999 NSC 27/24 Q1010 A2983 HR81 RWY NML=METAR SLJV 181200Z 00000KT 9999 FEW020 BKN200 25/24 Q1009 A2980 HR94RWY NML=METAR SLCP 181200Z 33004KT 9999 OVC010 25/23 Q1012 A2988 HR95 RWY HUMOPR=METAR SLSI 181200Z 33006KT 9999 OVC010 24/23 Q1010 A2983 HR95 RETSWET OPR=METAR SLTI 181200Z 00000KT 9999 NSC 28/23 Q1012 A2988 HR76 CI RWY NMLMETAR SLJE 181200Z 00000KT 9999 BKN015 BKN200 26/22 Q1012 A2988 HR78METAR SLVG 181200Z 00000KT 9999 OVC015 17/15 Q1022 A3018 HR90 RWY NMLMETAR SLRB 181200Z 00000KT 9999 FEW020 29/23 Q1010 A2983 HR72 RWY NMLMETAR SLPS 181200Z 09004KT 9999 FEW017 SCT070 27/25 Q1008 A2977 HR89=METAR SLCA 181200Z 18006KT 9999 BKN025 OVC070 16/14 Q1018 A3006 HR88SH SW/W/E RERA RWY WET INOP=
ZPX0254 181201@CAELT@GG SLZZYMYT@CAELT@181200 SLCBYGYS@CAELT@SABO SLCB 181200@CAELT@METAR SLCB 181200Z 00000KT 9999 NSC 19/02 Q1023 A3021 749.8 HR32 FU@CAELT@CI NOSIG=@CAELT@METAR SLAL 181200Z 01008KT 9999 SCT010 14/07 Q1027 A3033 702.2 HR64=@CAELT@METAR SLPO 181200Z 00000KT 9999 NSC 09/06 Q1034 A3053 635.3 HR79 CI=@CAELT@METAR SLAG 181200Z 18010KT 6000 -RA SCT002 BKN010 OVC070 15/13 Q1019A3009 890.9 HR86 VIS RED ST BAJOS TODAS DIRECC=METAR SLVM 181200Z 18010KT 9999 SCT020 OVC070 17/14 Q1018 A3007 HR86=METAR SLTJ 181200Z 15006KT 9999 SCT010 BKN020 OVC070 13/09 Q1020A3014 815.5 HR78 SH SC BAJOS N/S/SW/W/NW=METAR SLYA 181200Z 21015KT 9999 SCT005 BKN010 OVC070 15/15 Q1018A3008 943.0 HR100=METAR SLBJ 181200Z NIL=METAR SLHI 181200Z NIL=
ZPX0257 181204@CAELT@GG SLZZYMYT@CAELT@181200 SLLPYFYA@CAELT@SABO SLLP 181200@CAELT@METAR SLLP 181200Z VRB02KT 9999 NSC 10/M18 Q1036 A3061 627.1 HR13@CAELT@CI NOSIG=@CAELT@METAR SLCO 181200Z 35004KT 9999 NSC 27/23 Q1009 A2982 982.5 HR82 CI=@CAELT@METAR SLRY 181200Z 00000KT 9999 NSC 26/24 Q1006 HR85 CI RWY NML=@CAELT@METAR SLRQ 181200Z 00000KT 9999 SCT020 27/25 Q1007 A2976 983.6 HR89METAR SLAP 181200Z 36006KT 9999 FEW025 22/17 Q1015 A3000 856.8 HR74=METAR SLSB 181200Z 00000KT 8000 SCT023 BKN080 27/24 Q1008 A2978 HR88FU RWY NML=METAR SLOR 181200Z 35007KT 8000 NSC 06/M04 Q1034 A3053 655.2 HR47 VISRED FU E/SE/S CI=METAR SLUY 181200Z 32007KT 9999 NSC 06/M12 Q1032 A3048 657.0HR27 CI=
