
ZPX0008 230055@CAELT@GG SLZZYMYT@CAELT@230055 SLVRYGYZ@CAELT@SABO SLVR 230100@CAELT@METAR SLVR 230100Z 33004KT 9999 NSC 27/21 Q1009 A2982 HR66 NOSIG=@CAELT@
ZPX0009 230056@CAELT@GG SLZZYMYT@CAELT@230056 SLCBYGYZ@CAELT@SABO SLCB 230100@CAELT@METAR SLCB 230100Z 10007KT 9999 FEW030 FEW033CB SCT080 21/06 Q1025@CAELT@A3028 751.8 HR38 CB/W AC FU NOSIG=@CAELT@
ZPX0010 230057@CAELT@GG SLLPZRZX@CAELT@230055 SLLPYGYZ@CAELT@SABO SLLP 230100@CAELT@METAR SLLP 230100Z 07006KT 9999 FEW015 FEW017CB SCT200 08/M01 Q1038@CAELT@A3065 628.0 HR55 CB/LT SW AC NOSIG=@CAELT@
ZPX0022 230155@CAELT@GG SLLPZRZX@CAELT@230155 SLLPYGYZ@CAELT@SABO SLLP 230200@CAELT@METAR SLLP 230200Z 07008KT 9999 FEW015 SCT200 07/00 Q1038 A3067 628.3@CAELT@HR59 AC NOSIG=@CAELT@
ZPX0023 230155@CAELT@GG SLZZYMYT@CAELT@230155 SLVRYGYZ@CAELT@SABO SLVR 230200@CAELT@METAR SLVR 230200Z 30004KT 9999 NSC 26/21 Q1010 A2982 HR71 NOSIG=@CAELT@
ZPX0024 230156@CAELT@GG SLZZYMYT@CAELT@230156 SLCBYGYZ@CAELT@SABO SLCB 230200@CAELT@METAR SLCB 230200Z 13007KT 9999 FEW030 FEW033CB BKN070 21/07 Q1026@CAELT@A3031 752.6 HR40 CB/NW FU CI NOSIG=@CAELT@
ZPX0038 230255@CAELT@GG SLZZYMYT@CAELT@230255 SLVRYGYZ@CAELT@SABO SLVR 230300@CAELT@METAR SLVR 230300Z 32005KT 9999 NSC 25/20 Q1010 A2982 HR74 NOSIG=@CAELT@
ZPX0039 230255@CAELT@GG SLLPZRZX@CAELT@230255 SLLPYGYZ@CAELT@SABO SLLP 230300@CAELT@METAR SLLP 230300Z 12009KT 9999 FEW015 SCT200 07/03 Q1039 A3069 628.9@CAELT@HR77 AC NOSIG=@CAELT@
ZPX0040 230258@CAELT@GG SLZZYMYT@CAELT@230258 SLCBYGYZ@CAELT@SABO SLCB 230300@CAELT@METAR SLCB 230300Z 14008KT 9999 FEW030 FEW033CB BKN070 20/07 Q1027@CAELT@A3033 753.1 HR42 CB/W FU CI NOSIG=@CAELT@
ZPX0049 230354@CAELT@GG SLZZYMYT@CAELT@230354 SLCBYGYZ@CAELT@SABO SLCB 230400@CAELT@METAR SLCB 230400Z 14008KT 9999 FEW030 BKN070 20/07 Q1027 A3033 753.1@CAELT@HR44 FU CI NOSIG=@CAELT@
ZPX0050 230355@CAELT@GG SLZZYMYT@CAELT@230355 SLVRYGYZ@CAELT@SABO SLVR 230400@CAELT@METAR SLVR 230400Z 26005KT 9999 NSC 24/20 Q1010 A2982 HR75 NOSIG=@CAELT@
ZPX0051 230356@CAELT@GG SLLPZRZX@CAELT@230355 SLLPYGYZ@CAELT@SABO SLLP 230400@CAELT@METAR SLLP 230400Z 10008KT 080V140 9999 FEW005 SCT200 06/04 Q1039@CAELT@A3071 629.2 HR86 AC NOSIG=@CAELT@
ZPX0058 230454@CAELT@GG SLZZYMYT@CAELT@230454 SLCBYGYZ@CAELT@SABO SLCB 230500@CAELT@METAR SLCB 230500Z 12010KT 9999 FEW030 SCT070 18/07 Q1026 A3031 752.6@CAELT@HR47 FU CI NOSIG=@CAELT@
ZPX0059 230455@CAELT@GG SLLPZRZX@CAELT@230455 SLLPYGYZ@CAELT@SABO SLLP 230500@CAELT@METAR SLLP 230500Z 08006KT 4000E VCFG FEW003 SCT200 04/03 Q1039 A3069@CAELT@628.7 HR91 VCFG NE/E/ AC NOSIG=@CAELT@
ZPX0061 230458@CAELT@GG SLZZYMYT@CAELT@230458 SLVRYGYZ@CAELT@SABO SLVR 230500@CAELT@METAR SLVR 230500Z 17007KT 9999 NSC 24/20 Q1010 A2982 HR75 NOSIG=@CAELT@
ZPX0068 230555@CAELT@GG SLZZYMYT@CAELT@230555 SLVRYGYZ@CAELT@SABO SLVR 230600@CAELT@METAR SLVR 230600Z 16004KT 9999 NSC 25/20 Q1009 A2981 HR76 NOSIG=@CAELT@
ZPX0069 230557@CAELT@GG SLLPZRZX@CAELT@230556 SLLPYGYZ@CAELT@SABO SLLP 230600@CAELT@METAR SLLP 230600Z 09010KT 4000E VCFG FEW002 SCT013 05/04 Q1038 A3066@CAELT@628.2 HR94 VCFG NE/E/SE AC/CI NOSIG=@CAELT@
ZPX0070 230557@CAELT@GG SLZZYMYT@CAELT@230556 SLCBYGYZ@CAELT@SABO SLCB 230600@CAELT@METAR SLCB 230600Z 12010KT 9999 FEW030 SCT070 17/07 Q1025 A3030 752.1@CAELT@HR52 FU CI NOSIG=@CAELT@
ZPX0077 230654@CAELT@GG SLZZYMYT@CAELT@230654 SLCBYGYZ@CAELT@SABO SLCB 230700@CAELT@METAR SLCB 230700Z 13008KT 9999 FEW030 SCT070 17/08 Q1025 A3029 752.0@CAELT@HR55 FU CI NOSIG=@CAELT@
ZPX0078 230654@CAELT@GG SLZZYMYT@CAELT@230655 SLVRYGYZ@CAELT@SABO SLVR 230700@CAELT@METAR SLVR 230700Z 18004KT 9999 FEW023 25/20 Q1009 A2981 HR74 NOSIG=@CAELT@
ZPX0079 230655@CAELT@GG SLLPZRZX@CAELT@230655 SLLPYGYZ@CAELT@SABO SLLP 230700@CAELT@METAR SLLP 230700Z VRB02KT 4000E VCFG FEW002 SCT013 04/02 Q1038@CAELT@A3066 628.1 HR90 VCFG NE/E/SE AC/CI NOSIG=@CAELT@
ZPX0086 230753@CAELT@GG SLZZYMYT@CAELT@230753 SLVRYGYZ@CAELT@SABO SLVR 230800@CAELT@METAR SLVR 230800Z 19004KT 9999 FEW023 25/20 Q1009 A2981 HR74 NOSIG=@CAELT@
ZPX0087 230754@CAELT@GG SLZZYMYT@CAELT@230755 SLCBYGYZ@CAELT@SABO SLCB 230800@CAELT@METAR SLCB 230800Z 11007KT 9999 FEW030 BKN070 16/07 Q1026 A3030 752.3@CAELT@HR55 FU CI NOSIG=@CAELT@
ZPX0088 230756@CAELT@GG SLLPZRZX@CAELT@230755 SLLPYGYZ@CAELT@SABO SLLP 230800@CAELT@METAR SLLP 230800Z 33004KT 9999 FEW007 SCT013 03/00 Q1038 A3066@CAELT@628.0 HR80 AC/CI NOSIG=@CAELT@
ZPX0096 230856@CAELT@GG SLLPZRZX@CAELT@230855 SLLPYGYZ@CAELT@SABO SLLP 230900@CAELT@METAR SLLP 230900Z 33003KT 9999 FEW008 SCT200 02/M02 Q1038 A3066@CAELT@628.1 HR76 AC NOSIG=@CAELT@
ZPX0097 230858@CAELT@GG SLZZYMYT@CAELT@230856 SLTRYGYZ@CAELT@SABO SLTR 230900@CAELT@METAR SLTR 230900Z 00000KT 7000 NSC 24/22 Q1010 A2983 991.5@CAELT@HR91 FU NOSIG=@CAELT@
ZPX0098 230900@CAELT@GG SLZZYMYT@CAELT@230900 SLCBYGYZ@CAELT@SABO SLCB 230900@CAELT@METAR SLCB 230900Z 10006KT 9999 FEW030 BKN070 16/08 Q1026 A3031 752.6@CAELT@HR57 FU CI NOSIG=@CAELT@
ZPX0100 230901@CAELT@GG SLZZYMYT@CAELT@230857 SLVRYGYZ@CAELT@SABO SLVR 230900@CAELT@METAR SLVR 230900Z 21005KT 9999 FEW023 23/20 Q1010 A2982 HR82 NOSIG=@CAELT@
ZPX0102 230904@CAELT@GG SLZZYMYT@CAELT@230902 SLTRYGYS@CAELT@SABO SLTR 230900@CAELT@METAR SLTR 230900Z 00000KT 7000 NSC 24/22 Q1010 A2983 991.5@CAELT@HR91 FU NOSIG=@CAELT@METAR SLRI 230900Z 00000KT 99999 NSC 24/24 Q1009 A2982 HR100=@CAELT@
ZPX0104 230905@CAELT@GG SLZZYMYT@CAELT@230903 SLPSYGYS@CAELT@SABO SLPS 230900@CAELT@METAR RTD SLPS 230900Z 00000KT 9999 NSC 20/19 Q1010 A2983 HR90=@CAELT@
ZPX0121 230951@CAELT@GG SLZZYMYT@CAELT@230951 SLPSYGYS@CAELT@SABO SLPS 231000@CAELT@METAR SLPS 231000Z 00000KT 9999 NSC 21/19 Q1010 A2983 HR91=@CAELT@
ZPX0123 230953@CAELT@GG SLZZYMYT@CAELT@230954 SLSAZTZX@CAELT@SABO SLSA 231000@CAELT@METAR SLSA 231000Z 00000KT 9999 NSC 23/22 Q1009 A2980 HR97 CI=@CAELT@
ZPX0124 230953@CAELT@GG SLZZYMYT@CAELT@230954 SLSAZTZX@CAELT@SABO SLSA 231000@CAELT@METAR SLSA 231000Z 00000KT 9999 NSC 23/22 Q1009 A2980 HR97 CI=@CAELT@
ZPX0125 230954@CAELT@GG SLZZYMYT@CAELT@230954 SLCAYGYS@CAELT@SABO SLCA 231000@CAELT@METAR SLCA 231000Z 00000KT 9999 NSC 17/13 Q1017 A3003 HR80 RWY NML=@CAELT@
ZPX0127 230955@CAELT@GG SLZZYMYT@CAELT@230955 SLLPYGYZ@CAELT@SABO SLLP 231000@CAELT@METAR SLLP 231000Z 09006KT 3000E VCFG FEW002 SCT200 M01/M02 Q1038@CAELT@A3067 628.3 HR93 P92// VCFG NE/E/SE AC NOSIG=@CAELT@
ZPX0128 230955@CAELT@GG SLZZYMYT@CAELT@230954 SLETYMYC@CAELT@SABO SLET 231000Z@CAELT@METAR SLET 231000Z 23003KT 6000 FEW025 25/18 Q1011 A2986 HR64 FU@CAELT@NOSIG=@CAELT@
ZPX0130 230956@CAELT@GG SLZZYMYT@CAELT@230955 SLLPYFYA@CAELT@SABO SLRY 231000@CAELT@METAR SLRY 231000Z 00000KT 9999 NSC 21/21 Q1008 A2979 HR98 RWY NML=@CAELT@
ZPX0131 230956@CAELT@GG SLZZYMYT@CAELT@230955 SLRQYSYX@CAELT@SABO SLRQ 231000@CAELT@METAR SLRQ 231000Z 00000KT 9999 NSC 22/22 Q1009 A2982 HR99 FU CI=@CAELT@
ZPX0133 230956@CAELT@GG SLZZYMYT@CAELT@230955 SLTJYGYZ@CAELT@SABO SLTJ 231000@CAELT@METAR SLTJ 231000Z 00000KT 9999 NSC 15/10 Q1019 A3011 814.7 HR73=@CAELT@
ZPX0134 230957@CAELT@GG SLZZYMYT@CAELT@230956 SLCBYGYZ@CAELT@SABO SLCB 231000@CAELT@METAR SLCB 231000Z 13005KT 9999 FEW030 SCT070 16/08 Q1027 A3033 753.1@CAELT@HR57 CI NOSIG=@CAELT@
ZPX0135 230957@CAELT@GG SLZZYMYT@CAELT@230957 SLVRYGYZ@CAELT@SABO SLVR 231000@CAELT@METAR SLVR 231000Z 21005KT 9999 NSC 25/20 Q1011 A2985 HR77 CI NOSIG=@CAELT@
ZPX0136 230957@CAELT@GG SLZZYMYT@CAELT@230956 SLTRYGYZ@CAELT@SABO SLTR 231000@CAELT@METAR SLTR 231000Z 00000KT 7000 NSC 25/23 Q1009 A2982 991.2@CAELT@HR88 FU CI NOSIG=@CAELT@
ZPX0137 230959@CAELT@GG SLZZYMYT@CAELT@230955 SLSBYSYX@CAELT@SABO SLSB 231000@CAELT@METAR SLSB 231000Z 00000KT 3000 BR NSC 23/23 Q1009 A2982 HR100 RWY@CAELT@NML=@CAELT@
ZPX0139 230959@CAELT@GG SLZZYMYT@CAELT@230959 SLVRYFYC@CAELT@SABO SLVR 231000@CAELT@METAR SLVR 231000Z 21005KT 9999 NSC 25/20 Q1011 A2985 HR77 CI NOSIG=@CAELT@METAR SLET 231000Z 23003KT 6000 FEW025 25/18 Q1011 A2986 HR64 FU@CAELT@NOSIG=@CAELT@METAR SLCP 231000Z 00000KT 9999 BKN070 22/22 Q1015 A2997 HR97 RWY NML@CAELT@METAR SLSI 231000Z 00000KT 9999 NSC 22/19 Q1011 A2985 HR83 RWY NML=METAR SLRB 231000Z 00000KT 9999 NSC 17/16 Q1014 A2994 HR95 RWY NML=METAR SLPS 231000Z 00000KT 9999 NSC 21/19 Q1010 A2983 HR91=METAR SLCA 231000Z 00000KT 9999 NSC 17/13 Q1017 A3003 HR80 RWY NML=
ZPX0140 230959@CAELT@GG SLZZYMYT@CAELT@230959 SLTRYGYS@CAELT@SABO SLTR 231000@CAELT@METAR SLTR 231000Z 00000KT 7000 NSC 25/23 Q1009 A2982 991.2@CAELT@HR88 FU CI NOSIG=@CAELT@METAR SLGM 231000Z 00000KT 9999 NSC 24/23 Q1009 A2980 HR93 CI=@CAELT@METAR SLRI 231000Z 00000KT 5000 FU FEW004 SCT200 24/24 Q1010 A2984@CAELT@HR98 AC=METAR SLJO 231000Z 00000KT 9999 NSC 23/22 Q1009 A2980 HR96 CIRWY NML=METAR SLRA 231000Z 00000KT 9999 NSC 24/22 Q1009 A2980 HR89 FU CIMETAR SLMG 231000Z 00000KT 9999 NSC 24/22 Q1009 A2980 HR93 CIMETAR SLBU 231000Z NIL=METAR SLSA 231000Z 00000KT 9999 NSC 23/22 Q1009 A2980 HR97 CI=METAR SLSR 231000Z 00000KT 8000 NSC 23/22 Q1009 A2982 HR93 FU CIMETAR SLSM 231000Z 00000KT 9999 NSC 22/22 Q1009 A2981 HR97 CI
ZPX0142 231001@CAELT@GG SLZZYMYT@CAELT@231000 SLUYYGYS@CAELT@SABO SLUY 231000@CAELT@METAR SLUY 231000Z 00000KT 9999 NSC 02/M15 Q1035 A3056 659.0@CAELT@HR29 FU CI=@CAELT@
ZPX0143 231002@CAELT@GG SLZZYMYT@CAELT@231001 SLLPYFYA@CAELT@SABO SLCO 231000@CAELT@METAR SLCO 231000Z 26003KT 9999 FEW017 SCT200 24/23 Q1009 A2982@CAELT@982.3 HR94=@CAELT@
ZPX0144 231002@CAELT@GG SLZZYMYT@CAELT@231001 SLCBYGYS@CAELT@SABO SLCB 231000@CAELT@METAR SLCB 231000Z 13005KT 9999 FEW030 SCT070 16/08 Q1027 A3033 753.1@CAELT@HR57 CI NOSIG=@CAELT@METAR SLAL 231000Z 35005KT 9999 FEW015 10/07 Q1031 A3045 704.9 HR83@CAELT@METAR SLTJ 231000Z 00000KT 9999 NSC 15/10 Q1019 A3011 814.7 HR73=@CAELT@
ZPX0146 231003@CAELT@GG SLZZYMYT@CAELT@231002 SLLPYFYA@CAELT@SABO SLLP 231000@CAELT@METAR SLLP 231000Z 09006KT 3000E VCFG FEW002 SCT200 M01/M02 Q1038@CAELT@A3067 628.3 HR93 P92// VCFG NE/E/SE AC NOSIG=@CAELT@METAR SLCO 231000Z 26003KT 9999 FEW017 SCT200 24/23 Q1009 A2982@CAELT@982.3 HR94=@CAELT@METAR SLRY 231000Z 00000KT 9999 NSC 21/21 Q1008 A2979 HR98 RWY NML=METAR SLRQ 231000Z 00000KT 9999 NSC 22/22 Q1009 A2982 HR99 FU CI=METAR SLSB 231000Z 00000KT 3000 BR NSC 23/23 Q1009 A2982 HR100 RWYNML=METAR SLUY 231000Z 00000KT 9999 NSC 02/M15 Q1035 A3056 659.0HR29 FU CI=
ZPX0173 231051@CAELT@GG SLZZYMYT@CAELT@231051 SLPSYGYS@CAELT@SABO SLPS 231100@CAELT@METAR SLPS 231100Z 00000KT 9999 NSC 25/22 Q1011 A2986 HR87=@CAELT@
ZPX0174 231053@CAELT@GG SLZZYMYT@CAELT@231054 SLSAZTZX@CAELT@SABO SLSA 231100@CAELT@METAR SLSA 231100Z 00000KT 9999 NSC 25/24 Q1010 A2983 HR93 CI=@CAELT@
ZPX0175 231053@CAELT@GG SLZZYMYT@CAELT@231054 SLSAZTZX@CAELT@SABO SLSA 231100@CAELT@METAR SLSA 231100Z 00000KT 9999 NSC 25/24 Q1010 A2983 HR93 CI=@CAELT@
ZPX0176 231053@CAELT@GG SLZZYMYT@CAELT@231054 SLVRYGYZ@CAELT@SABO SLVR 231100@CAELT@METAR SLVR 231100Z 17003KT 9999 NSC 27/20 Q1012 A2989 HR67 CI NOSIG=@CAELT@
ZPX0177 231053@CAELT@GG SLZZYMYT@CAELT@231053 SLCAYGYS@CAELT@SABO SLCA 231100@CAELT@METAR SLCA 231100Z 00000KT 9999 NSC 19/15 Q1017 A3003 HR76 RWY NML=@CAELT@
ZPX0180 231054@CAELT@GG SLZZYMYT@CAELT@231049 SLETYMYC@CAELT@SABO SLET 231100Z@CAELT@METAR SLET 231100Z 00000KT 6000 NSC 27/20 Q1012 A2989 HR63 FU NOSIG=@CAELT@
ZPX0181 231054@CAELT@GG SLZZYMYT@CAELT@231055 SLLPYFYA@CAELT@SABO SLRY 231100@CAELT@METAR SLRY 231100Z 00000KT 9999 NSC 23/22 Q1009 A2980 HR95 RWY NML=@CAELT@
ZPX0182 231054@CAELT@GG SLZZYMYT@CAELT@231054 SLLPYFYA@CAELT@SABO SLCO 231100@CAELT@METAR SLCO 231100Z 26004KT 9999 FEW017 SCT200 26/24 Q1010 A2984@CAELT@983.0 HR89 AC=@CAELT@
ZPX0186 231054@CAELT@GG SLZZYMYT@CAELT@231055 SLSBYSYX@CAELT@SABO SLSB 231100@CAELT@METAR SLSB 231100Z 00000KT 5000 FU NSC 25/22 Q1010 A2984 HR87 RWY NML=@CAELT@
ZPX0187 231055@CAELT@GG SLZZYMYT@CAELT@231055 SLLPYGYZ@CAELT@SABO SLLP 231100@CAELT@METAR SLLP 231100Z 10006KT 4000E VCFG FEW002 SCT200 04/03 Q1040@CAELT@A3071 629.3 HR91 P92// VCFG NE/E/SE AC NOSIG=@CAELT@
ZPX0188 231056@CAELT@GG SLZZYMYT@CAELT@231055 SLRQYSYX@CAELT@SABO SLRQ 231100@CAELT@METAR SLRQ 231100Z 00000KT 9999 FEW080 25/24 Q1010 A2985 HR92=@CAELT@
ZPX0189 231057@CAELT@GG SLZZYMYT@CAELT@231056 SLTJYGYZ@CAELT@SABO SLTJ 231100@CAELT@METAR SLTJ 231100Z 00000KT 9999 NSC 18/10 Q1020 A3013 815.3 HR63=@CAELT@
ZPX0190 231057@CAELT@GG SLZZYMYT@CAELT@231056 SLCBYGYZ@CAELT@SABO SLCB 231100@CAELT@METAR SLCB 231100Z 12007KT 9999 FEW033 BKN070 17/08 Q1028 A3036 753.9@CAELT@HR54 FU NOSIG=@CAELT@
ZPX0191 231057@CAELT@GG SLZZYMYT@CAELT@231057 SLORYGYZ@CAELT@SABO SLOR 231100@CAELT@METAR SLOR 231100Z 00000KT 9999 NSC 10/01 Q1036 A3062 657.2 HR52 FU N@CAELT@/SE/S/SW/NW=@CAELT@
ZPX0192 231058@CAELT@GG SLZZYMYT@CAELT@231056 SLUYYGYS@CAELT@SABO SLUY 231100@CAELT@METAR SLUY 231100Z 00000KT 9999 NSC 07/M11 Q1035 A3059 659.6@CAELT@HR26 FU CI=@CAELT@
ZPX0193 231058@CAELT@GG SLZZYMYT@CAELT@231057 SLTRYGYZ@CAELT@SABO SLTR 231100@CAELT@METAR SLTR 231100Z 00000KT 7000 NSC 27/23 Q1010 A2984 992.1@CAELT@HR80 FU CI NOSIG=@CAELT@
ZPX0194 231059@CAELT@GG SLZZYMYT@CAELT@231059 SLLPYFYA@CAELT@SABO SLLP 231100@CAELT@METAR SLLP 231100Z 10006KT 4000E VCFG FEW002 SCT200 04/03 Q1040@CAELT@A3071 629.3 HR91 P92// VCFG NE/E/SE AC NOSIG=@CAELT@METAR SLCO 231100Z 26004KT 9999 FEW017 SCT200 26/24 Q1010 A2984@CAELT@983.0 HR89 AC=@CAELT@METAR SLRY 231100Z 00000KT 9999 NSC 23/22 Q1009 A2980 HR95 RWY NML=METAR SLRQ 231100Z 00000KT 9999 FEW080 25/24 Q1010 A2985 HR92=METAR SLSB 231100Z 00000KT 5000 FU NSC 25/22 Q1010 A2984 HR87RWY NML=METAR SLOR 231100Z 00000KT 9999 NSC 10/01 Q1036 A3062 657.2 HR52 FUN/SE/S/SW/NW=METAR SLUY 231100Z 00000KT 9999 NSC 07/M11 Q1035 A3059 659.6HR26 FU CI=
ZPX0196 231100@CAELT@GG SLZZYMYT@CAELT@231100 SLTRYGYS@CAELT@SABO SLTR 231100@CAELT@METAR SLTR 231100Z 00000KT 7000 NSC 27/23 Q1010 A2984 992.1@CAELT@HR80 FU CI NOSIG=@CAELT@METAR SLGM 231100Z 00000KT 9999 NSC 25/24 Q1010 A2984 HR90 CI=@CAELT@METAR SLRI 231100Z 00000KT 5000 FU FEW004 SCT200 25/24 Q1011 A2987@CAELT@HR92 AC=METAR SLJO 231100Z 00000KT 9999 NSC 25/23 Q1009 A2981 HR92 CIRWY NML=METAR SLRA 231100Z 00000KT 9999 NSC 26/23 Q1010 A2983 HR83 FUMETAR SLMG 231100Z 00000KT 9999 NSC 26/22 Q1009 A2982 HR80 CIMETAR SLSA 231100Z 00000KT 9999 NSC 25/24 Q1010 A2983 HR93 CI=METAR SLBU 231100Z NIL=METAR SLSR 231100Z 00000KT 8000 NSC 24/23 Q1009 A2982 HR94 FU CIRWY NMLMETAR SLSM 231100Z 00000KT 9999 NSC 24/23 Q1010 A2984 HR95 CI
ZPX0197 231101@CAELT@GG SLZZYMYT@CAELT@231101 SLVRYFYC@CAELT@SABO SLVR 231100@CAELT@METAR SLVR 231100Z 17003KT 9999 NSC 27/20 Q1012 A2989 HR67 CI NOSIG=@CAELT@METAR SLET 231100Z 00000KT 6000 NSC 27/20 Q1012 A2989 HR63 FU NOSIG=@CAELT@METAR SLAS 231100Z NIL=@CAELT@METAR SLJV 231100Z 00000KT 9999 NSC 25/21 Q1009 A2983 HR77 RWY NML=@CAELT@METAR SLCP 231100Z 00000KT 9999 BKN070 23/22 Q1016 A3000 HR90 RWY NMLMETAR SLSI 231100Z 00000KT 9999 NSC 25/18 Q1013 A2991 HR64 RWY NML=METAR SLTI 231100Z 00000KT 9999 NSC 27/18 Q1015 A2997 HR61 CI RWY NMLMETAR SLJE 231100Z 00000KT 9999 NSC 25/17 Q1015 A2997 HR61 RWY NML=METAR SLVG 231100Z 00000KT 9999 NSC 15/11 Q1026 A3030 HR75 RWY NML=METAR SLRB 231100Z 00000KT 9999 NSC 22/17 Q1014 A2994 HR75 RWY NML=METAR SLPS 231100Z 00000KT 9999 NSC 25/22 Q1011 A2986 HR87=METAR SLCA 231100Z 00000KT 9999 NSC 19/15 Q1017 A3003 HR76 RWY NML=
ZPX0198 231102@CAELT@GG SLZZYMYT@CAELT@231101 SLCBYGYS@CAELT@SABO SLCB 231100@CAELT@METAR SLCB 231100Z 12007KT 9999 FEW033 BKN070 17/08 Q1028 A3036 753.9@CAELT@HR54 FU NOSIG=@CAELT@METAR SLAL 231100Z 01010KT 9999 FEW015 11/07 Q1032 A3049 705.9 HR78@CAELT@METAR SLTJ 231100Z 00000KT 9999 NSC 18/10 Q1020 A3013 815.3 HR63=@CAELT@METAR SLYA 231100Z 00000KT 9999 NSC 25/14 Q1012 A2990 937.4 HR65=
ZPX0205 231110@CAELT@GG SLZZYMYT@CAELT@231109 SLVRYFYC RRA@CAELT@SABO SLAS 231100 RRA@CAELT@METAR SLAS 231100Z 00000KT 9999 NSC 26/18 Q1014 A2991 HR69 RWY NML=@CAELT@
ZPX0226 231150@CAELT@GG SLZZYMYT@CAELT@231150 SLPSYGYS@CAELT@SABO SLPS 231200@CAELT@METAR SLPS 231200Z 09008KT 9999 NSC 28/23 Q1011 A2986 HR78=@CAELT@
ZPX0227 231152@CAELT@GG SLZZYMYT@CAELT@231152 SLVRYGYZ@CAELT@SABO SLVR 231200@CAELT@METAR SLVR 231200Z 17003KT 9999 NSC 30/19 Q1013 A2991 HR52 CI NOSIG=@CAELT@
ZPX0229 231152@CAELT@GG SLZZYMYT@CAELT@231150 SLETYMYC@CAELT@SABO SLET 231200Z@CAELT@METAR SLET 231200Z 09004 8000 NSC 31/19 Q1012 A2991 HR 50 FU NOSIG=@CAELT@
ZPX0231 231153@CAELT@GG SLZZYMYT@CAELT@231154 SLORYGYZ@CAELT@SABO SLOR 231200@CAELT@METAR SLOR 231200Z 36006KT 9999 NSC 13/00 Q1037 A3063 657.5 HR42 FU@CAELT@SE/S/SW/NW=@CAELT@
ZPX0233 231154@CAELT@GG SLZZYMYT@CAELT@231154 SLCAYGYS@CAELT@SABO SLCA 231200@CAELT@METAR SLCA 231200Z 00000KT 9999 NSC 23/14 Q1017 A3003 HR56 RWY NML=@CAELT@
ZPX0234 231154@CAELT@GG SLZZYMYT@CAELT@231153 SLRBYGYS@CAELT@SABO SLRB 231200@CAELT@METAR SLRB 231200Z 00000KT 9999 NSC 26/18 Q1015 A2997 HR64 RWY NML=@CAELT@
ZPX0235 231155@CAELT@GG SLZZYMYT@CAELT@231155 SLAGYSYX@CAELT@SABO SLAG 231200@CAELT@METAR SLAG 231200Z 00000KT 9999 NSC 24/16 Q1018 A3008 890.5 HR61 FU=@CAELT@
ZPX0237 231155@CAELT@GG SLZZYMYT@CAELT@231155 SLSBYSYX@CAELT@SABO SLSB 231200@CAELT@METAR SLSB 231200Z 00000KT 5000 FU NSC 28/23 Q1011 A2986 HR74 RWY NML=@CAELT@
ZPX0238 231155@CAELT@GG SLZZYMYT@CAELT@231155 SLRQYSYX@CAELT@SABO SLRQ 231200@CAELT@METAR SLRQ 231200Z 00000KT 9999 FEW080 30/24 Q1011 A2987 HR71=@CAELT@
ZPX0239 231155@CAELT@GG SLZZYMYT@CAELT@231155 SLSAZTZX@CAELT@SABO SLSA 231200@CAELT@METAR SLSA 231200Z 00000KT 9999 NSC 29/25 Q1010 A2985 HR81 CI=@CAELT@
ZPX0240 231155@CAELT@GG SLZZYMYT@CAELT@231155 SLTJYGYZ@CAELT@SABO SLTJ 231200@CAELT@METAR SLTJ 231200Z 00000KT 9999 NSC 22/12 Q1020 A3014 8154. HR56=@CAELT@
ZPX0241 231155@CAELT@GG SLZZYMYT@CAELT@231155 SLLPYGYZ@CAELT@SABO SLLP 231200@CAELT@METAR SLLP 231200Z 09009KT 6000 FEW005 SCT200 09/03 Q1040 A3073@CAELT@629.7 HR66 P92// VIS/RED SC/BJOS NE/E/SE HZ SW/W AC NOSIG=@CAELT@
ZPX0242 231157@CAELT@GG SLZZYMYT@CAELT@231157 SLVRYFYC@CAELT@SABO SLVR 231200@CAELT@METAR SLVR 231200Z 17003KT 9999 NSC 30/19 Q1013 A2991 HR52 CI NOSIG=@CAELT@METAR SLET 231200Z 09004 8000 NSC 31/19 Q1012 A2991 HR50 FU NOSIG=@CAELT@METAR SLAS 231200Z 00000KT 9999 NSC 29/20 Q1015 A2997 HR60 RWY NML=@CAELT@METAR SLJV 231200Z 00000KT 9999 NSC 28/21 Q1013 A2991 HR67 RWY NML=@CAELT@METAR SLCP 231200Z 00000KT 9999 SCT070 26/22 Q1016 A3000 HR78 FU RWYNML=METAR SLSI 231200Z 00000KT 9999 NSC 29/17 Q1013 A2991 HR49 RWY NML=METAR SLTI 231200Z 00000KT 9999 NSC 30/19 Q1016 A3000 HR50 CI RWY NMLMETAR SLJE 231200Z 00000KT 9999 NSC 29/17 Q1016 A3000 HR50 RWY NML=METAR SLVG 231200Z 00000KT 9999 SCT023 19/13 Q1027 A3033 HR65 RWY NMLMETAR SLRB 231200Z 00000KT 9999 NSC 26/18 Q1015 A2997 HR64 RWY NML=METAR SLPS 231200Z 09008KT 9999 NSC 28/23 Q1011 A2986 HR78=METAR SLCA 231200Z 00000KT 9999 NSC 23/14 Q1017 A3003 HR56 RWY NML=
ZPX0243 231157@CAELT@GG SLZZYMYT@CAELT@231156 SLTRYGYZ@CAELT@SABO SLTR 231200@CAELT@METAR SLTR 231200Z 00000KT 7000 NSC 30/23 Q1011 A2987 992.9@CAELT@HR67 FU CI NOSIG=@CAELT@
ZPX0246 231159@CAELT@GG SLZZYMYT@CAELT@231158 SLCBYGYZ@CAELT@SABO SLCB 231200@CAELT@METAR SLCB 231200Z 12007KT 9999 FEW033 BKN070 19/08 Q1028 A3038 754.2@CAELT@HR51 FU NOSIG=@CAELT@
ZPX0247 231159@CAELT@GG SLZZYMYT@CAELT@231158 SLTJYGYZ@CAELT@SABO SLTJ 231200 CCA@CAELT@METAR COR SLTJ 231200Z 00000KT 9999 NSC 22/12 Q1020 A3014 815.4 HR56=@CAELT@COR 815.4@CAELT@
ZPX0248 231159@CAELT@GG SLZZYMYT@CAELT@231156 SLUYYGYS@CAELT@SABO SLUY 231200@CAELT@METAR SLUY 231200Z 00000KT 9999 NSC 11/M06 Q1036 A3061 660.1@CAELT@HR28 FU CI=@CAELT@
ZPX0249 231159@CAELT@GG SLZZYMYT@CAELT@231158 SLTRYGYS@CAELT@SABO SLTR 231200@CAELT@METAR SLTR 231200Z 00000KT 7000 NSC 30/23 Q1011 A2987 992.9@CAELT@HR67 FU CI NOSIG=@CAELT@METAR SLGM 231200Z 03006KT 9999 NSC 28/24 Q1011 A2985 HR79 CI=@CAELT@METAR SLRI 231200Z 00000KT 5000 FU FEW080 BKN200 26/25 Q1012 A2990@CAELT@HR91=METAR SLJO 231200Z 00000KT 9999 NSC 29/24 Q1010 A2985 HR74 CIRWY NML=METAR SLRA 231200Z 00000KT 9999 NSC 30/23 Q1010 A2985 HR67 FUMETAR SLMG 231200Z 00000KT 9999 NSC 30/23 Q1011 A2986 HR68 RWY NML=METAR SLBU 231200Z 32004KT 8000 NSC 30/24 Q1011 A2987 HR71 FUMETAR SLSA 231200Z 00000KT 9999 NSC 29/25 Q1010 A2985 HR81 CI=METAR SLSR 231200Z 00000KT 8000 NSC 27/23 Q1010 A2984 HR80 FU CIMETAR SLSM 231200Z 00000KT 9999 NSC 28/24 Q1011 A2985 HR81 RWY NML=
ZPX0250 231159@CAELT@GG SLZZYMYT@CAELT@231159 SLLPYFYA@CAELT@SABO SLRY 231200@CAELT@METAR SLRY 231200Z 00000KT 9999 NSC 28/23 Q1010 A2984 HR78 RWY NML@CAELT@
ZPX0251 231159@CAELT@GG SLZZYMYT@CAELT@231159 SLVRYFYC@CAELT@SABO SLVR 231200@CAELT@METAR SLVR 231200Z 17003KT 9999 NSC 30/19 Q1013 A2991 HR52 CI NOSIG=@CAELT@METAR SLET 231200Z 09004KT 8000 NSC 31/19 Q1012 A2991 HR50 FU NOSIG=@CAELT@METAR SLAS 231200Z 00000KT 9999 NSC 29/20 Q1015 A2997 HR60 RWY NML=@CAELT@METAR SLJV 231200Z 00000KT 9999 NSC 28/21 Q1013 A2991 HR67 RWY NML=@CAELT@METAR SLCP 231200Z 00000KT 9999 SCT070 26/22 Q1016 A3000 HR78 FU RWYNML=METAR SLSI 231200Z 00000KT 9999 NSC 29/17 Q1013 A2991 HR49 RWY NML=METAR SLTI 231200Z 00000KT 9999 NSC 30/19 Q1016 A3000 HR50 CI RWY NMLMETAR SLJE 231200Z 00000KT 9999 NSC 29/17 Q1016 A3000 HR50 RWY NML=METAR SLVG 231200Z 00000KT 9999 SCT023 19/13 Q1027 A3033 HR65 RWY NMLMETAR SLRB 231200Z 00000KT 9999 NSC 26/18 Q1015 A2997 HR64 RWY NML=METAR SLPS 231200Z 09008KT 9999 NSC 28/23 Q1011 A2986 HR78=METAR SLCA 231200Z 00000KT 9999 NSC 23/14 Q1017 A3003 HR56 RWY NML=
ZPX0252 231200@CAELT@GG SLZZYMYT@CAELT@231159 SLLPYFYA@CAELT@SABO SLCO 231200@CAELT@METAR SLCO 231200Z 28004KT 9999 FEW017 SCT200 27/25 Q1011 A2987@CAELT@984.0 HR87 AC=@CAELT@
ZPX0253 231202@CAELT@GG SLZZYMYT@CAELT@231200 SLLPYFYA@CAELT@SABO SLLP 231200@CAELT@METAR SLLP 231200Z 09009KT 6000 FEW005 SCT200 09/03 Q1040 A3073@CAELT@629.7 HR66 P92// VIS/RED SC/BJOS NE/E/SE HZ SW/W AC NOSIG=@CAELT@METAR SLCO 231200Z 28004KT 9999 FEW017 SCT200 27/25 Q1011 A2987@CAELT@984.0 HR87 AC=@CAELT@METAR SLRY 231200Z 00000KT 9999 NSC 28/23 Q1010 A2984 HR78 RWY NMLMETAR SLRQ 231200Z 00000KT 9999 FEW080 30/24 Q1011 A2987 HR71=METAR SLSB 231200Z 00000KT 5000 FU NSC 28/23 Q1011 A2986 HR74 RWY NMLMETAR SLOR 231200Z 36006KT 9999 NSC 13/00 Q1037 A3063 657.5 HR42 FUSE/S/SW/NW=METAR SLUY 231200Z 00000KT 9999 NSC 11/M06 Q1036 A3061 660.1HR28 FU CI=
ZPX0255 231204@CAELT@GG SLZZYMYT@CAELT@231203 SLCBYGYS@CAELT@SABO SLCB 231200@CAELT@METAR SLCB 231200Z 12007KT 9999 FEW033 BKN070 19/08 Q1028 A3038 754.2@CAELT@HR51 FU NOSIG=@CAELT@METAR SLAL 231200Z 35010KT 9999 SCT017 13/09 Q1033 A3051 706.4 HR75@CAELT@METAR SLPO 231200Z 00000KT 9999 NSC 11/06 Q1041 A3075 640.4 HR72 FU=@CAELT@METAR SLAG 231200Z 00000KT 9999 NSC 24/16 Q1018 A3008 890.5 HR61 FU=METAR SLVM 231200Z 00000KT 9999 NSC 28/20 Q1012 A2990 HR60 FU CI=METAR SLTJ 231200Z 00000KT 9999 NSC 22/12 Q1020 A3014 815.4 HR56=815.4METAR SLYA 231200Z 06008KT 9999 NSC 28/17 Q1012 A2991 937.6 HR50=METAR SLBJ 231200Z NIL=METAR SLHI 231200Z NIL=
ZPX0283 231252@CAELT@GG SLZZYMYT@CAELT@231251 SLPSYGYS@CAELT@SABO SLPS 231300@CAELT@METAR SLPS 231300Z 09012KT 9999 NSC 30/25 Q1012 A2989 HR74=@CAELT@
ZPX0284 231253@CAELT@GG SLZZYMYT@CAELT@231254 SLSAZTZX@CAELT@SABO SLSA 231300@CAELT@METAR SLSA 231300Z 00000KT 9999 NSC 31/25 Q1011 A2986 HR70 CI=@CAELT@
ZPX0285 231253@CAELT@GG SLZZYMYT@CAELT@231254 SLSAZTZX@CAELT@SABO SLSA 231300@CAELT@METAR SLSA 231300Z 00000KT 9999 NSC 31/25 Q1011 A2986 HR70 CI=@CAELT@
ZPX0286 231254@CAELT@GG SLZZYMYT@CAELT@231249 SLETYMYC@CAELT@SABO SLET 231300Z@CAELT@METAR SLET 231300Z 08005KT 9999 NSC 32/19 Q1013 A2992 HR46 NOSIG=@CAELT@
ZPX0288 231254@CAELT@GG SLZZYMYT@CAELT@231255 SLVRYGYZ@CAELT@SABO SLVR 231300@CAELT@METAR SLVR 231300Z 06004KT 9999 FEW080 31/20 Q1013 A2993 HR50 NOSIG=@CAELT@
ZPX0289 231255@CAELT@GG SLZZYMYT@CAELT@231255 SLAGYSYX@CAELT@SABO SLAG 231300@CAELT@METAR SLAG 231300Z 02008KT 9999 NSC 29/13 Q1018 A3006 890.1 HR36 FU=@CAELT@
ZPX0290 231255@CAELT@GG SLZZYMYT@CAELT@231253 SLCAYGYS@CAELT@SABO SLCA 231300@CAELT@METAR SLCA 231300Z 00000KT 9999 NSC 27/14 Q1017 A3003 HR46 RWY NML=@CAELT@
ZPX0291 231255@CAELT@GG SLZZYMYT@CAELT@231255 SLSBYSYX@CAELT@SABO SLSB 231300@CAELT@METAR SLSB 231300Z 00000KT 7000 NSC 33/24 Q1010 A2985 HR59 RWY NML=@CAELT@
ZPX0292 231255@CAELT@GG SLZZYMYT@CAELT@231255 SLORYGYZ@CAELT@SABO SLOR 231300@CAELT@METAR SLOR 231300Z 36007KT 9999 FEW017 15/00 Q1037 A3064 657.7 HR38@CAELT@FU SE/S/SW/NW=@CAELT@
ZPX0293 231255@CAELT@GG SLZZYMYT@CAELT@231254 SLLPYFYA@CAELT@SABO SLCO 231300@CAELT@METAR SLCO 231300Z 21003KT 9999 FEW080 BKN200 29/25 Q1011 A2988@CAELT@984.5 HR80=@CAELT@
ZPX0294 231256@CAELT@GG SLZZYMYT@CAELT@231255 SLLPYGYZ@CAELT@SABO SLLP 231300@CAELT@METAR SLLP 231300Z 10008KT 9999 FEW006 BKN200 11/01 Q1040 A3073@CAELT@629.8 HR53 P4052 HZ SW/W AC NOSIG=@CAELT@
ZPX0295 231256@CAELT@GG SLZZYMYT@CAELT@231256 SLUYYGYS@CAELT@SABO SLUY 231300@CAELT@METAR SLUY 231300Z 28003KT 9999 NSC 14/M02 Q1036 A3062 660.2@CAELT@HR34 FU CI=@CAELT@
ZPX0296 231257@CAELT@GG SLZZYMYT@CAELT@231256 SLCBYGYZ@CAELT@SABO SLCB 231300@CAELT@METAR SLCB 231300Z 19003KT 9999 FEW033 22/09 Q1028 A3038 754.3 HR44@CAELT@FU AC NOSIG=@CAELT@
ZPX0297 231257@CAELT@GG SLZZYMYT@CAELT@231256 SLLPYFYA@CAELT@SABO SLRY 231300@CAELT@METAR SLRY 231300Z 00000KT 9999 NSC 33/24 Q1011 A2986 HR62 RWY NML@CAELT@
ZPX0300 231258@CAELT@GG SLZZYMYT@CAELT@231257 SLTRYGYZ@CAELT@SABO SLTR 231300@CAELT@METAR SLTR 231300Z 00000KT 8000 NSC 34/22 Q1011 A2987 993.1@CAELT@HR51 FU CI NOSIG=@CAELT@
ZPX0301 231258@CAELT@GG SLZZYMYT@CAELT@231254 SLRBYGYS@CAELT@SABO SLRB 231300@CAELT@METAR SLRB 23130Z 00000KT 9999 NSC 28/20 Q1015 A2997 HR62 RWY NML=@CAELT@
ZPX0302 231259@CAELT@GG SLZZYMYT@CAELT@231259 SLVRYFYC@CAELT@SABO SLVR 231300@CAELT@METAR SLVR 231300Z 06004KT 9999 FEW080 31/20 Q1013 A2993 HR50 NOSIG=@CAELT@METAR SLET 231300Z 08005KT 9999 NSC 32/19 Q1013 A2992 HR46 NOSIG=@CAELT@METAR SLAS 231300Z 00000KT 9999 SCT070 32/23 Q1014 A2994 HR60 FU RWY@CAELT@NML=@CAELT@METAR SLJV 231300Z 00000KT 9999 NSC 33/17 Q1013 A2991 HR40 RWY NML=METAR SLCP 231300Z 00000KT 9999 NSC 29/19 Q1017 A3003 HR54 CI RWY NMLMETAR SLSI 231300Z 00000KT 9999 NSC 32/17 Q1013 A2991 HR40 RWY NML=METAR SLTI 231300Z 02008KT 9999 NSC 34/16 Q1016 A3000 HR35 CI RWY NMLMETAR SLJE 231300Z 00000KT 9999 NSC 32/17 Q1016 A3000 HR42 RWY NML=METAR SLVG 231300Z 02007KT 9999 SCT023 21/12 Q1027 A3033 HR49 RWY NMLMETAR SLRB 231300Z 00000KT 9999 NSC 28/20 Q1015 A2997 HR62 RWY NML=METAR SLPS 231300Z 09012KT 9999 NSC 30/25 Q1012 A2989 HR74=METAR SLCA 231300Z 00000KT 9999 NSC 27/14 Q1017 A3003 HR46 RWY NML=
ZPX0303 231259@CAELT@GG SLZZYMYT@CAELT@231259 SLTJYGYZ@CAELT@SABO SLTJ 231300@CAELT@METAR SLTJ 132300Z 00000KT 9999 NSC 23/12 Q1020 A3013 815.2 HR52=@CAELT@
ZPX0304 231259@CAELT@GG SLZZYMYT@CAELT@231259 SLTRYGYS@CAELT@SABO SLTR 231300@CAELT@METAR SLTR 231300Z 00000KT 8000 NSC 34/22 Q1011 A2987 993.1@CAELT@HR51 FU CI NOSIG=@CAELT@METAR SLGM 231300Z 02006KT 9999 NSC 31/24 Q1011 A2987 HR68 CI=@CAELT@METAR SLRI 231300Z 00000KT 5000 FU NSC 30/24 Q1012 A2990 HR70=@CAELT@METAR SLJO 231300Z 00000KT 9999 NSC 34/23 Q1011 A2986 HR54 CIRWY NML=METAR SLRA 231300Z 00000KT 8000 NSC 33/23 Q1010 A2985 HR55 FUMETAR SLMG 231300Z 00000KT 9999 NSC 32/23 Q1011 A2987 HR60 RWY NML=METAR SLBU 231300Z 32004KT 8000 NSC 34/24 Q1012 A2989 HR55 FUMETAR SLSA 231300Z 00000KT 9999 NSC 31/25 Q1011 A2986 HR70 CI=METAR SLSR 231300Z 00000KT 8000 NSC 30/23 Q1011 A2986 HR67 FUMETAR SLSM 231300Z 00000KT 9999 NSC 31/26 Q1011 A2987 HR72 RWY NML=
ZPX0305 231259@CAELT@GG SLZZYMYT@CAELT@231255 SLRQYSYX@CAELT@SABO SLRQ 231300@CAELT@METAR SLRQ 231300Z 00000KT 9999 NSC 34/25 Q1011 A2988 HR59=@CAELT@
ZPX0308 231300@CAELT@GG SLZZYMYT@CAELT@231300 SLSBYSYX@CAELT@SABO SLSB 231300 CCA@CAELT@METAR COR SLSB 231300Z 00000KT 7000 NSC 33/24 Q1010 A2985 HR59 FU RWY@CAELT@NML=@CAELT@
ZPX0309 231300@CAELT@GG SLZZYMYT@CAELT@231300 SLLPYFYA@CAELT@SABO SLLP 231300@CAELT@METAR SLLP 231300Z 10008KT 9999 FEW006 BKN200 11/01 Q1040 A3073@CAELT@629.8 HR53 P4052 HZ SW/W AC NOSIG=@CAELT@METAR SLCO 231300Z 21003KT 9999 FEW080 BKN200 29/25 Q1011 A2988@CAELT@984.5 HR80=@CAELT@METAR SLRY 231300Z 00000KT 9999 NSC 33/24 Q1011 A2986 HR62 RWY NMLMETAR SLRQ 231300Z 00000KT 9999 NSC 34/25 Q1011 A2988 HR59=METAR SLSB 231300Z 00000KT 7000 NSC 33/24 Q1010 A2985 HR59 RWY NML=METAR SLOR 231300Z 36007KT 9999 FEW017 15/00 Q1037 A3064 657.7 HR38FU SE/S/SW/NW=METAR SLUY 231300Z 28003KT 9999 NSC 14/M02 Q1036 A3062 660.2HR34 FU CI=
ZPX0311 231302@CAELT@GG SLZZYMYT@CAELT@231301 SLLPYFYA@CAELT@SABO SLLP 231300 CCA@CAELT@METAR SLLP 231300Z 10008KT 9999 FEW006 BKN200 11/01 Q1040 A3073@CAELT@629.8 HR53 P4052 HZ SW/W AC NOSIG=@CAELT@METAR SLCO 231300Z 21003KT 9999 FEW080 BKN200 29/25 Q1011 A2988@CAELT@984.5 HR80=@CAELT@METAR SLRY 231300Z 00000KT 9999 NSC 33/24 Q1011 A2986 HR62 RWY NMLMETAR SLRQ 231300Z 00000KT 9999 NSC 34/25 Q1011 A2988 HR59=METAR COR SLSB 231300Z 00000KT 7000 NSC 33/24 Q1010 A2985 HR59 FU RWYNML=METAR SLOR 231300Z 36007KT 9999 FEW017 15/00 Q1037 A3064 657.7 HR38FU SE/S/SW/NW=METAR SLUY 231300Z 28003KT 9999 NSC 14/M02 Q1036 A3062 660.2HR34 FU CI=
ZPX0317 231307@CAELT@GG SLZZYMYT@CAELT@231302 SLCBYGYS@CAELT@SABO SLCB 231300@CAELT@METAR SLCB 231300Z 19003KT 9999 FEW033 22/09 Q1028 A3038 754.3 HR44@CAELT@FU AC NOSIG=@CAELT@METAR SLAL 231300Z 34010KT 9999 SCT017 14/08 Q1033 A3051 706.4 HR66@CAELT@METAR SLPO 231300Z 00000KT 9999 NSC 13/06 Q1041 A3076 640.5 HR62 FU=@CAELT@METAR SLAG 231300Z 02008KT 9999 NSC 29/13 Q1018 A3006 890.1 HR36 FU=METAR SLVM 231300Z NIL=METAR SLTJ 132300Z 00000KT 9999 NSC 23/12 Q1020 A3013 815.2 HR52=METAR SLYA 231300Z 06015KT 9999 NSC 31/17 Q1012 A2990 937.4 HR43=METAR SLBJ 231300Z NIL=METAR SLHI 231300Z NIL=
ZPX0319 231316@CAELT@GG SLZZYMYT@CAELT@231316 SLCBYGYS@CAELT@SABO SLCB 231300 RTD@CAELT@METAR SLCB 231300Z 19003KT 9999 FEW033 22/09 Q1028 A3038 754.3 HR44@CAELT@FU AC NOSIG=@CAELT@METAR SLAL 231300Z 34010KT 9999 SCT017 14/08 Q1033 A3051 706.4 HR66@CAELT@METAR SLPO 231300Z 00000KT 9999 NSC 13/06 Q1041 A3076 640.5 HR62 FU=@CAELT@METAR SLAG 231300Z 02008KT 9999 NSC 29/13 Q1018 A3006 890.1 HR36 FU=METAR RTD SLVM 231300Z 36008KT 9999 NSC 32/18 Q1012 A2989 HR46 FU CI=METAR SLTJ 132300Z 00000KT 9999 NSC 23/12 Q1020 A3013 815.2 HR52=METAR SLYA 231300Z 06015KT 9999 NSC 31/17 Q1012 A2990 937.4 HR43=METAR SLBJ 231300Z NIL=METAR SLHI 231300Z NIL=
ZPX0337 231351@CAELT@GG SLZZYMYT@CAELT@231350 SLPSYGYS@CAELT@SABO SLPS 231400@CAELT@METAR SLPS 231400Z 09014KT 9999 NSC 33/25 Q1012 A2989 HR65=@CAELT@
ZPX0341 231354@CAELT@GG SLZZYMYT@CAELT@231355 SLSBYSYX@CAELT@SABO SLSB 231400@CAELT@METAR SLSB 231400Z 30003KT 8000 NSC 35/24 Q1010 A2985 HR53 FU RWY NML=@CAELT@
ZPX0342 231354@CAELT@GG SLZZYMYT@CAELT@231348 SLETYMYC@CAELT@SABO SLET 231400Z@CAELT@METAR SLET 231400Z 32006KT 9999 NSC 33/20 Q1013 A2992 HR45 NOSG=@CAELT@
ZPX0344 231355@CAELT@GG SLZZYMYT@CAELT@231355 SLCAYGYS@CAELT@SABO SLCA 231400@CAELT@METAR SLCA 231400Z 00000KT 9999 NSC 30/15 Q1017 A3003 HR40 RWY NML=@CAELT@
ZPX0345 231355@CAELT@GG SLZZYMYT@CAELT@231355 SLLPYGYZ@CAELT@SABO SLLP 231400@CAELT@METAR SLLP 231400Z 12008KT 070V160 9999 FEW015 BKN200 13/00 Q1040@CAELT@A3073 629.7 HR42 P1380 FU AC NOSIG=@CAELT@
ZPX0347 231355@CAELT@GG SLZZYMYT@CAELT@231355 SLRQYSYX@CAELT@SABO SLRQ 231400@CAELT@METAR SLRQ 231400Z 00000KT 9999 NSC 35/25 Q1011 A2988 HR56 CI=@CAELT@
ZPX0348 231355@CAELT@GG SLZZYMYT@CAELT@231356 SLVRYGYZ@CAELT@SABO SLVR 231400@CAELT@METAR SLVR 231400Z 07006KT 9999 FEW080 32/21 Q1013 A2992 HR53 NOSIG=@CAELT@
ZPX0349 231356@CAELT@GG SLZZYMYT@CAELT@231355 SLLPYFYA@CAELT@SABO SLRY 231400@CAELT@METAR SLRY 231400Z 00000KT 9999 NSC 35/23 Q1011 A2987 HR51 RWY NML@CAELT@
ZPX0350 231356@CAELT@GG SLZZYMYT@CAELT@231352 SLTJYGYZ@CAELT@SABO SLTJ 231400@CAELT@METAR SLTJ 231400Z 18005KT 9999 NSC 26/11 Q1019 A3011 814.7 HR39 CI=@CAELT@
ZPX0351 231356@CAELT@GG SLZZYMYT@CAELT@231356 SLVRYFYC@CAELT@SABO SLVR 231400@CAELT@METAR SLVR 231400Z 07006KT 9999 FEW080 32/21 Q1013 A2992 HR53 NOSIG=@CAELT@METAR SLET 231400Z 32006KT 9999 NSC 33/20 Q1013 A2992 HR45 NOSIG=@CAELT@METAR SLAS 231400Z 00000KT 9999 NSC 34/23 Q1014 A2994 HR52 RWY NML=@CAELT@METAR SLJV 231400Z 00000KT 9999 NSC 34/18 Q1013 A2991 HR38 RWY NML=@CAELT@METAR SLCP 231400Z 09006KT 9999 NSC 31/21 Q1016 A3000 HR54 CI RWY NMLMETAR SLSI 231400Z 12005KT 9999 NSC 34/16 Q1013 A2991 HR35 RWY NML=METAR SLTI 231400Z 02008KT 9999 NSC 38/16 Q1015 A2997 HR28 CI RWY MNLMETAR SLJE 231400Z 00000KT 9999 NSC 36/18 Q1016 A3000 HR35 RWY NML=METAR SLVG 231400Z 36006KT 9999 SCT025 21/12 Q1027 A3033 HR53 RWY NMLMETAR SLRB 231400Z 00000KT 9999 NSC 32/21 Q1015 A2997 HR54 RWY NML=METAR SLPS 231400Z 09014KT 9999 NSC 33/25 Q1012 A2989 HR65=METAR SLCA 231400Z 00000KT 9999 NSC 30/15 Q1017 A3003 HR40 RWY NML=
ZPX0352 231356@CAELT@GG SLZZYMYT@CAELT@231356 SLSAZTZX@CAELT@SABO SLSA 231400@CAELT@METAR SLSA 231400Z 00000KT 9999 NSC 33/24 Q1011 A2986 HR58 CI=@CAELT@
ZPX0353 231356@CAELT@GG SLZZYMYT@CAELT@231356 SLAGYSYX@CAELT@SABO SLAG 231400@CAELT@METAR SLAG 231400Z 36008KT 9999 FEW015 31/13 Q1017 A3004 889.3 HR33@CAELT@
ZPX0355 231357@CAELT@GG SLZZYMYT@CAELT@231357 SLUYYGYS@CAELT@SABO SLUY 231400@CAELT@METAR SLUY 231400Z 30003KT 9999 NSC 15/M00 Q1036 A3061 660.0@CAELT@HR35 FU CI=@CAELT@
ZPX0356 231357@CAELT@GG SLZZYMYT@CAELT@231357 SLCBYGYZ@CAELT@SABO SLCB 231400@CAELT@METAR SLCB 231400Z 23005KT 9999 FEW033 25/09 Q1028 A3036 753.8 HR36@CAELT@FU AC NOSIG=@CAELT@
ZPX0357 231357@CAELT@GG SLZZYMYT@CAELT@231356 SLLPYFYA@CAELT@SABO SLCO 231400@CAELT@METAR SLCO 231400Z 25003KT 9999 FEW023 BKN200 33/26 Q1012 A2989@CAELT@984.6 HR69=@CAELT@
ZPX0358 231358@CAELT@GG SLZZYMYT@CAELT@231357 SLTRYGYZ@CAELT@SABO SLTR 231400@CAELT@METAR SLTR 231400Z 02003KT 8000 FEW020 36/23 Q1011 A2987 992.9@CAELT@HR47 FU NOSIG=@CAELT@
ZPX0359 231359@CAELT@GG SLZZYMYT@CAELT@231358 SLORYGYZ@CAELT@SABO SLOR 231400@CAELT@METAR SLOR 231400Z 30005KT 9999 FEW020 16/M01 Q1037 A3063 657.5 HR30@CAELT@FU SE/S/SW/NW=@CAELT@
ZPX0361 231400@CAELT@GG SLZZYMYT@CAELT@231359 SLLPYFYA@CAELT@SABO SLLP 231400@CAELT@METAR SLLP 231400Z 12008KT 070V160 9999 FEW015 BKN200 13/00 Q1040@CAELT@A3073 629.7 HR42 P1380 FU AC NOSIG=@CAELT@METAR SLCO 231400Z 25003KT 9999 FEW023 BKN200 33/26 Q1012 A2989@CAELT@984.6 HR69=@CAELT@METAR SLRY 231400Z 00000KT 9999 NSC 35/23 Q1011 A2987 HR51 RWY NMLMETAR SLRQ 231400Z 00000KT 9999 NSC 35/25 Q1011 A2988 HR56 CI=METAR SLSB 231400Z 30003KT 8000 NSC 35/24 Q1010 A2985 HR53 FU RWY NMLMETAR SLOR 231400Z 30005KT 9999 FEW020 16/M01 Q1037 A3063 657.5 HR30FU SE/S/SW/NW=METAR SLUY 231400Z 30003KT 9999 NSC 15/M00 Q1036 A3061 660.0HR35 FU CI=
ZPX0362 231401@CAELT@GG SLZZYMYT@CAELT@231359 SLLPYFYA@CAELT@SABO SLLP 231400@CAELT@METAR SLLP 231400Z 12008KT 070V160 9999 FEW015 BKN200 13/00 Q1040@CAELT@A3073 629.7 HR42 P1380 FU AC NOSIG=@CAELT@METAR SLCO 231400Z 25003KT 9999 FEW023 BKN200 33/26 Q1012 A2989@CAELT@984.6 HR69=@CAELT@METAR SLRY 231400Z 00000KT 9999 NSC 35/23 Q1011 A2987 HR51 RWY NML=METAR SLRQ 231400Z 00000KT 9999 NSC 35/25 Q1011 A2988 HR56 CI=METAR SLSB 231400Z 30003KT 8000 NSC 35/24 Q1010 A2985 HR53 FU RWY NMLMETAR SLOR 231400Z 30005KT 9999 FEW020 16/M01 Q1037 A3063 657.5 HR30FU SE/S/SW/NW=METAR SLUY 231400Z 30003KT 9999 NSC 15/M00 Q1036 A3061 660.0HR35 FU CI=
ZPX0363 231401@CAELT@GG SLZZYMYT@CAELT@231401 SLTRYGYS@CAELT@SABO SLTR 231400@CAELT@METAR SLTR 231400Z 02003KT 8000 FEW020 36/23 Q1011 A2987 992.9@CAELT@HR47 FU NOSIG=@CAELT@METAR SLGM 231400Z 00000KT 9999 FEW017 SCT200 33/24 Q1011 A2986 HR61=@CAELT@METAR SLRI 231400Z 00000KT 7000 NSC 33/24 Q1012 A2990 HR59 FU CI=@CAELT@METAR SLJO 231400Z 36003KT 9999 NSC 35/22 Q1011 A2986 HR49 RWY NML=METAR SLRA 231400Z 00000KT 8000 NSC 35/23 Q1010 A2984 HR48 FURWY NML=METAR SLMG 231400Z 00000KT 9999 NSC 34/23 Q1011 A2987 HR51 RWY NML=METAR SLBU 231400Z 32004KT 8000 NSC 36/23 Q1012 A2990 HR48 FUMETAR SLSA 231400Z 00000KT 9999 NSC 33/24 Q1011 A2986 HR58 CI=METAR SLSR 231400Z 00000KT 8000 NSC 33/24 Q1010 A2985 HR58 FUMETAR SLSM 231400Z 00000KT 9999 NSC 34/26 Q1011 A2987 HR62 RWY NML=
ZPX0365 231402@CAELT@GG SLZZYMYT@CAELT@231401 SLCBYGYS@CAELT@SABO SLCB 231400@CAELT@METAR SLCB 231400Z 23005KT 9999 FEW033 25/09 Q1028 A3036 753.8 HR36@CAELT@FU AC NOSIG=@CAELT@METAR SLAL 231400Z 01010KT 9999 FEW020 16/08 Q1033 A3050 706.3 HR57=@CAELT@METAR SLPO 231400Z 06007KT 9999 NSC 15/06 Q1040 A3073 639.7 HR55 FU=@CAELT@METAR SLAG 231400Z 36008KT 9999 FEW015 31/13 Q1017 A3004 889.3 HR33METAR SLVM 231400Z 36015G28KT 9999 NSC 33/18 Q1011 A2986 HR41 FU CI=METAR SLTJ 231400Z 18005KT 9999 NSC 26/11 Q1019 A3011 814.7 HR39 CI=METAR SLYA 231400Z 06015KT 9999 NSC 33/17 Q1012 A2989 936.8 HR40=METAR SLBJ 231400Z NIL=METAR SLHI 231400Z NIL=
ZPX0399 231451@CAELT@GG SLZZYMYT@CAELT@231450 SLPSYGYS@CAELT@SABO SLPS 231500@CAELT@METAR SLPS 231500Z 09013KT 9999 NSC 35/25 Q1012 A2989 HR58=@CAELT@
ZPX0400 231454@CAELT@GG SLZZYMYT@CAELT@231445 SLETYMYC@CAELT@SABO SLET 231500Z@CAELT@METAR SLET 231500Z 08008KT 9999 NSC 34/20 Q1012 A2990 HR46 NOSIG=@CAELT@
ZPX0401 231454@CAELT@GG SLZZYMYT@CAELT@231454 SLORYGYZ@CAELT@SABO SLOR 231500@CAELT@METAR SLOR 231500Z 33006KT 9999 FEW020 18/M01 Q1036 A3062 657.2 HR28@CAELT@FU S/SW=@CAELT@
ZPX0403 231454@CAELT@GG SLZZYMYT@CAELT@231454 SLSAZTZX@CAELT@SABO SLSA 231500@CAELT@METAR SLSA 231500Z 00000KT 9999 FEW017 35/25 Q1010 A2984 HR56=@CAELT@
ZPX0404 231455@CAELT@GG SLZZYMYT@CAELT@231455 SLAGYSYX@CAELT@SABO SLAG 231500@CAELT@METAR SLAG 231500Z 04010KT 9999 FEW017 32/14 Q1016 A3001 888.6 HR35@CAELT@
ZPX0405 231455@CAELT@GG SLZZYMYT@CAELT@231455 SLTJYGYZ@CAELT@SABO SLTJ 231500@CAELT@METAR SLTJ 231500Z 00000KT NSC 28/11 Q1018 A3008 813.7 HR35=@CAELT@
ZPX0406 231455@CAELT@GG SLZZYMYT@CAELT@231455 SLRQYSYX@CAELT@SABO SLRQ 231500@CAELT@METAR SLRQ 231500Z 00000KT 9999 FEW017 SCT200 37/24 Q1011 A2986 HR48=@CAELT@
ZPX0407 231455@CAELT@GG SLZZYMYT@CAELT@231455 SLCOZPZX@CAELT@SABO SLCO 231500@CAELT@METAR SLCO 231500Z 21003KT 9999 FEW023 BKN200 34/26 Q1011 A2988 984.4@CAELT@HR61=@CAELT@
ZPX0408 231455@CAELT@GG SLZZYMYT@CAELT@231456 SLVRYGYZ@CAELT@SABO SLVR 231500@CAELT@METAR SLVR 231500Z 02006KT 9999 FEW080 34/22 Q1012 A2989 HR48 NOSIG=@CAELT@
ZPX0409 231456@CAELT@GG SLZZYMYT@CAELT@231455 SLSBYSYX@CAELT@SABO SLSB 231500@CAELT@METAR SLSB 231500Z 34003KT 9999 NSC 36/24 Q1010 A2984 HR49 RWY NML=@CAELT@
ZPX0410 231457@CAELT@GG SLZZYMYT@CAELT@231456 SLCAYGYS@CAELT@SABO SLCA 231500@CAELT@METAR SLCA 231500Z 36010KT 9999 NSC 33/11 Q1015 A2997 HR28 RWY NML=@CAELT@
ZPX0412 231457@CAELT@GG SLZZYMYT@CAELT@231456 SLUYYGYS@CAELT@SABO SLUY 231500@CAELT@METAR SLUY 231500Z 32007KT 9999 FEW025 16/00 Q1035 A3059 659.6@CAELT@HR35 FU CI=@CAELT@
ZPX0413 231457@CAELT@GG SLZZYMYT@CAELT@231456 SLTRYGYZ@CAELT@SABO SLTR 231500@CAELT@METAR SLTR 231500Z 31005KT 8000 FEW020 37/22 Q1010 A2985 992.4@CAELT@HR43 FU NOSIG=@CAELT@
ZPX0414 231457@CAELT@GG SLZZYMYT@CAELT@231457 SLLPYGYZ@CAELT@SABO SLLP 231500@CAELT@METAR SLLP 231500Z 09006KT 090V150 9999 FEW017 SCT200 16/01 Q1040@CAELT@A3072 629.4 HR36 P93// FU AC NOSIG=@CAELT@
ZPX0417 231458@CAELT@GG SLZZYMYT@CAELT@231458 SLVRYFYC@CAELT@SABO SLVR 231500@CAELT@METAR SLVR 231500Z 02006KT 9999 FEW080 34/22 Q1012 A2989 HR48 NOSIG=@CAELT@METAR SLET 231500Z 08008KT 9999 NSC 34/20 Q1012 A2990 HR46 NOSIG=@CAELT@METAR SLAS 231500Z 34006KT 9999 FEW020 35/23 Q1014 A2994 HR50 RWY NML@CAELT@METAR SLJV 231500Z 00000KT 9999 NSC 35/17 Q1012 A2988 HR34 RWY NML=@CAELT@METAR SLCP 231500Z 00000KT 9999 NSC 32/20 Q1016 A3000 HR47 CI RWY NMLMETAR SLSI 231500Z 12006KT 9999 NSC 35/18 Q1012 A2988 HR38 RWY NML=METAR SLTI 231500Z 03010KT 9999 NSC 38/16 Q1015 A2997 HR28 RWY NML=METAR SLJE 231500Z 36006KT 9999 NSC 38/16 Q1015 A2997 HR29 RWY NML=METAR SLVG 231500Z 35009KT 9999 SCT025 23/12 Q1026 A3030 HR45 RWY NMLMETAR SLRB 231500Z 00000KT 9999 NSC 35/19 Q1014 A2994 HR40 RWY NML=METAR SLPS 231500Z 09013KT 9999 NSC 35/25 Q1012 A2989 HR58=METAR SLCA 231500Z 36010KT 9999 NSC 33/11 Q1015 A2997 HR28 RWY NML=
ZPX0418 231458@CAELT@GG SLZZYMYT@CAELT@231458 SLCBYGYZ@CAELT@SABO SLCB 231500@CAELT@METAR SLCB 231500Z 16006KT 9999 FEW033 26/08 Q1026 A3032 752.8 HR31@CAELT@FU NOSIG=@CAELT@
ZPX0420 231459@CAELT@GG SLZZYMYT@CAELT@231459 SLTRYGYS@CAELT@SABO SLTR 231500@CAELT@METAR SLTR 231500Z 31005KT 8000 FEW020 37/22 Q1010 A2985 992.4@CAELT@HR43 FU NOSIG=@CAELT@METAR SLGM 231500Z 16006KT 9999 SCT017 35/25 Q1010 A2983 HR54=@CAELT@METAR SLRI 231500Z 00000KT 8000 FEW017 SCT200 34/24 Q1012 A2989 HR58@CAELT@METAR SLJO 231500Z 34006KT 9999 FEW017 36/22 Q1010 A2985 HR45RWY NML=METAR SLRA 231500Z 10005KT 8000 FEW023 37/22 Q1010 A2984 HR42 FUMETAR SLMG 231500Z 14004KT 9999 FEW017 36/23 Q1011 A2986 HR48METAR SLBU 231500Z 27004KT 9999 FEW017 38/23 Q1011 A2988 HR42METAR SLSA 231500Z 00000KT 9999 FEW017 35/25 Q1010 A2984 HR56=METAR SLSR 231500Z 27004KT 8000 FEW017 SCT200 34/24 Q1010 A2985 HR56FU RWY NML=METAR SLSM 231500Z 32006KT 9999 NSC 35/24 Q1011 A2986 HR55 RWY NML=
ZPX0423 231500@CAELT@GG SLZZYMYT@CAELT@231500 SLCBYGYS@CAELT@SABO SLCB 231500@CAELT@METAR SLCB 231500Z 16006KT 9999 FEW033 26/08 Q1026 A3032 752.8 HR31@CAELT@FU NOSIG=@CAELT@METAR SLAL 231500Z 01006KT 9999 FEW020 18/07 Q1032 A3049 705.9 HR49=@CAELT@METAR SLPO 231500Z 05008KT 9999 FEW020 16/04 Q1039 A3070 639.2 HR47@CAELT@METAR SLAG 231500Z 04010KT 9999 FEW017 32/14 Q1016 A3001 888.6 HR35METAR SLVM 231500Z 36018G30KT 9999 NSC 36/20 Q1010 A2983 HR40 FU CI=METAR SLTJ 231500Z 00000KT NSC 28/11 Q1018 A3008 813.7 HR35=METAR SLYA 231500Z 06012G25KT 9999 NSC 35/17 Q1011 A2986 935.9 HR35=METAR SLBJ 231500Z NIL=METAR SLHI 231500Z NIL=
ZPX0429 231503@CAELT@GG SLZZYMYT@CAELT@231500 SLLPYFYA@CAELT@SABO SLLP 231500@CAELT@METAR SLLP 231500Z 09006KT 090V150 9999 FEW017 SCT200 16/01 Q1040@CAELT@A3072 629.4 HR36 P93// FU AC NOSIG=@CAELT@METAR SLCO 231500Z 21003KT 9999 FEW023 BKN200 34/26 Q1011 A2988 984.4@CAELT@HR61=@CAELT@METAR SLRY 231500Z 00000KT 9999 FEW027 37/22 Q1011 A2986HR42 RWY NML=METAR SLRQ 231500Z 00000KT 9999 FEW017 SCT200 37/24 Q1011 A2986 HR48=METAR SLSB 231500Z 34003KT 9999 NSC 36/24 Q1010 A2984 HR49 RWY NML=METAR SLOR 231500Z 33006KT 9999 FEW020 18/M01 Q1036 A3062 657.2 HR28FU S/SW=METAR SLUY 231500Z 32007KT 9999 FEW025 16/00 Q1035 A3059 659.6HR35 FU CI=
ZPX0463 231551@CAELT@GG SLZZYMYT@CAELT@231551 SLPSYGYS@CAELT@SABO SLPS 231600@CAELT@METAR SLPS 231600Z 36015KT 9999 NSC 38/25 Q1011 A2986 HR51=@CAELT@
ZPX0466 231554@CAELT@GG SLZZYMYT@CAELT@231554 SLSAZTZX@CAELT@SABO SLSA 231600@CAELT@METAR SLSA 231600Z 00000KT 9999 SCT017 35/24 Q1009 A2982 HR53=@CAELT@
ZPX0467 231554@CAELT@GG SLZZYMYT@CAELT@231555 SLORYGYZ@CAELT@SABO SLOR 231600@CAELT@METAR SLOR 231600Z 36007KT 9999 FEW023 21/M02 Q1036 A3060 656.8 HR22=@CAELT@
ZPX0468 231554@CAELT@GG SLZZYMYT@CAELT@231555 SLAGYSYX@CAELT@SABO SLAG 231600@CAELT@METAR SLAG 231600Z 07010KT 9999 FEW020 32/14 Q1015 A2998 887.5 HR34@CAELT@
ZPX0469 231555@CAELT@GG SLZZYMYT@CAELT@231555 SLCOZPZX@CAELT@SABO SLCO 231600@CAELT@METAR SLCO 231600Z 25005KT 9999 SCT023 BKN200 35/26 Q1010 A2985 983.4@CAELT@HR57=@CAELT@
ZPX0470 231555@CAELT@GG SLZZYMYT@CAELT@231555 SLLPYGYZ@CAELT@SABO SLLP 231600@CAELT@METAR SLLP 231600Z 11008KT 040V200 9999 FEW020 17/01 Q1039 A3069@CAELT@628.9 HR35 P93// FU AC/CI NOSIG=@CAELT@
ZPX0472 231555@CAELT@GG SLZZYMYT@CAELT@231554 SLLPYFYA@CAELT@SABO SLRY 231600@CAELT@METAR SLRY 231600Z 00000KT 9999 FEW027 38/22 Q1010 A2983@CAELT@HR39 RWY NML@CAELT@
ZPX0473 231555@CAELT@GG SLZZYMYT@CAELT@231556 SLVRYGYZ@CAELT@SABO SLVR 231600@CAELT@METAR SLVR 231600Z 36010KT 9999 FEW023 35/21 Q1011 A2987 HR45 NOSIG=@CAELT@
ZPX0474 231556@CAELT@GG SLZZYMYT@CAELT@231555 SLETYMYC@CAELT@SABO SLET 231600Z@CAELT@METAR SLET 231600Z 31010KT 9999 NSC 35/21 Q1011 A2987 HR 44 NOSIG=@CAELT@
ZPX0475 231556@CAELT@GG SLZZYMYT@CAELT@231555 SLTJYGYZ@CAELT@SABO SLTJ 231600@CAELT@METAR SLTJ 231600Z13006KT 9999 FEW036 30/10 Q1017 A3005 812.8 HR27=@CAELT@
ZPX0476 231556@CAELT@GG SLZZYMYT@CAELT@231555 SLSBYSYX@CAELT@SABO SLSB 231600@CAELT@METAR SLSB 231600Z VRB02KT 9999 NSC 37/25 Q1010 A2984 HR51 RWY NML=@CAELT@
ZPX0477 231557@CAELT@GG SLZZYMYT@CAELT@231557 SLCAYGYS@CAELT@SABO SLCA 231600@CAELT@METAR SLCA 231600Z 36010KT 9999 NSC 35/12 Q1014 A2994 HR25 RWY NML=@CAELT@
ZPX0478 231557@CAELT@GG SLZZYMYT@CAELT@231557 SLUYYGYS@CAELT@SABO SLUY 231600@CAELT@METAR SLUY 231600Z 32006KT 9999 FEW025 FEW027CB 18/01 Q1034 A3056@CAELT@658.9 HR31 CB/SH NE FU CI=@CAELT@
ZPX0479 231557@CAELT@GG SLZZYMYT@CAELT@231557 SLCBYGYZ@CAELT@SABO SLCB 231600@CAELT@METAR SLCB 231600Z 15006KT 9999 FEW036 26/06 Q1025 A3028 751.8 HR26@CAELT@FU CI NOSIG=@CAELT@
ZPX0480 231558@CAELT@GG SLZZYMYT@CAELT@231556 SLTRYGYZ@CAELT@SABO SLTR 231600@CAELT@METAR SLTR 231600Z 34003KT 9999 FEW020 36/22 Q1010 A2983 991.5@CAELT@HR42 NOSIG=@CAELT@
ZPX0481 231558@CAELT@GG SLZZYMYT@CAELT@231558 SLVRYFYC@CAELT@SABO SLVR 231600@CAELT@METAR SLVR 231600Z 36010KT 9999 FEW023 35/21 Q1011 A2987 HR45 NOSIG=@CAELT@METAR SLET 231600Z 31010KT 9999 NSC 35/21 Q1011 A2987 HR 44 NOSIG=@CAELT@METAR SLAS 231600Z 34006KT 9999 FEW020 35/23 Q1013 A2991 HR47 RWY NML@CAELT@METAR SLCP 231600Z 00000KT 9999 NSC 34/19 Q1015 A2997 HR43 CI RWY NML@CAELT@METAR SLSI 231600Z 12005KT 9999 NSC 36/20 Q1012 A2988 HR40 RWY NML=METAR SLRB 231600Z 03005KT 9999 NSC 36/19 Q1013 A2991 HR36 RWY NML=METAR SLPS 231600Z 36015KT 9999 NSC 38/25 Q1011 A2986 HR51=METAR SLCA 231600Z 36010KT 9999 NSC 35/12 Q1014 A2994 HR25 RWY NML=
ZPX0482 231558@CAELT@GG SLZZYMYT@CAELT@231558 SLRQYSYX@CAELT@SABO SLRQ 231600@CAELT@METAR SLRQ 231600Z 00000KT 9999 FEW017 SCT200 38/25 Q1010 A2983 HR47=@CAELT@
ZPX0483 231559@CAELT@GG SLZZYMYT@CAELT@231558 SLLPYFYA@CAELT@SABO SLLP 231600@CAELT@METAR SLLP 231600Z 11008KT 040V200 9999 FEW020 17/01 Q1039 A3069@CAELT@628.9 HR35 P93// FU AC/CI NOSIG=@CAELT@METAR SLCO 231600Z 25005KT 9999 SCT023 BKN200 35/26 Q1010 A2985 983.4@CAELT@HR57=@CAELT@METAR SLRY 231600Z 00000KT 9999 FEW027 38/22 Q1010 A2983HR39 RWY NMLMETAR SLRQ 231600Z 00000KT 9999 FEW017 SCT200 38/25 Q1010 A2983 HR47=METAR SLSB 231600Z VRB02KT 9999 NSC 37/25 Q1010 A2984 HR51 RWY NML=METAR SLOR 231600Z 36007KT 9999 FEW023 21/M02 Q1036 A3060 656.8 HR22=METAR SLUY 231600Z 32006KT 9999 FEW025 FEW027CB 18/01 Q1034 A3056658.9 HR31 CB/SH NE FU CI=
ZPX0484 231559@CAELT@GG SLZZYMYT@CAELT@231559 SLTRYGYS@CAELT@SABO SLTR 231600@CAELT@METAR SLTR 231600Z 34003KT 9999 FEW020 36/22 Q1010 A2983 991.5@CAELT@HR42 NOSIG=@CAELT@METAR SLGM 231600Z 16003KT 9999 SCT017 36/23 Q1009 A2982 HR48=@CAELT@METAR SLRI 231600Z 36005KT 8000 FEW017 SCT200 35/24 Q1011 A2986 HR56@CAELT@METAR SLJO 231600Z 34008KT 9999 FEW017 37/22 Q1010 A2984 HR42RWY NML=METAR SLRA 231600Z 09004KT 8000 TS VCSH FEW023 FEW025CB 38/21 Q1010A2983 HR37 CB/TS/SH SE RWY NML=METAR SLMG 231600Z 02003KT 9999 FEW017 37/22 Q1010 A2984 HR42METAR SLBU 231600Z 00000KT 9999 SCT017 39/22 Q1010 A2985 HR38METAR SLSA 231600Z 00000KT 9999 SCT017 35/24 Q1009 A2982 HR53=METAR SLSR 231600Z 27004KT 8000 FEW017 SCT200 35/24 Q1009 A2980 HR51FU RWY NML=METAR SLSM 231600Z 27006KT 9999 NSC 35/24 Q1010 A2984 HR51 RWY NML=
ZPX0489 231602@CAELT@GG SLZZYMYT@CAELT@231602 SLCBYGYS@CAELT@SABO SLCB 231600@CAELT@METAR SLCB 231600Z 15006KT 9999 FEW036 26/06 Q1025 A3028 751.8 HR26@CAELT@FU CI NOSIG=@CAELT@METAR SLAL 231600Z 08010KT 9999 FEW020 20/06 Q1031 A3045 705.2 HR42=@CAELT@METAR SLPO 231600Z 07010KT 9999 FEW020 17/04 Q1038 A3067 638.5 HR42@CAELT@METAR SLAG 231600Z 07010KT 9999 FEW020 32/14 Q1015 A2998 887.5 HR34METAR SLVM 231600Z 36017G28KT 9999 NSC 38/22 Q1008 A2979 HR39 FU CI=METAR SLTJ 231600Z13006KT 9999 FEW036 30/10 Q1017 A3005 812.8 HR27=METAR SLYA 231600Z 06012G25KT 9999 NSC 36/18 Q1009 A2982 934.8 HR34=METAR SLBJ 231600Z NIL=METAR SLHI 231600Z NIL=
ZPX0510 231653@CAELT@GG SLZZYMYT@CAELT@231651 SLETYMYC@CAELT@SABO SLET 231700Z@CAELT@METAR SLET 231700Z 29013KT 9999 FEW015 36/21 Q1010 A2985 HR40 NOSIG=@CAELT@
ZPX0511 231654@CAELT@GG SLZZYMYT@CAELT@231655 SLAGYSYX@CAELT@SABO SLAG 231700@CAELT@METAR SLAG 231700Z 03010KT 9999 FEW023 32/14 Q1014 A2995 886.5 HR33@CAELT@
ZPX0512 231654@CAELT@GG SLZZYMYT@CAELT@231654 SLSAZTZX@CAELT@SABO SLSA 231700@CAELT@METAR SLSA 231700Z 00000KT 9999 SCT017 36/23 Q1009 A2980 HR48=@CAELT@
ZPX0513 231655@CAELT@GG SLZZYMYT@CAELT@231655 SLVRYGYZ@CAELT@SABO SLVR 231700@CAELT@METAR SLVR 231700Z 35010KT 9999 FEW023 36/21 Q1010 A2984 HR41 NOSIG=@CAELT@
ZPX0514 231655@CAELT@GG SLZZYMYT@CAELT@231655 SLLPYGYZ@CAELT@SABO SLLP 231700@CAELT@METAR SLLP 231700Z 12011KT 090V150 9999 FEW020 18/01 Q1038 A3067@CAELT@628.4 HR32 P3483 FU AC/CI NOSIG=@CAELT@
ZPX0515 231655@CAELT@GG SLZZYMYT@CAELT@231655 SLTJYGYZ@CAELT@SABO SLTJ 231700@CAELT@METAR SLTJ 231700Z 17012KT 9999 FEW036 32/10 Q1016 A3002 812.2 HR26=@CAELT@
ZPX0516 231655@CAELT@GG SLZZYMYT@CAELT@231655 SLRQYSYX@CAELT@SABO SLRQ 231700@CAELT@METAR SLRQ 231700Z 36004KT 9999 SCT017 38/23 Q1009 A2981 HR44=@CAELT@
ZPX0517 231655@CAELT@GG SLZZYMYT@CAELT@231655 SLCOZPZX@CAELT@SABO SLCO 231700@CAELT@METAR SLCO 231700Z 20006KT 9999 SCT023 BKN200 35/25 Q1010 A2982 982.6@CAELT@HR56=@CAELT@
ZPX0518 231655@CAELT@GG SLZZYMYT@CAELT@231655 SLTRYGYZ@CAELT@SABO SLTR 231700@CAELT@METAR SLTR 231700Z 30005KT 9999 FEW020 37/22 Q1008 A2979 990.4@CAELT@HR41 NOSIG=@CAELT@
ZPX0519 231655@CAELT@GG SLZZYMYT@CAELT@231655 SLCAYGYS@CAELT@SABO SLCA 231700@CAELT@METAR SLCA 231700Z 36010KT 9999 NSC 36/10 Q1013 A2991 HR22 RWY NML=@CAELT@
ZPX0521 231656@CAELT@GG SLZZYMYT@CAELT@231656 SLVRYFYC@CAELT@SABO SLVR 231700@CAELT@METAR SLVR 231700Z 35010KT 9999 FEW023 36/21 Q1010 A2984 HR41 NOSIG=@CAELT@METAR SLET 231700Z 29013KT 9999 FEW015 36/21 Q1010 A2985 HR40 NOSIG=@CAELT@METAR SLAS 231700Z 34008KT 9999 SCT020 36/23 Q1011 A2986 HR47 RWY NML@CAELT@METAR SLCP 231700Z 00000KT 9999 FEW020 34/18 Q1014 A2994 HR40 RWY NML@CAELT@METAR SLSI 231700Z 00000KT 9999 NSC 37/21 Q1011 A2985 HR40 RWY NML=METAR SLRB 231700Z 00000KT 9999 NSC 37/20 Q1012 A2988 HR36 RWY NML=METAR SLPS 231700Z 36010KT 9999 NSC 39/25 Q1010 A2983 HR47=METAR SLCA 231700Z 36010KT 9999 NSC 36/10 Q1013 A2991 HR22 RWY NML=
ZPX0522 231657@CAELT@GG SLZZYMYT@CAELT@231656 SLORYGYZ@CAELT@SABO SLOR 231700@CAELT@METAR SLOR 231700Z 25009KT 9999 FEW023 23/M02 Q1035 A3057 656.0 HR19@CAELT@
ZPX0523 231657@CAELT@GG SLZZYMYT@CAELT@231657 SLLPYFYA@CAELT@SABO SLRY 231700@CAELT@METAR SLRY 231700Z 00000KT 9999 FEW027 39/22 Q1009 A2981 HR37@CAELT@RWY NML=@CAELT@
ZPX0524 231657@CAELT@GG SLZZYMYT@CAELT@231657 SLUYYGYS@CAELT@SABO SLUY 231700@CAELT@METAR SLUY 231700Z 31008KT 9999 FEW027 FEW030CB 20/00 Q1033 A3053@CAELT@658.1 HR27 CB/SH NE CI=@CAELT@
ZPX0525 231658@CAELT@GG SLZZYMYT@CAELT@231658 SLSBYSYX@CAELT@SABO SLSB 231700@CAELT@METAR SLSB 231700Z 00000KT 9999 FEW020 38/23 Q1008 A2979 HR44 RWY NML=@CAELT@
ZPX0526 231659@CAELT@GG SLZZYMYT@CAELT@231659 SLLPYFYA@CAELT@SABO SLLP 231700@CAELT@METAR SLLP 231700Z 12011KT 090V150 9999 FEW020 18/01 Q1038 A3067@CAELT@628.4 HR32 P3483 FU AC/CI NOSIG=@CAELT@METAR SLCO 231700Z 20006KT 9999 SCT023 BKN200 35/25 Q1010 A2982 982.6@CAELT@HR56=@CAELT@METAR SLRY 231700Z 00000KT 9999 FEW027 39/22 Q1009 A2981 HR37RWY NML=METAR SLRQ 231700Z 36004KT 9999 SCT017 38/23 Q1009 A2981 HR44=METAR SLSB 231700Z 00000KT 9999 FEW020 38/23 Q1008 A2979 HR44 RWY NMLMETAR SLOR 231700Z 25009KT 9999 FEW023 23/M02 Q1035 A3057 656.0 HR19METAR SLUY 231700Z 31008KT 9999 FEW027 FEW030CB 20/00 Q1033 A3053658.1 HR27 CB/SH NE CI=
ZPX0527 231659@CAELT@GG SLZZYMYT@CAELT@231659 SLCBYGYZ@CAELT@SABO SLCB 231700@CAELT@METAR SLCB 231700Z 14008KT 9999 FEW033 28/06 Q1023 A3023 750.4 HR25@CAELT@FU CI NOSIG=@CAELT@
ZPX0530 231701@CAELT@GG SLZZYMYT@CAELT@231659 SLTRYGYS@CAELT@SABO SLTR 231700@CAELT@METAR SLTR 231700Z 30005KT 9999 FEW020 37/22 Q1008 A2979 990.4@CAELT@HR41 NOSIG=@CAELT@METAR SLRI 231700Z 34005KT 8000 FEW017 35/24 Q1010 A2984 HR54 FU CI=@CAELT@METAR SLGM 231700Z 00000KT 9999 SCT017 37/23 Q1009 A2980 HR47=@CAELT@METAR SLJO 231700Z 03004KT 9999 SCT017 38/22 Q1009 A2982 HR41RWY NML=METAR SLRA 231700Z 09006KT 8000 FEW023 38/19 Q1009 A2981 HR33 FURETS CI RWY NML=METAR SLMG 231700Z 00000KT 9999 SCT017 38/22 Q1009 A2982 HR39METAR SLBU 231700Z 00000KT 9999 SCT017 39/22 Q1009 A2982 HR37METAR SLSA 231700Z 00000KT 9999 SCT017 36/23 Q1009 A2980 HR48=METAR SLSR 231700Z 27006KT 8000 FEW017 SCT200 37/22 Q1008 A2978 HR44FU RWY NML=METAR SLSM 231700Z 00000KT 9999 FEW017 36/24 Q1009 A2981 HR50
ZPX0538 231709@CAELT@GG SLZZYMYT@CAELT@231709 SLCBYGYS@CAELT@SABO SLCB 231700@CAELT@METAR SLCB 231700Z 14008KT 9999 FEW033 28/06 Q1023 A3023 750.4 HR25@CAELT@FU CI NOSIG=@CAELT@METAR SLAL 231700Z 07009KT 9999 FEW023 FEW033CB SCT200 21/05 Q1030@CAELT@A3043 704.6 HR38 CB/DIST/SW=@CAELT@METAR SLPO 2321700Z NIL=METAR SLAG 231700Z 03010KT 9999 FEW023 32/14 Q1014 A2995 886.5 HR33METAR SLVM 231700Z 36017G30KT 9999 NSC 38/22 Q1007 A2975 HR39 FU CI=METAR SLTJ 231700Z 17012KT 9999 FEW036 32/10 Q1016 A3002 812.2 HR26=METAR SLYA 231700Z 06012G25KT 9999 NSC 36/18 Q1009 A2980 934.0 HR34=METAR SLBJ 231700Z NIL=METAR SLHI 231700Z NIL=
ZPX0561 231751@CAELT@GG SLZZYMYT@CAELT@231750 SLPSYGYS@CAELT@SABO SLPS 231800@CAELT@METAR SLPS 231800Z 36013KT 9999 NSC 39/25 Q1009 A2980 HR46=@CAELT@
ZPX0562 231752@CAELT@GG SLZZYMYT@CAELT@231751 SLETYMYC@CAELT@SABO SLET 231800Z@CAELT@METAR SLET 231800Z 30010KT 9999 FEW016 36/20 Q1009 A2981 HR38 NOSIG=@CAELT@
ZPX0563 231753@CAELT@GG SLZZYMYT@CAELT@231753 SLRBYGYS@CAELT@SABO SLRB 231800@CAELT@METAR SLRB 231800Z 00000KT 9999 NSC 37/20 Q1012 A2988 HR36 RWY NML=@CAELT@
ZPX0564 231753@CAELT@GG SLZZYMYT@CAELT@231754 SLAGYSYX@CAELT@SABO SLAG 231800@CAELT@METAR SLAG 231800Z 08009KT 9999 FEW025 SCT200 34/15 Q1012 A2991 885.5@CAELT@HR32 FU=@CAELT@
ZPX0566 231754@CAELT@GG SLZZYMYT@CAELT@231755 SLORYGYZ@CAELT@SABO SLOR 231800@CAELT@METAR SLOR 231800Z 36010KT 9999 SCT023 FEW023CB 21/M02 Q1034 A3053@CAELT@655.2 HR20 CB/SH SE CI=@CAELT@
ZPX0567 231754@CAELT@GG SLZZYMYT@CAELT@231754 SLSAZTZX@CAELT@SABO SLSA 231800@CAELT@METAR SLSA 231800Z 00000KT 9999 FEW017 36/23 Q1008 A2979 HR47=@CAELT@
ZPX0568 231755@CAELT@GG SLZZYMYT@CAELT@231755 SLSBYSYX@CAELT@SABO SLSB 231800@CAELT@METAR SLSB 231800Z 00000KT 8000 FEW020 SCT200 38/22 Q1008 A2977 HR40@CAELT@FU RWY NML=@CAELT@
ZPX0569 231755@CAELT@GG SLZZYMYT@CAELT@231755 SLLPYGYZ@CAELT@SABO SLLP 231800@CAELT@METAR SLLP 231800Z 10011KT 060V140 9999 FEW020 FEW023CB 19/01 Q1037@CAELT@A3065 627.8 HR31 P93// CB/SH S/NW AC/CI NOSIG=@CAELT@
ZPX0571 231755@CAELT@GG SLZZYMYT@CAELT@231755 SLRQYSYX@CAELT@SABO SLRQ 231800@CAELT@METAR SLRQ 231800Z 36004KT 9999 SCT020 SCT200 39/23 Q1008 A2976 983.9@CAELT@HR40=@CAELT@
ZPX0572 231755@CAELT@GG SLZZYMYT@CAELT@231755 SLCOZPZX@CAELT@SABO SLCO 231800@CAELT@METAR SLCO 231800Z VRB02KT 9999 SCT025 BKN200 36/25 Q1008 A2979 981.5@CAELT@HR54=@CAELT@
ZPX0573 231756@CAELT@GG SLZZYMYT@CAELT@231756 SLTRYGYZ@CAELT@SABO SLTR 231800@CAELT@METAR SLTR 231800Z 34005KT 9999 FEW020 37/21 Q1008 A2977 989.8@CAELT@HR39 NOSIG=@CAELT@
ZPX0574 231756@CAELT@GG SLZZYMYT@CAELT@231757 SLVRYGYZ@CAELT@SABO SLVR 231800@CAELT@METAR SLVR 231800Z 34016KT 9999 FEW023 37/21 Q1009 A2981 HR41 NOSIG=@CAELT@
ZPX0578 231757@CAELT@GG SLZZYMYT@CAELT@231756 SLTJYGYZ@CAELT@SABO SLTJ 231800@CAELT@METAR SLTJ 231800Z 09010KT 9999 FEW040 FEW043TCU 32/11 Q1015 A3000@CAELT@HR26 TCU SW CI=@CAELT@
ZPX0579 231759@CAELT@GG SLZZYMYT@CAELT@231759 SLVRYFYC@CAELT@SABO SLVR 231800@CAELT@METAR SLVR 231800Z 34016KT 9999 FEW023 37/21 Q1009 A2981 HR41 NOSIG=@CAELT@METAR SLET 231800Z 30010KT 9999 FEW016 36/20 Q1009 A2981 HR38 NOSIG=@CAELT@METAR SLAS 231800Z 36008KT 9999 SCT020 36/23 Q1010 A2986 HR47 RWY NML@CAELT@METAR SLJV 231800Z 00000KT 9999 NSC 36/17 Q1009 A2980 HR33 RWY NML=@CAELT@METAR SLCP 231800Z 00000KT 9999 SCT020 35/20 Q1013 A2991 HR43 RWY NMLMETAR SLSI 231800Z 00000KT 9999 NSC 37/20 Q1010 A2983 HR37 RWY NML=METAR SLTI 231800Z 36006KT 9999 SCT020 41/19 Q1011 A2985 HR28 RWY NMLMETAR SLJE 231800Z 36008KT 9999 NSC 40/17 Q1012 A2988 HR27 RWY NML=METAR SLVG 231800Z 36008KT 9999 SCT027 26/13 Q1024 A3024 HR40 RWY NMLMETAR SLRB 231800Z 00000KT 9999 NSC 37/20 Q1012 A2988 HR36 RWY NML=METAR SLPS 231800Z 36013KT 9999 NSC 39/25 Q1009 A2980 HR46=METAR SLCA 231800Z 36010KT 9999 NSC 36/11 Q1011 A2985 HR22 RWY NML=
ZPX0580 231759@CAELT@GG SLZZYMYT@CAELT@231759 SLLPYFYA@CAELT@SABO SLRY 231800@CAELT@METAR SLRY 231800Z 00000KT 9999 FEW027 BKN200 38/22 Q1008 A2979 HR38@CAELT@RWY NML=@CAELT@
ZPX0581 231800@CAELT@GG SLZZYMYT@CAELT@231759 SLCBYGYZ@CAELT@SABO SLCB 231800@CAELT@METAR SLCB 231800Z 21006KT 9999 FEW036 FEW040CB 30/06 Q1022 A3018 749@CAELT@.1 HR21 CB/NW/N FU AC CI NOSIG=@CAELT@
ZPX0584 231800@CAELT@GG SLZZYMYT@CAELT@231800 SLTJYGYZ@CAELT@SABO SLTJ 231800 CCB@CAELT@METAR COR SLTJ 231800Z 09010KT 9999 FEW040 FEW043TCU 32/11 Q1015@CAELT@A3000 811.4 HR26 TCU SW CI=@CAELT@
ZPX0585 231800@CAELT@GG SLZZYMYT@CAELT@231800 SLCBYGYS@CAELT@SABO SLCB 231800@CAELT@METAR SLCB 231800Z 21006KT 9999 FEW036 FEW040CB 30/06 Q1022 A3018@CAELT@749.1 HR21 CB/NW/N FU AC CI NOSIG=@CAELT@METAR SLAL 231800Z 35007KT 9999 FEW023 FEW033CB BKN200 21/07 Q1029@CAELT@A3039 703.7 HR39 CB SW/W=@CAELT@METAR SLPO 231800Z NIL=METAR SLAG 231800Z 08009KT 9999 FEW025 SCT200 34/15 Q1012 A2991 885.5HR32 FU=METAR SLVM 231800Z 36015G28KT 9999 NSC 39/23 Q1006 A2972 HR40 FU CI=METAR SLTJ 231800Z 09010KT 9999 FEW040 FEW043TCU 32/11 Q1015 A3000HR26 TCU SW CI=METAR SLYA 231800Z 06012G25KT 9999 NSC 36/17 Q1006 A2973 932.0 HR33=METAR SLBJ 231800Z NIL=METAR SLHI 231800Z NIL=
ZPX0586 231801@CAELT@GG SLZZYMYT@CAELT@231800 SLTRYGYS@CAELT@SABO SLTR 231800@CAELT@METAR SLTR 231800Z 34005KT 9999 FEW020 37/21 Q1008 A2977 989.8@CAELT@HR39 NOSIG=@CAELT@METAR SLGM 231800Z 00000KT 9999 SCT017 37/23 Q1007 A2975 HR44=@CAELT@METAR SLRI 231800Z 00000KT 9999 SCT017 36/24 Q1009 A2980 HR51=@CAELT@METAR SLJO 231800Z NIL=METAR SLRA 231800Z 09008KT 8000 SCT020 39/20 Q1008 A2978 HR34 FURWY NML=METAR SLMG 231800Z 34006KT 9999 SCT017 38/22 Q1008 A2979 HR39METAR SLBU 231800Z 36006KT 9999 FEW017 39/21 Q1008 A2979 HR35METAR SLSA 231800Z 00000KT 9999 FEW017 36/23 Q1008 A2979 HR47=METAR SLSR 231800Z 27006KT 8000 SCT017 BKN200 37/23 Q1007 A2975 HR46FU RWY NML=METAR SLSM 231800Z 36006KT 9999 FEW017 37/22 Q1008 A2977 HR41
ZPX0587 231802@CAELT@GG SLZZYMYT@CAELT@231802 SLCBYGYS@CAELT@SABO SLCB 231800 CCA@CAELT@METAR SLCB 231800Z 21006KT 9999 FEW036 FEW040CB 30/06 Q1022 A3018@CAELT@749.1 HR21 CB/NW/N FU AC CI NOSIG=@CAELT@METAR SLAL 231800Z 35007KT 9999 FEW023 FEW033CB BKN200 21/07 Q1029@CAELT@A3039 703.7 HR39 CB SW/W=@CAELT@METAR SLPO 231800Z NIL=METAR SLAG 231800Z 08009KT 9999 FEW025 SCT200 34/15 Q1012 A2991 885.5HR32 FU=METAR SLVM 231800Z 36015G28KT 9999 NSC 39/23 Q1006 A2972 HR40 FU CI=SABO SLTJ 231800 CCBMETAR COR SLTJ 231800Z 09010KT 9999 FEW040 FEW043TCU 32/11 Q1015A3000 811.4 HR26 TCU SW CI=METAR SLYA 231800Z 06012G25KT 9999 NSC 36/17 Q1006 A2973 932.0 HR33=METAR SLBJ 231800Z NIL=METAR SLHI 231800Z NIL=
ZPX0588 231802@CAELT@GG SLZZYMYT@CAELT@231800 SLLPYFYA@CAELT@SABO SLLP 231800@CAELT@METAR SLLP 231800Z 10011KT 060V140 9999 FEW020 FEW023CB 19/01 Q1037@CAELT@A3065 627.8 HR31 P93// CB/SH S/NW AC/CI NOSIG=@CAELT@METAR SLCO 231800Z VRB02KT 9999 SCT025 BKN200 36/25 Q1008 A2979 981.5@CAELT@HR54=@CAELT@METAR SLRY 231800Z 00000KT 9999 FEW027 BKN200 38/22 Q1008 A2979 HR38RWY NML=METAR SLRQ 231800Z 36004KT 9999 SCT020 SCT200 39/23 Q1008 A2976 983.9HR40=METAR SLSB 231800Z 00000KT 8000 FEW020 SCT200 38/22 Q1008 A2977 HR40FU RWY NML=METAR SLOR 231800Z 36010KT 9999 SCT023 FEW023CB 21/M02 Q1034 A3053655.2 HR20 CB/SH SE CI=
ZPX0590 231803@CAELT@GG SLZZYMYT@CAELT@231803 SLCBYGYS@CAELT@SABO SLCB 231800 CCA@CAELT@METAR SLCB 231800Z 21006KT 9999 FEW036 FEW040CB 30/06 Q1022 A3018@CAELT@749.1 HR21 CB/NW/N FU AC CI NOSIG=@CAELT@METAR SLAL 231800Z 35007KT 9999 FEW023 FEW033CB BKN200 21/07 Q1029@CAELT@A3039 703.7 HR39 CB SW/W=@CAELT@METAR SLPO 231800Z NIL=METAR SLAG 231800Z 08009KT 9999 FEW025 SCT200 34/15 Q1012 A2991 885.5HR32 FU=METAR SLVM 231800Z 36015G28KT 9999 NSC 39/23 Q1006 A2972 HR40 FU CI=METAR COR SLTJ 231800Z 09010KT 9999 FEW040 FEW043TCU 32/11 Q1015A3000 811.4 HR26 TCU SW CI=METAR SLYA 231800Z 06012G25KT 9999 NSC 36/17 Q1006 A2973 932.0 HR33=METAR SLBJ 231800Z NIL=METAR SLHI 231800Z NIL=
ZPX0607 231852@CAELT@GG SLZZYMYT@CAELT@231852 SLPSYGYS@CAELT@SABO SLPS 231900@CAELT@METAR SLPS 231900Z 36012KT 9999 NSC 38/25 Q1008 A2977 HR51=@CAELT@
ZPX0608 231852@CAELT@GG SLZZYMYT@CAELT@231853 SLVRYGYZ@CAELT@SABO SLVR 231900@CAELT@METAR SLVR 231900Z 34013KT 9999 FEW023 37/21 Q1008 A2978 HR40 NOSIG=@CAELT@
ZPX0609 231853@CAELT@GG SLZZYMYT@CAELT@231851 SLETYMYC@CAELT@SABO SLET 231900Z@CAELT@METAR SLET 231900Z 33011KT 9999 FEW017 37/20 Q1008 A2978 HR37 NOSIG=@CAELT@
ZPX0610 231854@CAELT@GG SLZZYMYT@CAELT@231853 SLRBYGYS@CAELT@SABO SLRB 231900@CAELT@METAR SLRB 231900Z 00000KT 9999 NSC 38/20 Q1010 A2983 HR35 RWY NML=@CAELT@
ZPX0611 231854@CAELT@GG SLZZYMYT@CAELT@231854 SLSAZTZX@CAELT@SABO SLSA 231900@CAELT@METAR SLSA 231900Z 00000KT 9999 FEW017 37/24 Q1007 A2974 HR47=@CAELT@
ZPX0612 231855@CAELT@GG SLZZYMYT@CAELT@231855 SLCOYSYX@CAELT@SABO SLCO 231900@CAELT@METAR SLCO 231900Z 31004KT 9999 SCT027 BKN200 35/25 Q1007 A2973 980.3@CAELT@HR55=@CAELT@
ZPX0613 231855@CAELT@GG SLZZYMYT@CAELT@231855 SLAGYSYX@CAELT@SABO SLAG 231900@CAELT@METAR SLAG 231900Z 05008KT 9999 FEW027 BKN200 34/15 Q1012 A2989 884.7@CAELT@HR32 FU=@CAELT@
ZPX0614 231855@CAELT@GG SLZZYMYT@CAELT@231855 SLTRYGYZ@CAELT@SABO SLTR 231900@CAELT@METAR SLTR 231900Z 03005KT 9999 FEW020 38/21 Q1007 A2974 988.6 HR36@CAELT@NOSIG=@CAELT@
ZPX0615 231855@CAELT@GG SLZZYMYT@CAELT@231855 SLLPYGYZ@CAELT@SABO SLLP 231900@CAELT@METAR SLLP 231900Z 09010KT 050V140 9999 FEW020 FEW023CB SCT070@CAELT@BKN200 16/01 Q1037 A3062 627.3 HR34 P93// CB/SH S/W/NW NOSIG=@CAELT@
ZPX0616 231855@CAELT@GG SLZZYMYT@CAELT@231855 SLSBYSYX@CAELT@SABO SLSB 231900@CAELT@METAR SLSB 231900Z 00000KT 8000 FEW020 SCT200 37/22 Q1006 A2973 HR39@CAELT@FU RWY NML=@CAELT@
ZPX0617 231855@CAELT@GG SLZZYMYT@CAELT@231855 SLRQYSYX@CAELT@SABO SLRQ 231900@CAELT@METAR SLRQ 231900Z 00000KT 9999 SCT020 SCT200 39/23 Q1006 A2973 982.7@CAELT@HR39 FU=@CAELT@
ZPX0618 231856@CAELT@GG SLZZYMYT@CAELT@231855 SLTJYGYZ@CAELT@SABO SLTJ 231900@CAELT@METAR SLTJ 231900Z 14012KT 9999 FEW040 FEW043TCU SCT200 32/12 Q1015@CAELT@A2999 811.0 HR29 TCU SW AC=@CAELT@
ZPX0621 231858@CAELT@GG SLZZYMYT@CAELT@231858 SLCBYGYZ@CAELT@SABO SLCB 231900@CAELT@METAR SLCB 231900Z 25008KT 9999 FEW036 FEW040CB SCT200 30/07 Q1020@CAELT@A3015 748.2 HR22 CB/W FU AC NOSIG=@CAELT@
ZPX0622 231858@CAELT@GG SLZZYMYT@CAELT@231857 SLTRYGYS@CAELT@SABO SLTR 231900@CAELT@METAR SLTR 231900Z 03005KT 9999 FEW020 38/21 Q1007 A2974 988.6 HR36@CAELT@NOSIG=@CAELT@METAR SLGM 231900Z 18005KT 9999 SCT017 37/22 Q1006 A2971 HR41=@CAELT@METAR SLRI 231900Z 00000KT 9999 SCT017 36/24 Q1007 A2974 HR50=@CAELT@METAR SLJO 231900Z NIL=METAR SLRA 231900Z 09010KT 8000 FEW020 40/21 Q1007 A2974 HR34 FURWY NML=METAR SLMG 231900Z 34004KT 9999 SCT018 39/21 Q1007 A2975 HR37METAR SLBU 231900Z 36004KT 9999 FEW017 39/22 Q1007 A2976 HR39METAR SLSA 231900Z 00000KT 9999 FEW017 37/24 Q1007 A2974 HR47=METAR SLSR 231900Z 09006KT 8000 SCT017 FEW023CB BKN200 37/24 Q1006A2971 HR47 FU CB E RWY NML=METAR SLSM 231900Z 36008KT 9999 FEW017 37/22 Q1007 A2974 HR41
ZPX0623 231859@CAELT@GG SLZZYMYT@CAELT@231859 SLVRYFYC@CAELT@SABO SLVR 231900@CAELT@METAR SLVR 231900Z 34013KT 9999 FEW023 37/21 Q1008 A2978 HR40 NOSIG=@CAELT@METAR SLAS 231900Z 00000KT 9999 FEW020 39/18 Q1009 A2980 HR37 RWY NML@CAELT@METAR SLJV 231900Z NIL=@CAELT@METAR SLCP 231900Z 00000KT 9999 SCT020 35/21 Q1012 A2988 HR44 RWY NML@CAELT@METAR SLSI 231900Z 00000KT 9999 SCT017 38/22 Q1008 A2977 HR39 RWY NMLMETAR SLTI 231900Z 00000KT 9999 SCT020 41/19 Q1009 A2980 HR27 RWY NMLMETAR SLJE 231900Z 36006KT 9999 NSC 41/16 Q1011 A2985 HR24 RWY NML=METAR SLVG 231900Z 36006KT 9999 SCT027 25/12 Q1023 A3021 HR39 RWY NMLMETAR SLRB 231900Z 00000KT 9999 NSC 38/20 Q1010 A2983 HR35 RWY NML=METAR SLPS 231900Z 36012KT 9999 NSC 38/25 Q1008 A2977 HR51=METAR SLCA 231900Z 36005KT 9999 SCT033 BKN200 37/12 Q1010 A2983 HR23RWY NML=
ZPX0626 231900@CAELT@GG SLZZYMYT@CAELT@231900 SLCBYGYS@CAELT@SABO SLCB 231900@CAELT@METAR SLCB 231900Z 25008KT 9999 FEW036 FEW040CB SCT200 30/07 Q1020@CAELT@A3015 748.2 HR22 CB/W FU AC NOSIG=@CAELT@METAR SLAL 231900Z 01012KT 9999 FEW023 FEW033CB BKN200 21/06 Q1028@CAELT@A3037 703.2 HR37 CB/W=@CAELT@METAR SLPO 231900Z NIL=METAR SLAG 231900Z 05008KT 9999 FEW027 BKN200 34/15 Q1012 A2989 884.7HR32 FU=METAR SLVM 231900Z NIL=METAR SLTJ 231900Z 14012KT 9999 FEW040 FEW043TCU SCT200 32/12 Q1015A2999 811.0 HR29 TCU SW AC=METAR SLYA 231900Z NIL=METAR SLBJ 231900Z NIL=METAR SLHI 231900Z NIL=
ZPX0628 231902@CAELT@GG SLZZYMYT@CAELT@231902 SLVRYFYC@CAELT@SABO SLVR 231900 CCA@CAELT@METAR SLVR 231900Z 34013KT 9999 FEW023 37/21 Q1008 A2978 HR40 NOSIG=@CAELT@METAR SLET 231900Z 33011KT 9999 FEW017 37/20 Q1008 A2978 HR37 NOSIG=@CAELT@METAR SLAS 231900Z 00000KT 9999 FEW020 39/18 Q1009 A2980 HR37 RWY NML@CAELT@METAR SLJV 231900Z NIL=@CAELT@METAR SLCP 231900Z 00000KT 9999 SCT020 35/21 Q1012 A2988 HR44 RWY NMLMETAR SLSI 231900Z 00000KT 9999 SCT017 38/22 Q1008 A2977 HR39 RWY NMLMETAR SLTI 231900Z 00000KT 9999 SCT020 41/19 Q1009 A2980 HR27 RWY NMLMETAR SLJE 231900Z 36006KT 9999 NSC 41/16 Q1011 A2985 HR24 RWY NML=METAR SLVG 231900Z 36006KT 9999 SCT027 25/12 Q1023 A3021 HR39 RWY NMLMETAR SLRB 231900Z 00000KT 9999 NSC 38/20 Q1010 A2983 HR35 RWY NML=METAR SLPS 231900Z 36012KT 9999 NSC 38/25 Q1008 A2977 HR51=METAR SLCA 231900Z 36005KT 9999 SCT033 BKN200 37/12 Q1010 A2983 HR23RWY NML=
ZPX0634 231910@CAELT@GG SLZZYMYT@CAELT@231903 SLLPYFYA@CAELT@SABO SLLP 231900@CAELT@METAR SLLP 231900Z 09010KT 050V140 9999 FEW020 FEW023CB SCT070@CAELT@BKN200 16/01 Q1037 A3062 627.3 HR34 P93// CB/SH S/W/NW NOSIG=@CAELT@METAR SLCO 231900Z 31004KT 9999 SCT027 BKN200 35/25 Q1007 A2973 980.3@CAELT@HR55=@CAELT@METAR SLRQ 231900Z 00000KT 9999 SCT020 SCT200 39/23 Q1006 A2973 982.7HR39 FU=METAR SLSB 231900Z 00000KT 8000 FEW020 SCT200 37/22 Q1006 A2973 HR39FU RWY NML=
ZPX0636 231912@CAELT@GG SLZZYMYT@CAELT@231901 SLLPYFYA@CAELT@SABO SLRY 231900@CAELT@METAR SLRY 231900Z 00000KT 9999 FEW027 BKN200 39/20 Q1007 A2975 HR33@CAELT@RWY NML@CAELT@
ZPX0637 231913@CAELT@GG SLZZYMYT@CAELT@231906 SLLPYFYA@CAELT@SABO SLLP 231900 RRA@CAELT@METAR SLLP 231900Z 09010KT 050V140 9999 FEW020 FEW023CB SCT070@CAELT@BKN200 16/01 Q1037 A3062 627.3 HR34 P93// CB/SH S/W/NW NOSIG=@CAELT@METAR SLRY 231900Z 00000KT 9999 FEW027 BKN200 39/20 Q1007 A2975 HR33@CAELT@RWY NML@CAELT@METAR SLCO 231900Z 31004KT 9999 SCT027 BKN200 35/25 Q1007 A2973 980.3HR55=METAR SLRQ 231900Z 00000KT 9999 SCT020 SCT200 39/23 Q1006 A2973 982.7HR39 FU=METAR SLSB 231900Z 00000KT 8000 FEW020 SCT200 37/22 Q1006 A2973 HR39FU RWY NML=
ZPX0638 231914@CAELT@GG SLZZYMYT@CAELT@231904 SLLPYFYA@CAELT@SABO SLLP 231900@CAELT@METAR SLLP 231900Z 09010KT 050V140 9999 FEW020 FEW023CB SCT070@CAELT@BKN200 16/01 Q1037=@CAELT@METAR SLVR 231900Z 34013KT 9999 FEW023 37/21 Q1008=@CAELT@METAR SLCB 231900Z 25008KT 9999 FEW036 FEW040CB SCT200 30/07 Q1020=@CAELT@
ZPX0652 231951@CAELT@GG SLZZYMYT@CAELT@231950 SLPSYGYS@CAELT@SABO SLPS 232000@CAELT@METAR SLPS 232000Z 36008KT 9999 NSC 37/25 Q1008 A2977 HR52=@CAELT@
ZPX0653 231952@CAELT@GG SLZZYMYT@CAELT@231946 SLETYMYC@CAELT@SABO SLET 232000Z@CAELT@METAR SLET 232000Z 30012KT 9999 NSC 36/19 Q1007 A2975 HR36 NOSIG=@CAELT@
ZPX0657 231954@CAELT@GG SLZZYMYT@CAELT@231955 SLCOYSYX@CAELT@SABO SLCO 232000@CAELT@METAR SLCO 23200Z 17004KT 9999 FEW027 BKN200 36/26 Q1006 A2972 979.1@CAELT@HR56=@CAELT@
ZPX0658 231954@CAELT@GG SLZZYMYT@CAELT@231954 SLSBYSYX@CAELT@SABO SLSB 232000@CAELT@METAR SLSB 232000Z 03004KT 8000 FEW020 SCT200 38/22 Q1005 A2970 HR38@CAELT@FU RWY NML=@CAELT@
ZPX0661 231955@CAELT@GG SLZZYMYT@CAELT@231953 SLRBYGYS@CAELT@SABO SLRB 232000@CAELT@METAR SLRB 232000Z 00000KT 9999 NSC 38/20 Q1009 A2980 HR36 RWY NML=@CAELT@
ZPX0662 231955@CAELT@GG SLZZYMYT@CAELT@231955 SLRQYSYX@CAELT@SABO SLRQ 232000@CAELT@METAR SLRQ 232000Z 00000KT 9999 SCT020 SCT200 38/23 Q1005 A2969 981.4@CAELT@HR41 FU=@CAELT@
ZPX0663 231955@CAELT@GG SLZZYMYT@CAELT@231955 SLTRYGYZ@CAELT@SABO SLTR 232000@CAELT@METAR SLTR 232000Z 34006KT 9999 FEW020 38/22 Q1005 A2970 987.3 HR39@CAELT@NOSIG=@CAELT@
ZPX0664 231955@CAELT@GG SLZZYMYT@CAELT@231955 SLTJYGYZ@CAELT@SABO SLTJ 232000@CAELT@METAR SLTJ 232000Z 13008KT 9999 FEW040 SCT080 BKN200 31/11 Q1015@CAELT@A2999 811.1 HR30=@CAELT@
ZPX0665 231955@CAELT@GG SLZZYMYT@CAELT@231956 SLVRYGYZ@CAELT@SABO SLVR 232000@CAELT@METAR SLVR 232000Z 33011KT 9999 FEW023 36/21 Q1007 A2976 HR41 NOSIG=@CAELT@
ZPX0666 231955@CAELT@GG SLZZYMYT@CAELT@231955 SLLPYGYZ@CAELT@SABO SLLP 232000@CAELT@METAR SLLP 232000Z 05011KT 010V080 9999 FEW020 FEW023CB BKN200@CAELT@18/M01 Q1036 A3060 626.8 HR28 P93// CB/SH/NW AC NOSIG=@CAELT@
ZPX0668 231956@CAELT@GG SLZZYMYT@CAELT@231955 SLLPYFYA@CAELT@SABO SLRY 232000@CAELT@METAR SLRY 232000Z 00000KT 9999 FEW027 BKN200 38/21 Q1005 A2970 HR37@CAELT@RWY NML=@CAELT@
ZPX0669 231958@CAELT@GG SLZZYMYT@CAELT@231956 SLSAZTZX@CAELT@SABO SLSA 232000@CAELT@METAR SLSA 232000Z 16004KT 9999 FEW017 FEW023CB 37/23 Q1006 A2973@CAELT@HR44 CB NE=@CAELT@
ZPX0670 231958@CAELT@GG SLZZYMYT@CAELT@231957 SLLPYFYA@CAELT@SABO SLLP 232000@CAELT@METAR SLLP 232000Z 05011KT 010V080 9999 FEW020 FEW023CB BKN200@CAELT@18/M01 Q1036 A3060 626.8 HR28 P93// CB/SH/NW AC NOSIG=@CAELT@METAR SLCO 23200Z 17004KT 9999 FEW027 BKN200 36/26 Q1006 A2972 979.1@CAELT@HR56=@CAELT@METAR SLRY 232000Z 00000KT 9999 FEW027 BKN200 38/21 Q1005 A2970 HR37RWY NML=METAR SLRQ 232000Z 00000KT 9999 SCT020 SCT200 38/23 Q1005 A2969 981.4HR41 FU=METAR SLSB 232000Z 03004KT 8000 FEW020 SCT200 38/22 Q1005 A2970 HR38FU RWY NML=
ZPX0671 231958@CAELT@GG SLZZYMYT@CAELT@231957 SLCBYGYZ@CAELT@SABO SLCB 232000@CAELT@METAR SLCB 232000Z 09012KT 9999 FEW036 FEW040CB BKN200 29/05 Q1020@CAELT@A3012 747.6 HR22 CB/SE FU AC NOSIG=@CAELT@
ZPX0672 231958@CAELT@GG SLZZYMYT@CAELT@231958 SLCAYGYS@CAELT@SABO SLCA 232000@CAELT@METAR SLCA 232000Z 00000K 9999 SCT033 BKN200 36/13 Q1009 A2980 HR25@CAELT@RWY NML=@CAELT@
ZPX0673 231959@CAELT@GG SLZZYMYT@CAELT@231959 SLVRYFYC@CAELT@SABO SLVR 232000@CAELT@METAR SLVR 232000Z 33011KT 9999 FEW023 36/21 Q1007 A2976 HR41 NOSIG=@CAELT@METAR SLET 232000Z 30012KT 9999 NSC 36/19 Q1007 A2975 HR36 NOSIG=@CAELT@METAR SLAS 232000Z 00000KT 9999 FEW020 40/18 Q1008 A2977 HR34 RWY NML@CAELT@METAR SLJV 232000Z 00000KT 9999 NSC 36/17 Q1008 A2977 HR32 RWY NML=@CAELT@METAR SLCP 232000Z 00000KT 9999 SCT020 35/24 Q1011 A2985 HR44 RWY NMLMETAR SLSI 232000Z 16005KT 9999 SCT017 38/21 Q1007 A2974 HR37 RWY NMLMETAR SLTI 232000Z 00000KT 9999 FEW020 40/20 Q1009 A2980 HR30 RWY NMLMETAR SLJE 232000Z 36005KT 9999 NSC 40/17 Q1010 A2983 HR26 RWY NML=METAR SLVG 232000Z 36005KT 9999 FEW027 BKN200 26/12 Q1022 A3018 HR37RWY NML=METAR SLRB 232000Z 00000KT 9999 NSC 38/20 Q1009 A2980 HR36 RWY NML=METAR SLPS 232000Z 36008KT 9999 NSC 37/25 Q1008 A2977 HR52=METAR SLCA 232000Z 00000K 9999 SCT033 BKN200 36/13 Q1009 A2980 HR25
ZPX0674 232000@CAELT@GG SLZZYMYT@CAELT@231959 SLTRYGYS@CAELT@SABO SLTR 232000@CAELT@METAR SLTR 232000Z 34006KT 9999 FEW020 38/22 Q1005 A2970 987.3 HR39@CAELT@NOSIG=@CAELT@METAR SLGM 232000Z 18005KT 9999 SCT017 37/23 Q1006 A2971 HR44=@CAELT@METAR SLRI 232000Z 00000KT 9999 SCT017 36/24 Q1006 A2973 HR48=@CAELT@METAR SLJO 232000Z NIL=METAR SLRA 232000Z 09008KT 8000 FEW020 39/20 Q1006 A2971 HR33 FURWY NML=METAR SLMG 232000Z 00000KT 9999 FEW017 39/22 Q1006 A2973 HR38METAR SLBU 232000Z 00000KT 9999 FEW017 39/22 Q1006 A2973 HR39METAR SLSA 232000Z 16004KT 9999 FEW017 FEW023CB 37/23 Q1006 A2973HR44 CB NE=METAR SLSR 232000Z 32006KT 8000 FEW017 FEW023CB BKN200 37/23 Q1004A2967 HR45 FU CB SE RWY NML=METAR SLSM 232000Z 33004KT 9999 FEW017 37/22 Q1005 A2969 HR42
ZPX0676 232002@CAELT@GG SLZZYMYT@CAELT@232002 SLCBYGYS@CAELT@SABO SLCB 232000@CAELT@METAR SLCB 232000Z 09012KT 9999 FEW036 FEW040CB BKN200 29/05 Q1020@CAELT@A3012 747.6 HR22 CB/SE FU AC NOSIG=@CAELT@METAR SLAL 232000Z 02012KT 9999 FEW020 FEW033CB BKN200 21/06 Q1029@CAELT@A3035 HR37 CB/NW=@CAELT@METAR SLPO 232000Z NIL=METAR SLVM 232000Z NIL=METAR SLTJ 232000Z 13008KT 9999 FEW040 SCT080 BKN200 31/11 Q1015A2999 811.1 HR30=METAR SLYA 232000Z NIL=METAR SLBJ 232000Z NIL=METAR SLHI 232000Z NIL=
ZPX0703 232052@CAELT@GG SLZZYMYT@CAELT@232051 SLETYMYC@CAELT@SABO SLET 232100Z@CAELT@METAR SLET 232100Z 32012KT 9999 NSC 35/19 Q1007 A2974 HR39 NOSIG=@CAELT@
ZPX0704 232052@CAELT@GG SLZZYMYT@CAELT@232051 SLPSYGYS@CAELT@SABO SLPS 232100@CAELT@METAR SLPS 232100Z 36006KT 9999 NSC 37/24 Q1008 A2977 HR49=@CAELT@
ZPX0707 232054@CAELT@GG SLZZYMYT@CAELT@232055 SLLPYFYA@CAELT@SABO SLRY 232100@CAELT@METAR SLRY 232100Z 00000KT 9999 NSC 39/22 Q1005 A2970 HR39@CAELT@CI RWY NML=@CAELT@
ZPX0708 232054@CAELT@GG SLZZYMYT@CAELT@232054 SLSBYSYX@CAELT@SABO SLSB 232100@CAELT@METAR SLSB 232100Z 03004KT 8000 NSC 37/22 Q1005 A2968 HR39 FU CI@CAELT@RWY NML=@CAELT@
ZPX0709 232054@CAELT@GG SLZZYMYT@CAELT@232054 SLSAZTZX@CAELT@SABO SLSA 232100@CAELT@METAR SLSA 232100Z 00000KT 9999 FEW017 FEW023CB SCT200 36/23@CAELT@Q1006 A2971 HR46 CB N=@CAELT@
ZPX0712 232055@CAELT@GG SLZZYMYT@CAELT@232055 SLCOYSYX@CAELT@SABO SLCO 232100@CAELT@METAR SLCO 232100Z 27004KT 9999 FEW030 BKN200 36/25 Q1005 A2970 987.5@CAELT@HR55=@CAELT@
ZPX0713 232055@CAELT@GG SLZZYMYT@CAELT@232053 SLRBYGYS@CAELT@SABO SLRB 232100@CAELT@METAR SLRB 232100Z 00000KT 9999 NSC 37/20 Q1009 A2980 HR36 RWY NML=@CAELT@
ZPX0714 232055@CAELT@GG SLZZYMYT@CAELT@232055 SLVRYGYZ@CAELT@SABO SLVR 232100@CAELT@METAR SLVR 232100Z 32008KT 9999 FEW080 35/21 Q1007 A2974 HR45 CI@CAELT@NOSIG=@CAELT@
ZPX0715 232055@CAELT@GG SLZZYMYT@CAELT@232055 SLLPYGYZ@CAELT@SABO SLLP 232100@CAELT@METAR SLLP 232100Z 06010KT 020V110 9999 FEW020 FEW023CB BKN200@CAELT@18/M04 Q1035 A3059 626.6 HR23 P93// CB/SH SW/NW AC NOSIG=@CAELT@
ZPX0716 232055@CAELT@GG SLZZYMYT@CAELT@232055 SLTRYGYZ@CAELT@SABO SLTR 232100@CAELT@METAR SLTR 232100Z 36005KT 9999 FEW020 37/22 Q1005 A2969 987.0@CAELT@HR40 NOSIG=@CAELT@
ZPX0717 232055@CAELT@GG SLZZYMYT@CAELT@232055 SLCAYGYS@CAELT@SABO SLCA 232100@CAELT@METAR SLCA 232100Z 00000KT 9999 NSC 35/14 Q1010 A2983 HR28 CS RWY NML@CAELT@
ZPX0718 232056@CAELT@GG SLZZYMYT@CAELT@232055 SLRQYSYX@CAELT@SABO SLRQ 232100@CAELT@METAR SLRQ 232100Z 00000KT 9999 FEW020 SCT200 38/22 Q1004 A2967 980.7@CAELT@HR39 FU=@CAELT@
ZPX0719 232057@CAELT@GG SLZZYMYT@CAELT@232057 SLLPYFYA@CAELT@SABO SLLP 232100@CAELT@METAR SLLP 232100Z 06010KT 020V110 9999 FEW020 FEW023CB BKN200@CAELT@18/M04 Q1035 A3059 626.6 HR23 P93// CB/SH SW/NW AC NOSIG=@CAELT@METAR SLCO 232100Z 27004KT 9999 FEW030 BKN200 36/25 Q1005 A2970 987.5@CAELT@HR55=@CAELT@METAR SLRY 232100Z 00000KT 9999 NSC 39/22 Q1005 A2970 HR39CI RWY NML=METAR SLRQ 232100Z 00000KT 9999 FEW020 SCT200 38/22 Q1004 A2967 980.7HR39 FU=METAR SLSB 232100Z 03004KT 8000 NSC 37/22 Q1005 A2968 HR39 FU CIRWY NML=
ZPX0720 232057@CAELT@GG SLZZYMYT@CAELT@232056 SLCBYGYZ@CAELT@SABO SLCB 232100@CAELT@METAR SLCB 232100Z 07012KT 9999 FEW036 FEW040CB BKN200 28/05 Q1019@CAELT@A3012 747.4 HR22 CB/SW/N NOSIG=@CAELT@
ZPX0721 232057@CAELT@GG SLZZYMYT@CAELT@232057 SLVRYFYC@CAELT@SABO SLVR 232100@CAELT@METAR SLVR 232100Z 32008KT 9999 FEW080 35/21 Q1007 A2974 HR45 CI@CAELT@NOSIG=@CAELT@METAR SLET 232100Z 32012KT 9999 NSC 35/19 Q1007 A2974 HR39 NOSIG=@CAELT@METAR SLAS 232100Z 00000KT 9999 FEW020 37/22 Q1007 A2974 HR41 RWY NML@CAELT@METAR SLJV 232100Z 00000KT 9999 NSC 36/17 Q1007 A2974 HR34 RWY NML=METAR SLCP 232100Z 00000KT 9999 NSC 35/21 Q1011 A2985 HR45 RWY NML=METAR SLSI 232100Z 00000KT 9999 NSC 38/21 Q1006 A2971 HR37 RWY NML=METAR SLTI 232100Z 00000KT 9999 NSC 40/19 Q1009 A2980 HR30 RWY NML=METAR SLJE 232100Z 36005KT 9999 NSC 40/17 Q1009 A2980 HR26 RWY NML=METAR SLVG 232100Z 35005KT 9999 NSC 25/12 Q1022 A3018 HR41 CI RWY NMLMETAR SLRB 232100Z 00000KT 9999 NSC 37/20 Q1009 A2980 HR36 RWY NML=METAR SLPS 232100Z 36006KT 9999 NSC 37/24 Q1008 A2977 HR49=METAR SLCA 232100Z 00000KT 9999 NSC 35/14 Q1010 A2983 HR28 CS RWY NML
ZPX0722 232058@CAELT@GG SLZZYMYT@CAELT@232057 SLTJYGYZ@CAELT@SABO SLTJ 232100@CAELT@METAR SLTJ 232100Z 05006KT 9999 FEW040 BKN200 29/09 Q1015 A2999 811.3@CAELT@HR29 AC=@CAELT@
ZPX0725 232059@CAELT@GG SLZZYMYT@CAELT@232059 SLTRYGYS@CAELT@SABO SLTR 232100@CAELT@METAR SLTR 232100Z 36005KT 9999 FEW020 37/22 Q1005 A2969 987.0 HR40@CAELT@NOSIG=@CAELT@METAR SLGM 232100Z 18005KT 9999 FEW017 FEW020CB 37/22 Q1006 A2971@CAELT@HR44 CB NE=@CAELT@METAR SLRI 232100Z 00000KT 9999 SCT017 36/24 Q1006 A2971 HR48=METAR SLJO 232100ZMETAR SLRA 232100Z 09006KT 8000 FEW020 FEW023CB 39/20 Q1004 A2967HR35 FU CB SE RWY NML=METAR SLMG 232100Z 00000KT 9999 FEW017 38/22 Q1006 A2973 HR38RWY NML=METAR SLBU 232100Z 03006KT 9999 FEW017 39/23 Q1005 A2970 HR40METAR SLSA 232100Z 00000KT 9999 FEW017 FEW023CB SCT200 36/23 Q1006A2971 HR46 CB N=METAR SLSR 232100Z 32006KT 8000 FEW017 FEW023CB BKN200 37/22 Q1003A2965 HR41 FU CB NE RWY NML=METAR SLSM 232100Z 33004KT 9999 FEW017 36/23 Q1004 A2966 HR46
ZPX0728 232101@CAELT@GG SLZZYMYT@CAELT@232101 SLCBYGYS@CAELT@SABO SLCB 232100@CAELT@METAR SLCB 232100Z 07012KT 9999 FEW036 FEW040CB BKN200 28/05 Q1019@CAELT@A3012 747.4 HR22 CB/SW/N NOSIG=@CAELT@METAR SLAL 232100Z 02014KT 9999 FEW023 FEW033CB BKN200 20/06 Q1028@CAELT@A3036 702.9 HR40 CB S/SW=@CAELT@METAR SLPO 232100Z NIL=METAR SLAG 232100Z NIL=METAR SLVM 232100Z NIL=METAR SLTJ 232100Z 05006KT 9999 FEW040 BKN200 29/09 Q1015 A2999 811.3HR29 AC=METAR SLYA 232100Z NIL=METAR SLBJ 232100Z NIL=METAR SLHI 232100Z NIL=
ZPX0745 232151@CAELT@GG SLZZYMYT@CAELT@232151 SLPSYGYS@CAELT@SABO SLPS 232200@CAELT@METAR SLPS 232200Z 00000KT 9999 NSC 37/24 Q1008 A2977 HR51=@CAELT@
ZPX0747 232153@CAELT@GG SLZZYMYT@CAELT@232149 SLETYMYC@CAELT@SABO SLET 232200Z@CAELT@METAR SLET 232200Z 30010KT 9999 NSC 33/19 Q1007 A2975 HR44 NOSIG=@CAELT@
ZPX0748 232153@CAELT@GG SLZZYMYT@CAELT@232153 SLCAYGYS@CAELT@SABO SLCA 232200@CAELT@METAR SLCA 232200Z 00000KT 9999 NSC 35/14 Q1010 A2983 HR28 CS RWY NML@CAELT@
ZPX0749 232154@CAELT@GG SLZZYMYT@CAELT@232153 SLRBYGYS@CAELT@SABO SLRB 232200@CAELT@METAR SLRB 232200Z 00000KT 9999 NSC 35/21 Q1009 A2980 HR45 RWY NML=@CAELT@
ZPX0750 232154@CAELT@GG SLZZYMYT@CAELT@232155 SLVRYGYZ@CAELT@SABO SLVR 232200@CAELT@METAR SLVR 232200Z 31004KT 9999 NSC 32/21 Q1007 A2974 HR51 CI NOSIG=@CAELT@
ZPX0751 232154@CAELT@GG SLZZYMYT@CAELT@232154 SLSBYSYX@CAELT@SABO SLSB 232200@CAELT@METAR SLSB 232200Z 00000KT 8000 NSC 35/23 Q1005 A2968 HR51 FU CI@CAELT@RWY NML=@CAELT@
ZPX0752 232155@CAELT@GG SLZZYMYT@CAELT@232155 SLCOYSYX@CAELT@SABO SLCO 232200@CAELT@METAR SLCO 232200Z 31003KT 9999 FEW030 BKN200 33/24 Q1005 A2970 978.5@CAELT@HR60=@CAELT@
ZPX0753 232155@CAELT@GG SLZZYMYT@CAELT@232155 SLTRYGYZ@CAELT@SABO SLTR 232200@CAELT@METAR SLTR 232200Z 00000KT 9999 NSC 36/21 Q1005 A2970 987.2 HR42@CAELT@NOSIG=@CAELT@
ZPX0754 232155@CAELT@GG SLZZYMYT@CAELT@232155 SLLPYGYZ@CAELT@SABO SLLP 232200@CAELT@METAR SLLP 232200Z 05012KT 9999 FEW017 FEW020CB BKN200 15/M02@CAELT@Q1036 A3060 626.7 HR32 P93// CB/SH/SW AC NOSIG=@CAELT@
ZPX0755 232155@CAELT@GG SLZZYMYT@CAELT@232155 SLVRYFYC@CAELT@SABO SLVR 232200@CAELT@METAR SLVR 232200Z 31004KT 9999 NSC 32/21 Q1007 A2974 HR51 CI NOSIG=@CAELT@METAR SLET 232200Z 30010KT 9999 NSC 33/19 Q1007 A2975 HR44 NOSIG=@CAELT@METAR SLAS 232200Z 00000KT 9999 NSC 35/21 Q1007 A2974 HR45 RWY NML=@CAELT@METAR SLJV 232200Z 00000KT 9999 NSC 34/20 Q1007 A2974 HR44 RWY NML=@CAELT@METAR SLCP 232200Z 00000KT 9999 NSC 33/22 Q1010 A2983 HR51 RWY NML=METAR SLSI 232200Z 00000KT 9999 NSC 36/20 Q1007 A2974 HR40 RWY NML=METAR SLTI 232200Z 00000KT 9999 NSC 38/20 Q1009 A2980 HR37 RWY NML=METAR SLJE 232200Z 00000KT 9999 NSC 38/17 Q1009 A2980 HR30 RWY NML=METAR SLRB 232200Z 00000KT 9999 NSC 35/21 Q1009 A2980 HR45 RWY NML=METAR SLPS 232200Z 00000KT 9999 NSC 37/24 Q1008 A2977 HR51=METAR SLCA 232200Z 00000KT 9999 NSC 35/14 Q1010 A2983 HR28 CS RWY NML
ZPX0756 232156@CAELT@GG SLZZYMYT@CAELT@232155 SLRQYSYX@CAELT@SABO SLRQ 232200@CAELT@METAR SLRQ 232200Z 00000KT 9999 NSC 37/23 Q1004 A2967 984.8 HR43 FU@CAELT@
ZPX0757 232157@CAELT@GG SLZZYMYT@CAELT@232156 SLCBYGYZ@CAELT@SABO SLCB 232200@CAELT@METAR SLCB 232200Z 11015KT 9999 FEW036 FEW040CB BKN200 26/05 Q1020@CAELT@A3014 747.9 HR25 CB/SW FU AC NOSIG=@CAELT@
ZPX0758 232157@CAELT@GG SLZZYMYT@CAELT@232157 SLSAZTZX@CAELT@SABO SLSA 232200@CAELT@METAR SLSA 232200Z 00000KT 9999 FEW080 BKN200 36/23@CAELT@Q1006 A2971 HR47=@CAELT@
ZPX0759 232157@CAELT@GG SLZZYMYT@CAELT@232156 SLTJYGYZ@CAELT@SABO SLTJ 232200@CAELT@METAR SLTJ 232200Z 13007KT 9999 FEW036 BKN200 28/11 Q1016 A3001 811.9@CAELT@HR33 AC=@CAELT@
ZPX0760 232158@CAELT@GG SLZZYMYT@CAELT@232157 SLLPYFYA@CAELT@SABO SLRY 232200@CAELT@METAR SLRY 232200Z 00000KT 9999 NSC 37/23 Q1005 A2970 HR56 CI RWY NML=@CAELT@
ZPX0761 232158@CAELT@GG SLZZYMYT@CAELT@232158 SLTRYGYS@CAELT@SABO SLTR 232200@CAELT@METAR SLTR 232200Z 00000KT 9999 NSC 36/21 Q1005 A2970 987.2 HR42@CAELT@NOSIG=@CAELT@METAR SLGM 232200Z 00000KT 9999 FEW017 FEW020CB BKN200 36/24 Q1005@CAELT@A2970 HR52 CB NE=@CAELT@METAR SLRI 232200Z 00000KT 9999 FEW017 34/24 Q1006 A2973 HR55=METAR SLJO 232200Z NIL=METAR SLRA 232200Z 09006KT 8000 FEW020 FEW023CB BKN200 37/22 Q1004A2967 HR41 FU CB S RWY NML=METAR SLMG 232200Z 00000KT 9999 FEW017 38/21 Q1006 A2973 HR38RWY NML=METAR SLBU 232200Z NIL=METAR SLSA 232200Z 00000KT 9999 FEW080 BKN200 36/23 Q1006 A2971 HR47=METAR SLSR 232200Z 00000KT 8000 FEW017 FEW023CB BKN200 36/23 Q1004A2966 HR47 FU CB NE RWY NML=METAR SLSM 232200Z 00000KT 9999 NSC 35/24 Q1004 A2967 HR54 CI
ZPX0762 232159@CAELT@GG SLZZYMYT@CAELT@232158 SLCBYGYS@CAELT@SABO SLCB 232200@CAELT@METAR SLCB 232200Z 11015KT 9999 FEW036 FEW040CB BKN200 26/05 Q1020@CAELT@A3014 747.9 HR25 CB/SW FU AC NOSIG=@CAELT@METAR SLAL 232200Z 02011KT 9999 FEW023 FEW033CB BKN200 19/06 Q1028@CAELT@A3038 703.3 HR43 CB S/SW=@CAELT@METAR SLTJ 232200Z 13007KT 9999 FEW036 BKN200 28/11 Q1016 A3001 811.9HR33 AC=
ZPX0764 232159@CAELT@GG SLZZYMYT@CAELT@232159 SLLPYFYA@CAELT@SABO SLLP 232200@CAELT@METAR SLLP 232200Z 05012KT 9999 FEW017 FEW020CB BKN200 15/M02@CAELT@Q1036 A3060 626.7 HR32 P93// CB/SH/SW AC NOSIG=@CAELT@METAR SLCO 232200Z 31003KT 9999 FEW030 BKN200 33/24 Q1005 A2970 978.5@CAELT@HR60=@CAELT@METAR SLRY 232200Z 00000KT 9999 NSC 37/23 Q1005 A2970 HR56 CI RWY NMLMETAR SLRQ 232200Z 00000KT 9999 NSC 37/23 Q1004 A2967 984.8 HR43 FUMETAR SLSB 232200Z 00000KT 8000 NSC 35/23 Q1005 A2968 HR51 FU CIRWY NML=
ZPX0780 232248@CAELT@GG SLZZYMYT@CAELT@232248 SLCAYGYS@CAELT@SABO SLCA 232300@CAELT@METAR SLCA 232300Z 00000KT 9999 NSC 31/16 Q1010 A2983 HR41=@CAELT@
ZPX0781 232252@CAELT@GG SLZZYMYT@CAELT@232252 SLSAZTZX@CAELT@SABO SLSA 232300@CAELT@METAR SLSA 232300Z 00000KT 9999 NSC 31/25 Q1006 A2971 HR67 CI=@CAELT@
ZPX0782 232253@CAELT@GG SLZZYMYT@CAELT@232253 SLSBYSYX@CAELT@SABO SLSB 232300@CAELT@METAR SLSB 232300Z 00000KT 8000 NSC 32/24 Q1005 A2970 HR63 FU CI@CAELT@RWY NML=@CAELT@
ZPX0783 232253@CAELT@GG SLZZYMYT@CAELT@232254 SLVRYGYZ@CAELT@SABO SLVR 232300@CAELT@METAR SLVR 232300Z 29003KT 9999 NSC 30/21 Q1007 A2975 HR57 CI NOSIG=@CAELT@
ZPX0784 232254@CAELT@GG SLZZYMYT@CAELT@232254 SLCBYGYZ@CAELT@SABO SLCB 232300@CAELT@METAR SLCB 232300Z 10011KT 9999 FEW036 BKN200 25/05 Q1021 A3016 748.5@CAELT@HR27 AC FU NOSIG=@CAELT@
ZPX0785 232255@CAELT@GG SLZZYMYT@CAELT@232253 SLRBYGYS@CAELT@SABO SLRB 232300@CAELT@METAR SLRB 232300Z 00000KT 9999 NSC 32/22 Q1009 A2980 HR56 RWY NML=@CAELT@
ZPX0786 232255@CAELT@GG SLZZYMYT@CAELT@232255 SLTRYGYZ@CAELT@SABO SLTR 232300@CAELT@METAR SLTR 232300Z 00000KT 9999 NSC 34/22 Q1006 A2971 987.7 HR48@CAELT@CI NOSIG=@CAELT@
ZPX0787 232255@CAELT@GG SLZZYMYT@CAELT@232256 SLTRYGYS@CAELT@SABO SLTR 232300@CAELT@METAR SLTR 232300Z 00000KT 9999 NSC 34/22 Q1006 A2971 987.7 HR48 CI@CAELT@NOSIG=@CAELT@METAR SLRI 232300Z 00000KT 9999 NSC 31/24 Q1007 A2974 HR67=@CAELT@METAR SLMG 232300Z 00000KT 9999 FEW017 35/24 Q1006 A2973 HR51@CAELT@RWY NML=METAR SLSA 232300Z 00000KT 9999 NSC 31/25 Q1006 A2971 HR67 CI=
ZPX0788 232255@CAELT@GG SLLPZRZX@CAELT@232255 SLLPYGYZ@CAELT@SABO SLLP 232300@CAELT@METAR SLLP 232300Z 05008KT 9999 FEW017 FEW020CB BKN200 12/M02@CAELT@Q1037 A3063 627.5 HR36 CB/SH/SW AC NOSIG=@CAELT@
ZPX0789 232256@CAELT@GG SLZZYMYT@CAELT@232255 SLTJYGYZ@CAELT@SABO SLTJ 232300@CAELT@METAR SLTJ 232300Z 08004KT 9999 FEW036 FEW040CB BKN200 27/12 Q1017@CAELT@A3003 812.5 HR38 CB/NE AC=@CAELT@
ZPX0790 232258@CAELT@GG SLZZYMYT@CAELT@232258 SLCBYGYS@CAELT@SABO SLCB 232300@CAELT@METAR SLCB 232300Z 10011KT 9999 FEW036 BKN200 25/05 Q1021 A3016 748.5@CAELT@HR27 AC FU NOSIG=@CAELT@METAR SLTJ 232300Z 08004KT 9999 FEW036 FEW040CB BKN200 27/12 Q1017@CAELT@A3003 812.5 HR38 CB/NE AC=@CAELT@
ZPX0791 232259@CAELT@GG SLZZYMYT@CAELT@232258 SLLPYFYA@CAELT@SABO SLLP 232300@CAELT@METAR SLLP 232300Z 05008KT 9999 FEW017 FEW020CB BKN200 12/M02@CAELT@Q1037 A3063 627.5 HR36 CB/SH/SW AC NOSIG=@CAELT@METAR SLSB 232300Z 00000KT 8000 NSC 32/24 Q1005 A2970 HR63 FU CI@CAELT@RWY NML=@CAELT@
ZPX0792 232259@CAELT@GG SLZZYMYT@CAELT@232259 SLVRYFYC@CAELT@SABO SLVR 232300@CAELT@METAR SLVR 232300Z 29003KT 9999 NSC 30/21 Q1007 A2975 HR57 CI NOSIG=@CAELT@METAR SLSI 232300Z 00000KT 9999 NSC 33/20 Q1007 A2974 HR48 RWY NML=@CAELT@METAR SLRB 232300Z 00000KT 9999 NSC 32/22 Q1009 A2980 HR56 RWY NML=@CAELT@METAR SLCA 232300Z 00000KT 9999 NSC 31/16 Q1010 A2983 HR41=@CAELT@
ZPX0793 232259@CAELT@GG SLZZYMYT@CAELT@232259 SLCOYSYX@CAELT@SABO SLCO 232300@CAELT@METAR SLCO 232300Z 00000KT 9999 NSC 31/25 Q1007 A2975 980.0 HR68 CI=@CAELT@
ZPX0796 232301@CAELT@GG SLZZYMYT@CAELT@232258 SLLPYFYA@CAELT@SABO SLLP 232300@CAELT@METAR SLLP 232300Z 05008KT 9999 FEW017 FEW020CB BKN200 12/M02@CAELT@Q1037 A3063 627.5 HR36 CB/SH/SW AC NOSIG=@CAELT@METAR SLCO 232300Z 00000KT 9999 NSC 31/25 Q1007 A2975 980.0 HR68 CI=@CAELT@METAR SLSB 232300Z 00000KT 8000 NSC 32/24 Q1005 A2970 HR63 FU CI@CAELT@RWY NML=
ZPX0797 232301@CAELT@GG SLZZYMYT@CAELT@232258 SLCBYGYS@CAELT@SABO SLCB 232300@CAELT@METAR SLCB 232300Z 10011KT 9999 FEW036 BKN200 25/05 Q1021 A3016 748.5@CAELT@HR27 AC FU NOSIG=@CAELT@METAR SLAL 232300Z 01010KT 9999 FEW017 FEW030CB BKN200 18/06 Q1029@CAELT@A3039 703.7 HR45 CB/W=@CAELT@METAR SLTJ 232300Z 08004KT 9999 FEW036 FEW040CB BKN200 27/12 Q1017A3003 812.5 HR38 CB/NE AC=
ZPX0809 232354@CAELT@GG SLZZYMYT@CAELT@232354 SLVRYGYZ@CAELT@SABO SLVR 240000@CAELT@METAR SLVR 240000Z 27005KT 9999 NSC 28/21 Q1008 A2977 HR65 NOSIG=@CAELT@
ZPX0811 232355@CAELT@GG SLLPZRZX@CAELT@232355 SLLPYGYZ@CAELT@SABO SLLP 240000@CAELT@METAR SLLP 240000Z 09008KT 9999 FEW015 FEW017CB SCT200 11/M02 Q1038@CAELT@A3066 628.2 HR41 CB/LT/SW AC NOSIG=@CAELT@
