
ZPX0007 260054@CAELT@GG SLZZYMYT@CAELT@260054 SLVRYGYZ@CAELT@SABO SLVR 260100@CAELT@METAR SLVR 260100Z 33006KT 8000 NSC 27/21 Q1008 A2978 HR70 FU NOSIG=@CAELT@
ZPX0008 260057@CAELT@GG SLZZYMYT@CAELT@260055 SLCBYGYZ@CAELT@SABO SLCB 260100@CAELT@METAR SLCB 260100Z 13005KT 020V160 9999 NSC 18/04 Q1023 A3022 750.2@CAELT@HR38 FU NOSIG=@CAELT@
ZPX0010 260100@CAELT@GG SLLPZRZX@CAELT@260055 SLLPYGYZ@CAELT@SABO SLLP 260100@CAELT@METAR SLLP 260100Z 09005KT 9999 NSC 06/M06 Q1038 A3066 628.1 HR44@CAELT@NOSIG=@CAELT@
ZPX0018 260153@CAELT@GG SLZZYMYT@CAELT@260154 SLVRYGYZ@CAELT@SABO SLVR 260200@CAELT@METAR SLVR 260200Z 33006KT 8000 NSC 27/22 Q1008 A2979 HR74 FU NOSIG=@CAELT@
ZPX0019 260156@CAELT@GG SLLPZRZX@CAELT@260155 SLLPYGYZ@CAELT@SABO SLLP 260200@CAELT@METAR SLLP 260200Z 08006KT 9999 NSC 03/M04 Q1038 A3067 628.3 HR57@CAELT@NOSIG=@CAELT@
ZPX0020 260156@CAELT@GG SLZZYMYT@CAELT@260156 SLCBYGYZ@CAELT@SABO SLCB 260200@CAELT@METAR SLCB 260200Z 12008KT 9999 NSC 18/05 Q1024 A3024 750.6 HR41 FU@CAELT@NOSIG=@CAELT@
ZPX0027 260251@CAELT@GG SLZZYMYT@CAELT@260251 SLVRYGYZ@CAELT@SABO SLVR 260300@CAELT@METAR SLVR 260300Z 34005KT 8000 NSC 26/22 Q1008 A2979 HR76 FU NOSIG=@CAELT@
ZPX0028 260256@CAELT@GG SLLPZRZX@CAELT@260255 SLLPYGYZ@CAELT@SABO SLLP 260300@CAELT@METAR SLLP 260300Z 08007KT 9999 NSC 03/M03 Q1038 A3068 628.5 HR65@CAELT@NOSIG=@CAELT@
ZPX0029 260257@CAELT@GG SLZZYMYT@CAELT@260256 SLCBYGYZ@CAELT@SABO SLCB 260300@CAELT@METAR SLCB 260300Z 11010KT 9999 NSC 18/05 Q1024 A3025 750.9 HR41 FU@CAELT@NOSIG=@CAELT@
ZPX0036 260352@CAELT@GG SLZZYMYT@CAELT@260353 SLVRYGYZ@CAELT@SABO SLVR 260400@CAELT@METAR SLVR 260400Z 33006KT 6000 NSC 26/22 Q1008 A2979 HR77 FU NOSIG=@CAELT@
ZPX0037 260356@CAELT@GG SLZZYMYT@CAELT@260355 SLCBYGYZ@CAELT@SABO SLCB 260400@CAELT@METAR SLCB 260400Z 11008KT 9999 NSC 17/06 Q1024 A3025 750.8 HR46 FU@CAELT@NOSIG=@CAELT@
ZPX0038 260356@CAELT@GG SLLPZRZX@CAELT@260355 SLLPYGYZ@CAELT@SABO SLLP 260400@CAELT@METAR SLLP 260400Z 08007KT 9999 NSC 03/M03 Q1038 A3067 628.4 HR68@CAELT@NOSIG=@CAELT@
ZPX0045 260456@CAELT@GG SLZZYMYT@CAELT@260456 SLVRYGYZ@CAELT@SABO SLVR 260500@CAELT@METAR SLVR 260500Z 34007KT 6000 NSC 26/22 Q1008 A2978 HR78 FU NOSIG=@CAELT@
ZPX0046 260457@CAELT@GG SLLPZRZX@CAELT@260456 SLLPYGYZ@CAELT@SABO SLLP 260500@CAELT@METAR SLLP 260500Z VRB02KT 9999 NSC 03/M03 Q1038 A3066 628.2 HR62@CAELT@NOSIG=@CAELT@
ZPX0047 260457@CAELT@GG SLZZYMYT@CAELT@260456 SLCBYGYZ@CAELT@SABO SLCB 260500@CAELT@METAR SLCB 260500Z 19004KT 9999 NSC 14/06 Q1023 A3023 750.3 HR58 FU@CAELT@NOSIG=@CAELT@
ZPX0054 260551@CAELT@GG SLZZYMYT@CAELT@260552 SLVRYGYZ@CAELT@SABO SLVR 260600@CAELT@METAR SLVR 260600Z 33009KT 6000 NSC 26/22 Q1008 A2977 HR80 FU NOSIG=@CAELT@
ZPX0055 260556@CAELT@GG SLZZYMYT@CAELT@260555 SLCBYGYZ@CAELT@SABO SLCB 260600@CAELT@METAR SLCB 260600Z 00000KT 9999 NSC 12/07 Q1023 A3021 749.9 HR67 FU@CAELT@NOSIG=@CAELT@
ZPX0056 260557@CAELT@GG SLLPZRZX@CAELT@260555 SLLPYGYZ@CAELT@SABO SLLP 260600@CAELT@METAR SLLP 260600Z 33004KT 9999 NSC 04/M02 Q1037 A3065 627.9 HR65@CAELT@NOSIG=@CAELT@
ZPX0063 260653@CAELT@GG SLZZYMYT@CAELT@260654 SLVRYGYZ@CAELT@SABO SLVR 260700@CAELT@METAR SLVR 260700Z 34008KT 7000 NSC 25/22 Q1007 A2976 HR81 FU NOSIG=@CAELT@
ZPX0064 260656@CAELT@GG SLZZYMYT@CAELT@260655 SLCBYGYZ@CAELT@SABO SLCB 260700@CAELT@METAR SLCB 260700Z 00000KT 9999 NSC 11/06 Q1022 A3020 749.7 HR69 FU@CAELT@NOSIG=@CAELT@
ZPX0065 260656@CAELT@GG SLLPZRZX@CAELT@260656 SLLPYGYZ@CAELT@SABO SLLP 260700@CAELT@METAR SLLP 260700Z VRB02KT 9999 NSC 00/M04 Q1037 A3063 627.5 HR71@CAELT@NOSIG=@CAELT@
ZPX0074 260755@CAELT@GG SLLPZRZX@CAELT@260755 SLLPYGYZ@CAELT@SABO SLLP 260800@CAELT@METAR SLLP 260800Z 05004KT 9999 NSC 01/M04 Q1036 A3062 627.2 HR69@CAELT@NOSIG=@CAELT@
ZPX0075 260756@CAELT@GG SLZZYMYT@CAELT@260756 SLVRYGYZ@CAELT@SABO SLVR 260800@CAELT@METAR SLVR 260800Z 34008KT 6000 NSC 25/22 Q1007 A2975 HR82 FU NOSIG=@CAELT@
ZPX0076 260756@CAELT@GG SLZZYMYT@CAELT@260755 SLCBYGYZ@CAELT@SABO SLCB 260800@CAELT@METAR SLCB 260800Z 00000KT 9999 NSC 10/06 Q1023 A3021 749.8 HR76 FU@CAELT@NOSIG=@CAELT@
ZPX0084 260855@CAELT@GG SLLPZRZX@CAELT@260855 SLLPYGYZ@CAELT@SABO SLLP 260900@CAELT@METAR SLLP 260900Z 09005KT 9999 NSC M01/M03 Q1036 A3062 627.4 HR83@CAELT@NOSIG=@CAELT@
ZPX0085 260856@CAELT@GG SLZZYMYT@CAELT@260856 SLVRYGYZ@CAELT@SABO SLVR 260900@CAELT@METAR SLVR 260900Z 34009KT 6000 NSC 25/22 Q1007 A2975 HR82 FU NOSIG=@CAELT@
ZPX0086 260857@CAELT@GG SLZZYMYT@CAELT@260855 SLCBYGYZ@CAELT@SABO SLCB 260900@CAELT@METAR SLCB 260900Z 00000KT 9999 NSC 10/06 Q1023 A3022 750.0 HR76 FU@CAELT@NOSIG=@CAELT@
ZPX0093 260952@CAELT@GG SLZZYMYT@CAELT@260953 SLVRYGYZ@CAELT@SABO SLVR 261000@CAELT@METAR SLVR 261000Z 34010KT 5000 FU NSC 25/22 Q1008 A2977 HR80 NOSIG=@CAELT@
ZPX0094 260954@CAELT@GG SLZZYMYT@CAELT@260955 SLCBYGYZ@CAELT@SABO SLCB 261000@CAELT@METAR SLCB 261000Z 00000KT 9000 NSC 09/05 Q1023 A3023 750.3 HR74 FU@CAELT@NOSIG=@CAELT@
ZPX0095 260955@CAELT@GG SLZZYMYT@CAELT@260954 SLCBYGYS@CAELT@SABO SLCB 261000@CAELT@METAR SLCB 261000Z 00000KT 9000 NSC 09/05 Q1023 A3023 750.3 HR74 FU@CAELT@NOSIG=@CAELT@
ZPX0096 260956@CAELT@GG SLZZYMYT@CAELT@260956 SLLPYGYZ@CAELT@SABO SLLP 261000@CAELT@METAR SLLP 261000Z 06004KT 9999 NSC M01/M04 Q1037 A3063 627.5 HR86@CAELT@NOSIG=@CAELT@
ZPX0097 260958@CAELT@GG SLZZYMYT@CAELT@260957 SLTRYGYZ@CAELT@SABO SLTR 261000@CAELT@METAR SLTR 261000Z 32006KT 3000 FU NSC 26/22 Q1009 A2980 990.6 HR80@CAELT@CI NOSIG=@CAELT@
ZPX0098 260958@CAELT@GG SLZZYMYT@CAELT@260958 SLVRYGYS@CAELT@SABO SLVR 261000@CAELT@METAR SLVR 261000Z 34010KT 5000 FU NSC 25/22 Q1008 A2977 HR80 NOSIG=@CAELT@METAR SLET 261000Z NIL=@CAELT@METAR SLJV 261000Z 36010KT 5000 FU NSC 24/19 Q1009 A2980 HR77 RWY NML@CAELT@
ZPX0099 261000@CAELT@GG SLZZYMYT@CAELT@260958 SLSBYSYX@CAELT@SABO SLSB 261000@CAELT@METAR SLSB 261000Z 00000KT 6000 NSC 23/22 Q1009 A2980 HR95 FU CI RWY@CAELT@NML=@CAELT@
ZPX0101 261001@CAELT@GG SLZZYMYT@CAELT@261001 SLVRYGYS@CAELT@SABO SLVR 261000 RRA@CAELT@METAR SLVR 261000Z 34010KT 5000 FU NSC 25/22 Q1008 A2977 HR80 NOSIG=@CAELT@METAR SLET 261000Z NIL=@CAELT@METAR SLJV 261000Z 36010KT 5000 FU NSC 24/19 Q1009 A2980 HR77 RWY NML@CAELT@METAR RTD SLCP 261000Z 33004KT 1500 FU NSC 23/20 Q1013 A2991 HR88 RWY@CAELT@NML=
ZPX0102 261002@CAELT@GG SLZZYMYT@CAELT@261000 SLLPYFYA@CAELT@SABO SLLP 261000@CAELT@METAR SLLP 261000Z 06004KT 9999 NSC M01/M04 Q1037 A3063 627.5 HR86@CAELT@NOSIG=@CAELT@METAR SLSB 261000Z 00000KT 6000 NSC 23/22 Q1009 A2980 HR95 FU CI@CAELT@RWY NML=@CAELT@
ZPX0104 261005@CAELT@GG SLZZYMYT@CAELT@261004 SLETYMYC@CAELT@SABO SLET 261000@CAELT@METAR SLET 261000Z 32012G22KT 5000 FU NSC 25/21 Q1007 A2974 HR79@CAELT@NOSIG=@CAELT@
ZPX0105 261013@CAELT@GG SLZZYMYT@CAELT@261013 SLVRYGYS@CAELT@SABO SLVR 261000 RRB@CAELT@METAR SLVR 261000Z 34010KT 5000 FU NSC 25/22 Q1008 A2977 HR80 NOSIG=@CAELT@METAR RTD SLET 261000Z 32012G22KT 5000 FU NSC 25/21 Q1007 A2974 HR79@CAELT@NOSIG=@CAELT@METAR SLJV 261000Z 36010KT 5000 FU NSC 24/19 Q1009 A2980 HR77 RWY NML@CAELT@METAR RTD SLCP 261000Z 33004KT 1500 FU NSC 23/20 Q1013 A2991 HR88 RWYNML=
ZPX0114 261053@CAELT@GG SLZZYMYT@CAELT@261054 SLVRYGYZ@CAELT@SABO SLVR 261100@CAELT@METAR SLVR 261100Z 34010KT 5000 FU NSC 25/22 Q1008 A2979 HR82 NOSIG=@CAELT@
ZPX0115 261055@CAELT@GG SLZZYMYT@CAELT@261055 SLTRYGYZ@CAELT@SABO SLTR 261100@CAELT@METAR SLTR 261100Z 32005KT 3000 FU NSC 26/22 Q1009 A2982 991.4 HR79@CAELT@CI NOSIG=@CAELT@
ZPX0116 261055@CAELT@GG SLZZYMYT@CAELT@261055 SLVRYGYS@CAELT@SABO SLVR 261100@CAELT@METAR SLVR 261100Z 34010KT 5000 FU NSC 25/22 Q1008 A2979 HR82 NOSIG=@CAELT@METAR SLET 261100Z 32013G25KT 5000 FU NSC 25/21 Q1018 A3006 HR77@CAELT@NOSIG=@CAELT@METAR SLJV 261100Z 36010KT 5000 FU NSC 25/20 Q1009 A2980 HR75 RWY NML@CAELT@METAR SLCP 261100Z 33005KT 1500 FU NSC 24/21 Q1013 A2991 HR84 RWY NML=
ZPX0117 261055@CAELT@GG SLZZYMYT@CAELT@261054 SLETYMYC@CAELT@SABO SLET 261100@CAELT@METAR SLET 261100Z 32013G25KT 5000 FU NSC 25/21 Q1018 A3006 HR77@CAELT@NOSIG=@CAELT@
ZPX0118 261056@CAELT@GG SLZZYMYT@CAELT@261055 SLTRYGYZ@CAELT@SABO SLTR 261100@CAELT@METAR SLTR 261100Z 32005KT 3000 FU NSC 26/22 Q1009 A2982 991.4 HR79@CAELT@CI NOSIG=@CAELT@
ZPX0120 261056@CAELT@GG SLZZYMYT@CAELT@261056 SLLPYGYZ@CAELT@SABO SLLP 261100@CAELT@METAR SLLP 261100Z 09004KT 9999 NSC M01/M03 Q1038 A3066 628.0 HR87@CAELT@NOSIG=@CAELT@
ZPX0121 261057@CAELT@GG SLZZYMYT@CAELT@261056 SLTJYGYZ@CAELT@SABO SLTJ 261100@CAELT@METAR SLTJ 261100Z 00000KT 9999 NSC 12/06 Q1013 A2992 809.2 HR65 FU=@CAELT@
ZPX0122 261057@CAELT@GG SLZZYMYT@CAELT@261057 SLETYMYC@CAELT@SABO SLET 261100@CAELT@METAR COR SLET 261100Z 32013G25KT 5000 FU NSC 25/21 Q1007 A2975 HR77@CAELT@NOSIG=@CAELT@
ZPX0123 261058@CAELT@GG SLZZYMYT@CAELT@261057 SLCBYGYZ@CAELT@SABO SLCB 261100@CAELT@METAR SLCB 261100Z 00000KT 9000 NSC 11/07 Q1024 A3025 751.0 HR75 FU@CAELT@NOSIG=@CAELT@
ZPX0125 261058@CAELT@GG SLZZYMYT@CAELT@261058 SLTRYGYS@CAELT@SABO SLTR 261100@CAELT@METAR SLTR 261100Z 32005KT 3000 FU NSC 26/22 Q1009 A2982 991.4 HR79@CAELT@CI NOSIG=@CAELT@METAR SLSR 261100Z 34004KT 7000 NSC 25/22 Q1009 A2980 HR87 FU CI@CAELT@RWY NML=@CAELT@
ZPX0127 261100@CAELT@GG SLZZYMYT@CAELT@261101 SLVRYGYS@CAELT@SABO SLVR 261100 CCA@CAELT@METAR SLVR 261100Z 34010KT 5000 FU NSC 25/22 Q1008 A2979 HR82 NOSIG=@CAELT@METAR COR SLET 261100Z 32013G25KT 5000 FU NSC 25/21 Q1007 A2975 HR77@CAELT@NOSIG=@CAELT@METAR SLJV 261100Z 36010KT 5000 FU NSC 25/20 Q1009 A2980 HR75 RWY NML@CAELT@METAR SLCP 261100Z 33005KT 1500 FU NSC 24/21 Q1013 A2991 HR84 RWY NML=
ZPX0128 261100@CAELT@GG SLZZYMYT@CAELT@261100 SLCBYGYS@CAELT@SABO SLCB 261100@CAELT@METAR SLCB 261100Z 00000KT 9000 NSC 11/07 Q1024 A3025 751.0 HR75 FU@CAELT@NOSIG=@CAELT@METAR SLAL 261100Z 00000KT 9999 NSC 11/03 Q1027 A3034 702.5 HR61=@CAELT@METAR SLTJ 261100Z 00000KT 9999 NSC 12/06 Q1013 A2992 809.2 HR65 FU=@CAELT@
ZPX0129 261101@CAELT@GG SLZZYMYT@CAELT@261100 SLSBYSYX@CAELT@SABO SLSB 261100@CAELT@METAR SLSB 261100Z 00000KT 6000 NSC 24/22 Q1009 A2982 HR92 FU CI RWY@CAELT@NML=@CAELT@
ZPX0130 261102@CAELT@GG SLZZYMYT@CAELT@261100 SLLPYFYA@CAELT@SABO SLLP 261100@CAELT@METAR SLLP 261100Z 09004KT 9999 NSC M01/M03 Q1038 A3066 628.0 HR87@CAELT@NOSIG=@CAELT@METAR SLSB 261100Z 00000KT 6000 NSC 24/22 Q1009 A2982 HR92 FU CI@CAELT@RWY NML=@CAELT@
ZPX0153 261155@CAELT@GG SLZZYMYT@CAELT@261155 SLSBYSYX@CAELT@SABO SLSB 261200@CAELT@METAR SLSB 261200Z 34004KT 6000 NSC 26/23 Q1010 A2985 HR84 FU CI RWY@CAELT@NML=@CAELT@
ZPX0154 261155@CAELT@GG SLZZYMYT@CAELT@261154 SLSAYGYS@CAELT@SABO SLSA 261200@CAELT@METAR SLSA 261200Z 34010KT 6000 SCT080 26/22 Q1011 A2986 HR78 FU=@CAELT@
ZPX0155 261155@CAELT@GG SLZZYMYT@CAELT@261154 SLSAYGYS@CAELT@SABO SLSA 261200@CAELT@METAR SLSA 261200Z 34010KT 6000 SCT080 26/22 Q1011 A2986 HR78 FU=@CAELT@
ZPX0156 261155@CAELT@GG SLZZYMYT@CAELT@261155 SLETYMYC@CAELT@SABO SLET 261200@CAELT@METAR SLET 261200Z 32014G27KT 5000 FU NSC 27/21 Q1008 A2977 HR71@CAELT@NOSIG=@CAELT@
ZPX0158 261156@CAELT@GG SLZZYMYT@CAELT@261157 SLVRYGYZ@CAELT@SABO SLVR 261200@CAELT@METAR SLVR 261200Z 34012KT 6000 NSC 28/23 Q1008 A2979 HR76 FU NOSIG=@CAELT@
ZPX0159 261157@CAELT@GG SLZZYMYT@CAELT@261157 SLCBYGYZ@CAELT@SABO SLCB 261200@CAELT@METAR SLCB 261200Z 24003KT 9999 NSC 15/07 Q1025 A3027 751.4 HR59 FU@CAELT@NOSIG=@CAELT@
ZPX0160 261157@CAELT@GG SLZZYMYT@CAELT@261156 SLTJYGYZ@CAELT@SABO SLTJ 261200@CAELT@METAR SLTJ 261200Z 00000KT 9999 NSC 18/07 Q1013 A2993 809.6 HR49 FU=@CAELT@
ZPX0161 261158@CAELT@GG SLZZYMYT@CAELT@261157 SLLPYGYZ@CAELT@SABO SLLP 261200@CAELT@METAR SLLP 261200Z VRB02KT 9999 NSC 06/M03 Q1038 A3068@CAELT@628.6 HR52 FU NOSIG=@CAELT@
ZPX0163 261158@CAELT@GG SLZZYMYT@CAELT@261156 SLTRYGYZ@CAELT@SABO SLTR 261200@CAELT@METAR SLTR 261200Z 33006KT 3000 FU NSC 27/22 Q1011 A2986 992.7 HR72@CAELT@CI TEMPO 5000=@CAELT@
ZPX0164 261159@CAELT@GG SLZZYMYT@CAELT@261159 SLVRYGYS@CAELT@SABO SLVR 261200@CAELT@METAR SLVR 261200Z 34012KT 6000 NSC 28/23 Q1008 A2979 HR76 FU NOSIG=@CAELT@METAR SLET 261200Z 32014G27KT 5000 FU NSC 27/21 Q1008 A2977 HR71@CAELT@NOSIG=@CAELT@METAR SLJV 261200Z 36014KT 5000 FU NSC 27/19 Q1010 A2983 HR64 RWY NML@CAELT@METAR SLCP 261200Z 33008KT 1500 FU NSC 25/21 Q1014 A2994 HR77 RWY NML=
ZPX0166 261200@CAELT@GG SLZZYMYT@CAELT@261200 SLCBYGYS@CAELT@SABO SLCB 261200@CAELT@METAR SLCB 261200Z 24003KT 9999 NSC 15/07 Q1025 A3027 751.4 HR59 FU@CAELT@NOSIG=@CAELT@METAR SLAL 261200Z 30004KT 9999 NSC 13/01 Q1027 A3035 702.7 HR47=@CAELT@METAR SLTJ 261200Z 00000KT 9999 NSC 18/07 Q1013 A2993 809.6 HR49 FU=@CAELT@
ZPX0167 261201@CAELT@GG SLZZYMYT@CAELT@261200 SLLPYFYA@CAELT@SABO SLLP 261200@CAELT@METAR SLLP 261200Z VRB02KT 9999 NSC 06/M03 Q1038 A3068@CAELT@628.6 HR52 FU NOSIG=@CAELT@METAR SLSB 261200Z 34004KT 6000 NSC 26/23 Q1010 A2985 HR84 FU CI@CAELT@RWY NML=@CAELT@
ZPX0168 261202@CAELT@GG SLZZYMYT@CAELT@261158 SLTRYGYS@CAELT@SABO SLTR 261200@CAELT@METAR SLTR 261200Z 33006KT 3000 FU NSC 27/22 Q1011 A2986 992.7 HR72@CAELT@CI TEMPO 5000=@CAELT@METAR SLGM 261200Z 36008KT 5000 FU FEW008 SCT080 25/22 Q1013 A2991@CAELT@HR84@CAELT@METAR SLRI 261200Z 03006KT 5000 FU BKN080 25/21 Q1013 A2994 HR78=METAR SLSA 261200Z 34010KT 6000 SCT080 26/22 Q1011 A2986 HR78 FU=
ZPX0190 261254@CAELT@GG SLZZYMYT@CAELT@261255 SLETYMYC@CAELT@SABO SLET 261300@CAELT@METAR SLET 261300Z 32014G27KT 6000 NSC 28/21 Q1008 A2977 HR65 FU@CAELT@NOSIG=@CAELT@
ZPX0191 261255@CAELT@GG SLZZYMYT@CAELT@261255 SLVRYGYZ@CAELT@SABO SLVR 261300@CAELT@METAR SLVR 261300Z 34016G27KT 7000 NSC 30/22 Q1009 A2980 HR64 FU@CAELT@NOSIG=@CAELT@
ZPX0192 261255@CAELT@GG SLZZYMYT@CAELT@261254 SLSAYGYS@CAELT@SABO SLSA 261300@CAELT@METAR SLSA 261300Z 34014KT 6000 SCT080 28/23 Q1012 A2990 HR74 FU=@CAELT@
ZPX0193 261255@CAELT@GG SLZZYMYT@CAELT@261254 SLSAYGYS@CAELT@SABO SLSA 261300@CAELT@METAR SLSA 261300Z 34014KT 6000 SCT080 28/23 Q1012 A2990 HR74 FU=@CAELT@
ZPX0194 261256@CAELT@GG SLZZYMYT@CAELT@261255 SLSBYSYX@CAELT@SABO SLSB 261300@CAELT@METAR SLSB 261300Z 30006KT 6000 NSC 29/23 Q1010 A2985 HR73 FU CI RWY@CAELT@NML=@CAELT@
ZPX0196 261256@CAELT@GG SLZZYMYT@CAELT@261257 SLLPYGYZ@CAELT@SABO SLLP 261300@CAELT@METAR SLLP 261300Z 27004KT 9999 NSC 09/M03 Q1039 A3070@CAELT@629.0 HR41 FU NOSIG=@CAELT@
ZPX0197 261257@CAELT@GG SLZZYMYT@CAELT@261257 SLCBYGYZ@CAELT@SABO SLCB 261300@CAELT@METAR SLCB 261300Z 32003KT 9999 NSC 21/03 Q1025 A3028 751.6 HR32 FU@CAELT@NOSIG=@CAELT@
ZPX0198 261257@CAELT@GG SLZZYMYT@CAELT@261256 SLTRYGYZ@CAELT@SABO SLTR 261300@CAELT@METAR SLTR 261300Z 33013KT 5000 FU NSC 30/22 Q1011 A2988 993.4 HR62@CAELT@CI NOSIG=@CAELT@
ZPX0199 261258@CAELT@GG SLZZYMYT@CAELT@261257 SLTJYGYZ@CAELT@SABO SLTJ 261300@CAELT@METAR SLTJ 261300Z 00000KT 9999 NSC 22/07 Q1013 A2994 809.7 HR37 FU=@CAELT@
ZPX0200 261258@CAELT@GG SLZZYMYT@CAELT@261258 SLTRYGYS@CAELT@SABO SLTR 261300@CAELT@METAR SLTR 261300Z 33013KT 5000 FU NSC 30/22 Q1011 A2988 993.4 HR62@CAELT@CI NOSIG=@CAELT@METAR SLGM 261300Z 36008KT 5000 FU FEW010 BKN080 26/22 Q1013 A2993@CAELT@HR79=@CAELT@METAR SLRI 261300Z 36008KT 5000 FU FEW080 BKN200 27/22 Q1014 A2996HR72=METAR SLSA 261300Z 34014KT 6000 SCT080 28/23 Q1012 A2990 HR74 FU=
ZPX0203 261301@CAELT@GG SLZZYMYT@CAELT@261300 SLCBYGYS@CAELT@SABO SLCB 261300@CAELT@METAR SLCB 261300Z 32003KT 9999 NSC 21/03 Q1025 A3028 751.6 HR32 FU@CAELT@NOSIG=@CAELT@METAR SLAL 271300Z 27005KT 9999 NSC 16/M01 Q1028 A3036 702.9 HR34=@CAELT@METAR SLTJ 261300Z 00000KT 9999 NSC 22/07 Q1013 A2994 809.7 HR37 FU=@CAELT@
ZPX0204 261301@CAELT@GG SLZZYMYT@CAELT@261301 SLVRYGYS@CAELT@SABO SLVR 261300@CAELT@METAR SLVR 261300Z 34016G27KT 7000 NSC 30/22 Q1009 A2980 HR64@CAELT@FU NOSIG=@CAELT@METAR SLET 261300Z 32014G27KT 6000 NSC 28/21 Q1008 A2977 HR65@CAELT@METAR SLSI 261300Z 33015KT 5000 FU NSC 30/22 Q1012 A2988 HR61 RWY NML@CAELT@METAR SLJV 261300Z NIL=METAR SLCP 261300Z 33015KT 5000 FU NSC 28/21 Q1015 A2997 HR69 RWY NML
ZPX0208 261306@CAELT@GG SLZZYMYT@CAELT@261305 SLLPYFYA@CAELT@SABO SLLP 261300@CAELT@METAR SLLP 261300Z 27004KT 9999 NSC 09/M03 Q1039 A3070@CAELT@629.0 HR41 FU NOSIG=@CAELT@METAR SLSB 261300Z 30006KT 6000 NSC 29/23 Q1010 A2985 HR73 FU CI@CAELT@RWY NML=@CAELT@
ZPX0211 261310@CAELT@GG SLZZYMYT@CAELT@261310 SLCBYGYS@CAELT@SABO SLCB 261300@CAELT@METAR SLCB 261300Z 32003KT 9999 NSC 21/03 Q1025 A3028 751.6 HR32 FU@CAELT@NOSIG=@CAELT@METAR SLAL 261300Z 27005KT 9999 NSC 16/M01 Q1028 A3036 702.9 HR34=@CAELT@METAR SLTJ 261300Z 00000KT 9999 NSC 22/07 Q1013 A2994 809.7 HR37 FU=@CAELT@
ZPX0215 261313@CAELT@GG SLZZYMYT@CAELT@261312 SLRQYSYX@CAELT@SABO SLRQ 261300 RRA@CAELT@METAR RTD SLRQ 261300Z 00000KT 8000 NSC 29/25 Q1011 A2987 987.3 HR79@CAELT@
ZPX0218 261315@CAELT@GG SLZZYMYT@CAELT@261314 SLLPYFYA@CAELT@SABO SLLP 261300 RRA@CAELT@METAR SLLP 261300Z 27004KT 9999 NSC 09/M03 Q1039 A3070@CAELT@629.0 HR41 FU NOSIG=@CAELT@METAR RTD SLRQ 261300Z 00000KT 8000 NSC 29/25 Q1011 A2987 987.3@CAELT@HR79 FU=@CAELT@METAR SLSB 261300Z 30006KT 6000 NSC 29/23 Q1010 A2985 HR73 FU CIRWY NML=
ZPX0221 261318@CAELT@GG SLZZYMYT@CAELT@261315 SLTRYGYS@CAELT@SABO SLMG 261300 RTD@CAELT@METAR SLMG 261300Z 32014KT 8000 FEW080 29/20 Q1012 A2988 HR59@CAELT@FU RWY NML=@CAELT@
ZPX0237 261354@CAELT@GG SLZZYMYT@CAELT@261355 SLSBYSYX@CAELT@SABO SLSB 261400@CAELT@METAR SLSB 261400Z 32010G20KT 6000 NSC 30/23 Q1010 A2985 HR66 FU RWY@CAELT@NML=@CAELT@
ZPX0239 261354@CAELT@GG SLZZYMYT@CAELT@261355 SLRQYSYX@CAELT@SABO SLRQ 261400@CAELT@METAR SLRQ 261400Z 00000KT 8000 NSC 30/26 Q1011 A2987 987.4 HR79 FU=@CAELT@
ZPX0240 261354@CAELT@GG SLZZYMYT@CAELT@261355 SLETYMYC@CAELT@SABO SLET 261400@CAELT@METAR SLET 261400Z 31024G39KT 6000 FEW017 30/21 Q1008 A2977 HR58 FU@CAELT@NOSIG=@CAELT@
ZPX0241 261355@CAELT@GG SLZZYMYT@CAELT@261355 SLVRYGYZ@CAELT@SABO SLVR 261400@CAELT@METAR SLVR 261400Z 34020G30KT 7000 NSC 32/22 Q1009 A2980 HR57 FU@CAELT@NOSIG=@CAELT@
ZPX0242 261355@CAELT@GG SLZZYMYT@CAELT@261354 SLSAYGYS@CAELT@SABO SLSA 261400@CAELT@METAR SLSA 261400Z 34010G20KT 8000 NSC 31/22 Q1013 A2992 HR57 FU=@CAELT@
ZPX0243 261355@CAELT@GG SLZZYMYT@CAELT@261354 SLSAYGYS@CAELT@SABO SLSA 261400@CAELT@METAR SLSA 261400Z 34010G20KT 8000 NSC 31/22 Q1013 A2992 HR57 FU=@CAELT@
ZPX0244 261356@CAELT@GG SLZZYMYT@CAELT@261356 SLVRYGYS@CAELT@SABO SLVR 261400@CAELT@METAR SLVR 261400Z 34020G30KT 7000 NSC 32/22 Q1009 A2980 HR57@CAELT@FU NOSIG=@CAELT@METAR SLET 261400Z 31024G39KT 6000 FEW017 30/21 Q1008 A2977@CAELT@HR58 FU NOSIG=@CAELT@METAR SLCP 261400Z 33018KT 6000 NSC 30/22 Q1015 A2997 HR61 FU RWY NMLMETAR SLSI 261400Z 36017KT 5000 FU NSC 32/20 Q1012 A2988 HR50 RWY NML
ZPX0245 261357@CAELT@GG SLZZYMYT@CAELT@261357 SLLPYGYZ@CAELT@SABO SLLP 261400@CAELT@METAR SLLP 261400Z 29006KT 240V330 9999 FEW017 11/M07 Q1039@CAELT@A3070 629.0 HR27 P1380 FU NOSIG=@CAELT@
ZPX0246 261357@CAELT@GG SLZZYMYT@CAELT@261357 SLLPYFYA@CAELT@SABO SLLP 261400@CAELT@METAR SLLP 261400Z 29006KT 240V330 9999 FEW017 11/M07 Q1039=@CAELT@METAR SLRQ 261400Z 00000KT 8000 NSC 30/26 Q1011=@CAELT@METAR SLSB 261400Z 32010G20KT 6000 NSC 30/23 Q1010=@CAELT@
ZPX0247 261357@CAELT@GG SLZZYMYT@CAELT@261357 SLTJYGYZ@CAELT@SABO SLTJ 261400@CAELT@METAR SLTJ 261400Z 14003KT 9999 NSC 28/06 Q1013 A2992 809.2 HR25 FU=@CAELT@
ZPX0248 261358@CAELT@GG SLZZYMYT@CAELT@261356 SLTRYGYZ@CAELT@SABO SLTR 261400@CAELT@METAR SLTR 261400Z 33015KT 5000 FU NSC 32/21 Q1011 A2988 992.4 HR54@CAELT@CI NOSIG=@CAELT@
ZPX0250 261400@CAELT@GG SLZZYMYT@CAELT@261400 SLCBYGYZ@CAELT@SABO SLCB 261400@CAELT@METAR SLCB 261400Z 00000KT 9999 NSC 23/05 Q1024 A3027 751.3 HR30 FU@CAELT@NOSIG=@CAELT@
ZPX0251 261401@CAELT@GG SLZZYMYT@CAELT@261359 SLTRYGYS@CAELT@SABO SLTR 261400@CAELT@METAR SLTR 261400Z 33015KT 5000 FU NSC 32/21 Q1011 A2988 992.4 HR54@CAELT@CI NOSIG=@CAELT@METAR SLGM 261400Z 36008KT 5000 FU FEW012 BKN080 29/21 Q1014 A2994@CAELT@HR65=@CAELT@METAR SLRI 261400Z 36008KT 5000 FU SCT080 BKN200 27/22 Q1015 A2997HR71=METAR SLMG 261400Z 32014KT 8000 SCT080 31/20 Q1012 A2991 HR54 FURWY NML=METAR SLSA 261400Z 34010G20KT 8000 NSC 31/22 Q1013 A2992 HR57 FU=METAR SLSR 261400Z 35015G25KT 7000 NSC 29/21 Q1010 A2983HR61 FU CI RWY NML=
ZPX0257 261407@CAELT@GG SLZZYMYT@CAELT@261403 SLCBYGYS@CAELT@SABO SLCB 261400@CAELT@METAR SLCB 261400Z 00000KT 9999 NSC 23/05 Q1024 A3027 751.3 HR30 FU@CAELT@NOSIG=@CAELT@METAR SLAL 261400Z 29004KT 9999 NSC 20/M03 Q1028 A3036 702.9 HR22=@CAELT@METAR SLTJ 261400Z 14003KT 9999 NSC 28/06 Q1013 A2992 809.2 HR25 FU=@CAELT@
ZPX0260 261409@CAELT@GG SLZZYMYT@CAELT@261408 SLLPYFYA@CAELT@SABO SLLP 261400@CAELT@METAR SLLP 261400Z 29006KT 240V330 9999 FEW017 11/M07 Q1039@CAELT@A3070 629.0 HR27 P1380 FU NOSIG=@CAELT@METAR SLSB 261400Z 32010G20KT 6000 NSC 30/23 Q1010 A2985 HR66 FU RWY@CAELT@NML=@CAELT@ETAR SLRQ 261400Z 00000KT 8000 NSC 30/26 Q1011 A2987 987.4 HR79 FU=
