
ZPX0012 090055@CAELT@GG SLZZYMYT@CAELT@090055 SLCBYGYZ@CAELT@SABO SLCB 090100@CAELT@METAR SLCB 090100Z 13007KT 090V200 9999 NSC 20/05 Q1025 A3028 751.7@CAELT@HR38 FU NOSIG=@CAELT@
ZPX0013 090055@CAELT@GG SLLPZRZX@CAELT@090055 SLLPYGYZ@CAELT@SABO SLLP 090100@CAELT@METAR SLLP 090100Z 08006KT 9999 FEW015 07/M05 Q1040 A3072 629.4 HR42@CAELT@FU NOSIG=@CAELT@
ZPX0014 090057@CAELT@GG SLZZYMYT@CAELT@090057 SLVRYGYZ@CAELT@SABO SLVR 090100@CAELT@METAR SLVR 090100Z 32007KT 9000 NSC 28/20 Q1010 A2983 HR62 FU NOSIG=@CAELT@
ZPX0030 090155@CAELT@GG SLZZYMYT@CAELT@090156 SLVRYGYZ@CAELT@SABO SLVR 090200@CAELT@METAR SLVR 090200Z 32008KT 9000 NSC 28/20 Q1011 A2985 HR64 FU NOSIG=@CAELT@
ZPX0031 090156@CAELT@GG SLLPZRZX@CAELT@090155 SLLPYGYZ@CAELT@SABO SLLP 090200@CAELT@METAR SLLP 090200Z VRB02KT 9999 FEW013 07/M04 Q1040 A3074 629.9 HR43@CAELT@FU NOSIG=@CAELT@
ZPX0032 090157@CAELT@GG SLZZYMYT@CAELT@090156 SLCBYGYZ@CAELT@SABO SLCB 090200@CAELT@METAR SLCB 090200Z 12008KT 070V180 9999 NSC 20/07 Q1026 A3031 752.4@CAELT@HR43 FU NOSIG=@CAELT@
