
ZPX0016 230054@CAELT@GG SLZZYMYT@CAELT@230055 SLVRYGYZ@CAELT@SABO SLVR 230100@CAELT@METAR SLVR 230100Z 29003KT 9999 NSC 27/21 Q1011 A2985 HR71 CI NOSIG=@CAELT@
ZPX0017 230056@CAELT@GG SLLPZRZX@CAELT@230056 SLLPYGYZ@CAELT@SABO SLLP 230100@CAELT@METAR SLLP 230100Z 09012KT 3000E VCFG FEW003 SCT012 FEW017CB BKN200@CAELT@05/04 Q1040 A3073 629.8 HR95 VCFG N/NE/E/SE CB/LT SE/S AC NOSIG=@CAELT@
ZPX0018 230057@CAELT@GG SLZZYMYT@CAELT@230056 SLCBYGYZ@CAELT@SABO SLCB 230100@CAELT@METAR SLCB 230100Z 16004KT 9999 FEW036 SCT080 20/05 Q1025 A3027 751.4@CAELT@HR36 CI NOSIG=@CAELT@
ZPX0033 230155@CAELT@GG SLZZYMYT@CAELT@230155 SLVRYGYZ@CAELT@SABO SLVR 230200@CAELT@METAR SLVR 230200Z 29004KT 9999 NSC 26/21 Q1012 A2989 HR74 CI NOSIG=@CAELT@
ZPX0034 230156@CAELT@GG SLLPZRZX@CAELT@230156 SLLPYGYZ@CAELT@SABO SLLP 230200@CAELT@METAR SLLP 230200Z 07009KT 4000E VCFG FEW003 SCT012 BKN200 05/04@CAELT@Q1041 A3075 630.1 HR95 VCFG NE/E/SE AC NOSIG=@CAELT@
ZPX0035 230156@CAELT@GG SLZZYMYT@CAELT@230156 SLCBYGYZ@CAELT@SABO SLCB 230200@CAELT@METAR SLCB 230200Z 13015KT 9999 FEW036 18/09 Q1026 A3031 752.6 HR56@CAELT@AC CI NOSIG=@CAELT@
ZPX0044 230255@CAELT@GG SLZZYMYT@CAELT@230256 SLVRYGYZ@CAELT@SABO SLVR 230300@CAELT@METAR SLVR 230300Z 28003KT 9999 NSC 26/21 Q1011 A2988 HR76 CI NOSIG=@CAELT@
ZPX0045 230256@CAELT@GG SLLPZRZX@CAELT@230256 SLLPYGYZ@CAELT@SABO SLLP 230300@CAELT@METAR SLLP 230300Z 04004KT 9999 FEW005 BKN200 05/03 Q1040 A3073@CAELT@629.7 HR87 AC NOSIG=@CAELT@
ZPX0046 230257@CAELT@GG SLZZYMYT@CAELT@230256 SLCBYGYZ@CAELT@SABO SLCB 230300@CAELT@METAR SLCB 230300Z 12010KT 9999 FEW036 17/08 Q1026 A3033 752.9 HR56@CAELT@AC CI NOSIG=@CAELT@
ZPX0056 230353@CAELT@GG SLZZYMYT@CAELT@230355 SLVRYGYZ@CAELT@SABO SLVR 230400@CAELT@METAR SLVR 230400Z 30003KT 9999 NSC 26/21 Q1010 A2985 HR78 CI NOSIG=@CAELT@
ZPX0057 230355@CAELT@GG SLLPZRZX@CAELT@230356 SLLPYGYZ@CAELT@SABO SLLP 230400@CAELT@METAR SLLP 230400Z VRB02KT 9999 FEW005 SCT070 BKN200 05/04 Q1040@CAELT@A3071 629.3 HR89 NOSIG=@CAELT@
ZPX0058 230356@CAELT@GG SLZZYMYT@CAELT@230356 SLCBYGYZ@CAELT@SABO SLCB 230400@CAELT@METAR SLCB 230400Z 15003KT 9999 FEW036 SCT070 17/07 Q1027 A3033 753.1@CAELT@HR53 CI NOSIG=@CAELT@
ZPX0067 230451@CAELT@GG SLZZYMYT@CAELT@230452 SLVRYGYZ@CAELT@SABO SLVR 230500@CAELT@METAR SLVR 230500Z 27004KT 9999 NSC 25/22 Q1010 A2985 HR80 CI NOSIG=@CAELT@
ZPX0069 230456@CAELT@GG SLLPZRZX@CAELT@230456 SLLPYGYZ@CAELT@SABO SLLP 230500@CAELT@METAR SLLP 230500Z VRB02KT 9999 FEW005 SCT070 BKN200 04/03 Q1039@CAELT@A3069 628.7 HR93 NOSIG=@CAELT@
ZPX0070 230456@CAELT@GG SLZZYMYT@CAELT@230456 SLCBYGYZ@CAELT@SABO SLCB 230500@CAELT@METAR SLCB 230500Z 31004KT 9999 SCT036 BKN070 16/09 Q1026 A3031 752.6@CAELT@HR61 CI NOSIG=@CAELT@
ZPX0077 230555@CAELT@GG SLZZYMYT@CAELT@230556 SLVRYGYZ@CAELT@SABO SLVR 230600@CAELT@METAR SLVR 230600Z 31004KT 9999 FEW070 SCT200 25/22 Q1010 A2985 HR80@CAELT@NOSIG=@CAELT@
ZPX0078 230556@CAELT@GG SLLPZRZX@CAELT@230556 SLLPYGYZ@CAELT@SABO SLLP 230600@CAELT@METAR SLLP 230600Z VRB02KT 9999 FEW005 SCT070 BKN200 04/04 Q1038@CAELT@A3067 628.4 HR96 NOSIG=@CAELT@
ZPX0079 230556@CAELT@GG SLZZYMYT@CAELT@230556 SLCBYGYZ@CAELT@SABO SLCB 230600@CAELT@METAR SLCB 230600Z 36003KT 9999 FEW036 SCT070 16/09 Q1026 A3030 752.2@CAELT@HR62 CI NOSIG=@CAELT@
ZPX0088 230654@CAELT@GG SLZZYMYT@CAELT@230655 SLVRYGYZ@CAELT@SABO SLVR 230700@CAELT@METAR SLVR 230700Z 30006KT 9999 FEW070 SCT200 26/21 Q1010 A2983 HR78@CAELT@NOSIG=@CAELT@
ZPX0089 230657@CAELT@GG SLLPZRZX@CAELT@230657 SLLPYGYZ@CAELT@SABO SLLP 230700@CAELT@METAR SLLP 230700Z VRB02KT 9999 FEW004 SCT070 BKN200 04/04@CAELT@Q1038 A3066 628.1 HR95 NOSIG=@CAELT@
ZPX0090 230657@CAELT@GG SLZZYMYT@CAELT@230657 SLCBYGYZ@CAELT@SABO SLCB 230700@CAELT@METAR SLCB 230700Z 35003KT 9999 FEW036 BKN070 15/09 Q1025 A3030 752.1@CAELT@HR65 CI NOSIG=@CAELT@
ZPX0097 230753@CAELT@GG SLZZYMYT@CAELT@230754 SLVRYGYZ@CAELT@SABO SLVR 230800@CAELT@METAR SLVR 230800Z 29010KT 9999 FEW070 SCT200 25/21 Q1010 A2984 HR79@CAELT@NOSIG=@CAELT@
ZPX0098 230755@CAELT@GG SLLPZRZX@CAELT@230757 SLLPYGYZ@CAELT@SABO SLLP 230800@CAELT@METAR SLLP 230800Z VRB02KT 9999 FEW003 SCT070 BKN200 04/03@CAELT@Q1037 A3065 627.8 HR95 NOSIG=@CAELT@
ZPX0099 230756@CAELT@GG SLZZYMYT@CAELT@230755 SLCBYGYZ@CAELT@SABO SLCB 230800@CAELT@METAR SLCB 230800Z 35003KT 9999 FEW036 SCT080 15/08 Q1026 A3030 752.3@CAELT@HR63 CI NOSIG=@CAELT@
ZPX0110 230853@CAELT@GG SLZZYMYT@CAELT@230854 SLVRYGYZ@CAELT@SABO SLVR 230900@CAELT@METAR SLVR 230900Z 30009KT 9999 FEW070 SCT200 24/21 Q1010 A2984 HR81@CAELT@NOSIG=@CAELT@
ZPX0112 230856@CAELT@GG SLLPZRZX@CAELT@230857 SLLPYGYZ@CAELT@SABO SLLP 230900@CAELT@METAR SLLP 230900Z VRB02KT 9999 FEW003 SCT070 BKN200 05/04@CAELT@Q1038 A3066 628.1 HR95 NOSIG=@CAELT@
ZPX0114 230856@CAELT@GG SLZZYMYT@CAELT@230856 SLTRYGYZ@CAELT@SABO SLTR 230900@CAELT@METAR SLTR 230900Z 00000KT 8000 NSC 25/23 Q1010 A2985 992.2 HR92@CAELT@FU CI NOSIG=@CAELT@
ZPX0115 230857@CAELT@GG SLZZYMYT@CAELT@230856 SLTRYGYZ@CAELT@SABO SLTR 230900@CAELT@METAR SLTR 230900Z 00000KT 8000 NSC 25/23 Q1010 A2985 992.2 HR92@CAELT@FU CI NOSIG=@CAELT@
ZPX0116 230857@CAELT@GG SLZZYMYT@CAELT@230857 SLCBYGYZ@CAELT@SABO SLCB 230900@CAELT@METAR SLCB 230900Z 31003KT 9999 SCT036 BKN080 BKN200 15/09 Q1026@CAELT@A3031 752.4 HR66 NOSIG=@CAELT@
ZPX0119 230905@CAELT@GG SLZZYMYT@CAELT@230902 SLTRYGYS@CAELT@SABO SLTR 230900@CAELT@METAR SLTR 230900Z 00000KT 8000 NSC 25/23 Q1010 A2985 992.2 HR92@CAELT@FU CI NOSIG=@CAELT@METAR SLRI 230900Z 00000KT 5000 FU SCT080 BKN200 25/24 Q1011@CAELT@A2987 HR94=@CAELT@
ZPX0132 230951@CAELT@GG SLZZYMYT@CAELT@230950 SLRQYSYX@CAELT@SABO SLRQ@CAELT@METAR SLRQ@CAELT@
ZPX0133 230952@CAELT@GG SLZZYMYT@CAELT@230953 SLVRYGYZ@CAELT@SABO SLVR 231000@CAELT@METAR SLVR 231000Z 28005KT 9999 FEW017 SCT200 24/21 Q1010 A2984 HR81@CAELT@NOSIG=@CAELT@
ZPX0134 230953@CAELT@GG SLZZYMYT@CAELT@230952 SLCAYGYS@CAELT@SABO SLCA 231000@CAELT@METAR SLCA 231000Z 00000KT 2000 BR OVC005 21/20 Q1017 A3003 HR96 RERA@CAELT@RWY HUM OPR=@CAELT@
ZPX0135 230953@CAELT@GG SLZZYMYT@CAELT@230952 SLRYYSYX@CAELT@SABO SLRY 231000@CAELT@METAR SLRY 231000Z 00000KT 9999 SCT080 21/21 Q1008 A2978 HR98 FU CI@CAELT@RWY NML=@CAELT@
ZPX0138 230954@CAELT@GG SLZZYMYT@CAELT@230956 SLUYYGYS@CAELT@SABO SLUY 231000@CAELT@METAR SLUY 231000Z 04004KT 9999 NSC 03/M05 Q1035 A3056 659.0@CAELT@HR56=@CAELT@
ZPX0139 230955@CAELT@GG SLZZYMYT@CAELT@230955 SLCOYGYZ@CAELT@SABO SLCO 231000@CAELT@METAR SLCO 231000Z VRB02KT 9999 NSC 23/22 Q1011 A2988 984.4 HR93 CI=@CAELT@
ZPX0140 230955@CAELT@GG SLZZYMYT@CAELT@230955 SLTRYGYZ@CAELT@SABO SLTR 231000@CAELT@METAR SLTR 231000Z 00000KT 8000 NSC 24/22 Q1011 A2986 992.6 HR90@CAELT@FU CI NOSIG=@CAELT@
ZPX0141 230955@CAELT@GG SLZZYMYT@CAELT@230955 SLRQYSYX@CAELT@SABO SLRQ 231000@CAELT@METAR SLRQ 231000Z 00000KT 8000 SCT080 22/22 Q1010 A2984 986.4 HR98@CAELT@FU CI=@CAELT@
ZPX0142 230955@CAELT@GG SLZZYMYT@CAELT@230953 SLRBYGYS@CAELT@SABO SLRB 231000@CAELT@METAR SLRB 231000Z 00000KT 9999 TS BKN017 FEW023CB 24/21 Q1013 A2991@CAELT@HR85 CB/TS S/SE RWY HUM OPR=@CAELT@
ZPX0143 230955@CAELT@GG SLZZYMYT@CAELT@230955 SLSBYSYX@CAELT@SABO SLSB 231000@CAELT@METAR SLSB 231000Z 00000KT 8000 FEW080 23/22 Q1010 A2984 HR95 FU@CAELT@RWY NML=@CAELT@
ZPX0144 230956@CAELT@GG SLZZYMYT@CAELT@230955 SLPSYGYS@CAELT@SABO SLPS 231000@CAELT@METAR SLPS 231000Z 09004KT 8000 BKN017 FEW030CB OVC070 23/23 Q1013@CAELT@A2992 HR100 FU RERA CB/SW=@CAELT@
ZPX0145 230956@CAELT@GG SLZZYMYT@CAELT@230955 SLSAYGYS@CAELT@SABO SLSA 231000@CAELT@METAR SLSA 231000Z 00000KT 6000 NSC 23/22 Q1010 A2983 HR93 FU CI=@CAELT@
ZPX0146 230956@CAELT@GG SLZZYMYT@CAELT@230955 SLSAYGYS@CAELT@SABO SLSA 231000@CAELT@METAR SLSA 231000Z 00000KT 6000 NSC 23/22 Q1010 A2983 HR93 FU CI=@CAELT@
ZPX0147 230956@CAELT@GG SLZZYMYT@CAELT@230956 SLCBYGYZ@CAELT@SABO SLCB 231000@CAELT@METAR SLCB 231000Z 00000KT 9999 FEW033 SCT080 BKN200 14/09 Q1026@CAELT@A3032 752.7 HR71 FU NOSIG=@CAELT@
ZPX0148 230956@CAELT@GG SLZZYMYT@CAELT@230957 SLLPYGYZ@CAELT@SABO SLLP 231000@CAELT@METAR SLLP 231000Z 00000KT 9999 FEW004 SCT070 BKN200 04/03 Q1038@CAELT@A3068 628.5 HR93 P91// FU NOSIG=@CAELT@
ZPX0149 230958@CAELT@GG SLZZYMYT@CAELT@230957 SLETYMYC@CAELT@SABO SLET 231000@CAELT@METAR SLET 231000Z 29009KT 9999 SCT017 BKN200 25/21 Q1011 A2985 HR80@CAELT@AC NOSIG=@CAELT@
ZPX0150 230958@CAELT@GG SLZZYMYT@CAELT@230958 SLVRYGYS@CAELT@SABO SLVR 231000@CAELT@METAR SLVR 231000Z 28005KT 9999 FEW017 SCT200 24/21 Q1010 A2984 HR81@CAELT@NOSIG=@CAELT@METAR SLET 231000Z 29009KT 9999 SCT017 BKN200 25/21 Q1011 A2985 HR80@CAELT@AC NOSIG=@CAELT@METAR SLCP 231000Z 00000KT 0500 FU SCT023 OVC070 23/22 Q1016 A3000HR97 RERA RWY WET OPR=METAR SLSI 231000Z 15010KT 9999 SCT015 FEW030CB OVC070 21/21 Q1013A2991 HR98 CB E/SW RWY WET OPR=METAR SLRB 231000Z 00000KT 9999 TS BKN017 FEW023CB 24/21 Q1013 A2991HR85 CB/TS S/SE RWY HUM OPR=METAR SLPS 231000Z 09004KT 8000 BKN017 FEW030CB OVC070 23/23 Q1013A2992 HR100 FU RERA CB SW=METAR SLCA 231000Z 00000KT 2000 BR OVC005 21/20 Q1017 A3003 HR96 RERARWY HUM OPR=
ZPX0151 230959@CAELT@GG SLZZYMYT@CAELT@230959 SLLPYFYA@CAELT@SABO SLLP 231000@CAELT@METAR SLLP 231000Z 00000KT 9999 FEW004 SCT070 BKN200 04/03 Q1038@CAELT@A3068 628.5 HR93 P91// FU NOSIG=@CAELT@METAR SLCO 231000Z VRB02KT 9999 NSC 23/22 Q1011 A2988 984.4@CAELT@HR93 CI=@CAELT@METAR SLRY 231000Z 00000KT 9999 SCT080 21/21 Q1008 A2978 HR98FU CI RWY NML=METAR SLRQ 231000Z 00000KT 8000 SCT080 22/22 Q1010 A2984 986.4HR98 FU CI=METAR SLSB 231000Z 00000KT 8000 FEW080 23/22 Q1010 A2984 HR95FU RWY NML=METAR SLUY 231000Z 04004KT 9999 NSC 03/M05 Q1035 A3056 659.0HR56=
ZPX0153 231001@CAELT@GG SLZZYMYT@CAELT@231000 SLCBYGYS@CAELT@SABO SLCB 231000@CAELT@METAR SLCB 231000Z 00000KT 9999 FEW033 SCT080 BKN200 14/09 Q1026@CAELT@A3032 752.7 HR71 FU NOSIG=@CAELT@METAR SLAL 231000Z 00000KT 9999 FEW003 09/08 Q1031 A3044 704.9 HR95=@CAELT@
ZPX0155 231003@CAELT@GG SLZZYMYT@CAELT@231003 SLLPYFYA@CAELT@SABO SLLP 231000 RRA@CAELT@METAR SLLP 231000Z 00000KT 9999 FEW004 SCT070 BKN200 04/03 Q1038@CAELT@A3068 628.5 HR93 P91// FU NOSIG=@CAELT@METAR SLCO 231000Z VRB02KT 9999 NSC 23/22 Q1011 A2988 984.4@CAELT@HR93 CI=@CAELT@METAR SLRY 231000Z 00000KT 9999 SCT080 21/21 Q1008 A2978 HR98FU CI RWY NML=METAR SLRQ 231000Z 00000KT 8000 SCT080 22/22 Q1010 A2984 986.4HR98 FU CI=METAR RTD SLAP 231000Z 00000KT FEW030 BKN200 16/15 Q1018 A3009859.4 HR97 BR=METAR SLSB 231000Z 00000KT 8000 FEW080 23/22 Q1010 A2984 HR95FU RWY NML=METAR SLUY 231000Z 04004KT 9999 NSC 03/M05 Q1035 A3056 659.0HR56=
ZPX0156 231004@CAELT@GG SLZZYMYT@CAELT@231000 SLTRYGYS@CAELT@SABO SLTR 231000@CAELT@METAR SLTR 231000Z 00000KT 8000 NSC 24/22 Q1011 A2986 992.6 HR90@CAELT@FU CI NOSIG=@CAELT@METAR SLGM 231000Z 00000KT 4000 BR FEW020 BKN200 23/23 Q1011 A2985@CAELT@HR98=@CAELT@METAR SLRI 231000Z 00000KT 5000 FU SCT080 BKN200 25/24 Q1011 A2988HR95=METAR SLJO 231000Z 00000KT 7000 NSC 26/24 Q1011 A2986 HR89 FU CIRWY NML=METAR SLRA 231000Z 36004KT 6000 NSC 25/24 Q1010 A2985 HR94 FU CIMETAR SLMG 231000Z 00000KT 8000 NSC 25/23 Q1009 A2980 HR87 FU CIMETAR SLBU 231000Z NIL=METAR SLSA 231000Z 00000KT 6000 NSC 23/22 Q1010 A2983 HR93 FU CI=METAR SLSR 231000Z 00000KT 7000 FEW017 FEW023CB BKN200 23/22 Q1009A2982 HR92 FU CB NE RWY NML=METAR SLSM 231000Z 00000KT 9999 FEW080 22/22 Q1010 A2984 HR98 RWYNML=
ZPX0157 231005@CAELT@GG SLZZYMYT@CAELT@231005 SLLPYFYA@CAELT@SABO SLLP 231000 CCA@CAELT@METAR SLLP 231000Z 00000KT 9999 FEW004 SCT070 BKN200 04/03 Q1038@CAELT@A3068 628.5 HR93 P91// FU NOSIG=@CAELT@METAR SLCO 231000Z VRB02KT 9999 NSC 23/22 Q1011 A2988 984.4@CAELT@HR93 CI=@CAELT@METAR SLRY 231000Z 00000KT 9999 SCT080 21/21 Q1008 A2978 HR98FU CI RWY NML=METAR SLRQ 231000Z 00000KT 8000 SCT080 22/22 Q1010 A2984 986.4HR98 FU CI=METAR COR SLAP 231000Z 00000KT 7000 FEW030 BKN200 16/15 Q1018A3009 859.4 HR97 BR=METAR SLSB 231000Z 00000KT 8000 FEW080 23/22 Q1010 A2984 HR95FU RWY NML=METAR SLUY 231000Z 04004KT 9999 NSC 03/M05 Q1035 A3056 659.0HR56=
ZPX0173 231051@CAELT@GG SLZZYMYT@CAELT@231051 SLPSYGYS@CAELT@SABO SLPS 231100@CAELT@METAR SLPS 231100Z 00000KT 7000 SCT017 OVC070 24/24 Q1013 A2992 HR100@CAELT@FU=@CAELT@
ZPX0175 231052@CAELT@GG SLZZYMYT@CAELT@231053 SLVRYGYZ@CAELT@SABO SLVR 231100@CAELT@METAR SLVR 231100Z 28004KT 9999 FEW017 SCT070 27/21 Q1012 A2989 HR73@CAELT@NOSIG=@CAELT@
ZPX0176 231053@CAELT@GG SLZZYMYT@CAELT@231052 SLRYYSYX@CAELT@SABO SLRY 231100@CAELT@METAR SLRY 231100Z 00000KT 9999 SCT080 22/22 Q1008 A2979 HR97 FU CI@CAELT@RWY NML=@CAELT@
ZPX0177 231053@CAELT@GG SLZZYMYT@CAELT@231051 SLRBYGYS@CAELT@SABO SLRB 231100@CAELT@METAR SLRB 231100Z 36010KT 9999 BKN017 FEW023CB 25/22 Q1013 A2991@CAELT@HR85 RETS CB/S/SE/SW RWY HUM OPR=@CAELT@
ZPX0179 231054@CAELT@GG SLZZYMYT@CAELT@231055 SLUYYGYS@CAELT@SABO SLUY 231100@CAELT@METAR SLUY 231100Z 02003KT 9999 NSC 07/M03 Q1035 A3058 659.3@CAELT@HR50=@CAELT@
ZPX0180 231054@CAELT@GG SLZZYMYT@CAELT@231054 SLCAYGYS@CAELT@SABO SLCA 231100@CAELT@METAR SLCA 231100Z 00000KT 2000 BR OVC006 21/20 Q1017 A3003 HR96 RWY@CAELT@HUM OPR=@CAELT@
ZPX0182 231055@CAELT@GG SLZZYMYT@CAELT@231055 SLRQYSYX@CAELT@SABO SLRQ 231100@CAELT@METAR SLRQ 231100Z 00000KT 8000 FEW080 SCT200 23/23 Q1011 A2986 987.1@CAELT@HR97 FU=@CAELT@
ZPX0183 231055@CAELT@GG SLZZYMYT@CAELT@231055 SLSAYGYS@CAELT@SABO SLSA 231100@CAELT@METAR SLSA 231100Z 00000KT 6000 NSC 24/22 Q1010 A2984 HR92 FU CI=@CAELT@
ZPX0184 231055@CAELT@GG SLZZYMYT@CAELT@231055 SLSAYGYS@CAELT@SABO SLSA 231100@CAELT@METAR SLSA 231100Z 00000KT 6000 NSC 24/22 Q1010 A2984 HR92 FU CI=@CAELT@
ZPX0185 231055@CAELT@GG SLZZYMYT@CAELT@231052 SLETYMYC@CAELT@SABO SLET 231100@CAELT@METAR SLET 231100Z 20003KT 9999 SCT017 BKN200 27/21 Q1011 A2988 HR68@CAELT@AC TEMPO SHRA=@CAELT@
ZPX0186 231056@CAELT@GG SLZZYMYT@CAELT@231056 SLTRYGYZ@CAELT@SABO SLTR 231100@CAELT@METAR SLTR 231100Z 32003KT 8000 FEW080 SCT200 25/22 Q1011 A2986 992.7@CAELT@HR87 FU NOSIG=@CAELT@
ZPX0187 231056@CAELT@GG SLZZYMYT@CAELT@231056 SLORYGYZ@CAELT@SABO SLOR 231100@CAELT@METAR SLOR 231100Z 00000KT 9999 NSC 06/02 Q1036 A3062 657.2 HR75 FU N@CAELT@/NW CI=@CAELT@
ZPX0188 231056@CAELT@GG SLZZYMYT@CAELT@231055 SLSBYSYX@CAELT@SABO SLSB 231100@CAELT@METAR SLSB 231100Z 35003KT 8000 FEW080 24/23 Q1010 A2984 HR93 FU@CAELT@RWY NML=@CAELT@
ZPX0189 231057@CAELT@GG SLZZYMYT@CAELT@231056 SLCBYGYZ@CAELT@SABO SLCB 231100@CAELT@METAR SLCB 231100Z 00000KT 9999 FEW033 16/08 Q1027 A3033 753.1 HR61@CAELT@FU AC CI NOSIG=@CAELT@
ZPX0190 231057@CAELT@GG SLZZYMYT@CAELT@231057 SLCOYGYZ@CAELT@SABO SLCO 231100@CAELT@METAR SLCO 231100Z 26003KT 9999 NSC 23/22 Q1012 A2989 984.7 HR93 CI=@CAELT@
ZPX0191 231057@CAELT@GG SLZZYMYT@CAELT@231057 SLLPYGYZ@CAELT@SABO SLLP 231100@CAELT@METAR SLLP 231100Z 05003KT 9999 FEW006 SCT070 BKN200 05/04 Q1039@CAELT@A3069 628.7 HR95 P91// FU NOSIG=@CAELT@
ZPX0192 231059@CAELT@GG SLZZYMYT@CAELT@231059 SLVRYGYS@CAELT@SABO SLVR 231100@CAELT@METAR SLVR 231100Z 28004KT 9999 FEW017 SCT070 27/21 Q1012 A2989 HR73@CAELT@NOSIG=@CAELT@METAR SLET 231100Z 20003KT 9999 SCT017 BKN200 27/21 Q1011 A2988 HR68@CAELT@AC TEMPO SHRA=@CAELT@METAR SLAS 231100Z 00000KT 3000 FU NSC 26/23 Q1013 A2991 HR85 RWY NMLMETAR SLJV 231100Z 00000KT 5000 FU NSC 24/20 Q1013 A2991 HR88 RWY NMLMETAR SLCP 231100Z 00000KT 0500 FU SCT023 OVC070 22/22 Q1016 A3000HR98 RWY WET OPR=METAR SLSI 231100Z 00000KT 8000 SCT015 FEW030CB OVC070 21/21 Q1014A2994 HR98 CB E/NE FU RWY WET OPR=METAR SLTI 231100Z 00000KT 9999 BKN020 OVC070 25/23 Q1016 A3000 HR90RWY NML=METAR SLJE 231100Z 00000KT 5000 FU NSC 25/22 Q1015 A2997 HR83 RWY NMLMETAR SLRB 231100Z 36010KT 9999 BKN017 FEW023CB 25/22 Q1013 A2991HR85 RETS CB S/SE/SW RWY HUM OPR=METAR SLPS 231100Z 00000KT 7000 SCT017 OVC070 24/24 Q1013 A2992 HR100FU=METAR SLCA 231100Z 00000KT 2000 BR OVC006 21/20 Q1017 A3003 HR96 RWYHUM OPR=
ZPX0193 231059@CAELT@GG SLZZYMYT@CAELT@231059 SLCBYGYS@CAELT@SABO SLCB 231100@CAELT@METAR SLCB 231100Z 00000KT 9999 FEW033 16/08 Q1027 A3033 753.1 HR61@CAELT@FU AC CI NOSIG=@CAELT@METAR SLAL 231100Z 00000KT 9999 FEW007 10/09 Q131 A3046 705.2 HR92=@CAELT@METAR SLVM 231100Z 18005KT 7000 VCSH BKN070 23/23 Q1013 A2991 HR98 SH@CAELT@/N/NE/E=
ZPX0195 231100@CAELT@GG SLZZYMYT@CAELT@231058 SLTRYGYS@CAELT@SABO SLTR 231100@CAELT@METAR SLTR 231100Z 32003KT 8000 FEW080 SCT200 25/22 Q1011 A2986@CAELT@992.7 HR87 FU NOSIG=@CAELT@METAR SLGM 231100Z 00000KT 4000 BR FEW020 BKN200 23/23 Q1011 A2987@CAELT@HR97=@CAELT@METAR SLRI 231100Z 00000KT 3000 BR NSC 24/24 Q1012 A2991 HR94 CI=METAR SLJO 231100Z 00000KT 7000 NSC 27/23 Q1011 A2987 HR85 FU CIRWY NML=METAR SLRA 231100Z 36004KT 6000 NSC 25/24 Q1010 A2984 HR92 FU CIMETAR SLMG 231100Z 32004KT 8000 NSC 26/23 Q1009 A2980 HR87 FU CIMETAR SLBU 231100Z NIL=METAR SLSA 231100Z 00000KT 6000 NSC 24/22 Q1010 A2984 HR92 FU CI=METAR SLSR 231100Z 00000KT 7000 NSC 24/22 Q1010 A2983 HR90 FU CIMETAR SLSM 231100Z 00000KT 9999 FEW080 23/23 Q1010 A2985 HR98
ZPX0196 231100@CAELT@GG SLZZYMYT@CAELT@231100 SLLPYFYA@CAELT@SABO SLLP 231100@CAELT@METAR SLLP 231100Z 05003KT 9999 FEW006 SCT070 BKN200 05/04 Q1039@CAELT@A3069 628.7 HR95 P91// FU NOSIG=@CAELT@METAR SLCO 231100Z 26003KT 9999 NSC 23/22 Q1012 A2989 984.7 HR93@CAELT@METAR SLRY 231100Z 00000KT 9999 SCT080 22/22 Q1008 A2979 HR97@CAELT@FU CI RWY NML=METAR SLRQ 231100Z 00000KT 8000 FEW080 SCT200 23/23 Q1011 A2986987.1 HR97 FU=METAR SLAP 231100Z 00000KT 7000 FEW003 SCT200 16/16 Q1019 A3010859.7 HR96 BR=METAR SLSB 231100Z 35003KT 8000 FEW080 24/23 Q1010 A2984 HR93 FURWY NML=METAR SLOR 231100Z 00000KT 9999 NSC 06/02 Q1036 A3062 657.2 HR75FU N/NW CI=METAR SLUY 231100Z 02003KT 9999 NSC 07/M03 Q1035 A3058 659.3HR50=
ZPX0221 231147@CAELT@GG SLZZYMYT@CAELT@231104 SLCBYGYS@CAELT@SABO SLCB 231100 RRA@CAELT@METAR SLCB 231100Z 00000KT 9999 FEW033 16/08 Q1027 A3033 753.1 HR61@CAELT@FU AC CI NOSIG=@CAELT@METAR SLAL 231100Z 00000KT 9999 FEW007 10/09 Q131 A3046 705.2 HR92=@CAELT@METAR SLVM 231100Z 18005KT 7000 VCSH BKN070 23/23 Q1013 A2991 HR98 SH@CAELT@/N/NE/E=METAR RTD SLYA 231100Z 00000KT 9999 FEW020 BKN070 22/22 Q1014 A2995938.7HR99 RERA=
ZPX0224 231153@CAELT@GG SLZZYMYT@CAELT@231153 SLVRYGYZ@CAELT@SABO SLVR 231200@CAELT@METAR SLVR 231200Z 33005KT 9999 FEW017 SCT070 28/22 Q1013 A2992 HR68@CAELT@NOSIG=@CAELT@
ZPX0225 231153@CAELT@GG SLZZYMYT@CAELT@231152 SLRYYSYX@CAELT@SABO SLRY 231200@CAELT@METAR SLRY 231200Z 00000KT 9999 NSC 25/23 Q1009 A2981 HR88 FU RWY NML@CAELT@
ZPX0226 231153@CAELT@GG SLZZYMYT@CAELT@231153 SLPSYGYS@CAELT@SABO SLPS 231200@CAELT@METAR SLPS 231200Z 00000KT 7000 SCT017 OVC070 25/24 Q1013 A2992 HR95@CAELT@
ZPX0229 231155@CAELT@GG SLZZYMYT@CAELT@231154 SLORYGYZ@CAELT@SABO SLOR 231200@CAELT@METAR SLOR 231200Z 00000KT 9999 FEW017 10/02 Q1037 A3063 657.5 HR61@CAELT@FU N/SE/S/SW/NW CI=@CAELT@
ZPX0231 231155@CAELT@GG SLZZYMYT@CAELT@231154 SLRBYGYS@CAELT@SABO SLRB 231200@CAELT@METAR SLRB 231200Z 16004KT 9999 SCT017 FEW023CB BKN070 26/22 Q1015@CAELT@A2997 HR78 FU CB/S/SE RWY HUM OPR=@CAELT@
ZPX0232 231155@CAELT@GG SLZZYMYT@CAELT@231156 SLUYYGYS@CAELT@SABO SLUY 231200@CAELT@METAR SLUY 231200Z 35004KT 9999 NSC 11/M02 Q1036 A3060 659.9@CAELT@HR41=@CAELT@
ZPX0233 231156@CAELT@GG SLZZYMYT@CAELT@231155 SLSAYGYS@CAELT@SABO SLSA 231200@CAELT@METAR SLSA 231200Z 32008KT 8000 NSC 27/23 Q1011 A2987 HR80 FU CI=@CAELT@
ZPX0234 231156@CAELT@GG SLZZYMYT@CAELT@231155 SLSAYGYS@CAELT@SABO SLSA 231200@CAELT@METAR SLSA 231200Z 32008KT 8000 NSC 27/23 Q1011 A2987 HR80 FU CI=@CAELT@
ZPX0235 231156@CAELT@GG SLZZYMYT@CAELT@231156 SLETYMYC@CAELT@SABO SLET 231200@CAELT@METAR SLET 231200Z 26003KT 9999 BKN020 BKN200 29/20 Q1012 A2991 HR57@CAELT@NOSIG=@CAELT@
ZPX0236 231156@CAELT@GG SLZZYMYT@CAELT@231156 SLTRYGYZ@CAELT@SABO SLTR 231200@CAELT@METAR SLTR 231200Z 28008KT 8000 FEW080 SCT200 27/23 Q1011 A2988@CAELT@993.3 HR75 FU NOSIG=@CAELT@
ZPX0238 231156@CAELT@GG SLZZYMYT@CAELT@231155 SLLPYGYZ@CAELT@SABO SLLP 231200@CAELT@METAR SLLP 231200Z VRB02KT 9999 FEW006 SCT200 08/05 Q1040 A3071@CAELT@629.3 HR78 P0082 AC FU NOSIG=@CAELT@
ZPX0239 231156@CAELT@GG SLZZYMYT@CAELT@231155 SLRQYSYX@CAELT@SABO SLRQ 231200@CAELT@METAR SLRQ 231200Z 00000KT 8000 FEW015 SCT200 25/23 Q1011 A2988 987.8@CAELT@HR89 FU AC=@CAELT@
ZPX0240 231157@CAELT@GG SLZZYMYT@CAELT@231155 SLSBYSYX@CAELT@SABO SLSB 231200@CAELT@METAR SLSB 231200Z 30004KT 8000 FEW080 26/23 Q1010 A2985 HR84 FU@CAELT@RWY NML=@CAELT@
ZPX0241 231157@CAELT@GG SLZZYMYT@CAELT@231156 SLCBYGYZ@CAELT@SABO SLCB 231200@CAELT@METAR SLCB 231200Z 31003KT 9999 FEW033 18/09 Q1027 A3034 753.4 HR53@CAELT@FU NOSIG=@CAELT@
ZPX0242 231158@CAELT@GG SLZZYMYT@CAELT@231158 SLVRYGYS@CAELT@SABO SLVR 231200@CAELT@METAR SLVR 231200Z 33005KT 9999 FEW017 SCT070 28/22 Q1013 A2992 HR68@CAELT@NOSIG=@CAELT@METAR SLET 231200Z 26003KT 9999 BKN020 BKN200 29/20 Q1012 A2991 HR57@CAELT@METAR SLAS 231200Z 36004KT 4000 FU NSC 29/24 Q1014 A2994 HR73 RWY NML@CAELT@METAR SLJV 231200Z 00000KT 3000 FU NSC 25/21 Q1014 A2994 HR78 RWY NMLMETAR SLCP 231200Z 00000KT 1000 FU OVC070 22/22 Q1017 A3003 HR96 RWYHUM OPR=METAR SLSI 231200Z 00000KT 6000 -TSRA SCT015 FEW025CB OVC070 21/21Q1015 A2997 HR98 CB/TS ON STN/N/NW RWY WET OPR=METAR SLTI 231200Z 00000KT 9999 SCT020 OVC070 26/23 Q1017 A3003 HR82RWY NML=METAR SLJE 231200Z 36005KT 5000 FU NSC 26/22 Q1016 A3000 HR77 RWY NMLMETAR SLVG 231200Z 00000KT 9999 NSC 18/14 Q1025 A3027 HR77 CI RWY NMLMETAR SLRB 231200Z 16004KT 9999 SCT017 FEW023CB BKN070 26/22 Q1015A2997 HR78 FU CB S/SE RWY HUM OPR=METAR SLPS 231200Z 00000KT 7000 SCT017 OVC070 25/24 Q1013 A2992 HR95METAR SLCA 231200Z 00000KT 9999 BKN080 22/21 Q1018 A3006 HR91 FU RWY
ZPX0243 231158@CAELT@GG SLZZYMYT@CAELT@231158 SLCOYGYZ@CAELT@SABO SLCO 231200@CAELT@METAR SLCO 231200Z 31006KT 9999 NSC 25/22 Q1013 A2992 985.9 HR84 CI=@CAELT@
ZPX0247 231159@CAELT@GG SLZZYMYT@CAELT@231157 SLAGYSYX@CAELT@SABO SLAG 231200@CAELT@METAR SLAG 231200Z 00000KT 3000 VCSH FEW002 SCT010 BKN200 20/19 Q1020@CAELT@A3013 892.0 HR91 VIS RED ST BAJOS N/NE/SE/S/SW RESTO 9999 SH/NE AS=@CAELT@
ZPX0248 231200@CAELT@GG SLZZYMYT@CAELT@231159 SLTRYGYS@CAELT@SABO SLTR 231200@CAELT@METAR SLTR 231200Z 28008KT 8000 FEW080 SCT200 27/23 Q1011 A2988@CAELT@993.3 HR75 FU NOSIG=@CAELT@METAR SLGM 231200Z 36006KT 6000 SCT080 BKN200 26/24 Q1012 A2989 HR92@CAELT@METAR SLRI 231200Z 00000KT 5000 FU NSC 25/24 Q1013 A2993 HR90 CI=@CAELT@METAR SLJO 231200Z 34006KT 7000 NSC 28/23 Q1011 A2988 HR76 FU CIRWY NML=METAR SLRA 231200Z 36006KT 7000 NSC 28/23 Q1011 A2986 HR78 FUCI RWY NML=METAR SLMG 231200Z 32004KT 8000 NSC 27/23 Q1009 A2982 HR80 FU CIMETAR SLBU 231200Z 32006KT 8000 NSC 28/24 Q1011 A2987 HR79 FU CIMETAR SLSA 231200Z 32008KT 8000 NSC 27/23 Q1011 A2987 HR80 FU CI=METAR SLSR 231200Z 34006KT 8000 NSC 26/22 Q1010 A2984 HR78 FU CIMETAR SLSM 231200Z 00000KT 9999 FEW080 25/24 Q1011 A2987 HR91
ZPX0251 231200@CAELT@GG SLZZYMYT@CAELT@231157 SLTJYGYZ@CAELT@SABO SLTJ 231200@CAELT@METAR SLTJ 231200Z 00000KT 9999 FEW023 18/15 Q1022 A3020 817.1 HR83@CAELT@
ZPX0253 231201@CAELT@GG SLZZYMYT@CAELT@231201 SLLPYFYA@CAELT@SABO SLLP 231200@CAELT@METAR SLLP 231200Z VRB02KT 9999 FEW006 SCT200 08/05 Q1040 A3071@CAELT@629.3 HR78 P0082 AC FU NOSIG=@CAELT@METAR SLCO 231200Z 31006KT 9999 NSC 25/22 Q1013 A2992 985.9 HR84@CAELT@METAR SLRY 231200Z 00000KT 9999 NSC 25/23 Q1009 A2981 HR88 FU RWY@CAELT@NML=METAR SLRQ 231200Z 00000KT 8000 FEW015 SCT200 25/23 Q1011 A2988987.8 HR89 FU AC=METAR SLAP 231200Z 00000KT 9999 FEW025 SCT200 18/16 Q1019 A3011859.9 HR89=METAR SLSB 231200Z 30004KT 8000 FEW080 26/23 Q1010 A2985 HR84 FURWY NML=METAR SLOR 231200Z 00000KT 9999 FEW017 10/02 Q1037 A3063 657.5 HR61FU N/SE/S/SW/NW CI=METAR SLUY 231200Z 35004KT 9999 NSC 11/M02 Q1036 A3060 659.9 HR41=
ZPX0254 231202@CAELT@GG SLZZYMYT@CAELT@231201 SLCBYGYS@CAELT@SABO SLCB 231200@CAELT@METAR SLCB 231200Z 31003KT 9999 FEW033 18/09 Q1027 A3034 753.4 HR53@CAELT@FU NOSIG=@CAELT@METAR SLAL 231200Z 00000KT 9999 FEW007 13/09 Q1031 A3047 705.5 HR75=@CAELT@METAR SLPO 231200Z NIL=@CAELT@METAR SLAG 231200Z 00000KT 3000 VCSH FEW002 SCT010 BKN200 20/19 Q1020A3013 892.0 HR91 VIS RED ST BAJOS N/NE/SE/S/SW RESTO 9999 SH/NE AS=METAR SLVM 231200Z 00000KT 9999 BKN023 24/23 Q1012 A2990 HR98 CI=METAR SLTJ 231200Z 00000KT 9999 FEW023 18/15 Q1022 A3020 817.1 HR83METAR SLYA 231200Z 00000KT 9999 NSC 27/24 Q1013 A2993 938.2 HR85=METAR SLBJ 231200Z NIL=METAR SLHI 231200Z NIL=
ZPX0296 231252@CAELT@GG SLZZYMYT@CAELT@231252 SLPSYGYS@CAELT@SABO SLPS 231300@CAELT@METAR SLPS 231300Z 00000KT 9000 SCT017 OVC070 27/24 Q1013 A2992 HR87@CAELT@
ZPX0299 231253@CAELT@GG SLZZYMYT@CAELT@231253 SLCAYGYS@CAELT@SABO SLCA 231300@CAELT@METAR SLCA 231300Z 00000KT 9999 BKN080 23/20 Q1017 A3003 HR84 FU RWY@CAELT@NML=@CAELT@
ZPX0300 231253@CAELT@GG SLZZYMYT@CAELT@231254 SLSAYGYS@CAELT@SABO SLSA 231300@CAELT@METAR SLSA 231300Z 32010KT 8000 NSC 30/24 Q1012 A2989 HR67 FU CI=@CAELT@
ZPX0301 231254@CAELT@GG SLZZYMYT@CAELT@231254 SLSBYSYX@CAELT@SABO SLSB 231300@CAELT@METAR SLSB 231300Z 29004KT 8000 FEW080 28/24 Q1010 A2985 HR79 FU@CAELT@RWY NML=@CAELT@
ZPX0302 231254@CAELT@GG SLZZYMYT@CAELT@231257 SLUYYGYS@CAELT@SABO SLUY 231300@CAELT@METAR SLUY 231300Z 31003KT 9999 NSC 13/01 Q1036 A3060 659.9@CAELT@HR44=@CAELT@
ZPX0303 231254@CAELT@GG SLZZYMYT@CAELT@231253 SLRBYGYS@CAELT@SABO SLRB 231300@CAELT@METAR SLRB 231300Z 35012KT 9999 SCT017 BKN070 28/23 Q1015 A2997 HR73@CAELT@FU RWY NML=@CAELT@
ZPX0305 231254@CAELT@GG SLZZYMYT@CAELT@231255 SLCOYGYZ@CAELT@SABO SLCO 231300@CAELT@METAR SLCO 231300Z 31004KT 9999 NSC 27/24 Q1014 A2994 986.5 HR80 CI=@CAELT@
ZPX0306 231255@CAELT@GG SLZZYMYT@CAELT@231255 SLTRYGYZ@CAELT@SABO SLTR 231300@CAELT@METAR SLTR 231300Z 32010KT 8000 FEW080 SCT200 29/23 Q1012 A2989@CAELT@993.8 HR69 FU NOSIG=@CAELT@
ZPX0307 231255@CAELT@GG SLZZYMYT@CAELT@231255 SLORYGYZ@CAELT@SABO SLOR 231300@CAELT@METAR SLOR 231300Z 36003KT 9999 FEW017 12/04 Q1038 A3065 658.0 HR55@CAELT@
ZPX0308 231255@CAELT@GG SLZZYMYT@CAELT@231255 SLAGYSYX@CAELT@SABO SLAG 231300@CAELT@METAR SLAG 231300Z 00000KT 6000 FEW005 SCT012 BKN200 25/20 Q1019@CAELT@A3010 891.3 HR74 VIS RED ST BAJOS S/SW=@CAELT@
ZPX0309 231255@CAELT@GG SLZZYMYT@CAELT@231255 SLLPYGYZ@CAELT@SABO SLLP 231300@CAELT@METAR SLLP 231300Z 13004KT 9999 FEW009 SCT200 09/05 Q1040 A3073@CAELT@629.6 HR75 P93// HZ/W FU AC NOSIG=@CAELT@
ZPX0310 231255@CAELT@GG SLZZYMYT@CAELT@231255 SLETYMYC@CAELT@SABO SLET 231300@CAELT@METAR SLET 231300Z 31006KT 9999 SCT020 SCT070 31/21 Q1013 A2992 HR56@CAELT@CI NOSIG=@CAELT@
ZPX0311 231256@CAELT@GG SLZZYMYT@CAELT@231255 SLRQYSYX@CAELT@SABO SLRQ 231300@CAELT@METAR SLRQ 231300Z 00000KT 8000 NSC 28/24 Q1012 A2990 988.3 HR81 FU@CAELT@
ZPX0312 231256@CAELT@GG SLZZYMYT@CAELT@231254 SLRYYSYX@CAELT@SABO SLRY 231300@CAELT@METAR SLRY 231300Z 32003KT 9999 NSC 28/24 Q1009 A2982 HR75 FU RWY NML@CAELT@
ZPX0313 231256@CAELT@GG SLZZYMYT@CAELT@231255 SLVRYGYZ@CAELT@SABO SLVR 231300@CAELT@METAR SLVR 231300Z 32006KT 9999 FEW020 BKN070 30/22 Q1013 A2992 HR62@CAELT@CI NOSIG=@CAELT@
ZPX0315 231258@CAELT@GG SLZZYMYT@CAELT@231258 SLTRYGYS@CAELT@SABO SLTR 231300@CAELT@METAR SLTR 231300Z 32010KT 8000 FEW080 SCT200 29/23 Q1012 A2989@CAELT@993.8 HR69 FU NOSIG=@CAELT@METAR SLGM 231300Z 36006KT 8000 SCT080 BKN200 28/25 Q1013 A2991 HR85@CAELT@METAR SLRI 231300Z 36008KT 5000 FU NSC 28/23 Q1014 A2995 HR74 CI=@CAELT@METAR SLJO 231300Z 34008KT 7000 NSC 30/24 Q1012 A2991 HR70 FU CIRWY NML=METAR SLRA 231300Z 36008KT 7000 NSC 30/23 Q1011 A2987 HR65 FU CIMETAR SLMG 231300Z 30006KT 8000 NSC 30/23 Q1010 A2985 HR66 FU CIMETAR SLBU 231300Z 32006KT 8000 NSC 30/23 Q1011 A2988 HR68 FU CIMETAR SLSA 231300Z 32010KT 8000 NSC 30/24 Q1012 A2989 HR67 FU CI=METAR SLSR 231300Z 34012KT 8000 NSC 29/23 Q1011 A2986 HR72 FU CIMETAR SLSM 231300Z 33004KT 9999 FEW080 SCT200 29/24 Q1012 A2989 HR74
ZPX0316 231258@CAELT@GG SLZZYMYT@CAELT@231256 SLTJYGYZ@CAELT@SABO SLTJ 231300@CAELT@METAR SLTJ 231300Z 00000KT 9999 FEW025 21/16 Q1022 A3018 816.7 HR74@CAELT@
ZPX0317 231259@CAELT@GG SLZZYMYT@CAELT@231257 SLCBYGYZ@CAELT@SABO SLCB 231300@CAELT@METAR SLCB 231300Z VRB02KT 9999 FEW036 20/09 Q1027 A3034 753.3 HR49@CAELT@FU NOSIG=@CAELT@
ZPX0320 231300@CAELT@GG SLZZYMYT@CAELT@231300 SLCBYGYP@CAELT@SABO SLCB 231300@CAELT@METAR SLCB 231300Z VRB02KT 9999 FEW036 20/09 Q1027 A3034 753.3 HR49@CAELT@FU NOSIG=@CAELT@METAR SLAL 231300Z 00000KT 9999 SCT012 15/09 Q1032 A3048 705.7 HR67=@CAELT@METAR SLPO 231300Z NIL=@CAELT@METAR SLAG 231300Z 00000KT 6000 FEW005 SCT012 BKN200 25/20 Q1019A3010 891.3 HR74 VIS RED ST BAJOS S/SW=METAR SLVM 231300Z 00000KT 9999 FEW070 28/25 Q1012 A2989 HR80 CI=METAR SLTJ 231300Z 00000KT 9999 FEW025 21/16 Q1022 A3018 816.7 HR74METAR SLYA 231300Z 00000KT 9999 NSC 29/24 Q1013 A2992 938.0 HR75=METAR SLBJ 231300Z NIL=METAR SLHI 231300Z NIL=
ZPX0321 231300@CAELT@GG SLZZYMYT@CAELT@231259 SLLPYSYX@CAELT@SABO SLLP 231300@CAELT@METAR SLLP 231300Z 13004KT 9999 FEW009 SCT200 09/05 Q1040 A3073@CAELT@629.6 HR75 P93// HZ/W FU AC NOSIG=@CAELT@METAR SLCO 231300Z 31004KT 9999 NSC 27/24 Q1014 A2994 986.5 HR80@CAELT@METAR SLRY 231300Z 32003KT 9999 NSC 28/24 Q1009 A2982 HR75 FU RWY@CAELT@NML=METAR SLRQ 231300Z 00000KT 8000 NSC 28/24 Q1012 A2990 988.3 HR81FU CI=METAR SLAP 231300Z 00000KT 9999 FEW025 SCT200 22/18 Q1020 A3013860.7 HR82=METAR SLSB 231300Z 29004KT 8000 FEW080 28/24 Q1010 A2985 HR79 FURWY NML=METAR SLOR 231300Z 36003KT 9999 FEW017 12/04 Q1038 A3065 658.0HR55 CI=METAR SLUY 231300Z 31003KT 9999 NSC 13/01 Q1036 A3060 659.9 HR44=
ZPX0323 231301@CAELT@GG SLZZYMYT@CAELT@231300 SLVRYGYS@CAELT@SABO SLVR 231300@CAELT@METAR SLVR 231300Z 32006KT 9999 FEW020 BKN070 30/22 Q1013 A2992@CAELT@HR62 CI NOSIG=@CAELT@METAR SLET 231300Z 31006KT 9999 SCT020 SCT070 31/21 Q1013 A2992@CAELT@HR56 CI NOSIG=@CAELT@METAR SLAS 231300Z 00000KT 7000 BKN070 30/23 Q1015 A2997 HR67 RWY NMLMETAR SLJV 231300Z 00000KT 3000 FU NSC 27/21 Q1014 A2994 HR72 RWY NMLMETAR SLCP 231300Z 00000KT 4000 FU BKN012 OVC070 23/22 Q1018 A3006HR94 RWY HUM OPR=METAR SLSI 231300Z 00000KT 8000 -RA SCT017 FEW030CB OVC070 21/21Q1015 A2997 HR100 CB/N/NW RETS RWY WET OPR=METAR SLTI 231300Z 00000KT 9999 BKN020 OVC070 27/22 Q1018 A3006HR73 RWY NML=METAR SLJE 231300Z 36006KT 5000 FU SCT017 BKN200 29/22 Q1017A3003 HR66 RWY NML=METAR SLVG 231300Z 00000KT 9999 SCT023 BKN200 21/15 Q1025 A3027HR64 RWY NML=METAR SLRB 231300Z 35012KT 9999 SCT017 BKN070 28/23 Q1015 A2997HR73 FU RWY NML=METAR SLPS 231300Z 00000KT 9000 SCT017 OVC070 27/24 Q1013 A2992HR87 FU=METAR SLCA 231300Z 00000KT 9999 BKN080 23/20 Q1017 A3003 HR84FU RWY NML=
ZPX0349 231353@CAELT@GG SLZZYMYT@CAELT@231352 SLPSYGYS@CAELT@SABO SLPS 231400@CAELT@METAR SLPS 231400Z 00000KT 9999 FEW017 OVC070 28/25 Q1013 A2992 HR85@CAELT@FU=@CAELT@
ZPX0350 231353@CAELT@GG SLZZYMYT@CAELT@231353 SLCAYGYS@CAELT@SABO SLCA 231400@CAELT@METAR SLCA 231400Z 00000KT 9999 FEW033 SCT080 25/20 Q1017 A3003 HR72@CAELT@FU RWY NML=@CAELT@
ZPX0351 231354@CAELT@GG SLZZYMYT@CAELT@231354 SLSBYSYX@CAELT@SABO SLSB 231400@CAELT@METAR SLSB 231400Z 00000KT 8000 FEW080 30/24 Q1010 A2985 HR72 FU@CAELT@RWY NML=@CAELT@
ZPX0352 231354@CAELT@GG SLZZYMYT@CAELT@231353 SLRBYGYS@CAELT@SABO SLRB 231400@CAELT@METAR SLRB 231400Z 36010KT 9999 SCT017 BKN070 30/23 Q1015 A2997 HR68@CAELT@FU RWY NML=@CAELT@
ZPX0353 231354@CAELT@GG SLZZYMYT@CAELT@231355 SLRQYSYX@CAELT@SABO SLRQ 231400@CAELT@METAR SLRQ 231400Z 00000KT 8000 NSC 30/24 Q1011 A2988 987.7 HR68 FU@CAELT@
ZPX0354 231354@CAELT@GG SLZZYMYT@CAELT@231355 SLORYGYZ@CAELT@SABO SLOR 231400@CAELT@METAR SLOR 231400Z 24006KT 9999 FEW017 14/03 Q1038 A3067 658.3 HR47@CAELT@
ZPX0355 231355@CAELT@GG SLZZYMYT@CAELT@231355 SLVRYGYZ@CAELT@SABO SLVR 231400@CAELT@METAR SLVR 231400Z 34005KT 9999 FEW020 BKN070 31/22 Q1013 A2992 HR59@CAELT@CI NOSIG=@CAELT@
ZPX0356 231355@CAELT@GG SLZZYMYT@CAELT@231355 SLCOYGYZ@CAELT@SABO SLCO 231400@CAELT@METAR SLCO 231400Z 27003KT 9999 NSC 30/24 Q1014 A2995 986.6 HR70 CI=@CAELT@
ZPX0357 231355@CAELT@GG SLZZYMYT@CAELT@231355 SLCOYGYZ@CAELT@SABO SLCO 231400@CAELT@METAR SLCO 231400Z 27003KT 9999 NSC 30/24 Q1014 A2995 986.6 HR70 CI=@CAELT@
ZPX0358 231355@CAELT@GG SLZZYMYT@CAELT@231353 SLRYYSYX@CAELT@SABO SLRY 231400@CAELT@METAR SLRY 231400Z 32003KT 9999 NSC 31/24 Q1009 A2982 HR66 FU RWY NML@CAELT@
ZPX0361 231356@CAELT@GG SLZZYMYT@CAELT@231355 SLTJYGYZ@CAELT@SABO SLTJ 231400@CAELT@METAR SLTJ 231400Z 00000KT 9999 FEW027 23/15 Q1021 A3016 815.9 HR62@CAELT@
ZPX0362 231356@CAELT@GG SLZZYMYT@CAELT@231355 SLAGYSYX@CAELT@SABO SLAG 231400@CAELT@METAR SLAG 231400Z 18004KT 9999 FEW015 SCT200 27/19 Q1018 A3008 890.7@CAELT@HR60=@CAELT@
ZPX0364 231356@CAELT@GG SLZZYMYT@CAELT@231356 SLSAYGYS@CAELT@SABO SLSA 231400@CAELT@METAR SLSA 231400Z 32014KT 8000 FEW020 BKN200 32/22 Q1011 A2987@CAELT@HR57 FU=@CAELT@
ZPX0365 231356@CAELT@GG SLZZYMYT@CAELT@231356 SLSAYGYS@CAELT@SABO SLSA 231400@CAELT@METAR SLSA 231400Z 32014KT 8000 FEW020 BKN200 32/22 Q1011 A2987@CAELT@HR57 FU=@CAELT@
ZPX0366 231357@CAELT@GG SLZZYMYT@CAELT@231356 SLETYMYC@CAELT@SABO SLET 231400@CAELT@METAR SLET 231400Z 31007KT 9999 SCT020 SCT070 31/21 Q1012 A2991 HR55@CAELT@CI NOSIG=@CAELT@
ZPX0367 231358@CAELT@GG SLZZYMYT@CAELT@231357 SLTRYGYZ@CAELT@SABO SLTR 231400@CAELT@METAR SLTR 231400Z 30008KT 8000 FEW080 SCT200 31/24 Q1012 A2989@CAELT@993.5 HR65 FU NOSIG=@CAELT@
ZPX0370 231359@CAELT@GG SLZZYMYT@CAELT@231358 SLTRYGYS@CAELT@SABO SLTR 231400@CAELT@METAR SLTR 231400Z 30008KT 8000 FEW080 SCT200 31/24 Q1012 A2989@CAELT@993.5 HR65 FU NOSIG=@CAELT@METAR SLGM 231400Z 36006KT 8000 SCT017 BKN200 30/25 Q1013 A2992 HR73@CAELT@METAR SLRI 231400Z 36006KT 5000 FU FEW015 BKN200 29/24 Q1014 A2994@CAELT@HR72=METAR SLJO 231400Z 34010KT 7000 NSC 32/23 Q1013 A2992 HR56 FU CIRWY NML=METAR SLRA 231400Z 36010KT 7000 NSC 32/22 Q1011 A2988 HR57 FU CIRWY NNL=METAR SLMG 231400Z 30008KT 8000 NSC 33/23 Q1011 A2985 HR56 FU CIMETAR SLBU 231400Z 32006KT 8000 NSC 32/23 Q1012 A2989 HR59 FU CIMETAR SLSA 231400Z 32014KT 8000 FEW020 BKN200 32/22 Q1011 A2987 HR57METAR SLSR 231400Z 34012KT 8000 NSC 30/24 Q1011 A2986 HR68 FU CIMETAR SLSM 231400Z 33008KT 9999 SCT080 30/23 Q1011 A2988 HR67
ZPX0372 231359@CAELT@GG SLZZYMYT@CAELT@231357 SLCBYGYZ@CAELT@SABO SLCB 231400@CAELT@METAR SLCB 231400Z 00000KT 9999 FEW040 23/08 Q1026 A3032 752.8 HR38@CAELT@FU NOSIG=@CAELT@
ZPX0375 231401@CAELT@GG SLZZYMYT@CAELT@231400 SLUYYGYS@CAELT@SABO SLUY 231400 RRA@CAELT@METAR RTD SLUY 231400Z 00000KT 9999 FEW023 14/M04 Q1036 A3060 659.9@CAELT@HR30=@CAELT@
ZPX0376 231401@CAELT@GG SLZZYMYT@CAELT@231401 SLCBYGYS@CAELT@SABO SLCB 231400@CAELT@METAR SLCB 231400Z 00000KT 9999 FEW040 23/08 Q1026 A3032 752.8 HR38@CAELT@FU NOSIG=@CAELT@METAR SLAL 231400Z 00000KT 9999 SCT015 16/08 Q1031 A3047 705.5 HR62=@CAELT@METAR SLPO 231400Z NIL=@CAELT@METAR SLAG 231400Z 18004KT 9999 FEW015 SCT200 27/19 Q1018 A3008 890.7HR60=METAR SLVM 231400Z 00000KT 9999 FEW070 31/23 Q1011 A2987 HR62 CI=METAR SLTJ 231400Z 00000KT 9999 FEW027 23/15 Q1021 A3016 815.9 HR62METAR SLYA 231400Z 00000KT 9999 NSC 31/24 Q1012 A2991 937.5 HR69=METAR SLBJ 231400Z NIL=METAR SLHI 231400Z NIL=
ZPX0377 231402@CAELT@GG SLZZYMYT@CAELT@231400 SLLPYSYX@CAELT@SABO SLLP 231400@CAELT@METAR SLLP 231400Z 10004KT 9999 FEW012 SCT200 12/03 Q1040 A3073@CAELT@629.7 HR57 P93// FU AC NOSIG=@CAELT@METAR SLCO 231400Z 27003KT 9999 NSC 30/24 Q1014 A2995 986.6 HR70@CAELT@METAR SLRY 231400Z 32003KT 9999 NSC 31/24 Q1009 A2982 HR66 FU RWY@CAELT@NML=METAR SLRQ 231400Z 00000KT 8000 NSC 30/24 Q1011 A2988 987.7 HR68FU CI=METAR SLAP 231400Z 00000KT 9999 FEW025 24/20 Q1021 A3017 861.8HR78 CI=METAR SLSB 231400Z 00000KT 8000 FEW080 30/24 Q1010 A2985 HR72 FURWY NML=METAR SLOR 231400Z 24006KT 9999 FEW017 14/03 Q1038 A3067 658.3HR47 CI=METAR SLUY 231400Z 00000KT 9999 FEW023 14/M04 Q1036 A3060 659.9HR30=
ZPX0378 231402@CAELT@GG SLZZYMYT@CAELT@231401 SLVRYGYS@CAELT@SABO SLVR 231400@CAELT@METAR SLVR 231400Z 34005KT 9999 FEW020 BKN070 31/22 Q1013 A2992@CAELT@HR59 CI NOSIG=@CAELT@METAR SLET 231400Z 31007KT 9999 SCT020 SCT070 31/21 Q1012 A2991@CAELT@HR55 CI NOSIG=@CAELT@METAR SLAS 231400Z 00000KT 7000 BKN070 31/24 Q1015 A2997 HR65FU RWY NML=METAR SLJV 231400Z 00000KT 4000 NSC FU 29/21 Q1013 A2991 HR70RWY NML=METAR SLCP 231400Z 00000KT 5000 FU BKN015 OVC070 24/23 Q1017A3003 HR92 RWY HUM OPR=METAR SLSI 231400Z 00000KT 8000 SCT017 BKN070 22/21 Q1014 A2994HR96 RERA FU RWY WET OPR=METAR SLTI 231400Z 00000KT 9999 BKN020 OVC070 28/21 Q1017 A3003HR66 RWY NML=METAR SLJE 231400Z 36005KT 5000 FU BKN017 BKN200 29/22 Q1017 A3003HR68 RWY NML=METAR SLVG 231400Z 00000KT 9999 SCT023 BKN200 22/14 Q1025 A3027HR57 RWY NML=METAR SLRB 231400Z 36010KT 9999 SCT017 BKN070 30/23 Q1015 A2997HR68 FU RWY NML=METAR SLPS 231400Z 00000KT 9999 FEW017 OVC070 28/25 Q1013 A2992HR85 FU=METAR SLCA 231400Z 00000KT 9999 FEW033 SCT080 25/20 Q1017 A3003HR72 FU RWY NML=
ZPX0404 231453@CAELT@GG SLZZYMYT@CAELT@231452 SLCAYGYS@CAELT@SABO SLCA 231500@CAELT@METAR SLCA 231500Z 00000KT 9999 SCT033 FEW040CB 28/20 Q1015 A2997@CAELT@HR62 CB SE FU RWY NML=@CAELT@
ZPX0405 231454@CAELT@GG SLZZYMYT@CAELT@231453 SLPSYGYS@CAELT@SABO SLPS 231500@CAELT@METAR SLPS 231500Z 18004KT 9999 FEW017 BKN070 29/25 Q1013 A2992 HR86@CAELT@FU=@CAELT@
ZPX0406 231454@CAELT@GG SLZZYMYT@CAELT@231452 SLRYYSYX@CAELT@SABO SLRY 231500@CAELT@METAR SLRY 231500Z 32004KT 9999 NSC 32/24 Q1009 A2982 HR62 FU CI RWY@CAELT@NML=@CAELT@
ZPX0407 231454@CAELT@GG SLZZYMYT@CAELT@231454 SLSBYSYX@CAELT@SABO SLSB 231500@CAELT@METAR SLSB 231500Z 29005KT 8000 SCT080 32/24 Q1010 A2985 HR63 FU@CAELT@RWY NML=@CAELT@
ZPX0408 231454@CAELT@GG SLZZYMYT@CAELT@231455 SLCOYGYZ@CAELT@SABO SLCO 231500@CAELT@METAR SLCO 231500Z 29003KT 9999 FEW025 32/25 Q1013 A2993 986.1 HR63@CAELT@
ZPX0409 231454@CAELT@GG SLZZYMYT@CAELT@231453 SLRBYGYS@CAELT@SABO SLRB 231500@CAELT@METAR SLRB 231500Z 36008KT 9999 SCT017 32/22 Q1014 A2994 HR57 FU RWY@CAELT@NML=@CAELT@
ZPX0410 231454@CAELT@GG SLZZYMYT@CAELT@231455 SLUYYGYS@CAELT@SABO SLUY 231500@CAELT@METAR SLUY 231500Z 30006KT 9999 FEW025 15/M05 Q1036 A3060 659.8@CAELT@HR26=@CAELT@
ZPX0412 231455@CAELT@GG SLZZYMYT@CAELT@231455 SLSAYGYS@CAELT@SABO SLSA 231500@CAELT@METAR SLSA 231500Z 30014KT 8000 FEW020 BKN200 33/22 Q1011 A2986@CAELT@HR53 FU=@CAELT@
ZPX0413 231455@CAELT@GG SLZZYMYT@CAELT@231455 SLRQYSYX@CAELT@SABO SLRQ 231500@CAELT@METAR SLRQ 231500Z 36006KT 8000 FEW017 SCT200 32/25 Q1011 A2987 987.3@CAELT@HR66 FU=@CAELT@
ZPX0414 231455@CAELT@GG SLZZYMYT@CAELT@231455 SLSAYGYS@CAELT@SABO SLSA 231500@CAELT@METAR SLSA 231500Z 30014KT 8000 FEW020 BKN200 33/22 Q1011 A2986@CAELT@HR53 FU=@CAELT@
ZPX0415 231455@CAELT@GG SLZZYMYT@CAELT@231455 SLAGYSYX@CAELT@SABO SLAG 231500@CAELT@METAR SLAG 231500Z 16003KT 9999 FEW017 29/19 Q1017 A3004 889.5 HR55@CAELT@
ZPX0416 231455@CAELT@GG SLZZYMYT@CAELT@231455 SLORYGYZ@CAELT@SABO SLOR 231500@CAELT@METAR SLOR 231500Z 23004KT 9999 FEW020 16/01 Q1037 A3064 657.8 HR38@CAELT@
ZPX0418 231456@CAELT@GG SLZZYMYT@CAELT@231455 SLCBYGYZ@CAELT@SABO SLCB 231500@CAELT@METAR SLCB 231500Z 20003KT 9999 FEW040 24/07 Q1025 A3029 751.9 HR34@CAELT@FU CI NOSIG=@CAELT@
ZPX0419 231456@CAELT@GG SLZZYMYT@CAELT@231456 SLVRYGYZ@CAELT@SABO SLVR 231500@CAELT@METAR SLVR 231500Z 34011KT 9999 FEW020 SCT200 33/22 Q1012 A2989 HR53@CAELT@AC NOSIG=@CAELT@
ZPX0420 231456@CAELT@GG SLZZYMYT@CAELT@231455 SLLPYGYZ@CAELT@SABO SLLP 231500@CAELT@METAR SLLP 231500Z 11006KT 9999 SCT015 FEW017CB 14/04 Q1040 A3072@CAELT@629.4 HR51 P0483 CB/N AC/CI NOSIG=@CAELT@
ZPX0421 231456@CAELT@GG SLZZYMYT@CAELT@231455 SLTJYGYZ@CAELT@SABO SLTJ 231500@CAELT@METAR SLTJ 231500Z 15005KT 9999 FEW027 25/14 Q1019 A3011 814.6 HR51@CAELT@
ZPX0423 231457@CAELT@GG SLZZYMYT@CAELT@231457 SLTRYGYZ@CAELT@SABO SLTR 231500@CAELT@METAR SLTR 231500Z 32008KT 8000 FEW080 SCT200 32/23 Q1011 A2987 993.0@CAELT@HR59 FU NOSIG=@CAELT@
ZPX0427 231459@CAELT@GG SLZZYMYT@CAELT@231458 SLTRYGYS@CAELT@SABO SLTR 231500@CAELT@METAR SLTR 231500Z 32008KT 8000 FEW080 SCT200 32/23 Q1011 A2987 993.0@CAELT@HR59 FU NOSIG=@CAELT@METAR SLGM 231500Z 36006KT 8000 SCT017 BKN200 32/25 Q1013 A2991 HR68@CAELT@METAR SLRI 231500Z 35008KT 8000 SCT017 FEW020CB BKN200 31/24 Q1013@CAELT@A2993 HR67 FU CB N=METAR SLJO 231500Z 34010KT 8000 NSC 34/23 Q1013 A2992 HR51 FU CIRWY NML=METAR SLRA 231500Z 35010KT 7000 FEW020 BKN200 34/22 Q1012 A2989 HR52FU RWY NML=METAR SLMG 231500Z 32008KT 8000 FEW017 BKN200 34/23 Q1011 A2985 HR54METAR SLBU 231500Z 32006KT 8000 SCT017 BKN200 35/24 Q1011 A2988 HR52METAR SLSA 231500Z 30014KT 8000 FEW020 BKN200 33/22 Q1011 A2986 HR53METAR SLSR 231500Z 34012KT 8000 NSC 31/23 Q1010 A2983 HR63 FU CIMETAR SLSM 231500Z 33008KT 9999 FEW080 32/23 Q1011 A2986 HR59
ZPX0431 231500@CAELT@GG SLZZYMYT@CAELT@231459 SLCBYGYS@CAELT@SABO SLCB 231500@CAELT@METAR SLCB 231500Z 20003KT 9999 FEW040 24/07 Q1025 A3029 751.9 HR34@CAELT@FU CI NOSIG=@CAELT@METAR SLAL 231500Z 00000KT 9999 SCT017 18/09 Q1031 A3045 705.0 HR56=@CAELT@METAR SLPO 231500Z NIL=@CAELT@METAR SLAG 231500Z 16003KT 9999 FEW017 29/19 Q1017 A3004 889.5 HR55METAR SLVM 231500Z 00000KT 9999 NSC 33/22 Q1010 A2984 HR54 CI=METAR SLTJ 231500Z 15005KT 9999 FEW027 25/14 Q1019 A3011 814.6 HR51METAR SLYA 231500Z 00000KT 9999 NSC 33/24 Q1011 A2988 936.5 HR62=METAR SLBJ 231500Z NIL=METAR SLHI 231500Z NIL=
ZPX0432 231500@CAELT@GG SLZZYMYT@CAELT@231500 SLLPYFYA@CAELT@SABO SLLP 231500@CAELT@METAR SLLP 231500Z 11006KT 9999 SCT015 FEW017CB 14/04 Q1040 A3072@CAELT@629.4 HR51 P0483 CB/N AC/CI NOSIG=@CAELT@METAR SLCO 231500Z 29003KT 9999 FEW025 32/25 Q1013 A2993 986.1@CAELT@HR63 CI=@CAELT@METAR SLRY 231500Z 32004KT 9999 NSC 32/24 Q1009 A2982 HR62 FU CIRWY NML=METAR SLRQ 231500Z 36006KT 8000 FEW017 SCT200 32/25 Q1011 A2987987.3 HR66 FU=METAR SLAP 231500Z 00000KT 9999 SCT025 26/21 Q1019 A3011 860.0HR76=METAR SLSB 231500Z 29005KT 8000 SCT080 32/24 Q1010 A2985 HR63 FUMETAR SLOR 231500Z 23004KT 9999 FEW020 16/01 Q1037 A3064 657.8HR38 CI=METAR SLUY 231500Z 30006KT 9999 FEW025 15/M05 Q1036 A3060 659.8HR26=
ZPX0434 231501@CAELT@GG SLZZYMYT@CAELT@231500 SLVRYGYS@CAELT@SABO SLVR 231500@CAELT@METAR SLVR 231500Z 34011KT 9999 FEW020 SCT200 33/22 Q1012 A2989@CAELT@HR53 AC NOSIG=@CAELT@METAR SLET 231500Z 31012KT 9999 SCT020 BKN200 34/21 Q1011 A2988@CAELT@HR46 AC NOSIG=@CAELT@METAR SLAS 231500Z 00000KT 7000 SCT070 31/24 Q1014 A2994 HR65FU RWY NML=METAR SLJV 231500Z 00000KT 5000 FU SCT020 31/21 Q1013 A2991 HR57RWY NML=METAR SLCP 231500Z 00000KT 5000 FU BKN015 OVC070 25/23 Q1016 A3000HR90 RWY HUM OPR=METAR SLSI 231500Z 00000KT 8000 SCT017 BKN070 23/22 Q1013 A2991HR92 FU RWY WET OPR=METAR SLTI 231500Z 00000KT 9999 SCT020 BKN070 30/21 Q1016 A3000HR60 RWY NML=METAR SLJE 231500Z 36008KT 6000 NSC 32/22 Q1016 A3000 HR57FU CI RWY NML=METAR SLVG 231500Z 00000KT 9999 BKN025 25/14 Q1025 A3027 HR47METAR SLRB 231500Z 36008KT 9999 SCT017 32/22 Q1014 A2994 HR57METAR SLPS 231500Z 18004KT 9999 FEW017 BKN070 29/25 Q1013A2992 HR86 FU=METAR SLCA 231500Z 00000KT 9999 SCT033 FEW040CB 28/20 Q1015 A2997HR62 CB SE FU RWY NML=
ZPX0435 231502@CAELT@GG SLZZYMYT@CAELT@231459 SLETYMYC@CAELT@SABO SLET 231500@CAELT@METAR SLET 231500Z 31012KT 9999 SCT020 BKN200 34/21 Q1011 A2988 HR46@CAELT@AC NOSIG=@CAELT@
ZPX0475 231552@CAELT@GG SLZZYMYT@CAELT@231552 SLPSYGYS@CAELT@SABO SLPS 231600@CAELT@METAR SLPS 231600Z 00000KT 9999 FEW017 OVC070 30/25 Q1011 A2986 HR84@CAELT@
ZPX0477 231553@CAELT@GG SLZZYMYT@CAELT@231553 SLSAYGYS@CAELT@SABO SLSA 231600@CAELT@METAR SLSA 231600Z 31014KT 8000 SCT020 BKN200 34/22 Q1010 A2985@CAELT@HR49 FU=@CAELT@
ZPX0478 231553@CAELT@GG SLZZYMYT@CAELT@231553 SLSAYGYS@CAELT@SABO SLSA 231600@CAELT@METAR SLSA 231600Z 31014KT 8000 SCT020 BKN200 34/22 Q1010 A2985@CAELT@HR49 FU=@CAELT@
ZPX0479 231554@CAELT@GG SLZZYMYT@CAELT@231554 SLETYMYC@CAELT@SABO SLET 201600@CAELT@METAR SLET 231600Z 32018KT 9999 SCT020 BKN200 35/21 Q1010 A2985 HR44@CAELT@NOSIG=@CAELT@
ZPX0481 231554@CAELT@GG SLZZYMYT@CAELT@231553 SLRBYGYS@CAELT@SABO SLRB 231600@CAELT@METAR SLRB 231600Z 36006KT 9999 FEW017 33/22 Q1013 A2991 HR52 FU RWY@CAELT@NML=@CAELT@
ZPX0482 231555@CAELT@GG SLZZYMYT@CAELT@231555 SLORYGYZ@CAELT@SABO SLOR 231600@CAELT@METAR SLOR 231600Z 30004KT 9999 SCT020 16/01 Q1037 A3063 657.5 HR35@CAELT@
ZPX0483 231555@CAELT@GG SLZZYMYT@CAELT@231555 SLAGYGYB@CAELT@SABO SLAG 231600@CAELT@METAR SLAG 231600Z VRB02KT 9999 FEW020 32/18 Q1016 A3001 888.4 HR43@CAELT@
ZPX0484 231555@CAELT@GG SLZZYMYT@CAELT@231554 SLCAYGYS@CAELT@SABO SLCA 231600@CAELT@METAR SLCA 231600Z 00000KT 9999 SCT033 32/20 Q1014 A2994 HR51 FU RWY@CAELT@NML=@CAELT@
ZPX0485 231555@CAELT@GG SLZZYMYT@CAELT@231555 SLCOYGYZ@CAELT@SABO SLCO 231600@CAELT@METAR SLCO 231600Z 35006KT 9999 FEW025 33/24 Q1012 A2991 985.4 HR59=@CAELT@
ZPX0486 231555@CAELT@GG SLZZYMYT@CAELT@231553 SLRYYSYX@CAELT@SABO SLRY 231600@CAELT@METAR SLRY 231600Z 32003KT 9999 SCT080 SCT200 33/24 Q1008 A2979 HR56@CAELT@FU RWY NML=@CAELT@
ZPX0487 231555@CAELT@GG SLZZYMYT@CAELT@231555 SLTRYGYZ@CAELT@SABO SLTR 231600@CAELT@METAR SLTR 231600Z 32010KT 8000 FEW020 SCT200 34/23 Q1011 A2986@CAELT@992.6 HR53 FU NOSIG=@CAELT@
ZPX0488 231555@CAELT@GG SLZZYMYT@CAELT@231555 SLRQYSYX@CAELT@SABO SLRQ 231600@CAELT@METAR SLRQ 231600Z 36006KT 8000 FEW017 SCT080 34/25 Q1010 A2983 986.1@CAELT@HR61 FU CI=@CAELT@
ZPX0489 231555@CAELT@GG SLZZYMYT@CAELT@231555 SLVRYGYZ@CAELT@SABO SLVR 231600@CAELT@METAR SLVR 231600Z 35013KT 9999 SCT020 SCT200 34/23 Q1010 A2985 HR52@CAELT@FU AC NOSIG=@CAELT@
ZPX0491 231556@CAELT@GG SLZZYMYT@CAELT@231555 SLLPYGYZ@CAELT@SABO SLLP 231600@CAELT@METAR SLLP 231600Z 13008KT 060V190 9999 SCT017 FEW020CB 14/04@CAELT@Q1039 A3070 629.1 HR49 P93// CB/NW AC/CI NOSIG=@CAELT@
ZPX0492 231556@CAELT@GG SLZZYMYT@CAELT@231558 SLUYYGYS@CAELT@SABO SLUY 231600@CAELT@METAR SLUY 231600Z 32010KT 9999 FEW027 16/M03 Q1036 A3058 659.4@CAELT@HR27=@CAELT@
ZPX0493 231557@CAELT@GG SLZZYMYT@CAELT@231555 SLTJYGYZ@CAELT@SABO SLTJ 231600@CAELT@METAR SLTJ 231600Z 20005KT 9999 FEW033 FEW036TCU 27/14 Q1018 A3008@CAELT@813.9 HR44 TCU N FU=@CAELT@
ZPX0494 231557@CAELT@GG SLZZYMYT@CAELT@231557 SLTRYGYS@CAELT@SABO SLTR 231600@CAELT@METAR SLTR 231600Z 32010KT 8000 FEW020 SCT200 34/23 Q1011 A2986@CAELT@992.6 HR53 FU NOSIG=@CAELT@METAR SLGM 231600Z 26006KT 8000 SCT017 BKN200 32/25 Q1012 A2988 HR65@CAELT@METAR SLRI 231600Z 35008KT 8000 SCT017 FEW020CB BKN200 32/24 Q1012@CAELT@A2991 HR63 FU CB N=METAR SLJO 231600Z 34012KT 8000 FEW020 BKN200 36/22 Q1012 A2989 HR45FU RWY NML=METAR SLRA 231600Z 35010KT 7000 SCT020 BKN200 36/21 Q1010 A2985 HR44METAR SLMG 231600Z 30008KT 8000 SCT017 36/21 Q1010 A2983 HR43 FURWY NML=METAR SLBU 231600Z 32004KT 8000 SCT017 BKN200 36/22 Q1011 A2986 HR45METAR SLSA 231600Z 31014KT 8000 SCT020 BKN200 34/22 Q1010 A2985 HR49METAR SLSR 231600Z 32012KT 8000 FEW017 SCT080 BKN200 33/22 Q1009A2982 HR53 FU RWY NML=METAR SLSM 231600Z 34010KT 9999 FEW080 34/23 Q1010 A2984 HR51
ZPX0495 231557@CAELT@GG SLZZYMYT@CAELT@231557 SLCBYGYZ@CAELT@SABO SLCB 231600@CAELT@METAR SLCB 231600Z 35004KT 9999 FEW040 FEW042TCU 26/02 Q1024 A3025@CAELT@750.8 HR20 TCU/SW/W FU CI NOSIG=@CAELT@
ZPX0496 231558@CAELT@GG SLZZYMYT@CAELT@231558 SLVRYGYS@CAELT@SABO SLVR 231600@CAELT@METAR SLVR 231600Z 35013KT 9999 SCT020 SCT200 34/23 Q1010 A2985@CAELT@HR52 FU AC NOSIG=@CAELT@METAR SLET 231600Z 32018KT 9999 SCT020 BKN200 35/21 Q1010 A2985 HR44@CAELT@NOSIG=@CAELT@METAR SLAS 231600Z 33006KT 8000 NSC 32/24 Q1013 A2991 HR63FU RWY NML=METAR SLCP 231600Z 00000KT 5000 FU SCT015 OVC070 27/23 Q1016 A3000HR80 RWY NML=METAR SLSI 231600Z 33006KT 8000 SCT017 BKN070 26/22 Q1012 A2988HR83 FU RWY WET OPR=METAR SLRB 231600Z 36006KT 9999 FEW017 33/22 Q1013 A2991 HR52METAR SLPS 231600Z 00000KT 9999 FEW017 OVC070 30/25 Q1011 A2986HR84 FU=METAR SLCA 231600Z 00000KT 9999 SCT033 32/20 Q1014 A2994 HR51
ZPX0498 231601@CAELT@GG SLZZYMYT@CAELT@231600 SLLPYFYA@CAELT@SABO SLLP 231600@CAELT@METAR SLLP 231600Z 13008KT 060V190 9999 SCT017 FEW020CB 14/04@CAELT@Q1039 A3070 629.1 HR49 P93// CB/NW AC/CI NOSIG=@CAELT@METAR SLCO 231600Z 35006KT 9999 FEW025 33/24 Q1012 A2991 985.4@CAELT@HR59=@CAELT@METAR SLRY 231600Z 32003KT 9999 SCT080 SCT200 33/24 Q1008 A2979HR56 FU RWY NML=METAR SLRQ 231600Z 36006KT 8000 FEW017 SCT080 34/25 Q1010 A2983986.1 HR61 FU CI=METAR SLAP 231600Z 00000KT 9999 SCT025 28/21 Q1019 A3010 859.6HR63=METAR SLSB 231600Z 32004KT 8000 FEW080 33/25 Q1010 A2984 HR61 FURWY NML=METAR SLOR 231600Z 30004KT 9999 SCT020 16/01 Q1037 A3063 657.5HR35 CI=METAR SLUY 231600Z 32010KT 9999 FEW027 16/M03 Q1036 A3058 659.4HR27=
ZPX0501 231604@CAELT@GG SLZZYMYT@CAELT@231602 SLCBYGYS@CAELT@SABO SLCB 231600@CAELT@METAR SLCB 231600Z 35004KT 9999 FEW040 FEW042TCU 26/02 Q1024 A3025@CAELT@750.8 HR20 TCU/SW/W FU CI NOSIG=@CAELT@METAR SLAL 231600Z 00000KT 9999 SCT020 19/09 Q1030 A3043 704.5 HR53=@CAELT@METAR SLPO 231600Z NIL=@CAELT@METAR SLAG 231600Z VRB02KT 9999 FEW020 32/18 Q1016 A3001 888.4 HR43METAR SLVM 231600Z 00000KT 9999 NSC 34/21 Q1009 A2981 HR57 CI=METAR SLTJ 231600Z 20005KT 9999 FEW033 FEW036TCU 27/14 Q1018 A3008813.9 HR44 TCU N FU=METAR SLYA 231600Z 09008KT 9999 SCT023 35/24 Q1010 A2984 935.4 HR53=METAR SLBJ 231600Z NIL=METAR SLHI 231600Z NIL=
ZPX0530 231653@CAELT@GG SLZZYMYT@CAELT@231652 SLPSYGYS@CAELT@SABO SLPS 231700@CAELT@METAR SLPS 231700Z 00000KT 9999 FEW017 OVC070 31/25 Q1010 A2983 HR75@CAELT@
ZPX0532 231653@CAELT@GG SLZZYMYT@CAELT@231653 SLETYMYC@CAELT@SABO SLET 231700@CAELT@METAR SLET 231700Z 32013G25KT 9999 SCT020 BKN200 36/21 Q1009 A2981@CAELT@HR42 NOSIG=@CAELT@
ZPX0533 231653@CAELT@GG SLZZYMYT@CAELT@231654 SLSAYGYS@CAELT@SABO SLSA 231700@CAELT@METAR SLSA 231700Z 32014KT 8000 SCT020 BKN200 36/23 Q1010 A2983@CAELT@HR46 FU=@CAELT@
ZPX0534 231653@CAELT@GG SLZZYMYT@CAELT@231654 SLSAYGYS@CAELT@SABO SLSA 231700@CAELT@METAR SLSA 231700Z 32014KT 8000 SCT020 BKN200 36/23 Q1010 A2983@CAELT@HR46 FU=@CAELT@
ZPX0535 231653@CAELT@GG SLZZYMYT@CAELT@231655 SLCOYGYZ@CAELT@SABO SLCO 231700@CAELT@METAR SLCO 231700Z 29010KT 9999 FEW030 35/23 Q1011 A2988 984.4 HR50=@CAELT@
ZPX0536 231653@CAELT@GG SLZZYMYT@CAELT@231655 SLCOYGYZ@CAELT@SABO SLCO 231700@CAELT@METAR SLCO 231700Z 29010KT 9999 FEW030 35/23 Q1011 A2988 984.4 HR50=@CAELT@
ZPX0537 231653@CAELT@GG SLZZYMYT@CAELT@231653 SLRBYGYS@CAELT@SABO SLRB 231700@CAELT@METAR SLRB 231700Z 36008KT 9999 FEW020 34/23 Q1012 A2988 HR52 FU RWY@CAELT@NML=@CAELT@
ZPX0538 231654@CAELT@GG SLZZYMYT@CAELT@231654 SLCAYGYS@CAELT@SABO SLCA 231700@CAELT@METAR SLCA 231700Z 00000KT 9999 SCT033 33/19 Q1013 A2991 HR45 FU RWY@CAELT@NML=@CAELT@
ZPX0539 231654@CAELT@GG SLZZYMYT@CAELT@231652 SLRYYSYX@CAELT@SABO SLRY 231700@CAELT@METAR SLRY 231700Z 32008KT 9999 FEW017 BKN080 34/23 Q1007 A2976 HR52@CAELT@FU RWY NML=@CAELT@
ZPX0541 231655@CAELT@GG SLZZYMYT@CAELT@231655 SLORYGYZ@CAELT@SABO SLOR 231700@CAELT@METAR SLOR 231700Z 25005KT 9999 SCT020 18/01 Q1037 A3062 657.2 HR32@CAELT@
ZPX0542 231655@CAELT@GG SLZZYMYT@CAELT@231655 SLORYGYZ@CAELT@SABO SLOR 231700@CAELT@METAR SLOR 231700Z 25005KT 9999 SCT020 18/01 Q1037 A3062 657.2 HR32@CAELT@
ZPX0543 231655@CAELT@GG SLZZYMYT@CAELT@231655 SLSBYSYX@CAELT@SABO SLSB 231700@CAELT@METAR SLSB 231700Z 36007KT 8000 FEW080 35/23 Q1009 A2982 HR51 FU@CAELT@RWY NML=@CAELT@
ZPX0544 231655@CAELT@GG SLZZYMYT@CAELT@231655 SLTRYGYZ@CAELT@SABO SLTR 231700@CAELT@METAR SLTR 231700Z 31010KT 8000 FEW020 SCT200 35/22 Q1009 A2982@CAELT@991.2 HR48 FU NOSIG=@CAELT@
ZPX0545 231655@CAELT@GG SLZZYMYT@CAELT@231655 SLVRYGYZ@CAELT@SABO SLVR 231700@CAELT@METAR SLVR 231700Z 32010G22KT 9999 SCT020 36/22 Q1009 A2981 HR46 FU@CAELT@CI NOSIG=@CAELT@
ZPX0546 231655@CAELT@GG SLZZYMYT@CAELT@231657 SLUYYGYS@CAELT@SABO SLUY 231700@CAELT@METAR SLUY 231700Z 32010KT 9999 FEW027 16/M03 Q1034 A3056 658.8@CAELT@HR27=@CAELT@
ZPX0547 231655@CAELT@GG SLZZYMYT@CAELT@231655 SLRQYSYX@CAELT@SABO SLRQ 231700@CAELT@METAR SLRQ 231700Z 36004KT 8000 FEW020 SCT080 36/25 Q1009 A2979 984.9@CAELT@HR54 FU CI=@CAELT@
ZPX0548 231656@CAELT@GG SLZZYMYT@CAELT@231655 SLLPYGYZ@CAELT@SABO SLLP 231700@CAELT@METAR SLLP 231700Z 11008KT 010V160 9999 SCT017 FEW020CB 15/01@CAELT@Q1038 A3067 628.4 HR39 P93// CB/SW AC/CI NOSIG=@CAELT@
ZPX0550 231656@CAELT@GG SLZZYMYT@CAELT@231656 SLVRYGYS@CAELT@SABO SLVR 231700@CAELT@METAR SLVR 231700Z 32010G22KT 9999 SCT020 36/22 Q1009 A2981@CAELT@HR46 FU CINOSIG=@CAELT@METAR SLET 231700Z 32013G25KT 9999 SCT020 BKN200 36/21 Q1009@CAELT@A2981 HR42 NOSIG=@CAELT@METAR SLAS 231700Z 34006KT 9999 NSC 36/24 Q1012 A2989 HR56FU RWY NML=METAR SLCP 231700Z 00000KT 5000 FU BKN070 28/24 Q1014 A2994HR76 RWY NML=METAR SLSI 231700Z 36006KT 6000 SCT017 SCT070 30/23 Q1012A2988 HR72 FU RWY HUM OPR=METAR SLRB 231700Z 36008KT 9999 FEW020 34/23 Q1012 A2988 HR52METAR SLPS 231700Z 00000KT 9999 FEW017 OVC070 31/25 Q1010 A2983HR75 FU=METAR SLCA 231700Z 00000KT 9999 SCT033 33/19 Q1013 A2991 HR45
ZPX0551 231657@CAELT@GG SLZZYMYT@CAELT@231655 SLTJYGYZ@CAELT@SABO SLTJ 231700@CAELT@METAR SLTJ 231700Z 13008KT 9999 FEW033 FEW036TCU 29/14 Q1017 A3005@CAELT@812.8 HR39 TCU/N FU=@CAELT@
ZPX0552 231657@CAELT@GG SLZZYMYT@CAELT@231656 SLAGYSYX@CAELT@SABO SLAG 231700@CAELT@METAR SLAG 231700Z 13008KT 9999 SCT020 33/17 Q1014 A2995 886.7 HR39@CAELT@
ZPX0553 231658@CAELT@GG SLZZYMYT@CAELT@231657 SLCBYGYZ@CAELT@SABO SLCB 231700@CAELT@METAR SLCB 231700Z 16005KT 9999 FEW040 FEW042CB SCT070 28/01 Q1022@CAELT@A3020 749.6 HR18 CB/ON STN/NW/E SH/NW FU CI NOSIG=@CAELT@
ZPX0554 231658@CAELT@GG SLZZYMYT@CAELT@231658 SLTRYGYS@CAELT@SABO SLTR 231700@CAELT@METAR SLTR 231700Z 31010KT 8000 FEW020 SCT200 35/22 Q1009 A2982@CAELT@991.2 HR48 FU NOSIG=@CAELT@METAR SLGM 231700Z 36006KT 8000 SCT017 BKN200 33/25 Q1011 A2985 HR63@CAELT@METAR SLRI 231700Z 03006KT 8000 SCT017 FEW020CB BKN200 33/24 Q1011@CAELT@A2988 HR60 FU CB N=METAR SLJO 231700Z 34014KT 8000 FEW020 SCT200 37/22 Q1011 A2986 HR40RWY NML=METAR SLRA 231700Z 35012KT 7000 SCT020 BKN200 36/21 Q1010 A2984 HR43FU RWY NML=METAR SLMG 231700Z 32008KT 8000 SCT017 36/22 Q1009 A2980 HR43 FUMETAR SLBU 231700Z 32007KT 8000 SCT017 BKN200 37/22 Q1010 A2983 HR40METAR SLSA 231700Z 32014KT 8000 SCT020 BKN200 36/23 Q1010 A2983 HR46METAR SLSR 231700Z 32015G25KT 8000 FEW017 SCT080 BKN200 34/22 Q1009A2980 HR49 FU RWY NML=METAR SLSM 231700Z 34010KT 9999 FEW017 35/23 Q1009 A2980 HR49 AC
ZPX0557 231701@CAELT@GG SLZZYMYT@CAELT@231700 SLCBYGYS@CAELT@SABO SLCB 231700@CAELT@METAR SLCB 231700Z 16005KT 9999 FEW040 FEW042CB SCT070 28/01 Q1022@CAELT@A3020 749.6 HR18 CB/ON STN/NW/E SH/NW FU CI NOSIG=@CAELT@METAR SLAL 231700Z 35006KT 9999 BKN020 20/09 Q1029 A3039 703.6 HR47=@CAELT@METAR SLPO 231700Z NIL=@CAELT@METAR SLAG 231700Z 13008KT 9999 SCT020 33/17 Q1014 A2995 886.7 HR39METAR SLVM 231700Z 00000KT 9999 NSC 34/21 Q1009 A2981 HR57 CI=METAR SLTJ 231700Z 13008KT 9999 FEW033 FEW036TCU 29/14 Q1017 A3005812.8 HR39 TCU/N FU=METAR SLYA 231700Z 09010KT 9999 SCT023 36/24 Q1009 A2982 934.8 HR51=METAR SLBJ 231700ZMETAR SLHI 231700Z NIL=
ZPX0558 231702@CAELT@GG SLZZYMYT@CAELT@231701 SLLPYFYA@CAELT@SABO SLLP 231700@CAELT@METAR SLLP 231700Z 11008KT 010V160 9999 SCT017 FEW020CB 15/01@CAELT@Q1038 A3067 628.4 HR39 P93// CB/SW AC/CI NOSIG=@CAELT@METAR SLCO 231700Z 29010KT 9999 FEW030 35/23 Q1011 A2988 984.4@CAELT@HR50=@CAELT@METAR SLRY 231700Z 32008KT 9999 FEW017 BKN080 34/23 Q1007 A2976HR52FU RWY NML=METAR SLRQ 231700Z 36004KT 8000 FEW020 SCT080 36/25 Q1009 A2979 984.9HR54 FU CI=METAR SLAP 231700Z 00000KT 9999 SCT025 30/22 Q1017 A3005 858.3 HR62=METAR SLSB 231700Z 36007KT 8000 FEW080 35/23 Q1009 A2982 HR51 FURWY NML=METAR SLOR 231700Z 25005KT 9999 SCT020 18/01 Q1037 A3062 657.2 HR32METAR SLUY 231700Z 32010KT 9999 FEW027 16/M03 Q1034 A3056 658.8HR27=
ZPX0559 231702@CAELT@GG SLZZYMYT@CAELT@231700 SLCBYGYS@CAELT@SABO SLCB 231700@CAELT@METAR SLCB 231700Z 16005KT 9999 FEW040 FEW042CB SCT070 28/01 Q1022@CAELT@A3020 749.6 HR18 CB/ON STN/NW/E SH/NW FU CI NOSIG=@CAELT@METAR SLAL 231700Z 35006KT 9999 BKN020 20/09 Q1029 A3039 703.6 HR47=@CAELT@METAR SLPO 231700Z NIL=@CAELT@METAR SLAG 231700Z 13008KT 9999 SCT020 33/17 Q1014 A2995 886.7 HR39METAR SLVM 231700Z 00000KT 9999 NSC 34/21 Q1009 A2981 HR57 CI=METAR SLTJ 231700Z 13008KT 9999 FEW033 FEW036TCU 29/14 Q1017 A3005812.8 HR39 TCU/N FU=METAR SLYA 231700Z 09010KT 9999 SCT023 36/24 Q1009 A2982 934.8 HR51=METAR SLBJ 231700Z NIL=METAR SLHI 231700Z NIL=
ZPX0578 231753@CAELT@GG SLZZYMYT@CAELT@231752 SLRYYSYX@CAELT@SABO SLRY 231800@CAELT@METAR SLRY 231800Z 32010KT 9999 FEW020 SCT080 34/23 Q1006 A2973 HR52@CAELT@FU RWY NML=@CAELT@
ZPX0580 231754@CAELT@GG SLZZYMYT@CAELT@231755 SLORYGYZ@CAELT@SABO SLOR 231800@CAELT@METAR SLOR 231800Z 18004KT 9999 SCT020 18/M00 Q1035 A3059 656.5 HR29=@CAELT@
ZPX0581 231754@CAELT@GG SLZZYMYT@CAELT@231755 SLVRYGYZ@CAELT@SABO SLVR 231800@CAELT@METAR SLVR 231800Z 36010G21KT 9999 SCT020 36/22 Q1007 A2976 HR45@CAELT@NOSIG=@CAELT@
ZPX0582 231754@CAELT@GG SLZZYMYT@CAELT@231754 SLSAYGYS@CAELT@SABO SLSA 231800@CAELT@METAR SLSA 231800Z 32012KT 8000 SCT020 36/23 Q1008 A2978 HR45 FU=@CAELT@
ZPX0583 231755@CAELT@GG SLZZYMYT@CAELT@231754 SLSAYGYS@CAELT@SABO SLSA 231800@CAELT@METAR SLSA 231800Z 32012KT 8000 SCT020 36/23 Q1008 A2978 HR45 FU=@CAELT@
ZPX0584 231755@CAELT@GG SLZZYMYT@CAELT@231755 SLRQYSYX@CAELT@SABO SLRQ 231800@CAELT@METAR SLRQ 231800Z 35008KT 8000 SCT020 SCT200 37/24 Q1007 A2976 HR48@CAELT@FU AC=@CAELT@
ZPX0585 231755@CAELT@GG SLZZYMYT@CAELT@231755 SLAGYSYX@CAELT@SABO SLAG 231800@CAELT@METAR SLAG 231800Z 10003KT 9999 SCT023 33/17 Q1013 A2992 885.6 HR37=@CAELT@
ZPX0587 231756@CAELT@GG SLZZYMYT@CAELT@231756 SLCOYGYZ@CAELT@SABO SLCO 231800@CAELT@METAR SLCO 231800Z 31011KT 9999 SCT030 36/23 Q1010 A2983 982.9 HR49@CAELT@
ZPX0588 231757@CAELT@GG SLZZYMYT@CAELT@231756 SLCAYGYS@CAELT@SABO SLCA 231800@CAELT@METAR SLCA 231800Z 00000KT 9999 SCT033 34/18 Q1011 A2985 HR39 RWY NML@CAELT@
ZPX0590 231757@CAELT@GG SLZZYMYT@CAELT@231755 SLTJYGYZ@CAELT@SABO SLTJ 231800@CAELT@METAR SLTJ 231800Z 13010KT 9999 SCT040 30/14 Q1016 A3001 811.7 HR37@CAELT@
ZPX0591 231757@CAELT@GG SLZZYMYT@CAELT@231756 SLTRYGYZ@CAELT@SABO SLTR 231800@CAELT@METAR SLTR 231800Z 30010KT 250V340 8000 FEW020 SCT200 36/23 Q1008@CAELT@A2977 989.5 HR47 FU NOSIG=@CAELT@
ZPX0593 231757@CAELT@GG SLZZYMYT@CAELT@231757 SLCBYGYZ@CAELT@SABO SLCB 231800@CAELT@METAR SLCB 231800Z 29005KT 9999 FEW040 FEW042CB SCT070 29/01 Q1021@CAELT@A3015 748.4 HR16 CB/E/S/W FU CI NOSIG=@CAELT@
ZPX0594 231758@CAELT@GG SLZZYMYT@CAELT@231755 SLLPYGYZ@CAELT@SABO SLLP 231800@CAELT@METAR SLLP 231800Z 16009G19KT 9999 VCTS SCT017 FEW020CB BKN200 15/00@CAELT@Q1037 A3063 627.6 HR37 P94// CB/SH S/SW TS/SW AC TEMPO TSRA=@CAELT@
ZPX0596 231759@CAELT@GG SLZZYMYT@CAELT@231757 SLSBYSYX@CAELT@SABO SLSB 231800@CAELT@METAR SLSB 231800Z 32006KT 8000 FEW020 36/22 Q1007 A2974 HR45 FU RWY@CAELT@NML=@CAELT@
ZPX0597 231759@CAELT@GG SLZZYMYT@CAELT@231759 SLTRYGYS@CAELT@SABO SLTR 231800@CAELT@METAR SLTR 231800Z 30010KT 250V340 8000 FEW020 SCT200 36/23 Q1008@CAELT@A2977 989.5 HR47 FU NOSIG=@CAELT@METAR SLGM 231800Z 33006KT 8000 SCT017 BKN200 34/25 Q1009 A2982 HR61@CAELT@METAR SLRI 231800Z 36008KT 8000 SCT017 FEW020CB BKN200 34/23 Q1010@CAELT@A2983 HR52 CB N/SE FU=METAR SLJO 231800Z NIL=METAR SLRA 231800Z 32010KT 8000 FEW023 SCT200 37/22 Q1008 A2978 HR42FU RWY NML=METAR SLMG 231800Z 32010KT 8000 SCT017 37/22 Q1007 A2976 HR41 FURWY NML=METAR SLBU 231800Z 32006KT 8000 BKN017 36/22 Q1009 A2980 HR44 FUMETAR SLSA 231800Z 32012KT 8000 SCT020 36/23 Q1008 A2978 HR45 FU=METAR SLSR 231800Z 32015G25KT 8000 FEW017 FE023CB BKN200 35/22 Q1008A2977 HR48 FU CB W RWY NML=METAR SLSM 231800Z 34010KT 9999 FEW017 36/24 Q1007 A2975 HR50
ZPX0600 231800@CAELT@GG SLZZYMYT@CAELT@231800 SLCBYGYS@CAELT@SABO SLCB 231800@CAELT@METAR SLCB 231800Z 29005KT 9999 FEW040 FEW042CB SCT070 29/01 Q1021@CAELT@A3015 748.4 HR16 CB/E/S/W FU CI NOSIG=@CAELT@METAR SLAL 231800Z 35009KT 9999 SCT023 21/08 Q1028 A3036 702.9 HR46=@CAELT@METAR SLPO 231800Z NIL=@CAELT@METAR SLAG 231800Z 10003KT 9999 SCT023 33/17 Q1013 A2992 885.6 HR37=METAR SLVM 231800Z 18007KT 9999 FEW023 36/21 Q1006 A2973 HR42=METAR SLTJ 231800Z 13010KT 9999 SCT040 30/14 Q1016 A3001 811.7 HR37METAR SLYA 231800Z 09010KT 9999 SCT023 36/24 Q1008 A2977 933.0 HR50=METAR SLBJ 231800ZMETAR SLHI 231800Z NIL=
ZPX0606 231803@CAELT@GG SLZZYMYT@CAELT@231802 SLVRYGYS@CAELT@SABO SLVR 231800@CAELT@METAR SLVR 231800Z 36010G21KT 9999 SCT020 36/22 Q1007 A2976 HR45@CAELT@NOSIG=@CAELT@METAR SLET 231800Z 33013G25KT 9999 FEW020 36/20 Q1007 A2976@CAELT@HR40 CI NOSIG=@CAELT@METAR SLAS 231800Z 34010KT 9999 FEW020 36/23 Q1010 A2983 HR48FU RWY NML=METAR SLJV 231800Z 36010KT 5000 FU FEW020 33/22 Q1010 A2983 HR52RWY NML=METAR SLCP 231800Z 00000KT 5000 FU BKN070 30/23 Q1013 A2991 HR69METAR SLSI 231800Z 33006KT 6000 SCT017 BKN200 32/23 Q1010 A2983HR59 FU RWY HUM OPR=METAR SLTI 231800Z 00000KT 9999 SCT020 35/22 Q1012 A2989 HR46 RWY NMLMETAR SLJE 231800Z 35008KT 6000 NSC 36/24 Q1012 A2988 HR51FU CI RWY NML=METAR SLVG 231800Z 36007KT 9999 SCT027 25/14 Q1022 A3018 HR44 RWY NMLMETAR SLRB 231800Z NIL=METAR SLPS 231800Z NIL=METAR SLCA 231800Z 00000KT 9999 SCT033 34/18 Q1011 A2985 HR39
ZPX0607 231803@CAELT@GG SLZZYMYT@CAELT@231800 SLLPYFYA@CAELT@SABO SLLP 231800@CAELT@METAR SLLP 231800Z 16009G19KT 9999 VCTS SCT017 FEW020CB BKN200 15/00@CAELT@Q1037 A3063 627.6 HR37 P94// CB/SH S/SW TS/SW AC TEMPO TSRA=@CAELT@METAR SLCO 231800Z 31011KT 9999 SCT030 36/23 Q1010 A2983 982.9 HR49@CAELT@METAR SLRY 231800Z 32010KT 9999 FEW020 SCT080 34/23 Q1006 A2973 HR52@CAELT@FU RWY NML=METAR SLRQ 231800Z 35008KT 8000 SCT020 SCT200 37/24 Q1007 A2976 HR48FU AC=METAR SLAP 231800Z 00000KT 9999 SCT025 33/18 Q1016 A3001 857.2 HR43AC=METAR SLSB 231800Z 32006KT 8000 FEW020 36/22 Q1007 A2974 HR45 FU RWYNML=METAR SLOR 231800Z 18004KT 9999 SCT020 18/M00 Q1035 A3059 656.5 HR29=
ZPX0612 231805@CAELT@GG SLZZYMYT@CAELT@231805 SLVRYGYS@CAELT@SABO SLVR 231800 RRA@CAELT@METAR SLVR 231800Z 36010G21KT 9999 SCT020 36/22 Q1007 A2976 HR45@CAELT@NOSIG=@CAELT@METAR SLET 231800Z 33013G25KT 9999 FEW020 36/20 Q1007 A2976 HR40 CI@CAELT@METAR SLAS 231800Z 34010KT 9999 FEW020 36/23 Q1010 A2983 HR48 FU RWY@CAELT@NML=METAR SLJV 231800Z 36010KT 5000 FU FEW020 33/22 Q1010 A2983 HR52 RWYMETAR SLCP 231800Z 00000KT 5000 FU BKN070 30/23 Q1013 A2991 HR69 RWYMETAR SLSI 231800Z 33006KT 6000 SCT017 BKN200 32/23 Q1010 A2983 HR59FU RWY HUM OPR=METAR SLTI 231800Z 00000KT 9999 SCT020 35/22 Q1012 A2989 HR46 RWY NMLMETAR SLJE 231800Z 35008KT 6000 NSC 36/24 Q1012 A2988 HR51 FU CI RWYMETAR SLVG 231800Z 36007KT 9999 SCT027 25/14 Q1022 A3018 HR44 RWY NMLMETAR SLRB 231800Z NIL=METAR RTD SLPS 231800Z 00000KT 9999 BKN070 32/25 Q1009 A2980 HR70 FU=METAR SLCA 231800Z 00000KT 9999 SCT033 34/18 Q1011 A2985 HR39 RWY NML
ZPX0615 231809@CAELT@GG SLZZYMYT@CAELT@231809 SLVRYGYS@CAELT@SABO SLRB 231800 RRA@CAELT@METAR RTD SLRB 231800Z 36006KT 9999 FEW020 35/23 Q1010 A2983@CAELT@HR49 FU RWY NML=@CAELT@
ZPX0632 231852@CAELT@GG SLZZYMYT@CAELT@231852 SLCAYGYS@CAELT@SABO SLCA 231900@CAELT@METAR SLCA 231900Z 00000KT 9999 SCT033 36/17 Q1009 A2980 HR33 RWY NML@CAELT@
ZPX0634 231853@CAELT@GG SLZZYMYT@CAELT@231853 SLETYMYC@CAELT@SABO SLET 231900@CAELT@METAR SLET 231900Z 33015G27 9999 FEW020 36/20 Q1006 A2973 HR39 CI@CAELT@NOSIG=@CAELT@
ZPX0635 231853@CAELT@GG SLZZYMYT@CAELT@231852 SLRYYSYX@CAELT@SABO SLRY 231900@CAELT@METAR SLRY 231900Z 32012KT 9999 FEW020 35/22 Q1005 A2970 HR45 FU RWY@CAELT@NML=@CAELT@
ZPX0637 231854@CAELT@GG SLZZYMYT@CAELT@231855 SLSBYSYX@CAELT@SABO SLSB 231900@CAELT@METAR SLSB 231900Z 31006KT 8000 FEW020 36/23 Q1006 A2972 HR47 FU RWY@CAELT@NML=@CAELT@
ZPX0638 231855@CAELT@GG SLZZYMYT@CAELT@231855 SLVRYGYZ@CAELT@SABO SLVR 231900@CAELT@METAR SLVR 231900Z 34012G23KT 9999 SCT020 36/22 Q1006 A2973 HR44@CAELT@NOSIG=@CAELT@
ZPX0639 231855@CAELT@GG SLZZYMYT@CAELT@231855 SLCOYGYZ@CAELT@SABO SLCO 231900@CAELT@METAR SLCO 231900Z 35007KT 9999 SCT030 37/24 Q1009 A2980 981.9 HR48@CAELT@
ZPX0640 231855@CAELT@GG SLZZYMYT@CAELT@231854 SLTJYGYZ@CAELT@SABO SLTJ 231900@CAELT@METAR SLTJ 231900Z 13008KT 9999 SCT040 28/14 Q1015 A2998 811.0 HR41@CAELT@
ZPX0641 231856@CAELT@GG SLZZYMYT@CAELT@231855 SLAGYSYX@CAELT@SABO SLAG 231900@CAELT@METAR SLAG 231900Z 12005KT 9999 SCT025 FEW033CB 33/17 Q1011 A2988 884@CAELT@.5 HR37 CB/W CI=@CAELT@
ZPX0642 231856@CAELT@GG SLZZYMYT@CAELT@231855 SLRQYSYX@CAELT@SABO SLRQ 231900@CAELT@METAR SLRQ 231900Z 36008KT 8000 FEW020 37/23 Q1006 A2971 982.2 HR47@CAELT@FU CI=@CAELT@
ZPX0643 231856@CAELT@GG SLZZYMYT@CAELT@231854 SLETYMYC@CAELT@SABO SLET 231900@CAELT@METAR SLET 231900Z 33015G27KT 9999 FEW020 36/20 Q1006 A2973 HR39 CI@CAELT@NOSIG=@CAELT@
ZPX0644 231856@CAELT@GG SLZZYMYT@CAELT@231856 SLSAYGYS@CAELT@SABO SLSA 231900@CAELT@METAR SLSA 231900Z 33010KT 8000 SCT020 37/21 Q1007 A2975 HR41 FU=@CAELT@
ZPX0645 231856@CAELT@GG SLZZYMYT@CAELT@231856 SLSAYGYS@CAELT@SABO SLSA 231900@CAELT@METAR SLSA 231900Z 33010KT 8000 SCT020 37/21 Q1007 A2975 HR41 FU=@CAELT@
ZPX0646 231856@CAELT@GG SLZZYMYT@CAELT@231855 SLLPYGYZ@CAELT@SABO SLLP 231900@CAELT@METAR SLLP 231900Z 19014G24KT 170V230 9999 VCTS SCT017 FEW020CB@CAELT@BKN200 09/03 Q1037 A3065 627.9 HR63 P94// CB/SH SW/NW TS/NW AC NOSIG=@CAELT@
ZPX0647 231857@CAELT@GG SLZZYMYT@CAELT@231857 SLVRYGYS@CAELT@SABO SLVR 231900@CAELT@METAR SLVR 231900Z 34012G23KT 9999 SCT020 36/22 Q1006 A2973 HR44@CAELT@NOSIG=@CAELT@METAR SLET 231900Z 33015G27 9999 FEW020 36/20 Q1006 A2973 HR39@CAELT@CI NOSIG=@CAELT@METAR SLAS 231900Z 34008KT 9999 FEW020 37/23 Q1008 A2977 HR46FU RWY NML=METAR SLJV 231900Z 36010KT 5000 FU FEW020 33/22 Q1009 A2980HR50 RWY NML=METAR SLCP 231900Z 00000KT 5000 FU BKN070 31/22 Q1011 A2985HR56 RWY NML=METAR SLSI 231900Z 36006KT 6000 SCT017 BKN200 33/23 Q1008 A2977HR57 FU RWY HUM OPR=METAR SLTI 231900Z 00000KT 9999 NSC 36/21 Q1011 A2985 HR42 RWY NML=METAR SLJE 231900Z 35008KT 6000 NSC 37/24 Q1010 A2983 HR49FU CI RWY NML=METAR SLVG 231900Z 35006KT 9999 SCT027 FEW030CB 25/14 Q1021A3015 HR44CB/ON STN/E RWY NML=METAR SLRB 231900Z 36010KT 9999 FEW020 36/22 Q1009 A2980 HR46METAR SLPS 231900Z 00000KT 9999 BKN070 32/25 Q1008 A2977 HR68 FU=METAR SLCA 231900Z 00000KT 9999 SCT033 36/17 Q1009 A2980HR33 RWY NML=
ZPX0648 231857@CAELT@GG SLZZYMYT@CAELT@231857 SLTRYGYZ@CAELT@SABO SLTR 231900@CAELT@METAR SLTR 231900Z 30010KT 270V340 8000 FEW020 SCT200 36/22 Q1006@CAELT@A2972 988.0 HR43 FU NOSIG=@CAELT@
ZPX0649 231857@CAELT@GG SLZZYMYT@CAELT@231857 SLCBYGYZ@CAELT@SABO SLCB 231900@CAELT@METAR SLCB 231900Z 24004KT 9999 FEW040 FEW042CB SCT070 BKN200 30/02@CAELT@Q1020 A3013 747.7 HR16 CB/NE/E FU NOSIG=@CAELT@
ZPX0650 231859@CAELT@GG SLZZYMYT@CAELT@231859 SLTRYGYS@CAELT@SABO SLTR 231900@CAELT@METAR SLTR 231900Z 30010KT 270V340 8000 FEW020 SCT200 36/22 Q1006@CAELT@A2972 988.0 HR43 FU NOSIG=@CAELT@METAR SLGM 231900Z 31008KT 8000 SCT017 BKN200 34/25 Q1008 A2978 HR60@CAELT@METAR SLRI 231900Z 34010KT 8000 SCT017 BKN200 34/23 Q1008 A2979 HR51@CAELT@METAR SLJO 231900Z NIL=METAR SLRA 231900Z 32010KT 8000 FEW023 SCT200 37/20 Q1007 A2974HR37 FU RWY NML=METAR SLMG 231900Z 32010KT 8000 SCT017 38/21 Q1006 A2973 HR37 FURWY NML=METAR SLBU 231900Z 32004KT 8000 SCT017 38/22 Q1008 A2977 HR40 FUMETAR SLSA 231900Z 33010KT 8000 SCT020 37/21 Q1007 A2975 HR41 FU=METAR SLSR 231900Z 32015KT 8000 FEW017 FEW023CB BKN200 35/23 Q1005A2970 HR48 FU CB W RWY NML=METAR SLSM 231900Z 36010KT 9999 SCT017 36/22 Q1006 A2972 HR46
ZPX0652 231900@CAELT@GG SLZZYMYT@CAELT@231900 SLCBYGYS@CAELT@SABO SLCB 231900@CAELT@METAR SLCB 231900Z 24004KT 9999 FEW040 FEW042CB SCT070 BKN200 30/02@CAELT@Q1020 A3013 747.7 HR16 CB/NE/E FU NOSIG=@CAELT@METAR SLAL 231900Z 09007KT 9999 SCT023 FEW030CB 20/08 Q1027 A3033 702@CAELT@.2 HR45 CB ON/STN=@CAELT@METAR SLPO 231900Z NIL=METAR SLAG 231900Z 12005KT 9999 SCT025 FEW033CB 33/17 Q1011 A2988 884.5 HR37 CB/W CI=METAR SLVM 231900Z NIL=METAR SLTJ 231900Z 13008KT 9999 SCT040 28/14 Q1015 A2998 811.0 HR41METAR SLYA 231900Z NIL=METAR SLBJ 231900Z NIL=METAR SLHI 231900Z NIL=
ZPX0656 231911@CAELT@GG SLZZYMYT@CAELT@231904 SLLPYFYA@CAELT@SABO SLLP 231900@CAELT@METAR SLLP 231900Z 19014G24KT 170V230 9999 VCTS SCT017 FEW020CB@CAELT@BKN200 09/03 Q1037 A3065 627.9 HR63 P94// CB/SH SW/NW TS/NW AC NOSIG=@CAELT@METAR SLCO 231900Z 35007KT 9999 SCT030 37/24 Q1009 A2980 981.9 HR48@CAELT@METAR SLRY 231900Z 32012KT 9999 FEW020 35/22 Q1005 A2970 HR45 FU RWY@CAELT@NML=METAR SLRQ 231900Z 36008KT 8000 FEW020 37/23 Q1006 A2971 982.2 HR47FU CI=METAR SLSB 231900Z 31006KT 8000 FEW020 36/23 Q1006 A2972 HR47 FU RWY
ZPX0691 231951@CAELT@GG SLZZYMYT@CAELT@231950 SLRBYGYS@CAELT@SABO SLRB 232000@CAELT@METAR SLRB 232000Z 36016KT 9999 FEW020 37/22 Q1009 A2980 HR45 FU RWY@CAELT@NML=@CAELT@
ZPX0693 231952@CAELT@GG SLZZYMYT@CAELT@231952 SLPSYGYS@CAELT@SABO SLPS 232000@CAELT@METAR SLPS 232000Z 00000KT 9999 SCT070 BKN200 32/25 Q1007 A2974 HR68@CAELT@
ZPX0694 231953@CAELT@GG SLZZYMYT@CAELT@231953 SLETYMYC@CAELT@SABO SLET 232000@CAELT@METAR SLET 232000Z 33014G24KT 9999 FEW020 35/20 Q1005 A2970 HR40@CAELT@NOSIG=@CAELT@
ZPX0695 231953@CAELT@GG SLZZYMYT@CAELT@231952 SLRYYSYX@CAELT@SABO SLRY 232000@CAELT@METAR SLRY 232000Z 32014KT 9999 NSC 35/21 Q1004 A2967 HR44 FU RWY NML@CAELT@
ZPX0696 231954@CAELT@GG SLZZYMYT@CAELT@231955 SLCOYGYZ@CAELT@SABO SLCO 232000@CAELT@METAR SLCO 232000Z 32010KT 9999 SCT030 37/24 Q1007 A2976 980.6 HR47@CAELT@
ZPX0697 231954@CAELT@GG SLZZYMYT@CAELT@231955 SLRQYSYX@CAELT@SABO SLRQ 232000@CAELT@METAR SLRQ 232000Z 36008KT 8000 NSC 37/23 Q1005 A2969 981.4 HR46 FU@CAELT@
ZPX0698 231955@CAELT@GG SLZZYMYT@CAELT@231955 SLVRYGYZ@CAELT@SABO SLVR 232000@CAELT@METAR SLVR 232000Z 35010G21KT 9999 SCT020 36/22 Q1005 A2970 HR44@CAELT@NOSIG=@CAELT@
ZPX0699 231955@CAELT@GG SLZZYMYT@CAELT@231955 SLSBYSYX@CAELT@SABO SLSB 232000@CAELT@METAR SLSB 232000Z 32005KT 8000 NSC 36/22 Q1006 A2971 HR46 FU RWY NML=@CAELT@
ZPX0700 231955@CAELT@GG SLZZYMYT@CAELT@231955 SLLPYGYZ@CAELT@SABO SLLP 232000@CAELT@METAR SLLP 232000Z 12006KT 9999 SCT017 FEW020CB SCT200 14/00 Q1036@CAELT@A3060 626.8 HR39 P0483 CB/SH N/NW RETS AC NOSIG=@CAELT@
ZPX0701 231955@CAELT@GG SLZZYMYT@CAELT@231955 SLCAYGYS@CAELT@SABO SLCA 232000@CAELT@METAR SLCA 232000Z 00000KT 9999 BKN033 34/17 Q1009 A2980 HR38 RWY NML@CAELT@
ZPX0702 231956@CAELT@GG SLZZYMYT@CAELT@231956 SLSAYGYS@CAELT@SABO SLSA 232000@CAELT@METAR SLSA 232000Z 31010KT 8000 SCT020 37/22 Q1006 A2973 HR40 FU=@CAELT@
ZPX0703 231956@CAELT@GG SLZZYMYT@CAELT@231956 SLSAYGYS@CAELT@SABO SLSA 232000@CAELT@METAR SLSA 232000Z 31010KT 8000 SCT020 37/22 Q1006 A2973 HR40 FU=@CAELT@
ZPX0704 231956@CAELT@GG SLZZYMYT@CAELT@231956 SLTRYGYZ@CAELT@SABO SLTR 232000@CAELT@METAR SLTR 232000Z 30006KT 8000 FEW020 SCT200 36/22 Q1005 A2969@CAELT@987.0 HR43 FU NOSIG=@CAELT@
ZPX0705 231957@CAELT@GG SLZZYMYT@CAELT@231956 SLCBYGYZ@CAELT@SABO SLCB 232000@CAELT@METAR SLCB 232000Z 27005KT 9999 FEW040 FEW042CB SCT070 28/01 Q1019@CAELT@A3011 747.1 HR16 CB/E/SW/W FU CI NOSIG=@CAELT@
ZPX0706 231957@CAELT@GG SLZZYMYT@CAELT@231955 SLTJYGYZ@CAELT@SABO SLTJ 232000@CAELT@METAR SLTJ 232000Z 12008KT 9999 SCT040 FEW043CB 27/13 Q1014 A2997 810@CAELT@.7 HR42 RETS CB N/NE/W FU=@CAELT@
ZPX0708 231957@CAELT@GG SLZZYMYT@CAELT@231956 SLVRYGYS@CAELT@SABO SLVR 232000@CAELT@METAR SLVR 232000Z 35010G21KT 9999 SCT020 36/22 Q1005 A2970 HR44@CAELT@NOSIG=@CAELT@METAR SLET 232000Z 33014G24KT 9999 FEW020 35/20 Q1005 A2970 HR40@CAELT@METAR SLAS 232000Z 34010KT 9999 FEW020 37/23 Q1007 A2974 HR44@CAELT@FU RWY NML=METAR SLJV 232000Z 36014KT 5000 FU FEW020 34/22 Q1008 A2974 HR51RWY NML=METAR SLCP 232000Z 30008KT 5000 FU SCT070 32/21 Q1010 A2983 HR53METAR SLSI 232000Z 33005KT 7000 NSC 33/22 Q1007 A2974 HR55 RWY NML=METAR SLTI 232000Z 00000KT 9999 SCT070 34/20 Q1010 A2983 HR44 RWY NMLMETAR SLJE 232000Z 35006KT 7000 FEW020 37/23 Q1009 A2980 HR47METAR SLVG 232000Z 00000KT 9999 SCT027 FEW030CB 24/16 Q1021 A3015HR56 CB/NW RESH RWY NML=METAR SLRB 232000Z 36016KT 9999 FEW020 37/22 Q1009 A2980 HR45METAR SLPS 232000Z 00000KT 9999 SCT070 BKN200 32/25 Q1007 A2974HR68 FU=METAR SLCA 232000Z 00000KT 9999 BKN033 34/17 Q1009 A2980 HR38
ZPX0710 232001@CAELT@GG SLZZYMYT@CAELT@232000 SLTRYGYS@CAELT@SABO SLTR 232000@CAELT@METAR SLTR 232000Z 30006KT 8000 FEW020 SCT200 36/22 Q1005 A2969@CAELT@987.0 HR43 FU NOSIG=@CAELT@METAR SLGM 232000Z 33006KT 8000 SCT017 FEW020CB BKN200 34/25 Q1007@CAELT@A2976 HR59 FU CB NE=@CAELT@METAR SLRI 232000Z 34010KT 8000 FEW017 BKN200 35/23 Q1008 A2977 HR51METAR SLJO 232000Z NIL=METAR SLRA 232000Z 30012KT 8000 FEW023 SCT200 37/20 Q1006 A2972 HR38FU RWY NML=METAR SLMG 232000Z 32008KT 8000 SCT017 37/21 Q1006 A2971 HR40 FURWY NML=METAR SLBU 232000Z 32004KT 8000 SCT017 38/20 Q1007 A2974 HR37 FUMETAR SLSA 232000Z 31010KT 8000 SCT020 37/22 Q1006 A2973 HR40 FU=METAR SLSR 232000Z 32015KT 8000 FEW017 SCT020 35/22 Q1004 A2967 HR47METAR SLSM 232000Z 36006KT 9999 FEW017 36/23 Q1005 A2968 HR48
ZPX0712 232001@CAELT@GG SLZZYMYT@CAELT@232000 SLCBYGYS@CAELT@SABO SLCB 232000@CAELT@METAR SLCB 232000Z 27005KT 9999 FEW040 FEW042CB SCT070 28/01 Q1019@CAELT@A3011 747.1 HR16 CB/E/SW/W FU CI NOSIG=@CAELT@METAR SLAL 232000Z 35018KT 9999 SCT023 FEW030CB 20/08 Q1026 A3029 701@CAELT@.4 HR47 CB/E=@CAELT@METAR SLPO 232000Z NIL=METAR SLAG 232000Z NIL=METAR SLVM 232000Z NIL=METAR SLTJ 232000Z 12008KT 9999 SCT040 FEW043CB 27/13 Q1014 A2997 810.7 HR42 RETS CB N/NE/W FU=METAR SLYA 232000Z NIL=METAR SLBJ 232000Z NIL=METAR SLHI 232000Z NIL=
ZPX0716 232008@CAELT@GG SLZZYMYT@CAELT@232002 SLLPYFYA@CAELT@SABO SLLP 232000@CAELT@METAR SLLP 232000Z 12006KT 9999 SCT017 FEW020CB SCT200 14/00 Q1036@CAELT@A3060 626.8 HR39 P0483 CB/SH N/NW RETS AC NOSIG=@CAELT@METAR SLCO 232000Z 32010KT 9999 SCT030 37/24 Q1007 A2976 980.6 HR47@CAELT@METAR SLRY 232000Z 32014KT 9999 NSC 35/21 Q1004 A2967 HR44 FU RWY NML@CAELT@METAR SLRQ 232000Z 36008KT 8000 NSC 37/23 Q1005 A2969 981.4 HR46 FUMETAR SLSB 232000Z 32005KT 8000 NSC 36/22 Q1006 A2971 HR46 FU RWY NML=
ZPX0737 232053@CAELT@GG SLZZYMYT@CAELT@232053 SLPSYGYS@CAELT@SABO SLPS 232100@CAELT@METAR SLPS 232100Z 09004KT 9999 NSC 31/26 Q1006 A2971 HR74 FU CI=@CAELT@
ZPX0738 232054@CAELT@GG SLZZYMYT@CAELT@232053 SLETYMYC@CAELT@SABO SLET 232100@CAELT@METAR SLET 232100Z 33013KT 9999 FEW020 35/20 Q1005 A2969 HR41 NOSIG=@CAELT@
ZPX0739 232054@CAELT@GG SLZZYMYT@CAELT@232052 SLRYYSYX@CAELT@SABO SLRY 232100@CAELT@METAR SLRY 232100Z 32015KT 9999 NSC 35/21 Q1003 A2964 HR44 FU RWY NML@CAELT@
ZPX0740 232054@CAELT@GG SLZZYMYT@CAELT@232055 SLSBYSYX@CAELT@SABO SLSB 232100@CAELT@METAR SLSB 232100Z 31005KL 8000 NSC 35/22 Q1005 A2969 HR47 FU RWY NML=@CAELT@
ZPX0741 232054@CAELT@GG SLZZYMYT@CAELT@232055 SLVRYGYZ@CAELT@SABO SLVR 232100@CAELT@METAR SLVR 232100Z 35010G20KT 9999 SCT020 34/22 Q1005 A2969 HR48@CAELT@NOSIG=@CAELT@
ZPX0742 232055@CAELT@GG SLZZYMYT@CAELT@232055 SLRQYSYX@CAELT@SABO SLRQ 232100@CAELT@METAR SLRQ 232100Z 36004KT 8000 NSC 35/23 Q1006 A2973 980.9 HR50 FU@CAELT@
ZPX0745 232056@CAELT@GG SLZZYMYT@CAELT@232056 SLSAYGYS@CAELT@SABO SLSA 232100@CAELT@METAR SLSA 232100Z 33008KT 8000 SCT020 36/21 Q1006 A2971 HR41 FU=@CAELT@
ZPX0746 232056@CAELT@GG SLZZYMYT@CAELT@232056 SLSAYGYS@CAELT@SABO SLSA 232100@CAELT@METAR SLSA 232100Z 33008KT 8000 SCT020 36/21 Q1006 A2971 HR41 FU=@CAELT@
ZPX0747 232056@CAELT@GG SLZZYMYT@CAELT@232056 SLTRYGYZ@CAELT@SABO SLTR 2321800@CAELT@METAR SLTR 232100Z 30006KT 8000 FEW020 36/21 Q1005 A2968 986.7@CAELT@HR42 FU NOSIG=@CAELT@
ZPX0748 232056@CAELT@GG SLZZYMYT@CAELT@232055 SLRBYGYS@CAELT@SABO SLRB 232100@CAELT@METAR SLRB 232100Z 36010KT 9999 FEW020 35/23 Q1008 A2977 HR50 FU RWY@CAELT@NML=@CAELT@
ZPX0749 232056@CAELT@GG SLZZYMYT@CAELT@232056 SLCOYGYZ@CAELT@SABO SLCO 232100@CAELT@METAR SLCO 232100Z 29005KT 9999 FEW030 36/23 Q1007 A2974 979.7 HR46=@CAELT@
ZPX0750 232056@CAELT@GG SLZZYMYT@CAELT@232056 SLCAYGYS@CAELT@SABO SLCA 232100@CAELT@METAR SLCA 232100Z 00000KT 9999 FEW033 34/19 Q1009 A2980 HR41 RWY NML@CAELT@
ZPX0752 232058@CAELT@GG SLZZYMYT@CAELT@232055 SLLPYGYZ@CAELT@SABO SLLP 232100@CAELT@METAR SLLP 232100Z 07005KT 030V130 9999 FEW017 FEW020CB SCT200@CAELT@15/00 Q1035 A3059 626.5 HR37 P93// CB/SH S AC NOSIG=@CAELT@
ZPX0753 232058@CAELT@GG SLZZYMYT@CAELT@232057 SLCBYGYZ@CAELT@SABO SLCB 232100@CAELT@METAR SLCB 232100Z 08006KT 9999 FEW040 FEW042CB SCT080 26/04 Q1019@CAELT@A3010 746.9 HR24 CB/E/W VIRGA/W FU CI NOSIG=@CAELT@
ZPX0754 232059@CAELT@GG SLZZYMYT@CAELT@232058 SLTRYGYS@CAELT@SABO SLTR 232100@CAELT@METAR SLTR 232100Z 30006KT 8000 FEW020 36/21 Q1005 A2968 986.7@CAELT@HR42 FU NOSIG=@CAELT@METAR SLGM 232100Z 33006KT 8000 SCT017 FEW020CB BKN200 33/25 Q1007@CAELT@A2974 HR63 FU CB NE/E=@CAELT@METAR SLRI 232100Z 36012KT 8000 FEW017 FEW020CB BKN200 34/23 Q1007A2976 HR51 CB/NE FU AC=METAR SLJO 232100Z NIL=METAR SLRA 232100Z 32008KT 8000 FEW023 SCT200 37/20 Q1006 A2971 HR39FU RWY NML=METAR SLMG 232100Z 32006KT 8000 FEW017 37/20 Q1005 A2970 HR38 FURWY NML=METAR SLBU 232100Z 00000KT 9999 SCT017 BKN200 28/22 Q1006 A2972 HR39METAR SLSA 232100Z 33008KT 8000 SCT020 36/21 Q1006 A2971 HR41 FU=METAR SLSR 232100Z 32010KT 8000 FEW017 SCT200 35/22 Q1003 A2964 HR47METAR SLSM 232100Z 33006KT 9999 NSC 36/23 Q1004 A2966 HR48 RWY NML=
ZPX0755 232059@CAELT@GG SLZZYMYT@CAELT@232059 SLTRYGYZ@CAELT@SABO SLTR 232100 CCA@CAELT@METAR COR SLTR 232100Z 30006KT 8000 FEW020 36/21 Q1005 A2968 986.7@CAELT@HR42 FU NOSIG=@CAELT@
ZPX0758 232101@CAELT@GG SLZZYMYT@CAELT@232101 SLCBYGYS@CAELT@SABO SLCB 232100@CAELT@METAR SLCB 232100Z 08006KT 9999 FEW040 FEW042CB SCT080 26/04 Q1019@CAELT@A3010 746.9 HR24 CB/E/W VIRGA/W FU CI NOSIG=@CAELT@METAR SLAL 232100Z 03009KT 9999 SCT023 20/10 Q1026 A3030 701.5 HR51=@CAELT@
ZPX0759 232101@CAELT@GG SLZZYMYT@CAELT@232100 SLVRYGYS@CAELT@SABO SLVR 232100@CAELT@METAR SLVR 232100Z 35010G20KT 9999 SCT020 34/22 Q1005 A2969 HR48@CAELT@NOSIG=@CAELT@METAR SLET 232100Z 33013KT 9999 FEW020 35/20 Q1005 A2969 HR41 NOSIG=@CAELT@METAR SLAS 232100Z 34006KT 9999 FEW020 36/24 Q1007 A2974 HR50@CAELT@FU RWY NML=METAR SLJV 232100Z 36010KT 5000 FU NSC 33/20 Q1007 A2974 HR48RWY NML=METAR SLCP 232100Z 30005KT 5000 FU NSC 32/22 Q1010 A2983 HR53METAR SLSI 232100Z 33005KT 7000 NSC 31/21 Q1007 A2974 HR60METAR SLTI 232100Z 00000KT 9999 NSC 33/19 Q1010 A2983 HR44CI RWY NML=METAR SLJE 232100Z 35005KT 7000 FEW020 36/23 Q1009 A2980 HR48METAR SLVG 232100Z 36005KT 9999 FEW027 24/14 Q1020 A3012 HR49METAR SLRB 232100Z 36010KT 9999 FEW020 35/23 Q1008 A2977 HR50METAR SLPS 232100Z 09004KT 9999 NSC 31/26 Q1006 A2971 HR74 FU CI=METAR SLCA 232100Z 00000KT 9999 FEW033 34/19 Q1009 A2980 HR41
ZPX0762 232103@CAELT@GG SLZZYMYT@CAELT@232102 SLLPYFYA@CAELT@SABO SLLP 232100@CAELT@METAR SLLP 232100Z 07005KT 030V130 9999 FEW017 FEW020CB SCT200@CAELT@15/00 Q1035 A3059 626.5 HR37 P93// CB/SH S AC NOSIG=@CAELT@METAR SLCO 232100Z 29005KT 9999 FEW030 36/23 Q1007 A2974 979.7@CAELT@HR46=@CAELT@METAR SLRY 232100Z 32015KT 9999 NSC 35/21 Q1003 A2964 HR44 FURWY NML=METAR SLRQ 232100Z 36004KT 8000 NSC 35/23 Q1006 A2973 980.9HR50 FU CI=METAR SLSB 232100Z 31005KL 8000 NSC 35/22 Q1005 A2969 HR47 FU
ZPX0786 232153@CAELT@GG SLZZYMYT@CAELT@232153 SLRBYGYS@CAELT@SABO SLRB 232200@CAELT@METAR SLRB 232200Z 36004KT 9999 FEW020 34/23 Q1008 A2977 HR55 FU RWY@CAELT@NML=@CAELT@
ZPX0787 232153@CAELT@GG SLZZYMYT@CAELT@232153 SLCAYGYS@CAELT@SABO SLCA 232200@CAELT@METAR SLCA 232200Z 00000KT 9999 FEW033 31/19 Q1009 A2980 HR49 RWY NML@CAELT@
ZPX0789 232154@CAELT@GG SLZZYMYT@CAELT@232154 SLSAYGYS@CAELT@SABO SLSA 232200@CAELT@METAR SLSA 232200Z 32005KT 8000 FEW020 SCT200 35/21 Q1006 A2971@CAELT@HR45 FU=@CAELT@
ZPX0790 232154@CAELT@GG SLZZYMYT@CAELT@232154 SLSAYGYS@CAELT@SABO SLSA 232200@CAELT@METAR SLSA 232200Z 32005KT 8000 FEW020 SCT200 35/21 Q1006 A2971@CAELT@HR45 FU=@CAELT@
ZPX0791 232154@CAELT@GG SLZZYMYT@CAELT@232155 SLSBYSYX@CAELT@SABO SLSB 232200@CAELT@METAR SLSB 232200Z 33004KT 8000 NSC 33/22 Q1005 A2970 HR50 FU CI RWY@CAELT@NML=@CAELT@
ZPX0792 232154@CAELT@GG SLZZYMYT@CAELT@232155 SLRQYSYX@CAELT@SABO SLRQ 232200@CAELT@METAR SLRQ 232200Z 00000KT 8000 NSC 33/23 Q1005 A2969 981.3 HR56 FU@CAELT@
ZPX0793 232154@CAELT@GG SLZZYMYT@CAELT@232155 SLVRYGYZ@CAELT@SABO SLVR 232200@CAELT@METAR SLVR 232200Z 32013KT 9999 FEW020 33/21 Q1005 A2970 HR50 NOSIG=@CAELT@
ZPX0795 232156@CAELT@GG SLZZYMYT@CAELT@232155 SLLPYGYZ@CAELT@SABO SLLP 232200@CAELT@METAR SLLP 232200Z 08006KT 9999 FEW017 FEW020CB SCT200 14/00@CAELT@Q1035 A3058 626.4 HR40 P93// CB/SH SW AC NOSIG=@CAELT@
ZPX0796 232156@CAELT@GG SLZZYMYT@CAELT@232156 SLVRYGYS@CAELT@SABO SLVR 232200@CAELT@METAR SLVR 232200Z 32013KT 9999 FEW020 33/21 Q1005 A2970 HR50 NOSIG=@CAELT@METAR SLET 232200Z 31012KT 9999 FEW020 33/20 Q1005 A2970 HR45 NOSIG=@CAELT@METAR SLAS 232200Z 00000KT 9999 NSC 34/23 Q1007 A2974 HR54 FU RWY NML@CAELT@METAR SLJV 232200Z 00000KT 5000 FU NSC 31/22 Q1007 A2974 HR61 RWY NML@CAELT@METAR SLCP 232200Z 00000KT 5000 FU NSC 31/24 Q1010 A2983 HR68 RWY NMLMETAR SLSI 232200Z 00000KT 7000 NSC 30/23 Q1006 A2971 HR65 FU RWY NMLMETAR SLTI 232200Z 00000KT 9999 NSC 32/21 Q1010 A2983 HR52 CI RWY NMLMETAR SLJE 232200Z 00000KT 7000 NSC 35/23 Q1009 A2980 HR50 FU RWY NMLMETAR SLRB 232200Z 36004KT 9999 FEW020 34/23 Q1008 A2977 HR55FU RWY NML=METAR SLPS 232200Z 00000KT 9999 NSC 30/26 Q1007 A2974 HR80 FU CI=METAR SLCA 232200Z 00000KT 9999 FEW033 31/19 Q1009 A2980 HR49 RWY NML
ZPX0797 232156@CAELT@GG SLZZYMYT@CAELT@232156 SLTRYGYZ@CAELT@SABO SLTR 232200@CAELT@METAR SLTR 232200Z 29004KT 8000 NSC 35/21 Q1005 A2968 986.7 HR46@CAELT@FU NOSIG=@CAELT@
ZPX0798 232156@CAELT@GG SLZZYMYT@CAELT@232156 SLETYMYC@CAELT@SABO SLET 232200@CAELT@METAR SLET 232200Z 31012KT 9999 FEW020 33/20 Q1005 A2970 HR45 NOSIG=@CAELT@
ZPX0799 232156@CAELT@GG SLZZYMYT@CAELT@232157 SLCOYGYZ@CAELT@SABO SLCO 232200@CAELT@METAR SLCO 232200Z 31004KT 9999 FEW030 35/22 Q1007 A2974 979.7 HR46=@CAELT@
ZPX0800 232157@CAELT@GG SLZZYMYT@CAELT@232154 SLRYYSYX@CAELT@SABO SLRY 232200@CAELT@METAR SLRY 232200Z 32006KT 9999 NSC 34/21 Q1003 A2964 HR47 FU CI RWY@CAELT@NML=@CAELT@
ZPX0802 232159@CAELT@GG SLZZYMYT@CAELT@232159 SLTRYGYS@CAELT@SABO SLTR 232200@CAELT@METAR SLTR 232200Z 29004KT 8000 NSC 35/21 Q1005 A2968 986.7 HR46@CAELT@FU NOSIG=@CAELT@METAR SLGM 232200Z 36004KT 8000 FEW017 FEW020CB BKN200 31/26 Q1007@CAELT@A2974 HR72 FU CB E=@CAELT@METAR SLRI 232200Z 36010KT 8000 FEW017 FEW020CB BKN200 33/24 Q1007A2976 HR57 CB E/S FU AC=METAR SLJO 232200Z NIL=METAR SLRA 232200Z 34004KT 8000 NSC 36/20 Q1006 A2971 HR41 FU CIRWY NML=METAR SLMG 232200Z 32004KT 8000 FEW017 35/20 Q1006 A2971 HR39 FUMETAR SLBU 232200Z NIL=METAR SLSA 232200Z 32005KT 8000 FEW020 SCT200 35/21 Q1006 A2971HR45 FU=METAR SLSR 232200Z 32006KT 7000 FEW017 BKN200 34/22 Q1003 A2965 HR49FU RWY NML=METAR SLSM 232200Z 33004KT 9999 NSC 34/23 Q1004 A2966 HR52 RWY NML=
ZPX0803 232159@CAELT@GG SLZZYMYT@CAELT@232157 SLCBYGYZ@CAELT@SABO SLCB 232200@CAELT@METAR SLCB 232200Z 30008KT 220V360 9999 FEW040 FEW042CB 25/05 Q1020@CAELT@A3012 747.5 HR27 CB/NW FU AC NOSIG=@CAELT@
ZPX0805 232200@CAELT@GG SLZZYMYT@CAELT@232200 SLCBYGYS@CAELT@SABO SLCB 232200@CAELT@METAR SLCB 232200Z 30008KT 220V360 9999 FEW040 FEW042CB 25/05 Q1020@CAELT@A3012 747.5 HR27 CB/NW FU AC NOSIG=@CAELT@METAR SLAL 232200Z 06013KT 9999 SCT020 18/09 Q1026 A3032 701.9 HR58=@CAELT@
ZPX0811 232207@CAELT@GG SLZZYMYT@CAELT@232203 SLLPYFYA@CAELT@SABO SLLP 232200@CAELT@METAR SLLP 232200Z 08006KT 9999 FEW017 FEW020CB SCT200 14/00@CAELT@Q1035 A3058 626.4 HR40 P93// CB/SH SW AC NOSIG=@CAELT@METAR SLCO 232200Z 31004KT 9999 FEW030 35/22 Q1007 A2974 979.7 HR46=@CAELT@METAR SLRY 232200Z 32006KT 9999 NSC 34/21 Q1003 A2964 HR47 FU CI RWY@CAELT@NML=METAR SLRQ 232200Z 00000KT 8000 NSC 33/23 Q1005 A2969 981.3 HR56 FUMETAR SLSB 232200Z 33004KT 8000 NSC 33/22 Q1005 A2970 HR50 FU CI RWY
ZPX0823 232245@CAELT@GG SLZZYMYT@CAELT@232245 SLCAYGYS@CAELT@SABO SLCA 232300@CAELT@METAR SLCA 232300Z 00000KT 9999 NSC 30/19 Q1009 A2980 HR51 RWY NML=@CAELT@
ZPX0824 232253@CAELT@GG SLZZYMYT@CAELT@232255 SLCOYGYZ@CAELT@SABO SLCO 232300@CAELT@METAR SLCO 232300Z 28003KT 9999 FEW030 34/22 Q1007 A2975 980.1 HR50=@CAELT@
ZPX0825 232254@CAELT@GG SLZZYMYT@CAELT@232253 SLRBYGYS@CAELT@SABO SLRB 232300@CAELT@METAR SLRB 232300Z 00000KT 9999 NSC 31/24 Q1008 A2977 HR68 FU RWY NML=@CAELT@
ZPX0826 232254@CAELT@GG SLZZYMYT@CAELT@232255 SLSBYSYX@CAELT@SABO SLSB 232300@CAELT@METAR SLSB 232300Z 00000KT 8000 NSC 31/22 Q1005 A2970 HR59 FU CI RWY@CAELT@NML=@CAELT@
ZPX0827 232255@CAELT@GG SLZZYMYT@CAELT@232255 SLVRYGYZ@CAELT@SABO SLVR 232300@CAELT@METAR SLVR 232300Z 33006KT 9999 FEW020 31/21 Q1006 A2972 HR53 NOSIG=@CAELT@
ZPX0828 232255@CAELT@GG SLZZYMYT@CAELT@232255 SLSAYGYS@CAELT@SABO SLSA 232300@CAELT@METAR SLSA 232300Z 00000KT 8000 NSC 31/22 Q1006 A2973 HR56 FU CI=@CAELT@
ZPX0829 232255@CAELT@GG SLZZYMYT@CAELT@232255 SLSAYGYS@CAELT@SABO SLSA 232300@CAELT@METAR SLSA 232300Z 00000KT 8000 NSC 31/22 Q1006 A2973 HR56 FU CI=@CAELT@
ZPX0830 232256@CAELT@GG SLZZYMYT@CAELT@232256 SLTRYGYZ@CAELT@SABO SLTR 232300@CAELT@METAR SLTR 232300Z 00000KT 8000 NSC 33/22 Q1005 A2971 987.5 HR52@CAELT@FU CI NOSIG=@CAELT@
ZPX0831 232256@CAELT@GG SLLPZRZX@CAELT@232255 SLLPYGYZ@CAELT@SABO SLLP 232300@CAELT@METAR SLLP 232300Z 12007KT 9999 FEW017 FEW020CB SCT200 12/00@CAELT@Q1036 A3059 626.6 HR46 CB/LT SW/W AC NOSIG=@CAELT@
ZPX0832 232256@CAELT@GG SLZZYMYT@CAELT@232256 SLVRYGYS@CAELT@SABO SLVR 232300@CAELT@METAR SLVR 232300Z 33006KT 9999 FEW020 31/21 Q1006 A2972 HR53 NOSIG=@CAELT@METAR SLSI 232300Z 00000KT 7000 NSC 29/24 Q1007 A2974 HR73 FU RWY NML@CAELT@METAR SLRB 232300Z 00000KT 9999 NSC 31/24 Q1008 A2977 HR68 FU RWY NML@CAELT@METAR SLCA 232300Z 00000KT 9999 NSC 30/19 Q1009 A2980 HR51 RWY NML=@CAELT@
ZPX0833 232258@CAELT@GG SLZZYMYT@CAELT@232258 SLTRYGYS@CAELT@SABO SLTR 232300@CAELT@METAR SLTR 232300Z 00000KT 8000 NSC 33/22 Q1005 A2971 987.5 HR52@CAELT@FU CI NOSIG=@CAELT@METAR SLGM 232300Z 00000KT 8000 FEW017 FEW020CB BKN200 3025 Q1007@CAELT@A2974 HR75 FU CB=@CAELT@METAR SLRI 232300Z 00000KT 8000 FEW017 BKN200 31/24 Q1008 A2977 HR65FU AC=METAR SLMG 232300Z 32004KT 8000 FEW017 32/21 Q1006 A2972 HR52 FURWY NML=METAR SLSA 232300Z 00000KT 8000 NSC 31/22 Q1006 A2973 HR56 FU CI=
ZPX0834 232258@CAELT@GG SLZZYMYT@CAELT@232258 SLLPYSYX@CAELT@SABO SLLP 232300@CAELT@METAR SLLP 232300Z 12007KT 9999 FEW017 FEW020CB SCT200 12/00@CAELT@Q1036 A3059 626.6 HR46 CB/LT SW/W AC NOSIG=@CAELT@METAR SLCO 232300Z 28003KT 9999 FEW030 34/22 Q1007 A2975 980.1 HR50=@CAELT@METAR SLSB 232300Z 00000KT 8000 NSC 31/22 Q1005 A2970 HR59 FU CI RWY@CAELT@NML=
ZPX0835 232259@CAELT@GG SLZZYMYT@CAELT@232257 SLCBYGYZ@CAELT@SABO SLCB 232300@CAELT@METAR SLCB 232300Z 13006KT 9999 FEW036 22/07 Q1020 A3015 748.2 HR37@CAELT@FU AC NOSIG=@CAELT@
ZPX0838 232300@CAELT@GG SLZZYMYT@CAELT@232259 SLTRYGYS@CAELT@SABO SLTR 232300@CAELT@METAR SLTR 232300Z 00000KT 8000 NSC 33/22 Q1005 A2971 987.5 HR52@CAELT@FU CI NOSIG=@CAELT@METAR COR SLGM 232300Z 00000KT 8000 FEW017 FEW020CB BKN200 30/25@CAELT@Q1007 A2974 HR75 FU CB=@CAELT@METAR SLRI 232300Z 00000KT 8000 FEW017 BKN200 31/24 Q1008 A2977 HR65FU AC=METAR SLMG 232300Z 32004KT 8000 FEW017 32/21 Q1006 A2972 HR52 FURWY NML=METAR SLSA 232300Z 00000KT 8000 NSC 31/22 Q1006 A2973 HR56 FU CI=
ZPX0839 232301@CAELT@GG SLZZYMYT@CAELT@232259 SLTRYGYS@CAELT@SABO SLTR 232300 CCA@CAELT@METAR SLTR 232300Z 00000KT 8000 NSC 33/22 Q1005 A2971 987.5 HR52@CAELT@FU CI NOSIG=@CAELT@METAR COR SLGM 232300Z 00000KT 8000 FEW017 FEW020CB BKN200 30/25@CAELT@Q1007 A2974 HR75 FU CB=@CAELT@METAR SLRI 232300Z 00000KT 8000 FEW017 BKN200 31/24 Q1008 A2977 HR65FU AC=METAR SLMG 232300Z 32004KT 8000 FEW017 32/21 Q1006 A2972 HR52 FURWY NML=METAR SLSA 232300Z 00000KT 8000 NSC 31/22 Q1006 A2973 HR56 FU CI=
ZPX0852 232355@CAELT@GG SLZZYMYT@CAELT@232355 SLVRYGYZ@CAELT@SABO SLVR 240000@CAELT@METAR SLVR 240000Z 34006KT 9999 NSC 29/21 Q1007 A2974 HR59 NOSIG=@CAELT@
ZPX0853 232355@CAELT@GG SLLPZRZX@CAELT@232355 SLLPYGYZ@CAELT@SABO SLLP 240000@CAELT@METAR SLLP 240000Z 06006KT 9999 FEW015 FEW017CB SCT200 08/02@CAELT@Q1036 A3062 627.2 HR63 CB/LT NE AC NOSIG=@CAELT@
