
ZPX0013 090056@CAELT@GG SLZZYMYT@CAELT@090056 SLVRYGYZ@CAELT@SABO SLVR 090100@CAELT@METAR SLVR 090100Z 27005KT 9999 NSC 26/21 Q1011 A2986 HR75 CI NOSIG=@CAELT@
ZPX0014 090056@CAELT@GG SLLPZRZX@CAELT@090055 SLLPYGYZ@CAELT@SABO SLLP 090100@CAELT@METAR SLLP 090100Z 11009KT 9999 FEW013 SCT200 09/06 Q1036 A3062 627.2@CAELT@HR79 AC NOSIG=@CAELT@
ZPX0016 090056@CAELT@GG SLZZYMYT@CAELT@090056 SLCBYGYZ@CAELT@SABO SLCB 090100@CAELT@METAR SLCB 090100Z 15010KT 9999 FEW036 BKN080 22/07 Q1023 A3021 749.9@CAELT@HR38 FU NOSIG=@CAELT@
ZPX0026 090155@CAELT@GG SLZZYMYT@CAELT@090155 SLCBYGYZ@CAELT@SABO SLCB 090200@CAELT@METAR SLCB 090200Z 15008KT 9999 FEW036 BKN070 22/08 Q1024 A3025 750.9@CAELT@HR41 FU NOSIG=@CAELT@
ZPX0027 090155@CAELT@GG SLZZYMYT@CAELT@090156 SLVRYGYZ@CAELT@SABO SLVR 090200@CAELT@METAR SLVR 090200Z 29005KT 9999 FEW070 SCT200 25/21 Q1011 A2988 HR77@CAELT@NOSIG=@CAELT@
ZPX0028 090156@CAELT@GG SLLPZRZX@CAELT@090156 SLLPYGYZ@CAELT@SABO SLLP 090200@CAELT@METAR SLLP 090200Z 10009KT 9999 FEW012 SCT200 09/06 Q1038 A3065@CAELT@627.9 HR84 AC NOSIG=@CAELT@
ZPX0043 090255@CAELT@GG SLZZYMYT@CAELT@090256 SLVRYGYZ@CAELT@SABO SLVR 090300@CAELT@METAR SLVR 090300Z 33004KT 9999 FEW070 SCT200 25/21 Q1012 A2989 HR75@CAELT@NOSIG=@CAELT@
ZPX0046 090259@CAELT@GG SLLPZRZX@CAELT@090258 SLLPYGYZ@CAELT@SABO SLLP 090300@CAELT@METAR SLLP 090300Z 06005KT 9999 FEW005 SCT200 07/06 Q1038 A3067@CAELT@628.3 HR93 AC NOSIG=@CAELT@
ZPX0050 090300@CAELT@GG SLZZYMYT@CAELT@090300 SLCBYGYZ@CAELT@SABO SLCB 090300@CAELT@METAR SLCB 090300Z 15010KT 9999 FEW036 SCT070 21/09 Q1025 A3027 751.4@CAELT@HR45 FU NOSIG=@CAELT@
ZPX0062 090355@CAELT@GG SLZZYMYT@CAELT@090355 SLVRYGYZ@CAELT@SABO SLVR 090400@CAELT@METAR SLVR 090400Z 30004KT 9999 FEW070 SCT200 24/21 Q1011 A2988 HR80@CAELT@NOSIG=@CAELT@
ZPX0063 090355@CAELT@GG SLLPZRZX@CAELT@090355 SLLPYGYZ@CAELT@SABO SLLP 090400@CAELT@METAR SLLP 090400Z 08006KT 4000E VCFG FEW002 SCT200 06/06 Q1038@CAELT@A3066 628.1 HR96 VCFG NE/E/SE AC NOSIG=@CAELT@
ZPX0064 090355@CAELT@GG SLZZYMYT@CAELT@090355 SLCBYGYZ@CAELT@SABO SLCB 090400@CAELT@METAR SLCB 090400Z 14008KT 9999 FEW036 BKN070 20/09 Q1024 A3025 751.0@CAELT@HR48 FU NOSIG=@CAELT@
ZPX0072 090456@CAELT@GG SLZZYMYT@CAELT@090456 SLCBYGYZ@CAELT@SABO SLCB 090500@CAELT@METAR SLCB 090500Z 27003KT 9999 FEW036 BKN070 19/09 Q1024 A3025 750.8@CAELT@HR52 FU NOSIG=@CAELT@
ZPX0073 090456@CAELT@GG SLLPZRZX@CAELT@090456 SLLPYGYZ@CAELT@SABO SLLP 090500@CAELT@METAR SLLP 090500Z 07005KT 4000E VCFG FEW002 SCT010 06/06 Q1037@CAELT@A3065 627.8 HR97 VCFG NE/E/SE AC/CI NOSIG=@CAELT@
ZPX0076 090518@CAELT@GG SLZZYMYT@CAELT@090519 SLVRYGYZ@CAELT@SABO SLVR 090500 RRA@CAELT@METAR SLVR 090500Z 30003KT 9999 FEW070 SCT200 24/21 Q1011 A2986 HR80@CAELT@NOSIG=@CAELT@
ZPX0077 090519@CAELT@GG SLZZYMYT@CAELT@090518 SLVRYGYU@CAELT@SABO SLVR 090500 RRA@CAELT@METAR RTD SLVR 090500Z 30003KT 9999 FEW070 SCT200 24/21 Q1011 A2986@CAELT@HR80 NOSIG=@CAELT@
ZPX0084 090555@CAELT@GG SLZZYMYT@CAELT@090555 SLVRYGYZ@CAELT@SABO SLVR 090600@CAELT@METAR SLVR 090600Z 30003KT 9999 SCT020 BKN070 25/21 Q1011 A2986 HR78@CAELT@CI NOSIG=@CAELT@
ZPX0085 090558@CAELT@GG SLZZYMYT@CAELT@090557 SLCBYGYZ@CAELT@SABO SLCB 090600@CAELT@METAR SLCB 090600Z 17005KT 9999 FEW030 BKN070 19/10 Q1024 A3024 750.7@CAELT@HR55 FU NOSIG=@CAELT@
ZPX0086 090559@CAELT@GG SLLPZRZX@CAELT@090558 SLLPYGYZ@CAELT@SABO SLLP 090600@CAELT@METAR SLLP 090600Z 08005KT 3000E VCFG FEW002 SCT010 BKN200 06/05@CAELT@Q1037 A3063 627.6 HR97 VCFG NE/E/SE AC NOSIG=@CAELT@
ZPX0095 090654@CAELT@GG SLZZYMYT@CAELT@090655 SLCBYGYZ@CAELT@SABO SLCB 090700@CAELT@METAR SLCB 090700Z 17003KT 9999 FEW030 BKN070 18/10 Q1023 A3023 750.5@CAELT@HR56 FU NOSIG=@CAELT@
ZPX0096 090656@CAELT@GG SLLPZRZX@CAELT@090655 SLLPYGYZ@CAELT@SABO SLLP 090700@CAELT@METAR SLLP 090700Z 10004KT 4000E VCFG FEW002 SCT010 BKN200 07/06@CAELT@Q1037 A3062 627.3 HR97 VCFG NE/E/SE AC NOSIG=@CAELT@
ZPX0097 090657@CAELT@GG SLZZYMYT@CAELT@090658 SLVRYGYZ@CAELT@SABO SLVR 090700@CAELT@METAR SLVR 090700Z 29004KT 9999 SCT020 BKN070 25/21 Q1010 A2984 HR77@CAELT@CI NOSIG=@CAELT@
ZPX0107 090755@CAELT@GG SLZZYMYT@CAELT@090755 SLCBYGYZ@CAELT@SABO SLCB 090800@CAELT@METAR SLCB 090800Z 17003KT 9999 FEW036 BKN070 18/10 Q1024 A3024 750.6@CAELT@HR56 FU NOSIG=@CAELT@
ZPX0108 090756@CAELT@GG SLLPZRZX@CAELT@090756 SLLPYGYZ@CAELT@SABO SLLP 090800@CAELT@METAR SLLP 090800Z 09005KT 4000E VCFG FEW002 SCT010 BKN200 07/06@CAELT@Q1037 A3062 627.3 HR97 VCFG NE/E/SE AC NOSIG=@CAELT@
ZPX0110 090757@CAELT@GG SLZZYMYT@CAELT@090757 SLVRYGYZ@CAELT@SABO SLVR 090800@CAELT@METAR SLVR 090800Z 28005KT 9999 SCT020 BKN070 26/21 Q1010 A2985 HR73@CAELT@NOSIG=@CAELT@
ZPX0123 090852@CAELT@GG SLZZYMYT@CAELT@090851 SLPSYGYS@CAELT@SABO SLPS 090900@CAELT@METAR SLPS 090900Z 00000KT 9999 SCT023 25/24 Q1010 A2983 HR90=@CAELT@
ZPX0124 090856@CAELT@GG SLZZYMYT@CAELT@090857 SLVRYGYZ@CAELT@SABO SLVR 090900@CAELT@METAR SLVR 090900Z 31003KT 9999 SCT020 BKN070 25/21 Q1011 A2985 HR79@CAELT@NOSIG=@CAELT@
ZPX0125 090857@CAELT@GG SLZZYMYT@CAELT@090856 SLTRYGYZ@CAELT@SABO SLTR 090900@CAELT@METAR SLTR 090900Z 00000KT 9999 FEW080 SCT200 24/23 Q1011 A2987@CAELT@993.0 HR93 NOSIG=@CAELT@
ZPX0126 090858@CAELT@GG SLLPZRZX@CAELT@090856 SLLPYGYZ@CAELT@SABO SLLP 090900@CAELT@METAR SLLP 090900Z 11007KT 4000E VCFG FEW002 SCT010 BKN200 06/05@CAELT@Q1037 A3063 627.5 HR95 VCFG NE/E/SE AC NOSIG=@CAELT@
ZPX0127 090858@CAELT@GG SLZZYMYT@CAELT@090857 SLCBYGYZ@CAELT@SABO SLCB 090900@CAELT@METAR SLCB 090900Z 05003KT 9999 FEW030 BKN070 18/10 Q1024 A3026 751.1@CAELT@HR57 FU NOSIG=@CAELT@
ZPX0128 090859@CAELT@GG SLZZYMYT@CAELT@090858 SLTRYGYS@CAELT@SABO SLTR 090900@CAELT@METAR SLTR 090900Z 00000KT 9999 FEW080 SCT200 24/23 Q1011 A2987@CAELT@993.0 HR93 NOSIG=@CAELT@METAR SLRI 090900Z 00000KT 9999 FEW020 BKN080 24/23 Q1011 A2987@CAELT@HR96=@CAELT@
ZPX0150 090951@CAELT@GG SLZZYMYT@CAELT@090950 SLPSYGYS@CAELT@SABO SLPS 091000@CAELT@METAR SLPS 091000Z 00000KT 9999 BKN023 25/23 Q1011 A2986 HR85=@CAELT@
ZPX0151 090954@CAELT@GG SLZZYMYT@CAELT@090954 SLETYMYC@CAELT@SABO SLET 091000@CAELT@METAR SLET 091000Z 30006KT 9999 FEW025 BKN070 25/21 Q1011 A2986 HR79@CAELT@CI NOSIG=@CAELT@
ZPX0152 090954@CAELT@GG SLZZYMYT@CAELT@090954 SLCOYGYZ@CAELT@SABO SLCO 091000@CAELT@METAR SLCO 091000Z 00000KT 9999 FEW080 SCT200 23/23 Q1011 A2988 984.3@CAELT@HR96=@CAELT@
ZPX0153 090954@CAELT@GG SLZZYMYT@CAELT@090955 SLSBYSYX@CAELT@SABO SLSB 091000@CAELT@METAR SLSB 091000Z 00000KT 8000 VCSH FEW025CB SCT080 25/23 Q1010@CAELT@A2985 HR93 CB SH NE RWY NML=@CAELT@
ZPX0154 090954@CAELT@GG SLZZYMYT@CAELT@090955 SLVRYGYZ@CAELT@SABO SLVR 091000@CAELT@METAR SLVR 091000Z 34003KT 9999 FEW023 BKN070 24/21 Q1011 A2988 HR84@CAELT@CI NOSIG=@CAELT@
ZPX0156 090955@CAELT@GG SLZZYMYT@CAELT@090955 SLRQYSYX@CAELT@SABO SLRQ 091000@CAELT@METAR SLRQ 091000Z 00000KT 9999 SCT020 24/23 Q1010 A2985 HR93=@CAELT@
ZPX0157 090955@CAELT@GG SLZZYMYT@CAELT@090953 SLUYYGYS@CAELT@SABO SLUY 091000@CAELT@METAR SLUY 091000Z VRB02KT 9999 FEW015 01/M10 Q1034 A3054@CAELT@658.4 HR43 HZ=@CAELT@
ZPX0158 090955@CAELT@GG SLZZYMYT@CAELT@090954 SLSAYGYS@CAELT@SABO SLSA 091000@CAELT@METAR SLSA 091000Z 00000KT 9999 FEW017 BKN080 BKN200 25/24 Q1010@CAELT@A2984 HR95=@CAELT@
ZPX0159 090955@CAELT@GG SLZZYMYT@CAELT@090955 SLCBYGYZ@CAELT@SABO SLCB 091000@CAELT@METAR SLCB 091000Z 28003KT 9999 SCT027 BKN070 17/10 Q1025 A3028 751.7@CAELT@HR63 FU CI NOSIG=@CAELT@
ZPX0161 090956@CAELT@GG SLZZYMYT@CAELT@090955 SLLPYGYZ@CAELT@SABO SLLP 091000@CAELT@METAR SLLP 091000Z 12005KT 3000E VCFG FEW002 SCT012 BKN200 06/05@CAELT@Q1037 A3065 627.9 HR95 VCFG NE/E/SE AC NOSIG=@CAELT@
ZPX0162 090956@CAELT@GG SLZZYMYT@CAELT@090956 SLTRYGYZ@CAELT@SABO SLTR 091000@CAELT@METAR SLTR 091000Z 00000KT 9999 FEW080 BKN200 26/24 Q1011 A2988@CAELT@993.4 HR91 NOSIG=@CAELT@
ZPX0163 090956@CAELT@GG SLZZYMYT@CAELT@090956 SLLPYFYA@CAELT@SABO SLRY 091000@CAELT@METAR SLRY 091000Z SLRY 091000Z 00000KT 9999 SCT017 BKN200 23/23@CAELT@Q1009 A2982 HR98 RWY NML@CAELT@
ZPX0164 090957@CAELT@GG SLZZYMYT@CAELT@090953 SLCAYGYS@CAELT@SABO SLCA 091000@CAELT@METAR SLCA 091000Z 00000KT 8000 TSRA BKN036 FEW040CB OVC070 21/20@CAELT@Q1018 A3006 HR92 CB/TS ON STN S/SW RWY HUM OPR=@CAELT@
ZPX0165 090958@CAELT@GG SLZZYMYT@CAELT@090958 SLCAYGYS@CAELT@SABO SLCA 091000@CAELT@METAR SLCA 091000Z 00000KT 8000 TSRA BKN036 FEW040CB OVC070 21/20@CAELT@Q1018 A3006 HR92 CB/TS ON STN S/SW RWY HUM OPR@CAELT@
ZPX0166 090958@CAELT@GG SLZZYMYT@CAELT@090957 SLRBYGYS@CAELT@SABO SLRB 091000@CAELT@METAR SLRB 091000Z 00000KT 9999 BKN070 24/23 Q1014 A2994 HR90 RWY NML=@CAELT@
ZPX0167 090959@CAELT@GG SLZZYMYT@CAELT@090959 SLVRYFYC@CAELT@SABO SLVR 091000@CAELT@METAR SLVR 091000Z 34003KT 9999 FEW023 BKN070 24/21 Q1011 A2988 HR84@CAELT@CI NOSIG=@CAELT@METAR SLET 091000Z 30006KT 9999 FEW025 BKN070 25/21 Q1011 A2986 HR79@CAELT@METAR SLCP 091000Z 00000KT 9999 BKN020 24/22 Q1014 A2994 HR92 RWY NML@CAELT@METAR SLSI 091000Z 00000KT 7000 -RA BKN012 OVC070 22/21 Q1012 A2988HR98 RWY WET OPR=METAR SLRB 091000Z 00000KT 9999 BKN070 24/23 Q1014 A2994 HR90 RWY NMLMETAR SLPS 091000Z 00000KT 9999 BKN023 25/23 Q1011 A2986 HR85=METAR SLCA 091000Z 00000KT 8000 TSRA BKN036 FEW040CB OVC070 21/20Q1018 A3006 HR92 CB/TS ON STN S/SW RWY HUM OPR=
ZPX0168 090959@CAELT@GG SLZZYMYT@CAELT@090959 SLTRYGYS@CAELT@SABO SLTR 091000@CAELT@METAR SLTR 091000Z 00000KT 9999 FEW080 BKN200 26/24 Q1011 A2988@CAELT@993.4 HR91 NOSIG=@CAELT@METAR SLGM 091000Z 00000KT 9999 BKN080 24/23 Q1011 A2985 HR94=@CAELT@METAR SLRI 091000Z 00000KT 9999 FEW020 SCT080 24/23 Q1012 A2990@CAELT@HR96 CI=METAR SLJO 091000Z 00000KT 9999 FEW020 SCT080 BKN200 25/24 Q1010A2984 HR94 RWY NML=METAR SLRA 091000Z 00000KT 9999 FEW020 SCT080 BKN200 25/24 Q1010A2985 HR92 RWY NML=METAR SLMG 091000Z 00000KT 9999 BKN080 25/24 Q1010 A2985 HR94RWY NML=METAR SLSA 091000Z 00000KT 9999 FEW017 BKN080 BKN200 25/24 Q1010A2984 HR95=METAR SLSR 091000Z 32006KT 9999 SCT080 BKN200 25/23 Q1009 A2982HR88 RWY NML=METAR SLSM 091000Z 00000KT 9999 FEW017 SCT080 24/23 Q1010 A2984HR92 RWY NML=
ZPX0170 091000@CAELT@GG SLZZYMYT@CAELT@091000 SLLPYFYA@CAELT@SABO SLLP 091000@CAELT@METAR SLLP 091000Z 12005KT 3000E VCFG FEW002 SCT012 BKN200 06/05@CAELT@Q1037 A3065 627.9 HR95 VCFG NE/E/SE AC NOSIG=@CAELT@METAR SLCO 091000Z 00000KT 9999 FEW080 SCT200 23/23 Q1011 A2988@CAELT@984.3 HR96=@CAELT@METAR SLRY 091000Z SLRY 091000Z 00000KT 9999 SCT017 BKN200 23/23Q1009 A2982 HR98 RWY NMLMETAR SLRQ 091000Z 00000KT 9999 SCT020 24/23 Q1010 A2985 HR93=METAR SLAP 091000Z 00000KT 9999 SCT020 19/17 Q1017 A3005 858.4HR91 CI=METAR SLSB 091000Z 00000KT 8000 VCSH FEW025CB SCT080 25/23 Q1010A2985 HR93 CB SH NE RWY NML=METAR SLUY 091000Z VRB02KT 9999 FEW015 01/M10 Q1034 A3054658.4 HR43 HZ=
ZPX0175 091013@CAELT@GG SLZZYMYT@CAELT@091012 SLLPYFYA@CAELT@SABO SLLP 091000 CCA@CAELT@METAR SLLP 091000Z 12005KT 3000E VCFG FEW002 SCT012 BKN200 06/05@CAELT@Q1037 A3065 627.9 HR95 VCFG NE/E/SE AC NOSIG=@CAELT@METAR SLCO 091000Z 00000KT 9999 FEW080 SCT200 23/23 Q1011 A2988@CAELT@984.3 HR96=@CAELT@METAR COR SLRY 091000Z 000000KT 9999 SCT017 BKN200 23/23 Q1009A2982 HR98 RWY NMLMETAR SLRQ 091000Z 00000KT 9999 SCT020 24/23 Q1010 A2985 HR93=METAR SLAP 091000Z 00000KT 9999 SCT020 19/17 Q1017 A3005 858.4HR91 CI=METAR SLSB 091000Z 00000KT 8000 VCSH FEW025CB SCT080 25/23 Q1010A2985 HR93 CB SH NE RWY NML=METAR SLUY 091000Z VRB02KT 9999 FEW015 01/M10 Q1034 A3054658.4 HR43 HZ=
ZPX0178 091022@CAELT@GG SLZZYMYT@CAELT@091021 SLAGYSYX@CAELT@SABO SLAG 091000 RRA@CAELT@METAR RTD SLAG 091000Z 20003KT 5000 VCSH SCT008 OVC070 20/18 Q1021@CAELT@A3015 892.8 HR86 SH SE/S/SW=@CAELT@
ZPX0193 091051@CAELT@GG SLZZYMYT@CAELT@091050 SLPSYGYS@CAELT@SABO SLPS 091100@CAELT@METAR SLPS 091100Z 00000KT 9999 SCT023 BKN070 26/23 Q1012 A2989 HR83=@CAELT@
ZPX0196 091054@CAELT@GG SLZZYMYT@CAELT@091053 SLCAYGYS@CAELT@SABO SLCA 091100@CAELT@METAR SLCA 091100Z 00000KT 8000 TSRA BKN036 FEW040CB OVC070 21/19@CAELT@Q1020 A3012 HR92 CB/TS SW/W/NW RWY HUM OPR=@CAELT@
ZPX0197 091054@CAELT@GG SLZZYMYT@CAELT@091054 SLORYGYZ@CAELT@SABO SLOR 091100@CAELT@METAR SLOR 091100Z 36003KT 999 FEW017 09/01 Q1035 A3058 656.2 HR55 FU@CAELT@S/SW CI=@CAELT@
ZPX0198 091055@CAELT@GG SLZZYMYT@CAELT@091055 SLCOYGYZ@CAELT@SABO SLCO 091100@CAELT@METAR SLCO 091100Z 00000KT 9999 FEW080 24/23 Q1012 A2990 985.2 HR93@CAELT@
ZPX0199 091055@CAELT@GG SLZZYMYT@CAELT@091054 SLCOYGYZ@CAELT@SABO SLCO 091100@CAELT@METAR SLCO 091100Z 00000KT 9999 FEW080 24/23 Q1012 A2990 985.2 HR93@CAELT@
ZPX0200 091055@CAELT@GG SLZZYMYT@CAELT@091055 SLSBYSYX@CAELT@SABO SLSB 091100@CAELT@METAR SLSB 091100Z 00000KT 9999 SCT080 25/24 Q1011 A2988 HR94 RWY NML=@CAELT@
ZPX0201 091055@CAELT@GG SLZZYMYT@CAELT@091054 SLORYGYZ@CAELT@SABO SLOR 091100@CAELT@METAR SLOR 091100Z 36003KT 999 FEW017 09/01 Q1035 A3058 656.2 HR55 FU@CAELT@S/SW CI=@CAELT@
ZPX0203 091055@CAELT@GG SLZZYMYT@CAELT@091055 SLETYMYC@CAELT@SABO SLET 091100@CAELT@METAR SLET 091100Z 30008KT 9999 FEW025 BKN070 27/21 Q1012 A2990 HR70@CAELT@CI NOSIG=@CAELT@
ZPX0205 091056@CAELT@GG SLZZYMYT@CAELT@091055 SLAGYSYX@CAELT@SABO SLAG 091100@CAELT@METAR SLAG 091100Z 20005KT 4000 -RA FEW002 SCT008 OVC070 19/18 Q1021@CAELT@A3018 893.5 HR90 ST BAJOS N/W/NW=@CAELT@
ZPX0206 091056@CAELT@GG SLZZYMYT@CAELT@091056 SLVRYGYZ@CAELT@SABO SLVR 091100@CAELT@METAR SLVR 091100Z 34006KT 9999 FEW023 BKN070 26/21 Q1012 A2991 HR74@CAELT@CI NOSIG=@CAELT@
ZPX0207 091056@CAELT@GG SLZZYMYT@CAELT@091055 SLRQYSYX@CAELT@SABO SLRQ 091100@CAELT@METAR SLRQ 091100Z 00000KT 9999 FEW020 SCT200 25/24 Q1011 A2987 HR94=@CAELT@
ZPX0208 091056@CAELT@GG SLZZYMYT@CAELT@091055 SLUYYGYS@CAELT@SABO SLUY 091100@CAELT@METAR SLUY 091100Z 00000KT 9999 FEW017 04/M09 Q1035 A3058@CAELT@659.3 HR38 HZ=@CAELT@
ZPX0209 091056@CAELT@GG SLZZYMYT@CAELT@091056 SLTJYGYZ@CAELT@SABO SLTJ 091100@CAELT@METAR SLTJ 091100Z 00000KT 9999 SCT008 BKN027 OVC070 15/14 Q1027@CAELT@A3033 820.8 HR96 SH ST BAJOS TODAS DIRECC=@CAELT@
ZPX0210 091056@CAELT@GG SLZZYMYT@CAELT@091056 SLCBYGYZ@CAELT@SABO SLCB 091100@CAELT@METAR SLCB 091100Z 33003KT 9999 SCT027 SCT070 18/10 Q1026 A3031 752.5@CAELT@HR61 FU CI NOSIG=@CAELT@
ZPX0211 091057@CAELT@GG SLZZYMYT@CAELT@091056 SLTRYGYZ@CAELT@SABO SLTR 091100@CAELT@METAR SLTR 091100Z 36003KT 9999 FEW017 BKN200 27/25 Q1012@CAELT@A2989 993.6 HR89 AC NOSIG=@CAELT@
ZPX0212 091057@CAELT@GG SLZZYMYT@CAELT@091056 SLLPYGYZ@CAELT@SABO SLLP 091100@CAELT@METAR SLLP 091100Z 07004KT 3000SE VCFG FEW002 SCT070 BKN200 08/06@CAELT@Q1038 A3067 628.4 HR90 P3283 VCFG E/SE/S NOSIG=@CAELT@
ZPX0213 091058@CAELT@GG SLZZYMYT@CAELT@091054 SLSAYGYS@CAELT@SABO SLSA 091100@CAELT@METAR SLSA 091100Z 00000KT 9999 FEW017 SCT080 BKN200 25/24 Q1011@CAELT@A2987 HR92=@CAELT@
ZPX0214 091058@CAELT@GG SLZZYMYT@CAELT@091057 SLRBYGYS@CAELT@SABO SLRB 091100@CAELT@METAR SLRB 091100Z 00000KT 9999 BKN070 27/24 Q1015 A2997 HR82 RWY NML=@CAELT@
ZPX0215 091058@CAELT@GG SLZZYMYT@CAELT@091057 SLSAYGYS@CAELT@SABO SLSA 091100@CAELT@METAR SLSA 091100Z 00000KT 9999 FEW017 SCT080 BKN200 25/24 Q1011@CAELT@A2987 HR92=@CAELT@
ZPX0217 091100@CAELT@GG SLZZYMYT@CAELT@091100 SLVRYFYC@CAELT@SABO SLVR 091100@CAELT@METAR SLVR 091100Z 34006KT 9999 FEW023 BKN070 26/21 Q1012 A2991 HR74@CAELT@CI NOSIG=@CAELT@METAR SLET 091100Z 30008KT 9999 FEW025 BKN070 27/21 Q1012 A2990 HR70@CAELT@METAR SLAS 091100Z 00000KT 9999 FEW020 OVC200 27/24 Q1014 A2994 HR87@CAELT@RWY NML=METAR SLJV 091100Z 03005KT 9999 BKN070 24/23 Q1012 A2988 HR92 RWY NMLMETAR SLCP 091100Z 00000KT 9999 BKN070 24/21 Q1015 A2997 HR84 RWY NMLMETAR SLSI 091100Z 00000KT 5000 -RA BKN010 OVC070 22/22 Q1014 A2994HR98 RWY WET OPR=METAR SLTI 091100Z 00000KT 9999 BKN017 OVC070 24/23 Q1017 A3003 HR92RWY HUM OPR=METAR SLJE 091100Z 00000KT 9999 OVC070 26/23 Q1016 A3000 HR83 RWY NMLMETAR SLVG 091100Z 00000KT 9999 SCT020 BKN070 14/14 Q1026 A3030 HR95METAR SLRB 091100Z 00000KT 9999 BKN070 27/24 Q1015 A2997 HR82 RWY NMLMETAR SLPS 091100Z 00000KT 9999 SCT023 BKN070 26/23 Q1012 A2989 HR83=METAR SLCA 091100Z 00000KT 8000 TSRA BKN036 FEW040CB OVC070 21/19Q1020 A3012 HR92 CB/TS SW/W/NW RWY HUM OPR=
ZPX0218 091101@CAELT@GG SLZZYMYT@CAELT@091101 SLCBYGYS@CAELT@SABO SLCB 091100@CAELT@METAR SLCB 091100Z 33003KT 9999 SCT027 SCT070 18/10 Q1026 A3031 752.5@CAELT@HR61 FU CI NOSIG=@CAELT@METAR SLAL 091100Z 00000KT 9999 SCT013 SCT070 12/09 Q1032 A3049 705.9@CAELT@HR86=@CAELT@METAR SLPO 091100Z 00000KT 9999 FEW013 08/04 Q1039 A3070 639.3 HR78METAR SLAG 091100Z 20005KT 4000 -RA FEW002 SCT008 OVC070 19/18 Q1021A3018 893.5 HR90 ST BAJOS N/W/NW=METAR SLVM 091100Z 18007KT 9999 SCT030 FEW040CB OVC070 25/21 Q1014A2996 HR79 FU CB NE/E=METAR SLTJ 091100Z 00000KT 9999 SCT008 BKN027 OVC070 15/14 Q1027A3033 820.8 HR96 SH ST BAJOS TODAS DIRECC=METAR SLYA 091100Z 00000KT 9999 SCT030 OVC070 24/21 Q1015 A2999 940.0HR83=METAR SLBJ 091100Z NIL=METAR SLHI 091100Z NIL=
ZPX0219 091102@CAELT@GG SLZZYMYT@CAELT@091100 SLTRYGYS@CAELT@SABO SLTR 091100@CAELT@METAR SLTR 091100Z 36003KT 9999 FEW017 BKN200 27/25 Q1012@CAELT@A2989 993.6 HR89 AC NOSIG=@CAELT@METAR SLGM 091100Z 00000KT 9999 BKN080 25/24 Q1012 A2988 HR45=@CAELT@METAR SLRI 091100Z 07005KT 9999 SCT080 BKN200 24/23 Q1013 A2992 HR94@CAELT@METAR SLJO 091100Z 00000KT 9999 FEW020 BKN080 25/24 Q1010 A2985HR90 CI RWY NML=METAR SLRA 091100Z 09003KT 9999 FEW020 BKN080 BKN200 26/24 Q1011A2986 HR88 RWY NML=METAR SLMG 091100Z 32004KT 9999 BKN080 25/24 Q1011 A2986 HR92RWY NML=METAR SLBU 091100Z NIL=METAR SLSA 091100Z 00000KT 9999 FEW017 SCT080 BKN200 25/24 Q1011A2987 HR92=METAR SLSR 091100Z 32006KT 9999 FEW017 BKN200 25/23 Q1011 A2985HR87 RWY NML=METAR SLSM 091100Z 00000KT 9999 FEW080 SCT200 25/23 Q1011 A2986
ZPX0221 091102@CAELT@GG SLZZYMYT@CAELT@091102 SLLPYFYA@CAELT@SABO SLLP 091100@CAELT@METAR SLLP 091100Z 07004KT 3000SE VCFG FEW002 SCT070 BKN200 08/06@CAELT@Q1038 A3067 628.4 HR90 P3283 VCFG E/SE/S NOSIG=@CAELT@METAR SLCO 091100Z 00000KT 9999 FEW080 24/23 Q1012 A2990 985.2 HR93@CAELT@METAR SLRY 091100Z 00000KT 9999 NSC 23/23 Q1010 A2983 HR 97 CI RWY@CAELT@NML=METAR SLRQ 091100Z 00000KT 9999 FEW020 SCT200 25/24 Q1011 A2987 HR94=METAR SLAP 091100Z 00000KT 9999 SCT020 19/17 Q1018 A3007 859.0 HR91AC/CI=METAR SLSB 091100Z 00000KT 9999 SCT080 25/24 Q1011 A2988 HR94 RWY NMLMETAR SLOR 091100Z 36003KT 999 FEW017 09/01 Q1035 A3058 656.2 HR55 FUS/SW CI=METAR SLUY 091100Z 00000KT 9999 FEW017 04/M09 Q1035 A3058659.3 HR38 HZ=
ZPX0233 091110@CAELT@GG SLZZYMYT@CAELT@091109 SLLPYFYA@CAELT@SABO SLLP 091100 CCA@CAELT@METAR SLLP 091100Z 07004KT 3000SE VCFG FEW002 SCT070 BKN200 08/06@CAELT@Q1038 A3067 628.4 HR90 P3283 VCFG E/SE/S NOSIG=@CAELT@METAR SLCO 091100Z 00000KT 9999 FEW080 24/23 Q1012 A2990 985.2@CAELT@HR93 CI=@CAELT@METAR SLRY 091100Z 00000KT 9999 NSC 23/23 Q1010 A2983 HR 97 CIRWY NML=METAR SLRQ 091100Z 00000KT 9999 FEW020 SCT200 25/24 Q1011 A2987HR94=METAR SLAP 091100Z 00000KT 9999 SCT020 19/17 Q1018 A3007 859.0HR91 AC/CI=METAR SLSB 091100Z 00000KT 9999 SCT080 25/24 Q1011 A2988 HR94METAR COR SLOR 091100Z 36003KT 9999 FEW017 09/01 Q1035 A3058656.2 HR55 FU S/SW CI=METAR SLUY 091100Z 00000KT 9999 FEW017 04/M09 Q1035 A3058659.3 HR38 HZ=
ZPX0252 091149@CAELT@GG SLZZYMYT@CAELT@091150 SLRBYGYS@CAELT@SABO SLRB 091200@CAELT@METAR SLRB 091200Z 00000KT 9999 NSC 29/24 Q1016 A3000 HR72 RWY NML=@CAELT@
ZPX0255 091152@CAELT@GG SLZZYMYT@CAELT@091151 SLPSYGYS@CAELT@SABO SLPS 091200@CAELT@METAR SLPS 091200Z 36004KT 9999 FEW023 28/24 Q1013 A2992 HR80=@CAELT@
ZPX0256 091153@CAELT@GG SLZZYMYT@CAELT@091153 SLVRYGYZ@CAELT@SABO SLVR 091200@CAELT@METAR SLVR 091200Z 30007KT 9999 FEW023 BKN070 28/22 Q1013 A2993 HR70@CAELT@CI NOSIG=@CAELT@
ZPX0258 091154@CAELT@GG SLZZYMYT@CAELT@091154 SLORYGYZ@CAELT@SABO SLOR 091200@CAELT@METAR SLOR 091200Z 36004KT 9999 FEW017 14/02 Q1035 A3059 656.5 HR45=@CAELT@
ZPX0260 091155@CAELT@GG SLZZYMYT@CAELT@091155 SLSBYSYX@CAELT@SABO SLSB 091200@CAELT@METAR SLSB 091200Z 36003KT 9999 SCT080 28/25 Q1012 A2990 HR84 RWY NML=@CAELT@
ZPX0262 091155@CAELT@GG SLZZYMYT@CAELT@091155 SLETYMYC@CAELT@SABO SLET 091200@CAELT@METAR SLET 091200Z 30007KT 9999 FEW025 BKN070 29/22 Q1013 A2993 HR66@CAELT@CI NOSIG=@CAELT@
ZPX0263 091155@CAELT@GG SLZZYMYT@CAELT@091155 SLCOYGYZ@CAELT@SABO SLCO 091200@CAELT@METAR SLCO 091200Z 01005KT 9999 FEW006 25/24 Q1014 A2995 986.6 HR92@CAELT@AC/CI=@CAELT@
ZPX0264 091155@CAELT@GG SLZZYMYT@CAELT@091155 SLSAYGYS@CAELT@SABO SLSA 091200@CAELT@METAR SLSA 091200Z 33006KT 9999 FEW017 SCT080 BKN200 27/25 Q1011@CAELT@A2988 HR85=@CAELT@
ZPX0265 091156@CAELT@GG SLZZYMYT@CAELT@091155 SLLPYGYZ@CAELT@SABO SLLP 091200@CAELT@METAR SLLP 091200Z 10005KT 4000E VCFG FEW003 BKN200 10/09 Q1039@CAELT@A3070 628.9 HR89 P92// VCFG NE/E/SE AC NOSIG=@CAELT@
ZPX0266 091156@CAELT@GG SLZZYMYT@CAELT@091150 SLUYYGYS@CAELT@SABO SLUY 091200@CAELT@METAR SLUY 091200Z 00000KT 9999 FEW023 11/M05 Q1036 A3059@CAELT@659.7 HR34 FU=@CAELT@
ZPX0269 091157@CAELT@GG SLZZYMYT@CAELT@091157 SLCBYGYZ@CAELT@SABO SLCB 091200@CAELT@METAR SLCB 091200Z 35003KT 9999 SCT027 SCT070 19/10 Q1027 A3033 753.1@CAELT@HR54 FU CI NOSIG=@CAELT@
ZPX0271 091157@CAELT@GG SLZZYMYT@CAELT@091155 SLTRYGYZ@CAELT@SABO SLTR 091200@CAELT@METAR SLTR 091200Z 33008KT 9999 FEW017 BKN200 28/24 Q1012 A2991 994.2@CAELT@HR80 AC NOSIG=@CAELT@
ZPX0272 091157@CAELT@GG SLZZYMYT@CAELT@091156 SLRQYSYX@CAELT@SABO SLRQ 091200@CAELT@METAR SLRQ 091200Z 00000KT 9999 FEW020 SCT200 27/25 Q1012 A2990 HR87=@CAELT@
ZPX0273 091157@CAELT@GG SLZZYMYT@CAELT@091157 SLTJYGYZ@CAELT@SABO SLTJ 091200@CAELT@METAR SLTJ 091200Z 18006KT 9999 -RA SCT008 BKN027 OVC070 15/15 Q1027@CAELT@A3035 821.5 HR94 ST BAJOS TODAS DIRECC=@CAELT@
ZPX0275 091158@CAELT@GG SLZZYMYT@CAELT@091158 SLTRYGYS@CAELT@SABO SLTR 091200@CAELT@METAR SLTR 091200Z 33008KT 9999 FEW017 BKN200 28/24 Q1012 A2991 994.2@CAELT@HR80 AC NOSIG=@CAELT@METAR SLGM 091200Z 36004KT 9999 BKN080 26/24 Q1013 A2991 HR89=@CAELT@METAR SLRI 091200Z 04005KT 9999 SCT080 BKN200 25/24 Q1014 A2995 HR92=@CAELT@METAR SLJO 091200Z 36004KT 9999 FEW020 BKN080 26/24 Q1011 A2988HR87 RWY NML=METAR SLRA 091200Z 03004KT 9999 BKN080 27/24 Q1012 A2989 HR87CI RWY NML=METAR SLMG 091200Z 32004KT 9999 BKN080 26/24 Q1011 A2988 HR89RWY NML=METAR SLBU 091200Z 32006KT 9999 BKN080 27/24 Q1012 A2989 HR85METAR SLSA 091200Z 33006KT 9999 FEW017 SCT080 BKN200 27/25 Q1011A2988 HR85=METAR SLSR 091200Z 32010KT 9999 FEW017 BKN200 27/26 Q1011 A2986HR80 RWY NML=METAR SLSM 091200Z 00000KT 9999 NSC 28/24 Q1012 A2989 HR79
ZPX0281 091200@CAELT@GG SLZZYMYT@CAELT@091159 SLCBYGYS@CAELT@SABO SLCB 091200@CAELT@METAR SLCB 091200Z 35003KT 9999 SCT027 SCT070 19/10 Q1027 A3033 753.1@CAELT@HR54 FU CI NOSIG=@CAELT@METAR SLAL 091200Z 08008KT 9999 SCT013 SCT070 13/09 Q1033 A3051 706.4@CAELT@HR77=@CAELT@METAR SLPO 091200Z 06003KT 9999 FEW015 10/04 Q1040 A3072 639.6 HR69METAR SLAG 091200Z 20003KT 6000 VCSH FEW003 SCT008 OVC070 20/18 Q1022A3020 894.2 HR91 VIS RED ST BAJOS N/S/SW/W/NW SH/SW RERA=METAR SLVM 091200Z 00000KT 9999 SCT030 OVC070 25/22 Q1015 A2998 HR80METAR SLTJ 091200Z 18006KT 9999 -RA SCT008 BKN027 OVC070 15/15 Q1027A3035 821.5 HR94 ST BAJOS TODAS DIRECC=METAR SLYA 091200Z 00000KT 9999 SCT030 OVC070 25/21 Q1016 A3001 940.8METAR SLBJ 091200Z NIL=METAR SLHI 091200Z NIL=
ZPX0282 091200@CAELT@GG SLZZYMYT@CAELT@091201 SLVRYFYC@CAELT@SABO SLVR 091200@CAELT@METAR SLVR 091200Z 30007KT 9999 FEW023 BKN070 28/22 Q1013 A2993 HR70@CAELT@CI NOSIG=@CAELT@METAR SLET 091200Z 30007KT 9999 FEW025 BKN070 29/22 Q1013 A2993 HR66@CAELT@METAR SLAS 091200Z 00000KT 9999 FEW020 SCT070 BKN200 27/25 Q1015@CAELT@A2997 HR85 RWY NML=METAR SLJV 091200Z 36005KT 9999 BKN070 27/24 Q1012 A2988 HR84 RWY NMLMETAR SLCP 091200Z 00000KT 9999 BKN070 26/23 Q1016 A3000 HR84 RWY NMLMETAR SLSI 091200Z 18006KT 5000 -TSRA BKN010 FEW025CB OVC070 22/22Q1014 A2994 HR98 CB/TS/N/NW RWY WET OPR=METAR SLTI 091200Z 00000KT 9999 BKN017 OVC070 24/22 Q1017 A3003 HR92RWY HUM OPR=METAR SLJE 091200Z 00000KT 9999 BKN070 27/23 Q1016 A3000 HR77 RWY NMLMETAR SLVG 091200Z 18005KT 9999 SCT020 BKN070 17/14 Q1026 A3030 HR76RW NML=METAR SLRB 091200Z 00000KT 9999 NSC 29/24 Q1016 A3000 HR72 RWY NML=METAR SLPS 091200Z 36004KT 9999 FEW023 28/24 Q1013 A2992 HR80=METAR SLCA 091200Z NIL=
ZPX0283 091201@CAELT@GG SLZZYMYT@CAELT@091201 SLVRYFYC@CAELT@SABO SLVR 091200@CAELT@METAR SLVR 091200Z 30007KT 9999 FEW023 BKN070 28/22 Q1013 A2993 HR70@CAELT@CI NOSIG=@CAELT@METAR SLET 091200Z 30007KT 9999 FEW025 BKN070 29/22 Q1013 A2993 HR66@CAELT@METAR SLAS 091200Z 00000KT 9999 FEW020 SCT070 BKN200 27/25 Q1015@CAELT@A2997 HR85 RWY NML=METAR SLJV 091200Z 36005KT 9999 BKN070 27/24 Q1012 A2988 HR84 RWY NMLMETAR SLCP 091200Z 00000KT 9999 BKN070 26/23 Q1016 A3000 HR84 RWY NMLMETAR SLSI 091200Z 18006KT 5000 -TSRA BKN010 FEW025CB OVC070 22/22Q1014 A2994 HR98 CB/TS/N/NW RWY WET OPR=METAR SLTI 091200Z 00000KT 9999 BKN017 OVC070 24/22 Q1017 A3003 HR92RWY HUM OPR=METAR SLJE 091200Z 00000KT 9999 BKN070 27/23 Q1016 A3000 HR77 RWY NMLMETAR SLVG 091200Z 18005KT 9999 SCT020 BKN070 17/14 Q1026 A3030 HR76RW NML=METAR SLRB 091200Z 00000KT 9999 NSC 29/24 Q1016 A3000 HR72 RWY NML=METAR SLPS 091200Z 36004KT 9999 FEW023 28/24 Q1013 A2992 HR80=METAR SLCA 091200Z 00000KT 8000 -RA FEW010 BKN036 OVC070 21/19 Q1021A3015 HR92 RWY WET INOP=
ZPX0284 091202@CAELT@GG SLZZYMYT@CAELT@091201 SLLPYFYA@CAELT@SABO SLLP 091200@CAELT@METAR SLLP 091200Z 10005KT 4000E VCFG FEW003 BKN200 10/09 Q1039@CAELT@A3070 628.9 HR89 P92// VCFG NE/E/SE AC NOSIG=@CAELT@METAR SLCO 091200Z 01005KT 9999 FEW006 25/24 Q1014 A2995 986.6 HR92@CAELT@AC/CI=@CAELT@METAR SLRQ 091200Z 00000KT 9999 FEW020 SCT200 27/25 Q1012 A2990 HR87=METAR SLAP 091200Z 00000KT 9999 SCT020 22/17 Q1019 A3010 859.6 HR78METAR SLSB 091200Z 36003KT 9999 SCT080 28/25 Q1012 A2990 HR84 RWY NMLMETAR SLOR 091200Z 36004KT 9999 FEW017 14/02 Q1035 A3059 656.5 HR45=METAR SLUY 091200Z 00000KT 9999 FEW023 11/M05 Q1036 A3059659.7 HR34 FU=
ZPX0286 091203@CAELT@GG SLZZYMYT@CAELT@091202 SLLPYFYA@CAELT@SABO SLLP 091200 RRA@CAELT@METAR SLLP 091200Z 10005KT 4000E VCFG FEW003 BKN200 10/09 Q1039@CAELT@A3070 628.9 HR89 P92// VCFG NE/E/SE AC NOSIG=@CAELT@METAR SLCO 091200Z 01005KT 9999 FEW006 25/24 Q1014 A2995 986.6 HR92@CAELT@AC/CI=@CAELT@METAR RTD SLRY 091200Z 34006KT 9999 FEW015 BKN200 26/24 Q1011A2985 HR87 RWY NML=METAR SLRQ 091200Z 00000KT 9999 FEW020 SCT200 27/25 Q1012 A2990 HR87=METAR SLAP 091200Z 00000KT 9999 SCT020 22/17 Q1019 A3010 859.6 HR78METAR SLSB 091200Z 36003KT 9999 SCT080 28/25 Q1012 A2990 HR84 RWY NMLMETAR SLOR 091200Z 36004KT 9999 FEW017 14/02 Q1035 A3059 656.5 HR45=METAR SLUY 091200Z 00000KT 9999 FEW023 11/M05 Q1036 A3059659.7 HR34 FU=
ZPX0320 091248@CAELT@GG SLZZYMYT@CAELT@091250 SLRBYGYS@CAELT@SABO SLRB 091300@CAELT@METAR SLRB 091300Z 00000KT 9999 SCT020 30/24 Q1017 A3003 HR73 RWY NML=@CAELT@
ZPX0322 091250@CAELT@GG SLZZYMYT@CAELT@091250 SLPSYGYS@CAELT@SABO SLPS 091300@CAELT@METAR SLPS 091300Z 36004KT 9999 FEW020 30/25 Q1013 A2992 HR74=@CAELT@
ZPX0325 091251@CAELT@GG SLZZYMYT@CAELT@091251 SLCAYGYS@CAELT@SABO SLCA 091300@CAELT@METAR SLCA 091300Z 00000KT 5000 -RA FEW010 BKN036 OVC070 20/19 Q1022@CAELT@A3018 HR94 RWY WET INOP=@CAELT@
ZPX0326 091254@CAELT@GG SLZZYMYT@CAELT@091254 SLCAYGYS@CAELT@SABO SLCA 091300@CAELT@METAR SLCA 091300Z 00000KT 5000 -RA FEW010 BKN036 OVC070 20/19 Q1022@CAELT@A3018 HR94 RWY WET INOP=@CAELT@
ZPX0327 091254@CAELT@GG SLZZYMYT@CAELT@091255 SLSBYSYX@CAELT@SABO SLSB 091300@CAELT@METAR SLSB 091300Z 32007KT 9999 SCT017 30/25 Q1013 A2992 HR76 AC RWY@CAELT@NML=@CAELT@
ZPX0328 091255@CAELT@GG SLZZYMYT@CAELT@091255 SLORYGYZ@CAELT@SABO SLOR 091300@CAELT@METAR SLOR 091300Z 36003KT 9999 FEW020 16/02 Q1036 A3060 656.7 HR39=@CAELT@
ZPX0329 091255@CAELT@GG SLZZYMYT@CAELT@091254 SLSAYGYS@CAELT@SABO SLSA 091300@CAELT@METAR SLSA 091300Z 34010KT 9999 FEW080 BKN200 30/24 Q1012 A2989 HR69=@CAELT@
ZPX0330 091255@CAELT@GG SLZZYMYT@CAELT@091254 SLSAYGYS@CAELT@SABO SLSA 091300@CAELT@METAR SLSA 091300Z 34010KT 9999 FEW080 BKN200 30/24 Q1012 A2989 HR69=@CAELT@
ZPX0331 091255@CAELT@GG SLZZYMYT@CAELT@091255 SLVRYGYZ@CAELT@SABO SLVR 091300@CAELT@METAR SLVR 091300Z 32008KT 9999 FEW023 SCT070 30/22 Q1014 A2994 HR60@CAELT@CI NOSIG=@CAELT@
ZPX0332 091255@CAELT@GG SLZZYMYT@CAELT@091255 SLETYMYC@CAELT@SABO SLET 091300@CAELT@METAR SLET 091300Z 31010KT 9999 FEW025 SCT070 30/22 Q1013 A2994 HR61@CAELT@CI NOSIG=@CAELT@
ZPX0333 091256@CAELT@GG SLZZYMYT@CAELT@091255 SLCOYGYZ@CAELT@SABO SLCO 091300@CAELT@METAR SLCO 091300Z 31007KT 9999 SCT010 26/24 Q1014 A2996 987.1 HR87@CAELT@AC/CI=@CAELT@
ZPX0334 091256@CAELT@GG SLZZYMYT@CAELT@091255 SLAGYSYX@CAELT@SABO SLAG 091300@CAELT@METAR SLAG 091300Z 00000KT 3000 -RA FEW002 SCT008 OVC070 20/18 Q1023@CAELT@A3022 894.9 HR91 ST BAJOS N/NE=@CAELT@
ZPX0335 091256@CAELT@GG SLZZYMYT@CAELT@091255 SLLPYGYZ@CAELT@SABO SLLP 091300@CAELT@METAR SLLP 091300Z 12005KT 6000 FEW006 SCT015 12/06 Q1039 A3070@CAELT@629.1 HR67 P4352 VIS/RED/SC E/SE AC NOSIG=@CAELT@
ZPX0336 091256@CAELT@GG SLZZYMYT@CAELT@091256 SLTRYGYZ@CAELT@SABO SLTR 091300@CAELT@METAR SLTR 091300Z 33008KT 9999 FEW080 BKN200 29/24 Q1013 A2992@CAELT@994.6 HR73 NOSIG=@CAELT@
ZPX0337 091256@CAELT@GG SLZZYMYT@CAELT@091246 SLUYYGYS@CAELT@SABO SLUY 091300@CAELT@METAR SLUY 091300Z 00000KT 9999 FEW027 14/00 Q1036 A3060@CAELT@659.8 HR40 FU=@CAELT@
ZPX0339 091257@CAELT@GG SLZZYMYT@CAELT@091256 SLRQYSYX@CAELT@SABO SLRQ 091300@CAELT@METAR SLRQ 091300Z 00000KT 9999 SCT017 SCT200 28/25 Q1013 A2992@CAELT@HR84=@CAELT@
ZPX0340 091258@CAELT@GG SLZZYMYT@CAELT@091258 SLVRYFYC@CAELT@SABO SLVR 091300@CAELT@METAR SLVR 091300Z 32008KT 9999 FEW023 SCT070 30/22 Q1014 A2994 HR60@CAELT@CI NOSIG=@CAELT@METAR SLET 091300Z 31010KT 9999 FEW025 SCT070 30/22 Q1013 A2994 HR61@CAELT@METAR SLAS 091300Z 00000KT 9999 BKN070 29/24 Q1015 A2997 HR78 RWY NML@CAELT@METAR SLJV 091300Z 36005KT 9999 BKN070 29/24 Q1014 A2994 HR78 RWY NMLMETAR SLCP 091300Z 00000KT 9999 SCT020 BKN070 28/23 Q1016 A3000 HR79RWY NML=METAR SLSI 091300Z 19005KT 7000 -TSRA BKN010 FEW025CB OVC070 22/21Q1015 A2997 HR98 CB/TS N/NW RWY WET OPR=METAR SLTI 091300Z 00000KT 9999 BKN017 OVC070 25/23 Q1018 A3006 HR89RWY HUM OPR=METAR SLJE 091300Z 00000KT 9999 BKN070 29/24 Q1017 A3003 HR72 RWY NMLMETAR SLVG 091300Z 17006KT 9999 SCT023 BKN070 19/13 Q1027 A3033 HR65METAR SLRB 091300Z 00000KT 9999 SCT020 30/24 Q1017 A3003 HR73 RWY NMLMETAR SLPS 091300Z 36004KT 9999 FEW020 30/25 Q1013 A2992 HR74=METAR SLCA 091300Z 00000KT 5000 -RA FEW010 BKN036 OVC070 20/19 Q1022A3018 HR94 RWY WET INOP=
ZPX0341 091258@CAELT@GG SLZZYMYT@CAELT@091257 SLTRYGYS@CAELT@SABO SLTR 091300@CAELT@METAR SLTR 091300Z 33008KT 9999 FEW080 BKN200 29/24 Q1013 A2992@CAELT@994.6 HR73 NOSIG=@CAELT@METAR SLGM 091300Z 34006KT 9999 BKN080 28/23 Q1013 A2993 HR76=@CAELT@METAR SLRI 091300Z 35008KT 9999 SCT080 BKN200 27/24 Q1014 A2997 HR82=@CAELT@METAR SLJO 091300Z 36006KT 9999 BKN080 28/23 Q1012 A2991 HR77RWY NML=METAR SLRA 091300Z 36006KT 9999 BKN080 29/24 Q1012 A2990 HR74CI RWY NML=METAR SLMG 091300Z 32004KT 9999 BKN080 27/24 Q1012 A2988 HR84METAR SLBU 091300Z 32006KT 9999 BKN080 28/24 Q1012 A2991 HR80METAR SLSA 091300Z 34010KT 9999 FEW080 BKN200 30/24 Q1012 A2989 HR69=METAR SLSR 091300Z 32010KT 9999 FEW017 BKN200 29/24 Q1012 A2990HR75 RWY NML=METAR SLSM 091300Z 33006KT 9999 NSC 30/25 Q1012 A2990 HR73 CI
ZPX0342 091258@CAELT@GG SLZZYMYT@CAELT@091258 SLCBYGYZ@CAELT@SABO SLCB 091300@CAELT@METAR SLCB 091300Z 16005KT 9999 SCT027 22/10 Q1027 A3033 753.0 HR45@CAELT@AC CI NOSIG=@CAELT@
ZPX0343 091259@CAELT@GG SLZZYMYT@CAELT@091256 SLTJYGYZ@CAELT@SABO SLTJ 091300@CAELT@METAR SLTJ 091300Z 24004KT 9999 FEW008 SCT027 BKN070 16/14 Q1027@CAELT@A3034 821.2 HR86 SH/S/SW/WNW=@CAELT@
ZPX0346 091301@CAELT@GG SLZZYMYT@CAELT@091301 SLCBYGYS@CAELT@SABO SLCB 091300@CAELT@METAR SLCB 091300Z 16005KT 9999 SCT027 22/10 Q1027 A3033 753.0 HR45@CAELT@AC CI NOSIG=@CAELT@METAR SLAL 091300Z 08008KT 9999 SCT015 SCT070 14/08 Q1033 A3052 706.7@CAELT@HR71=@CAELT@METAR SLPO 091300Z 06005KT 9999 FEW015 11/04 Q1040 A3073 639.9 HR63=METAR SLAG 091300Z 00000KT 3000 -RA FEW002 SCT008 OVC070 20/18 Q1023A3022 894.9 HR91 ST BAJOS N/NE=METAR SLVM 091300Z 00000KT 9999 SCT030 OVC070 26/22 Q1016 A3001 HR82METAR SLTJ 091300Z 24004KT 9999 FEW008 SCT027 BKN070 16/14 Q1027A3034 821.2 HR86 SH/S/SW/WNW=METAR SLYA 091300Z 00000KT 9999 BKN070 28/22 Q1016 A3001 940.8 HR70=METAR SLBJ 091300Z NIL=METAR SLHI 091300Z NIL=
ZPX0354 091305@CAELT@GG SLZZYMYT@CAELT@091301 SLLPYFYA@CAELT@SABO SLLP 091300@CAELT@METAR SLLP 091300Z 12005KT 6000 FEW006 SCT015 12/06 Q1039 A3070@CAELT@629.1 HR67 P4352 VIS/RED/SC E/SE AC NOSIG=@CAELT@METAR SLCO 091300Z 31007KT 9999 SCT010 26/24 Q1014 A2996 987.1 HR87@CAELT@AC/CI=@CAELT@METAR SLRY 091300Z 34008KT 9999 BKN015 BKN200 28/24 Q1012A2989 HR79 RWY NML=METAR SLRQ 091300Z 00000KT 9999 SCT017 SCT200 28/25 Q1013 A2992HR84=METAR SLAP 091300Z 00000KT 9999 FEW025 24/18 Q1019 A3011 860.1 HR69METAR SLSB 091300Z 32007KT 9999 SCT017 30/25 Q1013 A2992 HR76 AC RWYNML=METAR SLOR 091300Z 36003KT 9999 FEW020 16/02 Q1036 A3060 656.7 HR39=METAR SLUY 091300Z 00000KT 9999 FEW027 14/00 Q1036 A3060659.8 HR40 FU=
ZPX0382 091348@CAELT@GG SLZZYMYT@CAELT@091350 SLRBYGYS@CAELT@SABO SLRB 091400@CAELT@METAR SLRB 091400Z 00000KT 9999 SCT020 FEW025CB 30/24 Q1017 A3003@CAELT@HR71 CB N/NE/NW RWY NML=@CAELT@
ZPX0386 091353@CAELT@GG SLZZYMYT@CAELT@091352 SLPSYGYS@CAELT@SABO SLPS 091400@CAELT@METAR SLPS 091400Z 36003KT 9999 FEW023 32/25 Q1014 A2995 HR70=@CAELT@
ZPX0388 091355@CAELT@GG SLZZYMYT@CAELT@091355 SLORYGYZ@CAELT@SABO SLOR 091400@CAELT@METAR SLOR 091400Z 01005KT 9999 SCT020 16/02 Q1036 A3060 656.8 HR38=@CAELT@
ZPX0389 091355@CAELT@GG SLZZYMYT@CAELT@091355 SLSBYSYX@CAELT@SABO SLSB 091400@CAELT@METAR SLSB 091400Z 31008KT 9999 SCT017 SCT080 30/25 Q1013 A2993 HR75@CAELT@RWY NML=@CAELT@
ZPX0390 091355@CAELT@GG SLZZYMYT@CAELT@091355 SLVRYGYZ@CAELT@SABO SLVR 091400@CAELT@METAR SLVR 091400Z 34015KT 9999 FEW023 SCT070 32/22 Q1014 A2995 HR55@CAELT@CI NOSIG=@CAELT@
ZPX0391 091356@CAELT@GG SLZZYMYT@CAELT@091345 SLUYYGYS@CAELT@SABO SLUY 091400@CAELT@METAR SLUY 091400Z VRB02KT 9999 FEW030 16/01 Q1035 A3059@CAELT@659.6 HR38 SH S/SW=@CAELT@
ZPX0393 091356@CAELT@GG SLZZYMYT@CAELT@091355 SLLPYGYZ@CAELT@SABO SLLP 091400@CAELT@METAR SLLP 091400Z VRB02KT 9999 SCT017 SCT200 14/05 Q1039 A3070@CAELT@629.1 HR57 P93// FU AC NOSIG=@CAELT@
ZPX0394 091356@CAELT@GG SLZZYMYT@CAELT@091355 SLRQYSYX@CAELT@SABO SLRQ 091400@CAELT@METAR SLRQ 091400Z 33004KT 9999 SCT017 FEW020CB SCT200 30/26 Q1013@CAELT@A2992 HR76 CB/NW/W=@CAELT@
ZPX0395 091356@CAELT@GG SLZZYMYT@CAELT@091356 SLCAYGYS@CAELT@SABO SLCA 091400@CAELT@METAR SLCA 091400Z 00000KT 8000 -RA FEW013 SCT036 OVC070 21/20 Q1022@CAELT@A3018 HR94 RWY WET INOP=@CAELT@
ZPX0397 091357@CAELT@GG SLZZYMYT@CAELT@091356 SLCBYGYZ@CAELT@SABO SLCB 091400@CAELT@METAR SLCB 091400Z 19005KT 9999 SCT027 23/09 Q1026 A3032 752.8 HR41@CAELT@AC NOSIG=@CAELT@
ZPX0398 091357@CAELT@GG SLZZYMYT@CAELT@091356 SLTRYGYZ@CAELT@SABO SLTR 091400@CAELT@METAR SLTR 091400Z 33010KT 9999 FEW015 BKN200 31/24 Q1013 A2992@CAELT@994.8 HR68 AC NOSIG=@CAELT@
ZPX0399 091357@CAELT@GG SLZZYMYT@CAELT@091356 SLCOYGYZ@CAELT@SABO SLCO 091400@CAELT@METAR SLCO 091400Z 29009KT 9999 SCT015 30/25 Q1014 A2996 987.0 HR72@CAELT@AC/CI=@CAELT@
ZPX0400 091357@CAELT@GG SLZZYMYT@CAELT@091356 SLSAYGYS@CAELT@SABO SLSA 091400@CAELT@METAR SLSA 091400Z 34012KT 9999 FEW020 SCT080 BKN200 31/24 Q1012@CAELT@A2990 HR66=@CAELT@
ZPX0401 091358@CAELT@GG SLZZYMYT@CAELT@091357 SLTJYGYZ@CAELT@SABO SLTJ 091400@CAELT@METAR SLTJ 091400Z 10004KT 9999 FEW012 SCT027 BKN070 17/12 Q1026@CAELT@A3033 820.7 HR72 SH/W/NW=@CAELT@
ZPX0404 091358@CAELT@GG SLZZYMYT@CAELT@091355 SLAGYSYX@CAELT@SABO SLAG 091400@CAELT@METAR SLAG 091400Z 20004KT 2000 -RA SCT008 OVC070 20/19 Q1024 A3024@CAELT@895.4 HR95=@CAELT@
ZPX0405 091358@CAELT@GG SLZZYMYT@CAELT@091358 SLTRYGYS@CAELT@SABO SLTR 091400@CAELT@METAR SLTR 091400Z 33010KT 9999 FEW015 BKN200 31/24 Q1013 A2992@CAELT@994.8 HR68 AC NOSIG=@CAELT@METAR SLGM 091400Z 34008KT 9999 FEW017 BKN080 30/24 Q1014 A2995@CAELT@HR68=@CAELT@METAR SLRI 091400Z 34012KT 9999 FEW017 SCT200 30/25 Q1015 A2998 HR73METAR SLJO 091400Z 36008KT 9999 BKN080 30/24 Q1013 A2992 HR71RWY NML=METAR SLRA 091400Z 34007KT 9999 BKN080 30/23 Q1013 A2992 HR66CI RWY NML=METAR SLMG 091400Z 32006KT 9999 BKN080 29/24 Q1012 A2991 HR74METAR SLBU 091400Z 32006KT 9999 FEW015 BKN080 29/25 Q1013 A2992HR79 RWY NML=METAR SLSA 091400Z 34012KT 9999 FEW020 SCT080 BKN200 31/24 Q1012A2990 HR66=METAR SLSR 091400Z 32015KT 9999 FEW017 BKN200 30/24 Q1013 A2992HR71 RWY NML=METAR SLSM 091400Z 33006KT 9999 FEW017 SCT080 BKN200 30/24 Q1013A2993 HR70 RWY NML=
ZPX0408 091401@CAELT@GG SLZZYMYT@CAELT@091400 SLCBYGYS@CAELT@SABO SLCB 091400@CAELT@METAR SLCB 091400Z 19005KT 9999 SCT027 23/09 Q1026 A3032 752.8 HR41@CAELT@AC NOSIG=@CAELT@METAR SLAL 091400Z 08009KT 9999 BKN020 FEW030CB 16/07 Q1033 A3052@CAELT@706.6 HR55 CB/SE AC=@CAELT@METAR SLPO 091400Z 06007KT 9999 SCT017 13/04 Q1041 A3073 640.0 HR57=METAR SLAG 091400Z 20004KT 2000 -RA SCT008 OVC070 20/19 Q1024 A3024895.4 HR95=METAR SLVM 091400Z 00000KT 9999 SCT030 OVC070 29/22 Q1016 A3002 HR69METAR SLTJ 091400Z 10004KT 9999 FEW012 SCT027 BKN070 17/12 Q1026A3033 820.7 HR72 SH/W/NW=METAR SLYA 091400Z 00000KT 9999 BKN070 29/22 Q1016 A3002 941.1 HR66=METAR SLBJ 091400Z NIL=METAR SLHI 091400Z NIL=
ZPX0409 091401@CAELT@GG SLZZYMYT@CAELT@091400 SLVRYFYC@CAELT@SABO SLVR 091400@CAELT@METAR SLVR 091400Z 34015KT 9999 FEW023 SCT070 32/22 Q1014 A2995 HR55@CAELT@CI NOSIG=@CAELT@METAR SLET 091400Z 31012KT 9999 FEW020 SCT070 32/22 Q1014 A2995 HR57@CAELT@METAR SLAS 091400Z 00000KT 9999 BKN070 30/26 Q1015 A2997 HR77 RWY NML@CAELT@METAR SLJV 091400Z 00000KT 9999 SCT020 FEW030CB BKN070 29/24 Q1013A2991 HR73 CB SE RWY NML=METAR SLCP 091400Z 00000KT 9999 SCT020 BKN070 28/23 Q1017 A3003 HR79RWY NML=METAR SLSI 091400Z 00000KT 7000 -TSRA BKN010 FEW025CB OVC070 22/22Q1016 A3000 HR98 CB/TS N/NW RWY WET OPR=METAR SLTI 091400Z 00000KT 9999 BKN017 OVC070 26/23 Q1018 A3006 HR82METAR SLJE 091400Z 00000KT 9999 FEW015 OVC070 29/23 Q1017 A3003 HR70METAR SLVG 091400Z 18008KT 9999 SCT023 BKN070 20/14 Q1027 A3033 HR66METAR SLRB 091400Z 00000KT 9999 SCT020 FEW025CB 30/24 Q1017 A3003HR71 CB N/NE/NW RWY NML=METAR SLPS 091400Z 36003KT 9999 FEW023 32/25 Q1014 A2995 HR70=METAR SLCA 091400Z 00000KT 8000 -RA FEW013 SCT036 OVC070 21/20 Q1022A3018 HR94 RWY WET INOP=
ZPX0420 091407@CAELT@GG SLZZYMYT@CAELT@091404 SLLPYFYA@CAELT@SABO SLLP 091400@CAELT@METAR SLLP 091400Z VRB02KT 9999 SCT017 SCT200 14/05 Q1039 A3070@CAELT@629.1 HR57 P93// FU AC NOSIG=@CAELT@METAR SLCO 091400Z 29009KT 9999 SCT015 30/25 Q1014 A2996 987.0 HR72@CAELT@AC/CI=@CAELT@METAR SLRY 091400Z 34012KT 9999 BKN015 BKN200 29/25 Q1012A2991 HR75 RWY NML0METAR SLRQ 091400Z 33004KT 9999 SCT017 FEW020CB SCT200 30/26 Q1013A2992 HR76 CB/NW/W=METAR SLAP 091400Z 36005KT 9999 FEW025 26/18 Q1019 A3012 860.2 HR63AC=METAR SLSB 091400Z 31008KT 9999 SCT017 SCT080 30/25 Q1013 A2993 HR75RWY NML=METAR SLOR 091400Z 01005KT 9999 SCT020 16/02 Q1036 A3060 656.8 HR38=METAR SLUY 091400Z VRB02KT 9999 FEW030 16/01 Q1035 A3059659.6 HR38 SH S/SW=
ZPX0423 091409@CAELT@GG SLZZYMYT@CAELT@091404 SLLPYFYA@CAELT@SABO SLLP 091400@CAELT@METAR SLLP 091400Z VRB02KT 9999 SCT017 SCT200 14/05 Q1039 A3070@CAELT@629.1 HR57 P93// FU AC NOSIG=@CAELT@METAR SLCO 091400Z 29009KT 9999 SCT015 30/25 Q1014 A2996 987.0 HR72@CAELT@AC/CI=@CAELT@METAR SLRY 091400Z 34012KT 9999 BKN015 BKN200 29/25 Q1012A2991 HR75 RWY NML=METAR SLRQ 091400Z 33004KT 9999 SCT017 FEW020CB SCT200 30/26 Q1013A2992 HR76 CB/NW/W=METAR SLAP 091400Z 36005KT 9999 FEW025 26/18 Q1019 A3012 860.2 HR63AC=METAR SLSB 091400Z 31008KT 9999 SCT017 SCT080 30/25 Q1013 A2993 HR75RWY NML=METAR SLOR 091400Z 01005KT 9999 SCT020 16/02 Q1036 A3060 656.8 HR38=METAR SLUY 091400Z VRB02KT 9999 FEW030 16/01 Q1035 A3059659.6 HR38 SH S/SW=
