
ZPX0001 010000@CAELT@GG SLZZYMYT@CAELT@010000 SLCBYGYS@CAELT@SABO SLCB 010000@CAELT@METAR SLCB 010000Z 11015KT 9999 FEW033 FEW036CB SCT070 OVC200 21/07@CAELT@Q1023 A3021 749.9 HR39 CB LT/N/NE NOSIG=@CAELT@METAR SLAL 010000Z 04006KT 9999 FEW017 FEW030CB BKN200 13/08 Q1029@CAELT@A3039 703.7 HR71 CB/SW AC=@CAELT@METAR SLTJ 010000Z 00000KT 9999 FEW030 SCT070 BKN200 18/14 Q1020A3012 815.0 HR78=
ZPX0018 010056@CAELT@GG SLLPZRZX@CAELT@010056 SLLPYGYZ@CAELT@SABO SLLP 010100@CAELT@METAR SLLP 010100Z 18011KT 150V220 5000 -TSRA FEW004 SCT012@CAELT@FEW017CB BKN070 07/06 Q1038 A3067 628.4 HR89 CB/TS ON@CAELT@STN/N/NE/SE CI NOSIG=@CAELT@
ZPX0019 010056@CAELT@GG SLZZYMYT@CAELT@010057 SLVRYGYZ@CAELT@SABO SLVR 010100@CAELT@METAR SLVR 010100Z 07020G31KT 9999 TS SCT020 FEW030CB BKN070 BKN200@CAELT@28/22 Q1013 A2992 HR70 CB/TS/LT N/NE/E/NW TEMPO SHRA=@CAELT@
ZPX0020 010057@CAELT@GG SLZZYMYT@CAELT@010056 SLCBYGYZ@CAELT@SABO SLCB 010100@CAELT@METAR SLCB 010100Z 12012KT 9999 FEW033 SCT070 OVC200 20/09 Q1024@CAELT@A3024 750.7 HR47 NOSIG=@CAELT@
ZPX0041 010156@CAELT@GG SLLPZRZX@CAELT@010156 SLLPYGYZ@CAELT@SABO SLLP 010200@CAELT@METAR SLLP 010200Z 19005KT 160V230 4000E -RA VCFG FEW002 SCT012@CAELT@FEW017CB BKN070 07/06 Q1039 A3070 629.0 HR93 VCFG NE/E/SE@CAELT@CB/LT N/NE/S/SW RETS CI NOSIG=@CAELT@
ZPX0042 010156@CAELT@GG SLZZYMYT@CAELT@010157 SLVRYGYZ@CAELT@SABO SLVR 010200@CAELT@METAR SLVR 010200Z 22010KT 9000 -TSRA SCT010 BKN020 FEW030CB OVC070@CAELT@22/20 Q1013 A2993 HR89 CB/TS/LT N/NE/E/W TEMPO 5000=@CAELT@
ZPX0043 010156@CAELT@GG SLZZYMYT@CAELT@010156 SLCBYGYZ@CAELT@SABO SLCB 010200@CAELT@METAR SLCB 010200Z 11012KT 9999 FEW033 FEW036CB SCT070 BKN200 20/08@CAELT@Q1025 A3027 751.4 HR45 CB LT/DIST/SW/W NOSIG=@CAELT@
ZPX0062 010256@CAELT@GG SLZZYMYT@CAELT@010257 SLVRYGYZ@CAELT@SABO SLVR 010300@CAELT@METAR SLVR 010300Z 17003KT 9999 TS SCT010 BKN020 FEW030CB OVC070 24/@CAELT@21 Q1014 A2994 HR86 CB/TS/LT N/NE/W RERA TEMPO SHRA=@CAELT@
ZPX0063 010257@CAELT@GG SLLPZRZX@CAELT@010256 SLLPYGYZ@CAELT@SABO SLLP 010300@CAELT@METAR SLLP 010300Z 05005KT 4000E -RA VCFG FEW004 SCT010 FEW017CB@CAELT@BKN070 06/05 Q1039 A3071 629.2 HR91 VCFG NE/E/SE CB/LT N/S/SW CI@CAELT@NOSIG=@CAELT@
ZPX0064 010258@CAELT@GG SLZZYMYT@CAELT@010257 SLCBYGYZ@CAELT@SABO SLCB 010300@CAELT@METAR SLCB 010300Z 28006KT 9999 FEW033 FEW036CB BKN200 18/08 Q1025@CAELT@A3028 751.8 HR54 CB LT/DIST/W/NW AC NOSIG=@CAELT@
ZPX0072 010355@CAELT@GG SLLPZRZX@CAELT@010353 SLLPYGYZ@CAELT@SABO SLLP 010400@CAELT@METAR SLLP 010400Z 05007KT 4000E -RA VCFG FEW004 SCT010 FEW017CB@CAELT@OVC070 05/04 Q1040 A3071 629.3 HR92 VCFG NE/E/SE CB/LT N NOSIG=@CAELT@
ZPX0073 010356@CAELT@GG SLZZYMYT@CAELT@010356 SLVRYGYZ@CAELT@SABO SLVR 010400@CAELT@METAR SLVR 010400Z 19006KT 9999 SCT010 BKN020 OVC070 23/20 Q1013@CAELT@A2993 HR85 RETS NOSIG=@CAELT@
ZPX0074 010358@CAELT@GG SLZZYMYT@CAELT@010357 SLCBYGYZ@CAELT@SABO SLCB 010400@CAELT@METAR SLCB 010400Z 08009KT 9999 FEW033 BKN200 18/06 Q1025 A3028 751.8@CAELT@HR45 AC NOSIG=@CAELT@
ZPX0084 010455@CAELT@GG SLZZYMYT@CAELT@010455 SLVRYGYZ@CAELT@SABO SLVR 010500@CAELT@METAR SLVR 010500Z 20006KT 9999 SCT010 BKN020 OVC070 24/20 Q1012@CAELT@A2990 HR82 NOSIG=@CAELT@
ZPX0085 010456@CAELT@GG SLLPZRZX@CAELT@010455 SLLPYGYZ@CAELT@SABO SLLP 010500@CAELT@METAR SLLP 010500Z 08008KT 4000E -RA VCFG FEW002 SCT010 OVC070@CAELT@02/02 Q1039 A3070 629.1 HR96 VCFG NE/E/SE NOSIG=@CAELT@
ZPX0086 010458@CAELT@GG SLZZYMYT@CAELT@010457 SLCBYGYZ@CAELT@SABO SLCB 010500@CAELT@METAR SLCB 010500Z 07006KT 9999 FEW033 SCT070 BKN200 17/07 Q1025@CAELT@A3028 751.8 HR51 NOSIG=@CAELT@
ZPX0096 010556@CAELT@GG SLZZYMYT@CAELT@010556 SLVRYGYZ@CAELT@SABO SLVR 010600@CAELT@METAR SLVR 010600Z 18005KT 9999 BKN020 OVC070 23/20 Q1012 A2990 HR80@CAELT@NOSIG=@CAELT@
ZPX0097 010557@CAELT@GG SLLPZRZX@CAELT@010556 SLLPYGYZ@CAELT@SABO SLLP 010600@CAELT@METAR SLLP 010600Z 07006KT 4000E -RA VCFG FEW002 SCT010 OVC070@CAELT@03/02 Q1039 A3069 628.7 HR98 VCFG NE/E/SE NOSIG=@CAELT@
ZPX0098 010557@CAELT@GG SLZZYMYT@CAELT@010556 SLCBYGYZ@CAELT@SABO SLCB 010600@CAELT@METAR SLCB 010600Z 11005KT 9999 FEW033 SCT070 BKN200 17/09 Q1025@CAELT@A3029 751.9 HR59 NOSIG=@CAELT@
ZPX0106 010655@CAELT@GG SLZZYMYT@CAELT@010655 SLVRYGYZ@CAELT@SABO SLVR 010700@CAELT@METAR SLVR 010700Z 19005KT 9999 FEW023 SCT070 BKN200 23/19 Q1012@CAELT@A2989 HR76 NOSIG=@CAELT@
ZPX0107 010655@CAELT@GG SLLPZRZX@CAELT@010655 SLLPYGYZ@CAELT@SABO SLLP 010700@CAELT@METAR SLLP 010700Z 09004KT 4000E -RA VCFG FEW002 SCT010 OVC070@CAELT@03/02 Q1038 A3067 628.4 HR96 VCFG NE/E/SE NOSIG=@CAELT@
ZPX0108 010656@CAELT@GG SLZZYMYT@CAELT@010655 SLCBYGYZ@CAELT@SABO SLCB 010700@CAELT@METAR SLCB 010700Z 11005KT 9999 FEW033 SCT070 BKN200 17/08 Q1024@CAELT@A3025 750.8 HR57 NOSIG=@CAELT@
ZPX0116 010755@CAELT@GG SLLPZRZX@CAELT@010755 SLLPYGYZ@CAELT@SABO SLLP 010800@CAELT@METAR SLLP 010800Z VRB02KT 4000E -RA VCFG FEW002 SCT010 OVC070@CAELT@03/03 Q1038 A3065 627.9 HR98 VCFG NE/E/SE NOSIG=@CAELT@
ZPX0117 010756@CAELT@GG SLZZYMYT@CAELT@010756 SLVRYGYZ@CAELT@SABO SLVR 010800@CAELT@METAR SLVR 010800Z 20003KT 9999 FEW023 FEW027CB BKN200 23/19 Q1011@CAELT@A2988 HR77 CB DIST N NOSIG=@CAELT@
ZPX0118 010757@CAELT@GG SLZZYMYT@CAELT@010755 SLCBYGYZ@CAELT@SABO SLCB 010800@CAELT@METAR SLCB 010800Z 12010KT 9999 FEW033 BKN200 16/08 Q1024 A3025 751.0@CAELT@HR57 AC NOSIG=@CAELT@
ZPX0132 010855@CAELT@GG SLZZYMYT@CAELT@010855 SLVRYGYZ@CAELT@SABO SLVR 010900@CAELT@METAR SLVR 010900Z 13003KT 9999 FEW027CB SCT070 BKN200 21/20 Q1012@CAELT@A2990 HR89 CB DIST N NOSIG=@CAELT@
ZPX0133 010855@CAELT@GG SLLPZRZX@CAELT@010855 SLLPYGYZ@CAELT@SABO SLLP 010900@CAELT@METAR SLLP 010900Z VRB02KT 4000E VCFG FEW002 SCT012 BKN070 05/03@CAELT@Q1036 A3061 626.9 HR90 VCFG NE/E CI NOSIG=@CAELT@
ZPX0136 010857@CAELT@GG SLZZYMYT@CAELT@010856 SLCBYGYZ@CAELT@SABO SLCB 010900@CAELT@METAR SLCB 010900Z 12006KT 9999 FEW033 SCT070 BKN200 16/08 Q1024@CAELT@A3026 751.1 HR56 FU NOSIG=@CAELT@
ZPX0137 010858@CAELT@GG SLZZYMYT@CAELT@010856 SLPSYGYS@CAELT@SABO SLPS 010900@CAELT@METAR SLPS 010900Z 00000KT 8000 FEW010 BKN070 23/23 Q1011 A2986 HR100@CAELT@BR=@CAELT@
ZPX0138 010859@CAELT@GG SLZZYMYT@CAELT@010857 SLTRYGYZ@CAELT@SABO SLTR 010900@CAELT@METAR SLTR 010900Z 36003KT 9999 NSC 24/22 Q1010 A2984 992.1@CAELT@HR90 CI NOSIG=@CAELT@
ZPX0149 010922@CAELT@GG SLZZYMYT@CAELT@010922 SLTRYGYS@CAELT@SABO SLTR 010900@CAELT@METAR SLTR 010900Z 36003KT 9999 NSC 24/22 Q1010 A2984 992.1@CAELT@HR90 CI NOSIG=@CAELT@METAR SLRI 010900Z 00000KT 8000 FEW005 SCT010 BKN070 23/23@CAELT@Q1011 A2986 HR98 FU=@CAELT@
ZPX0157 010950@CAELT@GG SLZZYMYT@CAELT@010950 SLCAYGYS@CAELT@SABO SLCA 011000@CAELT@METAR SLCA 011000Z 00000KT 9999 BKN033 OVC070 20/18 Q1017 A3003 HR90@CAELT@RWY NML=@CAELT@
ZPX0158 010953@CAELT@GG SLZZYMYT@CAELT@010952 SLPSYGYS@CAELT@SABO SLPS 011000@CAELT@METAR SLPS 011000Z 00000KT 9999 FEW010 SCT070 23/23 Q1012 A2989 HR100@CAELT@
ZPX0160 010954@CAELT@GG SLZZYMYT@CAELT@010955 SLSBYSYX@CAELT@SABO SLSB 011000@CAELT@METAR SLSB 011000Z 00000KT 1500 -RA BKN005 FEW0023CB OVC070 23/23@CAELT@Q1010 A2985 HR100 TS CB N RWY WET INOP=@CAELT@
ZPX0161 010954@CAELT@GG SLZZYMYT@CAELT@010948 SLETYMYC@CAELT@SABO SLET 011000Z@CAELT@METAR SLET 011000Z 12005KT 9999 FEW070 BKN200 22/20 Q1013 A2992 HR88@CAELT@NOSIG=@CAELT@
ZPX0162 010955@CAELT@GG SLZZYMYT@CAELT@010955 SLVRYGYZ@CAELT@SABO SLVR 011000@CAELT@METAR SLVR 011000Z 13004KT 9999 FEW025 SCT070 BKN200 21/19 Q1013@CAELT@A2992 HR88 NOSIG=@CAELT@
ZPX0163 010955@CAELT@GG SLZZYMYT@CAELT@010953 SLRBYGYS@CAELT@SABO SLRB 011000@CAELT@METAR SLRB 011000Z 00000KT 9999 BKN023 24/21 Q1014 A2994 HR83 RWY NML=@CAELT@
ZPX0164 010955@CAELT@GG SLZZYMYT@CAELT@010955 SLRQYSYX@CAELT@SABO SLRQ 011000@CAELT@METAR SLRQ 011000Z 00000KT 9999 BKN017 FEW023CB BKN070 23/23 Q1009@CAELT@A2982 HR99 CB/E/SE/NW=@CAELT@
ZPX0165 010956@CAELT@GG SLZZYMYT@CAELT@010955 SLSAYGYS@CAELT@SABO SLSA 011000@CAELT@METAR SLSA 011000Z 00000KT 9999 FEW017 SCT080 OVC200 24/23 Q1010@CAELT@A2983 HR94=@CAELT@
ZPX0166 010956@CAELT@GG SLZZYMYT@CAELT@010956 SLCBYGYZ@CAELT@SABO SLCB 011000@CAELT@METAR SLCB 011000Z 23004KT 9999 FEW033 SCT070 BKN200 15/09 Q1024@CAELT@A3025 751.0 HR66 FU NOSIG=@CAELT@
ZPX0167 010957@CAELT@GG SLZZYMYT@CAELT@010956 SLTRYGYZ@CAELT@SABO SLTR 011000@CAELT@METAR SLTR 011000Z 01003KT 9999 FEW020 BKN080 BKN200 24/22 Q1011@CAELT@A2986 992.8 HR90 NOSIG=@CAELT@
ZPX0168 010957@CAELT@GG SLZZYMYT@CAELT@010955 SLLPYGYZ@CAELT@SABO SLLP 011000@CAELT@METAR SLLP 011000Z 08006KT 1200E VCFG FEW002 SCT010 BKN200 04/03@CAELT@Q1037 A3063 627.5 HR99 P/INV VCFG NE/E/SE/W AC BECMG 3000E VCFG=@CAELT@
ZPX0169 010958@CAELT@GG SLZZYMYT@CAELT@010957 SLTJYGYZ@CAELT@SABO SLTJ 011000@CAELT@METAR SLTJ 011000Z 00000KT 9999 BKN020 17/15 Q1019 A3011 814.7 HR84@CAELT@AC CI=@CAELT@
ZPX0170 010958@CAELT@GG SLZZYMYT@CAELT@010956 SLLPYFYA@CAELT@SABO SLRY 011000@CAELT@METAR SLRY 011000Z 00000KT 7000 -TSRA SCT012 BKN020 FEW023CB OVC080@CAELT@23/23 Q1009 A2980 HR100 TS CB/N/NE/E/SE RWY HUM OPR=@CAELT@
ZPX0171 010959@CAELT@GG SLZZYMYT@CAELT@010958 SLUYYGYS@CAELT@SABO SLUY 011000@CAELT@METAR SLUY 011000Z VRB02KT 9999 SCT080 BKN200 06/M03 Q1033@CAELT@A3052 658.0 HR55=@CAELT@
ZPX0172 010959@CAELT@GG SLZZYMYT@CAELT@010958 SLCOYSYX@CAELT@SABO SLCO 011000@CAELT@METAR SLCO 011000Z 00000KT 9999 FEW020 SCT080 BKN200 24/23 Q1009@CAELT@A2982 982.4 HR94=@CAELT@
ZPX0173 010959@CAELT@GG SLZZYMYT@CAELT@010959 SLVRYFYC@CAELT@SABO SLVR 011000@CAELT@METAR SLVR 011000Z 13004KT 9999 FEW025 SCT070 BKN200 21/19 Q1013@CAELT@A2992 HR88 NOSIG=@CAELT@METAR SLET 011000Z 12005KT 9999 FEW070 BKN200 22/20 Q1013 A2992 HR88@CAELT@NOSIG=@CAELT@METAR SLCP 011000Z 00000KT 8000 -TSRA BKN017 FEW030CB OVC070 22/22Q1014 A2994 HR100 CB/TS ON STN SW/W RWY WET OPR=METAR SLSI 011000Z 00000KT 4000 -RA OVC010 23/23 Q1013 A2991 HR98 RWYWET OPR=METAR SLRB 011000Z 00000KT 9999 BKN023 24/21 Q1014 A2994 HR83 RWY NMLMETAR SLPS 011000Z 00000KT 9999 FEW010 SCT070 23/23 Q1012 A2989 HR100METAR SLCA 011000Z 00000KT 9999 BKN033 OVC070 20/18 Q1017 A3003 HR90RWY NML=
ZPX0175 011000@CAELT@GG SLZZYMYT@CAELT@010959 SLCBYGYS@CAELT@SABO SLCB 011000@CAELT@METAR SLCB 011000Z 23004KT 9999 FEW033 SCT070 BKN200 15/09 Q1024@CAELT@A3025 751.0 HR66 FU NOSIG=@CAELT@METAR SLAL 011000Z 00000KT 5000 VCFG SCT007 BKN200 10/09 Q1029 A3039@CAELT@702.9 HR92 VCFG NW/N=@CAELT@METAR SLTJ 011000Z 00000KT 9999 BKN020 17/15 Q1019 A3011 814.7 HR84AC CI=
ZPX0176 011001@CAELT@GG SLZZYMYT@CAELT@011000 SLLPYFYA@CAELT@SABO SLLP 011000@CAELT@METAR SLLP 011000Z 08006KT 1200E VCFG FEW002 SCT010 BKN200 04/03@CAELT@Q1037 A3063 627.5 HR99 P/INV VCFG NE/E/SE/W AC BECMG 3000E VCFG=@CAELT@METAR SLCO 011000Z 00000KT 9999 FEW020 SCT080 BKN200 24/23 Q1009@CAELT@A2982 982.4 HR94=@CAELT@METAR SLRY 011000Z 00000KT 7000 -TSRA SCT012 BKN020 FEW023CBOVC080 23/23 Q1009 A2980 HR100 TS CB/N/NE/E/SE RWY HUM OPR=METAR SLRQ 011000Z 00000KT 9999 BKN017 FEW023CB BKN070 23/23Q1009 A2982 HR99 CB/E/SE/NW=METAR SLAP 011000Z 00000KT 9999 BKN025 OVC070 18/17 Q1017 A3006858.5 HR91=METAR SLSB 011000Z 00000KT 1500 -RA BKN005 FEW0023CB OVC070 23/23Q1010 A2985 HR100 TS CB N RWY WET INOP=METAR SLUY 011000Z VRB02KT 9999 SCT080 BKN200 06/M03 Q1033A3052 658.0 HR55=
ZPX0177 011001@CAELT@GG SLZZYMYT@CAELT@011000 SLTRYGYS@CAELT@SABO SLTR 011000@CAELT@METAR SLTR 011000Z 01003KT 9999 FEW020 BKN080 BKN200 24/22 Q1011@CAELT@A2986 992.8 HR90 NOSIG=@CAELT@METAR SLGM 011000Z 00000KT 1000 BR FEW005 SCT080 BKN200 24/23@CAELT@Q1010 A2983 HR94=@CAELT@METAR SLRI 011000Z 36005KT 8000 FEW005 SCT010 BKN070 23/23 Q1011A2986 HR98 FU CI=METAR SLJO 011000Z 00000KT 9999 FEW023 BKN080 24/23 Q1009 A2982HR97 RWY NML=METAR SLRA 011000Z 00000KT 9999 BKN080 BKN200 24/23 Q1010 A2985HR95 RWY NML=METAR SLMG 011000Z 00000KT 9999 BKN080 BKN200 24/23 Q1010 A2983METAR SLBU 011000Z NIL=METAR SLSA 011000Z 00000KT 9999 FEW017 SCT080 OVC200 24/23 Q1010A2983 HR94=METAR SLSR 011000Z NIL=METAR SLSM 011000Z 00000KT 7000 VCSH SCT008 FEW023CB OVC070 24/23Q1010 A2985 HR98 CB/SH N/NE/NW RWY NML=
ZPX0195 011052@CAELT@GG SLZZYMYT@CAELT@011052 SLCAYGYS@CAELT@SABO SLCA 011100@CAELT@METAR SLCA 011100Z 00000KT 9999 BKN033 OVC070 19/18 Q1018 A3006 HR93@CAELT@RWY NML=@CAELT@
ZPX0198 011054@CAELT@GG SLZZYMYT@CAELT@011054 SLVRYGYZ@CAELT@SABO SLVR 011100@CAELT@METAR SLVR 011100Z 13005KT 9999 SCT025 SCT070 BKN200 23/19 Q1014@CAELT@A2995 HR82 SH W/NW NOSIG=@CAELT@
ZPX0199 011054@CAELT@GG SLZZYMYT@CAELT@011055 SLLPYFYA@CAELT@SABO SLRY 011100@CAELT@METAR SLRY 011100Z 36006KT 3000 - TSRA SCT012 BKN017 FEW023CB@CAELT@OVC070 22/22 Q1009 A2982 HR100 TS CB ON STN/NW/W/SW@CAELT@RWY WET OPR C206=@CAELT@
ZPX0200 011054@CAELT@GG SLZZYMYT@CAELT@011054 SLPSYGYS@CAELT@SABO SLPS 011100@CAELT@METAR SLPS 011100Z 00000KT 9999 FEW013 SCT070 24/23 Q1012 A2989 HR98=@CAELT@
ZPX0201 011054@CAELT@GG SLZZYMYT@CAELT@011055 SLORYGYZ@CAELT@SABO SLOR 011100@CAELT@METAR SLOR 011100Z 05003KT 9999 NSC 08/03 Q1035 A3057 656.1 HR73 FU N@CAELT@/NE/E/NW CI=@CAELT@
ZPX0202 011055@CAELT@GG SLZZYMYT@CAELT@011053 SLRBYGYS@CAELT@SABO SLRB 011100@CAELT@METAR SLRB 011100Z 00000KT 9999 SCT023 BKN200 26/20 Q1015 A2997 HR72@CAELT@RWY NML=@CAELT@
ZPX0203 011055@CAELT@GG SLZZYMYT@CAELT@011054 SLETYMYC@CAELT@SABO SLET 011100Z@CAELT@METAR SLET 011100Z 10005KT 9999 SCT070 BKN200 23/20 Q1014 A2997 HR82@CAELT@SH W NW NOSIG=@CAELT@
ZPX0204 011055@CAELT@GG SLZZYMYT@CAELT@011055 SLSBYSYX@CAELT@SABO SLSB 011100@CAELT@METAR SLSB 011100Z 00000KT 3000 -TSRA BKN005 FEW025CB OVC070 22/22@CAELT@Q1011 A2988 HR100 TS CB NW N RWY WET INOP=@CAELT@
ZPX0205 011055@CAELT@GG SLZZYMYT@CAELT@011055 SLRQYSYX@CAELT@SABO SLRQ 011100@CAELT@METAR SLRQ 011100Z 09006KT 6000 -TSRA BKN008 FEW020CB OVC070 23/23@CAELT@Q1012 A2990 HR99 CB/TS/N/NE/E/SE=@CAELT@
ZPX0206 011055@CAELT@GG SLZZYMYT@CAELT@011055 SLLPYGYZ@CAELT@SABO SLLP 011100@CAELT@METAR SLLP 011100Z 08004KT 4000E VCFG FEW002 SCT012 BKN200 04/04@CAELT@Q1037 A3065 627.9 HR99 P92// VCFG NE/E/W AC NOSIG=@CAELT@
ZPX0209 011056@CAELT@GG SLZZYMYT@CAELT@011055 SLSAYGYS@CAELT@SABO SLSA 011100@CAELT@METAR SLSA 011100Z 00000KT 9999 FEW017 SCT080 OVC200 24/23 Q1011@CAELT@A2986 HR94=@CAELT@
ZPX0210 011056@CAELT@GG SLZZYMYT@CAELT@011054 SLUYYGYS@CAELT@SABO SLUY 011100@CAELT@METAR SLUY 011100Z 02006KT 9999 SCT080 BKN200 10/04 Q1034@CAELT@A3054 658.4 HR69=@CAELT@
ZPX0211 011056@CAELT@GG SLZZYMYT@CAELT@011056 SLCOYSYX@CAELT@SABO SLCO 011100@CAELT@METAR SLCO 011100Z 03004KT 9999 FEW080 BKN200 25/23 Q1012 A2989 984.9@CAELT@HR89=@CAELT@
ZPX0212 011056@CAELT@GG SLZZYMYT@CAELT@011055 SLAGYSYX@CAELT@SABO SLAG 011100@CAELT@METAR SLAG 011100Z 00000KT 9999 FEW005 SCT010 BKN070 20/19 Q1019@CAELT@A3009 890.9 HR92 ST BAJOS W/NW CI=@CAELT@
ZPX0213 011056@CAELT@GG SLZZYMYT@CAELT@011056 SLTJYGYZ@CAELT@SABO SLTJ 011100@CAELT@METAR SLTJ 011100Z 00000KT 9999 SCT020 18/15 Q1020 A3013 815.1 HR83@CAELT@
ZPX0217 011057@CAELT@GG SLZZYMYT@CAELT@011057 SLCBYGYZ@CAELT@SABO SLCB 011100@CAELT@METAR SLCB 011100Z 13003KT 9999 FEW033 SCT080 BKN200 16/09 Q1025@CAELT@A3027 751.5 HR64 FU NOSIG=@CAELT@
ZPX0219 011059@CAELT@GG SLZZYMYT@CAELT@011059 SLVRYFYC@CAELT@SABO SLVR 011100@CAELT@METAR SLVR 011100Z 13005KT 9999 SCT025 SCT070 BKN200 23/19 Q1014@CAELT@A2995 HR82 SH W/NW NOSIG=@CAELT@METAR SLET 011100Z 10005KT 9999 SCT070 BKN200 23/20 Q1014 A2997 HR82@CAELT@SH W NW NOSIG=@CAELT@METAR SLAS 011100Z 00000KT 2500 -TSRA OVC013 FEW027CB 21/20 Q1016A3000 HR95 CB/TS/ON STN/E/SE/S/W RWY WET INOP=METAR SLJV 011100Z 00000KT 5000 MSRA OVC012 21/21 Q1014 A2994 HR99RWY WET OP=METAR SLCP 011100Z 00000KT 7000 -TSRA SCT006 BKN015 FEW030CB OVC07022/22 Q1016 A3000 HR100 CB/TS/ON STN/S/SW RWY WET OPR=METAR SLSI 011100Z 19005KT 5000 -RA OVC010 22/22 Q1014 A2994 HR98 RWYWET OPR=METAR SLTI 011100Z 00000KT 9999 BKN070 27/22 Q1016 A3000 HR73 RWY NMLMETAR SLJE 011100Z 32006KT 9999 FEW013 OVC070 25/23 Q1016 A3000 HR87RWY NML=METAR SLRB 011100Z 00000KT 9999 SCT023 BKN200 26/20 Q1015 A2997 HR72METAR SLPS 011100Z 00000KT 9999 FEW013 SCT070 24/23 Q1012 A2989 HR98=METAR SLCA 011100Z 00000KT 9999 BKN033 OVC070 19/18 Q1018 A3006 HR93
ZPX0220 011059@CAELT@GG SLZZYMYT@CAELT@011056 SLTRYGYZ@CAELT@SABO SLTR 011100@CAELT@METAR SLTR 011100Z 02005KT 9999 FEW015 FEW020CB BKN080 BKN200 24/23@CAELT@Q1012 A2989 993.7 HR93 CB SE NOSIG=@CAELT@
ZPX0222 011101@CAELT@GG SLZZYMYT@CAELT@011059 SLTRYGYS@CAELT@SABO SLTR 011100@CAELT@METAR SLTR 011100Z 02005KT 9999 FEW015 FEW020CB BKN080 BKN200 24/23@CAELT@Q1012 A2989 993.7 HR93 CB SE NOSIG=@CAELT@METAR SLGM 011100Z 00000KT 3000 BR FEW005 SCT080 BKN200 24/23@CAELT@Q1011 A2985 HR95=@CAELT@METAR SLRI 011100Z 33005KT 8000 SCT010 BKN070 BKN200 24/23 Q1012A2989 HR95 FU=METAR SLJO 011100Z 00000KT 9999 BKN080 BKN200 24/23 Q1010 A2984HR96 RWY NML=METAR SLRA 011100Z 00000KT 9999 BKN080 BKN200 25/24 Q1011 A2986HR94 RWY NML=METAR SLMG 011100Z 00000KT 9999 BKN080 BKN200 24/23 Q1010 A2983HR97 RWY NML=METAR SLBU 011100Z NIL=METAR SLSA 011100Z 00000KT 9999 FEW017 SCT080 OVC200 24/23 Q1011A2986 HR94=METAR SLSR 011100Z 00000KT 1000 +RA BKN008 FEW020CB OVC070 20/20Q1009 A2982 HR100 CB S/SW RWY WET INOP=METAR SLSM 011100Z 00000KT 2000 VCSH SCT008 FEW023CB OVC070 24/23Q1011 A2987 HR98 CB/SH N/NE/NW RWY NML=
ZPX0223 011101@CAELT@GG SLZZYMYT@CAELT@011100 SLLPYFYA@CAELT@SABO SLLP 011100@CAELT@METAR SLLP 011100Z 08004KT 4000E VCFG FEW002 SCT012 BKN200 04/04@CAELT@Q1037 A3065 627.9 HR99 P92// VCFG NE/E/W AC NOSIG=@CAELT@METAR SLCO 011100Z 03004KT 9999 FEW080 BKN200 25/23 Q1012 A2989 984.9@CAELT@HR89=@CAELT@METAR SLRY 011100Z 36006KT 3000 - TSRA SCT012 BKN017 FEW023CBOVC070 22/22 Q1009 A2982 HR100 TS CB ON STN/NW/W/SWRWY WET OPR C206=METAR SLRQ 011100Z 09006KT 6000 -TSRA BKN008 FEW020CB OVC070 23/23Q1012 A2990 HR99 CB/TS/N/NE/E/SE=METAR SLAP 011100Z 00000KT 9999 SCT025 OVC070 18/17 Q1017 A3006 858.5HR96=METAR SLSB 011100Z 00000KT 3000 -TSRA BKN005 FEW025CB OVC070 22/22Q1011 A2988 HR100 TS CB NW N RWY WET INOP=METAR SLOR 011100Z 05003KT 9999 NSC 08/03 Q1035 A3057 656.1 HR73 FU N/NE/E/NW CI=METAR SLUY 011100Z 02006KT 9999 SCT080 BKN200 10/04 Q1034A3054 658.4 HR69=
ZPX0228 011103@CAELT@GG SLZZYMYT@CAELT@011103 SLCBYGYS@CAELT@SABO SLCB 011100@CAELT@METAR SLCB 011100Z 13003KT 9999 FEW033 SCT080 BKN200 16/09 Q1025@CAELT@A3027 751.5 HR64 FU NOSIG=@CAELT@METAR SLAL 011100Z 01007KT 9999 SCT007 BKN200 11/08 Q1030 A3042 704.4@CAELT@HR87 AC=@CAELT@METAR SLPO 011100Z 00000KT 9999 NSC 08/05 Q1037 A3062 637.4 HR81 CI=METAR SLAG 011100Z 00000KT 9999 FEW005 SCT010 BKN070 20/19 Q1019A3009 890.9 HR92 ST BAJOS W/NW CI=METAR SLVM 011100Z 00000KT 9999 BKN020 OVC070 21/20 Q1014 A2996 HR92=METAR SLTJ 011100Z 00000KT 9999 SCT020 18/15 Q1020 A3013 815.1 HR83METAR SLYA 011100Z 00000KT 2000 BR BKN003 OVC070 19/19 Q1015 A2998939.9 HR98=METAR SLBJ 011100Z NIL=METAR SLHI 011100Z NIL=
ZPX0235 011112@CAELT@GG SLZZYMYT@CAELT@011111 SLTRYGYS@CAELT@SABO SLTR 011100 CCA@CAELT@METAR SLTR 011100Z 02005KT 9999 FEW015 FEW020CB BKN080 BKN200 24/23@CAELT@Q1012 A2989 993.7 HR93 CB SE NOSIG=@CAELT@METAR SLGM 011100Z 00000KT 3000 BR FEW005 SCT080 BKN200 24/23@CAELT@Q1011 A2985 HR95=@CAELT@METAR SLRI 011100Z 33005KT 8000 SCT010 BKN070 BKN200 24/23 Q1012A2989 HR95 FU=METAR SLJO 011100Z 00000KT 9999 BKN080 BKN200 24/23 Q1010 A2984HR96 RWY NML=METAR SLRA 011100Z 00000KT 9999 BKN080 BKN200 25/24 Q1011 A2986HR94 RWY NML=METAR SLMG 011100Z 00000KT 9999 BKN080 BKN200 24/23 Q1010 A2983HR97 RWY NML=METAR SLBU 011100Z NIL=METAR SLSA 011100Z 00000KT 9999 FEW017 SCT080 OVC200 24/23 Q1011A2986 HR94=METAR SLSR 011100Z 00000KT 1000 +RA BKN008 FEW020CB OVC070 20/20Q1009 A2982 HR100 CB S/SW RWY WET INOP=METAR SLSM COR 011100Z 00000KT 8000 VCSH SCT008 FEW023CB OVC070 24/23Q1011 A2987 HR98 CB/SH N/NE/NW RWY NML=
ZPX0245 011135@CAELT@GG SLZZYMYT@CAELT@011135 SLVRYFYC@CAELT@SABO SLVR 011100 CCA@CAELT@METAR SLVR 011100Z 13005KT 9999 SCT025 SCT070 BKN200 23/19 Q1014@CAELT@A2995 HR82 SH W/NW NOSIG=@CAELT@METAR SLET 011100Z 10005KT 9999 SCT070 BKN200 23/20 Q1014 A2997 HR82@CAELT@SH W NW NOSIG=@CAELT@METAR SLAS 011100Z 00000KT 2500 -TSRA OVC013 FEW027CB 21/20 Q1016A3000 HR95 CB/TS/ON STN/E/SE/S/W RWY WET INOP=METAR COR SLJV 011100Z 00000KT 5000 -RA OVC012 21/21 Q1014 A2994 HR99RWY WET OP=METAR SLCP 011100Z 00000KT 7000 -TSRA SCT006 BKN015 FEW030CB OVC07022/22 Q1016 A3000 HR100 CB/TS/ON STN/S/SW RWY WET OPR=METAR SLSI 011100Z 19005KT 5000 -RA OVC010 22/22 Q1014 A2994 HR98 RWYWET OPR=METAR SLTI 011100Z 00000KT 9999 BKN070 27/22 Q1016 A3000 HR73 RWY NMLMETAR SLJE 011100Z 32006KT 9999 FEW013 OVC070 25/23 Q1016 A3000 HR87RWY NML=METAR SLRB 011100Z 00000KT 9999 SCT023 BKN200 26/20 Q1015 A2997 HR72METAR SLPS 011100Z 00000KT 9999 FEW013 SCT070 24/23 Q1012 A2989 HR98=METAR SLCA 011100Z 00000KT 9999 BKN033 OVC070 19/18 Q1018 A3006 HR93
ZPX0259 011152@CAELT@GG SLZZYMYT@CAELT@011152 SLPSYGYS@CAELT@SABO SLPS 011200@CAELT@METAR SLPS 011200Z 00000KT 9999 FEW017 SCT070 26/25 Q1013 A2992 HR94=@CAELT@
ZPX0261 011154@CAELT@GG SLZZYMYT@CAELT@011133 SLETYMYC@CAELT@SABO SLET 011200Z@CAELT@METAR SLET 011200Z 10006KT 9999 SCT025 OVC070 23/20 Q1016 A3000 HR84@CAELT@NOSIG=@CAELT@
ZPX0262 011154@CAELT@GG SLZZYMYT@CAELT@011154 SLSAYGYS@CAELT@SABO SLSA 011200@CAELT@METAR SLSA 011200Z 00000KT 9999 SCT015 SCT080 OVC200 25/23 Q1011@CAELT@A2987 HR92=@CAELT@
ZPX0263 011154@CAELT@GG SLZZYMYT@CAELT@011155 SLVRYGYZ@CAELT@SABO SLVR 011200@CAELT@METAR SLVR 011200Z 14006KT 9999 BKN025 OVC070 24/20 Q1016 A3000 HR82@CAELT@TEMPO SHRA=@CAELT@
ZPX0265 011155@CAELT@GG SLZZYMYT@CAELT@011154 SLORYGYZ@CAELT@SABO SLOR 011200@CAELT@METAR SLOR 011200Z 36004KT 9999 FEW017 SCT200 11/04 Q1035 A3058 656.3@CAELT@HR63 FU SE/S/SW=@CAELT@
ZPX0266 011155@CAELT@GG SLZZYMYT@CAELT@011155 SLRQYSYX@CAELT@SABO SLRQ 011200@CAELT@METAR SLRQ 011200Z 00000KT 4000 -RA SCT008 BKN017 OVC070 22/22 Q1013@CAELT@A2992 HR99 RETS=@CAELT@
ZPX0270 011156@CAELT@GG SLZZYMYT@CAELT@011154 SLRBYGYS@CAELT@SABO SLRB 011200@CAELT@METAR SLRB 011200Z 00000KT 9999 SCT023 BKN200 27/23 Q1016 A3000 HR77@CAELT@RWY NML=@CAELT@
ZPX0271 011156@CAELT@GG SLZZYMYT@CAELT@011156 SLCBYGYZ@CAELT@SABO SLCB 011200@CAELT@METAR SLCB 011200Z 12005KT 9999 FEW033 BKN200 20/07 Q1025 A3029 751.9@CAELT@HR44 AC FU NOSIG=@CAELT@
ZPX0272 011156@CAELT@GG SLZZYMYT@CAELT@011155 SLUYYGYS@CAELT@SABO SLUY 011200@CAELT@METAR SLUY 011200Z 35011KT 9999 FEW015 BKN200 11/05 Q1034@CAELT@A3054 658.6 HR65 AC=@CAELT@
ZPX0273 011156@CAELT@GG SLZZYMYT@CAELT@011156 SLCOYSYX@CAELT@SABO SLCO 011200@CAELT@METAR SLCO 011200Z 35004KT 9999 FEW004 BKN080 25/23 Q1012 A2989 984.6@CAELT@HR88 CI=@CAELT@
ZPX0274 011156@CAELT@GG SLZZYMYT@CAELT@011155 SLLPYGYZ@CAELT@SABO SLLP 011200@CAELT@METAR SLLP 011200Z VRB02KT 4000E VCFG FEW003 SCT012 BKN200 07/06@CAELT@Q1038 A3067 628.3 HR90 P92// VCFG NE/E/SE AC NOSIG=@CAELT@
ZPX0275 011157@CAELT@GG SLZZYMYT@CAELT@011155 SLAGYSYX@CAELT@SABO SLAG 011200@CAELT@METAR SLAG 011200Z 00000KT 9999 SCT010 BKN200 21/18 Q1019 A3012 891.7@CAELT@HR81 AC=@CAELT@
ZPX0276 011157@CAELT@GG SLZZYMYT@CAELT@011157 SLCAYGYS@CAELT@SABO SLCA 011200@CAELT@METAR SLCA 011200Z 00000KT 9999 BKN033 BKN070 21/18 Q1018 A3009 HR83@CAELT@RWY NML=@CAELT@
ZPX0280 011158@CAELT@GG SLZZYMYT@CAELT@011157 SLSBYSYX@CAELT@SABO SLSB 011200@CAELT@METAR SLSB 011200Z 00000KT 5000 -RA BKN005 OVC070 23/23 Q1012 A2990@CAELT@HR98 RETS RWY WET INOP=@CAELT@
ZPX0281 011158@CAELT@GG SLZZYMYT@CAELT@011158 SLTJYGYZ@CAELT@SABO SLTJ 011200@CAELT@METAR SLTJ 011200Z 15005KT 9999 BKN020 18/14 Q1020 A3014 815.6 HR80@CAELT@
ZPX0282 011159@CAELT@GG SLZZYMYT@CAELT@011159 SLLPYFYA@CAELT@SABO SLRY 011200@CAELT@METAR SLRY 011200Z 00000KT 6000 - RA FEW012 SCT023CB OVC080 22/22@CAELT@Q1011 A2986 HR97 RETS RWY WET OPR C206=@CAELT@
ZPX0283 011159@CAELT@GG SLZZYMYT@CAELT@011158 SLTRYGYZ@CAELT@SABO SLTR 011200@CAELT@METAR SLTR 011200Z 06005KT 7000 VCSH FEW015 FEW020CB SCT080 BKN200@CAELT@24/23 Q1012 A2991 994.4 HR94 CB/SH SE/S TEMPO SHRA=@CAELT@
ZPX0284 011200@CAELT@GG SLZZYMYT@CAELT@011200 SLVRYFYC@CAELT@SABO SLVR 011200@CAELT@METAR SLVR 011200Z 14006KT 9999 BKN025 OVC070 24/20 Q1016 A3000 HR82@CAELT@TEMPO SHRA=@CAELT@METAR SLET 011200Z 10006KT 9999 SCT025 OVC070 23/20 Q1016 A3000 HR84@CAELT@NOSIG=@CAELT@METAR SLAS 011200Z 00000KT 2500 -TSRA OVC013 FEW027CB 22/21 Q1017A3003 HR97 CB/TS/S/SW RWY WET INOP=METAR SLJV 011200Z 00000KT 5000 -RA BKN012 OVC070 21/20 Q1014 A2994HR95 RWY WET OPR=METAR SLCP 011200Z 18005KT 6000 -TSRA SCT006 BKN017 FEW030CB OVC07022/22 Q1017 A3003 HR100 CB/TS S/SW RWY WET OPR=METAR SLSI 011200Z 36008KT 9999 BKN012 OVC070 22/21 Q1013 A2991 HR95RERA RWY WET OPR=METAR SLTI 011200Z 00000KT 9999 BKN070 28/22 Q1016 A3000 HR67 RWY NMLMETAR SLJE 011200Z 00000KT 9999 SCT013 OVC070 26/22 Q1016 A3000 HR80RWY NML=METAR SLVG 011200Z 36004KT 9999 BKN015 17/15 Q1026 A3030 HR86 RWY NMLMETAR SLRB 011200Z 00000KT 9999 SCT023 BKN200 27/23 Q1016 A3000 HR77METAR SLPS 011200Z 00000KT 9999 FEW017 SCT070 26/25 Q1013 A2992 HR94=METAR SLCA 011200Z 00000KT 9999 BKN033 BKN070 21/18 Q1018 A3009 HR83
ZPX0285 011200@CAELT@GG SLZZYMYT@CAELT@011200 SLLPYFYA@CAELT@SABO SLLP 011200@CAELT@METAR SLLP 011200Z VRB02KT 4000E VCFG FEW003 SCT012 BKN200 07/06@CAELT@Q1038 A3067 628.3 HR90 P92// VCFG NE/E/SE AC NOSIG=@CAELT@METAR SLCO 011200Z 35004KT 9999 FEW004 BKN080 25/23 Q1012 A2989@CAELT@984.6 HR88 CI=@CAELT@METAR SLRY 011200Z 00000KT 6000 - RA FEW012 SCT023CB OVC080 22/22Q1011 A2986 HR97 RETS RWY WET OPR C206=METAR SLRQ 011200Z 00000KT 4000 -RA SCT008 BKN017 OVC070 22/22Q1013 A2992 HR99 RETS=METAR SLAP 011200Z 00000KT 9999 FEW025 OVC070 18/18 Q1018 A3009859.4 HR96=METAR SLSB 011200Z 00000KT 5000 -RA BKN005 OVC070 23/23 Q1012 A2990HR98 RETS RWY WET INOP=METAR SLOR 011200Z 36004KT 9999 FEW017 SCT200 11/04 Q1035 A3058656.3 HR63 FU SE/S/SW=METAR SLUY 011200Z 35011KT 9999 FEW015 BKN200 11/05 Q1034A3054 658.6 HR65 AC=
ZPX0286 011201@CAELT@GG SLZZYMYT@CAELT@011200 SLCBYGYS@CAELT@SABO SLCB 011200@CAELT@METAR SLCB 011200Z 12005KT 9999 FEW033 BKN200 20/07 Q1025 A3029 751.9@CAELT@HR44 AC FU NOSIG=@CAELT@METAR SLAL 011200Z 35005KT 9999 SCT010 BKN200 12/09 Q1031 A3045 705.0@CAELT@HR79=@CAELT@METAR SLPO 011200Z 00000KT 9999 NSC 10/05 Q1037 A3064 637.8 HR72 CI=METAR SLVM 011200Z 00000KT 9999 BKN020 OVC070 22/20 Q1015 A2999 HR89=METAR SLAG 011200Z 00000KT 9999 SCT010 BKN200 21/18 Q1019 A3012 891.7HR81 AC=METAR SLTJ 011200Z 15005KT 9999 BKN020 18/14 Q1020 A3014 815.6 HR80METAR SLYA 011200Z 00000KT 5000 BKN005 BKN018 22/19 Q1015 A2999 940.2HR88 VIS RED ST BAJOS=METAR SLBJ 011200Z NIL=METAR SLHI 011200Z NIL=
ZPX0288 011201@CAELT@GG SLZZYMYT@CAELT@011200 SLTRYGYS@CAELT@SABO SLTR 011200@CAELT@METAR SLTR 011200Z 06005KT 7000 VCSH FEW015 FEW020CB SCT080 BKN200@CAELT@24/23 Q1012 A2991 994.4 HR94 CB/SH SE/S TEMPO SHRA=@CAELT@METAR SLGM 011200Z 02005KT 9999 FEW010 SCT080 BKN200 27/23 Q1011@CAELT@A2987 HR84=@CAELT@METAR SLRI 011200Z 32005KT 8000 SCT010 BKN200 25/24 Q1013 A2992 HR95FU AC=METAR SLJO 011200Z 32003KT 9999 BKN080 OVC200 25/24 Q1010 A2985HR92 RWY NML=METAR SLRA 011200Z 12003KT 9999 BKN080 BKN200 25/24 Q1011 A2987HR94 RWY NML=METAR SLMG 011200Z 00000KT 9999 FEW008 BKN080 BKN200 25/23 Q1010A2985 HR92 RWY NML=METAR SLBU 011200Z 32006KT 9999 FEW008 BKN080 24/23 Q1011 A2986HR94 RWY HUM OPR=METAR SLSA 011200Z 00000KT 9999 SCT015 SCT080 OVC200 25/23 Q1011A2987 HR92=METAR SLSR 011200Z 32006KT 5000 -RA BKN010 FEW020CB OVC070 24/23Q1012 A2989 HR89 CB S/SW/W RWY WET INOP=METAR SLSM 011200Z 00000KT 8000 SCT008 FEW023CB OVC070 24/24 Q1012A2990 HR98 CB/SH N/SW/WNW RWY NML=
ZPX0311 011253@CAELT@GG SLZZYMYT@CAELT@011252 SLPSYGYS@CAELT@SABO SLPS 011300@CAELT@METAR SLPS 011300Z 09004KT 9999 FEW017 SCT070 BKN200 27/25 Q1013@CAELT@A2992 HR86=@CAELT@
ZPX0312 011253@CAELT@GG SLZZYMYT@CAELT@011250 SLETYMYC@CAELT@SABO SLET 011300Z@CAELT@METAR SLET 011300Z 09004KT 4000 -RA SCT010 BKN013 OVC070 23/21 Q1017@CAELT@A3003 HR89 NOSIG=@CAELT@
ZPX0313 011255@CAELT@GG SLZZYMYT@CAELT@011254 SLSAYGYS@CAELT@SABO SLSA 011300@CAELT@METAR SLSA 011300Z 00000KT 9999 SCT015 FEW023CB SCT080 OVC200 26/24@CAELT@Q1012 A2989 HR85 CB E=@CAELT@
ZPX0314 011255@CAELT@GG SLZZYMYT@CAELT@011254 SLSAYGYS@CAELT@SABO SLSA 011300@CAELT@METAR SLSA 011300Z 00000KT 9999 SCT015 FEW023CB SCT080 OVC200 26/24@CAELT@Q1012 A2989 HR85 CB E=@CAELT@
ZPX0316 011255@CAELT@GG SLZZYMYT@CAELT@011248 SLUYYGYS@CAELT@SABO SLUY 011300@CAELT@METAR SLUY 011300Z 01012KT 9999 FEW017 BKN200 13/04 Q1034@CAELT@A3056 658.8 HR54=@CAELT@
ZPX0317 011255@CAELT@GG SLZZYMYT@CAELT@011254 SLRBYGYS@CAELT@SABO SLRB 011300@CAELT@METAR SLRB 011300Z 00000KT 9999 SCT023 BKN200 29/24 Q1017 A3003 HR73@CAELT@RWY NML=@CAELT@
ZPX0318 011256@CAELT@GG SLZZYMYT@CAELT@011255 SLTJYGYZ@CAELT@SABO SLTJ 011300@CAELT@METAR SLTJ 011300Z 24004KT 9999 SCT023 SCT070 20/15 Q1021 A3016 816.1@CAELT@HR71=@CAELT@
ZPX0319 011256@CAELT@GG SLZZYMYT@CAELT@011255 SLSBYSYX@CAELT@SABO SLSB 011300@CAELT@METAR SLSB 011300Z 00000KT 5000 -RA BKN007 OVC070 23/23 Q1014 A2994@CAELT@HR98 RWY WET INOP=@CAELT@
ZPX0320 011256@CAELT@GG SLZZYMYT@CAELT@011255 SLLPYGYZ@CAELT@SABO SLLP 011300@CAELT@METAR SLLP 011300Z 12004KT 6000 FEW006 BKN200 10/07 Q1038 A3067@CAELT@628.4 HR80 P0082// VIS/RED/SC NE/E/SE AC NOSIG=@CAELT@
ZPX0321 011256@CAELT@GG SLZZYMYT@CAELT@011256 SLCBYGYZ@CAELT@SABO SLCB 011300@CAELT@METAR SLCB 011300Z 16006KT 9999 FEW033 FEW036CB BKN200 22/08 Q1026@CAELT@A3031 752.4 HR40 CB DIST NE AC FU NOSIG=@CAELT@
ZPX0322 011257@CAELT@GG SLZZYMYT@CAELT@011256 SLLPYFYA@CAELT@SABO SLRY 011300@CAELT@METAR SLRY 011300Z 00000KT 9999 -RA BKN033 OVC080 22/22 Q1011 A2988@CAELT@HR97 RWY WET OPR C206=@CAELT@
ZPX0323 011257@CAELT@GG SLZZYMYT@CAELT@011255 SLRQYSYX@CAELT@SABO SLRQ 011300@CAELT@METAR SLRQ 011300Z 00000KT 4000 -RA SCT023 OVC070 22/22 Q1014 A2995@CAELT@HR99=@CAELT@
ZPX0324 011257@CAELT@GG SLZZYMYT@CAELT@011257 SLCAYGYS@CAELT@SABO SLCA 011300@CAELT@METAR SLCA 011300Z 00000KT 9999 BKN030 OVC070 22/18 Q1019 A3009 HR77@CAELT@RWY NML=@CAELT@
ZPX0325 011257@CAELT@GG SLZZYMYT@CAELT@011256 SLTRYGYZ@CAELT@SABO SLTR 011300@CAELT@METAR SLTR 011300Z 06003KT 7000 -RA FEW015 FEW020CB BKN070 24/24@CAELT@Q1013 A2993 994.9 HR97 CB SE/S NOSIG=@CAELT@
ZPX0327 011258@CAELT@GG SLZZYMYT@CAELT@011257 SLAGYSYX@CAELT@SABO SLAG 011300@CAELT@METAR SLAG 011300Z 00000KT 9999 BKN010 SCT070 BKN200 22/18 Q1020@CAELT@A3014 892.3 HR79=@CAELT@
ZPX0328 011258@CAELT@GG SLZZYMYT@CAELT@011258 SLORYGYZ@CAELT@SABO SLOR 011300@CAELT@METAR SLOR 011300Z 33004KT 9999 FEW017 SCT200 13/04 Q1035 A3059 656.5@CAELT@HR52=@CAELT@
ZPX0329 011258@CAELT@GG SLZZYMYT@CAELT@011258 SLCOYSYX@CAELT@SABO SLCO 011300@CAELT@METAR SLCO 011300Z 01005KT 9999 FEW008 BKN080 26/24 Q1012 A2991 985.3@CAELT@HR86 CI=@CAELT@
ZPX0330 011259@CAELT@GG SLZZYMYT@CAELT@011258 SLVRYGYZ@CAELT@SABO SLVR 011300@CAELT@METAR SLVR 011300Z 10009KT 7000 -RA SCT008 BKN020 OVC070 23/21 Q1017@CAELT@A3004 HR89 TEMPO 5000=@CAELT@
ZPX0331 011259@CAELT@GG SLZZYMYT@CAELT@011258 SLTRYGYS@CAELT@SABO SLTR 011300@CAELT@METAR SLTR 011300Z 06003KT 7000 -RA FEW015 FEW020CB BKN070 24/24@CAELT@Q1013 A2993 994.9 HR97 CB SE/S NOSIG=@CAELT@METAR SLGM 011300Z 32004KT 9999 SCT015 SCT080 28/24 Q1012 A2991@CAELT@HR79=@CAELT@METAR SLRI 011300Z 36005KT 9999 FEW010 SCT070 26/24 Q1014 A2995HR89 FU CI=METAR SLJO 011300Z 32003KT 9999 FEW020 OVC080 27/24 Q1011 A2988HR86 RWY NML=METAR SLRA 011300Z 12003KT 9999 FEW015 BKN080 BKN200 26/24 Q1012A2989 HR86 RWY NML=METAR SLMG 011300Z 00000KT 9999 FEW008 BKN080 26/24 Q1011 A2988HR88 RWY NML=METAR SLBU 011300Z 36004KT 9999 SCT012 BKN080 26/24 Q1011 A2987HR89 RWY HUM OPR=METAR SLSA 011300Z 00000KT 9999 SCT015 FEW023CB SCT080 OVC20026/24 Q1012 A2989 HR85 CB E=METAR SLSR 011300Z 32006KT 7000 -RA BKN010 FEW023CB OVC070 26/23Q1013 A2991 HR84 CB SW/W/NW RWY WET INOP=METAR SLSM 011300Z 33006KT 8000 VCSH FEW008 SCT015 FEW023CB OVC07025/24 Q1013 A2991 HR93 CB/SH N/W/NW RWY NML=
ZPX0332 011259@CAELT@GG SLZZYMYT@CAELT@011259 SLLPYFYA@CAELT@SABO SLLP 011300@CAELT@METAR SLLP 011300Z 12004KT 6000 FEW006 BKN200 10/07 Q1038 A3067@CAELT@628.4 HR80 P0082// VIS/RED/SC NE/E/SE AC NOSIG=@CAELT@METAR SLCO 011300Z 01005KT 9999 FEW008 BKN080 26/24 Q1012 A2991@CAELT@985.3 HR86 CI=@CAELT@METAR SLRY 011300Z 00000KT 9999 -RA BKN033 OVC080 22/22 Q1011 A2988HR97 RWY WET OPR C206=METAR SLRQ 011300Z 00000KT 4000 -RA SCT023 OVC070 22/22 Q1014 A2995HR99=METAR SLAP 011300Z 00000KT 9999 FEW030 OVC070 19/18 Q1019 A3010859.8 HR91=METAR SLSB 011300Z 00000KT 5000 -RA BKN007 OVC070 23/23 Q1014 A2994HR98 RWY WET INOP=METAR SLOR 011300Z 33004KT 9999 FEW017 SCT200 13/04 Q1035 A3059656.5 HR52=METAR SLUY 011300Z 01012KT 9999 FEW017 BKN200 13/04 Q1034 A3056 658.8HR54=
ZPX0334 011300@CAELT@GG SLZZYMYT@CAELT@011300 SLVRYFYC@CAELT@SABO SLVR 011300@CAELT@METAR SLVR 011300Z 10009KT 7000 -RA SCT008 BKN020 OVC070 23/21 Q1017@CAELT@A3004 HR89 TEMPO 5000=@CAELT@METAR SLET 011300Z 09004KT 4000 -RA SCT010 BKN013 OVC070 23/21 Q1017@CAELT@A3003 HR89 NOSIG=@CAELT@METAR SLAS 011300Z 00000KT 5000 -RA BKN015 FEW030CB OVC07022/22 Q1017 A3003 HR98 CB/N/S RETS RWY WET INOP=METAR SLJV 011300Z 00000KT 5000 -RA BKN012 OVC070 21/21 Q1015A2997 HR100 RWY WET OPR=METAR SLCP 011300Z 00000KT 9000 -RA FEW008 BKN020 OVC070 22/22Q1017 A3003 HR100 RETS RWY WET OPR=METAR SLSI 011300Z 00000KT 9999 SCT013 OVC070 24/22 Q1014 A2994HR87 RWY NML=METAR SLTI 011300Z 00000KT 9999 SCT070 BKN200 30/22 Q1018 A3006HR65 RWY NML=METAR SLJE 011300Z 17005KT 9999 SCT013 OVC070 26/22 Q1017 A3003HR77 RWY NML=METAR SLVG 011300Z 36005KT 9999 BKN017 17/15 Q1026 A3030 HR81 RWY NMLMETAR SLRB 011300Z 00000KT 9999 SCT023 BKN200 29/24 Q1017 A3003HR73 RWY NML=METAR SLPS 011300Z 09004KT 9999 FEW017 SCT070 BKN200 27/25 Q1013A2992 HR86=METAR SLCA 011300Z 00000KT 9999 BKN030 OVC070 22/18 Q1019 A3009
ZPX0337 011303@CAELT@GG SLZZYMYT@CAELT@011302 SLCBYGYS@CAELT@SABO SLCB 011300@CAELT@METAR SLCB 011300Z 16006KT 9999 FEW033 FEW036CB BKN200 22/08 Q1026@CAELT@A3031 752.4 HR40 CB DIST NE AC FU NOSIG=@CAELT@METAR SLAL 011300Z 33007KT 9999 SCT013 SCT200 14/08 Q1031 A3047 705.5@CAELT@HR65=@CAELT@METAR SLPO 011300Z 06003KT 9999 FEW015 SCT200 12/06 Q1038 A3066 638.3HR68=METAR SLAG 011300Z 00000KT 9999 BKN010 SCT070 BKN200 22/18 Q1020A3014 892.3 HR79=METAR SLVM 011300Z 00000KT 9999 BKN020 OVC070 22/20 Q1016 A3001 HR87=METAR SLTJ 011300Z 24004KT 9999 SCT023 SCT070 20/15 Q1021 A3016 816.1HR71=METAR SLYA 011300Z 04008KT 9999 FEW010 BKN018 OVC070 23/21 Q1016A3000 940.5 HR90=METAR SLBJ 011300Z NIL=METAR SLHI 011300Z NIL=
ZPX0360 011339@CAELT@GG SLZZYMYT@CAELT@011338 SLSBYSYX@CAELT@SABO SLSB 011400@CAELT@METAR SLSB 011400Z 00000KT 7000 -RA BKN010 OVC070 23/23 Q1014 A2994@CAELT@HR97 RWY WET INOP=@CAELT@
ZPX0370 011352@CAELT@GG SLZZYMYT@CAELT@011352 SLPSYGYS@CAELT@SABO SLPS 011400@CAELT@METAR SLPS 011400Z 09004KT 9999 FEW017 SCT070 BKN200 29/25 Q1013@CAELT@A2992 HR80=@CAELT@
ZPX0373 011354@CAELT@GG SLZZYMYT@CAELT@011355 SLCOYSYX@CAELT@SABO SLCO 011400@CAELT@METAR SLCO 011400Z 34007KT 9999 FEW015 BKN080 29/24 Q1013 A2992 985.8@CAELT@HR76 CI=@CAELT@
ZPX0375 011354@CAELT@GG SLZZYMYT@CAELT@011353 SLETYMYC@CAELT@SABO SLET 011400Z@CAELT@METAR SLET 011400Z 32006KT 4000 -RA SCT010 BKN017 OVC070 22/21 Q1016@CAELT@A3001 HR92 NOSIG=@CAELT@
ZPX0376 011355@CAELT@GG SLZZYMYT@CAELT@011355 SLORYGYZ@CAELT@SABO SLOR 011400@CAELT@METAR SLOR 011400Z 35005KT 9999 FEW020 SCT200 15/04 Q1035 A3058 656.4@CAELT@HR45=@CAELT@
ZPX0378 011355@CAELT@GG SLZZYMYT@CAELT@011355 SLCAYGYS@CAELT@SABO SLCA 011400@CAELT@METAR SLCA 011400Z 00000KT 9999 BKN030 OVC070 23/18 Q1019 A3009 HR77@CAELT@RWY NML=@CAELT@
ZPX0379 011355@CAELT@GG SLZZYMYT@CAELT@011354 SLRBYGYS@CAELT@SABO SLRB 011400@CAELT@METAR SLRB 011400Z 00000KT 9999 SCT023 BKN200 31/23 Q1017 A3003 HR62@CAELT@RWY NML=@CAELT@
ZPX0380 011356@CAELT@GG SLZZYMYT@CAELT@011355 SLRQYSYX@CAELT@SABO SLRQ 011400@CAELT@METAR SLRQ 011400Z 00000KT 8000 -RA SCT023 OVC070 23/23 Q1013 A2993@CAELT@HR99=@CAELT@
ZPX0383 011357@CAELT@GG SLZZYMYT@CAELT@011355 SLLPYGYZ@CAELT@SABO SLLP 011400@CAELT@METAR SLLP 011400Z 08006KT 9999 SCT015 BKN200 11/05 Q1038 A3068@CAELT@628.6 HR64 P93// AC NOSIG=@CAELT@
ZPX0384 011357@CAELT@GG SLZZYMYT@CAELT@011357 SLVRYGYZ@CAELT@SABO SLVR 011400@CAELT@METAR SLVR 011400Z 30005KT 8000 -RA FEW008 BKN020 OVC070 22/21 Q1016@CAELT@A3000 HR92 NOSIG=@CAELT@
ZPX0385 011357@CAELT@GG SLZZYMYT@CAELT@011356 SLCBYGYZ@CAELT@SABO SLCB 011400@CAELT@METAR SLCB 011400Z 26003KT 9999 FEW033 FEW036CB BKN200 24/08 Q1025@CAELT@A3029 752.0 HR36 CB DIST N/NE AC FU NOSIG=@CAELT@
ZPX0386 011357@CAELT@GG SLZZYMYT@CAELT@011356 SLSAYGYS@CAELT@SABO SLSA 011400@CAELT@METAR SLSA 011400Z 32006KT 9999 SCT015 FEW023CB SCT080 OVC200 27/23@CAELT@Q1012 A2990 HR80 CB E=@CAELT@
ZPX0387 011358@CAELT@GG SLZZYMYT@CAELT@011357 SLLPYFYA@CAELT@SABO SLRY 011400@CAELT@METAR SLRY 011400Z 00000KT 9999 BKN033 OVC080 22/22 Q1012 Q2989 HR98@CAELT@RERA RWY WET OPR C206=@CAELT@
ZPX0388 011358@CAELT@GG SLZZYMYT@CAELT@011357 SLAGYSYX@CAELT@SABO SLAG 011400@CAELT@METAR SLAG 011400Z 00000KT 9999 SCT012 BKN200 26/19 Q1019 A3012 891.7@CAELT@HR65 AC=@CAELT@
ZPX0389 011358@CAELT@GG SLZZYMYT@CAELT@011358 SLVRYFYC@CAELT@SABO SLVR 011400@CAELT@METAR SLVR 011400Z 30005KT 8000 -RA FEW008 BKN020 OVC070 22/21 Q1016@CAELT@A3000 HR92 NOSIG=@CAELT@METAR SLET 011400Z 32006KT 4000 -RA SCT010 BKN017 OVC070 22/21 Q1016@CAELT@A3001 HR92 NOSIG=@CAELT@METAR SLAS 011400Z 18005KT 9999 SCT010 BKN015 OVC070 23/22Q1016 A3000 HR95 RERA RWY WET INOP=METAR SLJV 011400Z 00000KT 5000 -RA BKN015 OVC070 22/21 Q1014A2994 HR99 RWY WET OPR=METAR SLCP 011400Z 30005KT 9999 BKN025 OVC070 22/21 Q1016A3000 HR96 RERA RWY WET OPR=METAR SLSI 011400Z 00000KT 9999 SCT015 BKN070 26/22 Q1014A2994 HR79 RWY WET OPR=METAR SLTI 011400Z 00000KT 9999 FEW017 BKN200 30/22 Q1018 A3006HR62 RWY NML=METAR SLJE 011400Z 00000KT 9999 FEW015 SCT070 BKN200 30/23 Q1018A3006 HR68 RWY NML=METAR SLVG 011400Z 36007KT 9999 BKN020 BKN070 19/15 Q1026 A3030HR74 RWY NML=METAR SLRB 011400Z 00000KT 9999 SCT023 BKN200 31/23 Q1017 A3003 HR62RWY NML=METAR SLPS 011400Z 09004KT 9999 FEW017 SCT070 BKN200 29/25 Q1013A2992 HR80=METAR SLCA 011400Z 00000KT 9999 BKN030 OVC070 23/18 Q1019 A3009HR77 RWY NML=
ZPX0390 011358@CAELT@GG SLZZYMYT@CAELT@011357 SLTRYGYZ@CAELT@SABO SLTR 011400@CAELT@METAR SLTR 011400Z 00000KT 8000 -RA FEW012 FEW020CB BKN070 25/24@CAELT@Q1013 A2993 995.0 HR96 CB S/SW NOSIG=@CAELT@
ZPX0395 011401@CAELT@GG SLZZYMYT@CAELT@011401 SLTRYGYS@CAELT@SABO SLTR 011400@CAELT@METAR SLTR 011400Z 00000KT 8000 -RA FEW012 FEW020CB BKN070 25/24@CAELT@Q1013 A2993 995.0 HR96 CB S/SW NOSIG=@CAELT@METAR SLGM 011400Z 36006KT 9999 SCT017 BKN080 29/24 Q1013 A2993@CAELT@HR72=@CAELT@METAR SLRI 011400Z 36005KT 9999 FEW010 SCT070 28/24 Q1014 A2995 HR80METAR SLJO 011400Z 32003KT 9999 FEW020 OVC080 27/24 Q1012 A2990HR82 RWY NML=METAR SLRA 011400Z 00000KT 9999 FEW015 BKN080 BKN200 27/23 Q1012A2991 HR80 RWY NML=METAR SLMG 011400Z 00000KT 9999 SCT015 BKN080 27/24 Q1012 A2989HR84 RWY NML=METAR SLBU 011400Z 36004KT 9999 SCT015 BKN080 27/24 Q1011 A2988HR83 RWY HUM OPR=METAR SLSA 011400Z 32006KT 9999 SCT015 FEW023CB SCT080 OVC200 27/23Q1012 A2990 HR80 CB E=METAR SLSR 011400Z 32010KT 8000 VCSH SCT010 FEW023CB BKN070 26/24Q1013 A2992 HR88 RERA CB/SH W/NW RWY WET INOP=METAR SLSM 011400Z 33004KT 8000 VCSH FEW008 SCT015 FEW023CB OVC07025/24 Q1013 A2993 HR90 CB/SH SW/W/NW RWY NML=
ZPX0396 011402@CAELT@GG SLZZYMYT@CAELT@011402 SLLPYFYA@CAELT@SABO SLLP 011400@CAELT@METAR SLLP 011400Z 08006KT 9999 SCT015 BKN200 11/05 Q1038 A3068@CAELT@628.6 HR64 P93// AC NOSIG=@CAELT@METAR SLCO 011400Z 34007KT 9999 FEW015 BKN080 29/24 Q1013 A2992@CAELT@985.8 HR76 CI=@CAELT@METAR SLRY 011400Z 00000KT 9999 BKN033 OVC080 22/22 Q1012 Q2989 HR98RERA RWY WET OPR C206=METAR SLRQ 011400Z 00000KT 8000 -RA SCT023 OVC070 23/23 Q1013 A2993HR99=METAR SLAP 011400Z 00000KT 9999 FEW010 OVC070 19/18 Q1020 A3013860.7 HR92=METAR SLSB 011400Z 00000KT 7000 -RA BKN010 OVC070 23/23 Q1014 A2994HR97 RWY WET INOP=METAR SLOR 011400Z 35005KT 9999 FEW020 SCT200 15/04 Q1035 A3058656.4 HR45=METAR SLUY 011400Z NIL=
ZPX0397 011402@CAELT@GG SLZZYMYT@CAELT@011402 SLCBYGYS@CAELT@SABO SLCB 011400@CAELT@METAR SLCB 011400Z 26003KT 9999 FEW033 FEW036CB BKN200 24/08 Q1025@CAELT@A3029 752.0 HR36 CB DIST N/NE AC FU NOSIG=@CAELT@METAR SLAL 011400Z 33009KT 9999 SCT015 BKN200 15/07 Q1032 A3045 705.5@CAELT@HR59=@CAELT@METAR SLPO 011400Z 06008KT 9999 FEW015 BKN200 13/06 Q1038 A3067 638.5HR64=METAR SLAG 011400Z 00000KT 9999 SCT012 BKN200 26/19 Q1019 A3012 891.7HR65 AC=METAR SLVM 011400Z NIL=METAR SLTJ 011400Z 00000KT 9999 SCT027 22/14 Q1021 A3016 816.0 HR61METAR SLYA 011400Z 04008KT 9999 BKN015 OVC070 22/20 Q1016 A3001 940.8HR92=METAR SLBJ 011400Z NIL=METAR SLHI 011400Z NIL=
ZPX0402 011406@CAELT@GG SLZZYMYT@CAELT@011406 SLLPYFYA@CAELT@SABO SLUY 011400 RRA@CAELT@METAR RDT SLUY 011400Z 01015KT 9999 SCT023 BKN200 17/04 Q1034 A3056@CAELT@658.8 HR42=@CAELT@
ZPX0404 011406@CAELT@GG SLZZYMYT@CAELT@011406 SLLPYFYA@CAELT@SABO SLLP 011400 RRA@CAELT@METAR SLLP 011400Z 08006KT 9999 SCT015 BKN200 11/05 Q1038 A3068@CAELT@628.6 HR64 P93// AC NOSIG=@CAELT@METAR SLCO 011400Z 34007KT 9999 FEW015 BKN080 29/24 Q1013 A2992@CAELT@985.8 HR76 CI=@CAELT@METAR SLRY 011400Z 00000KT 9999 BKN033 OVC080 22/22 Q1012 Q2989 HR98RERA RWY WET OPR C206=METAR SLRQ 011400Z 00000KT 8000 -RA SCT023 OVC070 23/23 Q1013 A2993HR99=METAR SLAP 011400Z 00000KT 9999 FEW010 OVC070 19/18 Q1020 A3013860.7 HR92=METAR SLSB 011400Z 00000KT 7000 -RA BKN010 OVC070 23/23 Q1014 A2994HR97 RWY WET INOP=METAR SLOR 011400Z 35005KT 9999 FEW020 SCT200 15/04 Q1035 A3058656.4 HR45=METAR RDT SLUY 011400Z 01015KT 9999 SCT023 BKN200 17/04 Q1034 A3056658.8 HR42=
ZPX0405 011409@CAELT@GG SLZZYMYT@CAELT@011408 SLCBYGYS@CAELT@SABO SLCB 011400 RRA@CAELT@METAR SLCB 011400Z 26003KT 9999 FEW033 FEW036CB BKN200 24/08 Q1025@CAELT@A3029 752.0 HR36 CB DIST N/NE AC FU NOSIG=@CAELT@METAR SLAL 011400Z 33009KT 9999 SCT015 BKN200 15/07 Q1032 A3045 705.5@CAELT@HR59=@CAELT@METAR SLPO 011400Z 06008KT 9999 FEW015 BKN200 13/06 Q1038 A3067 638.5HR64=METAR SLAG 011400Z 00000KT 9999 SCT012 BKN200 26/19 Q1019 A3012 891.7HR65 AC=METAR RTD SLVM 011400Z 00000KT 9999 BKN015 OVC070 23/20 Q1016 A3001HR84=METAR SLTJ 011400Z 00000KT 9999 SCT027 22/14 Q1021 A3016 816.0 HR61METAR SLYA 011400Z 04008KT 9999 BKN015 OVC070 22/20 Q1016 A3001 940.8HR92=METAR SLBJ 011400Z NIL=METAR SLHI 011400Z NIL=
ZPX0426 011453@CAELT@GG SLZZYMYT@CAELT@011451 SLPSYGYS@CAELT@SABO SLPS 011500@CAELT@METAR SLPS 011500Z 09004KT 9999 FEW017 BKN200 31/25 Q1013 A2992 HR73=@CAELT@
ZPX0428 011454@CAELT@GG SLZZYMYT@CAELT@011453 SLCBYGYZ@CAELT@SABO SLCB 011500@CAELT@METAR SLCB 011500Z 04004KT 9999 FEW033 FEW036CB SCT080 BKN200 23/07@CAELT@Q1025 A3027 751.4 HR35 CB DIST N FU NOSIG=@CAELT@
ZPX0429 011455@CAELT@GG SLZZYMYT@CAELT@011455 SLVRYGYZ@CAELT@SABO SLVR 011500@CAELT@METAR SLVR 011500Z 27008KT 9999 FEW008 BKN023 OVC070 24/22 Q1014@CAELT@A2997 HR89 NOSIG=@CAELT@
ZPX0430 011455@CAELT@GG SLZZYMYT@CAELT@011454 SLETYMYC@CAELT@SABO SLET 011500Z@CAELT@METAR SLET 011500Z 26011KT 9999 BKN027 BKN070 23/22 Q1014 A2997 HR90@CAELT@SH S NOSIG=@CAELT@
ZPX0431 011455@CAELT@GG SLZZYMYT@CAELT@011455 SLSBYSYX@CAELT@SABO SLSB 011500@CAELT@METAR SLSB 011500Z 00000KT 8000 -RA BKN010 OVC070 24/23 Q1014 A2994@CAELT@HR94 RWY WET INOP=@CAELT@
ZPX0432 011455@CAELT@GG SLZZYMYT@CAELT@011455 SLSAYGYS@CAELT@SABO SLSA 011500@CAELT@METAR SLSA 011500Z 30008KT 9999 BKN017 OVC200 29/25 Q1012 A2990 HR78=@CAELT@
ZPX0433 011455@CAELT@GG SLZZYMYT@CAELT@011455 SLAGYSYX@CAELT@SABO SLAG 011500@CAELT@METAR SLAG 011500Z 04008KT 9999 SCT015 BKN200 26/19 Q1019 A3010 891.1@CAELT@HR63=@CAELT@
ZPX0434 011456@CAELT@GG SLZZYMYT@CAELT@011455 SLORYGYZ@CAELT@SABO SLOR 011500@CAELT@METAR SLOR 011500Z 11005KT 9999 VCTS SCT020 FEW025CB SCT200 17/04@CAELT@Q1035 A3057 656.1 HR40 CB/TS/SH E=@CAELT@
ZPX0436 011456@CAELT@GG SLZZYMYT@CAELT@011455 SLLPYGYZ@CAELT@SABO SLLP 011500@CAELT@METAR SLLP 011500Z 15006KT 9999 SCT015 BKN200 12/06 Q1038 A3066@CAELT@628.2 HR67 P3483 AC NOSIG=@CAELT@
ZPX0438 011457@CAELT@GG SLZZYMYT@CAELT@011456 SLCAYGYS@CAELT@SABO SLCA 011500@CAELT@METAR SLCA 011500Z 21004KT 9999 BKN030 BKN070 25/18 Q1019 A3009 HR68@CAELT@RWY NML=@CAELT@
ZPX0439 011457@CAELT@GG SLZZYMYT@CAELT@011456 SLTRYGYZ@CAELT@SABO SLTR 011500@CAELT@METAR SLTR 011500Z 34003KT 8000 VCSH SCT012 FEW020CB BKN070 25/25@CAELT@Q1013 A2992 994.8 HR96 RERA CB/SH SW NOSIG=@CAELT@
ZPX0441 011458@CAELT@GG SLZZYMYT@CAELT@011456 SLRQYSYX@CAELT@SABO SLRQ 011500@CAELT@METAR SLRQ 011500Z 00000KT 9999 SCT030 OVC070 24/23 Q1013 A2993 HR95@CAELT@RERA=@CAELT@
ZPX0443 011458@CAELT@GG SLZZYMYT@CAELT@011456 SLTJYGYZ@CAELT@SABO SLTJ 011500@CAELT@METAR SLTJ 011500Z 27004KT 9999 SCT027 23/14 Q1020 A3012 815.0 HR58@CAELT@
ZPX0444 011458@CAELT@GG SLZZYMYT@CAELT@011457 SLCOYSYX@CAELT@SABO SLCO 101800@CAELT@METAR SLCO 101800Z 32006KT 9999 SCT020 BKN080 30/24 Q1012 A2991 985.5@CAELT@HR68 CI=@CAELT@
ZPX0448 011459@CAELT@GG SLZZYMYT@CAELT@011459 SLCBYGYS@CAELT@SABO SLCB 011500@CAELT@METAR SLCB 011500Z 04004KT 9999 FEW033 FEW036CB SCT080 BKN200 23/07@CAELT@Q1025 A3027 751.4 HR35 CB DIST N FU NOSIG=@CAELT@METAR SLAL 011500Z 02010KT 9999 SCT017 BKN200 17/08 Q1031 A3045 705.1@CAELT@HR56=@CAELT@METAR SLPO 011500Z 07012KT 9999 TS FEW017 FEW025CB BKN200 14/06 Q1038A3065 638.0 HR61 CB/TS/S=METAR SLAG 011500Z 04008KT 9999 SCT015 BKN200 26/19 Q1019 A3010 891.1HR63=METAR SLVM 011500Z 00000KT 9999 BKN015 OVC070 23/20 Q1015 A3000 HR85=METAR SLTJ 011500Z 27004KT 9999 SCT027 23/14 Q1020 A3012 815.0 HR58METAR SLYA 011500Z 04005KT 9999 BKN015 OVC070 22/21 Q1016 A3003 941.3HR92=METAR SLBJ 011500Z NIL=METAR SLHI 011500Z NIL=
ZPX0450 011500@CAELT@GG SLZZYMYT@CAELT@011500 SLTRYGYS@CAELT@SABO SLTR 011500@CAELT@METAR SLTR 011500Z 34003KT 8000 VCSH SCT012 FEW020CB BKN070 25/25@CAELT@Q1013 A2992 994.8 HR96 RERA CB/SH SW NOSIG=@CAELT@METAR SLGM 011500Z 32006KT 9999 SCT017 BKN080 31/24 Q1013 A2991@CAELT@HR68=@CAELT@METAR SLRI 011500Z 00000KT 9999 FEW015 BKN070 29/25 Q1014 A2994 HR78METAR SLJO 011500Z 36004KT 9999 FEW020 BKN080 BKN200 29/23 Q1012A2989 HR74 RWY NML=METAR SLRA 011500Z 09003KT 9999 FEW017 BKN080 BKN200 28/24 Q1012A2991 HR80 RWY NML=METAR SLMG 011500Z 00000KT 9999 SCT017 BKN080 29/25 Q1012 A2991HR77 RWY NML=METAR SLBU 011500Z 36004KT 9999 SCT015 BKN200 29/25 Q1011 A2988HR78 RWY HUM OP=METAR SLSA 011500Z 30008KT 9999 BKN017 OVC200 29/25 Q1012 A2990 HR78=METAR SLSR 011500Z 32010KT 8000 VCSH SCT010 FEW023CB BKN070 27/24Q1013 A2991 HR84 CB/SH S/W/NW RWY WET INOP=METAR SLSM 011500Z 00000KT 6000 VCSH BKN015 FEW023CB OVC070 25/24Q1014 A2995 HR91 CB/SH S/SW/W RWY NML=
ZPX0451 011501@CAELT@GG SLZZYMYT@CAELT@011500 SLCOYSYX@CAELT@SABO SLCO 011500 CCA@CAELT@METAR COR SLCO 011500Z 32006KT 9999 SCT020 BKN080 30/24 Q1012 A2991@CAELT@985.5 HR68 CI=@CAELT@
ZPX0452 011502@CAELT@GG SLZZYMYT@CAELT@011502 SLVRYFYC@CAELT@SABO SLVR 011500@CAELT@METAR SLVR 011500Z 27008KT 9999 FEW008 BKN023 OVC070 24/22 Q1014@CAELT@A2997 HR89 NOSIG=@CAELT@METAR SLET 011500Z 26011KT 9999 BKN027 BKN070 23/22 Q1014 A2997@CAELT@HR90 SH S NOSIG=@CAELT@METAR SLAS 011500Z 18006KT 9999 SCT010 BKN015 OVC070 24/22Q1016 A3000 HR91 RWY WET INOP=METAR SLJV 011500Z 00000KT 9999 SCT015 BKN070 OVC200 22/21Q1013 A2991 HR96 RERA RWY WET OPR=METAR SLCP 011500Z 00000KT 9999 BKN027 OVC070 23/22 Q1016A3000 HR92 RWY WET OPR=METAR SLSI 011500Z 00000KT 9999 SCT017 BKN200 28/22 Q1014A2994 HR69 RWY HUM OPR=METAR SLTI 011500Z 00000KT 9999 FEW017 BKN200 31/22 Q1018A3006 HR58 RWY NML=METAR SLJE 011500Z 32005KT 9999 FEW015 BKN200 32/23 Q1017A3003 HR62 RWY NML=METAR SLVG 011500Z 35006KT 9999 BKN020 FEW027CB 20/14 Q1026A3030 HR66 CB/SH/NW RWY NML=METAR SLRB 011500Z 00000KT 9999 SCT020 BKN200 32/23 Q1016 A3000HR59 RWY NML=METAR SLPS 011500Z 09004KT 9999 FEW017 BKN200 31/25 Q1013 A2992 HR73=METAR SLCA 011500Z 21004KT 9999 BKN030 BKN070 25/18 Q1019 A3009HR68 RWY NML=
ZPX0454 011503@CAELT@GG SLZZYMYT@CAELT@011502 SLLPYFYA@CAELT@SABO SLRY 011500@CAELT@METAR SLRY 011500Z 00000KT 9999 BKN040 OVC080 24/23 Q1012 A2989 HR92@CAELT@RWY WET OPR C206=@CAELT@
ZPX0455 011505@CAELT@GG SLZZYMYT@CAELT@011458 SLLPYFYA@CAELT@SABO SLUY 011500@CAELT@METAR SLUY 011500Z 35010KT 9999 FEW023 FEW025CB BKN200 17/04 Q1034@CAELT@A3056 658.8 HR42 CB/NE@CAELT@
ZPX0456 011505@CAELT@GG SLZZYMYT@CAELT@011500 SLLPYFYA@CAELT@SABO SLLP 011500@CAELT@METAR SLLP 011500Z 15006KT 9999 SCT015 BKN200 12/06 Q1038 A3066@CAELT@628.2 HR67 P3483 AC NOSIG=@CAELT@METAR SLCO 011500Z 32006KT 9999 SCT020 BKN080 30/24 Q1012 A2991@CAELT@985.5 HR68 CI=@CAELT@METAR SLRY 011500Z 00000KT 9999 BKN040 OVC080 24/23 Q1012 A2989 HR92RWY WET OPR C206=METAR SLRQ 011500Z 00000KT 9999 SCT030 OVC070 24/23 Q1013 A2993 HR95RERA=METAR SLAP 011500Z 36008KT 9999 FEW015 OVC070 20/18 Q1019 A3012860.3 HR89=METAR SLSB 011500Z 00000KT 8000 -RA BKN010 OVC070 24/23 Q1014 A2994HR94 RWY WET INOP=METAR SLOR 011500Z 11005KT 9999 VCTS SCT020 FEW025CB SCT200 17/04Q1035 A3057 656.1 HR40 CB/TS/SH E=METAR SLUY 011500Z 35010KT 9999 FEW023 FEW025CB BKN200 17/04 Q1034A3056 658.8 HR42 CB/NE=
ZPX0476 011553@CAELT@GG SLZZYMYT@CAELT@011553 SLPSYGYS@CAELT@SABO SLPS 011600@CAELT@METAR SLPS 011600Z 36006KT 9999 FEW017 BKN200 33/25 Q1012 A2989 HR66=@CAELT@
ZPX0477 011553@CAELT@GG SLZZYMYT@CAELT@011554 SLSAYGYS@CAELT@SABO SLSA 011600@CAELT@METAR SLSA 011600Z 31008KT 9999 BKN017 FEW023CB OVC200 28/24 Q1012@CAELT@A2989 HR80 CB NE=@CAELT@
ZPX0478 011553@CAELT@GG SLZZYMYT@CAELT@011554 SLSAYGYS@CAELT@SABO SLSA 011600@CAELT@METAR SLSA 011600Z 31008KT 9999 BKN017 FEW023CB OVC200 28/24 Q1012@CAELT@A2989 HR80 CB NE=@CAELT@
ZPX0479 011554@CAELT@GG SLZZYMYT@CAELT@011555 SLLPYFYA@CAELT@SABO SLRY 011600@CAELT@METAR SLRY 011600Z 00000KT 9999 FEW012 BKN040 OVC080 25/23 Q1011@CAELT@A2988 HR89 RWY WET OPR C206=@CAELT@
ZPX0481 011554@CAELT@GG SLZZYMYT@CAELT@011553 SLETYMYC@CAELT@SABO SLET 011600Z@CAELT@METAR SLET 011600Z 26012KT 9999 BKN070 BKN200 25/22 Q1012 A2990 HR80@CAELT@NOSIG=@CAELT@
ZPX0482 011555@CAELT@GG SLZZYMYT@CAELT@011555 SLCOYSYX@CAELT@SABO SLCO 011600@CAELT@METAR SLCO 011600Z 35008KT 9999 BKN023 31/25 Q1012 A2989 984.8 HR70@CAELT@AC/CI=@CAELT@
ZPX0483 011555@CAELT@GG SLZZYMYT@CAELT@011553 SLRBYGYS@CAELT@SABO SLRB 011600@CAELT@METAR SLRB 011600Z 00000KT 9999 BKN023 BKN200 32/22 Q1015 A2997 HR55@CAELT@RWY NML=@CAELT@
ZPX0484 011555@CAELT@GG SLZZYMYT@CAELT@011555 SLRQYSYX@CAELT@SABO SLRQ 011600@CAELT@METAR SLRQ 011600Z 00000KT 9999 FEW010 SCT030 OVC070 26/24 Q1013@CAELT@A2993 HR90=@CAELT@
ZPX0485 011555@CAELT@GG SLZZYMYT@CAELT@011555 SLLPYFYA@CAELT@SABO SLUY 011600@CAELT@METAR SLUY 011600Z 32008KT 9999 FEW025 FEW027CB BKN200 19/03 Q1033@CAELT@A3053 658.2 HR36 CB/SH NE AC=@CAELT@
ZPX0486 011556@CAELT@GG SLZZYMYT@CAELT@011555 SLTJYGYZ@CAELT@SABO SLTJ 011600@CAELT@METAR SLTJ 011600Z 28004KT 9999 SCT027 24/15 Q1018 A3008 813.9 HR57@CAELT@
ZPX0487 011556@CAELT@GG SLZZYMYT@CAELT@011555 SLAGYSYX@CAELT@SABO SLAG 011600@CAELT@METAR SLAG 011600Z 05010KT 9999 SCT017 FEW027TCU BKN200 26/18 Q1018@CAELT@A3006 890.0 HR62 TCU/SW=@CAELT@
ZPX0489 011556@CAELT@GG SLZZYMYT@CAELT@011556 SLVRYGYZ@CAELT@SABO SLVR 011600@CAELT@METAR SLVR 011600Z 28015KT 9999 BKN025 BKN070 26/21 Q1013 A2993 HR76@CAELT@NOSIG=@CAELT@
ZPX0490 011557@CAELT@GG SLZZYMYT@CAELT@011555 SLLPYGYZ@CAELT@SABO SLLP 011600@CAELT@METAR SLLP 011600Z 12009KT 070V160 9999 SCT017 FEW020CB BKN200 14/05@CAELT@Q1037 A3065 627.8 HR55 P2784 CB E/S/NW AC NOSIG=@CAELT@
ZPX0491 011557@CAELT@GG SLZZYMYT@CAELT@011556 SLCAYGYS@CAELT@SABO SLCA 011600@CAELT@METAR SLCA 011600Z 00000KT 9999 BKN030 25/19 Q1018 A3006 HR68 AC RWY@CAELT@NML=@CAELT@
ZPX0492 011557@CAELT@GG SLZZYMYT@CAELT@011556 SLORYGYZ@CAELT@SABO SLOR 011600@CAELT@METAR SLOR 011600Z 09009KT 9999 VCTS SCT023 FEW025CB BKN200 12/04@CAELT@Q1034 A3056 655.8 HR58 TS/N CB/SH N/NE/SE AC=@CAELT@
ZPX0493 011558@CAELT@GG SLZZYMYT@CAELT@011558 SLVRYFYC@CAELT@SABO SLVR 011600@CAELT@METAR SLVR 011600Z 28015KT 9999 BKN025 BKN070 26/21 Q1013 A2993 HR76@CAELT@NOSIG=@CAELT@METAR SLET 011600Z 26012KT 9999 BKN070 BKN200 25/22 Q1012 A2990 HR80@CAELT@METAR SLAS 011600Z 00000KT 9999 SCT010 BKN015 OVC070 24/22@CAELT@Q1015 A2997 HR89 RWY WET OPR=METAR SLCP 011600Z 00000KT 9999 SCT025 BKN070 25/21 Q1016A3000 HR81 RWY WET OPR=METAR SLSI 011600Z 00000KT 9999 SCT017 29/22 Q1013 A2991HR64 RWY HUM OPR=METAR SLRB 011600Z 00000KT 9999 BKN023 BKN200 32/22 Q1015A2997 HR55 RWY NML=METAR SLPS 011600Z 36006KT 9999 FEW017 BKN200 33/25 Q1012A2989 HR66=METAR SLCA 011600Z 00000KT 9999 BKN030 25/19 Q1018 A3006 HR68AC RWY NML=
ZPX0494 011558@CAELT@GG SLZZYMYT@CAELT@011556 SLTRYGYZ@CAELT@SABO SLTR 011600@CAELT@METAR SLTR 011600Z 00000KT 8000 VCSH SCT012 FEW020CB BKN070 26/25@CAELT@Q1013 A2993 995.0 HR94 CB/SH SW NOSIG=@CAELT@
ZPX0496 011559@CAELT@GG SLZZYMYT@CAELT@011558 SLCBYGYZ@CAELT@SABO SLCB 011600@CAELT@METAR SLCB 011600Z 07005KT 9999 FEW033 SCT080 BKN200 25/07 Q1024@CAELT@A3024 750.7 HR32 FU NOSIG=@CAELT@
ZPX0498 011600@CAELT@GG SLZZYMYT@CAELT@011600 SLTRYGYS@CAELT@SABO SLTR 011600@CAELT@METAR SLTR 011600Z 00000KT 8000 VCSH SCT012 FEW020CB BKN070 26/25@CAELT@Q1013 A2993 995.0 HR94 CB/SH SW NOSIG=@CAELT@METAR SLGM 011600Z 02006KT 9999 SCT017 BKN080 31/24 Q1012 A2989@CAELT@HR65=@CAELT@METAR SLRI 011600Z 00000KT 9999 SCT017 FEW020CB BKN070 30/26Q1013 A2992 HR78 CB NE CI=METAR SLJO 011600Z 32004KT 9999 FEW020 BKN080 BKN200 30/23 Q1011A2988 HR69 RWY NML=METAR SLRA 011600Z 09003KT 9999 FEW017 SCT080 BKN200 30/24 Q1012A2990 HR70 RWY NML=METAR SLMG 011600Z 00000KT 7000 VCSH SCT017 FEW023CB BKN080 30/25Q1011 A2988 HR73 CB/SH N RWY NML=METAR SLBU 011600Z 36004KT 9999 SCT017 BKN200 30/25 Q1011 A2976HR73 RWY NML=METAR SLSA 011600Z 31008KT 9999 BKN017 FEW023CB OVC200 28/24 Q1012A2989 HR80 CB NE=METAR SLSR 011600Z 32010KT 8000 VCSH BKN012 FEW023CB OVC070 27/24Q1012 A2989 HR80 CB/SH NE/E/SW/W RWY OPR C206=METAR SLSM 011600Z 00000KT 5000 -RA BKN015 FEW023CB OVC070 24/24Q1013 A2993 HR100 CB S/SW RWY HUM OPR=
ZPX0499 011600@CAELT@GG SLZZYMYT@CAELT@011600 SLCBYGYS@CAELT@SABO SLCB 011600@CAELT@METAR SLCB 011600Z 07005KT 9999 FEW033 SCT080 BKN200 25/07 Q1024@CAELT@A3024 750.7 HR32 FU NOSIG=@CAELT@METAR SLAL 011600Z 01005KT 9999 BKN020 SCT200 19/06 Q1030 A3042 704.3@CAELT@HR44=@CAELT@METAR SLPO 011600Z 06010KT 9999 FEW017 FEW025CB BKN200 14/06 Q1036A3059 636.7 HR62 CB NE/S RETS=METAR SLVM 011600Z 00000KT 9999 BKN015 OVC070 23/21 Q1014 A2997 HR86=METAR SLAG 011600Z 05010KT 9999 SCT017 FEW027TCU BKN200 26/18 Q1018A3006 890.0 HR62 TCU/SW=METAR SLTJ 011600Z 28004KT 9999 SCT027 24/15 Q1018 A3008 813.9 HR57METAR SLYA 011600Z 04008KT 9999 BKN012 OVC070 23/21 Q1014 A2996 939.2HR90=METAR SLBJ 011600Z NIL=METAR SLHI 011600Z NIL=
ZPX0500 011600@CAELT@GG SLZZYMYT@CAELT@011555 SLSBYSYX@CAELT@SABO SLSB 011600@CAELT@METAR SLSB 011600Z 00000KT 9999 BKN010 OVC070 25/23 Q1013 A2993 HR90@CAELT@RERA RWY WET INOP=@CAELT@
ZPX0501 011601@CAELT@GG SLZZYMYT@CAELT@011600 SLSBYSYX@CAELT@SABO SLSB 011600 CCA@CAELT@METAR COR SLSB 011600Z 00000KT 8000 VCSH BKN012 OVC070 25/23 Q1013@CAELT@A2993 HR90 RERA SH E SE RWY WET INOP=@CAELT@
ZPX0502 011601@CAELT@GG SLZZYMYT@CAELT@011558 SLLPYSYX@CAELT@SABO SLSB 011600@CAELT@METAR SLSB 011600Z 00000KT 8000 VCSH BKN012 OVC070 25/23 Q1013 A2993@CAELT@HR90 RERA SH/E/SE RWY WET INOP=@CAELT@
ZPX0503 011602@CAELT@GG SLZZYMYT@CAELT@011602 SLLPYFYA@CAELT@SABO SLLP 011600@CAELT@METAR SLLP 011600Z 12009KT 070V160 9999 SCT017 FEW020CB BKN200 14/05@CAELT@Q1037 A3065 627.8 HR55 P2784 CB E/S/NW AC NOSIG=@CAELT@METAR SLCO 011600Z 35008KT 9999 BKN023 31/25 Q1012 A2989 984.8 HR70@CAELT@AC/CI=@CAELT@METAR SLRY 011600Z 00000KT 9999 FEW012 BKN040 OVC080 25/23 Q1011A2988 HR89 RWY WET OPR C206=METAR SLRQ 011600Z 00000KT 9999 FEW010 SCT030 OVC070 26/24 Q1013A2993 HR90=METAR SLAP 011600Z 36015KT 9999 FEW015 OVC070 21/19 Q1015 A2997856.0 HR86=METAR SLSB 011600Z 00000KT 8000 VCSH BKN012 OVC070 25/23 Q1013A2993 HR90 RERA SH E SE RWY WET INOP=METAR SLOR 011600Z 09009KT 9999 VCTS SCT023 FEW025CB BKN200 12/04Q1034 A3056 655.8 HR58 TS/N CB/SH N/NE/SE AC=METAR SLUY 011600Z 32008KT 9999 FEW025 FEW027CB BKN200 19/03 Q1033A3053 658.2 HR36 CB/SH NE AC=
ZPX0527 011651@CAELT@GG SLZZYMYT@CAELT@011650 SLPSYGYS@CAELT@SABO SLPS 011700@CAELT@METAR SLPS 011700Z 36006KT 9999 FEW017 SCT200 35/25 Q1011 A2986 HR60=@CAELT@
ZPX0530 011653@CAELT@GG SLZZYMYT@CAELT@011650 SLETYMYC@CAELT@SABO SLET 011700Z@CAELT@METAR SLET 011700Z 27008KT 9999 FEW027 BKN070 BKN200 27/21 Q1010@CAELT@A2985 HR72 NOSIG=@CAELT@
ZPX0531 011654@CAELT@GG SLZZYMYT@CAELT@011655 SLCOYSYX@CAELT@SABO SLCO 011700@CAELT@METAR SLCO 011700Z 32007KT 9999 BKN023 FEW025CB 31/25 Q1010 A2985 983@CAELT@.3 HR67 CB/SH NE/E AC/CI=@CAELT@
ZPX0532 011654@CAELT@GG SLZZYMYT@CAELT@011655 SLSBYSYX@CAELT@SABO SLSB 011700@CAELT@METAR SLSB 011700Z 00000KT 9000 VCSH BKN013 OVC070 25/23 Q1012 A2991@CAELT@HR90 SH NE SE S SW RWY WET INOP=@CAELT@
ZPX0533 011655@CAELT@GG SLZZYMYT@CAELT@011655 SLCAYGYS@CAELT@SABO SLCA 011700@CAELT@METAR SLCA 011700Z 36004KT 9999 BKN030 25/19 Q1017 A3003 HR68 SH N/NW@CAELT@RWY NML=@CAELT@
ZPX0534 011655@CAELT@GG SLZZYMYT@CAELT@011653 SLRBYGYS@CAELT@SABO SLRB 011700@CAELT@METAR SLRB 011700Z 00000KT 9999 BKN023 BKN200 33/22 Q1014 A2994 HR52@CAELT@RWY NML=@CAELT@
ZPX0535 011655@CAELT@GG SLZZYMYT@CAELT@011655 SLORYGYZ@CAELT@SABO SLOR 011700@CAELT@METAR SLOR 011700Z 13006KT 9999 VCTS SCT023 FEW025CB BKN200 12/03@CAELT@Q1034 A3054 655.3 HR54 TS/N CB/SH N/SE AC=@CAELT@
ZPX0536 011656@CAELT@GG SLZZYMYT@CAELT@011655 SLLPYFYA@CAELT@SABO SLUY 011700@CAELT@METAR SLUY 011700Z 32005KT 9999 FEW027 FEW030CB SCT200 20/04@CAELT@Q1032 A3050 657.6 HR34 CB/SH/NE/E AC=@CAELT@
ZPX0537 011656@CAELT@GG SLZZYMYT@CAELT@011656 SLVRYGYZ@CAELT@SABO SLVR 011700@CAELT@METAR SLVR 011700Z 08010G21KT 9999 BKN025 BKN070 27/22 Q1012 A2991@CAELT@HR72 NOSIG=@CAELT@
ZPX0538 011656@CAELT@GG SLZZYMYT@CAELT@011655 SLSAYGYS@CAELT@SABO SLSA 011700@CAELT@METAR SLSA 011700Z 31007KT 9999 BKN017 FEW023CB OVC200 30/24 Q1011@CAELT@A2987 HR71 CB/SH NW=@CAELT@
ZPX0539 011656@CAELT@GG SLZZYMYT@CAELT@011655 SLRQYSYX@CAELT@SABO SLRQ 011700@CAELT@METAR SLRQ 011700Z 00000KT 9999 FEW010 SCT030 OVC070 27/24 Q1013@CAELT@A2992 HR83=@CAELT@
ZPX0540 011656@CAELT@GG SLZZYMYT@CAELT@011656 SLAGYSYX@CAELT@SABO SLAG 011700@CAELT@METAR SLAG 011700Z 09012KT 9999 SCT017 FEW030CB BKN200 27/18 Q1017@CAELT@A3004 889.5 HR57 CB SW/W SH/SW=@CAELT@
ZPX0541 011656@CAELT@GG SLZZYMYT@CAELT@011656 SLLPYFYA@CAELT@SABO SLRY 011700@CAELT@METAR SLRY 011700Z 00000KT 9999 BKN015 BKN040 OVC080 28/24 Q1011@CAELT@A2988 HR79 RWY WET OPR C206=@CAELT@
ZPX0542 011657@CAELT@GG SLZZYMYT@CAELT@011657 SLVRYFYC@CAELT@SABO SLVR 011700@CAELT@METAR SLVR 011700Z 08010G21KT 9999 BKN025 BKN070 27/22 Q1012 A2991@CAELT@HR72 NOSIG=@CAELT@METAR SLET 011700Z 27008KT 9999 FEW027 BKN070 BKN200 27/21 Q1010@CAELT@A2985 HR72 NOSIG=@CAELT@METAR SLAS 011700Z 00000KT 9999 BKN012 OVC070 25/23 Q1015A2997 HR87 RWY WET INOP=METAR SLCP 011700Z 00000KT 9999 FEW025 SCT070 26/21 Q1015A2997 HR78 RWY HUM OPR=METAR SLSI 011700Z 00000KT 9999 SCT017 31/22 Q1012 A2988 HR59RWY NML=METAR SLRB 011700Z 00000KT 9999 BKN023 BKN200 33/22 Q1014 A2994HR52 RWY NML=METAR SLPS 011700Z 36006KT 9999 FEW017 SCT200 35/25 Q1011 A2986 HR60=METAR SLCA 011700Z 36004KT 9999 BKN030 25/19 Q1017 A3003 HR68SH N/NW RWY NML=
ZPX0544 011657@CAELT@GG SLZZYMYT@CAELT@011657 SLCBYGYZ@CAELT@SABO SLCB 011700@CAELT@METAR SLCB 011700Z 08006KT 9999 FEW033 FEW036CB SCT080 OVC200 25/06@CAELT@Q1023 A3021 749.8 HR28 CB NE/SE NOSIG=@CAELT@
ZPX0545 011658@CAELT@GG SLZZYMYT@CAELT@011656 SLTRYGYZ@CAELT@SABO SLTR 011700@CAELT@METAR SLTR 011700Z 00000KT 8000 VCSH SCT012 FEW020CB BKN070 26/25@CAELT@Q1013 A2992 994.5 HR92 CB/SH NW TEMPO SHRA=@CAELT@
ZPX0546 011658@CAELT@GG SLZZYMYT@CAELT@011657 SLLPYGYZ@CAELT@SABO SLLP 011700@CAELT@METAR SLLP 011700Z 10009KT 030V150 9999 SCT017 FEW020CB BKN200 15/05@CAELT@Q1036 A3060 626.9 HR52 P2784 CB E/S/SW/NW AC NOSIG=@CAELT@
ZPX0547 011658@CAELT@GG SLZZYMYT@CAELT@011658 SLTJYGYZ@CAELT@SABO SLTJ 011700@CAELT@METAR SLTJ 011700Z 18006KT 9999 SCT030 25/15 Q1017 A3003 812.5 HR54@CAELT@
ZPX0548 011658@CAELT@GG SLZZYMYT@CAELT@011656 SLTRYGYZ@CAELT@SABO SLTR 011700@CAELT@METAR SLTR 011700Z 00000KT 8000 VCSH SCT012 FEW020CB BKN070 26/25@CAELT@Q1013 A2992 994.5 HR92 CB/SH NW TEMPO SHRA=@CAELT@
ZPX0549 011659@CAELT@GG SLZZYMYT@CAELT@011658 SLLPYFYA@CAELT@SABO SLLP 011700@CAELT@METAR SLLP 011700Z 10009KT 030V150 9999 SCT017 FEW020CB BKN200 15/05@CAELT@Q1036 A3060 626.9 HR52 P2784 CB E/S/SW/NW AC NOSIG=@CAELT@METAR SLCO 011700Z 32007KT 9999 BKN023 FEW025CB 31/25 Q1010 A2985@CAELT@983.3 HR67 CB/SH NE/E AC/CI=@CAELT@METAR SLRY 011700Z 00000KT 9999 BKN015 BKN040 OVC080 28/24 Q1011A2988 HR79 RWY WET OPR C206=METAR SLRQ 011700Z 00000KT 9999 FEW010 SCT030 OVC070 27/24 Q1013A2992 HR83=METAR SLAP 011700Z 36010KT 9999 FEW015 OVC070 22/19 Q1019 A3010859.6 HR80=METAR SLSB 011700Z 00000KT 9000 VCSH BKN013 OVC070 25/23 Q1012 A2991HR90 SH NE SE S SW RWY WET INOP=METAR SLOR 011700Z 13006KT 9999 VCTS SCT023 FEW025CB BKN200 12/03Q1034 A3054 655.3 HR54 TS/N CB/SH N/SE AC=METAR SLUY 011700Z 32005KT 9999 FEW027 FEW030CB SCT200 20/04 Q1032A3050 657.6 HR34 CB/SH/NE/E AC=
ZPX0550 011700@CAELT@GG SLZZYMYT@CAELT@011700 SLTRYGYS@CAELT@SABO SLTR 011700@CAELT@METAR SLTR 011700Z 00000KT 8000 VCSH SCT012 FEW020CB BKN070 26/25@CAELT@Q1013 A2992 994.5 HR92 CB/SH NW TEMPO SHRA=@CAELT@METAR SLGM 011700Z 36006KT 9999 SCT017 BKN080 32/24 Q1011 A2985@CAELT@HR63=@CAELT@METAR SLRI 011700Z 12005KT 9999 SCT017 FEW020CB 31/26 Q1011 A2988HR73 CB/N AC/CI=METAR SLJO 011700Z 36004KT 9999 FEW020 SCT080 BKN200 32/24 Q1011A2986 HR65 RWY NML=METAR SLRA 011700Z 12003KT 9999 FEW017 FEW020CB SCT080 BKN200 31/24Q1012 A2990 HR67 CB E RWY NML=METAR SLMG 011700Z 00000KT 8000 VCSH SCT017 FEW023CB BKN070 25/23Q1011 A2988 HR90 RERA CB/SH E/SE/NW CI RWY WET OPR C210=METAR SLBU 011700Z 36004KT 9999 SCT017 FEW023CB BKN200 32/24 Q1010A2983 HR63 CB NE RWY NML=METAR SLSA 011700Z 31007KT 9999 BKN017 FEW023CB OVC200 30/24 Q1011A2987 HR71 CB/SH NW=METAR SLSR 011700Z 32010KT 8000 VCSH BKN012 FEW023CB OVC070 27/24Q1012 A2990 HR84 CB/SH NE/E/SE RWY OPR C206=METAR SLSM 011700Z 27004KT 5000 -RA BKN015 FEW023CB OVC070 24/24Q1013 A2993 HR100 CB SW/W RWY HUM OPR=
ZPX0551 011700@CAELT@GG SLZZYMYT@CAELT@011700 SLCBYGYS@CAELT@SABO SLCB 011700@CAELT@METAR SLCB 011700Z 08006KT 9999 FEW033 FEW036CB SCT080 OVC200 25/06@CAELT@Q1023 A3021 749.8 HR28 CB NE/SE NOSIG=@CAELT@METAR SLAL 011700Z 01016KT 9999 BKN020 SCT200 20/06 Q1029 A3038 703.5@CAELT@HR42=@CAELT@METAR SLPO 011700Z 06016KT 9999 FEW020 FEW025CB BKN200 15/06 Q1035A3056 636.0 HR55 CB N/SW AC=METAR SLAG 011700Z 09012KT 9999 SCT017 FEW030CB BKN200 27/18 Q1017A3004 889.5 HR57 CB SW/W SH/SW=METAR SLVM 011700Z 00000KT 9999 BKN015 OVC070 24/21 Q1013 A2992 HR87=METAR SLTJ 011700Z 18006KT 9999 SCT030 25/15 Q1017 A3003 812.5 HR54METAR SLYA 011700Z 04008KT 9999 SCT008 BKN015 OVC070 23/21 Q1013A2992 938.0 HR87=METAR SLBJ 011700Z NIL=METAR SLHI 011700Z NIL=
ZPX0590 011754@CAELT@GG SLZZYMYT@CAELT@011755 SLLPYFYA@CAELT@SABO SLRY 011800@CAELT@METAR SLRY 011800Z 00000KT 9999 FEW015 BKN040 OVC080 28/24 Q1011@CAELT@A2985 HR76 RWY WET OPR C206=@CAELT@
ZPX0591 011754@CAELT@GG SLZZYMYT@CAELT@011754 SLORYGYZ@CAELT@SABO SLOR 011800@CAELT@METAR SLOR 011800Z 13004KT 9999 BKN023 FEW025 BKN200 12/02 Q1033@CAELT@A3052 654.9 HR50 CB/SH E/SE/W/NW AC=@CAELT@
ZPX0592 011754@CAELT@GG SLZZYMYT@CAELT@011753 SLPSYGYS@CAELT@SABO SLPS 011800@CAELT@METAR SLPS 011800Z 34008KT 9999 FEW017 SCT200 35/25 Q1010 A2983 HR57=@CAELT@
ZPX0593 011755@CAELT@GG SLZZYMYT@CAELT@011753 SLRBYGYS@CAELT@SABO SLRB 011800@CAELT@METAR SLRB 011800Z 00000KT 9999 BKN023 BKN200 35/21 Q1012 A2988 HR46@CAELT@RWY NML=@CAELT@
ZPX0594 011755@CAELT@GG SLZZYMYT@CAELT@011754 SLSAYGYS@CAELT@SABO SLSA 011800@CAELT@METAR SLSA 011800Z 30010KT 9999 BKN017 FEW023CB BKN200 30/24 Q1010@CAELT@A2983 HR70 CB NE/S=@CAELT@
ZPX0595 011755@CAELT@GG SLZZYMYT@CAELT@011755 SLCBYGYZ@CAELT@SABO SLCB 011800@CAELT@METAR SLCB 011800Z 04012KT 9999 SCT033 FEW036CB SCT080 OVC200 24/06@CAELT@Q1022 A3020 749.5 HR30 CB E/SE/S/SW NOSIG=@CAELT@
ZPX0597 011756@CAELT@GG SLZZYMYT@CAELT@011756 SLVRYGYZ@CAELT@SABO SLVR 011800@CAELT@METAR SLVR 011800Z 05011KT 9999 FEW025 SCT070 BKN200 27/22 Q1012@CAELT@A2990 HR71 NOSIG=@CAELT@
ZPX0598 011756@CAELT@GG SLZZYMYT@CAELT@011755 SLAGYSYX@CAELT@SABO SLAG 011800@CAELT@METAR SLAG 011800Z 05010KT 9999 FEW020 FEW030CB SCT200 28/19 Q1015@CAELT@A2999 887.8 HR57 CB/W=@CAELT@
ZPX0599 011756@CAELT@GG SLZZYMYT@CAELT@011755 SLRQYSYX@CAELT@SABO SLRQ 011800@CAELT@METAR SLRQ 011800Z 00000KT 9999 SCT030 OVC070 27/24 Q1011 A2988 987.6@CAELT@HR83=@CAELT@
ZPX0600 011756@CAELT@GG SLZZYMYT@CAELT@011756 SLTRYGYZ@CAELT@SABO SLTR 011800@CAELT@METAR SLTR 011800Z 25004KT 7000 VCSH SCT012 FEW020CB BKN070 27/24@CAELT@Q1012 A2990 994.0 HR86 CB/SH N/S/NW TEMPO SHRA=@CAELT@
ZPX0601 011756@CAELT@GG SLZZYMYT@CAELT@011755 SLLPYGYZ@CAELT@SABO SLLP 011800@CAELT@METAR SLLP 011800Z 05014G24KT 360V120 9999 SCT017 FEW020CB BKN200@CAELT@12/03 Q1035 A3058 626.4 HR55 P0784 CB/SH N/S/SW/W AC NOSIG=@CAELT@
ZPX0602 011756@CAELT@GG SLZZYMYT@CAELT@011756 SLTJYGYZ@CAELT@SABO SLTJ 011800@CAELT@METAR SLTJ 011800Z 18008KT 9999 SCT030 FEW036CB SCT200 26/15 Q1016@CAELT@A3000 811.6 HR51 CB/W=@CAELT@
ZPX0603 011756@CAELT@GG SLZZYMYT@CAELT@011755 SLSBYSYX@CAELT@SABO SLSB 011800@CAELT@METAR SLSB 011800Z 19004KT 9999 -RA BKN013 FEW020CB OVC070 24/24@CAELT@Q1012 A2990 HR96 CB/SW RWY WET OPR C210=@CAELT@
ZPX0604 011757@CAELT@GG SLZZYMYT@CAELT@011756 SLCOYSYX@CAELT@SABO SLCO 011800@CAELT@METAR SLCO 011800Z 31008KT 7000 VCSH BKN023 FEW025CB BKN080 32/24@CAELT@Q1009 A2982 982.3 HR62 CB E/SE/S/SW SH S/SW CI=@CAELT@
ZPX0606 011757@CAELT@GG SLZZYMYT@CAELT@011755 SLETYMYC@CAELT@SABO SLET 011800Z@CAELT@METAR SLET 011800Z 12008KT 9999 FEW027 BKN070 BKN200 29/21 Q1011@CAELT@A2988 HR63 NOSIG=@CAELT@
ZPX0607 011757@CAELT@GG SLZZYMYT@CAELT@011757 SLCAYGYS@CAELT@SABO SLCA 011800@CAELT@METAR SLCA 011800Z 36006KT 9999 SCT036 26/18 Q1015 A2997 HR61 RWY NML@CAELT@
ZPX0608 011758@CAELT@GG SLZZYMYT@CAELT@011758 SLVRYFYC@CAELT@SABO SLVR 011800@CAELT@METAR SLVR 011800Z 05011KT 9999 FEW025 SCT070 BKN200 27/22 Q1012@CAELT@A2990 HR71 NOSIG=@CAELT@METAR SLET 011800Z 12008KT 9999 FEW027 BKN070 BKN200 29/21 Q1011@CAELT@A2988 HR63 NOSIG=@CAELT@METAR SLAS 011800Z 00000KT 9999 BKN013 OVC070 26/23 Q1015A2997 HR84 RWY WET INOP=METAR SLJV 011800Z 00000KT 9999 BKN017 27/23 Q1012 A2988 HR82 RWY HUMOPR=METAR SLCP 011800Z 00000KT 9999 SCT015 27/23 Q1015 A2997 HR78 RWY HUMMETAR SLSI 011800Z 00000KT 9999 SCT017 32/21 Q1012 A2988 HR52 RWY NMLMETAR SLTI 011800Z 00000KT 9999 SCT020 36/23 Q1013 A2991 HR46 RWY NMLMETAR SLJE 011800Z 00000KT 9999 FEW017 BKN200 33/22 Q1015 A2997 HR52RWY NML=METAR SLVG 011800Z 36007KT 9999 SCT023 BKN200 20/14 Q1025 A3027 HR63METAR SLRB 011800Z 00000KT 9999 BKN023 BKN200 35/21 Q1012 A2988 HR46METAR SLPS 011800Z 34008KT 9999 FEW017 SCT200 35/25 Q1010 A2983 HR57=METAR SLCA 011800Z 36006KT 9999 SCT036 26/18 Q1015 A2997 HR61 RWY NML
ZPX0610 011759@CAELT@GG SLZZYMYT@CAELT@011759 SLCBYGYS@CAELT@SABO SLCB 011800@CAELT@METAR SLCB 011800Z 04012KT 9999 SCT033 FEW036CB SCT080 OVC200 24/06@CAELT@Q1022 A3020 749.5 HR30 CB E/SE/S/SW NOSIG=@CAELT@METAR SLAL 011800Z 02019KT 9999 BKN023 FEW033CB SCT200 20/06 Q1028@CAELT@A3036 703.0 HR43 CB/NE/SW AC=@CAELT@METAR SLPO 011800Z NIL=METAR SLAG 011800Z 05010KT 9999 FEW020 FEW030CB SCT200 28/19 Q1015A2999 887.8 HR57 CB/W=METAR SLVM 011800Z NIL=METAR SLTJ 011800Z 18008KT 9999 SCT030 FEW036CB SCT200 26/15 Q1016A3000 811.6 HR51 CB/W=METAR SLYA 011800Z 04010KT 9999 BKN015 OVC070 25/22 Q1011 A2988 936.5HR85=METAR SLBJ 011800Z NIL=METAR SLHI 011800Z NIL=
ZPX0613 011800@CAELT@GG SLZZYMYT@CAELT@011800 SLTRYGYS@CAELT@SABO SLTR 011800@CAELT@METAR SLTR 011800Z 25004KT 7000 VCSH SCT012 FEW020CB BKN070 27/24@CAELT@Q1012 A2990 994.0 HR86 CB/SH N/S/NW TEMPO SHRA=@CAELT@METAR SLGM 011800Z 36006KT 9999 BKN017 FEW020CB BKN200 33/24 Q1009@CAELT@A298 HR61 AC CB N/NE/SE/S/SW=@CAELT@METAR SLRI 011800Z 32012KT 5000 VCSH BKN017 FEW020CB 33/25Q1010 A2983 HR63 CB/SH N/SW/W/NW=METAR SLJO 011800Z NIL=METAR SLRA 011800Z 32006KT 7000 TS VCSH SCT017 FEW023CB BKN20032/23 Q1010 A2984 HR60 CB/TS/SH S/SW RWY NML=METAR SLMG 011800Z 00000KT 8000 TS VCSH FEW017 FEW023CB BKN20026/24 Q1010 A2985 HR91 RESHRA CB/TS/SH N/NE/SE TS N RWY OPR C210=METAR SLBU 011800Z 32004KT 8000 VCSH SCT017 FEW023CB BKN200 32/25Q1009 A2980 HR66 CB/SH W/NW RWY NML=METAR SLSA 011800Z 30010KT 9999 BKN017 FEW023CB BKN200 30/24 Q1010A2983 HR70 CB NE/S=METAR SLSR 011800Z 28008KT 8000 VCSH SCT017 FEW023CB BKN070 27/24Q1011 A2985 HR82 CB/SH S/SW/W RWY OPR C206=METAR SLSM 011800Z 00000KT 8000 VCSH BKN015 FEW023CB OVC070 24/24Q1012 A2991 HR97 RERA CB/SH N/W/NW RWY HUM OPR=
ZPX0614 011801@CAELT@GG SLZZYMYT@CAELT@011801 SLLPYFYA@CAELT@SABO SLLP 011800@CAELT@METAR SLLP 011800Z 05014G24KT 360V120 9999 SCT017 FEW020CB BKN200@CAELT@12/03 Q1035 A3058 626.4 HR55 P0784 CB/SH N/S/SW/W AC NOSIG=@CAELT@METAR SLCO 011800Z 31008KT 7000 VCSH BKN023 FEW025CB BKN080 32/24@CAELT@Q1009 A2982 982.3 HR62 CB E/SE/S/SW SH S/SW CI=@CAELT@METAR SLRY 011800Z 00000KT 9999 FEW015 BKN040 OVC080 28/24 Q1011A2985 HR76 RWY WET OPR C206=METAR SLRQ 011800Z 00000KT 9999 SCT030 OVC070 27/24 Q1011 A2988987.6 HR83=METAR SLAP 011800Z 36008KT 9999 FEW015 OVC070 23/19 Q1018 A3009859.3 HR78=METAR SLSB 011800Z 19004KT 9999 -RA BKN013 FEW020CB OVC070 24/24Q1012 A2990 HR96 CB/SW RWY WET OPR C210=METAR SLOR 011800Z 13004KT 9999 BKN023 FEW025 BKN200 12/02 Q1033A3052 654.9 HR50 CB/SH E/SE/W/NW AC=
ZPX0618 011810@CAELT@GG SLZZYMYT@CAELT@011809 SLLPYFYA@CAELT@SABO SLLP 011800 CCA@CAELT@METAR SLLP 011800Z 05014G24KT 360V120 9999 SCT017 FEW020CB BKN200@CAELT@12/03 Q1035 A3058 626.4 HR55 P0784 CB/SH N/S/SW/W AC NOSIG=@CAELT@METAR SLCO 011800Z 31008KT 7000 VCSH BKN023 FEW025CB BKN080 32/24@CAELT@Q1009 A2982 982.3 HR62 CB E/SE/S/SW SH S/SW CI=@CAELT@METAR SLRY 011800Z 00000KT 9999 FEW015 BKN040 OVC080 28/24 Q1011A2985 HR76 RWY WET OPR C206=METAR SLRQ 011800Z 00000KT 9999 SCT030 OVC070 27/24 Q1011 A2988987.6 HR83=METAR SLAP 011800Z 36008KT 9999 FEW015 OVC070 23/19 Q1018 A3009859.3 HR78=METAR SLSB 011800Z 19004KT 9999 -RA BKN013 FEW020CB OVC070 24/24Q1012 A2990 HR96 CB/SW RWY WET OPR C210=METAR COR SLOR 011800Z 13004KT 9999 BKN023 FEW025CB BKN200 12/02Q1033 A3052 654.9 HR50 CB/SH E/SE/W/NW AC=
ZPX0626 011826@CAELT@GG SLZZYMYT@CAELT@011824 SLUYYGYS@CAELT@SABO SLUY 011800@CAELT@METAR SLUY 011800Z 25006KT 9999 FEW030 FEW033CB SCT200 21/04@CAELT@Q1029 A3040 655.2 HR34 CB/SH N/NE/E AC=@CAELT@
ZPX0627 011826@CAELT@GG SLZZYMYT@CAELT@011826 SLUYYGYS@CAELT@SABO SLUY 011800 RRA@CAELT@METAR RTD SLUY 011800Z 25006KT 9999 FEW030 FEW033CB SCT200 21/04@CAELT@Q1029 A3040 655.2 HR34 CB/SH N/NE/E AC=@CAELT@
ZPX0634 011847@CAELT@GG SLZZYMYT@CAELT@011847 SLLPYFYA@CAELT@SABO SLLP 011800 RRA@CAELT@METAR SLLP 011800Z 05014G24KT 360V120 9999 SCT017 FEW020CB BKN200@CAELT@12/03 Q1035 A3058 626.4 HR55 P0784 CB/SH N/S/SW/W AC NOSIG=@CAELT@METAR SLCO 011800Z 31008KT 7000 VCSH BKN023 FEW025CB BKN080 32/24@CAELT@Q1009 A2982 982.3 HR62 CB E/SE/S/SW SH S/SW CI=@CAELT@METAR SLRY 011800Z 00000KT 9999 FEW015 BKN040 OVC080 28/24 Q1011A2985 HR76 RWY WET OPR C206=METAR SLRQ 011800Z 00000KT 9999 SCT030 OVC070 27/24 Q1011 A2988987.6 HR83=METAR SLAP 011800Z 36008KT 9999 FEW015 OVC070 23/19 Q1018 A3009859.3 HR78=METAR SLSB 011800Z 19004KT 9999 -RA BKN013 FEW020CB OVC070 24/24Q1012 A2990 HR96 CB/SW RWY WET OPR C210=METAR SLOR 011800Z 13004KT 9999 BKN023 FEW025CB BKN200 12/02Q1033 A3052 654.9 HR50 CB/SH E/SE/W/NW AC=METAR RTD SLUY 011800Z 25006KT 9999 FEW030 FEW033CB SCT200 21/04Q1029 A3040 655.2 HR34 CB/SH N/NE/E AC=
ZPX0638 011853@CAELT@GG SLZZYMYT@CAELT@011853 SLPSYGYS@CAELT@SABO SLPS 011900@CAELT@METAR SLPS 011900Z 34006KT 9999 FEW017 35/25 Q1009 A2980 HR56=@CAELT@
ZPX0639 011854@CAELT@GG SLZZYMYT@CAELT@011853 SLRBYGYS@CAELT@SABO SLRB 011900@CAELT@METAR SLRB 011900Z 00000KT 9999 BKN023 BKN200 35/21 Q1011 A2985 HR46@CAELT@RWY NML=@CAELT@
ZPX0641 011855@CAELT@GG SLZZYMYT@CAELT@011854 SLSAYGYS@CAELT@SABO SLSA 011900@CAELT@METAR SLSA 011900Z 27007KT 9999 SCT017 FEW023CB BKN200 31/24 Q1009@CAELT@A2982 HR67 CB NE=@CAELT@
ZPX0642 011855@CAELT@GG SLZZYMYT@CAELT@011854 SLSAYGYS@CAELT@SABO SLSA 011900@CAELT@METAR SLSA 011900Z 27007KT 9999 SCT017 FEW023CB BKN200 31/24 Q1009@CAELT@A2982 HR67 CB NE=@CAELT@
ZPX0643 011855@CAELT@GG SLZZYMYT@CAELT@011855 SLTRYGYZ@CAELT@SABO SLTR 011900@CAELT@METAR SLTR 011900Z 25004KT 8000 VCSH SCT012 FEW020CB BKN070 27/24@CAELT@Q1011 A2987 992.9 HR84 CB/SH N/NE/NW NOSIG=@CAELT@
ZPX0644 011855@CAELT@GG SLZZYMYT@CAELT@011855 SLRQYSYX@CAELT@SABO SLRQ 011900@CAELT@METAR SLRQ 011900Z 00000KT 9999 SCT035 OVC080 28/24 Q1009 A2981 985.5@CAELT@HR79=@CAELT@
ZPX0645 011856@CAELT@GG SLZZYMYT@CAELT@011856 SLVRYGYZ@CAELT@SABO SLVR 011900@CAELT@METAR SLVR 011900Z 34011KT 9999 FEW020 BKN200 28/22 Q1011 A2987 HR67@CAELT@AC NOSIG=@CAELT@
ZPX0646 011856@CAELT@GG SLZZYMYT@CAELT@011855 SLCOYSYX@CAELT@SABO SLCO 011900@CAELT@METAR SLCO 011900Z 21010KT 4000 TS VCSH SCT008 SCT025CB OVC080 26/24@CAELT@Q1008 A2979 981.4 HR87 TS E/SE CB/SH N/NE/E/SE/S=@CAELT@
ZPX0647 011856@CAELT@GG SLZZYMYT@CAELT@011855 SLLPYFYA@CAELT@SABO SLRY 011900@CAELT@METAR SLRY 011900Z 00000KT 9999 FEW015 OVC080 29/22 Q1009 A2982 HR69@CAELT@RWY HUM OPR C210=@CAELT@
ZPX0648 011856@CAELT@GG SLZZYMYT@CAELT@011855 SLSBYSYX@CAELT@SABO SLSB 011900@CAELT@METAR SLSB 011900Z 17004KT 8000 VCSH BKN015 SCT080 OVC200 25/24@CAELT@Q1010 A2985 HR91 CB/SE SH/S S SW RERA RWY WET OPR C210=@CAELT@
ZPX0650 011856@CAELT@GG SLZZYMYT@CAELT@011852 SLETYMYC@CAELT@SABO SLET 011900Z@CAELT@METAR SLET 011900Z 33005KT 9999 SCT070 BKN200 29/21 Q1011 A2986 HR60@CAELT@NOSIG=@CAELT@
ZPX0651 011857@CAELT@GG SLZZYMYT@CAELT@011856 SLCBYGYZ@CAELT@SABO SLCB 011900@CAELT@METAR SLCB 011900Z 10013KT 9999 -RA SCT033 FEW036CB BKN080 OVC200 20/@CAELT@09 Q1022 A3020 749.6 HR49 CB N/NE/S/SW NOSIG=@CAELT@
ZPX0652 011857@CAELT@GG SLZZYMYT@CAELT@011858 SLTRYGYS@CAELT@SABO SLTR 011900@CAELT@METAR SLTR 011900Z 25004KT 8000 VCSH SCT012 FEW020CB BKN070 27/24@CAELT@Q1011 A2987 992.9 HR84 CB/SH N/NE/NW NOSIG=@CAELT@METAR SLGM 011900Z 02006KT 8000 VCSH BKN017 FEW020CB BKN200 34/24@CAELT@Q1008 A2978 HR58 CB N/NE/SE/S/SW SH NE/SW=@CAELT@METAR SLRI 011900Z 32010KT 5000 TS VCSH BKN015 FEW020CB BKN070 25/23Q1010 A2983 HR89 RERA CB/SH NE/E/SE/S/NW TS E/NW=METAR SLJO 011900Z NIL=METAR SLRA 011900Z 18008KT 7000 TS VCSH SCT017 FEW023CB BKN200 30/22Q1009 A2982 HR62 CB/TS/SH N/NE/W/NW RWY NML=METAR SLMG 011900Z 00000KT 8000 VCSH FEW017 FEW023CB BKN200 25/24Q1010 A2982 HR92 CB/SH NE/SE/W RWY OPR C210=METAR SLBU 011900Z 32004KT 7000 VCSH SCT017 FEW023CB BKN200 33/24Q1008 A2977 HR60 CB/SH S/SW/W RWY NML=METAR SLSA 011900Z 27007KT 9999 SCT017 FEW023CB BKN200 31/24 Q1009A2982 HR67 CB NE=METAR SLSR 011900Z 28008KT 8000 VCSH SCT017 FEW023CB SCT070 BKN20028/24 Q1009 A2982 HR77 CB/SH S/SW RWY OPR C210=METAR SLSM 011900Z 00000KT 9999 BKN015 OVC070 25/24 Q1011 A2986 HR94RWY HUM OPR=
ZPX0653 011857@CAELT@GG SLZZYMYT@CAELT@011856 SLTJYGYZ@CAELT@SABO SLTJ 011900@CAELT@METAR SLTJ 011900Z 08005KT 9999 SCT030 FEW036CB BKN200 25/14 Q1015@CAELT@A2999 811.2 HR51 CB/W=@CAELT@
ZPX0654 011858@CAELT@GG SLZZYMYT@CAELT@011857 SLSBYSYX@CAELT@SABO SLSB 011900 CCA@CAELT@METAR COR SLSB 011900Z 17004KT 8000 VCSH BKN015 FEW020CB OVC200 25/24@CAELT@Q1010 A2985 HR91 CB/SE SH/S S SW RERA RWY WET OPR C210=@CAELT@
ZPX0655 011859@CAELT@GG SLZZYMYT@CAELT@011858 SLCAYGYS@CAELT@SABO SLCA 011900@CAELT@METAR SLCA 011900Z 36010KT 9999 NSC 29/17 Q1013 A2991 HR50 CS RWY NML@CAELT@
ZPX0656 011859@CAELT@GG SLZZYMYT@CAELT@011858 SLLPYFYA@CAELT@SABO SLUY 011900@CAELT@METAR SLUY 011900Z 25010KT 9999 FEW033 FEW036CB SCT200 21/04 Q1018@CAELT@A3038 654.8 HR34 CB/SH N/NE/E AC=@CAELT@
ZPX0658 011859@CAELT@GG SLZZYMYT@CAELT@011859 SLSBYSYX@CAELT@SABO SLSB 011900 CCB@CAELT@METAR COR SLSB 011900Z 17004KT 8000 VCSH BKN015 FEW020CB OVC200 25/24@CAELT@Q1010 A2985 HR91 CB/SE SH/S SE SW RERA RWY WET OPR C210=@CAELT@
ZPX0660 011900@CAELT@GG SLZZYMYT@CAELT@011900 SLVRYFYC@CAELT@SABO SLVR 011900@CAELT@METAR SLVR 011900Z 34011KT 9999 FEW020 BKN200 28/22 Q1011 A2987@CAELT@HR67 AC NOSIG=@CAELT@METAR SLET 011900Z 33005KT 9999 SCT070 BKN200 29/21 Q1011 A2986@CAELT@HR60 NOSIG=@CAELT@METAR SLAS 011900Z 00000KT 9999 BKN015 BKN070 28/23 Q1014A2994 HR76 RWY WET OPR C206=METAR SLJV 011900Z 00000KT 9999 BKN020 28/23 Q1011 A2985 HR75RWY HUM OPR=METAR SLCP 011900Z 30008KT 9999 SCT017 28/23 Q1015 A2997 HR72METAR SLSI 011900Z 00000KT 9999 SCT017 33/22 Q1010 A2983 HR53 RWY NMLMETAR SLTI 011900Z 00000KT 9999 SCT020 36/22 Q1012 A2988 HR44 RWY NMLMETAR SLJE 011900Z 00000KT 9999 FEW017 BKN200 34/22 Q1013 A2991HR50 RWY NML=METAR SLVG 011900Z 35010KT 9999 SCT023 BKN200 22/11 Q1023 A3021HR47 RWY NML=METAR SLRB 011900Z 00000KT 9999 BKN023 BKN200 35/21 Q1011 A2985 HR46RWY NML=METAR SLPS 011900Z 34006KT 9999 FEW017 35/25 Q1009 A2980 HR56=METAR SLCA 011900Z 36010KT 9999 NSC 29/17 Q1013 A2991 HR50CS RWY NML=
ZPX0662 011904@CAELT@GG SLZZYMYT@CAELT@011904 SLCBYGYS@CAELT@SABO SLCB 011900@CAELT@METAR SLCB 011900Z 10013KT 9999 -RA SCT033 FEW036CB BKN080 OVC200@CAELT@20/09 Q1022 A3020 749.6 HR49 CB N/NE/S/SW NOSIG=@CAELT@METAR SLAL 011900Z 02014KT 9999 SCT023 FEW033CB BKN200 20/06 Q1027@CAELT@A3034 702.6 HR40 CB/SW AC=@CAELT@METAR SLPO 011900Z NIL=METAR SLAG 011900Z NIL=METAR SLVM 011900Z NIL=METAR SLTJ 011900Z 08005KT 9999 SCT030 FEW036CB BKN200 25/14 Q1015A2999 811.2 HR51 CB/W=METAR SLYA 011900Z NIL=METAR SLBJ 011900Z NIL=METAR SLHI 011900Z NIL=
ZPX0663 011904@CAELT@GG SLZZYMYT@CAELT@011904 SLLPYGYZ@CAELT@SABO SLLP 011900@CAELT@METAR SLLP 011900Z 040124KT 360V120 9999 SCT017 FEW020CB BKN200@CAELT@13/03 Q1035 A3058 626.2 HR55 P0784 CB/SH N/S/SW/W AC NOSIG=@CAELT@
ZPX0664 011905@CAELT@GG SLZZYMYT@CAELT@011904 SLLPYFYA@CAELT@SABO SLLP 011900@CAELT@METAR SLLP 011900Z 040124KT 360V120 9999 SCT017 FEW020CB BKN200@CAELT@13/03 Q1035 A3058 626.2 HR55 P0784 CB/SH N/S/SW/W AC NOSIG=@CAELT@METAR SLCO 011900Z 21010KT 4000 TS VCSH SCT008 SCT025CB OVC080 26/24@CAELT@Q1008 A2979 981.4 HR87 TS E/SE CB/SH N/NE/E/SE/S=@CAELT@METAR SLRY 011900Z 00000KT 9999 FEW015 OVC080 29/22 Q1009 A2982 HR69RWY HUM OPR C210=METAR SLRQ 011900Z 00000KT 9999 SCT035 OVC080 28/24 Q1009 A2981 985.5HR79=METAR SLSB 011900Z 17004KT 8000 VCSH BKN015 FEW020CB OVC200 25/24Q1010 A2985 HR91 CB/SE SH/S SE SW RERA RWY WET OPR C210=METAR SLUY 011900Z 25010KT 9999 FEW033 FEW036CB SCT200 21/04 Q1018A3038 654.8 HR34 CB/SH N/NE/E AC=
ZPX0665 011906@CAELT@GG SLZZYMYT@CAELT@011905 SLLPYGYZ@CAELT@SABO SLLP 011900 CCA@CAELT@METAR COR SLLP 011900Z 04012KT 360V120 9999 SCT017 FEW020CB BKN200@CAELT@13/03 Q1035 A3058 626.2 HR55 P0784 CB/SH N/S/SW/W AC NOSIG=@CAELT@
ZPX0666 011907@CAELT@GG SLZZYMYT@CAELT@011906 SLLPYFYA@CAELT@SABO SLLP 011900 CCA@CAELT@METAR COR SLLP 011900Z 04012KT 360V120 9999 SCT017 FEW020CB BKN200@CAELT@13/03 Q1035 A3058 626.2 HR55 P0784 CB/SH N/S/SW/W AC NOSIG=@CAELT@METAR SLCO 011900Z 21010KT 4000 TS VCSH SCT008 SCT025CB OVC080 26/24@CAELT@Q1008 A2979 981.4 HR87 TS E/SE CB/SH N/NE/E/SE/S=@CAELT@METAR SLRY 011900Z 00000KT 9999 FEW015 OVC080 29/22 Q1009 A2982 HR69RWY HUM OPR C210=METAR SLRQ 011900Z 00000KT 9999 SCT035 OVC080 28/24 Q1009 A2981 985.5HR79=METAR SLSB 011900Z 17004KT 8000 VCSH BKN015 FEW020CB OVC200 25/24Q1010 A2985 HR91 CB/SE SH/S SE SW RERA RWY WET OPR C210=METAR SLUY 011900Z 25010KT 9999 FEW033 FEW036CB SCT200 21/04 Q1018A3038 654.8 HR34 CB/SH N/NE/E AC=
ZPX0688 011953@CAELT@GG SLZZYMYT@CAELT@011953 SLCAYGYS@CAELT@SABO SLCA 012000@CAELT@METAR SLCA 012000Z 36015KT 9999 NSC 31/14 Q1011 A2985 HR36 CS RWY NML@CAELT@
ZPX0689 011953@CAELT@GG SLZZYMYT@CAELT@011953 SLPSYGYS@CAELT@SABO SLPS 012000@CAELT@METAR SLPS 012000Z 34006KT 9999 FEW017 FEW027CB 35/26 Q1008 A2977@CAELT@HR60 CB/NE=@CAELT@
ZPX0690 011954@CAELT@GG SLZZYMYT@CAELT@011950 SLETYMYC@CAELT@SABO SLET 012000Z@CAELT@METAR SLET 012000Z 34013KT 9999 NSC 28/21 Q1010 A2982 HR 65 NOSIG=@CAELT@
ZPX0692 011955@CAELT@GG SLZZYMYT@CAELT@011953 SLRBYGYS@CAELT@SABO SLRB 012000@CAELT@METAR SLRB 012000Z 00000KT 9999 SCT020 FEW027CB BKN200 34/22 Q1010@CAELT@A2983 HR48 CB S/SE/SW RWY NML=@CAELT@
ZPX0693 011955@CAELT@GG SLZZYMYT@CAELT@011955 SLTJYGYZ@CAELT@SABO SLTJ 012000@CAELT@METAR SLTJ 012000Z 13005KT 9999 FEW030 FEW036CB BKN100 BKN200 23/15@CAELT@Q1014 A2996 810.4 HR59 CB W=@CAELT@
ZPX0695 011955@CAELT@GG SLZZYMYT@CAELT@011955 SLTRYGYZ@CAELT@SABO SLTR 012000@CAELT@METAR SLTR 012000Z 26006KT 9999 FEW017 FEW020CB SCT070 BKN200 28/24@CAELT@Q1009 A2982 991.2 HR82 CB N NOSIG=@CAELT@
ZPX0696 011956@CAELT@GG SLZZYMYT@CAELT@011955 SLLPYFYA@CAELT@SABO SLSB 012000@CAELT@METAR SLSB 012000Z 18004KT 9999 BKN015 FEW020CB OVC200 25/23 Q1010@CAELT@A2983 HR89 CB/SH/SW RWY WET OPR C210=@CAELT@
ZPX0697 011956@CAELT@GG SLZZYMYT@CAELT@011956 SLSAYGYS@CAELT@SABO SLSA 012000@CAELT@METAR SLSA 012000Z 19007KT 9999 SCT017 FEW023CB BKN200 30/24 Q1008@CAELT@A2977 HR67 CB NE/W=@CAELT@
ZPX0699 011957@CAELT@GG SLZZYMYT@CAELT@011955 SLRQYSYX@CAELT@SABO SLRQ 012000@CAELT@METAR SLRQ 012000Z 00000KT 9999 FEW035 BKN080 BKN200 28/24 Q1007@CAELT@A2976 983.7 HR76=@CAELT@
ZPX0700 011958@CAELT@GG SLZZYMYT@CAELT@011957 SLLPYFYA@CAELT@SABO SLRY 012000@CAELT@METAR SLRY 012000Z 00000KT 9999 FEW015 OVC080 28/23 Q1007 A2976 HR75@CAELT@RWY HUM OPR=@CAELT@
ZPX0703 011958@CAELT@GG SLZZYMYT@CAELT@011958 SLCOYSYX@CAELT@SABO SLCO 012000@CAELT@METAR SLCO 012000Z 27003KT 3000 -TSRA SCT006 FEW023CB OVC080 25/24@CAELT@Q1008 A2979 981.3 HR98 CB/TS N/NE/E/NW=@CAELT@
ZPX0705 011958@CAELT@GG SLZZYMYT@CAELT@011958 SLVRYGYU@CAELT@SABO SLVR 012000@CAELT@METAR SLVR 012000Z 36013KT 9999 FEW020 BKN200 27/22 Q1011 A2985 HR72@CAELT@AC NOSIG=@CAELT@
ZPX0706 011958@CAELT@GG SLZZYMYT@CAELT@011958 SLVRYGYU@CAELT@SABO SLVR 012000@CAELT@METAR SLVR 012000Z 36013KT 9999 FEW020 BKN200 27/22 Q1011 A2985 HR72@CAELT@AC NOSIG=@CAELT@
ZPX0708 011959@CAELT@GG SLZZYMYT@CAELT@011959 SLVRYFYC@CAELT@SABO SLVR 012000@CAELT@METAR SLVR 012000Z 36013KT 9999 FEW020 BKN200 27/22 Q1011 A2985 HR72@CAELT@AC NOSIG=@CAELT@METAR SLET 012000Z 34013KT 9999 NSC 28/21 Q1010 A2982 HR 65 NOSIG=@CAELT@METAR SLAS 012000Z 00000KT 9999 SCT015 28/23 Q1012 A2989 HR74@CAELT@RWY WET OPR C206=METAR SLJV 012000Z 00000KT 9999 SCT020 29/23 Q1011 A2985 HR73 RWY NMLMETAR SLCP 012000Z 30008KT 9999 SCT017 28/23 Q1013 A2991 HR72RWY HUM OPR=METAR SLSI 012000Z 33006KT 9999 SCT017 32/22 Q1010 A2983 HR56 RWY NMLMETAR SLTI 012000Z 00000KT 9999 SCT020 36/22 Q1011 A2985 HR44 RWY NMLMETAR SLJE 012000Z 00000KT 9999 FEW017 BKN200 33/22 Q1012 A2988HR52 RWY NML=METAR SLVG 012000Z 35009KT 9999 SCT023 BKN200 23/11 Q1022 A3018HR45 RWY NML=METAR SLRB 012000Z 00000KT 9999 SCT020 FEW027CB BKN200 34/22 Q1010A2983 HR48 CB S/SE/SW RWY NML=METAR SLPS 012000Z 34006KT 9999 FEW017 FEW027CB 35/26 Q1008 A2977HR60 CB/NE=METAR SLCA 012000Z 36015KT 9999 NSC 31/14 Q1011 A2985 HR36 CS RWY NML
ZPX0710 012000@CAELT@GG SLZZYMYT@CAELT@012000 SLVRYGYZ@CAELT@SABO SLVR 012000 RRA@CAELT@METAR SLVR 012000Z 36013KT 9999 FEW020 BKN200 27/22 Q1011 A2985 HR72@CAELT@AC NOSIG=@CAELT@
ZPX0711 012001@CAELT@GG SLZZYMYT@CAELT@012001 SLTRYGYS@CAELT@SABO SLTR 012000@CAELT@METAR SLTR 012000Z 26006KT 9999 FEW017 FEW020CB SCT070 BKN200 28/24@CAELT@Q1009 A2982 991.2 HR82 CB N NOSIG=@CAELT@METAR SLGM 012000Z 09010KT 8000 VCSH BKN017 FEW020CB BKN200 34/24@CAELT@Q1007 A2976 HR58 CB N/NE/SE/S/SW SH/NE/E/SW=@CAELT@METAR SLRI 012000Z 15006KT 5000 -TSRA BKN015 FEW020CB OVC070 25/24Q1009 A2980 HR95 CB S/SW/NW TS NW=METAR SLJO 012000Z NIL=METAR SLRA 012000Z 32008KT 7000 -TSRA SCT017 FEW023CB BKN200 27/24Q1008 A2979 HR84 CB/TS NE/E RWY HUM OPR=METAR SLMG 012000Z 00000KT 8000 TS VCSH FEW017 FEW023CB BKN200 27/24Q1008 A2979 HR88 CB/SH SW/W/NW TS SW RWY OPR C210=METAR SLBU 012000Z 32004KT 8000 VCSH SCT017 FEW023CB OVC200 27/24Q1007 A2974 HR83 CB/SH S/SW RWY NML=METAR SLSA 012000Z 19007KT 9999 SCT017 FEW023CB BKN200 30/24 Q1008A2977 HR67 CB NE/W=METAR SLSR 012000Z 12008KT 8000 VCSH SCT015 FEW023CB BKN200 29/24Q1007 A2976 HR76 CB/SH S/SW RWY WET OPR C210=METAR SLSM 012000Z 00000KT 9999 BKN015 OVC070 26/24 Q1009 A2982 HR88RWY HUM OPR=
ZPX0712 012001@CAELT@GG SLZZYMYT@CAELT@011955 SLLPYGYZ@CAELT@SABO SLLP 012000@CAELT@METAR SLLP 012000Z 06013KT 030V090 9999 FEW017 FEW020CB SCT070 BKN200@CAELT@13/04 Q1034 A3055 625.7 HR57 P93// CB/SH S/SW/W NOSIG=@CAELT@
ZPX0714 012002@CAELT@GG SLZZYMYT@CAELT@012002 SLLPYFYA@CAELT@SABO SLLP 012000@CAELT@METAR SLLP 012000Z 06013KT 030V090 9999 FEW017 FEW020CB SCT070 BKN200@CAELT@13/04 Q1034 A3055 625.7 HR57 P93// CB/SH S/SW/W NOSIG=@CAELT@METAR SLCO 012000Z 27003KT 3000 -TSRA SCT006 FEW023CB OVC080 25/24@CAELT@Q1008 A2979 981.3 HR98 CB/TS N/NE/E/NW=@CAELT@METAR SLRY 012000Z 00000KT 9999 FEW015 OVC080 28/23 Q1007 A2976 HR75RWY HUM OPR=METAR SLRQ 012000Z 00000KT 9999 FEW035 BKN080 BKN200 28/24 Q1007A2976 983.7 HR76=METAR SLSB 012000Z 18004KT 9999 BKN015 FEW020CB OVC200 25/23 Q1010A2983 HR89 CB/SH/SW RWY WET OPR C210=
ZPX0726 012031@CAELT@GG SLZZYMYT@CAELT@012029 SLLPYFYA@CAELT@SABO SLCB 012000@CAELT@METAR SLCB 012000Z 11010KT 9999 FEW033 FEW036CB SCT080 BKN200 22/07@CAELT@Q1021 A3017 748.9 HR38 CB S/SW NOSIG=@CAELT@
ZPX0727 012032@CAELT@GG SLZZYMYT@CAELT@012032 SLLPYFYA@CAELT@SABO SLCB 012000@CAELT@METAR SLCB 012000Z 11010KT 9999 FEW033 FEW036CB SCT080 BKN200 22/07@CAELT@Q1021 A3017 748.9 HR38 CB S/SW NOSIG=@CAELT@METAR SLAL 012000Z 01018KT 9999 SCT020 FEW030CB BKN200 18/07 Q1027@CAELT@A3033 702.2 HR50 CB/NE AC=@CAELT@
ZPX0729 012036@CAELT@GG SLZZYMYT@CAELT@012036 SLLPYFYA@CAELT@SABO SLCB 012000@CAELT@METAR SLCB 012000Z 11010KT 9999 FEW033 FEW036CB SCT080 BKN200 22/07@CAELT@Q1021 A3017 748.9 HR38 CB S/SW NOSIG=@CAELT@METAR SLAL 012000Z 01018KT 9999 SCT020 FEW030CB BKN200 18/07 Q1027@CAELT@A3033 702.2 HR50 CB/NE AC=@CAELT@METAR SLTJ 012000Z 13005KT 9999 FEW030 FEW036CB BKN100 BKN200 23/15Q1014 A2996 810.4 HR59 CB W=
ZPX0737 012050@CAELT@GG SLZZYMYT@CAELT@012050 SLCAYGYS@CAELT@SABO SLCA 012100@CAELT@METAR SLCA 012100Z 36015KT 9999 NSC 31/14 Q1010 A2983 HR31 CS RWY NML@CAELT@
ZPX0740 012051@CAELT@GG SLZZYMYT@CAELT@012050 SLPSYGYS@CAELT@SABO SLPS 012100@CAELT@METAR SLPS 012100Z 34004KT 9999 FEW017 FEW027CB BKN200 34/26 Q1008@CAELT@A2977 HR64 CB/NE=@CAELT@
ZPX0741 012053@CAELT@GG SLZZYMYT@CAELT@012053 SLSBYSYX@CAELT@SABO SLSB 012100@CAELT@METAR SLSB 012100Z 14004KT 8000 VCSH BKN015 FEW020CB OVC200 26/23@CAELT@Q1009 A2981 HR86 CB/SH SW NW RWY WET OPR C210=@CAELT@
ZPX0742 012054@CAELT@GG SLZZYMYT@CAELT@012054 SLSAYGYS@CAELT@SABO SLSA 012100@CAELT@METAR SLSA 012100Z 17007KT 8000 VCSH SCT017 FEW023CB BKN200 29/24@CAELT@Q1007 A2975 HR72 CB/SH W/NW=@CAELT@
ZPX0745 012055@CAELT@GG SLZZYMYT@CAELT@012055 SLVRYGYZ@CAELT@SABO SLVR 012100@CAELT@METAR SLVR 012100Z 35011KT 9999 FEW020 BKN200 27/22 Q1010 A2982 HR75@CAELT@NOSIG=@CAELT@
ZPX0746 012055@CAELT@GG SLZZYMYT@CAELT@012054 SLRBYGYS@CAELT@SABO SLRB 012100@CAELT@METAR SLRB 012100Z 00000KT 9999 SCT020 FEW025CB BKN200 33/22 Q1010@CAELT@A2983 HR52 CB/S RWY NML=@CAELT@
ZPX0747 012055@CAELT@GG SLZZYMYT@CAELT@012055 SLLPYFYA@CAELT@SABO SLRY 012100@CAELT@METAR SLRY 012100Z 00000KT 9999 FEW015 OVC080 27/23 Q1006 A2973 HR79@CAELT@RWY HUM OPR=@CAELT@
ZPX0748 012055@CAELT@GG SLZZYMYT@CAELT@012055 SLTRYGYZ@CAELT@SABO SLTR 012100@CAELT@METAR SLTR 012100Z 25006KT 9999 FEW017 FEW020CB BKN200 28/24 Q1008@CAELT@A2978 990.0 HR77 CB NE NOSIG=@CAELT@
ZPX0749 012056@CAELT@GG SLZZYMYT@CAELT@012055 SLLPYGYZ@CAELT@SABO SLLP 012100@CAELT@METAR SLLP 012100Z 08011KT 040V150 9999 FEW017 FEW020CB SCT070 BKN200@CAELT@12/04 Q1034 A3055 625.5 HR56 P93// CB/SH S/SW/W NOSIG=@CAELT@
ZPX0750 012056@CAELT@GG SLZZYMYT@CAELT@012054 SLETYMYC@CAELT@SABO SLET 012100Z@CAELT@METAR SLET 012100Z 32010KT 9999 SCT016 BKN200 27/21 Q1009 A2980 HR71@CAELT@NOSIG=@CAELT@
ZPX0751 012056@CAELT@GG SLZZYMYT@CAELT@012056 SLCOYSYX@CAELT@SABO SLCO 012100@CAELT@METAR SLCO 012100Z VRB02KT 7000 VCSH FEW004 FEW023CB OVC080 25/25@CAELT@Q1008 A2977 980.8 HR98 CB/SH N/NE/W/NW RETSRA=@CAELT@
ZPX0752 012057@CAELT@GG SLZZYMYT@CAELT@012057 SLTRYGYS@CAELT@SABO SLTR 012100@CAELT@METAR SLTR 012100Z 25006KT 9999 FEW017 FEW020CB BKN200 28/24 Q1008@CAELT@A2978 990.0 HR77 CB NE NOSIG=@CAELT@METAR SLGM 012100Z 09008KT 6000 TS VCSH BKN017 FEW020CB BKN200 31/24@CAELT@Q1007 A2975 HR68 CB/SH NE/E/SE/S/SW TS NW=@CAELT@METAR SLRI 012100Z 16006KT 7000 VCSH SCT015 FEW020CB OVC200 24/24Q1008 A2979 HR98 RETSRA CB/SH E/SE/S=METAR SLJO 012100Z NIL=METAR SLRA 012100Z 32006KT 8000 -TSRA SCT017 FEW023CB OVC070 25/23Q1008 A2979 HR91 CB/TS NE/E RWY HUM OPR=METAR SLMG 012100Z 32006KT 8000 VCSH SCT015 FEW023CB OVC200 27/25Q1008 A2979 HR91 CB/SH W RWY OPR C210=METAR SLBU 012100Z 32004KT 9999 FEW017 FEW023CB OVC200 28/24 Q1006A2972 HR81 CB S RWY NML=METAR SLSA 012100Z 17007KT 8000 VCSH SCT017 FEW023CB BKN200 29/24Q1007 A2975 HR72 CB/SH W/NW=METAR SLSR 012100Z 02006KT 8000 VCSH FEW015 FEW023CB BKN200 28/24Q1006 A2973 HR78 CB/SH N/NE RWY WET OPR C210=METAR SLSM 012100Z 00000KT 9999 SCT015 BKN200 26/24 Q1008 A2978HR88 RWY HUM OPR=
ZPX0753 012057@CAELT@GG SLZZYMYT@CAELT@012055 SLTJYGYZ@CAELT@SABO SLTJ 012100@CAELT@METAR SLTJ 012100Z 15005KT 9999 FEW030 FEW036CB BKN200 23/16 Q1014@CAELT@A2995 810.1 HR61 CB/W AC=@CAELT@
ZPX0755 012057@CAELT@GG SLZZYMYT@CAELT@012056 SLRQYSYX@CAELT@SABO SLRQ 012100@CAELT@METAR SLRQ 012100Z 00000KT 9999 FEW030 OVC080 27/24 Q1007 A2974 983.1@CAELT@HR84=@CAELT@
ZPX0756 012058@CAELT@GG SLZZYMYT@CAELT@012058 SLVRYFYC@CAELT@SABO SLVR 012100@CAELT@METAR SLVR 012100Z 35011KT 9999 FEW020 BKN200 27/22 Q1010 A2982@CAELT@HR75 NOSIG=@CAELT@METAR SLET 012100Z 32010KT 9999 SCT016 BKN200 27/21 Q1009 A2980@CAELT@HR71 NOSIG=@CAELT@METAR SLAS 012100Z 00000KT 9999 FEW017 28/23 Q1011 A2986 HR74RWY HUM OPR=METAR SLJV 012100Z 00000KT 9999 SCT020 28/22 Q1010 A2983 HR70 RWY NMLMETAR SLCP 012100Z 30008KT 9999 SCT017 28/22 Q1012 A2988 HR72 RWY NMLMETAR SLSI 012100Z 33006KT 9999 SCT017 32/21 Q1009 A2980 HR54 RWY NMLMETAR SLTI 012100Z 00000KT 9999 SCT020 36/22 Q1011 A2985 HR43 RWY NMLMETAR SLJE 012100Z 00000KT 9999 NSC 33/22 Q1011 A2985 HR53 CI RWY NMLMETAR SLVG 012100Z 35007KT 9999 NSC 22/11 Q1021 A3015 HR44 CI RWY NMLMETAR SLRB 012100Z 00000KT 9999 SCT020 FEW025CB BKN200 33/22 Q1010A2983 HR52 CB/S RWY NML=METAR SLPS 012100Z 34004KT 9999 FEW017 FEW027CB BKN200 34/26 Q1008A2977 HR64 CB/NE=METAR SLCA 012100Z 36015KT 9999 NSC 31/14 Q1010 A2983 HR31 CS RWY NML
ZPX0761 012103@CAELT@GG SLZZYMYT@CAELT@012103 SLLPYFYA@CAELT@SABO SLLP 012100@CAELT@METAR SLLP 012100Z 08011KT 040V150 9999 FEW017 FEW020CB SCT070 BKN200@CAELT@12/04 Q1034 A3055 625.5 HR56 P93// CB/SH S/SW/W NOSIG=@CAELT@METAR SLCO 012100Z VRB02KT 7000 VCSH FEW004 FEW023CB OVC080 25/25@CAELT@Q1008 A2977 980.8 HR98 CB/SH N/NE/W/NW RETSRA=@CAELT@METAR SLRY 012100Z 00000KT 9999 FEW015 OVC080 27/23 Q1006 A2973 HR79RWY HUM OPR=METAR SLRQ 012100Z 00000KT 9999 FEW030 OVC080 27/24 Q1007 A2974 983.1HR84=METAR SLSB 012100Z 14004KT 8000 VCSH BKN015 FEW020CB OVC200 26/23Q1009 A2981 HR86 CB/SH SW NW RWY WET OPR C210=
ZPX0766 012109@CAELT@GG SLZZYMYT@CAELT@012109 SLLPYFYA@CAELT@SABO SLCB 012100@CAELT@METAR SLCB 012100Z 15009KT 9999 FEW033 FEW036CB SCT080 BKN200 22/07@CAELT@Q1021 A3017 748.8 HR37 CB DIST SW NOSIG=@CAELT@
ZPX0767 012110@CAELT@GG SLZZYMYT@CAELT@012110 SLLPYFYA@CAELT@SABO SLCB 012100@CAELT@METAR SLCB 012100Z 15009KT 9999 FEW033 FEW036CB SCT080 BKN200 22/07@CAELT@Q1021 A3017 748.8 HR37 CB DIST SW NOSIG=@CAELT@METAR SLAL 012100Z 01015G25KT 9999 SCT017 FEW033CB BKN200 15/08 Q1027@CAELT@A3032 702.1 HR67 CB/SW AC=@CAELT@METAR SLTJ 012100Z 15005KT 9999 FEW030 FEW036CB BKN200 23/16 Q1014A2995 810.1 HR61 CB/W AC=
ZPX0784 012153@CAELT@GG SLZZYMYT@CAELT@012152 SLETYMYC@CAELT@SABO SLET 012200Z@CAELT@METAR SLET 012200Z 33012KT 9999 FEW016 BKN200 26/21 Q1008 A2977 HR74@CAELT@NOSIG=@CAELT@
ZPX0785 012154@CAELT@GG SLZZYMYT@CAELT@012153 SLPSYGYS@CAELT@SABO SLPS 012200@CAELT@METAR SLPS 012200Z 00000KT 9999 FEW017 BKN200 33/27 Q1008 A2977 HR70=@CAELT@
ZPX0786 012155@CAELT@GG SLZZYMYT@CAELT@012155 SLTRYGYZ@CAELT@SABO SLTR 012200@CAELT@METAR SLTR 012200Z 00000KT 9999 FEW017 FEW020CB BKN200 27/24 Q1007@CAELT@A2976 989.3 HR81 CB NE NOSIG=@CAELT@
ZPX0787 012155@CAELT@GG SLZZYMYT@CAELT@012155 SLLPYFYA@CAELT@SABO SLRY 012200@CAELT@METAR SLRY 012200Z 00000KT 9999 FEW015 OVC080 27/24 Q1006 A2973 HR84@CAELT@RWY HUM OPR=@CAELT@
ZPX0788 012155@CAELT@GG SLZZYMYT@CAELT@012153 SLRBYGYS@CAELT@SABO SLRB 012200@CAELT@METAR SLRB 012200Z 00000KT 9999 SCT020 BKN200 32/22 Q1010 A2983 HR55@CAELT@RWY NML=@CAELT@
ZPX0789 012156@CAELT@GG SLZZYMYT@CAELT@012155 SLCOYSYX@CAELT@SABO SLCO 012200@CAELT@METAR SLCO 012200Z 34005KT 9999 FEW004 FEW023CB OVC080 25/24 Q1008@CAELT@A2977 980.8 HR94 CB E/W=@CAELT@
ZPX0790 012156@CAELT@GG SLZZYMYT@CAELT@012155 SLCAYGYS@CAELT@SABO SLCA 012200@CAELT@METAR SLCA 012200Z 36006KT 9999 NSC 30/15 Q1009 A2980 HR41 CS RWY NML@CAELT@
ZPX0791 012156@CAELT@GG SLZZYMYT@CAELT@012155 SLRQYSYX@CAELT@SABO SLRQ 012200@CAELT@METAR SLRQ 012200Z 00000KT 9999 FEW008 OVC080 26/25 Q1007 A2974 983.0@CAELT@HR91=@CAELT@
ZPX0792 012156@CAELT@GG SLZZYMYT@CAELT@012155 SLLPYGYZ@CAELT@SABO SLLP 012200@CAELT@METAR SLLP 012200Z 14009KT 9999 FEW015 FEW017CB SCT070 BKN200 10/05@CAELT@Q1035 A3058 626.2 HR72 P93// CB/SW/W NOSIG=@CAELT@
ZPX0793 012156@CAELT@GG SLZZYMYT@CAELT@012155 SLVRYGYZ@CAELT@SABO SLVR 012200@CAELT@METAR SLVR 012200Z 36007KT 9999 FEW017 BKN200 26/21 Q1008 A2979 HR75@CAELT@NOSIG=@CAELT@
ZPX0794 012156@CAELT@GG SLZZYMYT@CAELT@012156 SLSBYSYX@CAELT@SABO SLSB 012200@CAELT@METAR SLSB 012200Z 00000KT 9999 SCT015 OVC200 25/24 Q1008 A2983 HR90@CAELT@RWY WET OPR C210=@CAELT@
ZPX0795 012157@CAELT@GG SLZZYMYT@CAELT@012156 SLSAYGYS@CAELT@SABO SLSA 012200@CAELT@METAR SLSA 012200Z 17007KT 9999 SCT017 FEW023CB BKN200 28/24 Q1007@CAELT@A2974 HR79 CB E=@CAELT@
ZPX0796 012157@CAELT@GG SLZZYMYT@CAELT@012157 SLLPYFYA@CAELT@SABO SLLP 012200@CAELT@METAR SLLP 012200Z 14009KT 9999 FEW015 FEW017CB SCT070 BKN200 10/05@CAELT@Q1035 A3058 626.2 HR72 P93// CB/SW/W NOSIG=@CAELT@METAR SLCO 012200Z 34005KT 9999 FEW004 FEW023CB OVC080 25/24 Q1008@CAELT@A2977 980.8 HR94 CB E/W=@CAELT@METAR SLRY 012200Z 00000KT 9999 FEW015 OVC080 27/24 Q1006 A2973 HR84RWY HUM OPR=METAR SLRQ 012200Z 00000KT 9999 FEW008 OVC080 26/25 Q1007 A2974983.0 HR91=METAR SLSB 012200Z 00000KT 9999 SCT015 OVC200 25/24 Q1008 A2983 HR90RWY WET OPR C210=
ZPX0797 012158@CAELT@GG SLZZYMYT@CAELT@012158 SLTRYGYS@CAELT@SABO SLTR 012200@CAELT@METAR SLTR 012200Z 00000KT 9999 FEW017 FEW020CB BKN200 27/24 Q1007@CAELT@A2976 989.3 HR81 CB NE NOSIG=@CAELT@METAR SLGM 012200Z 19010KT 5000 TS VCSH BKN015 FEW020CB BKN200@CAELT@29/24 Q1008 A2979 HR77 CB/SH E/SE/S/SW/W TS S/SW=@CAELT@METAR SLRI 012200Z 00000KT 7000 VCSH SCT015 FEW020CB OVC20024/24 Q1009 A2980 HR96 CB/SH N/NE/E/SE/SW=METAR SLJO 012200Z NIL=METAR SLRA 012200Z 32004KT 8000 VCSH FEW017 FEW023CB BKN200 24/23Q1008 A2977 HR95 RETSRA CB/SH N/NW RWY HUM OPR=METAR SLMG 012200Z 32004KT 9999 SCT015 FEW023CB OVC200 26/24 Q1008A2978 HR89 CB SW RWY OPR C210=METAR SLBU 012200Z NIL=METAR SLSA 012200Z 17007KT 9999 SCT017 FEW023CB BKN200 28/24 Q1007A2974 HR79 CB E=METAR SLSR 012200Z 12004KT 9999 FEW015 EW023CB BKN200 27/24 Q1006A2972 HR87 CB N/NE RWY OPR C21METAR SLSM 012200Z 00000KT 9999 FEW015 BKN200 25/24 Q1007 A2976HR91 RWY NML=
ZPX0798 012159@CAELT@GG SLZZYMYT@CAELT@012157 SLTJYGYZ@CAELT@SABO SLTJ 012200@CAELT@METAR SLTJ 012200Z 26004KT 9999 FEW027 FEW030CB SCT070 BKN200 22/15@CAELT@Q1015 A2997 810.8 HR64 CB/W/NW=@CAELT@
ZPX0799 012159@CAELT@GG SLZZYMYT@CAELT@012159 SLVRYFYC@CAELT@SABO SLVR 012200@CAELT@METAR SLVR 012200Z 36007KT 9999 FEW017 BKN200 26/21 Q1008 A2979@CAELT@HR75 NOSIG=@CAELT@METAR SLET 012200Z 33012KT 9999 FEW016 BKN200 26/21 Q1008 A2977@CAELT@HR74 NOSIG=@CAELT@METAR SLAS 012200Z 00000KT 9999 FEW017 28/23 Q1010 A2983 HR79RWY HUM OPR=METAR SLJV 012200Z 00000KT 9999 SCT020 26/22 Q1009 A2980 HR78 RWY NMLMETAR SLCP 012200Z 30006KT 9999 FEW017 27/23 Q1012 A2988 HR78 RWY NMLMETAR SLSI 012200Z 00000KT 9999 FEW017 30/22 Q1008 A2977 HR62 RWY NMLMETAR SLTI 012200Z 00000KT 9999 FEW020 36/22 Q1010 A2983 HR44 RWY NMLMETAR SLJE 012200Z 00000KT 9999 NSC 32/22 Q1011 A2985 HR56 CI RWY NMLMETAR SLVG 012200Z NIL=METAR SLRB 012200Z 00000KT 9999 SCT020 BKN200 32/22 Q1010 A2983 HR55RWY NML=METAR SLPS 012200Z 00000KT 9999 FEW017 BKN200 33/27 Q1008 A2977 HR70=METAR SLCA 012200Z 36006KT 9999 NSC 30/15 Q1009 A2980 HR41CS RWY NML=
ZPX0803 012204@CAELT@GG SLZZYMYT@CAELT@012203 SLLPYFYA@CAELT@SABO SLCB 012200@CAELT@METAR SLCB 012200Z NIL=@CAELT@METAR SLAL 012200Z 34017KT 9999 FEW015 FEW033CB BKN200 13/08 Q1027@CAELT@A3033 702.2 HR70 CB/W=@CAELT@METAR SLTJ 012200Z 26004KT 9999 FEW027 FEW030CB SCT070 BKN200 22/15@CAELT@Q1015 A2997 810.8 HR64 CB/W/NW=
ZPX0816 012241@CAELT@GG SLZZYMYT@CAELT@012239 SLLPYFYA@CAELT@SABO SLCB 012200@CAELT@METAR SLCB 012200Z 19005KT 9999 FEW033 FEW036CB SCT080 BKN200@CAELT@22/07 Q1022 A3018 749.1 HR40 CB/DIST/S/SW FU NOSIG=@CAELT@
ZPX0822 012252@CAELT@GG SLZZYMYT@CAELT@012054 SLCBYGYZ@CAELT@SABO SLCB 012100@CAELT@METAR SLCB 012100Z 15009KT 9999 FEW033 FEW036CB SCT080 BKN200 22/07@CAELT@Q1021 A3017 748.8 HR37 CB DIST SW NOSIG=@CAELT@
ZPX0823 012252@CAELT@GG SLZZYMYT@CAELT@012154 SLCBYGYZ@CAELT@SABO SLCB 012200@CAELT@METAR SLCB 012200Z 19005KT 9999 FEW033 FEW036CB SCT080 BKN200 21/07@CAELT@Q1022 A3018 749.1 HR40 CB DIST S/SW FU NOSIG=@CAELT@
ZPX0824 012252@CAELT@GG SLZZYMYT@CAELT@012052 SLCBYGYS@CAELT@SABO SLCB 012000@CAELT@METAR SLCB 012000Z 11010KT 9999 FEW033 FEW036CB SCT080 BKN200 22/07@CAELT@Q1021 A3017 748.9 HR38 CB S/SW NOSIG=@CAELT@METAR SLAL 012000Z 01018KT 9999 SCT020 FEW030CB BKN200 18/07 Q1027@CAELT@A3033 702.2@CAELT@HR50 CB NE AC=METAR SLPO 012000Z NIL=METAR SLAG 012000Z NIL=METAR SLVM 012000Z NIL=METAR SLTJ 012000Z 13005KT 9999 FEW030 FEW036CB BKN100 BKN200 23/15Q1014 A2996810.4 HR59 CB W=METAR SLBJ 012000Z NIL=METAR SLHI 012000Z NIL=
ZPX0829 012253@CAELT@GG SLZZYMYT@CAELT@012253 SLSBYSYX@CAELT@SABO SLSB 012300@CAELT@METAR SLSB 012300Z 00000KT 9999 FEW015 OVC200 25/23 Q1008 A2977 HR92@CAELT@RWY WET OPR C210=@CAELT@
ZPX0830 012253@CAELT@GG SLZZYMYT@CAELT@012253 SLRBYGYS@CAELT@SABO SLRB 012300@CAELT@METAR SLRB 012300Z 00000KT 9999 SCT020 BKN200 31/23 Q1010 A2983 HR62@CAELT@RWY NML=@CAELT@
ZPX0831 012254@CAELT@GG SLZZYMYT@CAELT@012254 SLLPYFYA@CAELT@SABO SLCO 012300@CAELT@METAR SLCO 012300Z 00000KT 9999 BKN030 OVC080 25/24 Q1008 A2979 981.4@CAELT@HR96=@CAELT@
ZPX0832 012254@CAELT@GG SLZZYMYT@CAELT@012253 SLCAYGYS@CAELT@SABO SLCA 012300@CAELT@METAR SLCA 012300Z 00000KT 9999 BKN070 29/15 Q1009 A2980 HR44 RWY NML@CAELT@
ZPX0833 012255@CAELT@GG SLZZYMYT@CAELT@012255 SLVRYGYZ@CAELT@SABO SLVR 012300@CAELT@METAR SLVR 012300Z 35005KT 9999 NSC 24/22 Q1008 A2979 HR84 CI NOSIG=@CAELT@
ZPX0834 012255@CAELT@GG SLZZYMYT@CAELT@012256 SLTRYGYZ@CAELT@SABO SLTR 012300@CAELT@METAR SLTR 012300Z 00000KT 9999 FEW017 BKN200 26/24 Q1007 A2976@CAELT@989.3 HR84 NOSIG=@CAELT@
ZPX0835 012255@CAELT@GG SLZZYMYT@CAELT@012255 SLSAYGYS@CAELT@SABO SLSA 012300@CAELT@METAR SLSA 012300Z 17006KT 9999 FEW017 FEW023CB BKN200 26/23 Q1007@CAELT@A2974 HR85 CB E=@CAELT@
ZPX0836 012255@CAELT@GG SLZZYMYT@CAELT@012255 SLSAYGYS@CAELT@SABO SLSA 012300@CAELT@METAR SLSA 012300Z 17006KT 9999 FEW017 FEW023CB BKN200 26/23 Q1007@CAELT@A2974 HR85 CB E=@CAELT@
ZPX0837 012256@CAELT@GG SLLPZRZX@CAELT@012255 SLLPYGYZ@CAELT@SABO SLLP 012300@CAELT@METAR SLLP 012300Z 10005KT 9999 FEW015 FEW017CB SCT070 BKN200 09/05@CAELT@Q1035 A3058 626.3 HR75 CB/W NOSIG=@CAELT@
ZPX0838 012257@CAELT@GG SLZZYMYT@CAELT@012256 SLLPYFYA@CAELT@SABO SLLP 012300@CAELT@METAR SLLP 012300Z 10005KT 9999 FEW015 FEW017CB SCT070 BKN200 09/05@CAELT@Q1035 A3058 626.3 HR75 CB/W NOSIG=@CAELT@METAR SLCO 012300Z 00000KT 9999 BKN030 OVC080 25/24 Q1008 A2979 981.4@CAELT@HR96=@CAELT@METAR SLSB 012300Z 00000KT 9999 FEW015 OVC200 25/23 Q1008 A2977 HR92RWY WET OPR C210=
ZPX0840 012259@CAELT@GG SLZZYMYT@CAELT@012258 SLTRYGYS@CAELT@SABO SLTR 012300@CAELT@METAR SLTR 012300Z 00000KT 9999 FEW017 BKN200 26/24 Q1007 A2976@CAELT@989.3 HR84 NOSIG=@CAELT@METAR SLRI 012300Z 00000KT 7000 VCSH SCT008 FEW020CB OVC200@CAELT@24/23 Q1009 A2980 HR97 CB/SH NE/E/S/SW=@CAELT@METAR SLMG 012300Z 00000KT 9999 FEW015 OVC200 25/24 Q1008 A2977HR94 RWY OPR C210=METAR SLSA 012300Z 17006KT 9999 FEW017 FEW023CB BKN200 26/23 Q1007A2974 HR85 CB E=
ZPX0842 012300@CAELT@GG SLZZYMYT@CAELT@012257 SLTJYGYZ@CAELT@SABO SLTJ 012300@CAELT@METAR SLTJ 012300Z 00000KT 9999 FEW027 FEW030CB SCT070 BKN200 21/15@CAELT@Q1015 A2999 811.1 HR68 CB/W=@CAELT@
ZPX0843 012300@CAELT@GG SLZZYMYT@CAELT@012259 SLCBYGYZ@CAELT@SABO SLCB 012300@CAELT@METAR SLCB 012300Z 22003KT 9999 FEW033 SCT080 BKN200 19/06 Q1022@CAELT@A3019 749.3 HR43 FU NOSIG=@CAELT@
ZPX0846 012301@CAELT@GG SLZZYMYT@CAELT@012300 SLCBYGYS@CAELT@SABO SLCB 012300@CAELT@METAR SLCB 012300Z 22003KT 9999 FEW033 SCT080 BKN200 19/06 Q1022@CAELT@A3019 749.3 HR43 FU NOSIG=@CAELT@METAR SLAL 012300Z 34016KT 9999 FEW015 BKN200 13/07 Q1027 A3034 702.4@CAELT@HR68=@CAELT@
ZPX0849 012303@CAELT@GG SLZZYMYT@CAELT@012300 SLCBYGYS@CAELT@SABO SLCB 012300@CAELT@METAR SLCB 012300Z 22003KT 9999 FEW033 SCT080 BKN200 19/06 Q1022@CAELT@A3019 749.3 HR43 FU NOSIG=@CAELT@METAR SLAL 012300Z 34016KT 9999 FEW015 BKN200 13/07 Q1027 A3034 702.4@CAELT@HR68=@CAELT@METAR SLTJ 012300Z 00000KT 9999 FEW027 FEW030CB SCT070 BKN200 21/15Q1015 A2999 811.1 HR68 CB/W=DUPE
ZPX0865 012355@CAELT@GG SLZZYMYT@CAELT@012355 SLVRYGYZ@CAELT@SABO SLVR 020000@CAELT@METAR SLVR 020000Z 36004KT 9999 NSC 23/21 Q1009 A2980 HR87 CI NOSIG=@CAELT@
ZPX0866 012356@CAELT@GG SLZZYMYT@CAELT@012355 SLCBYGYZ@CAELT@SABO SLCB 020000@CAELT@METAR SLCB 020000Z 29003KT 9999 FEW033 BKN200 18/08 Q1022 A3020 749.6@CAELT@HR51 FU AC NOSIG=@CAELT@
ZPX0868 012358@CAELT@GG SLZZYMYT@CAELT@012356 SLTJYGYZ@CAELT@SABO SLTJ 020000@CAELT@METAR SLTJ 020000Z 30004KT 9999 FEW027 FEW030CB SCT070 BKN200 21/16@CAELT@Q1015 A2999 811.3 HR71 CB/SW/W=@CAELT@
