
ZPX0017 040054@CAELT@GG SLZZYMYT@CAELT@040055 SLVRYGYZ@CAELT@SABO SLVR 040100@CAELT@METAR SLVR 040100Z 27006KT 9999 NSC 25/15 Q1011 A2985 HR53 NOSIG=@CAELT@
ZPX0018 040056@CAELT@GG SLLPZRZX@CAELT@040056 SLLPYGYZ@CAELT@SABO SLLP 040100@CAELT@METAR SLLP 040100Z 10007KT 080V140 9999 FEW015 BKN200 08/01 Q1036@CAELT@A3061 627.1 HR63 FU NOSIG=@CAELT@
ZPX0019 040056@CAELT@GG SLZZYMYT@CAELT@040056 SLCBYGYZ@CAELT@SABO SLCB 040100@CAELT@METAR SLCB 040100Z 09009KT 9999 FEW036 19/03 Q1025 A3028 751.7 HR34@CAELT@AC FU NOSIG=@CAELT@
ZPX0028 040155@CAELT@GG SLZZYMYT@CAELT@040156 SLVRYGYZ@CAELT@SABO SLVR 040200@CAELT@METAR SLVR 040200Z 27006KT 9999 NSC 23/15 Q1011 A2986 HR60 NOSIG=@CAELT@
ZPX0029 040156@CAELT@GG SLZZYMYT@CAELT@040156 SLCBYGYZ@CAELT@SABO SLCB 040200@CAELT@METAR SLCB 040200Z 10007KT 9999 NSC 19/03 Q1026 A3031 752.5 HR35 FU@CAELT@NOSIG=@CAELT@
ZPX0030 040156@CAELT@GG SLLPZRZX@CAELT@040156 SLLPYGYZ@CAELT@SABO SLLP 040200@CAELT@METAR SLLP 040200Z 10010KT 9999 NSC 07/01 Q1037 A3062 627.3 HR70@CAELT@FU CI NOSIG=@CAELT@
ZPX0049 040256@CAELT@GG SLZZYMYT@CAELT@040256 SLVRYGYZ@CAELT@SABO SLVR 040300@CAELT@METAR SLVR 040300Z 25006KT 9999 NSC 22/14 Q1011 A2987 HR59 NOSIG=@CAELT@
ZPX0050 040256@CAELT@GG SLZZYMYT@CAELT@040256 SLCBYGYZ@CAELT@SABO SLCB 040300@CAELT@METAR SLCB 040300Z 11006KT 9999 NSC 18/02 Q1027 A3033 753.1 HR36 FU@CAELT@NOSIG=@CAELT@
ZPX0051 040257@CAELT@GG SLLPZRZX@CAELT@040256 SLLPYGYZ@CAELT@SABO SLLP 040300@CAELT@METAR SLLP 040300Z 11009KT 9999 NSC 06/01 Q1037 A3065 627.9 HR71@CAELT@FU CI NOSIG=@CAELT@
ZPX0060 040355@CAELT@GG SLZZYMYT@CAELT@040355 SLVRYGYZ@CAELT@SABO SLVR 040400@CAELT@METAR SLVR 040400Z 21005KT 9999 NSC 23/14 Q1011 A2987 HR57 NOSIG=@CAELT@
ZPX0061 040356@CAELT@GG SLZZYMYT@CAELT@040356 SLCBYGYZ@CAELT@SABO SLCB 040400@CAELT@METAR SLCB 040400Z 15004KT 9999 NSC 17/03 Q1027 A3034 753.2 HR40 FU@CAELT@NOSIG=@CAELT@
ZPX0062 040356@CAELT@GG SLLPZRZX@CAELT@040356 SLLPYGYZ@CAELT@SABO SLLP 040400@CAELT@METAR SLLP 040400Z 11007KT 9999 NSC 05/02 Q1037 A3065 627.9 HR78@CAELT@FU CI NOSIG=@CAELT@
ZPX0070 040454@CAELT@GG SLZZYMYT@CAELT@040455 SLVRYGYZ@CAELT@SABO SLVR 040500@CAELT@METAR SLVR 040500Z 20005KT 9999 NSC 23/14 Q1011 A2987 HR57 NOSIG=@CAELT@
ZPX0071 040456@CAELT@GG SLLPZRZX@CAELT@040456 SLLPYGYZ@CAELT@SABO SLLP 040500@CAELT@METAR SLLP 040500Z 08005KT 9999 FEW004 03/01 Q1037 A3064 627.6 HR88@CAELT@FU CI BECMG 4000E VCFG=@CAELT@
ZPX0072 040456@CAELT@GG SLZZYMYT@CAELT@040456 SLCBYGYZ@CAELT@SABO SLCB 040500@CAELT@METAR SLCB 040500Z 14006KT 9999 FEW080 16/04 Q1026 A3033 752.9 HR45@CAELT@FU NOSIG=@CAELT@
ZPX0080 040555@CAELT@GG SLZZYMYT@CAELT@040555 SLVRYGYZ@CAELT@SABO SLVR 040600@CAELT@METAR SLVR 040600Z 20007KT 9999 NSC 24/13 Q1011 A2987 HR51 NOSIG=@CAELT@
ZPX0082 040557@CAELT@GG SLZZYMYT@CAELT@040557 SLCBYGYZ@CAELT@SABO SLCB 040600@CAELT@METAR SLCB 040600Z 12006KT 9999 NSC 15/04 Q1026 A3032 752.7 HR47 FU@CAELT@NOSIG=@CAELT@
ZPX0090 040656@CAELT@GG SLZZYMYT@CAELT@040657 SLVRYGYZ@CAELT@SABO SLVR 040700@CAELT@METAR SLVR 040700Z 19006KT 9999 NSC 23/12 Q1012 A2989 HR47 NOSIG=@CAELT@
ZPX0091 040656@CAELT@GG SLLPZRZX@CAELT@040655 SLLPYGYZ@CAELT@SABO SLLP 040700@CAELT@METAR SLLP 040700Z VRB02KT 9999 FEW004 03/01 Q1037 A3064 627.7@CAELT@HR87 FU CI NOSIG=@CAELT@
ZPX0092 040657@CAELT@GG SLZZYMYT@CAELT@040656 SLCBYGYZ@CAELT@SABO SLCB 040700@CAELT@METAR SLCB 040700Z 16003KT 9999 NSC 14/05 Q1026 A3031 752.6 HR52 FU@CAELT@NOSIG=@CAELT@
ZPX0099 040753@CAELT@GG SLZZYMYT@CAELT@040755 SLVRYGYZ@CAELT@SABO SLVR 040800@CAELT@METAR SLVR 040800Z 21010KT 9999 NSC 23/11 Q1013 A2992 HR46 NOSIG=@CAELT@
ZPX0100 040755@CAELT@GG SLLPZRZX@CAELT@040755 SLLPYGYZ@CAELT@SABO SLLP 040800@CAELT@METAR SLLP 040800Z VRB02KT 4000E VCFG FEW003 M01/M02 Q1037 A3063@CAELT@627.5 HR91 VCFG NE/E/SE FU CI NOSIG=@CAELT@
ZPX0101 040756@CAELT@GG SLZZYMYT@CAELT@040756 SLCBYGYZ@CAELT@SABO SLCB 040800@CAELT@METAR SLCB 040800Z 16003KT 9999 NSC 14/04 Q1026 A3033 752.9 HR52 FU@CAELT@NOSIG=@CAELT@
ZPX0110 040854@CAELT@GG SLZZYMYT@CAELT@040853 SLPSYGYS@CAELT@SABO SLPS 040900@CAELT@METAR SLPS 040900Z 00000KT 9999 NSC 20/19 Q1012 A2989 HR95=@CAELT@
ZPX0111 040854@CAELT@GG SLZZYMYT@CAELT@040855 SLVRYGYZ@CAELT@SABO SLVR 040900@CAELT@METAR SLVR 040900Z 19005KT 9999 NSC 24/11 Q1013 A2993 HR44 NOSIG=@CAELT@
ZPX0112 040855@CAELT@GG SLZZYMYT@CAELT@040855 SLTRYGYZ@CAELT@SABO SLTR 040900@CAELT@METAR SLTR 040900Z 00000KT 3000 FU NSC 23/21 Q1009 A2982 991.3 HR90@CAELT@CI NOSIG=@CAELT@
ZPX0113 040856@CAELT@GG SLZZYMYT@CAELT@040856 SLCBYGYZ@CAELT@SABO SLCB 040900@CAELT@METAR SLCB 040900Z 22003KT 9999 NSC 12/04 Q1027 A3034 753.4 HR57 FU@CAELT@CI NOSIG=@CAELT@
ZPX0114 040856@CAELT@GG SLLPZRZX@CAELT@040855 SLLPYGYZ@CAELT@SABO SLLP 040900@CAELT@METAR SLLP 040900Z 09005KT 4000E VCFG FEW003 SCT200 M01/M02 Q1037@CAELT@A3064 627.6 HR95 VCFG NE/E/SE FU CI NOSIG=@CAELT@
ZPX0115 040859@CAELT@GG SLZZYMYT@CAELT@040858 SLTRYGYS@CAELT@SABO SLTR 040900@CAELT@METAR SLTR 040900Z 00000KT 3000 FU NSC 23/21 Q1009 A2982 991.3 HR90@CAELT@CI NOSIG=@CAELT@METAR SLRI 040900Z 00000KT 5000 FU NSC 25/24 Q1010 A2984 HR96 CI=@CAELT@
ZPX0131 040952@CAELT@GG SLZZYMYT@CAELT@040952 SLETYMYC@CAELT@SABO SLET 041000@CAELT@METAR SLET 041000Z 17004KT 9999 NSC 24/10 Q1014 A2994 HR43 NOSIG=@CAELT@
ZPX0132 040952@CAELT@GG SLZZYMYT@CAELT@040952 SLPSYGYS@CAELT@SABO SLPS 041000@CAELT@METAR SLPS 041000Z 18004KT 9999 NSC 19/18 Q1012 A2989 HR92=@CAELT@
ZPX0133 040953@CAELT@GG SLZZYMYT@CAELT@040955 SLCOYGYZ@CAELT@SABO SLCO 041000@CAELT@METAR SLCO 041000Z 00000KT 9999 FEW080 23/22 Q1011 A2985 983.6 HR92@CAELT@
ZPX0134 040953@CAELT@GG SLZZYMYT@CAELT@040955 SLCOYGYZ@CAELT@SABO SLCO 041000@CAELT@METAR SLCO 041000Z 00000KT 9999 FEW080 23/22 Q1011 A2985 983.6 HR92@CAELT@
ZPX0135 040954@CAELT@GG SLZZYMYT@CAELT@040955 SLVRYGYZ@CAELT@SABO SLVR 041000@CAELT@METAR SLVR 041000Z 18005KT 9999 NSC 24/11 Q1014 A2996 HR45 NOSIG=@CAELT@
ZPX0136 040954@CAELT@GG SLZZYMYT@CAELT@040953 SLRBYGYS@CAELT@SABO SLRB 041000@CAELT@METAR SLRB 041000Z 00000KT 9999 NSC 15/13 Q1015 A2997 HR91 RWY NML=@CAELT@
ZPX0137 040955@CAELT@GG SLZZYMYT@CAELT@040955 SLCAYGYS@CAELT@SABO SLCA 041000@CAELT@METAR SLCA 041000Z 00000KT 9999 NSC 14/08 Q1020 A3012 HR67 RWY NML=@CAELT@
ZPX0138 040955@CAELT@GG SLZZYMYT@CAELT@040955 SLCBYGYZ@CAELT@SABO SLCB 041000@CAELT@METAR SLCB 041000Z 22003KT 9999 FEW036 11/05 Q1028 A3037 754.0 HR66@CAELT@FU CI NOSIG=@CAELT@
ZPX0139 040955@CAELT@GG SLZZYMYT@CAELT@040955 SLTRYGYZ@CAELT@SABO SLTR 041000@CAELT@METAR SLTR 041000Z 00000KT 3000 FU NSC 23/21 Q1010 A2984 992.0 HR88@CAELT@CI NOSIG=@CAELT@
ZPX0141 040955@CAELT@GG SLZZYMYT@CAELT@040955 SLLPYGYZ@CAELT@SABO SLLP 041000@CAELT@METAR SLLP 041000Z 08005KT 4000E VCFG FEW003 SCT200 01/00 Q1038@CAELT@A3065 628.0 HR97 P0082 VCFG NE/E/SE FU NOSIG=@CAELT@
ZPX0142 040956@CAELT@GG SLZZYMYT@CAELT@040955 SLRQYSYX@CAELT@SABO SLRQ 041000@CAELT@METAR SLRQ 041000Z 00000KT 6000 NSC 22/21 Q1010 A2984 986.5 HR93 FU=@CAELT@
ZPX0143 040956@CAELT@GG SLZZYMYT@CAELT@040955 SLSAYGYS@CAELT@SABO SLSA 041000@CAELT@METAR SLSA 041000Z 00000KT 5000 FU NSC 23/22 Q1009 A2982 HR93=@CAELT@
ZPX0144 040957@CAELT@GG SLZZYMYT@CAELT@040956 SLVRYGYS@CAELT@SABO SLVR 041000@CAELT@METAR SLVR 041000Z 18005KT 9999 NSC 24/11 Q1014 A2996 HR45 NOSIG=@CAELT@METAR SLET 041000Z 17004KT 9999 NSC 24/10 Q1014 A2994 HR43 NOSIG=@CAELT@METAR SLCP 041000Z 00000KT 6000 NSC 20/15 Q1016 A3000 HR69 FU CI RWY@CAELT@NML=@CAELT@METAR SLSI 041000Z 00000KT 9999 NSC 18/16 Q1013 A2991 HR88 RWY NML=METAR SLRB 041000Z 00000KT 9999 NSC 15/13 Q1015 A2997 HR91 RWY NML=METAR SLPS 041000Z 18004KT 9999 NSC 19/18 Q1012 A2989 HR92=METAR SLCA 041000Z 00000KT 9999 NSC 14/08 Q1020 A3012 HR67 RWY NML=
ZPX0145 040957@CAELT@GG SLZZYMYT@CAELT@040957 SLCBYGYS@CAELT@SABO SLCB 041000@CAELT@METAR SLCB 041000Z 22003KT 9999 FEW036 11/05 Q1028 A3037 754.0 HR66@CAELT@FU CI NOSIG=@CAELT@METAR SLAL 041000Z 34007KT 9999 NSC 07/01 Q1032 A3049 706.0 HR64=@CAELT@
ZPX0146 040957@CAELT@GG SLZZYMYT@CAELT@040956 SLSBYSYX@CAELT@SABO SLSB 041000@CAELT@METAR SLSB 041000Z 00000KT 5000 FU NSC 22/19 Q1009 A2979 HR84 RWY NML=@CAELT@
ZPX0148 040958@CAELT@GG SLZZYMYT@CAELT@040958 SLUYYGYS@CAELT@SABO SLUY 041000@CAELT@METAR SLUY 041000Z 00000KT 9999 NSC M01/M08 Q1034 A3056 658.9@CAELT@HR58=@CAELT@
ZPX0150 040959@CAELT@GG SLZZYMYT@CAELT@040957 SLRYYSYX@CAELT@SABO SLRY 041000@CAELT@METAR SLRY 041000Z 00000KT 5000 FU NSC 19/19 Q1009 A2979 HR98 CI RWY@CAELT@NML=@CAELT@
ZPX0152 041000@CAELT@GG SLZZYMYT@CAELT@040959 SLTRYGYS@CAELT@SABO SLTR 041000@CAELT@METAR SLTR 041000Z 00000KT 3000 FU NSC 23/21 Q1010 A2984 992.0 HR88@CAELT@CI NOSIG=@CAELT@METAR SLGM 041000Z 00000KT 4000 FU SCT080 BKN200 24/23 Q1010 A2982@CAELT@HR95=@CAELT@METAR SLRI 041000Z 00000KT 5000 FU NSC 25/24 Q1011 A2986 HR96 CI=METAR SLJO 041000Z NIL=METAR SLRA 041000Z 00000KT 5000 FU NSC 24/22 Q1009 A2982 HR92 CIRWY NML=METAR SLMG 041000Z 00000KT 6000 NSC 23/22 Q1009 A2980 HR90 FU CIMETAR SLBU 041000Z NIL=METAR SLSA 041000Z 00000KT 5000 FU NSC 23/22 Q1009 A2982 HR93=METAR SLSR 041000Z 00000KT 5000 FU SCT080 21/20 Q1009 A2980 HR92METAR SLSM 041000Z 00000KT 3000 FU NSC 20/19 Q1010 A2984 HR96
ZPX0153 041002@CAELT@GG SLZZYMYT@CAELT@040959 SLLPYFYA@CAELT@SABO SLLP 041000@CAELT@METAR SLLP 041000Z 08005KT 4000E VCFG FEW003 SCT200 01/00 Q1038@CAELT@A3065 628.0 HR97 P0082 VCFG NE/E/SE FU NOSIG=@CAELT@METAR SLCO 041000Z 00000KT 9999 FEW080 23/22 Q1011 A2985 983.6@CAELT@HR92 FU=@CAELT@METAR SLRY 041000Z 00000KT 5000 FU NSC 19/19 Q1009 A2979 HR98 CIRWY NML=METAR SLRQ 041000Z 00000KT 6000 NSC 22/21 Q1010 A2984 986.5 HR93METAR SLSB 041000Z 00000KT 5000 FU NSC 22/19 Q1009 A2979 HR84METAR SLUY 041000Z 00000KT 9999 NSC M01/M08 Q1034 A3056 658.9HR58=
ZPX0173 041052@CAELT@GG SLZZYMYT@CAELT@041051 SLCAYGYS@CAELT@SABO SLCA 041100@CAELT@METAR SLCA 041100Z 00000KT 9999 NSC 16/09 Q1021 A3015 HR65 RWY NML=@CAELT@
ZPX0174 041052@CAELT@GG SLZZYMYT@CAELT@041052 SLETYMYC@CAELT@SABO SLET 041100@CAELT@METAR SLET 041100Z 23003KT 9999 NSC 26/10 Q1014 A29.97 HR37 NOSIG=@CAELT@
ZPX0176 041052@CAELT@GG SLZZYMYT@CAELT@041052 SLRYYSYX@CAELT@SABO SLRY 041100@CAELT@METAR SLRY 041100Z 00000KT 5000 FU NSC 20/19 Q1009 A2982 HR96 RWY NML@CAELT@
ZPX0177 041053@CAELT@GG SLZZYMYT@CAELT@041054 SLCOYGYZ@CAELT@SABO SLCO 041100@CAELT@METAR SLCO 041100Z 00000KT 9999 FEW080 24/22 Q1011 A2988 984.3 HR88@CAELT@
ZPX0178 041053@CAELT@GG SLZZYMYT@CAELT@041053 SLPSYGYS@CAELT@SABO SLPS 041100@CAELT@METAR SLPS 041100Z 00000KT 9999 NSC 23/20 Q1013 A2992 HR84=@CAELT@
ZPX0180 041054@CAELT@GG SLZZYMYT@CAELT@041054 SLSBYSYX@CAELT@SABO SLSB 041100@CAELT@METAR SLSB 041100Z 00000KT 5000 FU NSC 22/19 Q1010 A2984 HR84 RWY NML=@CAELT@
ZPX0181 041054@CAELT@GG SLZZYMYT@CAELT@041055 SLSAYGYS@CAELT@SABO SLSA 041100@CAELT@METAR SLSA 041100Z 00000KT 5000 FU NSC 23/22 Q1010 A2983 HR90=@CAELT@
ZPX0182 041054@CAELT@GG SLZZYMYT@CAELT@041055 SLORYGYZ@CAELT@SABO SLOR 041100@CAELT@METAR SLOR 041100Z 06006KT 9999 NSC 08/M02 Q1036 A3060 656.7 HR49 FU@CAELT@N/SE/S/SW/NW=@CAELT@
ZPX0183 041055@CAELT@GG SLZZYMYT@CAELT@041056 SLVRYGYZ@CAELT@SABO SLVR 041100@CAELT@METAR SLVR 041100Z 20007KT 9999 NSC 26/12 Q1015 A2998 HR42 NOSIG=@CAELT@
ZPX0184 041055@CAELT@GG SLZZYMYT@CAELT@041055 SLTRYGYZ@CAELT@SABO SLTR 041100@CAELT@METAR SLTR 041100Z 00000KT 3000 FU NSC 23/21 Q1011 A2987 992.9 HR85@CAELT@CI NOSIG=@CAELT@
ZPX0186 041055@CAELT@GG SLZZYMYT@CAELT@041055 SLRQYSYX@CAELT@SABO SLRQ 041100@CAELT@METAR SLRQ 041100Z 00000KT 6000 NSC 23/22 Q1011 A2987 987.3 HR90 FU=@CAELT@
ZPX0189 041056@CAELT@GG SLZZYMYT@CAELT@041055 SLLPYGYZ@CAELT@SABO SLLP 041100@CAELT@METAR SLLP 041100Z 08008KT 4000E VCFG FEW003 05/03 Q1038 A3068@CAELT@628.6 HR89 P0382 VCFG NE/E/SE/S FU CI NOSIG=@CAELT@
ZPX0190 041056@CAELT@GG SLZZYMYT@CAELT@041056 SLTJYGYZ@CAELT@SABO SLTJ 041100@CAELT@METAR SLTJ 041100Z 00000KT 9999 NSC 15/06 Q1025 A3028 819.3 HR56 FU=@CAELT@
ZPX0191 041057@CAELT@GG SLZZYMYT@CAELT@041057 SLTRYGYS@CAELT@SABO SLTR 041100@CAELT@METAR SLTR 041100Z 00000KT 3000 FU NSC 23/21 Q1011 A2987 992.9 HR85@CAELT@CI NOSIG=@CAELT@METAR SLGM 041100Z 00000KT 4000 FU FEW080 BKN200 24/23 Q1010 A2985@CAELT@HR92=@CAELT@METAR SLRI 041100Z 00000KT 5000 FU NSC 25/24 Q1012 A2989 HR96 CI=METAR SLJO 041100Z NIL=METAR SLRA 041100Z 00000KT 5000 FU NSC 24/21 Q1010 A2983 HR87 CIRWY NML=METAR SLMG 041100Z 00000KT 6000 NSC 24/22 Q1010 A2983 HR87 FU CIMETAR SLBU 041100Z NIL=METAR SLSA 041100Z 00000KT 5000 FU NSC 23/22 Q1010 A2983 HR90=METAR SLSR 041100Z 00000KT 5000 FU SCT080 21/20 Q1009 A2981 HR90METAR SLSM 041100Z 00000KT 3000 FU NSC 20/20 Q1011 A2986 HR96
ZPX0192 041057@CAELT@GG SLZZYMYT@CAELT@041056 SLUYYGYS@CAELT@SABO SLUY 041100@CAELT@METAR SLUY 041100Z 00000KT 9999 NSC 05/M03 Q1035 A3059 659.5@CAELT@HR56 FU=@CAELT@
ZPX0193 041057@CAELT@GG SLZZYMYT@CAELT@041056 SLCBYGYZ@CAELT@SABO SLCB 041100@CAELT@METAR SLCB 041100Z VRB02KT 9999 FEW036 16/03 Q1029 A3039 754.5 HR44@CAELT@FU NOSIG=@CAELT@
ZPX0194 041058@CAELT@GG SLZZYMYT@CAELT@041055 SLRBYGYS@CAELT@SABO SLRB 041100@CAELT@METAR SLRB 041100Z 00000KT 9999 NSC 20/17 Q1016 A3000 HR83 RWY NML=@CAELT@
ZPX0199 041100@CAELT@GG SLZZYMYT@CAELT@041100 SLLPYFYA@CAELT@SABO SLLP 041100@CAELT@METAR SLLP 041100Z 08008KT 4000E VCFG FEW003 05/03 Q1038 A3068@CAELT@628.6 HR89 P0382 VCFG NE/E/SE/S FU CI NOSIG=@CAELT@METAR SLCO 041100Z 00000KT 9999 FEW080 24/22 Q1011 A2988 984.3@CAELT@HR88 FU=@CAELT@METAR SLRY 041100Z 00000KT 5000 FU NSC 20/19 Q1009 A2982 HR96RWY NML=METAR SLRQ 041100Z 00000KT 6000 NSC 23/22 Q1011 A2987 987.3HR90 FU=METAR SLSB 041100Z 00000KT 5000 FU NSC 22/19 Q1010 A2984 HR84METAR SLOR 041100Z 06006KT 9999 NSC 08/M02 Q1036 A3060 656.7HR49 FU N/SE/S/SW/NW=METAR SLUY 041100Z 00000KT 9999 NSC 05/M03 Q1035 A3059 659.5HR56 FU=
ZPX0203 041101@CAELT@GG SLZZYMYT@CAELT@041100 SLVRYGYS@CAELT@SABO SLVR 041100@CAELT@METAR SLVR 041100Z 20007KT 9999 NSC 26/12 Q1015 A2998 HR42 NOSIG=@CAELT@METAR SLET 041100Z 23003KT 9999 NSC 26/10 Q1014 A2997 HR37 NOSIG=@CAELT@METAR SLAS 041100Z 00000KT 0400 FU NSC 23/16 Q1014 A2994 HR66 RWY NML@CAELT@METAR SLJV 041100Z 09005KT 5000 FU NSC 25/15 Q1013 A2991 HR55 RWY NML@CAELT@METAR SLCP 041100Z 00000KT 6000 NSC 20/15 Q1016 A3000 HR74 FU CI RWYNML=METAR SLSI 041100Z 00000KT 9999 NSC 21/19 Q1013 A2991 HR83 RWY NML=METAR SLTI 041100Z 00000KT 3000 FU NSC 24/16 Q1016 A3000 HR64 RWY NMLMETAR SLJE 041100Z 00000KT 9999 NSC 25/15 Q1016 A3000 HR54 FU RWY NMLMETAR SLRB 041100Z 00000KT 9999 NSC 20/17 Q1016 A3000 HR83 RWY NML=METAR SLPS 041100Z 00000KT 9999 NSC 23/20 Q1013 A2992 HR84=METAR SLCA 041100Z 00000KT 9999 NSC 16/09 Q1021 A3015 HR65 RWY NML=
ZPX0207 041102@CAELT@GG SLZZYMYT@CAELT@041101 SLCBYGYS@CAELT@SABO SLCB 041100@CAELT@METAR SLCB 041100Z VRB02KT 9999 FEW036 16/03 Q1029 A3039 754.5 HR44@CAELT@FU NOSIG=@CAELT@METAR SLAL 041100Z 34006KT 9999 NSC 08/01 Q1033 A3051 706.4 HR60=@CAELT@METAR SLVM 041100Z 00000KT 9999 NSC 20/14 Q1016 A3003 HR75=@CAELT@METAR SLTJ 041100Z 00000KT 9999 NSC 15/06 Q1025 A3028 819.3 HR56 FU=METAR SLYA 041100Z 00000KT 9999 NSC 20/13 Q1017 A3005 942.0 HR65 FU=
ZPX0230 041151@CAELT@GG SLZZYMYT@CAELT@041151 SLPSYGYS@CAELT@SABO SLPS 041200@CAELT@METAR SLPS 041200Z 00000KT 9999 NSC 26/22 Q1014 A2995 HR80=@CAELT@
ZPX0234 041153@CAELT@GG SLZZYMYT@CAELT@041152 SLRYYSYX@CAELT@SABO SLRY 041200@CAELT@METAR SLRY 041200Z 00000KT 5000 FU NSC 24/22 Q1010 A2984 HR88 RWY NML@CAELT@
ZPX0235 041153@CAELT@GG SLZZYMYT@CAELT@041155 SLVRYGYZ@CAELT@SABO SLVR 041200@CAELT@METAR SLVR 041200Z 19010KT 9999 NSC 29/15 Q1016 A3000 HR42 NOSIG=@CAELT@
ZPX0237 041153@CAELT@GG SLZZYMYT@CAELT@041153 SLETYMYC@CAELT@SABO SLET041200@CAELT@METAR SLET 041200Z 18006KT 9999 NSC 29/11 Q1015 A3000 HR33 NOSIG=@CAELT@
ZPX0238 041153@CAELT@GG SLZZYMYT@CAELT@041153 SLSBYSYX@CAELT@SABO SLSB 041200@CAELT@METAR SLSB 041200Z 00000KT 5000 FU NSC 25/21 Q1011 A2987 HR79 RWY NML=@CAELT@
ZPX0240 041154@CAELT@GG SLZZYMYT@CAELT@041153 SLRBYGYS@CAELT@SABO SLRB 041200@CAELT@METAR SLRB 041200Z 00000KT 9999 NSC 24/16 Q1017 A3003 HR67 RWY NML=@CAELT@
ZPX0241 041155@CAELT@GG SLZZYMYT@CAELT@041146 SLETYMYC@CAELT@SABO SLET 041200@CAELT@METAR SLET 041200Z 18006KT 9999 NSC 29/11 Q1015 A3000 HR33 NOSIG=@CAELT@
ZPX0242 041155@CAELT@GG SLZZYMYT@CAELT@041155 SLVRYGYS@CAELT@SABO SLVR 041200@CAELT@METAR SLVR 041200Z 19010KT 9999 NSC 29/15 Q1016 A3000 HR42 NOSIG=@CAELT@METAR SLET 041200Z 18006KT 9999 NSC 29/11 Q1015 A3000 HR33 NOSIG=@CAELT@METAR SLAS 041200Z 00000KT 0500 FU NSC 27/16 Q1015 A2997 HR50 RWY NML@CAELT@METAR SLJV 041200Z 09008KT 4000 FU NSC 27/16 Q1013 A2991 HR52 RWY NML@CAELT@METAR SLCP 041200Z 00000KT 6000 NSC 26/15 Q1017 A3003 HR50 FU RWY NMLMETAR SLSI 041200Z 00000KT 9999 NSC 25/20 Q1014 A2994 HR75 RWY NML=METAR SLTI 041200Z 00000KT 3000 FU NSC 28/17 Q1017 A3003 HR52 RWY NMLMETAR SLJE 041200Z 00000KT 9999 NSC 30/17 Q1017 A3003 HR47 FU RWY NMLMETAR SLVG 041200Z 17004KT 9999 NSC 18/05 Q1028 A3036 HR38 RWY NML=METAR SLRB 041200Z 00000KT 9999 NSC 24/16 Q1017 A3003 HR67 RWY NML=METAR SLPS 041200Z 00000KT 9999 NSC 26/22 Q1014 A2995 HR80=METAR SLCA 041200Z 00000KT 9999 NSC 20/12 Q1021 A3015 HR58 RWY NML=
ZPX0243 041155@CAELT@GG SLZZYMYT@CAELT@041155 SLCAYGYS@CAELT@SABO SLCA 041200@CAELT@METAR SLCA 041200Z 00000KT 9999 NSC 20/12 Q1021 A3015 HR58 RWY NML=@CAELT@
ZPX0244 041155@CAELT@GG SLZZYMYT@CAELT@041155 SLRQYSYX@CAELT@SABO SLRQ 041200@CAELT@METAR SLRQ 041200Z 18008KT 5000 FU NSC 30/22 Q1012 A2989 988.0 HR62=@CAELT@
ZPX0245 041155@CAELT@GG SLZZYMYT@CAELT@041155 SLCOYGYZ@CAELT@SABO SLCO 041200@CAELT@METAR SLCO 041200Z 17003KT 9999 BKN080 25/23 Q1012 A2991 985.3 HR87@CAELT@
ZPX0246 041156@CAELT@GG SLZZYMYT@CAELT@041155 SLTJYGYZ@CAELT@SABO SLTJ 041200@CAELT@METAR SLTJ 041200Z 00000KT 9999 NSC 18/07 Q1025 A3029 819.8 HR50 FU=@CAELT@
ZPX0249 041156@CAELT@GG SLZZYMYT@CAELT@041155 SLCBYGYZ@CAELT@SABO SLCB 041200@CAELT@METAR SLCB 041200Z 10004KT 9999 FEW040 18/04 Q1029 A3041 755.1 HR40@CAELT@FU NOSIG=@CAELT@
ZPX0250 041156@CAELT@GG SLZZYMYT@CAELT@041155 SLAGYSYX@CAELT@SABO SLAG 041200@CAELT@METAR SLAG 041200Z 00000KT 2000 FU NSC 20/10 Q1022 A3018 893.7 HR52=@CAELT@
ZPX0251 041156@CAELT@GG SLZZYMYT@CAELT@041155 SLSAYGYS@CAELT@SABO SLSA 041200@CAELT@METAR SLSA 041200Z 19004KT 5000 FU NSC 26/22 Q1011 A2986 HR75=@CAELT@
ZPX0252 041156@CAELT@GG SLZZYMYT@CAELT@041154 SLLPYGYZ@CAELT@SABO SLLP 041200@CAELT@METAR SLLP 041200Z 10013KT 6000 FEW005 08/02 Q1040 A3071 629.3@CAELT@HR67 P0382 VIS/REDUCIDA/SC BJOS/NE/E/SE FU CI BECMG 9999=@CAELT@
ZPX0254 041157@CAELT@GG SLZZYMYT@CAELT@041157 SLTRYGYZ@CAELT@SABO SLTR 041200@CAELT@METAR SLTR 041200Z 19004KT 3000 FU NSC 25/20 Q1012 A2990 994.0@CAELT@HR74 CI NOSIG=@CAELT@
ZPX0256 041159@CAELT@GG SLZZYMYT@CAELT@041156 SLUYYGYS@CAELT@SABO SLUY 041200@CAELT@METAR SLUY 041200Z 00000KT 9999 NSC 10/M01 Q1036 A3062 660.2@CAELT@HR48 FU=@CAELT@
ZPX0257 041159@CAELT@GG SLZZYMYT@CAELT@041158 SLORYGYZ@CAELT@SABO SLOR 041200@CAELT@METAR SLOR 041200Z 06009KT 9999 NSC 11/M02 Q1036 A3061 657.1 HR41 FU@CAELT@N/SE/S/SW/NW=@CAELT@
ZPX0259 041200@CAELT@GG SLZZYMYT@CAELT@041200 SLLPYFYA@CAELT@SABO SLLP 041200@CAELT@METAR SLLP 041200Z 10013KT 6000 FEW005 08/02 Q1040 A3071 629.3@CAELT@HR67 P0382 VIS/REDUCIDA/SC BJOS/NE/E/SE FU CI BECMG 9999=@CAELT@METAR SLCO 041200Z 17003KT 9999 BKN080 25/23 Q1012 A2991 985.3@CAELT@HR87 FU=@CAELT@METAR SLRY 041200Z 00000KT 5000 FU NSC 24/22 Q1010 A2984 HR88RWY NML=METAR SLRQ 041200Z 18008KT 5000 FU NSC 30/22 Q1012 A2989 988.0HR62=METAR SLSB 041200Z 00000KT 5000 FU NSC 25/21 Q1011 A2987 HR79METAR SLOR 041200Z 06009KT 9999 NSC 11/M02 Q1036 A3061 657.1 HR41FU N/SE/S/SW/NW=METAR SLUY 041200Z 00000KT 9999 NSC 10/M01 Q1036 A3062 660.2HR48 FU=
ZPX0260 041200@CAELT@GG SLZZYMYT@CAELT@041200 SLCBYGYS@CAELT@SABO SLCB 041200@CAELT@METAR SLCB 041200Z 10004KT 9999 FEW040 18/04 Q1029 A3041 755.1 HR40@CAELT@FU NOSIG=@CAELT@METAR SLAL 041200Z 01007KT 9999 NSC 11/03 Q1034 A3054 707.0 HR57@CAELT@METAR SLPO 041200Z NIL=@CAELT@METAR SLAG 041200Z 00000KT 2000 FU NSC 20/10 Q1022 A3018 893.7 HR52=METAR SLVM 041200Z 00000KT 9999 NSC 23/15 Q1017 A3005 HR61=METAR SLTJ 041200Z 00000KT 9999 NSC 18/07 Q1025 A3029 819.8 HR50 FU=METAR SLYA 041200Z 00000KT 9999 NSC 26/13 Q1018 A3007 942.8 HR46=METAR SLHI 041200Z NIL=METAR SLBJ 041200Z NIL=
ZPX0263 041201@CAELT@GG SLZZYMYT@CAELT@041200 SLTRYGYS@CAELT@SABO SLTR 041200@CAELT@METAR SLTR 041200Z 19004KT 3000 FU NSC 25/20 Q1012 A2990 994.0@CAELT@HR74 CI NOSIG=@CAELT@METAR SLGM 041200Z 03003KT 6000 NSC 26/24 Q1011 A2987 HR88 FU CI=@CAELT@METAR SLRI 041200Z NIL=@CAELT@METAR SLJO 041200Z NIL=METAR SLRA 041200Z 36004KT 5000 FU NSC 26/22 Q1010 A2985 HR79 CIRWY NML=METAR SLMG 041200Z 32004KT 6000 NSC 26/22 Q1010 A2985 HR78 FU CIMETAR SLBU 041200Z 00000KT 5000 FU NSC 27/23 Q1011 A2986 HR81METAR SLSA 041200Z 19004KT 5000 FU NSC 26/22 Q1011 A2986 HR75=METAR SLSR 041200Z 00000KT 5000 FU SCT080 24/22 Q1010 A2984 HR88METAR SLSM 041200Z 00000KT 5000 FU NSC 24/22 Q1012 A2989 HR88
ZPX0264 041201@CAELT@GG SLZZYMYT@CAELT@041201 SLCBYGYS@CAELT@SABO SLCB 041200 RRA@CAELT@METAR SLCB 041200Z 10004KT 9999 FEW040 18/04 Q1029 A3041 755.1 HR40@CAELT@FU NOSIG=@CAELT@METAR SLAL 041200Z 01007KT 9999 NSC 11/03 Q1034 A3054 707.0 HR57@CAELT@METAR RTD SLPO 041200Z 00000KT 9999 NSC 08/04 Q1042 A3076 640.7 HR77=@CAELT@METAR SLAG 041200Z 00000KT 2000 FU NSC 20/10 Q1022 A3018 893.7 HR52=METAR SLVM 041200Z 00000KT 9999 NSC 23/15 Q1017 A3005 HR61=METAR SLTJ 041200Z 00000KT 9999 NSC 18/07 Q1025 A3029 819.8 HR50 FU=METAR SLYA 041200Z 00000KT 9999 NSC 26/13 Q1018 A3007 942.8 HR46=METAR SLHI 041200Z NIL=METAR SLBJ 041200Z NIL=
ZPX0267 041203@CAELT@GG SLZZYMYT@CAELT@041203 SLTRYGYS@CAELT@SABO SLTR 041200 RRA@CAELT@METAR SLTR 041200Z 19004KT 3000 FU NSC 25/20 Q1012 A2990 994.0@CAELT@HR74 CI NOSIG=@CAELT@METAR SLGM 041200Z 03003KT 6000 NSC 26/24 Q1011 A2987 HR88 FU CI=@CAELT@METAR RTD SLRI 041200Z 00000KT 5000 FU NSC 25/24 Q1012 A2990 HR93=@CAELT@METAR SLJO 041200Z NIL=METAR SLRA 041200Z 36004KT 5000 FU NSC 26/22 Q1010 A2985 HR79 CIRWY NML=METAR SLMG 041200Z 32004KT 6000 NSC 26/22 Q1010 A2985 HR78 FU CIMETAR SLBU 041200Z 00000KT 5000 FU NSC 27/23 Q1011 A2986 HR81METAR SLSA 041200Z 19004KT 5000 FU NSC 26/22 Q1011 A2986 HR75=METAR SLSR 041200Z 00000KT 5000 FU SCT080 24/22 Q1010 A2984 HR88METAR SLSM 041200Z 00000KT 5000 FU NSC 24/22 Q1012 A2989 HR88
ZPX0293 041252@CAELT@GG SLZZYMYT@CAELT@041252 SLPSYGYS@CAELT@SABO SLPS 041300@CAELT@METAR SLPS 041300Z 00000KT 9999 NSC 28/22 Q1014 A2995 HR71=@CAELT@
ZPX0295 041253@CAELT@GG SLZZYMYT@CAELT@041252 SLETYMYC@CAELT@SABO SLET 041300@CAELT@METAR SLET 041200Z 17006KT 9999 NSC 32/11 Q016 A3001 HR28=@CAELT@
ZPX0296 041253@CAELT@GG SLZZYMYT@CAELT@041253 SLRBYGYS@CAELT@SABO SLRB 041300@CAELT@METAR SLRB 041300Z 00000KT 9999 NSC 29/21 Q1017 A3003 HR61 RWY NML=@CAELT@
ZPX0297 041253@CAELT@GG SLZZYMYT@CAELT@041252 SLRYYSYX@CAELT@SABO SLRY 041300@CAELT@METAR SLRY 041300Z 00000KT 5000 FU NSC 30/23 Q1011 A2986 HR68 RWY NML@CAELT@
ZPX0299 041254@CAELT@GG SLZZYMYT@CAELT@041254 SLSBYSYX@CAELT@SABO SLSB 041300@CAELT@METAR SLSB 041300Z 00000KT 5000 FU NSC 29/23 Q1011 A2987 HR70 RWY NML=@CAELT@
ZPX0300 041254@CAELT@GG SLZZYMYT@CAELT@041254 SLCAYGYS@CAELT@SABO SLCA 041300@CAELT@METAR SLCA 041300Z 00000KT 9999 NSC 25/11 Q1021 A3015 HR42 RWY NML=@CAELT@
ZPX0301 041254@CAELT@GG SLZZYMYT@CAELT@041255 SLORYGYZ@CAELT@SABO SLOR 041300@CAELT@METAR SLOR 041300Z 02006KT 9999 FEW017 12/M03 Q1037 A3064 657.8 HR35@CAELT@FU S/SW/NW=@CAELT@
ZPX0302 041254@CAELT@GG SLZZYMYT@CAELT@041255 SLAGYSYX@CAELT@SABO SLAG 041300@CAELT@METAR SLAG 041300Z 00000KT 4000 FU NSC 29/09 Q1022 A3018 893.7 HR34=@CAELT@
ZPX0303 041255@CAELT@GG SLZZYMYT@CAELT@041254 SLSAYGYS@CAELT@SABO SLSA 041300@CAELT@METAR SLSA 041300Z 19005KT 6000 NSC 29/19 Q1011 A2987 HR55 FU=@CAELT@
ZPX0304 041255@CAELT@GG SLZZYMYT@CAELT@041255 SLTRYGYZ@CAELT@SABO SLTR 041300@CAELT@METAR SLTR 041300Z 16003KT 3000 FU NSC 30/18 Q1012 A2991 994.4 HR50@CAELT@CI NOSIG=@CAELT@
ZPX0305 041255@CAELT@GG SLZZYMYT@CAELT@041255 SLCOYGYZ@CAELT@SABO SLCO 041300@CAELT@METAR SLCO 041300Z 16004KT 9999 BKN080 27/22 Q1013 A2992 985.8 HR74@CAELT@
ZPX0306 041255@CAELT@GG SLZZYMYT@CAELT@041256 SLUYYGYS@CAELT@SABO SLUY 041300@CAELT@METAR SLUY 041300Z 30004KT 9999 NSC 11/M01 Q1037 A3063 660.6@CAELT@HR43 FU=@CAELT@
ZPX0307 041255@CAELT@GG SLZZYMYT@CAELT@041255 SLLPYGYZ@CAELT@SABO SLLP 041300@CAELT@METAR SLLP 041300Z 08009KT 050V110 9999 FEW010 10/01 Q1041 A3074@CAELT@630.0 HR57 P93// FU NOSIG=@CAELT@
ZPX0310 041256@CAELT@GG SLZZYMYT@CAELT@041255 SLCBYGYZ@CAELT@SABO SLCB 041300@CAELT@METAR SLCB 041300Z 00000KT 9999 FEW040 20/04 Q1029 A3041 755.1 HR35@CAELT@FU NOSIG=@CAELT@
ZPX0311 041256@CAELT@GG SLZZYMYT@CAELT@041256 SLTJYGYZ@CAELT@SABO SLTJ 041300@CAELT@METAR SLTJ 041300Z 00000KT 9999 NSC 21/07 Q1025 A3028 819.5 HR41 FU=@CAELT@
ZPX0312 041257@CAELT@GG SLZZYMYT@CAELT@041258 SLVRYGYZ@CAELT@SABO SLVR 041300@CAELT@METAR SLVR 041300Z 17009KT 9999 NSC 32/13 Q1016 A3001 HR30 NOSIG=@CAELT@
ZPX0314 041259@CAELT@GG SLZZYMYT@CAELT@041259 SLTRYGYS@CAELT@SABO SLTR 041300@CAELT@METAR SLTR 041300Z 16003KT 3000 FU NSC 30/18 Q1012 A2991 994.4 HR50@CAELT@CI NOSIG=@CAELT@METAR SLGM 041300Z 00000KT 8000 NSC 29/25 Q1012 A2988 HR79 FU CI=@CAELT@METAR SLRI 041300Z 00000KT 5000 FU NSC 28/25 Q1013 A2992 HR81 CI=@CAELT@METAR SLJO 041300Z NIL=METAR SLRA 041300Z 36004KT 5000 FU NSC 30/22 Q1011 A2987 HR63 CIRWY NML=METAR SLMG 041300Z 32004KT 6000 NSC 30/22 Q1011 A2986 HR63 FU CIMETAR SLBU 041300Z 00000KT 5000 FU NSC 30/22 Q1011 A2987 HR63METAR SLSA 041300Z 19005KT 6000 NSC 29/19 Q1011 A2987 HR55 FU=METAR SLSR 041300Z 00000KT 5000 FU NSC 29/22 Q1011 A2986 HR66METAR SLSM 041300Z 15004KT 5000 FU NSC 28/19 Q1013 A2993 HR60
ZPX0316 041300@CAELT@GG SLZZYMYT@CAELT@041259 SLVRYGYS@CAELT@SABO SLVR 041300@CAELT@METAR SLVR 041300Z 17009KT 9999 NSC 32/13 Q1016 A3001 HR30 NOSIG=@CAELT@METAR SLET 041200Z 17006KT 9999 NSC 32/11 Q016 A3001 HR28=@CAELT@METAR SLAS 041300Z 16008KT 2000 FU NSC 32/16 Q1016 A3000 HR32@CAELT@RWY NML=@CAELT@METAR SLJV 041300Z 09008KT 5000 FU NSC 30/14 Q1014 A2994 HR40METAR SLCP 041300Z 09004KT 7000 NSC 29/15 Q1018 A3006 HR44FU RWY NML=METAR SLSI 041300Z 00000KT 9999 NSC 29/20 Q1015 A2997 HR60 RWY NML=METAR SLTI 041300Z 00000KT 4000 FU NSC 33/16 Q1017 A3003 HR37METAR SLJE 041300Z 00000KT 9999 NSC 34/18 Q1017 A3003 HR39METAR SLVG 041300Z 00000KT 9999 NSC 21/06 Q1028 A3036 HR32 RWY NML=METAR SLRB 041300Z 00000KT 9999 NSC 29/21 Q1017 A3003 HR61 RWY NML=METAR SLPS 041300Z 00000KT 9999 NSC 28/22 Q1014 A2995 HR71=METAR SLCA 041300Z 00000KT 9999 NSC 25/11 Q1021 A3015 HR42 RWY NML=
ZPX0317 041301@CAELT@GG SLZZYMYT@CAELT@041300 SLCBYGYS@CAELT@SABO SLCB 041300@CAELT@METAR SLCB 041300Z 00000KT 9999 FEW040 20/04 Q1029 A3041 755.1 HR35@CAELT@FU NOSIG=@CAELT@METAR SLAL 041300Z 03003KT 9999 NSC 14/02 Q1034 A3055 707.3 HR46 FU=@CAELT@METAR SLPO 041300Z 00000KT 9999 NSC 10/04 Q1042 A3077 640.8 HR65=@CAELT@METAR SLAG 041300Z 00000KT 4000 FU NSC 29/09 Q1022 A3018 893.7 HR34=METAR SLVM 041300Z 00000KT 9999 NSC 28/15 Q1018 A3007 HR46=METAR SLTJ 041300Z 00000KT 9999 NSC 21/07 Q1025 A3028 819.5 HR41 FU=METAR SLYA 031300Z 00000KT 9999 NSC 28/13 Q1018 A3008 943.0 HR40=METAR SLHI 041300Z NIL=METAR SLBJ 041300Z NIL=
ZPX0319 041302@CAELT@GG SLZZYMYT@CAELT@041302 SLLPYFYA@CAELT@SABO SLLP 041300@CAELT@METAR SLLP 041300Z 08009KT 050V110 9999 FEW010 10/01 Q1041 A3074@CAELT@630.0 HR57 P93// FU NOSIG=@CAELT@METAR SLCO 041300Z 16004KT 9999 BKN080 27/22 Q1013 A2992 985.8@CAELT@HR74 FU=@CAELT@METAR SLRY 041300Z 00000KT 5000 FU NSC 30/23 Q1011 A2986 HR68RWY NML=METAR SLRQ 041300Z NIL=METAR SLSB 041300Z 00000KT 5000 FU NSC 29/23 Q1011 A2987 HR70METAR SLOR 041300Z 02006KT 9999 FEW017 12/M03 Q1037 A3064 657.8HR35 FU S/SW/NW=METAR SLUY 041300Z 30004KT 9999 NSC 11/M01 Q1037 A3063 660.6HR43 FU=
ZPX0321 041303@CAELT@GG SLZZYMYT@CAELT@041302 SLCBYGYS@CAELT@SABO SLCB 041300 CCA@CAELT@METAR SLCB 041300Z 00000KT 9999 FEW040 20/04 Q1029 A3041 755.1 HR35@CAELT@FU NOSIG=@CAELT@METAR SLAL 041300Z 03003KT 9999 NSC 14/02 Q1034 A3055 707.3 HR46 FU=@CAELT@METAR SLPO 041300Z 00000KT 9999 NSC 10/04 Q1042 A3077 640.8 HR65=@CAELT@METAR SLAG 041300Z 00000KT 4000 FU NSC 29/09 Q1022 A3018 893.7 HR34=METAR SLVM 041300Z 00000KT 9999 NSC 28/15 Q1018 A3007 HR46=METAR SLTJ 041300Z 00000KT 9999 NSC 21/07 Q1025 A3028 819.5 HR41 FU=METAR COR SLYA 041300Z 00000KT 9999 NSC 28/13 Q1018 A3008 943.0 HR40=METAR SLHI 041300Z NIL=METAR SLBJ 041300Z NIL=
ZPX0322 041307@CAELT@GG SLZZYMYT@CAELT@041306 SLRQYSYX@CAELT@SABO SLRQ 041300@CAELT@METAR SLRQ 041300Z 18010KT 5000 FU NSC 32/23 Q1012 A2990 988.5 HR57=@CAELT@
ZPX0325 041309@CAELT@GG SLZZYMYT@CAELT@041308 SLLPYFYA@CAELT@SABO SLLP 041300 RRA@CAELT@METAR SLLP 041300Z 08009KT 050V110 9999 FEW010 10/01 Q1041 A3074@CAELT@630.0 HR57 P93// FU NOSIG=@CAELT@METAR SLCO 041300Z 16004KT 9999 BKN080 27/22 Q1013 A2992 985.8@CAELT@HR74 FU=@CAELT@METAR SLRY 041300Z 00000KT 5000 FU NSC 30/23 Q1011 A2986 HR68RWY NML=METAR RTD SLRQ 041300Z 18010KT 5000 FU NSC 32/23 Q1012 A2990 988.5HR57=METAR SLSB 041300Z 00000KT 5000 FU NSC 29/23 Q1011 A2987 HR70METAR SLOR 041300Z 02006KT 9999 FEW017 12/M03 Q1037 A3064 657.8HR35 FU S/SW/NW=METAR SLUY 041300Z 30004KT 9999 NSC 11/M01 Q1037 A3063 660.6HR43 FU=
ZPX0335 041335@CAELT@GG SLZZYMYT@CAELT@041334 SLVRYGYH@CAELT@SABO SLET 041300 CCA@CAELT@METAR COR SLET 041300Z 17006KT 9999 NSC 32/11 Q1016 A3001 HR28 NOSIG=@CAELT@
ZPX0340 041342@CAELT@GG SLZZYMYT@CAELT@041342 SLETYMYC@CAELT@SABO SLET 041300 CCA@CAELT@METAR SLET 041300Z 17006KT 9999 NSC 32/11 Q016 A3001 HR28=@CAELT@
ZPX0345 041351@CAELT@GG SLZZYMYT@CAELT@041351 SLPSYGYS@CAELT@SABO SLPS 041400@CAELT@METAR SLPS 041400Z 09006KT 9999 NSC 32/22 Q1014 A2995 HR58=@CAELT@
ZPX0346 041352@CAELT@GG SLZZYMYT@CAELT@041352 SLETYMYC@CAELT@SABO SLET 041400@CAELT@METAR SLET 041400Z 13008KT 9999 NSC 33/11 Q1016 A3001 HR25 NOSIG=@CAELT@
ZPX0347 041352@CAELT@GG SLZZYMYT@CAELT@041351 SLCAYGYS@CAELT@SABO SLCA 041400@CAELT@METAR SLCA 041400Z 00000KT 9999 NSC 28/10 Q1020 A3012 HR33 RWY NML=@CAELT@
ZPX0348 041353@CAELT@GG SLZZYMYT@CAELT@041353 SLRBYGYS@CAELT@SABO SLRB 041400@CAELT@METAR SLRB 041400Z 00000KT 9999 NSC 34/18 Q1017 A3003 HR41 RWY NML=@CAELT@
ZPX0349 041353@CAELT@GG SLZZYMYT@CAELT@041352 SLRYYSYX@CAELT@SABO SLRY 041400@CAELT@METAR SLRY 041400Z 00000KT 5000 NSC 33/22 Q1011 A2987 HR54 RWY NML=@CAELT@
ZPX0351 041354@CAELT@GG SLZZYMYT@CAELT@041355 SLRQYSYX@CAELT@SABO SLRQ 041400@CAELT@METAR SLRQ 041400Z 18010KT 5000 FU NSC 34/24 Q1012 A2990 988.5 HR54=@CAELT@
ZPX0352 041354@CAELT@GG SLZZYMYT@CAELT@041354 SLSBYSYX@CAELT@SABO SLSB 041400@CAELT@METAR SLSB 041400Z 00000KT 5000 FU NSC 33/24 Q1011 A2988 HR62 RWY NML=@CAELT@
ZPX0353 041354@CAELT@GG SLZZYMYT@CAELT@041354 SLSAYGYS@CAELT@SABO SLSA 041400@CAELT@METAR SLSA 041400Z 18006KT 6000 NSC 31/20 Q1012 A2989 HR51 FU=@CAELT@
ZPX0354 041355@CAELT@GG SLZZYMYT@CAELT@041355 SLCOYGYZ@CAELT@SABO SLCO 041400@CAELT@METAR SLCO 041400Z 17004KT 9999 BKN080 29/23 Q1013 A2994 986.3 HR70@CAELT@
ZPX0355 041355@CAELT@GG SLZZYMYT@CAELT@041356 SLVRYGYZ@CAELT@SABO SLVR 041400@CAELT@METAR SLVR 041400Z 15009KT 9999 NSC 33/13 Q1016 A3001 HR29 NOSIG=@CAELT@
ZPX0356 041356@CAELT@GG SLZZYMYT@CAELT@041355 SLAGYSYX@CAELT@SABO SLAG 041400@CAELT@METAR SLAG 041400Z VRB02KT 5000 FU NSC 29/09 Q1021 A3017 893.3 HR28=@CAELT@
ZPX0357 041356@CAELT@GG SLZZYMYT@CAELT@041355 SLTJYGYZ@CAELT@SABO SLTJ 041400@CAELT@METAR SLTJ 041400Z 00000KT 9999 NSC 23/07 Q1025 A3027 819.2 HR37 FU=@CAELT@
ZPX0358 041356@CAELT@GG SLZZYMYT@CAELT@041355 SLLPYGYZ@CAELT@SABO SLLP 041400@CAELT@METAR SLLP 041400Z 12009KT 080V160 9999 FEW017 12/03 Q1041 A3075 630.@CAELT@1 HR54 P93// FU NOSIG=@CAELT@
ZPX0359 041356@CAELT@GG SLZZYMYT@CAELT@041355 SLCBYGYZ@CAELT@SABO SLCB 041400@CAELT@METAR SLCB 041400Z 28004KT 9999 FEW040 22/04 Q1029 A3040 754.8 HR31@CAELT@FU NOSIG=@CAELT@
ZPX0360 041356@CAELT@GG SLZZYMYT@CAELT@041356 SLVRYGYS@CAELT@SABO SLVR 041400@CAELT@METAR SLVR 041400Z 15009KT 9999 NSC 33/13 Q1016 A3001 HR29 NOSIG=@CAELT@METAR SLET 041400Z 13008KT 9999 NSC 33/11 Q1016 A3001 HR25 NOSIG=@CAELT@METAR SLAS 041400Z 16012KT 4000 FU NSC 35/16 Q1015 A2997 HR32 RWY NML@CAELT@METAR SLJV 041400Z 09005KT 6000 NSC 32/13 Q1014 A2994 HR32 FU RWY NML@CAELT@METAR SLCP 041400Z 09004KT 9999 NSC 32/16 Q1017 A3003 HR40 FU RWY NMLMETAR SLSI 041400Z 00000KT 9999 NSC 32/19 Q1015 A2997 HR48 RWY NML=METAR SLTI 041400Z 00000KT 4000 FU NSC 35/15 Q1017 A3003 HR31 RWY NMLMETAR SLJE 041400Z 00000KT 9999 NSC 35/17 Q1017 A3003 HR36 RWY NML=METAR SLVG 041400Z 00000KT 9999 NSC 22/07 Q1028 A3036 HR31 RWY NML=METAR SLRB 041400Z 00000KT 9999 NSC 34/18 Q1017 A3003 HR41 RWY NML=METAR SLPS 041400Z 09006KT 9999 NSC 32/22 Q1014 A2995 HR58=METAR SLCA 041400Z 00000KT 9999 NSC 28/10 Q1020 A3012 HR33 RWY NML=
ZPX0361 041357@CAELT@GG SLZZYMYT@CAELT@041357 SLORYGYZ@CAELT@SABO SLOR 041400@CAELT@METAR SLOR 041400Z 32008KT 9999 FEW017 15/M03 Q1038 A3065 658.0 HR29@CAELT@FU S/SW=@CAELT@
ZPX0364 041359@CAELT@GG SLZZYMYT@CAELT@041358 SLUYYGYS@CAELT@SABO SLUY 041400@CAELT@METAR SLUY 041400Z 28003KT 9999 FEW023 15/M01 Q1037 A3063 660.5@CAELT@HR35 FU=@CAELT@
ZPX0366 041359@CAELT@GG SLZZYMYT@CAELT@041359 SLLPYFYA@CAELT@SABO SLLP 041400@CAELT@METAR SLLP 041400Z 12009KT 080V160 9999 FEW017 12/03 Q1041 A3075@CAELT@630.1 HR54 P93// FU NOSIG=@CAELT@METAR SLCO 041400Z 17004KT 9999 BKN080 29/23 Q1013 A2994 986.3@CAELT@HR70 FU=@CAELT@METAR SLRY 041400Z 00000KT 5000 NSC 33/22 Q1011 A2987 HR54RWY NML=METAR SLRQ 041400Z 18010KT 5000 FU NSC 34/24 Q1012 A2990 988.5HR54=METAR SLSB 041400Z 00000KT 5000 FU NSC 33/24 Q1011 A2988 HR62METAR SLOR 041400Z 32008KT 9999 FEW017 15/M03 Q1038 A3065 658.0 HR29FU S/SW=METAR SLUY 041400Z 28003KT 9999 FEW023 15/M01 Q1037 A3063 660.5HR35 FU=
ZPX0368 041400@CAELT@GG SLZZYMYT@CAELT@041400 SLCBYGYS@CAELT@SABO SLCB 041400@CAELT@METAR SLCB 041400Z 28004KT 9999 FEW040 22/04 Q1029 A3040 754.8 HR31@CAELT@FU NOSIG=@CAELT@METAR SLAL 041400Z 36008KT 9999 NSC 15/04 Q1034 A3055 707.3 HR49 FU=@CAELT@METAR SLPO 041400Z 05004KT 9999 NSC 12/04 Q1042 A3077 640.9 HR59=@CAELT@METAR SLAG 041400Z VRB02KT 5000 FU NSC 29/09 Q1021 A3017 893.3 HR28=METAR SLVM 041400Z 00000KT 9999 NSC 30/16 Q1017 A3006 HR42=METAR SLTJ 041400Z 00000KT 9999 NSC 23/07 Q1025 A3027 819.2 HR37 FU=METAR SLYA 041400Z 00000KT 9999 NSC 31/14 Q1018 A3006 942.5 HR37=METAR SLHI 041400Z NIL=METAR SLBJ 041400Z NIL=
ZPX0372 041401@CAELT@GG SLZZYMYT@CAELT@041356 SLTRYGYZ@CAELT@SABO SLTR 041400@CAELT@METAR SLTR 041400Z 15006KT 5000 FU NSC 34/19 Q1012 A2991 994.2@CAELT@HR42 CI TEMPO 3000=@CAELT@
ZPX0380 041403@CAELT@GG SLZZYMYT@CAELT@041400 SLTRYGYS@CAELT@SABO SLTR@CAELT@METAR SLTR 041400Z 15006KT 5000 FU NSC 34/19 Q1012 A2991 994.2 HR42@CAELT@CI TEMPO 3000=@CAELT@METAR SLGM 041400Z 22006KT 8000 FEW017 31/25 Q1012 A2989 HR69 FU=@CAELT@METAR SLRI 041400Z 00000KT 5000 FU NSC 30/25 Q1013 A2993 HR72 CI=@CAELT@METAR SLJO 041400Z NIL=METAR SLRA 041400Z 36004KT 5000 FU NSC 32/22 Q1011 A2987 HR55 CIRWY NML=METAR SLMG 041400Z 32004KT 6000 NSC 32/22 Q1011 A2988 HR57 FU CIMETAR SLBU 041400Z 00000KT 5000 FU NSC 33/23 Q1011 A2988 HR56METAR SLSA 041400Z 18006KT 6000 NSC 31/20 Q1012 A2989 HR51 FU=METAR SLSR 041400Z 00000KT 5000 FU NSC 31/22 Q1012 A2989 HR57METAR SLSM 041400Z 00000KT 5000 FU NSC 31/20 Q1013 A2993 HR52
ZPX0382 041406@CAELT@GG SLZZYMYT@CAELT@041404 SLRYYSYX@CAELT@SABO SLRY 041400 CCA@CAELT@METAR COR SLRY 041400Z 00000KT 5000 FU NSC 33/22 Q1011 A2987 HR54 RWY@CAELT@NML=@CAELT@
ZPX0383 041406@CAELT@GG SLZZYMYT@CAELT@041406 SLLPYFYA@CAELT@SABO SLLP 041400 CCA@CAELT@METAR SLLP 041400Z 12009KT 080V160 9999 FEW017 12/03 Q1041 A3075@CAELT@630.1 HR54 P93// FU NOSIG=@CAELT@METAR SLCO 041400Z 17004KT 9999 BKN080 29/23 Q1013 A2994 986.3@CAELT@HR70 FU=@CAELT@METAR COR SLRY 041400Z 00000KT 5000 FU NSC 33/22 Q1011 A2987 HR54RWY NML=METAR SLRQ 041400Z 18010KT 5000 FU NSC 34/24 Q1012 A2990 988.5HR54=METAR SLSB 041400Z 00000KT 5000 FU NSC 33/24 Q1011 A2988 HR62METAR SLOR 041400Z 32008KT 9999 FEW017 15/M03 Q1038 A3065 658.0 HR29FU S/SW=METAR SLUY 041400Z 28003KT 9999 FEW023 15/M01 Q1037 A3063 660.5HR35 FU=
ZPX0407 041449@CAELT@GG SLZZYMYT@CAELT@041448 SLCAYGYS@CAELT@SABO SLCA 041500@CAELT@METAR SLCA 041500Z 00000KT 9999 NSC 31/07 Q1020 A3012 HR22 RWY NML=@CAELT@
ZPX0410 041451@CAELT@GG SLZZYMYT@CAELT@041451 SLPSYGYS@CAELT@SABO SLPS 041500@CAELT@METAR SLPS 041500Z 09006KT 9999 NSC 34/23 Q1014 A2995 HR54=@CAELT@
ZPX0411 041452@CAELT@GG SLZZYMYT@CAELT@041452 SLRYYSYX@CAELT@SABO SLRY 041500@CAELT@METAR SLRY 041500Z 00000KT 5000 FU NSC 35/22 Q1011 A2987 HR48 RWY NML@CAELT@
ZPX0413 041452@CAELT@GG SLZZYMYT@CAELT@041452 SLRYYSYX@CAELT@SABO SLRY 041500@CAELT@METAR SLRY 041500Z 00000KT 5000 FU NSC 35/22 Q1011 A2987 HR48 RWY NML@CAELT@
ZPX0414 041453@CAELT@GG SLZZYMYT@CAELT@041451 SLETYMYC@CAELT@SABO SLET 041500@CAELT@METAR SLET 041500Z 12006KT 9999 NSC 35/11 Q1015 A2999 HR24 NOSIG=@CAELT@
ZPX0416 041453@CAELT@GG SLZZYMYT@CAELT@041453 SLRBYGYS@CAELT@SABO SLRB 041500@CAELT@METAR SLRB 041500Z 00000KT 9999 NSC 35/18 Q1017 A3003 HR38 RWY NML=@CAELT@
ZPX0417 041453@CAELT@GG SLZZYMYT@CAELT@041453 SLSBYSYX@CAELT@SABO SLSB 041500@CAELT@METAR SLSB 041500Z 09004KT 5000 FU NSC 33/23 Q1011 A2988 HR57 RWY NML=@CAELT@
ZPX0420 041454@CAELT@GG SLZZYMYT@CAELT@041455 SLORYGYZ@CAELT@SABO SLOR 041500@CAELT@METAR SLOR 041500Z 31008KT 9999 FEW020 18/M04 Q1037 A3065 657.9 HR21=@CAELT@
ZPX0421 041455@CAELT@GG SLZZYMYT@CAELT@041455 SLTRYGYZ@CAELT@SABO SLTR 041500@CAELT@METAR SLTR 041500Z 16006KT 5000 FU NSC 36/18 Q1012 A2989 993.7 HR34@CAELT@CI NOSIG=@CAELT@
ZPX0422 041455@CAELT@GG SLZZYMYT@CAELT@041455 SLTJYGYZ@CAELT@SABO SLTJ 041500@CAELT@METAR SLTJ 041500Z 13004KT 9999 NSC 25/07 Q1024 A3025 818.5 HR31 FU=@CAELT@
ZPX0425 041455@CAELT@GG SLZZYMYT@CAELT@041455 SLCOYGYZ@CAELT@SABO SLCO 041500@CAELT@METAR SLCO 041500Z 19006KT 9999 BKN080 30/23 Q1013 A2992 985.9 HR66@CAELT@
ZPX0426 041455@CAELT@GG SLZZYMYT@CAELT@041455 SLLPYGYZ@CAELT@SABO SLLP 041500@CAELT@METAR SLLP 041500Z 15008KT 080V210 9999 FEW017 14/01 Q1040 A3073@CAELT@629.8 HR43 P93// FU NOSIG=@CAELT@
ZPX0427 041456@CAELT@GG SLZZYMYT@CAELT@041455 SLRQYSYX@CAELT@SABO SLRQ 041500@CAELT@METAR SLRQ 041500Z 18010KT 5000 FU NSC 35/24 Q1012 A2990 988.3 HR53=@CAELT@
ZPX0428 041456@CAELT@GG SLZZYMYT@CAELT@041454 SLSAYGYS@CAELT@SABO SLSA 041500@CAELT@METAR SLSA 041500Z 17008KT 6000 NSC 32/20 Q1012 A2989 HR47 FU=@CAELT@
ZPX0429 041456@CAELT@GG SLZZYMYT@CAELT@041457 SLVRYGYZ@CAELT@SABO SLVR 041500@CAELT@METAR SLVR 041500Z 14007KT 9999 NSC 35/12 Q1015 A2998 HR25 NOSIG=@CAELT@
ZPX0432 041457@CAELT@GG SLZZYMYT@CAELT@041457 SLTRYGYS@CAELT@SABO SLTR 041500@CAELT@METAR SLTR 041500Z 16006KT 5000 FU NSC 36/18 Q1012 A2989 993.7 HR34@CAELT@CI NOSIG=@CAELT@METAR SLGM 041500Z 06004KT 8000 FEW017 33/24 Q1012 A2988 HR59 FU=@CAELT@METAR SLRI 041500Z 00000KT 5000 FU NSC 32/25 Q1013 A2992 HR66 CI=@CAELT@METAR SLJO 041500Z NIL=METAR SLRA 041500Z 16004KT 5000 FU NSC 35/22 Q1011 A2987 HR47 CIRWY NML=METAR SLMG 041500Z 00000KT 6000 NSC 34/22 Q1011 A2988 HR51 FU CIMETAR SLBU 041500Z 00000KT 5000 FU NSC 35/24 Q1011 A2986 HR53METAR SLSA 041500Z 17008KT 6000 NSC 32/20 Q1012 A2989 HR47 FU=METAR SLSR 041500Z 12006KT 5000 FU NSC 34/20 Q1011 A2987 HR43METAR SLSM 041500Z 00000KT 5000 FU NSC 34/19 Q1012 A2991 HR42
ZPX0433 041458@CAELT@GG SLZZYMYT@CAELT@041455 SLAGYSYX@CAELT@SABO SLAG 041500@CAELT@METAR SLAG 041500Z 18005KT 7000 NSC 30/09 Q1020 A3015 892.6 HR27 FU=@CAELT@
ZPX0434 041458@CAELT@GG SLZZYMYT@CAELT@041458 SLVRYGYS@CAELT@SABO SLVR 041500@CAELT@METAR SLVR 041500Z 14007KT 9999 NSC 35/12 Q1015 A2998 HR25 NOSIG=@CAELT@METAR SLET 041500Z 12006KT 9999 NSC 35/11 Q1015 A2999 HR24 NOSIG=@CAELT@METAR SLAS 041500Z 16015KT 3000 FU NSC 36/17 Q1014 A2994 HR33 RWY NML@CAELT@METAR SLJV 041500Z 09005KT 7000 NSC 33/14 Q1014 A2994 HR33 FU RWY NML@CAELT@METAR SLCP 041500Z 00000KT 9999 NSC 33/16 Q1017 A3003 HR36 FU RWY NMLMETAR SLSI 041500Z 12006KT 9999 NSC 34/19 Q1015 A2997 HR42 RWY NML=METAR SLTI 041500Z 00000KT 7000 NSC 36/15 Q1016 A3000 HR28 FU RWY NMLMETAR SLJE 041500Z 00000KT 9999 NSC 37/19 Q1017 A3003 HR34 RWY NML=METAR SLVG 041500Z 00000KT 9999 NSC 23/06 Q1028 A3036 HR27 RWY NML=METAR SLRB 041500Z 00000KT 9999 NSC 35/18 Q1017 A3003 HR38 RWY NML=METAR SLPS 041500Z 09006KT 9999 NSC 34/23 Q1014 A2995 HR54=METAR SLCA 041500Z 00000KT 9999 NSC 31/07 Q1020 A3012 HR22 RWY NML=
ZPX0435 041458@CAELT@GG SLZZYMYT@CAELT@041458 SLUYYGYS@CAELT@SABO SLUY 041500@CAELT@METAR SLUY 041500Z 30004KT 9999 FEW023 16/01 Q1036 A3061 660.1@CAELT@HR36 FU=@CAELT@
ZPX0436 041458@CAELT@GG SLZZYMYT@CAELT@041456 SLCBYGYZ@CAELT@SABO SLCB 041500@CAELT@METAR SLCB 041500Z VRB02KT 9999 FEW040 23/03 Q1028 A3037 754.0 HR27@CAELT@FU NOSIG=@CAELT@
ZPX0437 041459@CAELT@GG SLZZYMYT@CAELT@041459 SLLPYFYA@CAELT@SABO SLLP 041500@CAELT@METAR SLLP 041500Z 15008KT 080V210 9999 FEW017 14/01 Q1040 A3073@CAELT@629.8 HR43 P93// FU NOSIG=@CAELT@METAR SLCO 041500Z 19006KT 9999 BKN080 30/23 Q1013 A2992 985.9 HR66@CAELT@METAR SLRY 041500Z 00000KT 5000 FU NSC 35/22 Q1011 A2987 HR48@CAELT@RWY NML=METAR SLRQ 041500Z 18010KT 5000 FU NSC 35/24 Q1012 A2990 988.3HR53=METAR SLSB 041500Z 09004KT 5000 FU NSC 33/23 Q1011 A2988 HR57METAR SLOR 041500Z 31008KT 9999 FEW020 18/M04 Q1037 A3065 657.9HR21=METAR SLUY 041500Z 30004KT 9999 FEW023 16/01 Q1036 A3061 660.1HR36 FU=
ZPX0439 041501@CAELT@GG SLZZYMYT@CAELT@041500 SLCBYGYS@CAELT@SABO SLCB 041500@CAELT@METAR SLCB 041500Z VRB02KT 9999 FEW040 23/03 Q1028 A3037 754.0 HR27@CAELT@FU NOSIG=@CAELT@METAR SLAL 041500Z 15004KT 9999 NSC 16/04 Q1033 A3053 706.8 HR45 FU=@CAELT@METAR SLPO 041500Z 06010KT 9999 FEW020 15/03 Q1041 A3073 640.0 HR45=@CAELT@METAR SLAG 041500Z 18005KT 7000 NSC 30/09 Q1020 A3015 892.6 HR27 FU=METAR SLVM 041500Z 00000KT 9999 NSC 33/16 Q1016 A3002 HR36=METAR SLTJ 041500Z 13004KT 9999 NSC 25/07 Q1024 A3025 818.5 HR31 FU=METAR SLYA 041500Z 06010KT 9999 NSC 32/15 Q1017 A3004 941.8 HR36=METAR SLHI 041500Z NIL=METAR SLBJ 041500Z NIL=
ZPX0477 041552@CAELT@GG SLZZYMYT@CAELT@041552 SLETYMYC@CAELT@SABO SLET 041600@CAELT@METAR SLET 041600Z 12006KT 9999 NSC 35/10 Q1014 A2995 HR22 NOSIG=@CAELT@
ZPX0478 041553@CAELT@GG SLZZYMYT@CAELT@041553 SLPSYGYS@CAELT@SABO SLPS 041600@CAELT@METAR SLPS 041600Z 09004KT 9999 NSC 35/23 Q1013 A2992 HR50=@CAELT@
ZPX0479 041553@CAELT@GG SLZZYMYT@CAELT@041553 SLSBYSYX@CAELT@SABO SLSB 041600@CAELT@METAR SLSB 041600Z 10005KT 5000 FU NSC 35/20 Q1012 A2989 HR43 RWY NML=@CAELT@
ZPX0480 041553@CAELT@GG SLZZYMYT@CAELT@041554 SLAGYSYX@CAELT@SABO SLAG 041600@CAELT@METAR SLAG 041600Z 19008KT 9999 NSC 32/08 Q1020 A3012 891.9 HR23 FU=@CAELT@
ZPX0481 041554@CAELT@GG SLZZYMYT@CAELT@041553 SLRBYGYS@CAELT@SABO SLRB 041600@CAELT@METAR SLRB 041600Z 00000KT 9999 NSC 35/17 Q1016 A3000 HR35 RWY NML=@CAELT@
ZPX0482 041554@CAELT@GG SLZZYMYT@CAELT@041555 SLORYGYZ@CAELT@SABO SLOR 041600@CAELT@METAR SLOR 041600Z 10005KT 9999 FEW020 21/M07 Q1037 A3064 657.6 HR15=@CAELT@
ZPX0484 041555@CAELT@GG SLZZYMYT@CAELT@041555 SLCOYGYZ@CAELT@SABO SLCO 041600@CAELT@METAR SLCO 041600Z 19004KT 9999 BKN080 31/23 Q1012 A2991 985.5 HR61@CAELT@
ZPX0485 041555@CAELT@GG SLZZYMYT@CAELT@041555 SLLPYGYZ@CAELT@SABO SLLP 041600@CAELT@METAR SLLP 041600Z 12011KT 060V170 9999 FEW020 16/01 Q1040 A3072@CAELT@629.5 HR38 P93// FU NOSIG=@CAELT@
ZPX0486 041556@CAELT@GG SLZZYMYT@CAELT@041555 SLCAYGYS@CAELT@SABO SLCA 041600@CAELT@METAR SLCA 041600Z 36005KT 9999 NSC 33/06 Q1018 A3006 HR19 RWY NML=@CAELT@
ZPX0487 041556@CAELT@GG SLZZYMYT@CAELT@041555 SLTJYGYZ@CAELT@SABO SLTJ 041600@CAELT@METAR SLTJ 041600Z 00000KT 9999 NSC 26/07 Q1023 A3022 817.7 HR29 FU=@CAELT@
ZPX0489 041556@CAELT@GG SLZZYMYT@CAELT@041556 SLTRYGYZ@CAELT@SABO SLTR 041600@CAELT@METAR SLTR 041600Z 16006KT 5000 FU FEW020 SCT200 37/17 Q1011 A2987@CAELT@992.9 HR31 NOSIG=@CAELT@
ZPX0490 041556@CAELT@GG SLZZYMYT@CAELT@041555 SLRYYSYX@CAELT@SABO SLRY 041600@CAELT@METAR SLRY 041600Z 00000KT 5000 FU NSC 37/21 Q1010 A2985 HR41 RWY NML@CAELT@
ZPX0491 041556@CAELT@GG SLZZYMYT@CAELT@041557 SLRQYSYX@CAELT@SABO SLRQ 041600@CAELT@METAR SLRQ 041600Z 18006KT 5000 FU NSC 36/24 Q1011 A2988 987.7 HR51=@CAELT@
ZPX0493 041557@CAELT@GG SLZZYMYT@CAELT@041557 SLVRYGYZ@CAELT@SABO SLVR 041600@CAELT@METAR SLVR 041600Z 16010KT 9999 NSC 36/12 Q1014 A2996 HR23 NOSIG=@CAELT@
ZPX0494 041557@CAELT@GG SLZZYMYT@CAELT@041556 SLCBYGYZ@CAELT@SABO SLCB 041600@CAELT@METAR SLCB 041600Z 35003KT 9999 FEW040 25/03 Q1027 A3034 753.3 HR23@CAELT@FU NOSIG=@CAELT@
ZPX0496 041557@CAELT@GG SLZZYMYT@CAELT@041557 SLUYYGYS@CAELT@SABO SLUY 041600@CAELT@METAR SLUY 041600Z 29006KT 9999 FEW025 16/M01 Q1035 A3059 659.5@CAELT@HR32 FU=@CAELT@
ZPX0497 041557@CAELT@GG SLZZYMYT@CAELT@041558 SLVRYGYS@CAELT@SABO SLVR 041600@CAELT@METAR SLVR 041600Z 16010KT 9999 NSC 36/12 Q1014 A2996 HR23 NOSIG=@CAELT@METAR SLET 041600Z 12006KT 9999 NSC 35/10 Q1014 A2995 HR22 NOSIG=@CAELT@METAR SLAS 041600Z NIL=@CAELT@METAR SLJV 041600Z 09005KT 8000 NSC 35/15 Q1013 A2991 HR32 FU RWY NML@CAELT@METAR SLCP 041600Z 12006KT 9999 NSC 34/17 Q1016 A3000 HR36 FU RWY NMLMETAR SLSI 041600Z 18006KT 9999 NSC 35/20 Q1013 A2991 HR40 RWY NML=METAR SLTI 041600Z NIL=METAR SLJE 041600Z NIL=METAR SLVG 041600Z NIL=METAR SLRB 041600Z 00000KT 9999 NSC 35/17 Q1016 A3000 HR35 RWY NML=METAR SLPS 041600Z 09004KT 9999 NSC 35/23 Q1013 A2992 HR50=METAR SLCA 041600Z 36005KT 9999 NSC 33/06 Q1018 A3006 HR19 RWY NML=
ZPX0499 041558@CAELT@GG SLZZYMYT@CAELT@041556 SLSAYGYS@CAELT@SABO SLSA 041600@CAELT@METAR SLSA 041600Z 16010KT 6000 NSC 34/19 Q1011 A2988 HR43 FU=@CAELT@
ZPX0503 041600@CAELT@GG SLZZYMYT@CAELT@041600 SLTRYGYS@CAELT@SABO SLTR 041600@CAELT@METAR SLTR 041600Z 16006KT 5000 FU FEW020 SCT200 37/17 Q1011 A2987@CAELT@992.9 HR31 NOSIG=@CAELT@METAR SLGM 041600Z 16008KT 6000 SCT017 BKN200 34/24 Q1011 A2985 HR54@CAELT@METAR SLRI 041600Z 36006KT 5000 FU FEW017 BKN200 32/24 Q1012 A2990@CAELT@HR61=METAR SLJO 041600Z NIL=METAR SLRA 041600Z 16003KT 5000 FU FEW020 SCT200 37/21 Q1010 A2985HR41 RWY NML=METAR SLMG 041600Z 14006KT 6000 NSC 35/22 Q1011 A2986 HR45 FU CIRWY NML=METAR SLBU 041600Z 00000KT 5000 FU NSC 36/23 Q1011 A2984 HR47METAR SLSA 041600Z 16010KT 6000 NSC 34/19 Q1011 A2988 HR43 FU=METAR SLSR 041600Z 12006KT 5000 FU NSC 35/19 Q1010 A2984 HR39METAR SLSM 041600Z 15004KT 5000 FU NSC 37/19 Q1012 A2988 HR36
ZPX0504 041600@CAELT@GG SLZZYMYT@CAELT@041600 SLLPYFYA@CAELT@SABO SLLP 041600@CAELT@METAR SLLP 041600Z 12011KT 060V170 9999 FEW020 16/01 Q1040 A3072@CAELT@629.5 HR38 P93// FU NOSIG=@CAELT@METAR SLCO 041600Z 19004KT 9999 BKN080 31/23 Q1012 A2991 985.5@CAELT@HR61 FU=@CAELT@METAR SLRY 041600Z 00000KT 5000 FU NSC 37/21 Q1010 A2985 HR41RWY NML=METAR SLRQ 041600Z 18006KT 5000 FU NSC 36/24 Q1011 A2988 987.7HR51=METAR SLSB 041600Z 10005KT 5000 FU NSC 35/20 Q1012 A2989 HR43METAR SLOR 041600Z 10005KT 9999 FEW020 21/M07 Q1037 A3064 657.6HR15=METAR SLUY 041600Z 29006KT 9999 FEW025 16/M01 Q1035 A3059 659.5HR32 FU=
ZPX0509 041603@CAELT@GG SLZZYMYT@CAELT@041601 SLCBYGYS@CAELT@SABO SLCB 041600@CAELT@METAR SLCB 041600Z 35003KT 9999 FEW040 25/03 Q1027 A3034 753.3 HR23@CAELT@FU NOSIG=@CAELT@METAR SLAL 041600Z 02005KT 9999 FEW017 18/05 Q1033 A3051 706.6 HR41@CAELT@METAR SLPO 041600Z 07015KT 9999 FEW020 16/02 Q1040 A3072 639.7 HR39=@CAELT@METAR SLAG 041600Z 19008KT 9999 NSC 32/08 Q1020 A3012 891.9 HR23 FU=METAR SLVM 041600Z 15005KT 9999 NSC 34/16 Q1015 A3000 HR33=METAR SLTJ 041600Z 00000KT 9999 NSC 26/07 Q1023 A3022 817.7 HR29 FU=METAR SLYA 041600Z 06008KT 9999 NSC 33/15 Q1016 A3002 941.2 HR35=METAR SLHI 041600Z NIL=METAR SLBJ 041600Z NIL=
ZPX0529 041651@CAELT@GG SLZZYMYT@CAELT@041651 SLRYYSYX@CAELT@SABO SLRY 041700@CAELT@METAR SLRY 041700Z 14003KT 5000 FU NSC 38/20 Q1010 A2984 HR36 RWY NML@CAELT@
ZPX0530 041652@CAELT@GG SLZZYMYT@CAELT@041652 SLPSYGYS@CAELT@SABO SLPS 041700@CAELT@METAR SLPS 041700Z 09006KT 9999 NSC 37/24 Q1011 A2986 HR48=@CAELT@
ZPX0531 041652@CAELT@GG SLZZYMYT@CAELT@041652 SLETYMYC@CAELT@SABO SLET 041700@CAELT@METAR SLET 041700Z 07006KT 9999 NSC 36/09 Q1012 A2991 HR20 HR20 NOSIG=@CAELT@
ZPX0532 041653@CAELT@GG SLZZYMYT@CAELT@041654 SLORYGYZ@CAELT@SABO SLOR 041700@CAELT@METAR SLOR 041700Z 01004KT 9999 FEW023 21/M06 Q1037 A3063 657.4 HR16=@CAELT@
ZPX0534 041654@CAELT@GG SLZZYMYT@CAELT@041653 SLRBYGYS@CAELT@SABO SLRB 041700@CAELT@METAR SLRB 041700Z 16004KT 9999 NSC 36/19 Q1015 A2997 HR35 RWY NML=@CAELT@
ZPX0536 041655@CAELT@GG SLZZYMYT@CAELT@041655 SLVRYGYZ@CAELT@SABO SLVR 041700@CAELT@METAR SLVR 041700Z 15006KT 9999 NSC 37/13 Q1013 A2993 HR23 NOSIG=@CAELT@
ZPX0537 041655@CAELT@GG SLZZYMYT@CAELT@041655 SLRQYSYX@CAELT@SABO SLRQ 041700@CAELT@METAR SLRQ 041700Z 10004KT 5000 FU NSC 37/23 Q1011 A2986 986.9 HR43=@CAELT@
ZPX0538 041655@CAELT@GG SLZZYMYT@CAELT@041655 SLCOYGYZ@CAELT@SABO SLCO 041700@CAELT@METAR SLCO 041700Z 12003KT 9999 FEW025 BKN080 33/24 Q1012 A2989 984.6@CAELT@HR60 FU=@CAELT@
ZPX0539 041655@CAELT@GG SLZZYMYT@CAELT@041655 SLCAYGYS@CAELT@SABO SLCA 041700@CAELT@METAR SLCA 041700Z 09005KT 9999 NSC 34/07 Q1017 A3003 HR19 RWY NML=@CAELT@
ZPX0540 041655@CAELT@GG SLZZYMYT@CAELT@041655 SLTJYGYZ@CAELT@SABO SLTJ 041700@CAELT@METAR SLTJ 041700Z 13008KT 9999 NSC 27/06 Q1022 A3018 816.7 HR27 FU=@CAELT@
ZPX0541 041655@CAELT@GG SLZZYMYT@CAELT@041655 SLTRYGYZ@CAELT@SABO SLTR 041700@CAELT@METAR SLTR 041700Z 19005KT 5000 FU FEW020 SCT200 38/17 Q1010 A2984@CAELT@992.0 HR30 NOSIG=@CAELT@
ZPX0542 041656@CAELT@GG SLZZYMYT@CAELT@041656 SLVRYGYS@CAELT@SABO SLVR 041700@CAELT@METAR SLVR 041700Z 15006KT 9999 NSC 37/13 Q1013 A2993 HR23 NOSIG=@CAELT@METAR SLET 041700Z 07006KT 9999 NSC 36/09 Q1012 A2991 HR20@CAELT@HR20 NOSIG=@CAELT@METAR SLJV 041700Z 09005KT 8000 NSC 35/14 Q1011 A2985 HR29@CAELT@FU RWY NML=METAR SLCP 041700Z 00000KT 9999 FEW020 35/16 Q1015 A2997 HR33METAR SLSI 041700Z 00000KT 9999 NSC 37/20 Q1013 A2991 HR38 RWY NML=METAR SLRB 041700Z 16004KT 9999 NSC 36/19 Q1015 A2997 HR35 RWY NML=METAR SLPS 041700Z 09006KT 9999 NSC 37/24 Q1011 A2986 HR48=METAR SLCA 041700Z 09005KT 9999 NSC 34/07 Q1017 A3003 HR19 RWY NML=
ZPX0543 041656@CAELT@GG SLZZYMYT@CAELT@041655 SLCBYGYZ@CAELT@SABO SLCB 041700@CAELT@METAR SLCB 041700Z 13003KT 9999 FEW042 27/02 Q1025 A3029 752.0 HR19@CAELT@FU NOSIG=@CAELT@
ZPX0544 041656@CAELT@GG SLZZYMYT@CAELT@041655 SLAGYSYX@CAELT@SABO SLAG 041700@CAELT@METAR SLAG 041700Z 18006KT 9999 NSC 33/08 Q1018 A3008 890.5 HR21 FU=@CAELT@
ZPX0545 041656@CAELT@GG SLZZYMYT@CAELT@041656 SLLPYGYZ@CAELT@SABO SLLP 041700@CAELT@METAR SLLP 041700Z 09010KT 040V130 9999 FEW023 17/M03 Q1039 A3069 628@CAELT@.9 HR26 P93// FU NOSIG=@CAELT@
ZPX0546 041656@CAELT@GG SLZZYMYT@CAELT@041656 SLSAYGYS@CAELT@SABO SLSA 041700@CAELT@METAR SLSA 041700Z 16010KT 6000 NSC 35/19 Q1010 A2985 HR40 FU=@CAELT@
ZPX0547 041657@CAELT@GG SLZZYMYT@CAELT@041657 SLUYYGYS@CAELT@SABO SLUY 041700@CAELT@METAR SLUY 041700Z 30008KT 9999 FEW027 17/M01 Q1034 A3056 658.8@CAELT@HR30 FU=@CAELT@
ZPX0548 041657@CAELT@GG SLZZYMYT@CAELT@041656 SLSBYSYX@CAELT@SABO SLSB 041700@CAELT@METAR SLSB 041700Z 10007KT 5000 FU NSC 35/20 Q1012 A2988 HR43 RWY NML=@CAELT@
ZPX0549 041658@CAELT@GG SLZZYMYT@CAELT@041658 SLLPYFYA@CAELT@SABO SLLP 041700@CAELT@METAR SLLP 041700Z 09010KT 040V130 9999 FEW023 17/M03 Q1039 A3069@CAELT@628.9 HR26 P93// FU NOSIG=@CAELT@METAR SLCO 041700Z 12003KT 9999 FEW025 BKN080 33/24 Q1012 A2989@CAELT@984.6 HR60 FU=@CAELT@METAR SLRY 041700Z 14003KT 5000 FU NSC 38/20 Q1010 A2984 HR36RWY NML=METAR SLRQ 041700Z 10004KT 5000 FU NSC 37/23 Q1011 A2986 986.9 HR43=METAR SLSB 041700Z 10007KT 5000 FU NSC 35/20 Q1012 A2988 HR43 RWY NMLMETAR SLOR 041700Z 01004KT 9999 FEW023 21/M06 Q1037 A3063 657.4 HR16=METAR SLUY 041700Z 30008KT 9999 FEW027 17/M01 Q1034 A3056 658.8HR30 FU=
ZPX0550 041659@CAELT@GG SLZZYMYT@CAELT@041659 SLVRYGYS CCA@CAELT@SABO SLVR 041700 CCA@CAELT@METAR SLVR 041700Z 15006KT 9999 NSC 37/13 Q1013 A2993 HR23 NOSIG=@CAELT@METAR COR SLET 041700Z 07006KT 9999 NSC 36/09 Q1012 A2991 HR20 NOSIG=@CAELT@METAR SLJV 041700Z 09005KT 8000 NSC 35/14 Q1011 A2985 HR29@CAELT@FU RWY NML=@CAELT@METAR SLCP 041700Z 00000KT 9999 FEW020 35/16 Q1015 A2997 HR33METAR SLSI 041700Z 00000KT 9999 NSC 37/20 Q1013 A2991 HR38 RWY NML=METAR SLRB 041700Z 16004KT 9999 NSC 36/19 Q1015 A2997 HR35 RWY NML=METAR SLPS 041700Z 09006KT 9999 NSC 37/24 Q1011 A2986 HR48=METAR SLCA 041700Z 09005KT 9999 NSC 34/07 Q1017 A3003 HR19 RWY NML=
ZPX0552 041700@CAELT@GG SLZZYMYT@CAELT@041700 SLCBYGYS@CAELT@SABO SLCB 041700@CAELT@METAR SLCB 041700Z 13003KT 9999 FEW042 27/02 Q1025 A3029 752.0 HR19@CAELT@FU NOSIG=@CAELT@METAR SLAL 041700Z 05007KT 9999 FEW020 20/05 Q1032 A3049 706.0 HR37@CAELT@METAR SLPO 041700Z NIL=@CAELT@METAR SLAG 041700Z 18006KT 9999 NSC 33/08 Q1018 A3008 890.5 HR21 FU=METAR SLVM 041700Z 00000KT 9999 NSC 35/16 Q1014 A2995 HR32=METAR SLTJ 041700Z 13008KT 9999 NSC 27/06 Q1022 A3018 816.7 HR27 FU=METAR SLYA 041700Z 06008KT 9999 NSC 34/15 Q1016 A3001 940.7 HR33=METAR SLHI 041700Z NIL=METAR SLBJ 041700Z NIL=
ZPX0554 041702@CAELT@GG SLZZYMYT@CAELT@041702 SLTRYGYS@CAELT@SABO SLTR 041700@CAELT@METAR SLTR 041700Z 19005KT 5000 FU FEW020 SCT200 38/17 Q1010 A2984@CAELT@992.0 HR30 NOSIG=@CAELT@METAR SLGM 041700Z 16008KT 6000 SCT017 BKN200 35/24 Q1010 A2984 HR52@CAELT@METAR SLRI 041700Z 00000KT 5000 FU FEW017 BKN200 33/24 Q1011@CAELT@A2988 HR59=METAR SLJO 041700Z NIL=METAR SLRA 041700Z 16004KT 5000 FU FEW020 SCT200 37/20 Q1010 A2983HR38 RWY NML=METAR SLMG 041700Z 00000KT 6000 FEW017 BKN200 36/22 Q1010 A2984 HR42FU RWY NML=METAR SLBU 041700Z 14004KT 5000 FU FEW017 37/23 Q1009 A2981 HR46 FURWY NML=METAR SLSA 041700Z 16010KT 6000 NSC 35/19 Q1010 A2985 HR40 FU=METAR SLSR 041700Z 12006KT 5000 FU NSC 36/18 Q1010 A2984 HR36METAR SLSM 041700Z 18006KT 6000 NSC 37/19 Q1011 A2985 HR34 FU
ZPX0557 041706@CAELT@GG SLZZYMYT@CAELT@041705 SLETYMYC@CAELT@SABO SLET 041700 CCA@CAELT@METAR SLET 041700Z 07006KT 9999 NSC 36/09 Q1012 A2991 HR20 NOSIG=@CAELT@
ZPX0578 041750@CAELT@GG SLZZYMYT@CAELT@041750 SLRBYGYS@CAELT@SABO SLRB 041800@CAELT@METAR SLRB 041800Z 16005KT 9999 NSC 37/18 Q1013 A2991 HR33 RWY NML=@CAELT@
ZPX0580 041751@CAELT@GG SLZZYMYT@CAELT@041751 SLCAYGYS@CAELT@SABO SLCA 041800@CAELT@METAR SLCA 041800Z 00000KT 9999 NSC 34/08 Q1016 A3000 HR19 RWY NML=@CAELT@
ZPX0583 041752@CAELT@GG SLZZYMYT@CAELT@041752 SLETYMYC@CAELT@SABO SLET 041800@CAELT@METAR SLET 041800Z 17006KT 9999 NSC 37/11 Q1012 A2989 HR21 NOSIG=@CAELT@
ZPX0584 041752@CAELT@GG SLZZYMYT@CAELT@041752 SLPSYGYS@CAELT@SABO SLPS 041800@CAELT@METAR SLPS 041800Z 09007KT 9999 NSC 37/24 Q1011 A2986 HR46=@CAELT@
ZPX0587 041753@CAELT@GG SLZZYMYT@CAELT@041752 SLRYYSYX@CAELT@SABO SLRY 041800@CAELT@METAR SLRY 041800Z 18003KT 5000 FU FEW020 38/21 Q1009 A2981 HR37 RWY@CAELT@NML=@CAELT@
ZPX0588 041754@CAELT@GG SLZZYMYT@CAELT@041755 SLORYGYZ@CAELT@SABO SLOR 041800@CAELT@METAR SLOR 041800Z 09014KT 9999 FEW023 23/M08 Q1035 A3058 656.4 HR12=@CAELT@
ZPX0589 041754@CAELT@GG SLZZYMYT@CAELT@041755 SLSBYSYX@CAELT@SABO SLSB 041800@CAELT@METAR SLSB 041800Z 09004KT 6000 NSC 35/20 Q1010 A2984 HR42 FU RWY NML=@CAELT@
ZPX0590 041754@CAELT@GG SLZZYMYT@CAELT@041755 SLVRYGYZ@CAELT@SABO SLVR 041800@CAELT@METAR SLVR 041800Z 16003KT 9999 NSC 37/12 Q1012 A2989 HR22 NOSIG=@CAELT@
ZPX0591 041755@CAELT@GG SLZZYMYT@CAELT@041755 SLTJYGYZ@CAELT@SABO SLTJ 041800@CAELT@METAR SLTJ 041800Z 16010KT 9999 FEW040 27/08 Q1020 A3015 815.7 HR29@CAELT@
ZPX0593 041755@CAELT@GG SLZZYMYT@CAELT@041755 SLRQYSYX@CAELT@SABO SLRQ 041800@CAELT@METAR SLRQ 041800Z 10004KT 5000 FU NSC 38/23 Q1009 A2982 985.8 HR42=@CAELT@
ZPX0594 041756@CAELT@GG SLZZYMYT@CAELT@041755 SLSAYGYS@CAELT@SABO SLSA 041800@CAELT@METAR SLSA 041800Z 17008KT 6000 NSC 35/19 Q1008 A2979 HR39 FU=@CAELT@
ZPX0595 041756@CAELT@GG SLZZYMYT@CAELT@041755 SLSAYGYS@CAELT@SABO SLSA 041800@CAELT@METAR SLSA 041800Z 17008KT 6000 NSC 35/19 Q1008 A2979 HR39 FU=@CAELT@
ZPX0596 041756@CAELT@GG SLZZYMYT@CAELT@041755 SLAGYSYX@CAELT@SABO SLAG 041800@CAELT@METAR SLAG 041800Z 17008KT 9999 NSC 33/08 Q1017 A3005 889.6 HR21 FU=@CAELT@
ZPX0597 041756@CAELT@GG SLZZYMYT@CAELT@041755 SLTRYGYZ@CAELT@SABO SLTR 041800@CAELT@METAR SLTR 041800Z 14005KT 5000 FU FEW020 SCT200 38/18 Q1009 A2981@CAELT@990.9 HR31 NOSIG=@CAELT@
ZPX0598 041757@CAELT@GG SLZZYMYT@CAELT@041755 SLLPYGYZ@CAELT@SABO SLLP 041800@CAELT@METAR SLLP 041800Z 10013KT 040V150 9999 FEW023 18/M03 Q1038 A3067 628@CAELT@.4 HR24 P93// FU NOSIG=@CAELT@
ZPX0600 041757@CAELT@GG SLZZYMYT@CAELT@041757 SLCBYGYZ@CAELT@SABO SLCB 041800@CAELT@METAR SLCB 041800Z 17008KT 9999 FEW042 28/M01 Q1024 A3025 750.8 HR15@CAELT@FU NOSIG=@CAELT@
ZPX0601 041758@CAELT@GG SLZZYMYT@CAELT@041758 SLVRYGYS@CAELT@SABO SLVR 041800@CAELT@METAR SLVR 041800Z 16003KT 9999 NSC 37/12 Q1012 A2989 HR22 NOSIG=@CAELT@METAR SLET 041800Z 17006KT 9999 NSC 37/11 Q1012 A2989 HR21 NOSIG=@CAELT@METAR SLAS 041800Z 00000KT 3000 FU NSC 38/16 Q1012 A2989 HR26@CAELT@RWY NML=@CAELT@METAR SLJV 041800Z 09005KT 8000 NSC 36/15 Q1010 A2983 HR28FU RWY NML=METAR SLCP 041800Z 00000KT 9999 SCT020 36/18 Q1014 A2994 HR37METAR SLSI 041800Z 00000KT 9999 NSC 37/19 Q1010 A2993 HR35 RWY NML=METAR SLTI 041800Z 16010KT 9999 NSC 39/13 Q1013 A2991 HR22METAR SLJE 041800Z 17006KT 9999 FEW020 40/19 Q1013 A2991 HR30METAR SLVG 041800Z 00000KT 9999 SCT025 26/05 Q1025 A3027 HR19METAR SLRB 041800Z 16005KT 9999 NSC 37/18 Q1013 A2991 HR33 RWY NML=METAR SLPS 041800Z 09007KT 9999 NSC 37/24 Q1011 A2986 HR46=METAR SLCA 041800Z 00000KT 9999 NSC 34/08 Q1016 A3000 HR19 RWY NML=
ZPX0602 041759@CAELT@GG SLZZYMYT@CAELT@041759 SLCBYGYS@CAELT@SABO SLCB 041800@CAELT@METAR SLCB 041800Z 17008KT 9999 FEW042 28/M01 Q1024 A3025 750.8 HR15@CAELT@FU NOSIG=@CAELT@METAR SLAL 041800Z 02006KT 9999 FEW020 21/03 Q1031 A3046 705.1 HR31@CAELT@METAR SLPO 041800Z NIL=@CAELT@METAR SLAG 041800Z 17008KT 9999 NSC 33/08 Q1017 A3005 889.6 HR21 FU=METAR SLVM 041800Z 00000KT 9999 NSC 35/17 Q1012 A2991 HR33=METAR SLTJ 041800Z 16010KT 9999 FEW040 27/08 Q1020 A3015 815.7 HR29METAR SLYA 041800Z 06006KT 9999 NSC 36/15 Q1014 A2995 938.7 HR30=METAR SLHI 041800Z NIL=METAR SLBJ 041800Z NIL=
ZPX0606 041803@CAELT@GG SLZZYMYT@CAELT@041803 SLLPYFYA@CAELT@SABO SLLP 041800@CAELT@METAR SLLP 041800Z 10013KT 040V150 9999 FEW023 18/M03 Q1038 A3067@CAELT@628.4 HR24 P93// FU NOSIG=@CAELT@METAR SLRY 041800Z 18003KT 5000 FU FEW020 38/21 Q1009 A2981 HR37@CAELT@RWY NML=@CAELT@METAR SLRQ 041800Z 10004KT 5000 FU NSC 38/23 Q1009 A2982 985.8HR42=METAR SLSB 041800Z 09004KT 6000 NSC 35/20 Q1010 A2984 HR42 FUMETAR SLOR 041800Z 09014KT 9999 FEW023 23/M08 Q1035 A3058 656.4HR12=
ZPX0607 041804@CAELT@GG SLZZYMYT@CAELT@041800 SLTRYGYS@CAELT@SABO SLTR 041800@CAELT@METAR SLTR 041800Z 14005KT 5000 FU FEW020 SCT200 38/18 Q1009 A2981@CAELT@990.9 HR31 NOSIG=@CAELT@METAR SLGM 041800Z 33006KT 5000 FU SCT017 BKN200 36/23 Q1009 A2982@CAELT@HR49=@CAELT@METAR SLRI 041800Z 25008KT 7000 FEW017 BKN200 34/24 Q1010 A2984HR55 FU=METAR SLJO 041800Z NIL=METAR SLRA 041800Z 12005KT 5000 FU FEW023 SCT200 38/19 Q1009 A2980HR34RWY NML=METAR SLMG 041800Z 19005KT 5000 SCT017 37/22 Q1009 A2981 HR42METAR SLBU 041800Z 14004KT 5000 FU FEW017 38/22 Q1009 A2980 HR40METAR SLSA 041800Z 17008KT 6000 NSC 35/19 Q1008 A2979 HR39 FU=METAR SLSR 041800Z 12006KT 5000 FU NSC 38/19 Q1009 A2980 HR33METAR SLSM 041800Z 15006KT 6000 FEW017 37/16 Q1009 A2982 HR34 FU
ZPX0617 041822@CAELT@GG SLZZYMYT@CAELT@041821 SLTRYGYS@CAELT@SABO SLTR 041800 CCA@CAELT@METAR SLTR 041800Z 14005KT 5000 FU FEW020 SCT200 38/18 Q1009 A2981@CAELT@990.9 HR31 NOSIG=@CAELT@METAR SLGM 041800Z 33006KT 5000 FU SCT017 BKN200 36/23 Q1009 A2982@CAELT@HR49=@CAELT@METAR SLRI 041800Z 25008KT 7000 FEW017 BKN200 34/24 Q1010 A2984HR55 FU=METAR SLJO 041800Z NIL=METAR SLRA 041800Z 12005KT 5000 FU FEW023 SCT200 38/19 Q1009 A2980HR34RWY NML=METAR SLMG 041800Z 19005KT 5000 SCT017 37/22 Q1009 A2981 HR42METAR SLBU 041800Z 14004KT 5000 FU FEW017 38/22 Q1009 A2980 HR40METAR SLSA 041800Z 17008KT 6000 NSC 35/19 Q1008 A2979 HR39 FU=METAR SLSR 041800Z 12006KT 5000 FU NSC 38/19 Q1009 A2980 HR33METAR COR SLSM 041800Z 15006KT 6000 FEW017 37/16 Q1009 A2982 HR29FU RWY NML=
ZPX0625 041849@CAELT@GG SLZZYMYT@CAELT@041850 SLRBYGYS@CAELT@SABO SLRB 041900@CAELT@METAR SLRB 041900Z 16005KT 9999 NSC 38/18 Q1013 A2991 HR32 RWY NML=@CAELT@
ZPX0626 041851@CAELT@GG SLZZYMYT@CAELT@041851 SLPSYGYS@CAELT@SABO SLPS 041900@CAELT@METAR SLPS 041900Z 09008KT 9999 NSC 37/24 Q1010 A2983 HR46=@CAELT@
ZPX0627 041852@CAELT@GG SLZZYMYT@CAELT@041852 SLETYMYC@CAELT@SABO SLET 041900@CAELT@METAR SLET 041900Z 16003KT 9999 NSC 37/13 Q1010 A2985 HR23 NOSIG=@CAELT@
ZPX0628 041854@CAELT@GG SLZZYMYT@CAELT@041855 SLVRYGYZ@CAELT@SABO SLVR 041900@CAELT@METAR SLVR 041900Z 16005KT 9999 NSC 37/12 Q1011 A2985 HR21 NOSIG=@CAELT@
ZPX0629 041854@CAELT@GG SLZZYMYT@CAELT@041854 SLCAYGYS@CAELT@SABO SLCA 041900@CAELT@METAR SLCA 041900Z 00000KT 9999 NSC 35/06 Q1015 A2997 HR18 RWY NML=@CAELT@
ZPX0630 041854@CAELT@GG SLZZYMYT@CAELT@041855 SLSBYSYX@CAELT@SABO SLSB 041900@CAELT@METAR SLSB 041900Z 08004KT 6000 NSC 35/20 Q1008 A2979 HR40 FU RWY NML=@CAELT@
ZPX0631 041854@CAELT@GG SLZZYMYT@CAELT@041854 SLSAYGYS@CAELT@SABO SLSA 041900@CAELT@METAR SLSA 041900Z 17006KT 6000 NSC 36/19 Q1008 A2978 HR37 FU=@CAELT@
ZPX0632 041854@CAELT@GG SLZZYMYT@CAELT@041854 SLSAYGYS@CAELT@SABO SLSA 041900@CAELT@METAR SLSA 041900Z 17006KT 6000 NSC 36/19 Q1008 A2978 HR37 FU=@CAELT@
ZPX0633 041855@CAELT@GG SLZZYMYT@CAELT@041855 SLAGYSYX@CAELT@SABO SLAG 041900@CAELT@METAR SLAG 041900Z 16005KT 9999 NSC 34/06 Q1016 A3001 888.5 HR18 FU=@CAELT@
ZPX0635 041855@CAELT@GG SLZZYMYT@CAELT@041855 SLTRYGYZ@CAELT@SABO SLTR 041900@CAELT@METAR SLTR 041900Z 24004KT 5000 FU FEW020 SCT200 38/18 Q1008 A2977@CAELT@989.8 HR31 NOSIG=@CAELT@
ZPX0636 041855@CAELT@GG SLZZYMYT@CAELT@041854 SLRYYSYX@CAELT@SABO SLRY 041900@CAELT@METAR SLRY 041900Z 18003KT 5000 FU FEW020 38/21 Q1008 A2977 HR37 RWY@CAELT@NML=@CAELT@
ZPX0638 041856@CAELT@GG SLZZYMYT@CAELT@041856 SLLPYGYZ@CAELT@SABO SLLP 041900@CAELT@METAR SLLP 041900Z 08013G24KT 040V130 9999 FEW023 18/M06 Q1037 A3065@CAELT@627.9 HR18 P93// NOSIG=@CAELT@
ZPX0639 041856@CAELT@GG SLZZYMYT@CAELT@041856 SLRQYSYX@CAELT@SABO SLRQ 041900@CAELT@METAR SLRQ 041900Z 09004KT 5000 FU NSC 38/23 Q1008 A2978 984.5 HR43=@CAELT@
ZPX0640 041856@CAELT@GG SLZZYMYT@CAELT@041856 SLTJYGYZ@CAELT@SABO SLTJ 041900@CAELT@METAR SLTJ 041900Z 17008KT 9999 NSC 27/08 Q1020 A3012 815.30 HR29 FU=@CAELT@
ZPX0641 041857@CAELT@GG SLZZYMYT@CAELT@041856 SLCBYGYZ@CAELT@SABO SLCB 041900@CAELT@METAR SLCB 041900Z 18006KT 9999 FEW042 29/M01 Q1023 A3022 750.0 HR15@CAELT@FU NOSIG=@CAELT@
ZPX0642 041857@CAELT@GG SLZZYMYT@CAELT@041857 SLTJYGYZ@CAELT@SABO SLTJ 041900 CCA@CAELT@METAR COR SLTJ 041900Z 17008KT 9999 NSC 27/08 Q1020 A3012 815.0 HR29@CAELT@
ZPX0644 041858@CAELT@GG SLZZYMYT@CAELT@041858 SLVRYGYS@CAELT@SABO SLVR 041900@CAELT@METAR SLVR 041900Z 16005KT 9999 NSC 37/12 Q1011 A2985 HR21 NOSIG=@CAELT@METAR SLET 041900Z 16003KT 9999 NSC 37/13 Q1010 A2985 HR23 NOSIG=@CAELT@METAR SLAS 041900Z 00000KT 3000 FU NSC 39/14 Q1010 A2983 HR24@CAELT@RWY NML=@CAELT@METAR SLJV 041900Z 09004KT 7000 NSC 35/15 Q1010 A2983 HR28FU RWY NML=METAR SLCP 041900Z 00000KT 8000 SCT020 36/20 Q1013 A2991 HR40METAR SLSI 041900Z 16005KT 9999 NSC 37/19 Q1010 A2983 HR35 RWY NML=METAR SLTI 041900Z 16014KT 9999 NSC 38/11 Q1012 A2988 HR20METAR SLJE 041900Z 17006KT 9999 FEW020 41/19 Q1012 A2988 HR29METAR SLVG 041900Z 36007KT 9999 SCT025 28/06 Q1024 A3024 HR20METAR SLRB 041900Z 16005KT 9999 NSC 38/18 Q1013 A2991 HR32 RWY NML=METAR SLPS 041900Z 09008KT 9999 NSC 37/24 Q1010 A2983 HR46=METAR SLCA 041900Z 00000KT 9999 NSC 35/06 Q1015 A2997 HR18 RWY NML=
ZPX0645 041858@CAELT@GG SLZZYMYT@CAELT@041858 SLTRYGYS@CAELT@SABO SLTR 041900@CAELT@METAR SLTR 041900Z 24004KT 5000 FU FEW020 SCT200 38/18 Q1008 A2977@CAELT@989.8 HR31 NOSIG=@CAELT@METAR SLGM 041900Z 17008KT 3000 FU SCT017 BKN200 36/23 Q1008 A2979@CAELT@HR47=@CAELT@METAR SLRI 041900Z 20008KT 7000 FEW017 BKN200 35/23 Q1009 A2981 HR50METAR SLJO 041900Z NIL=METAR SLRA 041900Z 12003KT 5000 FU FEW023 SCT200 38/20 Q1008 A2977HR36 RWY NML=METAR SLMG 041900Z 00000KT 5000 FU SCT017 37/21 Q1008 A2979 HR40RWY NML=METAR SLBU 041900Z 14004KT 5000 FU FEW017 38/21 Q1008 A2977 HR36METAR SLSA 041900Z 17006KT 6000 NSC 36/19 Q1008 A2978 HR37 FU=METAR SLSR 041900Z 12006KT 5000 FU NSC 38/19 Q1007 A2975 HR33METAR SLSM 041900Z 20004KT 6000 FEW017 37/17 Q1008 A2978 HR30 FU
ZPX0647 041859@CAELT@GG SLZZYMYT@CAELT@041858 SLCBYGYS@CAELT@SABO SLCB 041900@CAELT@METAR SLCB 041900Z 18006KT 9999 FEW042 29/M01 Q1023 A3022 750.0 HR15@CAELT@FU NOSIG=@CAELT@METAR SLAL 041900Z 01006KT 9999 SCT020 21/03 Q1030 A3042 704.4 HR30@CAELT@METAR SLPO 041900Z NIL=@CAELT@METAR SLAG 041900Z 16005KT 9999 NSC 34/06 Q1016 A3001 888.5 HR18 FU=METAR SLVM 041900Z NIL=METAR SLTJ 041900Z 17008KT 9999 NSC 27/08 Q1020 A3012 815.0 HR29METAR SLYA 041900Z 06008KT 9999 NSC 34/15 Q1012 A2990 937.2 HR31=METAR SLHI 041900Z NIL=METAR SLBJ 041900Z NIL=
ZPX0649 041902@CAELT@GG SLZZYMYT@CAELT@041900 SLLPYFYA@CAELT@SABO SLLP 041900@CAELT@METAR SLLP 041900Z 08013G24KT 040V130 9999 FEW023 18/M06 Q1037 A3065@CAELT@627.9 HR18 P93// NOSIG=@CAELT@METAR SLRY 041900Z 18003KT 5000 FU FEW020 38/21 Q1008 A2977 HR37@CAELT@RWY NML=@CAELT@METAR SLRQ 041900Z 09004KT 5000 FU NSC 38/23 Q1008 A2978 984.5 HR43=METAR SLSB 041900Z 08004KT 6000 NSC 35/20 Q1008 A2979 HR40 FU RWYNML=
ZPX0670 041951@CAELT@GG SLZZYMYT@CAELT@041951 SLPSYGYS@CAELT@SABO SLPS 042000@CAELT@METAR SLPS 042000Z 09012KT 9999 NSC 37/24 Q1010 A2983 HR46=@CAELT@
ZPX0672 041952@CAELT@GG SLZZYMYT@CAELT@041952 SLETYMYC@CAELT@SABO SLET 042000@CAELT@METAR SLET 042000Z 16003KT 9999 NSC 37/12 Q1010 A2983 HR22 NOSIG=@CAELT@
ZPX0674 041954@CAELT@GG SLZZYMYT@CAELT@041953 SLCAYGYS@CAELT@SABO SLCA 042000@CAELT@METAR SLCA 042000Z 00000KT 9999 NSC 35/06 Q1014 A2994 HR18 RWY NML=@CAELT@
ZPX0675 041954@CAELT@GG SLZZYMYT@CAELT@041952 SLRYYSYX@CAELT@SABO SLRY 042000@CAELT@METAR SLRY 042000Z 00000KT 5000 FU FEW020 38/20 Q1007 A2975 HR34 RWY@CAELT@NML=@CAELT@
ZPX0676 041954@CAELT@GG SLZZYMYT@CAELT@041954 SLSAYGYS@CAELT@SABO SLSA 042000@CAELT@METAR SLSA 042000Z 17006KT 6000 NSC 36/18 Q1008 A2977 HR34 FU=@CAELT@
ZPX0677 041954@CAELT@GG SLZZYMYT@CAELT@041954 SLSAYGYS@CAELT@SABO SLSA 042000@CAELT@METAR SLSA 042000Z 17006KT 6000 NSC 36/18 Q1008 A2977 HR34 FU=@CAELT@
ZPX0678 041955@CAELT@GG SLZZYMYT@CAELT@041955 SLSBYSYX@CAELT@SABO SLSB 042000@CAELT@METAR SLSB 042000Z 07004KT 6000 NSC 36/20 Q1007 A2976 HR39 FU RWY NML=@CAELT@
ZPX0679 041955@CAELT@GG SLZZYMYT@CAELT@041955 SLTRYGYZ@CAELT@SABO SLTR 042000@CAELT@METAR SLTR 042000Z 24004KT 5000 FU FEW020 SCT200 37/18 Q1007 A2975@CAELT@989.1 HR33 NOSIG=@CAELT@
ZPX0680 041955@CAELT@GG SLZZYMYT@CAELT@041955 SLRBYGYS@CAELT@SABO SLRB 042000@CAELT@METAR SLRB 042000Z 16005KT 9999 NSC 38/18 Q1012 A2988 HR32 RWY NML=@CAELT@
ZPX0682 041956@CAELT@GG SLZZYMYT@CAELT@041955 SLTJYGYZ@CAELT@SABO SLTJ 042000@CAELT@METAR SLTJ 042000Z 14010KT 9999 NSC 28/07 Q1019 A3010 814.3 HR27 FU=@CAELT@
ZPX0684 041956@CAELT@GG SLZZYMYT@CAELT@041957 SLVRYGYZ@CAELT@SABO SLVR 042000@CAELT@METAR SLVR 042000Z 17003KT 9999 NSC 37/12 Q1010 A2984 HR22 NOSIG=@CAELT@
ZPX0687 041957@CAELT@GG SLZZYMYT@CAELT@041956 SLCBYGYZ@CAELT@SABO SLCB 042000@CAELT@METAR SLCB 042000Z 05008KT 9999 FEW042 30/00 Q1021 A3018 749.0 HR14@CAELT@FU CI NOSIG=@CAELT@
ZPX0688 041957@CAELT@GG SLZZYMYT@CAELT@041955 SLLPYGYZ@CAELT@SABO SLLP 042000@CAELT@METAR SLLP 042000Z 07011KT 360V110 9999 FEW023 FEW025CB 18/M06 Q1037@CAELT@A3064 627.6 HR20 P3483 CB/SE/S NOSIG=@CAELT@
ZPX0689 041957@CAELT@GG SLZZYMYT@CAELT@041958 SLVRYGYS@CAELT@SABO SLVR 042000@CAELT@METAR SLVR 042000Z 17003KT 9999 NSC 37/12 Q1010 A2984 HR22 NOSIG=@CAELT@METAR SLET 042000Z 16003KT 9999 NSC 37/12 Q1010 A2983 HR22 NOSIG=@CAELT@METAR SLAS 042000Z 36006KT 3000 FU NSC 38/17 Q1009 A2980 HR30 RWY NML@CAELT@METAR SLJV 042000Z 09004KT 7000 NSC 36/17 Q1009 A2980 HR32 FU RWY NML@CAELT@METAR SLCP 042000Z 00000KT 8000 FEW020 36/21 Q1012 A2988 HR44FU RWY NML=METAR SLSI 042000Z 19006KT 9999 NSC 37/20 Q1009 A2980 HR37 RWY NML=METAR SLTI 042000Z 17012KT 9999 NSC 37/11 Q1012 A2988 HR21 FU RWY NMLMETAR SLJE 042000Z 17005KT 9999 FEW020 40/19 Q1012 A2988 HR30 RWY NMLMETAR SLVG 042000Z 00000KT 9999 SCT025 26/06 Q1024 A3024 HR21 RWY NMLMETAR SLRB 042000Z 16005KT 9999 NSC 38/18 Q1012 A2988 HR32 RWY NML=METAR SLPS 042000Z 09012KT 9999 NSC 37/24 Q1010 A2983 HR46=METAR SLCA 042000Z 00000KT 9999 NSC 35/06 Q1014 A2994 HR18 RWY NML=
ZPX0691 041958@CAELT@GG SLZZYMYT@CAELT@041958 SLTRYGYS@CAELT@SABO SLTR 042000@CAELT@METAR SLTR 042000Z 24004KT 5000 FU FEW020 SCT200 37/18 Q1007 A2975@CAELT@989.1 HR33 NOSIG=@CAELT@METAR SLGM 041200Z 19015KT 3000 FU SCT017 BKN200 36/23 Q1007 A2975@CAELT@HR45=@CAELT@METAR SLRI 042000Z 18008KT 5000 FU FEW017 BKN200 34/23 Q1009 A2980HR53=METAR SLJO 041200Z NIL=METAR SLRA 041200Z 12003KT 5000 FU FEW023 SCT200 37/20 Q1007 A2976HR37 RWY NML=METAR SLMG 041200Z 00000KT 5000 FU SCT017 37/22 Q1008 A2978 HR41RWY NML=METAR SLBU 041200Z 00000KT 5000 FU FEW017 38/21 Q1007 A2975 HR37METAR SLSA 042000Z 17006KT 6000 NSC 36/18 Q1008 A2977 HR34 FU=METAR SLSR 041200Z 12006KT 5000 FU NSC 37/19 Q1007 A295 HR35METAR SLSM 041200Z 18005KT 6000 FEW017 37/18 Q1007 A2975 HR32 FU
ZPX0692 041958@CAELT@GG SLZZYMYT@CAELT@041957 SLRQYSYX@CAELT@SABO SLRQ 042000@CAELT@METAR SLRQ 042000Z 00000KT 5000 FU NSC 38/24 Q1007 A2976 983.6 HR45@CAELT@
ZPX0696 042000@CAELT@GG SLZZYMYT@CAELT@042000 SLLPYFYA@CAELT@SABO SLLP 042000@CAELT@METAR SLLP 042000Z 07011KT 360V110 9999 FEW023 FEW025CB 18/M06 Q1037@CAELT@A3064 627.6 HR20 P3483 CB/SE/S NOSIG=@CAELT@METAR SLRY 042000Z 00000KT 5000 FU FEW020 38/20 Q1007 A2975 HR34@CAELT@RWY NML=@CAELT@METAR SLRQ 042000Z 00000KT 5000 FU NSC 38/24 Q1007 A2976 983.6HR45 CU=METAR SLSB 042000Z 07004KT 6000 NSC 36/20 Q1007 A2976 HR39 FU
ZPX0697 042001@CAELT@GG SLZZYMYT@CAELT@042001 SLCBYGYS@CAELT@SABO SLCB 042000@CAELT@METAR SLCB 042000Z 05008KT 9999 FEW042 30/00 Q1021 A3018 749.0 HR14@CAELT@FU CI NOSIG=@CAELT@METAR SLAL 042000Z 02011KT 9999 SCT020 20/02 Q1029 A3040 704.0 HR30@CAELT@METAR SLPO 042000Z NIL=@CAELT@METAR SLAG 042000Z NIL=METAR SLVM 042000Z NIL=METAR SLTJ 042000Z 14010KT 9999 NSC 28/07 Q1019 A3010 814.3 HR27 FU=METAR SLYA 042000Z 06008KT 9999 NSC 33/15 Q1011 A2988 936.5 HR33=METAR SLHI 042000Z NIL=METAR SLBJ 042000Z NIL=
ZPX0709 042019@CAELT@GG SLZZYMYT@CAELT@042018 SLTRYGYS@CAELT@SABO SLTR 042000@CAELT@METAR SLTR 042000Z 24004KT 5000 FU FEW020 SCT200 37/18 Q1007 A2975@CAELT@989.1 HR33 NOSIG=@CAELT@METAR SLGM 042000Z 19015KT 3000 FU SCT017 BKN200 36/23 Q1007 A2975@CAELT@HR45=@CAELT@METAR SLRI 042000Z 18008KT 5000 FU FEW017 BKN200 34/23 Q1009 A2980HR53=METAR SLJO 042000Z NIL=METAR SLRA 042000Z 12003KT 5000 FU FEW023 SCT200 37/20 Q1007 A2976HR37 RWY NML=METAR SLMG 042000Z 00000KT 5000 FU SCT017 37/22 Q1008 A2978 HR41RWY NML=METAR SLBU 042000Z 00000KT 5000 FU FEW017 38/21 Q1007 A2975 HR37METAR SLSA 042000Z 17006KT 6000 NSC 36/18 Q1008 A2977 HR34 FU=METAR SLSR 042000Z 12006KT 5000 FU NSC 37/19 Q1007 A295 HR35METAR SLSM 042000Z 18005KT 6000 FEW017 37/18 Q1007 A2975 HR32 FU
ZPX0710 042019@CAELT@GG SLZZYMYT@CAELT@042018 SLTRYGYS@CAELT@SABO SLTR 042000@CAELT@METAR SLTR 042000Z 24004KT 5000 FU FEW020 SCT200 37/18 Q1007 A2975@CAELT@989.1 HR33 NOSIG=@CAELT@METAR SLGM 042000Z 19015KT 3000 FU SCT017 BKN200 36/23 Q1007 A2975@CAELT@HR45=@CAELT@METAR SLRI 042000Z 18008KT 5000 FU FEW017 BKN200 34/23 Q1009 A2980HR53=METAR SLJO 042000Z NIL=METAR SLRA 042000Z 12003KT 5000 FU FEW023 SCT200 37/20 Q1007 A2976HR37 RWY NML=METAR SLMG 042000Z 00000KT 5000 FU SCT017 37/22 Q1008 A2978 HR41RWY NML=METAR SLBU 042000Z 00000KT 5000 FU FEW017 38/21 Q1007 A2975 HR37METAR SLSA 042000Z 17006KT 6000 NSC 36/18 Q1008 A2977 HR34 FU=METAR SLSR 042000Z 12006KT 5000 FU NSC 37/19 Q1007 A295 HR35METAR SLSM 042000Z 18005KT 6000 FEW017 37/18 Q1007 A2975 HR32 FU
ZPX0730 042052@CAELT@GG SLZZYMYT@CAELT@042052 SLPSYGYS@CAELT@SABO SLPS 042100@CAELT@METAR SLPS 042100Z 09008KT 9999 NSC 36/24 Q1009 A2980 HR50=@CAELT@
ZPX0731 042052@CAELT@GG SLZZYMYT@CAELT@042052 SLRYYSYX@CAELT@SABO SLRY 042100@CAELT@METAR SLRY 042100Z 00000KT 5000 FU NSC 33/23 Q1006 A2973 HR58 RWY NML@CAELT@
ZPX0732 042053@CAELT@GG SLZZYMYT@CAELT@042052 SLETYMYC@CAELT@SABO SLET 042100@CAELT@METAR SLET 042100Z 11003KT 9999 NSC 36/11 Q1009 A2981 HR22 NOSIG=@CAELT@
ZPX0737 042055@CAELT@GG SLZZYMYT@CAELT@042055 SLSBYSYX@CAELT@SABO SLSB 042100@CAELT@METAR SLSB 042100Z 00000KT 6000 NSC 35/20 Q1007 A2974 HR42 FU RWY NML=@CAELT@
ZPX0738 042055@CAELT@GG SLZZYMYT@CAELT@042055 SLCAYGYS@CAELT@SABO SLCA 042100@CAELT@METAR SLCA 042100Z 00000KT 9999 NSC 35/09 Q1013 A2991 HR21 RWY NML=@CAELT@
ZPX0739 042056@CAELT@GG SLZZYMYT@CAELT@042055 SLLPYGYZ@CAELT@SABO SLLP 042100@CAELT@METAR SLLP 042100Z 03013G24KT 360V060 9999 FEW023 FEW025CB 15/M06@CAELT@Q1037 A3063 627.4 HR22 P6083 CB/SE/SW NOSIG=@CAELT@
ZPX0741 042056@CAELT@GG SLZZYMYT@CAELT@042056 SLRBYGYS@CAELT@SABO SLRB 042100@CAELT@METAR SLRB 042100Z 16005KT 9999 NSC 36/19 Q1011 A2985 HR36 RWY NML=@CAELT@
ZPX0742 042056@CAELT@GG SLZZYMYT@CAELT@042055 SLSAYGYS@CAELT@SABO SLSA 042100@CAELT@METAR SLSA 042100Z 17006KT 6000 NSC 36/18 Q1007 A2975 HR34 FU=@CAELT@
ZPX0743 042056@CAELT@GG SLZZYMYT@CAELT@042055 SLSAYGYS@CAELT@SABO SLSA 042100@CAELT@METAR SLSA 042100Z 17006KT 6000 NSC 36/18 Q1007 A2975 HR34 FU=@CAELT@
ZPX0744 042056@CAELT@GG SLZZYMYT@CAELT@042055 SLCBYGYZ@CAELT@SABO SLCB 042100@CAELT@METAR SLCB 042100Z 12008KT 010V180 9999 FEW042 SCT200 27/M01 Q1021@CAELT@A3017 748.8 HR15 FU NOSIG=@CAELT@
ZPX0745 042056@CAELT@GG SLZZYMYT@CAELT@042057 SLVRYGYZ@CAELT@SABO SLVR 042100@CAELT@METAR SLVR 042100Z VRB02KT 9999 NSC 36/12 Q1009 A2982 HR24 NOSIG=@CAELT@
ZPX0746 042058@CAELT@GG SLZZYMYT@CAELT@042056 SLTJYGYZ@CAELT@SABO SLTJ 042100@CAELT@METAR SLTJ 042100Z 13010KT 9999 NSC 27/09 Q1018 A3008 813.9 HR33 FU=@CAELT@
ZPX0747 042058@CAELT@GG SLZZYMYT@CAELT@042057 SLTRYGYZ@CAELT@SABO SLTR 042100@CAELT@METAR SLTR 042100Z 00000KT 5000 FU FEW020 SCT200 36/19 Q1006 A2974@CAELT@988.5 HR35 NOSIG=@CAELT@
ZPX0748 042058@CAELT@GG SLZZYMYT@CAELT@042057 SLRQYSYX@CAELT@SABO SLRQ 042100@CAELT@METAR SLRQ 042100Z 00000KT 5000 FU NSC 36/25 Q1007 A2974 983.0 HR52=@CAELT@
ZPX0750 042059@CAELT@GG SLZZYMYT@CAELT@042100 SLVRYGYS@CAELT@SABO SLVR 042100@CAELT@METAR SLVR 042100Z VRB02KT 9999 NSC 36/12 Q1009 A2982 HR24 NOSIG=@CAELT@METAR SLET 042100Z 11003KT 9999 NSC 36/11 Q1009 A2981 HR22 NOSIG=@CAELT@METAR SLAS 042100Z 36005KT 3000 FU NSC 37/17 Q1009 A2980 HR31 RWY NML@CAELT@METAR SLJV 042100Z 00000KT 7000 NSC 35/18 Q1008 A2977 HR37 FU RWY NML@CAELT@METAR SLCP 042100Z 00000KT 8000 NSC 35/19 Q1011 A2985 HR41 FU RWY NMLMETAR SLSI 042100Z 19005KT 9999 NSC 36/20 Q1009 A2980 HR39 RWY NML=METAR SLTI 042100Z 16006KT 9999 NSC 37/13 Q1011 A2985 HR24 FU RWY NMLMETAR SLJE 042100Z 16005KT 9999 NSC 39/19 Q1011 A2985 HR31 RWY NML=METAR SLVG 042100Z 12005KT 9999 FEW025 25/06 Q1024 A3024 HR22 RWY NMLMETAR SLRB 042100Z 16005KT 9999 NSC 36/19 Q1011 A2985 HR36 RWY NML=METAR SLPS 042100Z 09008KT 9999 NSC 36/24 Q1009 A2980 HR50=METAR SLCA 042100Z 00000KT 9999 NSC 35/09 Q1013 A2991 HR21 RWY NML=
ZPX0753 042100@CAELT@GG SLZZYMYT@CAELT@042100 SLLPYFYA@CAELT@SABO SLLP 042100@CAELT@METAR SLLP 042100Z 03013G24KT 360V060 9999 FEW023 FEW025CB 15/M06@CAELT@Q1037 A3063 627.4 HR22 P6083 CB/SE/SW NOSIG=@CAELT@METAR SLRY 042100Z 00000KT 5000 FU NSC 33/23 Q1006 A2973 HR58@CAELT@RWY NML=@CAELT@METAR SLRQ 042100Z 00000KT 5000 FU NSC 36/25 Q1007 A2974 983.0HR52=METAR SLSB 042100Z 00000KT 6000 NSC 35/20 Q1007 A2974 HR42 FU
ZPX0754 042101@CAELT@GG SLZZYMYT@CAELT@042100 SLCBYGYS@CAELT@SABO SLCB 042100@CAELT@METAR SLCB 042100Z 12008KT 010V180 9999 FEW042 SCT200 27/M01 Q1021@CAELT@A3017 748.8 HR15 FU NOSIG=@CAELT@METAR SLAL 042100Z 06013KT 9999 FEW020 19/02 Q1029 A3040 703.8 HR32@CAELT@METAR SLPO 042100Z NIL=@CAELT@METAR SLAG 042100Z NIL=METAR SLVM 042100Z NIL=METAR SLTJ 042100Z 13010KT 9999 NSC 27/09 Q1018 A3008 813.9 HR33 FU=METAR SLYA 042100Z NIL=METAR SLHI 042100Z NIL=METAR SLBJ 042100Z NIL=
ZPX0756 042101@CAELT@GG SLZZYMYT@CAELT@042100 SLTRYGYS@CAELT@SABO SLTR 042100@CAELT@METAR SLTR 042100Z 00000KT 5000 FU FEW020 SCT200 36/19 Q1006 A2974@CAELT@988.5 HR35 NOSIG=@CAELT@METAR SLGM 042100Z 16010KT 3000 FU FEW017 BKN200 35/23 Q1007 A2975@CAELT@HR49=@CAELT@METAR SLRI 042100Z 18008KT 5000 FU FEW017 BKN200 34/23 Q1008 A2977HR53=METAR SLJO 042100Z NIL=METAR SLRA 042100Z 09003KT 5000 FU FEW023 SCT200 37/21 Q1007 A2975HR39 RWY NML=METAR SLMG 042100Z 00000KT 6000 FEW017 36/21 Q1008 A2977 HR41 FURWY NML=METAR SLBU 042100Z 00000KT 5000 FU NSC 38/22 Q1006 A2973 HR40METAR SLSA 042100Z 17006KT 6000 NSC 36/18 Q1007 A2975 HR34 FU=METAR SLSR 042100Z 12006KT 5000 FU NSC 37/20 Q1006 A2972 HR37METAR SLSM 042100Z 00000KT 5000 FU NSC 37/19 Q1006 A2973 HR36
ZPX0774 042149@CAELT@GG SLZZYMYT@CAELT@042148 SLPSZTZX@CAELT@SABO SLPS 042200@CAELT@METAR SLPS 042200Z 00000KT 9999 NSC 32/22 Q1009 A2980 HR57=@CAELT@
ZPX0775 042150@CAELT@GG SLZZYMYT@CAELT@042150 SLRBYGYS@CAELT@SABO SLRB 042200@CAELT@METAR SLRB 042200Z 16005KT 9999 NSC 35/19 Q1011 A2985 HR37 RWY NML=@CAELT@
ZPX0776 042152@CAELT@GG SLZZYMYT@CAELT@042152 SLETYMYC@CAELT@SABO SLET 042200@CAELT@METAR SLET 042200Z 07003KT 9999 NSC 35/12 Q1009 A2980 HR24 NOSIG=@CAELT@
ZPX0778 042153@CAELT@GG SLZZYMYT@CAELT@042152 SLRYYSYX@CAELT@SABO SLRY 042200@CAELT@METAR SLRY 042200Z 00000KT 5000 FU NSC 32/24 Q1006 A2973 HR61 RWY NML@CAELT@
ZPX0779 042155@CAELT@GG SLZZYMYT@CAELT@042155 SLSBYSYX@CAELT@SABO SLSB 042200@CAELT@METAR SLSB 042200Z 00000KT 6000 NSC 33/21 Q1007 A2974 HR65 FU RWY NML=@CAELT@
ZPX0780 042155@CAELT@GG SLZZYMYT@CAELT@042155 SLLPYGYZ@CAELT@SABO SLLP 042200@CAELT@METAR SLLP 042200Z 04014KT 010V070 9999 FEW020 FEW023CB 13/M07 Q1037@CAELT@A3063 627.4 HR23 P90// CB/SW/W NOSIG=@CAELT@
ZPX0781 042156@CAELT@GG SLZZYMYT@CAELT@042156 SLCAYGYS@CAELT@SABO SLCA 042200@CAELT@METAR SLCA 042200Z 00000KT 9999 NSC 33/09 Q1013 A2991 HR24 RWY NML=@CAELT@
ZPX0782 042156@CAELT@GG SLZZYMYT@CAELT@042155 SLTJYGYZ@CAELT@SABO SLTJ 042200@CAELT@METAR SLTJ 042200Z 13010KT 9999 NSC 25/09 Q1019 A3010 814.2 HR35 FU=@CAELT@
ZPX0783 042156@CAELT@GG SLZZYMYT@CAELT@042157 SLVRYGYZ@CAELT@SABO SLVR 042200@CAELT@METAR SLVR 042200Z 05003KT 9999 NSC 34/14 Q1009 A2981 HR29 NOSIG=@CAELT@
ZPX0784 042156@CAELT@GG SLZZYMYT@CAELT@042155 SLRQYSYX@CAELT@SABO SLRQ 042200@CAELT@METAR SLRQ 042200Z 00000KT 5000 FU NSC 34/26 Q1006 A2973 982.9 HR64=@CAELT@
ZPX0785 042156@CAELT@GG SLZZYMYT@CAELT@042156 SLSAYGYS@CAELT@SABO SLSA 042200@CAELT@METAR SLSA 042200Z 00000KT 6000 NSC 35/20 Q1006 A2973 HR42 FU=@CAELT@
ZPX0786 042156@CAELT@GG SLZZYMYT@CAELT@042156 SLSAYGYS@CAELT@SABO SLSA 042200@CAELT@METAR SLSA 042200Z 00000KT 6000 NSC 35/20 Q1006 A2973 HR42 FU=@CAELT@
ZPX0787 042157@CAELT@GG SLZZYMYT@CAELT@042155 SLTRYGYZ@CAELT@SABO SLTR 042200@CAELT@METAR SLTR 042200Z 00000KT 5000 FU NSC 35/19 Q1006 A2973 988.3 HR40@CAELT@CI NOSIG=@CAELT@
ZPX0788 042157@CAELT@GG SLZZYMYT@CAELT@042156 SLCBYGYZ@CAELT@SABO SLCB 042200@CAELT@METAR SLCB 042200Z 08012KT 010V130 9999 FEW040 SCT200 24/M01 Q1022@CAELT@A3018 749.1 HR19 FU AC NOSIG=@CAELT@
ZPX0790 042158@CAELT@GG SLZZYMYT@CAELT@042158 SLVRYGYS@CAELT@SABO SLVR 042200@CAELT@METAR SLVR 042200Z 05003KT 9999 NSC 34/14 Q1009 A2981 HR29 NOSIG=@CAELT@METAR SLET 042200Z 07003KT 9999 NSC 35/12 Q1009 A2980 HR24 NOSIG=@CAELT@METAR SLAS 042200Z 00000KT 2500 FU NSC 35/19 Q1009 A2980 HR40 RWY NML@CAELT@METAR SLJV 042200Z 00000KT 7000 NSC 34/19 Q1008 A2977 HR42 FU RWY NML@CAELT@METAR SLCP 042200Z 00000KT 8000 NSC 34/22 Q1011 A2985 HR50 FU RWY NMLMETAR SLSI 042200Z 00000KT 9999 NSC 33/19 Q1009 A2980 HR45 RWY NML=METAR SLTI 042200Z 00000KT 9999 NSC 35/13 Q1011 A2985 HR26 FU RWY NMLMETAR SLJE 042200Z 17005KT 9999 NSC 37/17 Q1011 A2985 HR31 RWY NML=METAR SLVG 042200Z NIL=METAR SLRB 042200Z 16005KT 9999 NSC 35/19 Q1011 A2985 HR37 RWY NML=METAR SLPS 042200Z 00000KT 9999 NSC 32/22 Q1009 A2980 HR57=METAR SLCA 042200Z 00000KT 9999 NSC 33/09 Q1013 A2991 HR24 RWY NML=
ZPX0791 042159@CAELT@GG SLZZYMYT@CAELT@042158 SLCBYGYS@CAELT@SABO SLCB 042200@CAELT@METAR SLCB 042200Z 08012KT 010V130 9999 FEW040 SCT200 24/M01 Q1022@CAELT@A3018 749.1 HR19 FU AC NOSIG=@CAELT@METAR SLAL 042200Z 05015KT 9999 FEW017 18/02 Q1029 A3040 703.9 HR34@CAELT@METAR SLTJ 042200Z 13010KT 9999 NSC 25/09 Q1019 A3010 814.2 HR35 FU=@CAELT@
ZPX0792 042200@CAELT@GG SLZZYMYT@CAELT@042159 SLTRYGYS@CAELT@SABO SLTR 042200@CAELT@METAR SLTR 042200Z 00000KT 5000 FU NSC 35/19 Q1006 A2973 988.3 HR40@CAELT@CI NOSIG=@CAELT@METAR SLGM 042200Z 19008KT 3000 FU FEW017 BKN200 33/23 Q1007 A2974@CAELT@HR53=@CAELT@METAR SLRI 042200Z 00000KT 3000 FU FEW017 BKN200 32/25 Q1008 A2978HR67=METAR SLJO 042200Z NIL=METAR SLRA 042200Z 00000KT 5000 FU FEW023 SCT200 35/24 Q1007 A2974HR52 RWY NML=METAR SLMG 042200Z 00000KT 6000 NSC 35/23 Q1007 A2976 HR51 FU CIRWY NML=METAR SLBU 042200Z NIL=METAR SLSA 042200Z 00000KT 6000 NSC 35/20 Q1006 A2973 HR42 FU=METAR SLSR 042200Z 12004KT 5000 FU NSC 35/21 Q1005 A2970 HR44METAR SLSM 042200Z 00000KT 3000 FU NSC 35/23 Q1006 A2972 HR49
ZPX0794 042203@CAELT@GG SLZZYMYT@CAELT@042200 SLLPYFYA@CAELT@SABO SLLP 042200@CAELT@METAR SLLP 042200Z 04014KT 010V070 9999 FEW020 FEW023CB 13/M07 Q1037@CAELT@A3063 627.4 HR23 P90// CB/SW/W NOSIG=@CAELT@METAR SLRY 042200Z 00000KT 5000 FU NSC 32/24 Q1006 A2973 HR61@CAELT@RWY NML=@CAELT@METAR SLRQ 042200Z 00000KT 5000 FU NSC 34/26 Q1006 A2973 982.9 HR64=METAR SLSB 042200Z 00000KT 6000 NSC 33/21 Q1007 A2974 HR65 FU RWY NML
ZPX0805 042250@CAELT@GG SLZZYMYT@CAELT@042250 SLCAYGYS@CAELT@SABO SLCA 042300@CAELT@METAR SLCA 042300Z 00000KT 9999 NSC 31/09 Q1014 A2994 HR26 RWY NML=@CAELT@
ZPX0806 042253@CAELT@GG SLZZYMYT@CAELT@042253 SLRBYGYS@CAELT@SABO SLRB 042300@CAELT@METAR SLRB 042300Z 16005KT 9999 NSC 32/19 Q1012 A2988 HR47 RWY NML=@CAELT@
ZPX0807 042254@CAELT@GG SLZZYMYT@CAELT@042254 SLSAYGYS@CAELT@SABO SLSA 042300@CAELT@METAR SLSA 042300Z 00000KT 6000 NSC 32/23 Q1006 A2973 HR57 FU=@CAELT@
ZPX0808 042254@CAELT@GG SLZZYMYT@CAELT@042254 SLSAYGYS@CAELT@SABO SLSA 042300@CAELT@METAR SLSA 042300Z 00000KT 6000 NSC 32/23 Q1006 A2973 HR57 FU=@CAELT@
ZPX0809 042254@CAELT@GG SLZZYMYT@CAELT@042255 SLSBYSYX@CAELT@SABO SLSB 042300@CAELT@METAR SLSB 042300Z 00000KT 4000 FU NSC 29/25 Q1007 A2975 HR80 RWY NML=@CAELT@
ZPX0811 042255@CAELT@GG SLLPZRZX@CAELT@042255 SLLPYGYZ@CAELT@SABO SLLP 042300@CAELT@METAR SLLP 042300Z 05012KT 9999 FEW017 FEW020CB 10/M10 Q1037 A3065@CAELT@627.9 HR23 CB/SW NOSIG=@CAELT@
ZPX0812 042255@CAELT@GG SLZZYMYT@CAELT@042256 SLVRYGYZ@CAELT@SABO SLVR 042300@CAELT@METAR SLVR 042300Z 32003KT 9999 NSC 30/14 Q1010 A2982 HR37 FU NOSIG=@CAELT@
ZPX0813 042256@CAELT@GG SLZZYMYT@CAELT@042255 SLCBYGYZ@CAELT@SABO SLCB 042300@CAELT@METAR SLCB 042300Z 10008KT 9999 FEW036 SCT200 22/01 Q1023 A3022 750.0@CAELT@HR23 AC FU NOSIG=@CAELT@
ZPX0814 042256@CAELT@GG SLZZYMYT@CAELT@042256 SLVRYGYS@CAELT@SABO SLVR 042300@CAELT@METAR SLVR 042300Z 32003KT 9999 NSC 30/14 Q1010 A2982 HR37 FU NOSIG=@CAELT@METAR SLSI 042300Z 00000KT 9999 NSC 29/19 Q1009 A2980 HR55 RWY NML=@CAELT@METAR SLRB 042300Z 16005KT 9999 NSC 32/19 Q1012 A2988 HR47 RWY NML=@CAELT@METAR SLCA 042300Z 00000KT 9999 NSC 31/09 Q1014 A2994 HR26 RWY NML=@CAELT@
ZPX0815 042256@CAELT@GG SLZZYMYT@CAELT@042255 SLTRYGYZ@CAELT@SABO SLTR 042200@CAELT@METAR SLTR 042200Z 00000KT 3000 FU NSC 32/20 Q1007 A2974 988.6 HR50@CAELT@CI NOSIG=@CAELT@
ZPX0816 042257@CAELT@GG SLZZYMYT@CAELT@042255 SLTRYGYZ@CAELT@SABO SLTR 042300 CCA@CAELT@METAR SLTR 042300Z 00000KT 3000 FU NSC 32/20 Q1007 A2974 988.6 HR50@CAELT@CI NOSIG=@CAELT@
ZPX0817 042257@CAELT@GG SLZZYMYT@CAELT@042256 SLTJYGYZ@CAELT@SABO SLTJ 042300@CAELT@METAR SLTJ 042300Z 13008KT 9999 NSC 22/09 Q1020 A3013 815.2 HR41 FU=@CAELT@
ZPX0818 042257@CAELT@GG SLZZYMYT@CAELT@042257 SLLPYFYA@CAELT@SABO SLLP 042300@CAELT@METAR SLLP 042300Z 05012KT 9999 FEW017 FEW020CB 10/M10 Q1037 A3065@CAELT@627.9 HR23 CB/SW NOSIG=@CAELT@METAR SLSB 042300Z 00000KT 4000 FU NSC 29/25 Q1007 A2975 HR80@CAELT@RWY NML=@CAELT@
ZPX0819 042259@CAELT@GG SLZZYMYT@CAELT@042258 SLCBYGYS@CAELT@SABO SLCB 042300@CAELT@METAR SLCB 042300Z 10008KT 9999 FEW036 SCT200 22/01 Q1023 A3022 750.0@CAELT@HR23 AC FU NOSIG=@CAELT@METAR SLAL 042300Z 04013KT 9999 NSC 16/02 Q1030 A3043 704.6 HR38 FU=@CAELT@
ZPX0820 042259@CAELT@GG SLZZYMYT@CAELT@042259 SLTRYGYS@CAELT@SABO SLTR 042300@CAELT@METAR SLTR 042300Z 00000KT 3000 FU NSC 32/20 Q1007 A2974 988.6 HR50@CAELT@CI NOSIG=@CAELT@METAR SLGM 042300Z NIL=@CAELT@METAR SLRI 042300Z 00000KT 3000 FU FEW017 BKN200 31/26 Q1008 A2978@CAELT@HR73=METAR SLMG 042300Z 00000KT 9999 NSC 32/23 Q1007 A2976 HR61 FU CIRWY NML=METAR SLSA 042300Z 00000KT 6000 NSC 32/23 Q1006 A2973 HR57 FU=
ZPX0823 042301@CAELT@GG SLZZYMYT@CAELT@042300 SLCBYGYS@CAELT@SABO SLCB 042300@CAELT@METAR SLCB 042300Z 10008KT 9999 FEW036 SCT200 22/01 Q1023 A3022 750.0@CAELT@HR23 AC FU NOSIG=@CAELT@METAR SLAL 042300Z 04013KT 9999 NSC 16/02 Q1030 A3043 704.6 HR38 FU=@CAELT@METAR SLTJ 042300Z 13008KT 9999 NSC 22/09 Q1020 A3013 815.2 HR41 FU=@CAELT@
ZPX0832 042355@CAELT@GG SLZZYMYT@CAELT@042356 SLVRYGYZ@CAELT@SABO SLVR 050000@CAELT@METAR SLVR 050000Z 29004KT 9999 NSC 28/14 Q1010 A2983 HR43 FU NOSIG=@CAELT@
ZPX0833 042356@CAELT@GG SLLPZRZX@CAELT@042355 SLLPYGYZ@CAELT@SABO SLLP 050000@CAELT@METAR SLLP 050000Z 06012KT 9999 FEW015 09/M11 Q1038 A3067 628.4 HR24@CAELT@NOSIG=@CAELT@
