
ZPX0002 250002@CAELT@GG SLZZYMYT@CAELT@250000 SLCBYGYS@CAELT@SABO SLCB 250000@CAELT@METAR SLCB 250000Z 12013KT 9999 FEW033 FEW036CB SCT200 23/07 Q1020@CAELT@A3014 748.0 HR36 CB E/W AC NOSIG=@CAELT@METAR SLAL 250000Z 05009KT 9999 FEW017 FEW030CB SCT200 14/10 Q1027@CAELT@A3035 702.7 HR75 CB/N/SE/SW LT/N AC=@CAELT@METAR SLTJ 250000Z 00000KT 9999 BKN030 FEW036CB BKN070 18/15 Q1019A3009 814.1 HR80 CB/SE CI=
ZPX0018 250054@CAELT@GG SLZZYMYT@CAELT@250054 SLCBYGYZ@CAELT@SABO SLCB 250100@CAELT@METAR SLCB 250100Z 11012KT 9999 FEW033 FEW036CB SCT200 22/07 Q1021@CAELT@A3017 748.9 HR38 CB/W AC NOSIG=@CAELT@
ZPX0019 250055@CAELT@GG SLLPZRZX@CAELT@250055 SLLPYGYZ@CAELT@SABO SLLP 250100@CAELT@METAR SLLP 250100Z 09005KT 050V130 9999 FEW015 FEW017CB SCT070@CAELT@BKN200 10/04 Q1035 A3059 626.5 HR65 CB/LT N/SW/W/NW NOSIG=@CAELT@
ZPX0020 250056@CAELT@GG SLZZYMYT@CAELT@250057 SLVRYGYZ@CAELT@SABO SLVR 250100@CAELT@METAR SLVR 250100Z 30004KT 9999 NSC 27/25 Q1006 A2973 HR87 NOSIG=@CAELT@
ZPX0030 250154@CAELT@GG SLZZYMYT@CAELT@250154 SLCBYGYZ@CAELT@SABO SLCB 250200@CAELT@METAR SLCB 250200Z 18004KT 9999 FEW033 SCT200 19/07 Q1023 A3021 749.8@CAELT@HR46 AC NOSIG=@CAELT@
ZPX0031 250156@CAELT@GG SLLPZRZX@CAELT@250155 SLLPYGYZ@CAELT@SABO SLLP 250200@CAELT@METAR SLLP 250200Z 26005KT 9999 FEW013 FEW017CB SCT070 BKN200 10/06@CAELT@Q1037 A3063 627.4 HR77 CB/LT SW/W/NW NOSIG=@CAELT@
ZPX0032 250156@CAELT@GG SLZZYMYT@CAELT@250156 SLVRYGYZ@CAELT@SABO SLVR 250200@CAELT@METAR SLVR 250200Z 32004KT 9999 NSC 26/25 Q1007 A2975 HR89 NOSIG=@CAELT@
ZPX0041 250254@CAELT@GG SLZZYMYT@CAELT@250255 SLVRYGYZ@CAELT@SABO SLVR 250300@CAELT@METAR SLVR 250300Z 31004KT 9999 NSC 26/24 Q1007 A2976 HR90 NOSIG=@CAELT@
ZPX0042 250255@CAELT@GG SLZZYMYT@CAELT@250254 SLCBYGYZ@CAELT@SABO SLCB 250300@CAELT@METAR SLCB 250300Z 12010KT 9999 FEW033 BKN080 19/08 Q1023 A3023 750.3@CAELT@HR46 CI NOSIG=@CAELT@
ZPX0043 250258@CAELT@GG SLLPZRZX@CAELT@250257 SLLPYGYZ@CAELT@SABO SLLP 250300@CAELT@METAR SLLP 250300Z 07004KT 9999 FEW013 FEW017CB SCT070 BKN200 09/05@CAELT@Q1037 A3063 627.5 HR77 CB/LT SW/W/NW NOSIG=@CAELT@
ZPX0056 250354@CAELT@GG SLZZYMYT@CAELT@250354 SLCBYGYZ@CAELT@SABO SLCB 250400@CAELT@METAR SLCB 250400Z 12005KT 9999 FEW033 BKN080 19/08 Q1023 A3021 749.9@CAELT@HR47 CI NOSIG=@CAELT@
ZPX0057 250357@CAELT@GG SLLPZRZX@CAELT@250356 SLLPYGYZ@CAELT@SABO SLLP 250400@CAELT@METAR SLLP 250400Z 15005KT 9999 SCT013 FEW017CB BKN070 BKN200 09/04@CAELT@Q1037 A3063 627.4 HR72 CB/LT SW/W/NW NOSIG=@CAELT@
ZPX0058 250359@CAELT@GG SLZZYMYT@CAELT@250359 SLVRYGYZ@CAELT@SABO SLVR 250400@CAELT@METAR SLVR 250400Z 32004KT 9999 NSC 26/24 Q1007 A2976 HR90 NOSIG=@CAELT@
ZPX0065 250454@CAELT@GG SLZZYMYT@CAELT@250454 SLCBYGYZ@CAELT@SABO SLCB 250500@CAELT@METAR SLCB 250500Z 16004KT 9999 FEW033 BKN080 19/08 Q1022 A3019 749.4@CAELT@HR50 FU CI NOSIG=@CAELT@
ZPX0066 250456@CAELT@GG SLLPZRZX@CAELT@250455 SLLPYGYZ@CAELT@SABO SLLP 250500@CAELT@METAR SLLP 250500Z VRB02KT 9999 SCT012 FEW017CB SCT070 BKN200 08/06@CAELT@Q1036 A3061 627.1 HR82 CB/LT SW NOSIG=@CAELT@
ZPX0072 250503@CAELT@GG SLZZYMYT@CAELT@250502 SLVRYGYZ@CAELT@SABO SLVR 250500@CAELT@METAR SLVR 250500Z 33003KT 9999 NSC 25/24 Q1006 A2975 HR90 NOSIG=@CAELT@
ZPX0078 250554@CAELT@GG SLZZYMYT@CAELT@250554 SLCBYGYZ@CAELT@SABO SLCB 250600@CAELT@METAR SLCB 250600Z 12004KT 9999 FEW033 BKN080 19/08 Q1022 A3019 749.2@CAELT@HR50 FU CI NOSIG=@CAELT@
ZPX0079 250557@CAELT@GG SLZZYMYT@CAELT@250558 SLVRYGYZ@CAELT@SABO SLVR 250600@CAELT@METAR SLVR 250600Z 32004KT 9999 NSC 25/24 Q1006 A2973 HR95 NOSIG=@CAELT@
ZPX0080 250559@CAELT@GG SLLPZRZX@CAELT@250558 SLLPYGYZ@CAELT@SABO SLLP 250600@CAELT@METAR SLLP 250600Z 12005KT 9999 FEW010 SCT200 07/05 Q1035 A3059@CAELT@626.6 HR82 AC BECMG 4000E VCFG=@CAELT@
ZPX0089 250654@CAELT@GG SLZZYMYT@CAELT@250654 SLCBYGYZ@CAELT@SABO SLCB 250700@CAELT@METAR SLCB 250700Z 13003KT 9999 FEW033 BKN080 18/08 Q1021 A3017 748.8@CAELT@HR52 FU CI NOSIG=@CAELT@
ZPX0090 250656@CAELT@GG SLZZYMYT@CAELT@250656 SLVRYGYZ@CAELT@SABO SLVR 250700@CAELT@METAR SLVR 250700Z VRB01KT 9999 NSC 24/23 Q1006 A2973 HR98 NOSIG=@CAELT@
ZPX0091 250657@CAELT@GG SLLPZRZX@CAELT@250656 SLLPYGYZ@CAELT@SABO SLLP 250700@CAELT@METAR SLLP 250700Z 09005KT 4000E VCFG FEW003 SCT012 SCT200 05/04@CAELT@Q1035 A3058 626.3 HR90 VCFG N/NE/E/SE AC NOSIG=@CAELT@
ZPX0092 250657@CAELT@GG SLZZYMYT@CAELT@250658 SLVRYGYZ@CAELT@SABO SLVR 250700@CAELT@METAR SLVR 250700Z VRB01KT 9999 NSC 24/23 Q1006 A2973 HR98 NOSIG=@CAELT@
ZPX0099 250753@CAELT@GG SLZZYMYT@CAELT@250754 SLCBYGYZ@CAELT@SABO SLCB 250800@CAELT@METAR SLCB 250800Z 10004KT 9999 FEW033 SCT080 BKN200 18/09 Q1021@CAELT@A3018 749.0 HR55 FU NOSIG=@CAELT@
ZPX0100 250755@CAELT@GG SLZZYMYT@CAELT@250756 SLVRYGYZ@CAELT@SABO SLVR 250800@CAELT@METAR SLVR 250800Z 30004KT 9999 NSC 24/22 Q1006 A2973 HR92 NOSIG=@CAELT@
ZPX0101 250759@CAELT@GG SLLPZRZX@CAELT@250759 SLLPYGYZ@CAELT@SABO SLLP 250800@CAELT@METAR SLLP 250800Z 05006KT 9999 FEW003 SCT200 05/05 Q1035 A3057@CAELT@626.1 HR97 AC NOSIG=@CAELT@
ZPX0112 250854@CAELT@GG SLZZYMYT@CAELT@250854 SLCBYGYZ@CAELT@SABO SLCB 250900@CAELT@METAR SLCB 250900Z 11006KT 9999 FEW033 SCT200 17/08 Q1022 A3018 749.1@CAELT@HR56 AC FU NOSIG=@CAELT@
ZPX0113 250855@CAELT@GG SLZZYMYT@CAELT@250855 SLVRYGYZ@CAELT@SABO SLVR 250900@CAELT@METAR SLVR 250900Z 29004KT 9999 FEW015 24/22 Q1007 A2974 HR92 NOSIG=@CAELT@
ZPX0114 250856@CAELT@GG SLZZYMYT@CAELT@250855 SLLPYGYZ@CAELT@SABO SLLP 250900@CAELT@METAR SLLP 250900Z 09004KT 4000E VCFG FEW002 SCT200 04/04 Q1035@CAELT@A3057 626.0 HR95 VCFG NE/E/SE AC NOSIG=@CAELT@
ZPX0116 250900@CAELT@GG SLZZYMYT@CAELT@250859 SLTRYGYZ@CAELT@SABO SLTR 250900@CAELT@METAR SLTR 250900Z 29003KT 9999 SCT015 BKN070 BKN200 25/24 Q1005@CAELT@A2969 987.1 HR94 NOSIG=@CAELT@
ZPX0117 250902@CAELT@GG SLZZYMYT@CAELT@250900 SLTRYGYS@CAELT@SABO SLTR 250900@CAELT@METAR SLTR 250900Z 29003KT 9999 SCT015 BKN070 BKN200 25/24 Q1005@CAELT@A2969 987.1 HR94 NOSIG=@CAELT@METAR SLRI 250900Z 00000KT 7000 VCSH SCT005 FEW020CB BKN080 24/24@CAELT@Q1008 A2977 HR98 RESHRA CB/SH N/SW=@CAELT@
ZPX0119 250910@CAELT@GG SLZZYMYT@CAELT@250908 SLETYMYC@CAELT@SABO SLET 250900 RRA@CAELT@METAR RTD SLET 250900Z 29004KT 9999 FEW080 SCT200 24/23 Q1006 A2972@CAELT@HR90 NOSIG=@CAELT@
ZPX0133 250949@CAELT@GG SLZZYMYT@CAELT@250950 SLRBYGYS@CAELT@SABO SLRB 251000@CAELT@METAR SLRB 251000Z 00000KT 9999 NSC 23/23 Q1010 A2983 HR100 RWY NML=@CAELT@
ZPX0134 250950@CAELT@GG SLZZYMYT@CAELT@250950 SLCAYGYS@CAELT@SABO SLCA 251000@CAELT@METAR SLCA 251000Z 00000KT 9999 BKN070 21/19 Q1012 A2988 HR90 RWY NML@CAELT@
ZPX0135 250953@CAELT@GG SLZZYMYT@CAELT@250953 SLPSYGYS@CAELT@SABO SLPS 251000@CAELT@METAR SLPS 251000Z 00000KT 9999 FEW017 25/24 Q1008 A2977 HR92=@CAELT@
ZPX0136 250954@CAELT@GG SLZZYMYT@CAELT@250954 SLCBYGYZ@CAELT@SABO SLCB 251000@CAELT@METAR SLCB 251000Z 11006KT 9999 FEW027 FEW030CB BKN200 16/09 Q1023@CAELT@A3022 750.1 HR61 CB/W AC FU NOSIG=@CAELT@
ZPX0138 250955@CAELT@GG SLZZYMYT@CAELT@250955 SLETYMYC@CAELT@SABO SLET 251000@CAELT@METAR SLET 251000Z 30005KT 9999 FEW080 BKN200 25/23 Q1006 A2973 HR92@CAELT@NOSIG=@CAELT@
ZPX0139 250956@CAELT@GG SLZZYMYT@CAELT@250955 SLSBYSYX@CAELT@SABO SLSB 251000@CAELT@METAR SLSB 251000Z 00000KT 9999 SCT080 BKN200 25/25 Q1006 A2973 HR98@CAELT@RWY NML=@CAELT@
ZPX0140 250956@CAELT@GG SLZZYMYT@CAELT@250956 SLLPYFYA@CAELT@SABO SLRY 251000@CAELT@METAR SLRY 251000Z 00000KT 9999 BKN080 24/24 Q1004 A2967@CAELT@HR100 RWY NML=@CAELT@
ZPX0141 250956@CAELT@GG SLZZYMYT@CAELT@250956 SLSAYGYS@CAELT@SABO SLSA 251000@CAELT@METAR SLSA 251000Z 00000KT 9999 SCT080 BKN200 24/24 Q1006 A2971 HR98=@CAELT@
ZPX0142 250957@CAELT@GG SLZZYMYT@CAELT@250956 SLLPYGYZ@CAELT@SABO SLLP 251000@CAELT@METAR SLLP 251000Z VRB02KT 4000E VCFG FEW002 SCT200 04/04 Q1035@CAELT@A3059 626.5 HR98 P92// VCFG NE/E/SE/S AC NOSIG=@CAELT@
ZPX0143 250958@CAELT@GG SLZZYMYT@CAELT@250957 SLTRYGYZ@CAELT@SABO SLTR 251000@CAELT@METAR SLTR 251000Z 31003KT 9999 FEW015 SCT070 BKN200 26/24 Q1006@CAELT@A2972 987.9 HR94 NOSIG=@CAELT@
ZPX0144 250959@CAELT@GG SLZZYMYT@CAELT@250958 SLCOYGYZ@CAELT@SABO SLCO 251000@CAELT@METAR SLCO 251000Z 00000KT 9999 SCT020 BKN080 24/23 Q1007 A2976 980.3@CAELT@HR95 CI=@CAELT@
ZPX0146 251001@CAELT@GG SLZZYMYT@CAELT@251001 SLLPYFYA@CAELT@SABO SLLP 251000@CAELT@METAR SLLP 251000Z VRB02KT 4000E VCFG FEW002 SCT200 04/04 Q1035@CAELT@A3059 626.5 HR98 P92// VCFG NE/E/SE/S AC NOSIG=@CAELT@METAR SLCO 251000Z 00000KT 9999 SCT020 BKN080 24/23 Q1007 A2976@CAELT@980.3 HR95 CI=@CAELT@METAR SLRY 251000Z 00000KT 9999 BKN080 24/24 Q1004 A2967HR100 RWY NML=METAR SLRQ 251000Z 00000KT 9999 FEW006 SCT070 BKN200 25/25 Q1005A2970 HR98=METAR SLSB 251000Z 00000KT 9999 SCT080 BKN200 25/25 Q1006 A2973 HR98RWY NML=
ZPX0147 251002@CAELT@GG SLZZYMYT@CAELT@251000 SLCBYGYS@CAELT@SABO SLCB 251000@CAELT@METAR SLCB 251000Z 11006KT 9999 FEW027 FEW030CB BKN200 16/09 Q1023@CAELT@A3022 750.1 HR61 CB/W AC FU NOSIG=@CAELT@METAR SLAL 251000Z 06004KT 4000 BR FEW005 SCT007 OVC070 11/11 Q1029@CAELT@A3039 703.6 HR98=@CAELT@
ZPX0148 251002@CAELT@GG SLZZYMYT@CAELT@251003 SLVRYFYC@CAELT@SABO SLVR 251000@CAELT@METAR SLVR 251000Z NIL=@CAELT@METAR SLET 251000Z 30005KT 9999 FEW080 BKN200 25/23 Q1006 A2973 HR92@CAELT@NOSIG=@CAELT@METAR SLCP 251000Z 00000KT 9999 NSC 23/23 Q1010 A2983 HR96 CI RWY NML@CAELT@METAR SLSI 251000Z 00000KT 9999 BKN015 23/23 Q1007 A2974 HR97 RWY NMLMETAR SLRB 251000Z 00000KT 9999 NSC 23/23 Q1010 A2983 HR100 RWY NML=METAR SLPS 251000Z 00000KT 9999 FEW017 25/24 Q1008 A2977 HR92=METAR SLCA 251000Z 00000KT 9999 BKN070 21/19 Q1012 A2988 HR90 RWY NML
ZPX0150 251003@CAELT@GG SLZZYMYT@CAELT@251000 SLTRYGYS@CAELT@SABO SLTR 251000@CAELT@METAR SLTR 251000Z 31003KT 9999 FEW015 SCT070 BKN200 26/24 Q1006@CAELT@A2972 987.9 HR94 NOSIG=@CAELT@METAR SLGM 251000Z 00000KT 9999 SCT020 FEW023CB BKN080 24/23 Q1007@CAELT@A2976 HR92 CB NW=@CAELT@METAR SLRI 251000Z 35006KT 5000 VCSH SCT006 FEW020CB BKN080 24/24Q1008 A2979 HR98 CB/SH N/NE/SW/W=METAR SLJO 251000Z 32004KT 8000 VCSH SCT015 FEW023CB BKN070 OVC20024/24 Q1006 A2972 HR98 CB/SH NW/W/SW RWY NML=METAR SLRA 251000Z 09003KT 9999 BKN080 BKN200 25/24 Q1006 A2971HR96 RWY NML=METAR SLMG 251000Z 00000KT 9999 FEW020 BKN080 24/24 Q1005 A2971 HR98RWY NML=METAR SLBU 251000Z NIL=METAR SLSA 251000Z 00000KT 9999 SCT080 BKN200 24/24 Q1006 A2971 HR98=METAR SLSR 251000Z 32006KT 9999 SCT020 BKN080 24/23 Q1005 A2970HR94 RWY NML=METAR SLSM 251000Z 00000KT 9999 BKN080 24/24 Q1005 A2970 HR98
ZPX0152 251007@CAELT@GG SLZZYMYT@CAELT@251005 SLVRYGYZ@CAELT@SABO SLVR 251000 RRA@CAELT@METAR SLVR 251000Z 31004KT 9999 FEW015 SCT200 25/22 Q1007 A2974 HR87@CAELT@NOSIG=@CAELT@
ZPX0153 251009@CAELT@GG SLZZYMYT@CAELT@251010 SLVRYFYC@CAELT@SABO SLVR 251000 RRA@CAELT@METAR RTD SLVR 251000Z 31004KT 9999 FEW015 SCT200 25/22 Q1007 A2974@CAELT@HR87 NOSIG=@CAELT@METAR SLET 251000Z 30005KT 9999 FEW080 BKN200 25/23 Q1006 A2973 HR92@CAELT@NOSIG=@CAELT@METAR SLCP 251000Z 00000KT 9999 NSC 23/23 Q1010 A2983 HR96 CI RWY NMLMETAR SLSI 251000Z 00000KT 9999 BKN015 23/23 Q1007 A2974 HR97 RWY NMLMETAR SLRB 251000Z 00000KT 9999 NSC 23/23 Q1010 A2983 HR100 RWY NML=METAR SLPS 251000Z 00000KT 9999 FEW017 25/24 Q1008 A2977 HR92=METAR SLCA 251000Z 00000KT 9999 BKN070 21/19 Q1012 A2988 HR90 RWY NML
ZPX0154 251010@CAELT@GG SLZZYMYT@CAELT@251010 SLTRYGYS@CAELT@SABO SLTR 251000 CCA@CAELT@METAR SLTR 251000Z 31003KT 9999 FEW015 SCT070 BKN200 26/24 Q1006@CAELT@A2972 987.9 HR94 NOSIG=@CAELT@METAR SLGM 251000Z 00000KT 9999 SCT020 FEW023CB BKN080 24/23 Q1007@CAELT@A2976 HR92 CB NW=@CAELT@METAR SLRI 251000Z 35006KT 5000 VCSH SCT006 FEW020CB BKN080 24/24Q1008 A2979 HR98 CB/SH N/NE/SW/W=METAR SLJO 251000Z 32004KT 8000 VCSH SCT015 FEW023CB BKN070 OVC20024/24 Q1006 A2972 HR98 CB/SH NW/W/SW RWY NML=METAR SLRA 251000Z 09003KT 9999 BKN080 BKN200 25/24 Q1006 A2971HR96 RWY NML=METAR SLMG 251000Z 00000KT 9999 FEW020 BKN080 24/24 Q1005 A2971 HR98RWY NML=METAR SLBU 251000Z NIL=METAR SLSA 251000Z 00000KT 9999 SCT080 BKN200 24/24 Q1006 A2971 HR98=METAR COR SLSR 251000Z 32006KT 9999 SCT020 BKN080 24/23 Q1005 A2968HR94 RWY NML=METAR SLSM 251000Z 00000KT 9999 BKN080 24/24 Q1005 A2970 HR98
ZPX0162 251048@CAELT@GG SLZZYMYT@CAELT@251050 SLRBYGYS@CAELT@SABO SLRB 251100@CAELT@METAR SLRB 251100Z 00000KT 9999 NSC 25/23 Q1011 A2985 HR90 RWY NML=@CAELT@
ZPX0164 251050@CAELT@GG SLZZYMYT@CAELT@251050 SLCAYGYS@CAELT@SABO SLCA 251100@CAELT@METAR SLCA 251100Z 00000KT 9999 BKN070 21/20 Q1013 A2991 HR90 RWY NML=@CAELT@
ZPX0167 251052@CAELT@GG SLZZYMYT@CAELT@251051 SLPSYGYS@CAELT@SABO SLPS 251100@CAELT@METAR SLPS 251100Z 00000KT 9999 FEW017 SCT200 27/25 Q1008 A2977 HR87=@CAELT@
ZPX0170 251054@CAELT@GG SLZZYMYT@CAELT@251055 SLCOYGYZ@CAELT@SABO SLCO 251100@CAELT@METAR SLCO 251100Z 00000KT 9999 FEW020 BKN080 24/23 Q1008 A2979 981.4@CAELT@HR91 CI=@CAELT@
ZPX0172 251054@CAELT@GG SLZZYMYT@CAELT@251055 SLVRYGYZ@CAELT@SABO SLVR 251100@CAELT@METAR SLVR 251100Z 31006KT 9999 FEW070 BKN200 26/24 Q1007 A2975 HR87@CAELT@NOSIG=@CAELT@
ZPX0173 251054@CAELT@GG SLZZYMYT@CAELT@251054 SLSAYGYS@CAELT@SABO SLSA 251100@CAELT@METAR SLSA 251100Z 00000KT 9999 SCT020 BKN080 24/24 Q1006 A2972 HR98=@CAELT@
ZPX0174 251054@CAELT@GG SLZZYMYT@CAELT@251054 SLETYMYC@CAELT@SABO SLET 251100@CAELT@METAR SLET 251100Z 30006KT 9999 FEW080 BKN200 26/24 Q1007 A2975 HR88@CAELT@NOSIG=@CAELT@
ZPX0176 251055@CAELT@GG SLZZYMYT@CAELT@251055 SLLPYFYA@CAELT@SABO SLRY 251100@CAELT@METAR SLRY 251100Z 00000KT 9999 BKN080 BKN200 24/23 Q1004 A2967@CAELT@HR98 RWY NML=@CAELT@
ZPX0177 251055@CAELT@GG SLZZYMYT@CAELT@251055 SLORYGYZ@CAELT@SABO SLOR 251100@CAELT@METAR SLOR 251100Z 00000KT 4000E VCFG FEW015 SCT070 BKN200 06/05@CAELT@Q1033 A3052 655.0 HR90 VCFG/NE/E/SE/S=@CAELT@
ZPX0178 251056@CAELT@GG SLZZYMYT@CAELT@251055 SLLPYGYZ@CAELT@SABO SLLP 251100@CAELT@METAR SLLP 251100Z 08004KT 4000E VCFG FEW003 SCT200 06/05 Q1036@CAELT@A3062 627.2 HR97 P92// VCFG NE/E/SE AC NOSIG=@CAELT@
ZPX0179 251056@CAELT@GG SLZZYMYT@CAELT@251055 SLTJYGYZ@CAELT@SABO SLTJ 251100@CAELT@METAR SLTJ 251100Z 00000KT 9999 BKN030 BKN070 18/16 Q1018 A3009 814.0@CAELT@HR92 SH/NE/E/SE=@CAELT@
ZPX0180 251057@CAELT@GG SLZZYMYT@CAELT@251056 SLTRYGYZ@CAELT@SABO SLTR 251100@CAELT@METAR SLTR 251100Z 31003KT 9999 FEW015 SCT070 BKN200 26/25 Q1007@CAELT@A2975 988.9 HR91 NOSIG=@CAELT@
ZPX0181 251057@CAELT@GG SLZZYMYT@CAELT@251057 SLCBYGYZ@CAELT@SABO SLCB 251100@CAELT@METAR SLCB 251100Z 13005KT 9999 FEW027 BKN200 17/09 Q1024 A3025 750.8@CAELT@HR57 FU AC NOSIG=@CAELT@
ZPX0182 251057@CAELT@GG SLZZYMYT@CAELT@251056 SLSBYSYX@CAELT@SABO SLSB 251100@CAELT@METAR 251100Z 00000KT 9999 SCT080 BKN200 25/25 Q1007 A2974 HR97@CAELT@RWY NML=@CAELT@
ZPX0184 251100@CAELT@GG SLZZYMYT@CAELT@251059 SLTRYGYS@CAELT@SABO SLTR 251100@CAELT@METAR SLTR 251100Z 31003KT 9999 FEW015 SCT070 BKN200 26/25 Q1007@CAELT@A2975 988.9 HR91 NOSIG=@CAELT@METAR SLGM 251100Z 00000KT 8000 VCSH FEW015 SCT020 FEW023CB BKN080@CAELT@24/23 Q1008 A2979 HR94 CB/SH NW=@CAELT@METAR SLRI 251100Z 34006KT 7000 VCSH SCT006 FEW020CB BKN080 24/24Q1009 A2982 HR98 CB/SH SW/W=METAR SLJO 251100Z 36004KT 8000 VCSH FEW008 SCT015 FEW023CB BKN07025/24 Q1007 A2974 HR97 CB/SH NE/SE RWY NML=METAR SLRA 251100Z 03004KT 9999 BKN080 BKN200 25/24 Q1006 A2973 HR94RWY NML=METAR SLMG 251100Z 00000KT 9999 FEW020 BKN080 28/24 Q1006 A2973 HR98METAR SLBU 251100Z NIL=METAR SLSA 251100Z 00000KT 9999 SCT020 BKN080 24/24 Q1006 A2972 HR98=METAR SLSR 251100Z 32004KT 9999 SCT020 BKN080 24/23 Q1006 A2971 HR94METAR SLSM 251100Z 00000KT 9999 BKN080 25/24 Q1006 A2973 HR97
ZPX0185 251100@CAELT@GG SLZZYMYT@CAELT@251100 SLCBYGYS@CAELT@SABO SLCB 251100@CAELT@METAR SLCB 251100Z 13005KT 9999 FEW027 BKN200 17/09 Q1024 A3025 750.8@CAELT@HR57 FU AC NOSIG=@CAELT@METAR SLAL 251100Z 00000KT 5000 BR SCT007 OVC070 11/10 Q1030 A3041@CAELT@704.2 HR94=@CAELT@METAR SLVM 251100Z 00000KT 9999 FEW030CB SCT070 25/24 Q1009 A2982HR97 CB SE/S/SW CI=METAR SLTJ 251100Z 00000KT 9999 BKN030 BKN070 18/16 Q1018 A3009 814.0HR92 SH/NE/E/SE=METAR SLYA 251100Z 00000KT 4000 -RA FEW008 BKN020 OVC070 22/21 Q1011A2986 935.9 HR99=
ZPX0186 251101@CAELT@GG SLZZYMYT@CAELT@251101 SLVRYFYC@CAELT@SABO SLVR 251100@CAELT@METAR SLVR 251100Z 31006KT 9999 FEW070 BKN200 26/24 Q1007 A2975 HR87@CAELT@NOSIG=@CAELT@METAR SLET 251100Z 30006KT 9999 FEW080 BKN200 26/24 Q1007 A2975 HR88@CAELT@METAR SLAS 251100Z 00000KT 9999 NSC 26/25 Q1009 A2980 HR91 RWY NML=@CAELT@METAR SLJV 251100Z 00000KT 9999 NSC 24/23 Q1007 A2974 HR97 CI RWY NMLMETAR SLCP 251100Z 00000KT 9999 NSC 24/23 Q1011 A2985 HR96 CI RWY NMLMETAR SLSI 251100Z 00000KT 9999 SCT015 26/23 Q1008 A2977 HR87 RWY NMLMETAR SLTI 251100Z 00000KT 9999 NSC 26/23 Q1012 A2988 HR92 RWY NML=METAR SLJE 251100Z 00000KT 9999 NSC 27/24 Q1011 A2985 HR86 RWY NML=METAR SLVG 251100Z 00000KT 9999 NSC 15/13 Q1022 A3018 HR85 CI RWY NMLMETAR SLRB 251100Z 00000KT 9999 NSC 25/23 Q1011 A2985 HR90 RWY NML=METAR SLPS 251100Z 00000KT 9999 FEW017 SCT200 27/25 Q1008 A2977 HR87=METAR SLCA 251100Z 00000KT 9999 BKN070 21/20 Q1013 A2991 HR90 RWY NML
ZPX0187 251101@CAELT@GG SLZZYMYT@CAELT@251101 SLLPYFYA@CAELT@SABO SLLP 251100@CAELT@METAR SLLP 251100Z 08004KT 4000E VCFG FEW003 SCT200 06/05 Q1036@CAELT@A3062 627.2 HR97 P92// VCFG NE/E/SE AC NOSIG=@CAELT@METAR SLCO 251100Z 00000KT 9999 FEW020 BKN080 24/23 Q1008 A2979@CAELT@981.4 HR91 CI=@CAELT@METAR SLRY 251100Z 00000KT 9999 BKN080 BKN200 24/23 Q1004 A2967HR98 RWY NML=METAR SLRQ 251100Z 00000KT 9999 SCT006 SCT070 BKN200 25/25 Q1006A2973 HR98=METAR SLSB 251100Z 00000KT 9999 SCT080 BKN200 25/25 Q1007 A2974HR97 RWY NML=
ZPX0205 251150@CAELT@GG SLZZYMYT@CAELT@251150 SLCAYGYS@CAELT@SABO SLCA 251200@CAELT@METAR SLCA 251200Z 36003KT 9999 BKN070 23/20 Q1014 A2994 HR85 RWY NML@CAELT@
ZPX0208 251153@CAELT@GG SLZZYMYT@CAELT@251152 SLPSYGYS@CAELT@SABO SLPS 251200@CAELT@METAR SLPS 251200Z 00000KT 9999 FEW017 SCT200 29/25 Q1008 A2977 HR79=@CAELT@
ZPX0209 251154@CAELT@GG SLZZYMYT@CAELT@251154 SLSAYGYS@CAELT@SABO SLSA 251200@CAELT@METAR SLSA 251200Z 00000KT 9999 SCT020 BKN080 26/24 Q1007 A2974 HR92=@CAELT@
ZPX0210 251154@CAELT@GG SLZZYMYT@CAELT@251154 SLSAYGYS@CAELT@SABO SLSA 251200@CAELT@METAR SLSA 251200Z 00000KT 9999 SCT020 BKN080 26/24 Q1007 A2974 HR92=@CAELT@
ZPX0211 251154@CAELT@GG SLZZYMYT@CAELT@251154 SLRBYGYS@CAELT@SABO SLRB 251200@CAELT@METAR SLRB 251200Z 00000KT 9999 NSC 28/24 Q1011 A2985 HR82 RWY NML=@CAELT@
ZPX0213 251155@CAELT@GG SLZZYMYT@CAELT@251155 SLORYGYZ@CAELT@SABO SLOR 251200@CAELT@METAR SLOR 251200Z 36004KT 7000 FEW015 BKN200 08/05 Q1034 A3055 655.5@CAELT@HR80 BR/NE/E/SE/S AC=@CAELT@
ZPX0214 251155@CAELT@GG SLZZYMYT@CAELT@251154 SLLPYFYA@CAELT@SABO SLRY 251200@CAELT@METAR SLRY 251200Z 00000KT 9999 FEW006 BKN080 25/24 Q1006@CAELT@A2971 HR95 RWY NML=@CAELT@
ZPX0215 251155@CAELT@GG SLZZYMYT@CAELT@251155 SLETYMYC@CAELT@SABO SLET 251200@CAELT@METAR SLET 251200Z 30006KT 9999 NSC 29/24 Q1008 A2977 HR74 CI NOSIG=@CAELT@
ZPX0216 251155@CAELT@GG SLZZYMYT@CAELT@251155 SLVRYGYZ@CAELT@SABO SLVR 251200@CAELT@METAR SLVR 251200Z 31008KT 9999 NSC 29/25 Q1008 A2977 HR77 CI NOSIG=@CAELT@
ZPX0217 251155@CAELT@GG SLZZYMYT@CAELT@251155 SLSBYSYX@CAELT@SABO SLSB 251200@CAELT@METAR SLSB 251200Z 00000KT 9999 SCT080 BKN200 26/25 Q1008 A2977 HR94@CAELT@RWY NML=@CAELT@
ZPX0218 251155@CAELT@GG SLZZYMYT@CAELT@251155 SLCOYGYZ@CAELT@SABO SLCO 251200@CAELT@METAR SLCO 251200Z 32007KT 9999 FEW012 BKN080 26/24 Q1009 A2980 981.8@CAELT@HR91 CI=@CAELT@
ZPX0220 251156@CAELT@GG SLZZYMYT@CAELT@251157 SLVRYFYC@CAELT@SABO SLVR 251200@CAELT@METAR SLVR 251200Z 31008KT 9999 NSC 29/25 Q1008 A2977 HR77 CI NOSIG=@CAELT@METAR SLET 251200Z 30006KT 9999 NSC 29/24 Q1008 A2977 HR74 CI NOSIG=@CAELT@METAR SLAS 251200Z 00000KT 9999 NSC 27/24 Q1009 A2980 HR85 RWY NML=@CAELT@METAR SLJV 251200Z 36005KT 9999 NSC 25/24 Q1008 A2977 HR90 CI RWY NML@CAELT@METAR SLCP 251200Z 00000KT 9999 NSC 25/23 Q1011 A2985 HR92 CI RWY NMLMETAR SLSI 251200Z 00000KT 9999 SCT017 27/24 Q1009 A2980 HR80 RWY NMLMETAR SLTI 251200Z 00000KT 9999 NSC 28/25 Q1012 A2988 HR84 RWY NML=METAR SLJE 251200Z 00000KT 9999 NSC 29/24 Q1011 A2985 HR74 RWY NML=METAR SLVG 251200Z 00000KT 9999 NSC 19/14 Q1023 A3021 HR70 CI RWY NMLMETAR SLRB 251200Z 00000KT 9999 NSC 28/24 Q1011 A2985 HR82 RWY NML=METAR SLPS 251200Z 00000KT 9999 FEW017 SCT200 29/25 Q1008 A2977 HR79=METAR SLCA 251200Z 36003KT 9999 BKN070 23/20 Q1014 A2994 HR85 RWY NML
ZPX0222 251158@CAELT@GG SLZZYMYT@CAELT@251157 SLTJYGYZ@CAELT@SABO SLTJ 251200@CAELT@METAR SLTJ 251200Z 00000KT 9999 SCT030 BKN070 18/17 Q1019 A3011 814.5@CAELT@HR91 SH/N/NW=@CAELT@
ZPX0223 251158@CAELT@GG SLZZYMYT@CAELT@251155 SLLPYGYZ@CAELT@SABO SLLP 251200@CAELT@METAR SLLP 251200Z 10006KT 6000 FEW006 BKN200 08/05 Q1037 A3064@CAELT@627.6 HR81 P92// VIS RED/ST NE/E/SE AC NOSIG=@CAELT@
ZPX0224 251158@CAELT@GG SLZZYMYT@CAELT@251157 SLTRYGYZ@CAELT@SABO SLTR 251200@CAELT@METAR SLTR 251200Z 30006KT 9999 FEW015 SCT070 BKN200 27/24 Q1007@CAELT@A2976 989.2 HR84 NOSIG=@CAELT@
ZPX0225 251159@CAELT@GG SLZZYMYT@CAELT@251158 SLCBYGYZ@CAELT@SABO SLCB 251200@CAELT@METAR SLCB 251200Z 11003KT 9999 FEW027 BKN200 19/08 Q1025 A3027 751.4@CAELT@HR51 FU AC NOSIG=@CAELT@
ZPX0228 251200@CAELT@GG SLZZYMYT@CAELT@251200 SLLPYFYA@CAELT@SABO SLLP 251200@CAELT@METAR SLLP 251200Z 10006KT 6000 FEW006 BKN200 08/05 Q1037 A3064@CAELT@627.6 HR81 P92// VIS RED/ST NE/E/SE AC NOSIG=@CAELT@METAR SLCO 251200Z 32007KT 9999 FEW012 BKN080 26/24 Q1009 A2980@CAELT@981.8 HR91 CI=@CAELT@METAR SLRY 251200Z 00000KT 9999 FEW006 BKN080 25/24 Q1006A2971 HR95 RWY NML=METAR SLRQ 251200Z 00000KT 9999 OVC006 26/25 Q1007 A2976 HR96VIS RED ST BJOS SE/S/SW/W/NW=METAR SLSB 251200Z 00000KT 9999 SCT080 BKN200 26/25 Q1008 A2977HR94 RWY NML=METAR SLOR 251200Z 36004KT 7000 FEW015 BKN200 08/05 Q1034 A3055655.5 HR80 BR/NE/E/SE/S AC=
ZPX0229 251200@CAELT@GG SLZZYMYT@CAELT@251200 SLCBYGYS@CAELT@SABO SLCB 251200@CAELT@METAR SLCB 251200Z 11003KT 9999 FEW027 BKN200 19/08 Q1025 A3027 751.4@CAELT@HR51 FU AC NOSIG=@CAELT@METAR SLAL 251200Z 33005KT 4000 VCFG SCT007 BKN070 11/11 Q1030 A3043@CAELT@704.6 HR94 VCFG S/N/NE RESTO 9999=@CAELT@METAR SLPO 251200Z NIL=METAR SLAG 251200Z NIL=METAR SLVM 251200Z 00000KT 9999 FEW030 BKN070 28/25 Q1010 A2984 HR86METAR SLTJ 251200Z 00000KT 9999 SCT030 BKN070 18/17 Q1019 A3011 814.5HR91 SH/N/NW=METAR SLYA 251200Z 00000KT 4000 -RA SCT008 BKN020 OVC070 23/22 Q1011A2987 936.3 HR99=METAR SLBJ 251200Z NIL=METAR SLHI 251200Z NIL=
ZPX0230 251202@CAELT@GG SLZZYMYT@CAELT@251200 SLTRYGYS@CAELT@SABO SLTR 251200@CAELT@METAR SLTR 251200Z 30006KT 9999 FEW015 SCT070 BKN200 27/24 Q1007@CAELT@A2976 989.2 HR84 NOSIG=@CAELT@METAR SLGM 251200Z 36004KT 8000 VCSH SCT015 FEW023CB BKN080 24/23@CAELT@Q1009 A2979 HR92 CB/SH N=@CAELT@METAR SLRI 251200Z 36006KT 9999 FEW005 FEW020CB BKN080 24/24 Q1010A2983 HR96 CB N=METAR SLJO 251200Z 36004KT 8000 VCSH FEW008 FEW023CB BKN080 BKN20026/24 Q1007 A2974 HR93 CB/SH NE/SE RWY NML=METAR SLRA 251200Z 02005KT 9999 SCT080 BKN200 26/24 Q1007 A2974 HR92RWY NML=METAR SLMG 251200Z 00000KT 9999 FEW010 BKN080 25/24 Q1007 A2974 HR95METAR SLBU 251200Z NIL=METAR SLSA 251200Z 00000KT 9999 SCT020 BKN080 26/24 Q1007 A2974 HR92=METAR SLSR 251200Z 32006KT 9999 SCT020 BKN080 25/24 Q1007 A2975 HR92METAR SLSM 251200Z 00000KT 9999 BKN080 26/25 Q1007 A2975 HR95
