
ZPX0010 020055@CAELT@GG SLLPZRZX@CAELT@020055 SLLPYGYZ@CAELT@SABO SLLP 020100@CAELT@METAR SLLP 020100Z 11004KT 090V150 9999 FEW004 SCT200 07/04 Q1034@CAELT@A3056 625.8 HR79 AC NOSIG=@CAELT@
ZPX0011 020056@CAELT@GG SLZZYMYT@CAELT@020057 SLVRYGYZ@CAELT@SABO SLVR 020100@CAELT@METAR SLVR 020100Z 22004KT 9999 FEW080 24/12 Q1011 A2986 HR46 FU@CAELT@NOSIG=@CAELT@
ZPX0012 020058@CAELT@GG SLZZYMYT@CAELT@020057 SLCBYGYZ@CAELT@SABO SLCB 020100@CAELT@METAR SLCB 020100Z 13010KT 9999 FEW033 BKN070 19/05 Q1022 A3019 749.2@CAELT@HR40 CI NOSIG=@CAELT@
ZPX0027 020156@CAELT@GG SLLPZRZX@CAELT@020156 SLLPYGYZ@CAELT@SABO SLLP 020200@CAELT@METAR SLLP 020200Z 08006KT 4000E VCFG FEW003 SCT070 BKN200 06/04@CAELT@Q1035 A3059 626.5 HR90 VCFG NE/E/SE NOSIG=@CAELT@
ZPX0028 020156@CAELT@GG SLZZYMYT@CAELT@020157 SLVRYGYZ@CAELT@SABO SLVR 020200@CAELT@METAR SLVR 020200Z 21005KT 9999 FEW080 23/13 Q1011 A2988 HR51 FU@CAELT@NOSIG=@CAELT@
ZPX0029 020158@CAELT@GG SLZZYMYT@CAELT@020158 SLCBYGYZ@CAELT@SABO SLCB 020200@CAELT@METAR SLCB 020200Z 14008KT 9999 SCT033 BKN070 18/05 Q1023 A3022 750.1@CAELT@HR42 CI NOSIG=@CAELT@
ZPX0036 020256@CAELT@GG SLLPZRZX@CAELT@020255 SLLPYGYZ@CAELT@SABO SLLP 020300@CAELT@METAR SLLP 020300Z 06006KT 4000E VCFG FEW003 SCT070 BKN200 06/05@CAELT@Q1035 A3059 626.6 HR90 VCFG NE/E/SE NOSIG=@CAELT@
ZPX0037 020256@CAELT@GG SLZZYMYT@CAELT@020257 SLVRYGYZ@CAELT@SABO SLVR 020300@CAELT@METAR SLVR 020300Z 18006KT 9999 BKN070 26/11 Q1012 A2989 HR40 NOSIG=@CAELT@
ZPX0038 020258@CAELT@GG SLZZYMYT@CAELT@020256 SLCBYGYZ@CAELT@SABO SLCB 020300@CAELT@METAR SLCB 020300Z 14013KT 9999 SCT033 BKN070 18/06 Q1024 A3024 750.6@CAELT@HR45 CI NOSIG=@CAELT@
ZPX0045 020356@CAELT@GG SLZZYMYT@CAELT@020356 SLVRYGYZ@CAELT@SABO SLVR 020400@CAELT@METAR SLVR 020400Z 18010KT 9999 BKN070 26/10 Q1012 A2989 HR36 NOSIG=@CAELT@
ZPX0046 020356@CAELT@GG SLLPZRZX@CAELT@020355 SLLPYGYZ@CAELT@SABO SLLP 020400@CAELT@METAR SLLP 020400Z 11009KT 4000E VCFG FEW003 SCT010 BKN200 05/04@CAELT@Q1035 A3059 626.5 HR92 VCFG NE/E/SE NOSIG=@CAELT@
ZPX0047 020358@CAELT@GG SLZZYMYT@CAELT@020357 SLCBYGYZ@CAELT@SABO SLCB 020400@CAELT@METAR SLCB 020400Z 13012KT 9999 SCT033 BKN070 17/07 Q1024 A3024 750.6@CAELT@HR49 CI NOSIG=@CAELT@
ZPX0055 020455@CAELT@GG SLLPZRZX@CAELT@020455 SLLPYGYZ@CAELT@SABO SLLP 020500@CAELT@METAR SLLP 020500Z 10009KT 4000E VCFG FEW003 SCT010 BKN200 05/04@CAELT@Q1035 A3057 626.2 HR92 VCFG NE/E/SE NOSIG=@CAELT@
ZPX0056 020456@CAELT@GG SLZZYMYT@CAELT@020455 SLCBYGYZ@CAELT@SABO SLCB 020500@CAELT@METAR SLCB 020500Z 13010KT 9999 SCT033 BKN070 17/06 Q1023 A3022 750.2@CAELT@HR49 CI NOSIG=@CAELT@
ZPX0057 020456@CAELT@GG SLZZYMYT@CAELT@020457 SLVRYGYZ@CAELT@SABO SLVR 020500@CAELT@METAR SLVR 020500Z 19009KT 9999 BKN070 25/10 Q1012 A2989 HR37 NOSIG=@CAELT@
ZPX0066 020557@CAELT@GG SLLPZRZX@CAELT@020555 SLLPYGYZ@CAELT@SABO SLLP 020600@CAELT@METAR SLLP 020600Z 10008KT 4000E VCFG FEW003 SCT010 BKN200 05/03@CAELT@Q1034 A3055 625.7 HR90 VCFG NE/E/SE NOSIG=@CAELT@
ZPX0067 020558@CAELT@GG SLZZYMYT@CAELT@020558 SLVRYGYZ@CAELT@SABO SLVR 020600@CAELT@METAR SLVR 020600Z 19010KT 9999 BKN070 25/09 Q1012 A2989 HR36 NOSIG=@CAELT@
ZPX0068 020558@CAELT@GG SLZZYMYT@CAELT@020557 SLCBYGYZ@CAELT@SABO SLCB 020600@CAELT@METAR SLCB 020600Z 12008KT 9999 SCT033 BKN070 16/06 Q1023 A3021 749.8@CAELT@HR49 NOSIG=@CAELT@
ZPX0075 020655@CAELT@GG SLZZYMYT@CAELT@020655 SLLPYGYZ@CAELT@SABO SLLP 020700@CAELT@METAR SLLP 020700Z 10007KT 4000E VCFG FEW003 SCT010 BKN200 05/03@CAELT@Q1034 A3054 625.4 HR90 VCFG NE/E/SE AC NOSIG=@CAELT@
ZPX0076 020656@CAELT@GG SLZZYMYT@CAELT@020655 SLCBYGYZ@CAELT@SABO SLCB 020700@CAELT@METAR SLCB 020700Z 12008KT 9999 SCT033 BKN070 16/06 Q1022 A3019 749.3@CAELT@HR50 NOSIG=@CAELT@
ZPX0077 020657@CAELT@GG SLZZYMYT@CAELT@020658 SLVRYGYZ@CAELT@SABO SLVR 020700@CAELT@METAR SLVR 020700Z 19008KT 9999 BKN070 25/09 Q1011 A2985 HR37 FU@CAELT@NOSIG=@CAELT@
ZPX0084 020754@CAELT@GG SLZZYMYT@CAELT@020755 SLVRYGYZ@CAELT@SABO SLVR 020800@CAELT@METAR SLVR 020800Z 17006KT 9999 SCT070 23/09 Q1011 A2985 HR41 FU@CAELT@NOSIG=@CAELT@
ZPX0085 020756@CAELT@GG SLLPZRZX@CAELT@020757 SLLPYGYZ@CAELT@SABO SLLP 020800@CAELT@METAR SLLP 020800Z 10006KT 4000E VCFG FEW003 SCT010 BKN200 04/03@CAELT@Q1034 A3053 625.3 HR91 VCFG NE/E/SE AC NOSIG=@CAELT@
ZPX0086 020757@CAELT@GG SLZZYMYT@CAELT@020756 SLCBYGYZ@CAELT@SABO SLCB 020800@CAELT@METAR SLCB 020800Z 12005KT 9999 SCT033 BKN070 16/07 Q1022 A3019 749.2@CAELT@HR57 NOSIG=@CAELT@
ZPX0096 020854@CAELT@GG SLZZYMYT@CAELT@020855 SLVRYGYZ@CAELT@SABO SLVR 020900@CAELT@METAR SLVR 020900Z 19006KT 9999 SCT070 22/09 Q1011 A2987 HR43 FU@CAELT@NOSIG=@CAELT@
ZPX0097 020855@CAELT@GG SLZZYMYT@CAELT@020853 SLPSYGYS@CAELT@SABO SLPS 020900@CAELT@METAR SLPS 020900Z 09004KT 9999 FEW070 24/21 Q1009 A2980 HR83=@CAELT@
ZPX0098 020857@CAELT@GG SLLPZRZX@CAELT@020858 SLLPYGYZ@CAELT@SABO SLLP 020900@CAELT@METAR SLLP 020900Z 08006KT 4000E VCFG FEW003 SCT010 BKN200 03/02@CAELT@Q1034 A3054 625.4 HR90 VCFG NE/E/SE AC NOSIG=@CAELT@
ZPX0099 020858@CAELT@GG SLZZYMYT@CAELT@020855 SLCBYGYZ@CAELT@SABO SLCB 020900@CAELT@METAR SLCB 020900Z 32003KT 9999 FEW033 SCT070 15/06 Q1022 A3019 749.4@CAELT@HR54 NOSIG=@CAELT@
ZPX0100 020900@CAELT@GG SLZZYMYT@CAELT@020858 SLTRYGYS@CAELT@SABO SLTR@CAELT@METAR SLTR 020900Z 00000KT 3000 FU BKN080 23/19 Q1009 A2980 990.5@CAELT@HR80 NOSIG=@CAELT@METAR SLRI 020900Z 00000KT 8000 BKN080 24/24 Q1009 A2981 HR97 FU=@CAELT@
ZPX0118 020952@CAELT@GG SLZZYMYT@CAELT@020952 SLPSYGYS@CAELT@SABO SLPS 021000@CAELT@METAR SLPS 021000Z 00000KT 9999 FEW070 24/21 Q1009 A2980 HR82=@CAELT@
ZPX0119 020952@CAELT@GG SLZZYMYT@CAELT@020953 SLETYMYC@CAELT@SABO SLET 2011021000@CAELT@METAR SLET 021000Z 17008KT 9999 FEW070 23/09 Q1012 A2990 HR41 NOSIG=@CAELT@
ZPX0120 020953@CAELT@GG SLZZYMYT@CAELT@020952 SLRBYGYS@CAELT@SABO SLRB 021000@CAELT@METAR SLRB 021000Z 00000KT 9999 SCT070 20/19 Q1014 A2994 HR95 RWY NML=@CAELT@
ZPX0121 020954@CAELT@GG SLZZYMYT@CAELT@020952 SLRYYSYX@CAELT@SABO SLRY 021000@CAELT@METAR SLRY 021000Z 00000KT 8000 OVC023 21/21 Q1007 A2976 HR97 FU RWY@CAELT@NML=@CAELT@
ZPX0122 020954@CAELT@GG SLZZYMYT@CAELT@020954 SLCAYGYS@CAELT@SABO SLCA 021000@CAELT@METAR SLCA 021000Z 00000KT 9999 OVC070 16/07 Q1013 A2991 HR59 RWY NML@CAELT@
ZPX0124 020955@CAELT@GG SLZZYMYT@CAELT@020955 SLTRYGYZ@CAELT@SABO SLTR 021000@CAELT@METAR SLTR 021000Z 00000KT 1000 FU BKN080 23/19 Q1009 A2981 991.0@CAELT@HR76 NOSIG=@CAELT@
ZPX0125 020955@CAELT@GG SLZZYMYT@CAELT@020955 SLSBYSYX@CAELT@SABO SLSB 021000@CAELT@METAR SLSB 021000Z 00000KT 5000 FU SCT025 BKN080 23/20 Q1008 A2979@CAELT@HR84 RWY NML=@CAELT@
ZPX0126 020955@CAELT@GG SLZZYMYT@CAELT@020954 SLSAYGYS@CAELT@SABO SLSA 021000@CAELT@METAR SLSA 021000Z 00000KT 5000 FU BKN070 23/19 Q1008 A2979 HR77=@CAELT@
ZPX0127 020955@CAELT@GG SLZZYMYT@CAELT@020955 SLRQYSYX@CAELT@SABO SLRQ 021000@CAELT@METAR SLRQ 021000Z 00000KT 8000 BKN025 23/23 Q1009 A2982 985.6 HR98@CAELT@
ZPX0128 020956@CAELT@GG SLZZYMYT@CAELT@020955 SLLPYGYZ@CAELT@SABO SLLP 021000@CAELT@METAR SLLP 021000Z 09007KT 4000E VCFG FEW003 SCT200 02/01 Q1034 A3055@CAELT@625.6 HR92 P92// VCFG NE/E/SE NOSIG=@CAELT@
ZPX0130 020957@CAELT@GG SLZZYMYT@CAELT@020956 SLCBYGYZ@CAELT@SABO SLCB 021000@CAELT@METAR SLCB 021000Z 32004KT 9999 FEW033 SCT070 14/05 Q1023 A3021 749.9@CAELT@HR57 FU CI NOSIG=@CAELT@
ZPX0131 020957@CAELT@GG SLZZYMYT@CAELT@020957 SLVRYGYZ@CAELT@SABO SLVR 021000@CAELT@METAR SLVR 021000Z 19007KT 9999 SCT070 23/09 Q1012 A2989 HR42 FU CI@CAELT@NOSIG=@CAELT@
ZPX0133 020957@CAELT@GG SLZZYMYT@CAELT@020957 SLETYMYC@CAELT@SABO SLET 021000@CAELT@METAR SLET 021000Z 17008KT 9999 FEW070 23/09 Q1012 A2990 HR41 NOSIG=@CAELT@
ZPX0134 020957@CAELT@GG SLZZYMYT@CAELT@020956 SLLPYFYA@CAELT@SABO SLCO 021000@CAELT@METAR SLCO 021000Z 29003KT 8000 BKN080 29/23 Q1009 A2982 982.5@CAELT@HR93 FU=@CAELT@
ZPX0135 020958@CAELT@GG SLZZYMYT@CAELT@020957 SLVRYGYS@CAELT@SABO SLVR 021000@CAELT@METAR SLVR 021000Z 19007KT 9999 SCT070 23/09 Q1012 A2989 HR42@CAELT@FU CI NOSIG=@CAELT@METAR SLET 021000Z 17008KT 9999 FEW070 23/09 Q1012 A2990 HR41 NOSIG=@CAELT@METAR SLCP 021000Z 00000KT 9999 OVC070 21/17 Q1014 A2994 HR76 RWY NML@CAELT@METAR SLSI 021000Z 00000KT 9999 BKN070 2219 Q1011 A2985 HR85 RWY NML=METAR SLRB 021000Z 00000KT 9999 SCT070 20/19 Q1014 A2994 HR95 RWY NMLMETAR SLPS 021000Z 00000KT 9999 FEW070 24/21 Q1009 A2980 HR82=METAR SLCA 021000Z 00000KT 9999 OVC070 16/07 Q1013 A2991 HR59 RWY NML
ZPX0136 020959@CAELT@GG SLZZYMYT@CAELT@020959 SLUYYGYS@CAELT@SABO SLUY 021000@CAELT@METAR SLUY 021000Z 00000KT 9999 NSC M09/M19 Q1031 A3045 656.3@CAELT@HR44=@CAELT@
ZPX0138 021000@CAELT@GG SLZZYMYT@CAELT@020959 SLCBYGYS@CAELT@SABO SLCB 021000@CAELT@METAR SLCB 021000Z 32004KT 9999 FEW033 SCT070 14/05 Q1023 A3021 749.9@CAELT@HR57 FU CI NOSIG=@CAELT@METAR SLAL 021000Z 34013KT 9999 FEW007 BKN070 07/02 Q1027 A3034 702.5@CAELT@HR71=@CAELT@METAR SLVM 021000Z 00000KT 9999 SCT070 13/11 Q1014 A2997 HR89 CI=
ZPX0139 021000@CAELT@GG SLZZYMYT@CAELT@021000 SLLPYFYA@CAELT@SABO SLLP 021000@CAELT@METAR SLLP 021000Z 09007KT 4000E VCFG FEW003 SCT200 02/01 Q1034@CAELT@A3055 625.6 HR92 P92// VCFG NE/E/SE NOSIG=@CAELT@METAR SLCO 021000Z 29003KT 8000 BKN080 29/23 Q1009 A2982 982.5@CAELT@HR93 FU=@CAELT@METAR SLRY 021000Z 00000KT 8000 OVC023 21/21 Q1007 A2976 HR97FU RWY NML=METAR SLRQ 021000Z 00000KT 8000 BKN025 23/23 Q1009 A2982 985.6HR98 FU=METAR SLAP 021000Z 00000KT 9999 BKN025 OVC070 17/15 Q1018 A3008859.1 HR89=METAR SLSB 021000Z 00000KT 5000 FU SCT025 BKN080 23/20 Q1008A2979 HR84 RWY NML=METAR SLUY 021000Z 00000KT 9999 NSC M09/M19 Q1031 A3045 656.3HR44=
ZPX0140 021001@CAELT@GG SLZZYMYT@CAELT@021000 SLTRYGYS@CAELT@SABO SLTR 021000@CAELT@METAR SLTR 021000Z 00000KT 1000 FU BKN080 23/19 Q1009 A2981 991.0@CAELT@HR76 NOSIG=@CAELT@METAR SLGM 021000Z 36003KT 3000 VCSH FU BKN015 FEW020CB OVC070 25/24@CAELT@Q1009 A2979 HR95 CB/SH N/S/SW/NW=@CAELT@METAR SLRI 021000Z 00000KT 8000 SCT020 BKN080 24/23 Q1010 A2983 HR97METAR SLJO 021000Z 12003KT 7000 FEW020 OVC080 24/18 Q1009 A2980 HR73FU RWY NML=METAR SLRA 021000Z 00000KT 5000 FU FEW020 OVC200 24/23 Q1008 A2979HR92 RWY NML=METAR SLMG 021000Z 00000KT 8000 BKN080 24/17 Q1009 A2980 HR64 FURWY NML=METAR SLBU 021000Z NIL=METAR SLSA 021000Z 00000KT 5000 FU BKN070 23/19 Q1008 A2979 HR77=METAR SLSR 021000Z 00000KT 7000 SCT020 BKN200 23/20 Q1007 A2974 HR84METAR SLSM 021000Z NIL=
ZPX0162 021051@CAELT@GG SLZZYMYT@CAELT@021051 SLPSYGYS@CAELT@SABO SLPS 021100@CAELT@METAR SLPS 021100Z 00000KT 9999 FEW070 25/21 Q1010 A2983 HR83=@CAELT@
ZPX0164 021053@CAELT@GG SLZZYMYT@CAELT@021051 SLETYMYC@CAELT@SABO SLET 021100@CAELT@METAR SLET 021100Z 18006KT 9999 FEW070 24/08 Q1013 A2993 HR37 NOSIG=@CAELT@
ZPX0165 021053@CAELT@GG SLZZYMYT@CAELT@021052 SLRYYSYX@CAELT@SABO SLRY 021100@CAELT@METAR SLRY 021100Z 00000KT 8000 BKN025 22/21 Q1008 A2979 HR92 FU RWY@CAELT@NML=@CAELT@
ZPX0167 021053@CAELT@GG SLZZYMYT@CAELT@021053 SLRBYGYS@CAELT@SABO SLRB 021100@CAELT@METAR SLRB 021100Z 00000KT 9999 SCT070 23/17 Q1015 A2997 HR70 RWY NML=@CAELT@
ZPX0168 021054@CAELT@GG SLZZYMYT@CAELT@021055 SLTJYGYZ@CAELT@SABO SLTJ 021100@CAELT@METAR SLTJ 021100Z 00000KT 9999 FEW033 14/05 Q1022 A3018 816.6 HR54=@CAELT@
ZPX0169 021054@CAELT@GG SLZZYMYT@CAELT@021054 SLCBYGYZ@CAELT@SABO SLCB 021100@CAELT@METAR SLCB 021100Z 36004KT 9999 FEW033 SCT070 14/05 Q1024 A3024 750.7@CAELT@HR54 FU CI NOSIG=@CAELT@
ZPX0172 021055@CAELT@GG SLZZYMYT@CAELT@021055 SLCOYGYZ@CAELT@SABO SLCO 021100@CAELT@METAR SLCO 021100Z 00000KT 9999 BKN080 24/23 Q1009 A2982 982.5 HR93@CAELT@
ZPX0173 021055@CAELT@GG SLZZYMYT@CAELT@021055 SLCOYGYZ@CAELT@SABO SLCO 021100@CAELT@METAR SLCO 021100Z 00000KT 9999 BKN080 24/23 Q1009 A2982 982.5 HR93@CAELT@
ZPX0174 021055@CAELT@GG SLZZYMYT@CAELT@021055 SLSBYSYX@CAELT@SABO SLSB 021100@CAELT@METAR SLSB 021100Z 00000KT 5000 FU SCT025 BKN080 23/20 Q1010 A2985@CAELT@HR84 RWY NML=@CAELT@
ZPX0175 021055@CAELT@GG SLZZYMYT@CAELT@021055 SLSAYGYS@CAELT@SABO SLSA 021100@CAELT@METAR SLSA 021100Z 00000KT 5000 FU BKN070 24/19 Q1009 A2981 HR76=@CAELT@
ZPX0176 021055@CAELT@GG SLZZYMYT@CAELT@021055 SLTRYGYZ@CAELT@SABO SLTR 021100@CAELT@METAR SLTR 021100Z 16004KT 1000 FU BKN080 24/18 Q1010 A2983 991.6@CAELT@HR69 NOSIG=@CAELT@
ZPX0177 021055@CAELT@GG SLZZYMYT@CAELT@021055 SLRQYSYX@CAELT@SABO SLRQ 021100@CAELT@METAR SLRQ 021100Z 00000KT 8000 BKN025 BKN080 23/21 Q1010 A2983 986.0@CAELT@HR90 FU=@CAELT@
ZPX0178 021055@CAELT@GG SLZZYMYT@CAELT@021057 SLUYYGYS@CAELT@SABO SLUY 021100@CAELT@METAR SLUY 021100Z 00000KT 9999 NSC 00/M17 Q1031 A3046 656.6@CAELT@HR29=@CAELT@
ZPX0180 021056@CAELT@GG SLZZYMYT@CAELT@021056 SLORYGYZ@CAELT@SABO SLOR 021100@CAELT@METAR SLOR 021100Z 03003KT 9999 NSC 04/M07 Q1032 A3050 654.4 HR46 FU@CAELT@N/SE/S/SW/NW=@CAELT@
ZPX0181 021056@CAELT@GG SLZZYMYT@CAELT@021057 SLVRYGYZ@CAELT@SABO SLVR 021100@CAELT@METAR SLVR 021100Z 20007KT 9999 SCT070 25/09 Q1013 A2992 HR36 FU CI@CAELT@NOSIG=@CAELT@
ZPX0182 021057@CAELT@GG SLZZYMYT@CAELT@021057 SLVRYGYS@CAELT@SABO SLVR 021100@CAELT@METAR SLVR 021100Z 20007KT 9999 SCT070 25/09 Q1013 A2992 HR36 FU CI@CAELT@NOSIG=@CAELT@METAR SLET 021100Z 18006KT 9999 FEW070 24/08 Q1013 A2993 HR37 NOSIG=@CAELT@METAR SLAS 021100Z 00000KT 1000 FU SCT070 23/15 Q1012 A2989 HR63@CAELT@RWY NML=METAR SLJV 021100Z 18005KT 7000 NSC 23/17 Q1011 A2985 HR69FU RWY NML=METAR SLCP 021100Z 00000KT 9999 OVC070 22/17 Q1015 A2997 HR79 RWY NMLMETAR SLSI 021100Z 00000KT 9999 BKN070 23/19 Q1011 A2985 HR75 RWY NMLMETAR SLTI 021100Z 00000KT 9999 SCT070 25/19 Q1014 A2994 HR70METAR SLJE 021100Z 18008KT 9999 OVC023 27/15 Q1015 A2997 HR48 RWY NMLMETAR SLVG 021100Z 17004KT 9999 BKN070 12/05 Q1025 A3027 HR53 RWY NMLMETAR SLRB 021100Z 00000KT 9999 SCT070 23/17 Q1015 A2997 HR70 RWY NMLMETAR SLPS 021100Z 00000KT 9999 FEW070 25/21 Q1010 A2983 HR83=METAR SLCA 021100Z 00000KT 9999 OVC070 16/07 Q1013 A2991 HR59
ZPX0183 021058@CAELT@GG SLZZYMYT@CAELT@021057 SLLPYGYZ@CAELT@SABO SLLP 021100@CAELT@METAR SLLP 021100Z 10006KT 4000E VCFG FEW003 SCT200 05/04 Q1035 A3057@CAELT@626.0 HR90 P92// VCFG NE/E/SE NOSIG=@CAELT@
ZPX0184 021059@CAELT@GG SLZZYMYT@CAELT@021059 SLCBYGYS@CAELT@SABO SLCB 021100@CAELT@METAR SLCB 021100Z 36004KT 9999 FEW033 SCT070 14/05 Q1024 A3024 750.7@CAELT@HR54 FU CI NOSIG=@CAELT@METAR SLAL 211100Z 34013KT 9999 FEW010 BKN070 08/03 Q1028 A3036 703.1@CAELT@HR70=@CAELT@METAR SLVM 021100Z 00000KT 9999 SCT070 18/13 Q1015 A2998 HR72 CI=METAR SLTJ 021100Z 00000KT 9999 FEW033 14/05 Q1022 A3018 816.6 HR54=METAR SLYA 021100Z 00000KT 9999 SCT070 19/14 Q1005 A3000 940.3 HR74=
ZPX0188 021102@CAELT@GG SLZZYMYT@CAELT@021059 SLTRYGYS@CAELT@SABO SLTR 021100@CAELT@METAR SLTR 021100Z 16004KT 1000 FU BKN080 24/18 Q1010 A2983 991.6@CAELT@HR69 NOSIG=@CAELT@METAR SLGM 021100Z 32003KT 3000 VCSH FU BKN020 FEW023CB BKN200 25/24@CAELT@Q1010 A2982 HR95 CB/SH E/SE/SW=@CAELT@METAR SLRI 021100Z 00000KT 5000 FU SCT015 BKN080 24/23 Q1011 A2986HR97=METAR SLJO 021100Z 14003KT 6000 FEW020 OVC080 24/18 Q1009 A2981 HR72FU RWY NML=METAR SLRA 021100Z 00000KT 5000 FU FEW020 BKN080 24/21 Q1009 A2981HR84 RWY NML=METAR SLMG 021100Z 00000KT 8000 BKN080 24/16 Q1009 A2982 HR82 FURWY NML=METAR SLBU 021100Z NIL=METAR SLSA 021100Z 00000KT 5000 FU BKN070 24/19 Q1009 A2981 HR76=METAR SLSR 021100Z 00000KT 7000 SCT020 BKN200 23/20 Q1007 A2976 HR82METAR SLSM 021100Z 00000KT 3000 FU FEW020 BKN070 21/20 Q1010 A2983HR89 RWY NML=
ZPX0196 021105@CAELT@GG SLZZYMYT@CAELT@021105 SLLPYFYA@CAELT@SABO SLLP 021100@CAELT@METAR SLLP 021100Z 10006KT 4000E VCFG FEW003 SCT200 05/04 Q1035@CAELT@A3057 626.0 HR90 P92// VCFG NE/E/SE NOSIG=@CAELT@METAR SLCO 021100Z 00000KT 9999 BKN080 24/23 Q1009 A2982 982.5@CAELT@HR93 FU=@CAELT@METAR SLRY 021100Z 00000KT 8000 BKN025 22/21 Q1008 A2979 HR92FU RWY NML=METAR SLRQ 021100Z 00000KT 8000 BKN025 BKN080 23/21 Q1010A2983 986.0 HR90 FU=METAR SLAP 021100Z 00000KT 9999 SCT025 OVC070 17/15 Q1019 A3010859.6 HR88=METAR SLSB 021100Z 00000KT 5000 FU SCT025 BKN080 23/20 Q1010A2985 HR84 RWY NML=METAR SLOR 021100Z 03003KT 9999 NSC 04/M07 Q1032 A3050 654.4HR46 FU N/SE/S/SW/NW=METAR SLUY 021100Z 00000KT 9999 NSC 00/M17 Q1031 A3046 656.6HR29=
ZPX0219 021150@CAELT@GG SLZZYMYT@CAELT@021150 SLRBYGYS@CAELT@SABO SLRB 021200@CAELT@METAR SLRB 021200Z 00000KT 9999 SCT070 25/19 Q1015 A2997 HR70 RWY NML=@CAELT@
ZPX0221 021151@CAELT@GG SLZZYMYT@CAELT@021152 SLVRYGYZ@CAELT@SABO SLVR 021200@CAELT@METAR SLVR 021200Z 19010KT 9999 SCT070 27/09 Q1013 A2994 HR32 FU CI@CAELT@NOSIG=@CAELT@
ZPX0223 021152@CAELT@GG SLZZYMYT@CAELT@021152 SLPSYGYS@CAELT@SABO SLPS 021200@CAELT@METAR SLPS 021200Z 00000KT 9999 NSC 27/22 Q1011 A2986 HR78=@CAELT@
ZPX0224 021152@CAELT@GG SLZZYMYT@CAELT@021151 SLCAYGYS@CAELT@SABO SLCA 021200@CAELT@METAR SLCA 021200Z 00000KT 9999 BKN080 18/07 Q1019 A3009 HR51 RWY NML@CAELT@
ZPX0226 021153@CAELT@GG SLZZYMYT@CAELT@021152 SLRYYSYX@CAELT@SABO SLRY 021200@CAELT@METAR SLRY 021200Z 00000KT 8000 BKN027 23/22 Q1009 A2981 HR89 FU RWY@CAELT@NML=@CAELT@
ZPX0228 021154@CAELT@GG SLZZYMYT@CAELT@021154 SLSBYSYX@CAELT@SABO SLSB 021200@CAELT@METAR SLSB 021200Z 00000KT 5000 FU BKN080 24/20 Q1011 A2986 HR81@CAELT@RWY NML=@CAELT@
ZPX0229 021154@CAELT@GG SLZZYMYT@CAELT@021155 SLORYGYZ@CAELT@SABO SLOR 021200@CAELT@METAR SLOR 021200Z 36006KT 9999 FEW017 08/M08 Q1033 A3051 654.6 HR32@CAELT@FU SE/S/SW/NW=@CAELT@
ZPX0230 021154@CAELT@GG SLZZYMYT@CAELT@021155 SLUYYGYS@CAELT@SABO SLUY 021200@CAELT@METAR SLUY 021200Z 35005KT 9999 NSC 07/M12 Q1032 A3047 656.9@CAELT@HR25=@CAELT@
ZPX0232 021155@CAELT@GG SLZZYMYT@CAELT@021151 SLETYMYC@CAELT@SABO SLET 021200@CAELT@METAR SLET 021200Z 17010KT 9999 SCT070 27/08 Q1013 A2994 HR30 NOSIG=@CAELT@
ZPX0233 021155@CAELT@GG SLZZYMYT@CAELT@021155 SLTRYGYZ@CAELT@SABO SLTR 021200@CAELT@METAR SLTR 021200Z 16006KT 3000 FU BKN080 27/18 Q1010 A2985 992.2@CAELT@HR59 NOSIG=@CAELT@
ZPX0235 021155@CAELT@GG SLZZYMYT@CAELT@021155 SLRQYSYX@CAELT@SABO SLRQ 021200@CAELT@METAR SLRQ 021200Z 00000KT 8000 SCT030 BKN080 24/21 Q1010 A2985 986.7@CAELT@HR84 FU=@CAELT@
ZPX0236 021156@CAELT@GG SLZZYMYT@CAELT@021155 SLSAYGYS@CAELT@SABO SLSA 021200@CAELT@METAR SLSA 021200Z 19004KT 5000 FU BKN070 25/19 Q1010 A2983 HR68=@CAELT@
ZPX0237 021156@CAELT@GG SLZZYMYT@CAELT@021156 SLVRYGYS@CAELT@SABO SLVR 021200@CAELT@METAR SLVR 021200Z 19010KT 9999 SCT070 27/09 Q1013 A2994 HR32 FU CI@CAELT@NOSIG=@CAELT@METAR SLET 021200Z 17010KT 9999 SCT070 27/08 Q1013 A2994 HR30 NOSIG=@CAELT@METAR SLAS 021200Z 00000KT 2000 FU NSC 25/16 Q1013 A2991 HR58 RWY NML@CAELT@METAR SLJV 021200Z 18005KT 8000 NSC 25/18 Q1011 A2985 HR64 FU RWY NMLMETAR SLCP 021200Z 00000KT 9999 NSC 24/18 Q1015 A2997 HR70 CI RWY NMLMETAR SLSI 021200Z 00000KT 9999 BKN070 25/21 Q1012 A2988 HR72 RWY NMLMETAR SLTI 021200Z 00000KT 9999 NSC 28/18 Q1015 A2997 HR59 FU RWY NMLMETAR SLJE 021200Z 17006KT 9999 OVC023 29/16 Q1015 A2997 HR47 RWY NMLMETAR SLVG 021200Z 18004KT 9999 FEW070 16/05 Q1025 A3027 HR42 RWY NMLMETAR SLRB 021200Z 00000KT 9999 SCT070 25/19 Q1015 A2997 HR70 RWY NMLMETAR SLPS 021200Z 00000KT 9999 NSC 27/22 Q1011 A2986 HR78=METAR SLCA 021200Z 00000KT 9999 BKN080 18/07 Q1019 A3009 HR51 RWY NML
ZPX0238 021156@CAELT@GG SLZZYMYT@CAELT@021156 SLCOYGYZ@CAELT@SABO SLCO 021200@CAELT@METAR SLCO 021200Z 19005KT 9999 BKN080 24/23 Q1011 A2986 983.9 HR89@CAELT@
ZPX0240 021156@CAELT@GG SLZZYMYT@CAELT@021155 SLAGYSYX@CAELT@SABO SLAG 021200@CAELT@METAR SLAG 021200Z 00000KT 7000 FEW070 21/10 Q1020 A3012 891.8 HR50@CAELT@FU CI=@CAELT@
ZPX0242 021157@CAELT@GG SLZZYMYT@CAELT@021155 SLLPYGYZ@CAELT@SABO SLLP 021200@CAELT@METAR SLLP 021200Z 09008KT 050V120 9999 FEW008 08/03 Q1035 A3059@CAELT@626.5 HR74 P92// FU AC/CI NOSIG=@CAELT@
ZPX0243 021157@CAELT@GG SLZZYMYT@CAELT@021158 SLTJYGYZ@CAELT@SABO SLTJ 021200@CAELT@METAR SLTJ 021200Z 00000KT 9999 FEW033 18/05 Q1022 A3019 816.9 HR44=@CAELT@
ZPX0245 021159@CAELT@GG SLZZYMYT@CAELT@021158 SLTRYGYS@CAELT@SABO SLTR 021200@CAELT@METAR SLTR 021200Z 16006KT 3000 FU BKN080 27/18 Q1010 A2985 992.2@CAELT@HR59 NOSIG=@CAELT@METAR SLGM 021200Z 00000KT 5000 FU SCT020 FEW023CB BKN080 26/24 Q1010@CAELT@A2984 HR88 CB E=@CAELT@METAR SLRI 021200Z 00000KT 5000 FU SCT015 BKN080 24/22 Q1011 A2988HR86=METAR SLJO 021200Z 00000KT 5000 FU FEW020 BKN080 24/18 Q1009 A2982HR72 RWY NML=METAR SLRA 021200Z 00000KT 5000 FU FEW020 BKN080 25/18 Q1009 A2981HR67 RWY NML=METAR SLMG 021200Z 00000KT 5000 FU BKN080 24/18 Q1010 A2982 HR65RWY NML=METAR SLBU 021200Z NIL=METAR SLSA 021200Z 19004KT 5000 FU BKN070 25/19 Q1010 A2983 HR68=METAR SLSR 021200Z 12004KT 5000 FU SCT080 BKN200 25/19 Q1009 A2981HR70 RWY NML=METAR SLSM 021200Z 00000KT 3000 FU FEW020 BKN070 22/21 Q1010 A2985HR95 RWY NML=
ZPX0247 021159@CAELT@GG SLZZYMYT@CAELT@021158 SLCBYGYZ@CAELT@SABO SLCB 021200@CAELT@METAR SLCB 021200Z 02003KT 9999 FEW033 17/05 Q1024 A3026 751.1 HR46@CAELT@AC FU CI NOSIG=@CAELT@
ZPX0248 021159@CAELT@GG SLZZYMYT@CAELT@021157 SLSAYGYS@CAELT@SABO SLSA 021200@CAELT@METAR SLSA 021200Z 19004KT 5000 FU BKN070 25/19 Q1010 A2983 HR68=@CAELT@
ZPX0250 021201@CAELT@GG SLZZYMYT@CAELT@021201 SLLPYFYA@CAELT@SABO SLLP 021200@CAELT@METAR SLLP 021200Z 09008KT 050V120 9999 FEW008 08/03 Q1035 A3059@CAELT@626.5 HR74 P92// FU AC/CI NOSIG=@CAELT@METAR SLCO 021200Z 19005KT 9999 BKN080 24/23 Q1011 A2986 983.9 HR89@CAELT@METAR SLRY 021200Z 00000KT 8000 BKN027 23/22 Q1009 A2981 HR89 FU RWY@CAELT@NML=METAR SLRQ 021200Z 00000KT 8000 SCT030 BKN080 24/21 Q1010 A2985 986.7HR84 FU=METAR SLAP 021200Z 00000KT 9999 SCT030 OVC070 18/15 Q1019 A3012 860.2HR82=METAR SLSB 021200Z 00000KT 5000 FU BKN080 24/20 Q1011 A2986 HR81RWY NML=METAR SLOR 021200Z 36006KT 9999 FEW017 08/M08 Q1033 A3051 654.6 HR32FU SE/S/SW/NW=METAR SLUY 021200Z 35005KT 9999 NSC 07/M12 Q1032 A3047 656.9HR25=
ZPX0251 021201@CAELT@GG SLZZYMYT@CAELT@021200 SLCBYGYS@CAELT@SABO SLCB 021200@CAELT@METAR SLCB 021200Z 02003KT 9999 FEW033 17/05 Q1024 A3026 751.1 HR46@CAELT@AC FU CI NOSIG=@CAELT@METAR SLAL 021200Z 32007KT 9999 FEW012 BKN070 09/02 Q1028 A3038 703.5@CAELT@HR64=@CAELT@METAR SLPO 021200Z NIL=METAR SLAG 021200Z 00000KT 7000 FEW070 21/10 Q1020 A3012 891.8 HR50FU CI=METAR SLVM 021200Z 00000KT 9999 SCT070 21/13 Q1015 A2999 HR61 CI=METAR SLTJ 021200Z 00000KT 9999 FEW033 18/05 Q1022 A3019 816.9 HR44=METAR SLYA 021200Z 00000KT 9999 SCT070 25/16 Q1016 A3000 940.5 HR56METAR SLBJ 021200Z NIL=METAR SLHI 021200Z NIL=
ZPX0271 021237@CAELT@GG SLZZYMYT@CAELT@021237 SLTRYGYZ@CAELT@SABO SLTR 021235@CAELT@METAR SLTR 021235Z 16009KT 5000 FU SCT080 29/18 Q1011 A2986@CAELT@992.6 HR53 NOSIG=@CAELT@
ZPX0281 021251@CAELT@GG SLZZYMYT@CAELT@021250 SLRBYGYS@CAELT@SABO SLRB 021300@CAELT@METAR SLRB 021300Z 00000KT 9999 SCT070 27/18 Q1015 A2997 HR59 RWY NML=@CAELT@
ZPX0282 021252@CAELT@GG SLZZYMYT@CAELT@021252 SLETYMYC@CAELT@SABO SLET 021300@CAELT@METAR SLET 021300Z 16010KT 9999 SCT070 28/08 Q1014 A2995 HR27 NOSIG=@CAELT@
ZPX0283 021252@CAELT@GG SLZZYMYT@CAELT@021251 SLPSYGYS@CAELT@SABO SLPS 021300@CAELT@METAR SLPS 021300Z 00000KT 9999 FEW070 29/23 Q1012 A2989 HR75=@CAELT@
ZPX0284 021253@CAELT@GG SLZZYMYT@CAELT@021252 SLCAYGYS@CAELT@SABO SLCA 021300@CAELT@METAR SLCA 021300Z 00000KT 9999 SCT033 23/09 Q1019 A3009 HR42 RWY NML@CAELT@
ZPX0285 021253@CAELT@GG SLZZYMYT@CAELT@021255 SLTJYGYZ@CAELT@SABO SLTJ 021300@CAELT@METAR SLTJ 021300Z 10003KT 9999 FEW033 19/05 Q1022 A3019 817.0 HR42=@CAELT@
ZPX0286 021253@CAELT@GG SLZZYMYT@CAELT@021252 SLRYYSYX@CAELT@SABO SLRY 021300@CAELT@METAR SLRY 021300Z 00000KT 8000 BKN030 24/21 Q1009 A2982 HR83 FU RWY@CAELT@NML=@CAELT@
ZPX0287 021254@CAELT@GG SLZZYMYT@CAELT@021254 SLCBYGYZ@CAELT@SABO SLCB 021300@CAELT@METAR SLCB 021300Z 06004KT 9999 FEW033 18/06 Q1024 A3025 751.0 HR44@CAELT@AC FU CI NOSIG=@CAELT@
ZPX0288 021254@CAELT@GG SLZZYMYT@CAELT@021254 SLSAYGYS@CAELT@SABO SLSA 021300@CAELT@METAR SLSA 021300Z 19005KT 5000 FU BKN080 27/18 Q1010 A2985 HR59=@CAELT@
ZPX0289 021255@CAELT@GG SLZZYMYT@CAELT@021255 SLRQYSYX@CAELT@SABO SLRQ 021300@CAELT@METAR SLRQ 021300Z 00000KT 8000 SCT030 BKN080 27/20 Q1011 A2987 987.3@CAELT@HR68 FU=@CAELT@
ZPX0290 021255@CAELT@GG SLZZYMYT@CAELT@021255 SLLPYGYZ@CAELT@SABO SLLP 021300@CAELT@METAR SLLP 021300Z 12008KT 080V150 9999 FEW012 09/01 Q1036 A3060@CAELT@626.8 HR58 P93// FU AC/CI NOSIG=@CAELT@
ZPX0291 021255@CAELT@GG SLZZYMYT@CAELT@021255 SLAGYSYX@CAELT@SABO SLAG 021300@CAELT@METAR SLAG 021300Z 00000KT 8000 SCT070 SCT200 23/07 Q1020 A3013 892.1@CAELT@HR35 FU=@CAELT@
ZPX0292 021255@CAELT@GG SLZZYMYT@CAELT@021255 SLORYGYZ@CAELT@SABO SLOR 021300@CAELT@METAR SLOR 021300Z 35003KT 9999 FEW017 11/M09 Q1033 A3052 654.8 HR25@CAELT@FU S/SW=@CAELT@
ZPX0294 021256@CAELT@GG SLZZYMYT@CAELT@021256 SLUYYGYS@CAELT@SABO SLUY 021300@CAELT@METAR SLUY 021300Z 32003KT 9999 NSC 09/M10 Q1032 A3049 657.2@CAELT@HR24=@CAELT@
ZPX0295 021256@CAELT@GG SLZZYMYT@CAELT@021256 SLCOYGYZ@CAELT@SABO SLCO 021300@CAELT@METAR SLCO 021300Z 18006KT 9999 BKN080 25/23 Q1012 A2989 984.6 HR83@CAELT@
ZPX0296 021256@CAELT@GG SLZZYMYT@CAELT@021257 SLVRYGYZ@CAELT@SABO SLVR 021300@CAELT@METAR SLVR 021300Z 18015KT 9999 SCT070 29/10 Q1014 A2995 HR30 FU CI@CAELT@NOSIG=@CAELT@
ZPX0297 021256@CAELT@GG SLZZYMYT@CAELT@021256 SLTRYGYZ@CAELT@SABO SLTR 021300@CAELT@METAR SLTR 021300Z 15008KT 5000 FU NSC 29/17 Q1011 A2986 992.7 HR49@CAELT@AC NOSIG=@CAELT@
ZPX0299 021259@CAELT@GG SLZZYMYT@CAELT@021259 SLTRYGYS@CAELT@SABO SLTR 021300@CAELT@METAR SLTR 021300Z 15008KT 5000 FU NSC 29/17 Q1011 A2986 992.7 HR49@CAELT@AC NOSIG=@CAELT@METAR SLGM 021300Z 00000KT 5000 FU FEW020 BKN080 27/23 Q1011 A2987@CAELT@HR80=@CAELT@METAR SLRI 021300Z 00000KT 5000 FU SCT015 BKN080 27/22 Q1012 A2990HR74=METAR SLJO 021300Z 00000KT 5000 FU FEW020 BKN080 25/19 Q1010 A2985HR71 RWY NML=METAR SLRA 021300Z 00000KT 5000 FU FEW020 BKN080 26/19 Q1009 A2982HR66 RWY NML=METAR SLMG 021300Z 00000KT 5000 FU BKN080 26/17 Q1010 A2985 HR60RWY NML=METAR SLBU 021300Z NIL=METAR SLSA 021300Z 19005KT 5000 FU BKN080 27/18 Q1010 A2985 HR59=METAR SLSR 021300Z 12004KT 5000 FU SCT080 BKN200 26/20 Q1010 A2983HR67 RWY NML=METAR SLSM 021300Z 00000KT 3000 FU FEW020 BKN070 26/20 Q1011 A2987HR70 RWY NML=
ZPX0300 021259@CAELT@GG SLZZYMYT@CAELT@021259 SLVRYGYS@CAELT@SABO SLVR 021300@CAELT@METAR SLVR 021300Z 18015KT 9999 SCT070 29/10 Q1014 A2995 HR30 FU CI@CAELT@NOSIG=@CAELT@METAR SLET 021300Z 16010KT 9999 SCT070 28/08 Q1014 A2995 HR27 NOSIG=@CAELT@METAR SLAS 021300Z 00000KT 2000 FU NSC 31/18 Q1013 A2991 HR48 RWY NML@CAELT@METAR SLJV 021300Z 09008KT 6000 NSC 28/17 Q1012 A2988 HR54 FU RWY NMLMETAR SLCP 021300Z 16005KT 9999 NSC 26/19 Q1016 A3000 HR66 CI RWY NMLMETAR SLSI 021300Z 00000KT 9999 BKN070 28/20 Q1013 A2991 HR63 RWY NMLMETAR SLTI 021300Z 12010KT 9999 NSC 32/17 Q1015 A2997 HR40 FU RWY NMLMETAR SLJE 021300Z 17005KT 9999 FEW023 SCT070 33/18 Q1016 A3000 HR41RWY NML=METAR SLVG 021300Z 18005KT 9999 BKN070 18/05 Q1025 A3027 HR34 RWY NMLMETAR SLRB 021300Z 00000KT 9999 SCT070 27/18 Q1015 A2997 HR59 RWY NMLMETAR SLPS 021300Z 00000KT 9999 FEW070 29/23 Q1012 A2989 HR75=METAR SLCA 021300Z 00000KT 9999 SCT033 23/09 Q1019 A3009 HR42 RWY NML
ZPX0301 021300@CAELT@GG SLZZYMYT@CAELT@021259 SLCBYGYS@CAELT@SABO SLCB 021300@CAELT@METAR SLCB 021300Z 06004KT 9999 FEW033 18/06 Q1024 A3025 751.0 HR44@CAELT@AC FU CI NOSIG=@CAELT@METAR SLAL 021300Z 01010KT 9999 FEW013 BKN070 11/04 Q1028 A3038@CAELT@703.4 HR62=@CAELT@METAR SLPO 021300Z NIL=METAR SLAG 021300Z 00000KT 8000 SCT070 SCT200 23/07 Q1020 A3013 892.1HR35 FU=METAR SLVM 021300Z 18005KT 9999 NSC 26/14 Q1015 A3000 HR47 CI=METAR SLTJ 021300Z 10003KT 9999 FEW033 19/05 Q1022 A3019 817.0 HR42=METAR SLYA 021300Z 00000KT 9999 SCT070 28/14 Q1016 A3000 940.6 HR42=METAR SLBJ 021300Z NIL=METAR SLHI 021300Z NIL=
ZPX0303 021301@CAELT@GG SLZZYMYT@CAELT@021300 SLSBYSYX@CAELT@SABO SLSB 021300@CAELT@METAR SLSB 021300Z 00000KT 5000 FU BKN080 25/21 Q1012 A2988 HR78@CAELT@RWY NML=@CAELT@
ZPX0306 021304@CAELT@GG SLZZYMYT@CAELT@021301 SLLPYFYA@CAELT@SABO SLLP 021300@CAELT@METAR SLLP 021300Z 12008KT 080V150 9999 FEW012 09/01 Q1036 A3060@CAELT@626.8 HR58 P93// FU AC/CI NOSIG=@CAELT@METAR SLCO 021300Z 18006KT 9999 BKN080 25/23 Q1012 A2989 984.6 HR83@CAELT@METAR SLRY 021300Z 00000KT 8000 BKN030 24/21 Q1009 A2982 HR83 FU RWY@CAELT@NML=METAR SLRQ 021300Z 00000KT 8000 SCT030 BKN080 27/20 Q1011 A2987 987.3HR68 FU=METAR SLAP 021300Z 00000KT 9999 SCT030 OVC070 19/14 Q1020 A3014 860.8HR75=METAR SLSB 021300Z 00000KT 5000 FU BKN080 25/21 Q1012 A2988 HR78RWY NML=METAR SLOR 021300Z 35003KT 9999 FEW017 11/M09 Q1033 A3052 654.8 HR25FU S/SW=METAR SLUY 021300Z 32003KT 9999 NSC 09/M10 Q1032 A3049 657.2HR24=
ZPX0336 021350@CAELT@GG SLZZYMYT@CAELT@021350 SLRBYGYS@CAELT@SABO SLRB 021400@CAELT@METAR SLRB 021400Z 00000KT 9999 NSC 31/18 Q1015 A2997 HR48 RWY NML=@CAELT@
ZPX0338 021352@CAELT@GG SLZZYMYT@CAELT@021351 SLPSYGYS@CAELT@SABO SLPS 021400@CAELT@METAR SLPS 021400Z 00000KT 9999 NSC 30/23 Q1012 A2989 HR64=@CAELT@
ZPX0339 021352@CAELT@GG SLZZYMYT@CAELT@021352 SLETYMYC@CAELT@SABO SLET 021400@CAELT@METAR SLET 021400Z 17012KT 9999 SCT070 29/08 Q1014 A2995 HR27 NOSIG=@CAELT@
ZPX0340 021353@CAELT@GG SLZZYMYT@CAELT@021352 SLRYYSYX@CAELT@SABO SLRY 021400@CAELT@METAR SLRY 021400Z 00000KT 8000 BKN070 27/21 Q1009 A2982 HR68 FU RWY@CAELT@NML=@CAELT@
ZPX0341 021354@CAELT@GG SLZZYMYT@CAELT@021356 SLUYYGYS@CAELT@SABO SLUY 021400@CAELT@METAR SLUY 021400Z 30006KT 9999 NSC 11/M10 Q1032 A3048 657.1@CAELT@HR23 CI=@CAELT@
ZPX0342 021354@CAELT@GG SLZZYMYT@CAELT@021355 SLVRYGYZ@CAELT@SABO SLVR 021400@CAELT@METAR SLVR 021400Z 16013KT 9999 SCT070 30/10 Q1014 A2995 HR29 NOSIG=@CAELT@
ZPX0343 021355@CAELT@GG SLZZYMYT@CAELT@021355 SLORYGYZ@CAELT@SABO SLOR 021400@CAELT@METAR SLOR 021400Z 17005KT 9999 FEW017 14/M10 Q1033 A3051 654.6 HR17@CAELT@
ZPX0344 021355@CAELT@GG SLZZYMYT@CAELT@021355 SLCAYGYS@CAELT@SABO SLCA 021400@CAELT@METAR SLCA 021400Z 00000KT 9999 NSC 27/10 Q1018 A3006 HR36 RWY NML=@CAELT@
ZPX0345 021355@CAELT@GG SLZZYMYT@CAELT@021354 SLSAYGYS@CAELT@SABO SLSA 021400@CAELT@METAR SLSA 021400Z 18006KT 5000 FU BKN080 28/18 Q1011 A2986 HR54=@CAELT@
ZPX0346 021355@CAELT@GG SLZZYMYT@CAELT@021355 SLCBYGYZ@CAELT@SABO SLCB 021400@CAELT@METAR SLCB 021400Z 16004KT 9999 FEW033 20/05 Q1023 A3023 750.4 HR37@CAELT@FU CI NOSIG=@CAELT@
ZPX0347 021355@CAELT@GG SLZZYMYT@CAELT@021355 SLAGYSYX@CAELT@SABO SLAG 021400@CAELT@METAR SLAG 021400Z VRB02KT 9999 FEW070 SCT200 25/07 Q1019 A3010 891.1@CAELT@HR31 FU=@CAELT@
ZPX0348 021355@CAELT@GG SLZZYMYT@CAELT@021355 SLTRYGYZ@CAELT@SABO SLTR 021400@CAELT@METAR SLTR 021400Z 16008KT 5000 FU NSC 31/17 Q1011 A2986 992.5 HR42@CAELT@AC NOSIG=@CAELT@
ZPX0349 021356@CAELT@GG SLZZYMYT@CAELT@021357 SLTJYGYZ@CAELT@SABO SLTJ 021400@CAELT@METAR SLTJ 021400Z 00000KT 9999 SCT036 20/05 Q1022 A3019 816.9 HR37=@CAELT@
ZPX0350 021356@CAELT@GG SLZZYMYT@CAELT@021355 SLRQYSYX@CAELT@SABO SLRQ 021400@CAELT@METAR SLRQ 021400Z 00000KT 8000 SCT030 BKN080 28/22 Q1011 A2987 987.4@CAELT@HR68 FU=@CAELT@
ZPX0351 021356@CAELT@GG SLZZYMYT@CAELT@021355 SLLPYGYZ@CAELT@SABO SLLP 021400@CAELT@METAR SLLP 021400Z 13006KT 080V230 9999 FEW015 11/01 Q1036 A3060@CAELT@626.7 HR51 P93// FU AC/CI NOSIG=@CAELT@
ZPX0352 021357@CAELT@GG SLZZYMYT@CAELT@021357 SLCOYGYZ@CAELT@SABO SLCO 021400@CAELT@METAR SLCO 021400Z 17005KT 9999 BKN080 27/23 Q1012 A2989 984.6 HR76@CAELT@
ZPX0353 021358@CAELT@GG SLZZYMYT@CAELT@021358 SLVRYGYS@CAELT@SABO SLVR 021400@CAELT@METAR SLVR 021400Z 16013KT 9999 SCT070 30/10 Q1014 A2995 HR29 NOSIG=@CAELT@METAR SLET 021400Z 17012KT 9999 SCT070 29/08 Q1014 A2995 HR27 NOSIG=@CAELT@METAR SLAS 021400Z 00000KT 2000 FU NSC 32/17 Q1013 A2991 HR44 RWY NML@CAELT@METAR SLJV 021400Z 09008KT 5000 FU NSC 29/19 Q1012 A2988 HR53 RWY NML@CAELT@METAR SLCP 021400Z 12005KT 9999 NSC 28/19 Q1015 A2997 HR60 CI RWYNML0METAR SLSI 021400Z 00000KT 9999 BKN070 29/20 Q1013 A2991 HR57 RWY NMLMETAR SLTI 021400Z 12010KT 9999 NSC 34/16 Q1014 A2994 HR35 RWY NML=METAR SLJE 021400Z 00000KT 9999 NSC 35/19 Q1015 A2997 HR40 RWY NML=METAR SLVG 021400Z 00000KT 9999 BKN070 20/06 Q1025 A3027 HR34 RWY NMLMETAR SLRB 021400Z 00000KT 9999 NSC 31/18 Q1015 A2997 HR48 RWY NML=METAR SLPS 021400Z 00000KT 9999 NSC 30/23 Q1012 A2989 HR64=METAR SLCA 021400Z 00000KT 9999 NSC 27/10 Q1018 A3006 HR36 RWY NML=
ZPX0354 021358@CAELT@GG SLZZYMYT@CAELT@021357 SLSBYSYX@CAELT@SABO SLSB 021400@CAELT@METAR SLSB 021400Z 00000KET 5000 FU BKN080 27/21 Q1011 A2986 HR72@CAELT@RWY NML=@CAELT@
ZPX0359 021400@CAELT@GG SLZZYMYT@CAELT@021400 SLCBYGYS@CAELT@SABO SLCB 021400@CAELT@METAR SLCB 021400Z 16004KT 9999 FEW033 20/05 Q1023 A3023 750.4 HR37@CAELT@FU CI NOSIG=@CAELT@METAR SLAL 021400Z 33008KT 9999 SCT070 13/03 Q1028 A3037 703.2 HR54=@CAELT@METAR SLPO 021400Z NIL=@CAELT@METAR SLAG 021400Z VRB02KT 9999 FEW070 SCT200 25/07 Q1019 A3010891.1 HR31 FU=METAR SLVM 021400Z 00000KT 9999 NSC 30/13 Q1015 A2998 HR36 CI=METAR SLTJ 021400Z 00000KT 9999 SCT036 20/05 Q1022 A3019 816.9 HR37=METAR SLYA 021400Z 00000KT 9999 BKN070 31/15 Q1016 A3000 940.5 HR38=METAR SLBJ 021400Z NIL=METAR SLHI 021400Z NIL=
ZPX0360 021400@CAELT@GG SLZZYMYT@CAELT@021400 SLTRYGYS@CAELT@SABO SLTR 021400@CAELT@METAR SLTR 021400Z 16008KT 5000 FU NSC 31/17 Q1011 A2986 992.5 HR42@CAELT@AC NOSIG=@CAELT@METAR SLGM 021400Z 00000KT 5000 FU FEW017 BKN080 28/24 Q1012 A2988@CAELT@HR79=@CAELT@METAR SLRI 021400Z NIL=METAR SLJO 021400Z 00000KT 5000 FU FEW020 BKN080 26/20 Q1011 A2986HR69 RWY NML=METAR SLRA 021400Z 12003KT 5000 FU BKN080 30/17 Q1010 A2983 HR46RWY NML=METAR SLMG 021400Z 00000KT 5000 FU BKN080 28/18 Q1011 A2987 HR55METAR SLBU 021400Z NIL=METAR SLSA 021400Z 18006KT 5000 FU BKN080 28/18 Q1011 A2986 HR54=METAR SLSR 021400Z 12004KT 5000 FU SCT080 BKN200 27/20 Q1010 A2984HR65 RWY NML=METAR SLSM 021400Z NIL=
ZPX0391 021452@CAELT@GG SLZZYMYT@CAELT@021451 SLRBYGYS@CAELT@SABO SLRB 021500@CAELT@METAR SLRB 021500Z 00000KT 9999 FEW020 33/20 Q1015 A2997 HR47 RWY NML=@CAELT@
ZPX0392 021453@CAELT@GG SLZZYMYT@CAELT@021452 SLPSYGYS@CAELT@SABO SLPS 021500@CAELT@METAR SLPS 021500Z 00000KT 9999 FEW017 32/23 Q1011 A2986 HR60=@CAELT@
ZPX0393 021453@CAELT@GG SLZZYMYT@CAELT@021453 SLETYMYC@CAELT@SABO SLET 021500@CAELT@METAR SLET 021500Z 12006KT 9999 NSC 31/08 Q1013 A2993 HR25 NOSIG=@CAELT@
ZPX0396 021453@CAELT@GG SLZZYMYT@CAELT@021453 SLCAYGYS@CAELT@SABO SLCA 021500@CAELT@METAR SLCA 021500Z 00000KT 9999 NSC 32/12 Q1018 A3006 HR31 RWY NML=@CAELT@
ZPX0397 021453@CAELT@GG SLZZYMYT@CAELT@021452 SLRYYSYX@CAELT@SABO SLRY 021500@CAELT@METAR SLRY 021500Z 00000KT 8000 BKN080 28/21 Q1009 A2982 HR66 FU RWY@CAELT@NML=@CAELT@
ZPX0398 021453@CAELT@GG SLZZYMYT@CAELT@021455 SLTJYGYZ@CAELT@SABO SLTJ 021500@CAELT@METAR SLTJ 021500Z 15005KT 9999 SCT036 21/06 Q1021 A3018 816.5 HR36=@CAELT@
ZPX0399 021454@CAELT@GG SLZZYMYT@CAELT@021455 SLORYGYZ@CAELT@SABO SLOR 021500@CAELT@METAR SLOR 021500Z 16005KT 9999 FEW020 16/M13 Q1033 A3050 654.5 HR13@CAELT@
ZPX0400 021455@CAELT@GG SLZZYMYT@CAELT@021455 SLVRYGYZ@CAELT@SABO SLVR 021500@CAELT@METAR SLVR 021500Z 17013KT 9999 FEW070 32/10 Q1013 A2992 HR27 NOSIG=@CAELT@
ZPX0401 021455@CAELT@GG SLZZYMYT@CAELT@021455 SLSBYSYX@CAELT@SABO SLSB 021500@CAELT@METAR SLSB 021500Z 00000KT 5000 FU BKN080 29/21 Q1011 A2987 HR60@CAELT@RWY NML=@CAELT@
ZPX0402 021455@CAELT@GG SLZZYMYT@CAELT@021455 SLTRYGYZ@CAELT@SABO SLTR 021500@CAELT@METAR SLTR 021500Z 14008KT 5000 FU NSC 33/19 Q1010 A2985 992.3@CAELT@HR42 AC NOSIG=@CAELT@
ZPX0403 021456@CAELT@GG SLZZYMYT@CAELT@021455 SLUYYGYS@CAELT@SABO SLUY 021500@CAELT@METAR SLUY 021500Z 32008KT 9999 NSC 12/M10 Q1031 A3047 656.8@CAELT@HR21 CI=@CAELT@
ZPX0404 021456@CAELT@GG SLZZYMYT@CAELT@021456 SLCBYGYZ@CAELT@SABO SLCB 021500@CAELT@METAR SLCB 021500Z 29003KT 9999 FEW036 22/03 Q1023 A3021 749.8 HR28@CAELT@FU CI=@CAELT@
ZPX0408 021456@CAELT@GG SLZZYMYT@CAELT@021455 SLRQYSYX@CAELT@SABO SLRQ 021500@CAELT@METAR SLRQ 021500Z 00000KT 8000 FEW030 BKN080 30/22 Q1011 A2986 987.2@CAELT@HR60 FU=@CAELT@
ZPX0410 021456@CAELT@GG SLZZYMYT@CAELT@021457 SLCOYGYZ@CAELT@SABO SLCO 021500@CAELT@METAR SLCO 021500Z 18006KT 9999 BKN080 29/23 Q1012 A2989 984.6 HR70@CAELT@
ZPX0411 021457@CAELT@GG SLZZYMYT@CAELT@021458 SLVRYGYS@CAELT@SABO SLVR 021500@CAELT@METAR SLVR 021500Z 17013KT 9999 FEW070 32/10 Q1013 A2992 HR27 NOSIG=@CAELT@METAR SLET 021500Z 12006KT 9999 NSC 31/08 Q1013 A2993 HR25 NOSIG=@CAELT@METAR SLAS 021500Z 18008KT 3000 FU NSC 34/20 Q1012 A2989 HR44 RWY NML@CAELT@METAR SLJV 021500Z 09008KT 5000 FU NSC 31/19 Q1011 A2985 HR52 RWY NML@CAELT@METAR SLCP 021500Z 12004KT 9999 NSC 29/19 Q1015 A2997 HR55 CI RWY NMLMETAR SLSI 021500Z 00000KT 9999 BKN070 30/20 Q1012 A2988 HR55 RWY NMLMETAR SLTI 021500Z 14006KT 9999 NSC 35/16 Q1014 A2994 HR32 RWY NML=METAR SLJE 021500Z 00000KT 9999 NSC 35/19 Q1015 A2997 HR39 RWY NML=METAR SLVG 021500Z 35004KT 9999 SCT027 21/06 Q1025 A3027 HR32 RWY NMLMETAR SLRB 021500Z 00000KT 9999 FEW020 33/20 Q1015 A2997 HR47 RWY NMLMETAR SLPS 021500Z 00000KT 9999 FEW017 32/23 Q1011 A2986 HR60=METAR SLCA 021500Z 00000KT 9999 NSC 32/12 Q1018 A3006 HR31 RWY NML=
ZPX0412 021457@CAELT@GG SLZZYMYT@CAELT@021456 SLSAYGYS@CAELT@SABO SLSA 021500@CAELT@METAR SLSA 021500Z 18006KT 5000 FU BKN080 29/19 Q1011 A2986 HR56=@CAELT@
ZPX0413 021458@CAELT@GG SLZZYMYT@CAELT@021456 SLLPYGYZ@CAELT@SABO SLLP 021500@CAELT@METAR SLLP 021500Z 18008G19KT 110V240 9999 FEW017 13/M01 Q1035 A3059@CAELT@626.5 HR38 P93// FU CI NOSIG=@CAELT@
ZPX0414 021458@CAELT@GG SLZZYMYT@CAELT@021457 SLAGYSYX@CAELT@SABO SLAG 021500@CAELT@METAR SLAG 021500Z 00000KT 9999 FEW020 27/08 Q1018 A3007 890.4 HR30@CAELT@AC CI FU=@CAELT@
ZPX0416 021459@CAELT@GG SLZZYMYT@CAELT@021459 SLCBYGYS@CAELT@SABO SLCB 021500@CAELT@METAR SLCB 021500Z 29003KT 9999 FEW036 22/03 Q1023 A3021 749.8 HR28@CAELT@FU CI=@CAELT@METAR SLAL 021500Z 3306KT 9999 FEW015 16/03 Q1028 A3037 703.1 HR43 AC@CAELT@METAR SLPO 021500Z NIL=@CAELT@METAR SLAG 021500Z 00000KT 9999 FEW020 27/08 Q1018 A3007 890.4 HR30AC CI FU=METAR SLVM 021500Z 18005KT 9999 NSC31/15 Q1014 A2997 HR38 CI=METAR SLTJ 021500Z 15005KT 9999 SCT036 21/06 Q1021 A3018 816.5 HR36=METAR SLYA 021500Z 00000KT 9999 SCT070 32/15 Q1015 A2999 940.2 HR36=METAR SLBJ 021500Z NIL=METAR SLHI 021500Z NIL=
ZPX0420 021502@CAELT@GG SLZZYMYT@CAELT@021500 SLLPYFYA@CAELT@SABO SLLP 021500@CAELT@METAR SLLP 021500Z 18008G19KT 110V240 9999 FEW017 13/M01 Q1035 A3059@CAELT@626.5 HR38 P93// FU CI NOSIG=@CAELT@METAR SLCO 021500Z 18006KT 9999 BKN080 29/23 Q1012 A2989 984.6 HR70@CAELT@METAR SLRY 021500Z 00000KT 8000 BKN080 28/21 Q1009 A2982 HR66 FU RWY@CAELT@NML=METAR SLRQ 021500Z 00000KT 8000 FEW030 BKN080 30/22 Q1011 A2986 987.2HR60 FU=METAR SLAP 021500Z 00000KT 9999 FEW030 OVC070 23/15 Q1020 A3013 860.7HR61=METAR SLSB 021500Z 00000KT 5000 FU BKN080 29/21 Q1011 A2987 HR60RWY NML=METAR SLOR 021500Z 16005KT 9999 FEW020 16/M13 Q1033 A3050 654.5 HR13METAR SLUY 021500Z 32008KT 9999 NSC 12/M10 Q1031 A3047 656.8HR21 CI=
ZPX0423 021506@CAELT@GG SLZZYMYT@CAELT@021503 SLCBYGYS@CAELT@SABO SLCB 021500 CCA@CAELT@METAR SLCB 021500Z 29003KT 9999 FEW036 22/03 Q1023 A3021 749.8 HR28@CAELT@FU CI=@CAELT@METAR COR SLAL 021500Z 33006KT 9999 FEW015 16/03 Q1028 A3037 703.1@CAELT@HR43 AC=@CAELT@METAR SLPO 021500Z NIL=METAR SLAG 021500Z 00000KT 9999 FEW020 27/08 Q1018 A3007 890.4 HR30AC CI FU=METAR SLVM 021500Z 18005KT 9999 NSC 31/15 Q1014 A2997 HR38 CI=METAR SLTJ 021500Z 15005KT 9999 SCT036 21/06 Q1021 A3018 816.5 HR36=METAR SLYA 021500Z 00000KT 9999 SCT070 32/15 Q1015 A2999 940.2 HR36=METAR SLBJ 021500Z NIL=METAR SLHI 021500Z NIL=
ZPX0424 021506@CAELT@GG SLZZYMYT@CAELT@021500 SLTRYGYS@CAELT@SABO SLTR 021500@CAELT@METAR SLTR 021500Z 14008KT 5000 FU NSC 33/19 Q1010 A2985 992.3@CAELT@HR42 AC NOSIG=@CAELT@METAR SLGM 021500Z 32004KT 7000 FEW017 BKN080 29/24 Q1012 A2988 HR76@CAELT@METAR SLRI 021500Z 00000KT 8000 FEW015 BKN080 29/23 Q1012 A2990 HR71@CAELT@METAR SLJO 021500Z 00000KT 5000 FU FEW020 BKN080 29/20 Q1011 A2986HR64 RWY NML=METAR SLRA 021500Z 12004KT 5000 FU BKN080 32/17 Q1010 A2984 HR40RWY NML=METAR SLMG 021500Z 00000KT 5000 FU BKN080 28/18 Q1011 A2988 HR55METAR SLBU 021500Z NIL=METAR SLSA 021500Z 18006KT 5000 FU BKN080 29/19 Q1011 A2986 HR56=METAR SLSR 021500Z 12004KT 5000 FU BKN080 29/21 Q1011 A2985 HR60METAR SLSM 021500Z 00000KT 5000 FU FEW070 32/19 Q1011 A2986 HR44
ZPX0442 021552@CAELT@GG SLZZYMYT@CAELT@021552 SLRYYSYX@CAELT@SABO SLRY 021600@CAELT@METAR SLRY 021600Z 00000KT 8000 BKN080 29/21 Q1009 A2982 HR62 FU RWY@CAELT@NML=@CAELT@
ZPX0444 021553@CAELT@GG SLZZYMYT@CAELT@021552 SLPSYGYS@CAELT@SABO SLPS 021600@CAELT@METAR SLPS 021600Z 00000KT 9999 FEW017 SCT200 33/25 Q1010 A2983 HR62=@CAELT@
ZPX0445 021554@CAELT@GG SLZZYMYT@CAELT@021554 SLORYGYZ@CAELT@SABO SLOR 021600@CAELT@METAR SLOR 021600Z 19007KT 9999 FEW020 18/M15 Q1032 A3050 654.4 HR10@CAELT@
ZPX0446 021554@CAELT@GG SLZZYMYT@CAELT@021555 SLTJYGYZ@CAELT@SABO SLTJ 021600@CAELT@METAR SLTJ 021600Z 18007KT 9999 SCT036 21/05 Q1021 A3016 816.0 HR36=@CAELT@
ZPX0447 021554@CAELT@GG SLZZYMYT@CAELT@021554 SLSAYGYS@CAELT@SABO SLSA 021600@CAELT@METAR SLSA 021600Z 16005KT 5000 FU BKN080 30/20 Q1010 A2983 HR53=@CAELT@
ZPX0448 021555@CAELT@GG SLZZYMYT@CAELT@021555 SLCOYGYZ@CAELT@SABO SLCO 021600@CAELT@METAR SLCO 021600Z 21005KT 9999 FEW020 BKN080 30/23 Q1011 A2987 984.0@CAELT@HR69=@CAELT@
ZPX0449 021555@CAELT@GG SLZZYMYT@CAELT@021555 SLVRYGYZ@CAELT@SABO SLVR 021600@CAELT@METAR SLVR 021600Z 19010KT 9999 FEW070 33/11 Q1012 A2989 HR26 NOSIG=@CAELT@
ZPX0450 021555@CAELT@GG SLZZYMYT@CAELT@021552 SLETYMYC@CAELT@SABO SLET 021600@CAELT@METAR SLET 021600Z 12008KT 9999 NSC 32/09 Q1012 A2989 HR24 NOSIG=@CAELT@
ZPX0451 021555@CAELT@GG SLZZYMYT@CAELT@021555 SLRQYSYX@CAELT@SABO SLRQ 021600@CAELT@METAR SLRQ 021600Z 20004KT 8000 BKN080 33/21 Q1010 A2984 986.5 HR50@CAELT@
ZPX0452 021555@CAELT@GG SLZZYMYT@CAELT@021555 SLRBYGYS@CAELT@SABO SLRB 021600@CAELT@METAR SLRB 021600Z 00000KT 9999 FEW020 34/20 Q1013 A2991 HR45 RWY NML=@CAELT@
ZPX0453 021555@CAELT@GG SLZZYMYT@CAELT@021555 SLTRYGYZ@CAELT@SABO SLTR 021600@CAELT@METAR SLTR 021600Z 22007KT 5000 FU NSC 34/17 Q1010 A2983 991.6 HR36@CAELT@AC NOSIG=@CAELT@
ZPX0455 021555@CAELT@GG SLZZYMYT@CAELT@021555 SLCBYGYZ@CAELT@SABO SLCB 021600@CAELT@METAR SLCB 021600Z 14005KT 9999 FEW036 23/03 Q1021 A3017 748.7 HR27@CAELT@FU CI NOSIG=@CAELT@
ZPX0457 021556@CAELT@GG SLZZYMYT@CAELT@021555 SLLPYGYZ@CAELT@SABO SLLP 021600@CAELT@METAR SLLP 021600Z 22008KT 9999 FEW020 16/M03 Q1035 A3057 626.0 HR28@CAELT@P93// FU CI NOSIG=@CAELT@
ZPX0458 021556@CAELT@GG SLZZYMYT@CAELT@021555 SLAGYSYX@CAELT@SABO SLAG 021600@CAELT@METAR SLAG 021600Z 27003KT 9999 FEW023 28/08 Q1017 A3005 889.6 HR28@CAELT@AC CI FU=@CAELT@
ZPX0460 021556@CAELT@GG SLZZYMYT@CAELT@021555 SLSBYSYX@CAELT@SABO SLSB 021600@CAELT@METAR SLSB 021600Z 14005KT 7000 SCT080 32/22 Q1011 A2987 HR56 FU@CAELT@RWY NML=@CAELT@
ZPX0461 021557@CAELT@GG SLZZYMYT@CAELT@021557 SLUYYGYS@CAELT@SABO SLUY 021600@CAELT@METAR SLUY 021600Z 32007KT 9999 NSC 14/M09 Q1031 A3047 656.7@CAELT@HR18 CI=@CAELT@
ZPX0463 021559@CAELT@GG SLZZYMYT@CAELT@021559 SLCBYGYS@CAELT@SABO SLCB 021600@CAELT@METAR SLCB 021600Z 14005KT 9999 FEW036 23/03 Q1021 A3017 748.7 HR27@CAELT@FU CI NOSIG=@CAELT@METAR SLAL 021600Z 35014KT 9999 FEW017 17/03 Q1027 A3034 702.5 HR39=@CAELT@METAR SLPO 021600Z NIL=@CAELT@METAR SLAG 021600Z 27003KT 9999 FEW023 28/08 Q1017 A3005 889.6 HR28AC CI FU=METAR SLVM 021600Z 18007KT 9999 NSC 32/15 Q1014 A2994 HR37 CI=METAR SLTJ 021600Z 18007KT 9999 SCT036 21/05 Q1021 A3016 816.0 HR36=METAR SLYA 021600Z 00000KT 9999 SCT070 32/15 Q1014 A2997 939.4 HR36=METAR SLBJ 021600Z NIL=METAR SLHI 021600Z NIL=
ZPX0468 021602@CAELT@GG SLZZYMYT@CAELT@021601 SLCAYGYS@CAELT@SABO SLCA 021600@CAELT@METAR SLCA 021600Z 00000KT 9999 NSC 33/12 Q1017 A3003 HR30 RWY NML=@CAELT@
ZPX0469 021602@CAELT@GG SLZZYMYT@CAELT@021601 SLTRYGYS@CAELT@SABO SLTR 021600@CAELT@METAR SLTR 021600Z 22007KT 5000 FU NSC 34/17 Q1010 A2983 991.6 HR36@CAELT@AC NOSIG=@CAELT@METAR SLGM 021600Z 31008KT 7000 SCT017 FEW020CB BKN080 31/25 Q1010@CAELT@A2984 HR69 CB NE FU=@CAELT@METAR SLRI 021600Z 36006KT 8000 SCT017 FEW020CB BKN080 30/24 Q1011A2988 HR73 FU CB N=METAR SLJO 021600Z 00000KT 5000 FU BKN080 32/19 Q1010 A2985 HR46RWY NML=METAR SLRA 021600Z 36006KT 5000 FU FEW020 BKN080 32/19 Q1010 A2983HR45 RWY NML=METAR SLMG 021600Z 00000KT 5000 FU BKN080 30/19 Q1011 A2988 HR52METAR SLBU 021600Z NIL=METAR SLSA 021600Z 16005KT 5000 FU BKN080 30/20 Q1010 A2983 HR53=METAR SLSR 021600Z 12004KT 5000 FU BKN080 30/22 Q1009 A2981 HR60METAR SLSM 021600Z 15004KT 8000 NSC 33/16 Q1010 A2984 HR35 FU CI
ZPX0470 021603@CAELT@GG SLZZYMYT@CAELT@021602 SLVRYGYS@CAELT@SABO SLVR 021600@CAELT@METAR SLVR 021600Z 19010KT 9999 FEW070 33/11 Q1012 A2989 HR26 NOSIG=@CAELT@METAR SLET 021600Z 12008KT 9999 NSC 32/09 Q1012 A2989 HR24 NOSIG=@CAELT@METAR SLAS 021600Z 00000KT 4000 FU FEW020 35/20 Q1012 A2989 HR42 RWY@CAELT@NML=@CAELT@METAR SLCP 021600Z 00000KT 9999 NSC 31/19 Q1014 A2994 HR51 CI FU RWYMETAR SLSI 021600Z 00000KT 9999 BKN070 33/21 Q1011 A2985 HR52 RWY NMLMETAR SLRB 021600Z 00000KT 9999 FEW020 34/20 Q1013 A2991 HR45 RWY NMLMETAR SLCA 021600Z 00000KT 9999 NSC 33/12 Q1017 A3003 HR30 RWY NML=
ZPX0473 021603@CAELT@GG SLZZYMYT@CAELT@021601 SLLPYFYA@CAELT@SABO SLLP 021600@CAELT@METAR SLLP 021600Z 22008KT 9999 FEW020 16/M03 Q1035 A3057 626.0 HR28@CAELT@P93// FU CI NOSIG=@CAELT@METAR SLCO 021600Z 21005KT 9999 FEW020 BKN080 30/23 Q1011 A2987 984.0@CAELT@HR69=@CAELT@METAR SLRY 021600Z 00000KT 8000 BKN080 29/21 Q1009 A2982 HR62 FU RWYNML=METAR SLRQ 021600Z 20004KT 8000 BKN080 33/21 Q1010 A2984 986.5 HR50METAR SLAP 021600Z 00000KT 9999 FEW030 OVC070 25/14 Q1019 A3011 860.0HR53=METAR SLSB 021600Z 14005KT 7000 SCT080 32/22 Q1011 A2987 HR56 FURWY NML=METAR SLOR 021600Z 19007KT 9999 FEW020 18/M15 Q1032 A3050 654.4 HR10METAR SLUY 021600Z 32007KT 9999 NSC 14/M09 Q1031 A3047 656.7HR18 CI=
ZPX0475 021606@CAELT@GG SLZZYMYT@CAELT@021605 SLVRYGYS@CAELT@SABO SLVR 021600 RRA@CAELT@METAR SLVR 021600Z 19010KT 9999 FEW070 33/11 Q1012 A2989 HR26 NOSIG=@CAELT@METAR SLET 021600Z 12008KT 9999 NSC 32/09 Q1012 A2989 HR24 NOSIG=@CAELT@METAR SLAS 021600Z 00000KT 4000 FU FEW020 35/20 Q1012 A2989 HR42 RWY@CAELT@NML=@CAELT@METAR SLCP 021600Z 00000KT 9999 NSC 31/19 Q1014 A2994 HR51 CI FU RWYMETAR SLSI 021600Z 00000KT 9999 BKN070 33/21 Q1011 A2985 HR52 RWY NMLMETAR SLRB 021600Z 00000KT 9999 FEW020 34/20 Q1013 A2991 HR45 RWY NMLMETAR RTD SLPS 021600Z 00000KT 9999 FEW017 SCT200 33/25 Q1010 A2983HR62=METAR SLCA 021600Z 00000KT 9999 NSC 33/12 Q1017 A3003 HR30 RWY NML=
ZPX0489 021651@CAELT@GG SLZZYMYT@CAELT@021651 SLPSYGYS@CAELT@SABO SLPS 021700@CAELT@METAR SLPS 021700Z 00000KT 9999 SCT017 BKN200 34/25 Q1009 A2980 HR61=@CAELT@
ZPX0490 021652@CAELT@GG SLZZYMYT@CAELT@021651 SLRYYSYX@CAELT@SABO SLRY 021700@CAELT@METAR SLRY 21700Z 00000KT 8000 BKN080 31/21 Q1008 A2979 HR53 FU RWY@CAELT@NML=@CAELT@
ZPX0491 021652@CAELT@GG SLZZYMYT@CAELT@021654 SLTJYGYZ@CAELT@SABO SLTJ 021700@CAELT@METAR SLTJ 021700Z 20009KT 9999 SCT036 23/06 Q1020 A3014 815.4 HR34@CAELT@
ZPX0492 021652@CAELT@GG SLZZYMYT@CAELT@021652 SLETYMYC@CAELT@SABO SLET 021700@CAELT@METAR SLET 021700Z 08005KT 9999 NSC 33/10 Q1011 A2986 HR24 NOSIG=@CAELT@
ZPX0493 021653@CAELT@GG SLZZYMYT@CAELT@021653 SLCAYGYS@CAELT@SABO SLCA 021700@CAELT@METAR SLCA 021700Z 36005KT 9999 NSC 33/09 Q1015 A2997 HR24 RWY NML=@CAELT@
ZPX0495 021654@CAELT@GG SLZZYMYT@CAELT@021655 SLCOYGYZ@CAELT@SABO SLCO 021700@CAELT@METAR SLCO 021700Z 15004KT 9999 FEW020 BKN080 31/23 Q1010 A2984 983.2@CAELT@HR63=@CAELT@
ZPX0496 021654@CAELT@GG SLZZYMYT@CAELT@021655 SLORYGYZ@CAELT@SABO SLOR 021700@CAELT@METAR SLOR 021700Z 19007KT 9999 FEW020 19/M19 Q1032 A3049 654.1 HR07@CAELT@
ZPX0497 021654@CAELT@GG SLZZYMYT@CAELT@021654 SLRBYGYS@CAELT@SABO SLRB 021700@CAELT@METAR SLRB 021700Z 00000KT 9999 FEW020 34/20 Q1012 A2988 HR43 RWY NML=@CAELT@
ZPX0498 021654@CAELT@GG SLZZYMYT@CAELT@021654 SLSAYGYS@CAELT@SABO SLSA 021700@CAELT@METAR SLSA 021700Z 16005KT 5000 FU SCT080 33/19 Q1009 A2982 HR44=@CAELT@
ZPX0499 021654@CAELT@GG SLZZYMYT@CAELT@021654 SLSBYSYX@CAELT@SABO SLSB 021700@CAELT@METAR SLSB 021700Z 12004KT 7000 FEW080 33/20 Q1011 A2987 HR47 FU@CAELT@RWY NML=@CAELT@
ZPX0500 021655@CAELT@GG SLZZYMYT@CAELT@021655 SLRQYSYX@CAELT@SABO SLRQ 021700@CAELT@METAR SLRQ 021700Z 00000KT 8000 SCT080 36/22 Q1009 A2981 985.4 HR46@CAELT@
ZPX0501 021655@CAELT@GG SLZZYMYT@CAELT@021655 SLAGYSYX@CAELT@SABO SLAG 021700@CAELT@METAR SLAG 021700Z 24003KT 9999 FEW025 30/07 Q1016 A3001 888.6 HR25@CAELT@CI FU=@CAELT@
ZPX0502 021655@CAELT@GG SLZZYMYT@CAELT@021657 SLUYYGYS@CAELT@SABO SLUY 021700@CAELT@METAR SLUY 021700Z 33009KT 9999 NSC 14/M15 Q1030 A3044 656.0@CAELT@HR13 CI=@CAELT@
ZPX0503 021656@CAELT@GG SLZZYMYT@CAELT@021656 SLTRYGYZ@CAELT@SABO SLTR 021700@CAELT@METAR SLTR 021700Z 24006KT 5000 FU NSC 35/16 Q1008 A2979 990.2 HR31@CAELT@AC NOSIG=@CAELT@
ZPX0504 021656@CAELT@GG SLZZYMYT@CAELT@021655 SLLPYGYZ@CAELT@SABO SLLP 021700@CAELT@METAR SLLP 021700Z 12008KT 060V190 9999 SCT023 17/M03 Q1034 A3054@CAELT@625.3 HR26 P93// FU CI NOSIG=@CAELT@
ZPX0505 021656@CAELT@GG SLZZYMYT@CAELT@021655 SLVRYGYZ@CAELT@SABO SLVR 021700@CAELT@METAR SLVR 021700Z 12008KT 9999 NSC 34/11 Q1011 A2986 HR24 NOSIG=@CAELT@
ZPX0506 021657@CAELT@GG SLZZYMYT@CAELT@021657 SLTRYGYS@CAELT@SABO SLTR 021700@CAELT@METAR SLTR 021700Z 24006KT 5000 FU NSC 35/16 Q1008 A2979 990.2 HR31@CAELT@AC NOSIG=@CAELT@METAR SLGM 021700Z 26008KT 6000 VCSH SCT017 FEW020CB BKN080 30/25@CAELT@Q1009 A2981 HR73 CB/SH NE/E/SE FU=@CAELT@METAR SLRI 021700Z 36006KT 8000 SCT017 FEW020CB BKN080 30/24Q1011 A2986 HR71 FU CB NE=METAR SLJO 021700Z 09003KT 5000 FU BKN080 32/18 Q1010 A2983 HR41RWY NML=METAR SLRA 021700Z 36004KT 5000 FU BKN080 35/17 Q1009 A2980 HR35METAR SLMG 021700Z 00000KT 5000 FU BKN080 33/20 Q1010 A2985 HR48METAR SLBU 021700Z NIL=METAR SLSA 021700Z 16005KT 5000 FU SCT080 33/19 Q1009 A2982 HR44=METAR SLSR 021700Z 00000KT 5000 FU SCT080 BKN200 32/22 Q1008 A2977HR55 RWY NML=METAR SLSM 021700Z 15004KT 9999 NSC 35/15 Q1009 A2981 HR31 FU
ZPX0508 021657@CAELT@GG SLZZYMYT@CAELT@021657 SLCBYGYZ@CAELT@SABO SLCB 021700@CAELT@METAR SLCB 021700Z 17005KT 9999 FEW036 SCT200 24/03 Q1019 A3012 747.4@CAELT@HR25 FU NOSIG=@CAELT@
ZPX0509 021659@CAELT@GG SLZZYMYT@CAELT@021659 SLVRYGYS@CAELT@SABO SLVR 021700@CAELT@METAR SLVR 021700Z 12008KT 9999 NSC 34/11 Q1011 A2986 HR24 NOSIG=@CAELT@METAR SLET 021700Z 08005KT 9999 NSC 33/10 Q1011 A2986 HR24 NOSIG=@CAELT@METAR SLAS 021700Z 00000KT 5000 FU FEW020 36/21 Q1011 A2986 HR38 RWY@CAELT@NML=@CAELT@METAR SLCP 021700Z 00000KT 8000 NSC 31/21 Q1013 A2991 HR51 CI FU RWYNML =METAR SLSI 021700Z 00000KT 9999 SCT017 BKN070 33/20 Q1010 A2983 HR45RWY NML=METAR SLRB 021700Z 00000KT 9999 FEW020 34/20 Q1012 A2988 HR43 RWY NMLMETAR SLPS 021700Z 00000KT 9999 SCT017 BKN200 34/25 Q1009 A2980 HR61=METAR SLCA 021700Z 36005KT 9999 NSC 33/09 Q1015 A2997 HR24 RWY NML=
ZPX0510 021659@CAELT@GG SLZZYMYT@CAELT@021659 SLCBYGYS@CAELT@SABO SLCB 021700@CAELT@METAR SLCB 021700Z 17005KT 9999 FEW036 SCT200 24/03 Q1019 A3012@CAELT@747.4 HR25 FU NOSIG=@CAELT@METAR SLAL 021700Z 36007KT 9999 FEW017 17/02 Q1026 A3032 701.9 HR37=@CAELT@METAR SLPO 021700Z NIL=@CAELT@METAR SLAG 021700Z 24003KT 9999 FEW025 30/07 Q1016 A3001 888.6 HR25CI FU=METAR SLVM 021700Z 18005KT 9999 NSC 33/15 Q1013 A2991 HR36 CI=METAR SLTJ 021600Z 18007KT 9999 SCT036 21/05 Q1021 A3016 816.0 HR36=METAR SLYA 021700Z 00000KT 9999 NSC 32/15 Q1013 A2993 938.3 HR35=METAR SLBJ 021600Z NIL=METAR SLHI 021600Z NIL=
ZPX0512 021702@CAELT@GG SLZZYMYT@CAELT@021701 SLLPYFYA@CAELT@SABO SLLP 021700@CAELT@METAR SLLP 021700Z 12008KT 060V190 9999 SCT023 17/M03 Q1034 A3054@CAELT@625.3 HR26 P93// FU CI NOSIG=@CAELT@METAR SLCO 021700Z 15004KT 9999 FEW020 BKN080 31/23 Q1010 A2984 983.2@CAELT@HR63=@CAELT@METAR SLRY 021700Z 00000KT 8000 BKN080 31/21 Q1008 A2979 HR53 FU RWYNML=METAR SLRQ 021700Z 00000KT 8000 SCT080 36/22 Q1009 A2981 985.4 HR46METAR SLAP 021700Z 18005KT 9999 FEW030 BKN070 25/15 Q1018 A3008 859.1HR51=METAR SLSB 021700Z 12004KT 7000 FEW080 33/20 Q1011 A2987 HR47 FURWY NML=METAR SLOR 021700Z 19007KT 9999 FEW020 19/M19 Q1032 A3049 654.1 HR07METAR SLUY 021700Z 33009KT 9999 NSC 14/M15 Q1030 A3044 656.0HR13 CI=
ZPX0545 021753@CAELT@GG SLZZYMYT@CAELT@021753 SLPSYGYS@CAELT@SABO SLPS 021800@CAELT@METAR SLPS 021800Z 00000KT 9999 SCT017 BKN070 34/25 Q1008 A2977 HR59=@CAELT@
ZPX0546 021753@CAELT@GG SLZZYMYT@CAELT@021755 SLTJYGYZ@CAELT@SABO SLTJ 021800@CAELT@METAR SLTJ 021800Z 18008KT 9999 SCT036 23/06 Q1019 A3011 814.5 HR32@CAELT@
ZPX0547 021753@CAELT@GG SLZZYMYT@CAELT@021752 SLRYYSYX@CAELT@SABO SLRY 021800@CAELT@METAR SLRY 021800Z 00000KT 8000 SCT080 BKN200 34/19 Q1007 A2976 HR42@CAELT@FU RWY NML=@CAELT@
ZPX0548 021754@CAELT@GG SLZZYMYT@CAELT@021754 SLORYGYZ@CAELT@SABO SLOR 021800@CAELT@METAR SLOR 021800Z 20004KT 9999 FEW020 20/M19 Q1031 A3046 653.4 HR06@CAELT@
ZPX0550 021754@CAELT@GG SLZZYMYT@CAELT@021753 SLRBYGYS@CAELT@SABO SLRB 021800@CAELT@METAR SLRB 021800Z 00000KT 9999 SCT020 34/20 Q1011 A2985 HR42 RWY NML=@CAELT@
ZPX0551 021754@CAELT@GG SLZZYMYT@CAELT@021755 SLSBYSYX@CAELT@SABO SLSB 021800@CAELT@METAR SLSB 021800Z 11004KT 8000 SCT080 34/20 Q1008 A2977 HR43 FU RWY@CAELT@NML=@CAELT@
ZPX0552 021755@CAELT@GG SLZZYMYT@CAELT@021755 SLRQYSYX@CAELT@SABO SLRQ 021800@CAELT@METAR SLRQ 021800Z 17006KT 8000 FEW020 SCT200 35/21 Q1008 A2977@CAELT@HR44 FU=@CAELT@
ZPX0553 021755@CAELT@GG SLZZYMYT@CAELT@021755 SLAGYSYX@CAELT@SABO SLAG 021800@CAELT@METAR SLAG 021800Z 25003KT 9999 FEW025 30/07 Q1014 A2997 887.3 HR24@CAELT@CI FU=@CAELT@
ZPX0555 021756@CAELT@GG SLZZYMYT@CAELT@021756 SLVRYGYZ@CAELT@SABO SLVR 021800@CAELT@METAR SLVR 021800Z 10007KT 9999 NSC 34/12 Q1010 A2983 HR26 NOSIG=@CAELT@
ZPX0556 021756@CAELT@GG SLZZYMYT@CAELT@021755 SLSAYGYS@CAELT@SABO SLSA 021800@CAELT@METAR SLSA 021800Z 00000KT 6000 SCT080 34/18 Q1007 A2975 HR39 FU=@CAELT@
ZPX0557 021756@CAELT@GG SLZZYMYT@CAELT@021755 SLSAYGYS@CAELT@SABO SLSA 021800@CAELT@METAR SLSA 021800Z 00000KT 6000 SCT080 34/18 Q1007 A2975 HR39 FU=@CAELT@
ZPX0558 021756@CAELT@GG SLZZYMYT@CAELT@021756 SLTRYGYZ@CAELT@SABO SLTR 021800@CAELT@METAR SLTR 021800Z 24003KT 5000 FU NSC 35/15 Q1007 A2974 988.8 HR29@CAELT@AC NOSIG=@CAELT@
ZPX0559 021757@CAELT@GG SLZZYMYT@CAELT@021756 SLLPYGYZ@CAELT@SABO SLLP 021800@CAELT@METAR SLLP 021800Z 20007KT 160V330 9999 SCT025 18/M08 Q1032 A3050@CAELT@624.5 HR17 P93// FU CI NOSIG=@CAELT@
ZPX0560 021758@CAELT@GG SLZZYMYT@CAELT@021756 SLETYMYC@CAELT@SABO SLET 021800@CAELT@METAR SLET 021800Z 08005KT 9999 NSC 34/12 Q1010 A2984 HR26 NOSIG=@CAELT@
ZPX0561 021758@CAELT@GG SLZZYMYT@CAELT@021757 SLCAYGYS@CAELT@SABO SLCA 021800@CAELT@METAR SLCA 021800Z 00000KT 9999 FEW033 34/08 Q1014 A2994 HR22 RWY NML@CAELT@
ZPX0562 021758@CAELT@GG SLZZYMYT@CAELT@021757 SLCBYGYZ@CAELT@SABO SLCB 021800@CAELT@METAR SLCB 021800Z 20005KT 9999 FEW036 SCT200 27/02 Q1018 A3006 745.9@CAELT@HR20 FU NOSIG=@CAELT@
ZPX0564 021800@CAELT@GG SLZZYMYT@CAELT@021800 SLCBYGYS@CAELT@SABO SLCB 021800@CAELT@METAR SLCB 021800Z 20005KT 9999 FEW036 SCT200 27/02 Q1018 A3006@CAELT@745.9 HR20 FU NOSIG=@CAELT@METAR SLAL 021800Z 01010KT 9999 SCT023 18/01 Q1025 A3028 701.1 HR34=@CAELT@METAR SLPO 021800Z NIL=@CAELT@METAR SLAG 021800Z 25003KT 9999 FEW025 30/07 Q1014 A2997 887.3 HR24CI FU=METAR SLVM 021800Z 00000KT 9999 NSC 34/16 Q1011 A2988 HR35 CI=METAR SLTJ 021800Z 18008KT 9999 SCT036 23/06 Q1019 A3011 814.5 HR32METAR SLYA 021800Z 18006KT 9999 NSC 32/15 Q1013 A2991 937.7 HR34=METAR SLBJ 021800Z NIL=METAR SLHI 021800Z NIL=
ZPX0565 021802@CAELT@GG SLZZYMYT@CAELT@021802 SLLPYFYA@CAELT@SABO SLLP 021800@CAELT@METAR SLLP 021800Z 20007KT 160V330 9999 SCT025 18/M08 Q1032 A3050@CAELT@624.5 HR17 P93// FU CI NOSIG=@CAELT@METAR SLRY 021800Z 00000KT 8000 SCT080 BKN200 34/19 Q1007 A2976 HR42@CAELT@FU RWY NML=@CAELT@METAR SLRQ 021800Z 17006KT 8000 FEW020 SCT200 35/21 Q1008 A2977HR44 FU=METAR SLAP 021800Z 18005KT 9999 SCT025 BKN070 25/15 Q1017 A3004 858.1HR54=METAR SLSB 021800Z 11004KT 8000 SCT080 34/20 Q1008 A2977 HR43 FU RWYNML=METAR SLOR 021800Z 20004KT 9999 FEW020 20/M19 Q1031 A3046 653.4 HR06
ZPX0566 021802@CAELT@GG SLZZYMYT@CAELT@021758 SLTRYGYS@CAELT@SABO SLTR 021800@CAELT@METAR SLTR 021800Z 24003KT 5000 FU NSC 35/15 Q1007 A2974 988.8 HR29@CAELT@AC NOSIG=@CAELT@METAR SLGM 021800Z 08010KT 5000 TS VCSH FU BKN017 FEW020CB BKN080@CAELT@KBN200 28/25 Q1009 A2980 HR87 CB/SH N/NE/E/SE TS NE/SE=@CAELT@METAR SLRI 021800Z 32008KT 8000 SCT017 BKN080 29/24 Q1009 A2982 HR73METAR SLJO 021800Z NIL=METAR SLRA 021800Z 09003KT 5000 FU NSC 34/16 Q1008 A2977 HR34 ACRWY NML=METAR SLMG 021800Z 00000KT 5000 FU BKN080 33/18 Q1010 A2983 HR41METAR SLBU 021800Z NIL=METAR SLSA 021800Z 00000KT 6000 SCT080 34/18 Q1007 A2975 HR39 FU=METAR SLSR 021800Z 28008KT 5000 FU SCT080 33/21 Q1008 A2977 HR51METAR SLSM 021800Z NIL=
ZPX0567 021802@CAELT@GG SLZZYMYT@CAELT@021802 SLVRYGYS@CAELT@SABO SLVR 021800@CAELT@METAR SLVR 021800Z 10007KT 9999 NSC 34/12 Q1010 A2983 HR26 NOSIG=@CAELT@METAR SLET 021800Z 08005KT 9999 NSC 34/12 Q1010 A2984 HR26 NOSIG=@CAELT@METAR SLAS 021800Z 00000KT 8000 FEW020 37/21 Q1010 A2983 HR39 FU RWY@CAELT@NML=@CAELT@METAR SLJV 021800Z 00000KT 8000 NSC 31/20 Q1009 A2980 HR53 FU RWY NMLMETAR SLCP 021800Z 00000KT 8000 NSC 32/19 Q1012 A2988 HR45 CI FU RWYMETAR SLSI 021800Z 19005KT 9999 SCT017 34/18 Q1009 A2980 HR40 RWYMETAR SLTI 021800Z 00000KT 9999 FEW020 38/17 Q1010 A2983 HR31 RWY NMLMETAR SLJE 021800Z 00000KT 9999 FEW020 SCT070 38/19 Q1012 A2988 HR34RWY NML=METAR SLVG 021800Z 35006KT 9999 SCT027 23/05 Q1023 A3021 HR27 RWY NMLMETAR SLRB 021800Z 00000KT 9999 SCT020 34/20 Q1011 A2985 HR42 RWY NMLMETAR SLPS 021800Z 00000KT 9999 SCT017 BKN070 34/25 Q1008 A2977 HR59=METAR SLCA 021800Z 00000KT 9999 FEW033 34/08 Q1014 A2994 HR22 RWY NML=
ZPX0570 021804@CAELT@GG SLZZYMYT@CAELT@021804 SLETYMYC@CAELT@SABO SLET 021800@CAELT@METAR SLET 021800Z 08005KT 9999 NSC 34/12 Q1010 A2984 HR26 NOSIG=@CAELT@
ZPX0585 021841@CAELT@GG SLZZYMYT@CAELT@021839 SLTRYGYS@CAELT@SABO SLTR 021800 RRA@CAELT@METAR SLTR 021800Z 24003KT 5000 FU NSC 35/15 Q1007 A2974 988.8 HR29@CAELT@AC NOSIG=@CAELT@METAR SLGM 021800Z 08010KT 5000 TS VCSH FU BKN017 FEW020CB BKN080@CAELT@KBN200 28/25 Q1009 A2980 HR87 CB/SH N/NE/E/SE TS NE/SE=@CAELT@METAR SLRI 021800Z 32008KT 8000 SCT017 BKN080 29/24 Q1009 A2982 HR73METAR SLJO 021800Z NIL=METAR SLRA 021800Z 09003KT 5000 FU NSC 34/16 Q1008 A2977 HR34 ACRWY NML=METAR SLMG 021800Z 00000KT 5000 FU BKN080 33/18 Q1010 A2983 HR41METAR SLBU 021800Z NIL=METAR SLSA 021800Z 00000KT 6000 SCT080 34/18 Q1007 A2975 HR39 FU=METAR SLSR 021800Z 28008KT 5000 FU SCT080 33/21 Q1008 A2977 HR51METAR RTD SLSM 021800Z 15003KT 9999 NSC 35/17 Q1008 A2977 HR35 FU
ZPX0589 021852@CAELT@GG SLZZYMYT@CAELT@021852 SLETYMYC@CAELT@SABO SLET 021900@CAELT@METAR SLET 021900Z 14003KT 9999 NSC 34/11 Q1009 A2980 HR25 NOSIG=@CAELT@
ZPX0591 021852@CAELT@GG SLZZYMYT@CAELT@021852 SLPSYGYS@CAELT@SABO SLPS 021900@CAELT@METAR SLPS 021900Z 00000KT 9999 FEW017 BKN070 35/25 Q1007 A2974 HR58=@CAELT@
ZPX0592 021853@CAELT@GG SLZZYMYT@CAELT@021852 SLRYYSYX@CAELT@SABO SLRY 021900@CAELT@METAR SLRY 021900Z 00000KT 8000 SCT080 BKN200 35/17 Q1006 A2973 HR36@CAELT@FU RWY NML=@CAELT@
ZPX0594 021853@CAELT@GG SLZZYMYT@CAELT@021853 SLRBYGYS@CAELT@SABO SLRB 021900@CAELT@METAR SLRB 021900Z 00000KT 9999 SCT020 35/19 Q1010 A2983 HR40 RWY NML=@CAELT@
ZPX0595 021854@CAELT@GG SLZZYMYT@CAELT@021854 SLCBYGYZ@CAELT@SABO SLCB 021900@CAELT@METAR SLCB 021900Z 14004KT 9999 FEW036 SCT200 28/02 Q1016 A3002 744.8@CAELT@HR19 FU NOSIG=@CAELT@
ZPX0596 021854@CAELT@GG SLZZYMYT@CAELT@021855 SLTJYGYZ@CAELT@SABO SLTJ 021900@CAELT@METAR SLTJ 021900Z 14008KT 9999 SCT036 22/06 Q1019 A3009 814.1 HR35=@CAELT@
ZPX0597 021854@CAELT@GG SLZZYMYT@CAELT@021854 SLCAYGYS@CAELT@SABO SLCA 021900@CAELT@METAR SLCA 021900Z 00000KT 9999 FEW033 34/07 Q1013 A2991 HR20 RWY NML@CAELT@
ZPX0599 021855@CAELT@GG SLZZYMYT@CAELT@021855 SLSBYSYX@CAELT@SABO SLSB 021900@CAELT@METAR SLSB 021900Z 00000KT 8000 SCT080 34/18 Q1007 A2976 HR40 FU RWY@CAELT@NML=@CAELT@
ZPX0600 021855@CAELT@GG SLZZYMYT@CAELT@021854 SLSAYGYS@CAELT@SABO SLSA 021900@CAELT@METAR SLSA 021900Z 00000KT 6000 SCT080 34/17 Q1006 A2971 HR37 FU=@CAELT@
ZPX0601 021855@CAELT@GG SLZZYMYT@CAELT@021855 SLRQYSYX@CAELT@SABO SLRQ 021900@CAELT@METAR SLRQ 021900Z 16004KT 8000 FEW020 BKN200 35/19 Q1007 A2974 983.2@CAELT@HR40 FU=@CAELT@
ZPX0602 021855@CAELT@GG SLZZYMYT@CAELT@021855 SLVRYGYZ@CAELT@SABO SLVR 021900@CAELT@METAR SLVR 021900Z 17007KT 9999 FEW023 34/12 Q1009 A2980 HR25 NOSIG=@CAELT@
ZPX0603 021856@CAELT@GG SLZZYMYT@CAELT@021855 SLAGYSYX@CAELT@SABO SLAG 021900@CAELT@METAR SLAG 021900Z 17005KT 9999 SCT025 31/07 Q1014 A2995 886.6 HR23@CAELT@CI FU=@CAELT@
ZPX0604 021856@CAELT@GG SLZZYMYT@CAELT@021856 SLTRYGYZ@CAELT@SABO SLTR 021900@CAELT@METAR SLTR 021900Z 00000KT 5000 FU NSC 36/15 Q1006 A2972 987.9 HR30@CAELT@AC NOSIG=@CAELT@
ZPX0605 021856@CAELT@GG SLZZYMYT@CAELT@021855 SLLPYGYZ@CAELT@SABO SLLP 021900@CAELT@METAR SLLP 021900Z 14008KT 9999 SCT025 17/M04 Q1031 A3047 623.8@CAELT@HR23 P93// FU CI NOSIG=@CAELT@
ZPX0607 021858@CAELT@GG SLZZYMYT@CAELT@021857 SLTRYGYS@CAELT@SABO SLTR 021900@CAELT@METAR SLTR 021900Z 00000KT 5000 FU NSC 36/15 Q1006 A2972 987.9 HR30@CAELT@AC NOSIG=@CAELT@METAR SLGM 021900Z 05006KT 7000 VCSHBKN017 FEW020CB BKN080 BKN200@CAELT@27/25 Q1007 A2976 HR89 RETSRA CB/SH N/NE/SE FU=@CAELT@METAR SLRI 021900Z 32008KT 8000 SCT017 BKN080 28/25 Q1008 A2979 HR84METAR SLJO 021900Z NIL=METAR SLRA 021900Z 09003KT 5000 FU NSC 35/16 Q1007 A2974 HR31 ACRWY NML=METAR SLMG 021900Z 00000KT 5000 FU SCT080 34/18 Q1008 A2978 HR39METAR SLBU 021900Z NIL=METAR SLSA 021900Z 00000KT 6000 SCT080 34/17 Q1006 A2971 HR37 FU=METAR SLSR 021900Z 28008KT 5000 FU FEW020 SCT080 35/20 Q1006 A2973HR43 RWY NML=METAR SLSM 021900Z 15004KR 9999 NSC 36/17 Q1006 A2973 HR33 FU
ZPX0609 021901@CAELT@GG SLZZYMYT@CAELT@021901 SLVRYGYS@CAELT@SABO SLVR 021900@CAELT@METAR SLVR 021900Z 17007KT 9999 FEW023 34/12 Q1009 A2980 HR25 NOSIG=@CAELT@METAR SLET 021900Z 14003KT 9999 NSC 34/11 Q1009 A2980 HR25 NOSIG=@CAELT@METAR SLAS 021900Z 00000KT 8000 FEW020 37/22 Q1009 A2980 HR37 FU RWY@CAELT@NML=@CAELT@METAR SLJV 021900Z 00000KT 8000 NSC 32/20 Q1008 A2977 HR51 FU RWY NMLMETAR SLCP 021900Z 00000KT 7000 NSC 32/20 Q1011 A2985 HR49 CI FU RWYMETAR SLSI 021900Z 00000KT 9999 SCT017 FEW025CB 33/18 Q1008 A2977HR41 CB/NE/E RWY NML=METAR SLTI 021900Z 00000KT 9999 SCT020 37/17 Q1009 A2980 HR31 RWY NMLMETAR SLJE 021900Z 00000KT 9999 SCT020 SCT070 37/18 Q1011 A2985 HR33RWY NML=METAR SLVG 021900Z 36007KT 9999 SCT027 24/06 Q1022 A3018 HR26 RWY NMLMETAR SLRB 021900Z 00000KT 9999 SCT020 35/19 Q1010 A2983 HR40 RWY NMLMETAR SLPS 021900Z 00000KT 9999 FEW017 BKN070 35/25 Q1007 A2974 HR58=METAR SLCA 021900Z 00000KT 9999 FEW033 34/07 Q1013 A2991 HR20 RWY NML=
ZPX0610 021901@CAELT@GG SLZZYMYT@CAELT@021901 SLLPYFYA@CAELT@SABO SLLP 021900@CAELT@METAR SLLP 021900Z 14008KT 9999 SCT025 17/M04 Q1031 A3047 623.8@CAELT@HR23 P93// FU CI NOSIG=@CAELT@METAR SLRY 021900Z 00000KT 8000 SCT080 BKN200 35/17 Q1006 A2973 HR36@CAELT@FU RWY NML=@CAELT@METAR SLRQ 021900Z 16004KT 8000 FEW020 BKN200 35/19 Q1007 A2974 983.2HR40 FU=METAR SLSB 021900Z 00000KT 8000 SCT080 34/18 Q1007 A2976 HR40 FU RWYNML=
ZPX0614 021903@CAELT@GG SLZZYMYT@CAELT@021901 SLCBYGYS@CAELT@SABO SLCB 021900@CAELT@METAR SLCB 021900Z 14004KT 9999 FEW036 SCT200 28/02 Q1016 A3002 744.8@CAELT@HR19 FU NOSIG=@CAELT@METAR SLAL 021900Z 04007KT 9999 SCT023 18/02 Q1024 A3026 700.7 HR37=@CAELT@METAR SLPO 021900Z NIL=@CAELT@METAR SLAG 021900Z 17005KT 9999 SCT025 31/07 Q1014 A2995 886.6 HR23CI FU=METAR SLVM 021900Z NIL=METAR SLTJ 021900Z 14008KT 9999 SCT036 22/06 Q1019 A3009 814.1 HR35=METAR SLYA 021900Z NIL=METAR SLBJ 021900Z NIL=METAR SLHI 021900Z NIL=
ZPX0632 021952@CAELT@GG SLZZYMYT@CAELT@021952 SLETYMYC@CAELT@SABO SLET 022000@CAELT@METAR SLET 022000Z 12003KT 9999 NSC 34/11 Q1008 A2978 HR25 NOSIG=@CAELT@
ZPX0633 021953@CAELT@GG SLZZYMYT@CAELT@021953 SLRBYGYS@CAELT@SABO SLRB 022000@CAELT@METAR SLRB 022000Z 00000KT 9999 SCT020 35/20 Q1010 A2983 HR41 RWY NML=@CAELT@
ZPX0634 021953@CAELT@GG SLZZYMYT@CAELT@021953 SLPSYGYS@CAELT@SABO SLPS 022000@CAELT@METAR SLPS 022000Z 09004KT 9999 FEW017 SCT070 35/23 Q1007 A2974 HR52=@CAELT@
ZPX0635 021953@CAELT@GG SLZZYMYT@CAELT@021952 SLRYYSYX@CAELT@SABO SLRY 022000@CAELT@METAR SLRY 022000Z 00000KT 8000 NSC 35/18 Q1005 A2970 HR37 FU CI RWY@CAELT@NML=@CAELT@
ZPX0636 021954@CAELT@GG SLZZYMYT@CAELT@021954 SLCBYGYZ@CAELT@SABO SLCB 022000@CAELT@METAR SLCB 022000Z 23005KT 9999 FEW036 SCT200 28/01 Q1015 A2999 744.1@CAELT@HR17 AC FU NOSIG=@CAELT@
ZPX0637 021954@CAELT@GG SLZZYMYT@CAELT@021954 SLCAYGYS@CAELT@SABO SLCA 022000@CAELT@METAR SLCA 022000Z 00000KT 9999 FEW033 32/07 Q1012 A2988 HR21 RWY NML@CAELT@
ZPX0639 021955@CAELT@GG SLZZYMYT@CAELT@021954 SLSAYGYS@CAELT@SABO SLSA 022000@CAELT@METAR SLSA 022000Z 00000KT 6000 NSC 34/17 Q1006 A2971 HR35 FU=@CAELT@
ZPX0640 021956@CAELT@GG SLZZYMYT@CAELT@021956 SLVRYGYZ@CAELT@SABO SLVR 022000@CAELT@METAR SLVR 022000Z 10003KT 9999 FEW023 34/12 Q1008 A2978 HR25 NOSIG=@CAELT@
ZPX0641 021956@CAELT@GG SLZZYMYT@CAELT@021955 SLSBYSYX@CAELT@SABO SLSB 022000@CAELT@METAR SLSB 022000Z 00000KT 8000 SCT080 33/15 Q1006 A2972 HR34 FU RWY@CAELT@NML=@CAELT@
ZPX0642 021956@CAELT@GG SLZZYMYT@CAELT@021955 SLRQYSYX@CAELT@SABO SLRQ 022000@CAELT@METAR SLRQ 022000Z 10004KT 8000 FEW020 34/19 Q1002 A2971 982.2 HR41@CAELT@FU CI=@CAELT@
ZPX0643 021956@CAELT@GG SLZZYMYT@CAELT@021956 SLTRYGYZ@CAELT@SABO SLTR 022000@CAELT@METAR SLTR 022000Z 35003KT 5000 FU NSC 35/18 Q1005 A2970 987.2 HR36@CAELT@AC NOSIG=@CAELT@
ZPX0644 021956@CAELT@GG SLZZYMYT@CAELT@021955 SLLPYGYZ@CAELT@SABO SLLP 022000@CAELT@METAR SLLP 022000Z 13008KT 060V170 9999 SCT025 18/M05 Q1031 A3045@CAELT@623.4 HR21 P93// FU CI NOSIG=@CAELT@
ZPX0645 021956@CAELT@GG SLZZYMYT@CAELT@021957 SLTRYGYS@CAELT@SABO SLTR 022000@CAELT@METAR SLTR 022000Z 35003KT 5000 FU NSC 35/18 Q1005 A2970 987.2 HR36@CAELT@AC NOSIG=@CAELT@METAR SLGM 022000Z 12010KT 8000 VCSH BKN017 FEW020CB BKN200 27/25@CAELT@Q1007 A2974 HR89 FU CB/SH NE/E/SE=@CAELT@METAR SLRI 022000Z 32005KT 8000 FEW017 BKN080 27/25 Q1008 A2977 HR80METAR SLJO 022000Z NIL=METAR SLRA 022000Z 10003KT 5000 FU NSC 35/17 Q1006 A2971 HR34 ACRWY NML=METAR SLMG 022000Z 00000KT 5000 FU FEW080 34/18 Q1006 A2973 HR38METAR SLBU 022000Z NIL=METAR SLSA 022000Z 00000KT 6000 NSC 34/17 Q1006 A2971 HR35 FU=METAR SLSR 022000Z 30006KT 5000 FU FEW008 SCT200 34/19 Q1005 A2970HR42 RWY NML=METAR SLSM 022000Z 00000KT 9999 NSC 35/16 Q1005 A2970 HR33 FU
ZPX0646 021957@CAELT@GG SLZZYMYT@CAELT@021957 SLVRYGYS@CAELT@SABO SLVR 022000@CAELT@METAR SLVR 022000Z 10003KT 9999 FEW023 34/12 Q1008 A2978 HR25 NOSIG=@CAELT@METAR SLET 022000Z 12003KT 9999 NSC 34/11 Q1008 A2978 HR25 NOSIG=@CAELT@METAR SLAS 022000Z 00000KT 5000 FU SCT020 36/24 Q1008 A2977 HR50 RWY@CAELT@NML=@CAELT@METAR SLJV 022000Z 00000KT 7000 FEW017 31/20 Q1007 A2974 HR52 FU RWYMETAR SLCP 022000Z 00000KT 7000 NSC 32/20 Q1011 A2985 HR52 CI FU RWYMETAR SLSI 022000Z 00000KT 9999 BKN017 33/18 Q1007 A2974 HR41 RWYMETAR SLTI 022000Z 00000KT 9999 SCT020 36/16 Q1009 A2980 HR31 RWY NMLMETAR SLJE 022000Z 00000KT 9999 SCT020 SCT070 37/18 Q1010 A2983 HR33RWY NML=METAR SLVG 022000Z 16004KT 9999 SCT027 22/05 Q1022 A3018 HR25 RWY NMLMETAR SLRB 022000Z 00000KT 9999 SCT020 35/20 Q1010 A2983 HR41 RWY NMLMETAR SLPS 022000Z 09004KT 9999 FEW017 SCT070 35/23 Q1007 A2974 HR52=METAR SLCA 022000Z 00000KT 9999 FEW033 32/07 Q1012 A2988 HR21 RWY NML=
ZPX0647 021958@CAELT@GG SLZZYMYT@CAELT@021958 SLLPYFYA@CAELT@SABO SLLP 022000@CAELT@METAR SLLP 022000Z 13008KT 060V170 9999 SCT025 18/M05 Q1031@CAELT@A3045 623.4 HR21 P93// FU CI NOSIG=@CAELT@METAR SLRY 022000Z 00000KT 8000 NSC 35/18 Q1005 A2970 HR37@CAELT@FU CI RWY NML=@CAELT@METAR SLRQ 022000Z 10004KT 8000 FEW020 34/19 Q1002 A2971982.2 HR41 FU CI=METAR SLSB 022000Z 00000KT 8000 SCT080 33/15 Q1006 A2972HR34 FU RWY NML=
ZPX0649 021959@CAELT@GG SLZZYMYT@CAELT@021958 SLTJYGYZ@CAELT@SABO SLTJ 022000@CAELT@METAR SLTJ 022000Z 14008KT 9999 SCT036 SCT070 21/06 Q1018 A3008 813.9@CAELT@HR37=@CAELT@
ZPX0655 022004@CAELT@GG SLZZYMYT@CAELT@022001 SLCBYGYS@CAELT@SABO SLCB 022000@CAELT@METAR SLCB 022000Z 23005KT 9999 FEW036 SCT200 28/01 Q1015 A2999 744.1@CAELT@HR17 AC FU NOSIG=@CAELT@METAR SLAL 022000Z 04012KT 9999 SCT023 18/01 Q1024 A3025 700.5 HR34=@CAELT@METAR SLPO 022000Z NIL=@CAELT@METAR SLAG 022000Z NIL=METAR SLVM 022000Z NIL=METAR SLTJ 022000Z 14008KT 9999 SCT036 SCT070 21/06 Q1018 A3008 813.9HR37=METAR SLYA 022000Z NIL=METAR SLBJ 022000Z NIL=METAR SLHI 022000Z NIL=
ZPX0674 022052@CAELT@GG SLZZYMYT@CAELT@022052 SLPSYGYS@CAELT@SABO SLPS 022100@CAELT@METAR SLPS 022100Z 09004KT 9999 FEW017 SCT070 34/25 Q1006 A2971 HR59=@CAELT@
ZPX0675 022052@CAELT@GG SLZZYMYT@CAELT@022052 SLRYYSYX@CAELT@SABO SLRY 022100@CAELT@METAR SLRY 022100Z 00000KT 8000 NSC 34/20 Q1005 A2969 HR43 FU CI RWY@CAELT@NML=@CAELT@
ZPX0676 022052@CAELT@GG SLZZYMYT@CAELT@022052 SLETYMYC@CAELT@SABO SLET 022100@CAELT@METAR SLET 022100Z 08003KT 9999 NSC 33/12 Q1008 A2977 HR28 NOSWIG=@CAELT@
ZPX0677 022053@CAELT@GG SLZZYMYT@CAELT@022052 SLCAYGYS@CAELT@SABO SLCA 022100@CAELT@METAR SLCA 022100Z 00000KT 9999 SCT033 31/10 Q1012 A2988 HR27 RWY NML@CAELT@
ZPX0679 022054@CAELT@GG SLZZYMYT@CAELT@022054 SLCBYGYZ@CAELT@SABO SLCB 022100@CAELT@METAR SLCB 022100Z 11012KT 9999 FEW036 FEW040CB SCT200 27/03 Q1015@CAELT@A2998 743.8 HR20 CB ON STN/S AC FU NOSIG=@CAELT@
ZPX0680 022054@CAELT@GG SLZZYMYT@CAELT@022055 SLTJYGYZ@CAELT@SABO SLTJ 022100@CAELT@METAR SLTJ 022100Z 15012KT 9999 SCT036 21/07 Q1018 A3008 813.9 HR40@CAELT@
ZPX0681 022054@CAELT@GG SLZZYMYT@CAELT@022054 SLSAYGYS@CAELT@SABO SLSA 022100@CAELT@METAR SLSA 022100Z 00000KT 6000 NSC 33/17 Q1005 A2969 HR38 FU=@CAELT@
ZPX0682 022054@CAELT@GG SLZZYMYT@CAELT@022054 SLSAYGYS@CAELT@SABO SLSA 022100@CAELT@METAR SLSA 022100Z 00000KT 6000 NSC 33/17 Q1005 A2969 HR38 FU=@CAELT@
ZPX0683 022054@CAELT@GG SLZZYMYT@CAELT@022053 SLRBYGYS@CAELT@SABO SLRB 022100@CAELT@METAR SLRB 022100Z 00000KT 9999 FEW020 34/20 Q1009 A2980 HR45 RWY NML=@CAELT@
ZPX0685 022055@CAELT@GG SLZZYMYT@CAELT@022055 SLRQYSYX@CAELT@SABO SLRQ 022100@CAELT@METAR SLRQ 022100Z 09004KT 8000 FEW020 34/21 Q1005 A2970 981.7 HR49@CAELT@FU CI=@CAELT@
ZPX0687 022056@CAELT@GG SLZZYMYT@CAELT@022056 SLVRYGYS@CAELT@SABO SLVR 022100@CAELT@METAR SLVR 022100Z 10002KT 9999 NSC 33/11 Q1008 A2977 HR26 NOSIG=@CAELT@METAR SLET 022100Z 08003KT 9999 NSC 33/12 Q1008 A2977 HR28 NOSWIG=@CAELT@METAR SLAS 022100Z 00000KT 4000 FU FEW020 34/22 Q1008 A2977 HR48 RWY@CAELT@NML=@CAELT@METAR SLJV 022100Z 00000KT 7000 SCT017 31/22 Q1007 A2974 HR59 FU RWYMETAR SLCP 022100Z 00000KT 6000 NSC 31/21 Q1011 A2985 HR57 CI FU RWYNML =METAR SLSI 022100Z 00000KT 9999 SCT017 BKN070 32/18 Q1006 A2971 HR44RWY NML=METAR SLTI 022100Z 00000KT 9999 FEW020 36/16 Q1009 A2980 HR32 RWY NMLMETAR SLJE 022100Z 00000KT 9999 SCT020 BKN070 35/18 Q1010 A2983 HR37METAR SLVG 022100Z 17005KT 9999 SCT027 22/05 Q1021 A3015 HR28 RWY NMLMETAR SLRB 022100Z 00000KT 9999 FEW020 34/20 Q1009 A2980 HR45 RWY NMLMETAR SLPS 022100Z 09004KT 9999 FEW017 SCT070 34/25 Q1006 A2971 HR59=METAR SLCA 022100Z 00000KT 9999 SCT033 31/10 Q1012 A2988 HR27 RWY NML
ZPX0688 022056@CAELT@GG SLZZYMYT@CAELT@022055 SLVRYGYZ@CAELT@SABO SLVR 022100@CAELT@METAR SLVR 022100Z 10002KT 9999 NSC 33/11 Q1008 A2977 HR26 NOSIG=@CAELT@
ZPX0689 022056@CAELT@GG SLZZYMYT@CAELT@022056 SLTRYGYZ@CAELT@SABO SLTR 022100@CAELT@METAR SLTR 022100Z 03003KT 5000 FU NSC 34/17 Q1005 A2968 986.7 HR35@CAELT@AC NOSIG=@CAELT@
ZPX0690 022056@CAELT@GG SLZZYMYT@CAELT@022055 SLLPYGYZ@CAELT@SABO SLLP 022100@CAELT@METAR SLLP 022100Z 11010KT 080V140 9999 FEW025 17/M02 Q1030 A3043@CAELT@623.0 HR27 P4350 FU CI NOSIG=@CAELT@
ZPX0691 022058@CAELT@GG SLZZYMYT@CAELT@022058 SLSBYSYX@CAELT@SABO SLSB 022100@CAELT@METAR SLSB 022100Z 00000KT 8000 FEW080 33/20 Q1005 A2970 HR46 FU RWY@CAELT@NML=@CAELT@
ZPX0692 022058@CAELT@GG SLZZYMYT@CAELT@022058 SLTRYGYS@CAELT@SABO SLTR 022100@CAELT@METAR SLTR 022100Z 03003KT 5000 FU NSC 34/17 Q1005 A2968 986.7 HR35@CAELT@AC NOSIG=@CAELT@METAR SLGM 022100Z 08006KT 6000 VCSH BKN017 FEW020CB BKN080 29/25@CAELT@Q1006 A2973 HR78 FU CB/SH NE/E/SE/SW/W=@CAELT@METAR SLRI 022100Z 36005KT 8000 BKN080 28/24 Q1007 A2976 HR81 FU=METAR SLJO 022100Z NIL=METAR SLRA 022100Z 03004KT 5000 FU NSC 35/17 Q1005 A2970 HR35 ACRWY NML=METAR SLMG 022100Z 00000KT 6000 NSC 33/18 Q1006 A2972 HR39 FUMETAR SLBU 022100Z NIL=METAR SLSA 022100Z 00000KT 6000 NSC 33/17 Q1005 A2969 HR38 FU=METAR SLSR 022100Z 30008KT 5000 FU NSC 24/19 Q1005 A2969 HR42METAR SLSM 022100Z 00000KT 9999 NSC 34/18 Q1005 A2968 HR40 FUCC RWY NML=
ZPX0695 022101@CAELT@GG SLZZYMYT@CAELT@022100 SLLPYFYA@CAELT@SABO SLLP 022100@CAELT@METAR SLLP 022100Z 11010KT 080V140 9999 FEW025 17/M02 Q1030 A3043@CAELT@623.0 HR27 P4350 FU CI NOSIG=@CAELT@METAR SLRY 022100Z 00000KT 8000 NSC 34/20 Q1005 A2969 HR43 FU CI RWY@CAELT@NML=@CAELT@METAR SLRQ 022100Z 09004KT 8000 FEW020 34/21 Q1005 A2970 981.7 HR49FU CI=METAR SLSB 022100Z 00000KT 8000 FEW080 33/20 Q1005 A2970 HR46 FU RWY
ZPX0696 022101@CAELT@GG SLZZYMYT@CAELT@022100 SLCBYGYS@CAELT@SABO SLCB 022100@CAELT@METAR SLCB 022100Z 11012KT 9999 FEW036 FEW040CB SCT200 27/03 Q1015@CAELT@A2998 743.8 HR20 CB ON STN/S AC FU NOSIG=@CAELT@METAR SLAL 022100Z 06015KT 9999 SCT023 17/02 Q1024 A3026 700.7 HR37=@CAELT@METAR SLPO 022100Z NIL=@CAELT@METAR SLAG 022100Z NIL=METAR SLVM 022100Z NIL=METAR SLTJ 022100Z 15012KT 9999 SCT036 21/07 Q1018 A3008 813.9 HR40METAR SLYA 022100Z NIL=METAR SLBJ 022100Z NIL=METAR SLHI 022100Z NIL=
ZPX0717 022152@CAELT@GG SLZZYMYT@CAELT@022152 SLETYMYC@CAELT@SABO SLET 022200@CAELT@METAR SLET 022200Z 00000KT 9999 NSC 32/09 Q1008 A2977 HR24 NOSIG=@CAELT@
ZPX0718 022153@CAELT@GG SLZZYMYT@CAELT@022152 SLCAYGYS@CAELT@SABO SLCA 022200@CAELT@METAR SLCA 022200Z 00000KT 9999 FEW033 30/14 Q1013 A2991 HR38 RWY NML@CAELT@
ZPX0719 022154@CAELT@GG SLZZYMYT@CAELT@022153 SLRBYGYS@CAELT@SABO SLRB 022200@CAELT@METAR SLRB 022200Z 00000KT 9999 NSC 32/21 Q1009 A2980 HR51 RWY NML=@CAELT@
ZPX0720 022154@CAELT@GG SLZZYMYT@CAELT@022154 SLCBYGYZ@CAELT@SABO SLCB 022200@CAELT@METAR SLCB 022200Z 11012KT 9999 FEW036 FEW040CB SCT200 24/02 Q1016@CAELT@A3001 744.7 HR23 CB SE/SW AC FU NOSIG=@CAELT@
ZPX0722 022154@CAELT@GG SLZZYMYT@CAELT@022154 SLPSYGYS@CAELT@SABO SLPS 022200@CAELT@METAR SLPS 022200Z 00000KT 9999 FEW020 32/25 Q1007 A2974 HR70=@CAELT@
ZPX0723 022154@CAELT@GG SLZZYMYT@CAELT@022155 SLRQYSYX@CAELT@SABO SLRQ 022200@CAELT@METAR SLRQ 022200Z 00000KT 8000 NSC 31/23 Q1005 A2970 981.6 HR61 FU@CAELT@
ZPX0724 022154@CAELT@GG SLZZYMYT@CAELT@022154 SLSAYGYS@CAELT@SABO SLSA 022200@CAELT@METAR SLSA 022200Z 00000KT 6000 NSC 33/19 Q1005 A2968 HR42 FU=@CAELT@
ZPX0725 022154@CAELT@GG SLZZYMYT@CAELT@022154 SLSAYGYS@CAELT@SABO SLSA 022200@CAELT@METAR SLSA 022200Z 00000KT 6000 NSC 33/19 Q1005 A2968 HR42 FU=@CAELT@
ZPX0726 022155@CAELT@GG SLZZYMYT@CAELT@022156 SLVRYGYZ@CAELT@SABO SLVR 022200@CAELT@METAR SLVR 022200Z VRB02KT 9999 NSC 31/13 Q1008 A2977 HR34 FU NOSIG=@CAELT@
ZPX0727 022155@CAELT@GG SLZZYMYT@CAELT@022155 SLSBYSYX@CAELT@SABO SLSB 022200@CAELT@METAR SLSB 022200Z 00000KT 8000 NSC 32/22 Q1005 A2970 HR56 FU RWY NML=@CAELT@
ZPX0728 022155@CAELT@GG SLZZYMYT@CAELT@022156 SLTJYGYZ@CAELT@SABO SLTJ 022200@CAELT@METAR SLTJ 022200Z 13010KT 9999 SCT036 20/08 Q1019 A3010 814.3 HR44@CAELT@
ZPX0729 022155@CAELT@GG SLZZYMYT@CAELT@022156 SLVRYGYS@CAELT@SABO SLVR 022200@CAELT@METAR SLVR 022200Z VRB02KT 9999 NSC 31/13 Q1008 A2977 HR34 FU NOSIG=@CAELT@METAR SLET 022200Z 00000KT 9999 NSC 32/09 Q1008 A2977 HR24 NOSIG=@CAELT@METAR SLAS 022200Z 00000KT 3000 FU FEW020 32/22 Q1008 A2977 HR55 RWY@CAELT@NML=@CAELT@METAR SLJV 022200Z 00000KT 6000 SCT017 30/23 Q1007 A2974 HR68 FU RWYMETAR SLCP 022200Z 00000KT 6000 NSC 29/22 Q1011 A2985 HR63 FU CI RWYMETAR SLSI 022200Z 00000KT 9999 BKN070 31/20 Q1006 A2971 HR52 RWYMETAR SLTI 022200Z 00000KT 9999 NSC 34/16 Q1009 A2980 HR35 RWY NML=METAR SLJE 022200Z 00000KT 9999 FEW020 SCT070 35/18 Q1010 A2983 HR38RWY NML=METAR SLRB 022200Z 00000KT 9999 NSC 32/21 Q1009 A2980 HR51 RWY NML=METAR SLPS 022200Z 00000KT 9999 FEW020 32/25 Q1007 A2974 HR70=METAR SLCA 022200Z 00000KT 9999 FEW033 30/14 Q1013 A2991 HR38 RWY NML
ZPX0731 022156@CAELT@GG SLZZYMYT@CAELT@022155 SLLPYGYZ@CAELT@SABO SLLP 022200@CAELT@METAR SLLP 022200Z 09011KT 060V120 9999 FEW025 15/00 Q1030 A3042@CAELT@622.8 HR36 P90// FU CI NOSIG=@CAELT@
