
ZPX0002 150001@CAELT@GG SLZZYMYT@CAELT@150000 SLVRYGYU@CAELT@SABO SLVR 150000@CAELT@METAR SLVR 150000Z 35013KT 99999 SCT010 29/23 Q1004 A2967 HR71 CI@CAELT@BOSIG=@CAELT@
ZPX0004 150012@CAELT@GG SLZZYMYT@CAELT@150011 SLVRYGYU@CAELT@SABO SLVR 150000 CCA@CAELT@METAR COR SLVR 150000Z 35013KT 9999 SCT010 29/23 Q1004 A2967 HR71 CI@CAELT@NOSIG=@CAELT@
ZPX0010 150055@CAELT@GG SLZZYMYT@CAELT@150056 SLVRYGYZ@CAELT@SABO SLVR 150100@CAELT@METAR SLVR 150100Z 35008KT 9999 SCT010 28/23 Q1005 A2969 HR74 CI@CAELT@NOSIG=@CAELT@
ZPX0011 150056@CAELT@GG SLLPZRZX@CAELT@150055 SLLPYGYZ@CAELT@SABO SLLP 150100@CAELT@METAR SLLP 150100Z 04009KT 9999 FEW015 SCT200 11/M07 Q1034 A3056@CAELT@625.8 HR27 NOSIG=@CAELT@
ZPX0012 150058@CAELT@GG SLZZYMYT@CAELT@150057 SLCBYGYZ@CAELT@SABO SLCB 150100@CAELT@METAR SLCB 150100Z 32004KT 9999 FEW040 21/04 Q1020 A3012 747.5 HR32@CAELT@FU NOSIG=@CAELT@
ZPX0020 150154@CAELT@GG SLZZYMYT@CAELT@150155 SLCBYGYZ@CAELT@SABO SLCB 150200@CAELT@METAR SLCB 150200Z 13004KT 9999 NSC 20/04 Q1020 A3013 747.8 HR35 FU@CAELT@NOSIG=@CAELT@
ZPX0021 150155@CAELT@GG SLZZYMYT@CAELT@150156 SLVRYGYZ@CAELT@SABO SLVR 150200@CAELT@METAR SLVR 150200Z 34011KT 9999 SCT010 27/23 Q1006 A2971 HR76 CI@CAELT@NOSIG=@CAELT@
ZPX0022 150156@CAELT@GG SLLPZRZX@CAELT@150155 SLLPYGYZ@CAELT@SABO SLLP 150200@CAELT@METAR SLLP 150200Z 12005KT 9999 FEW015 09/M05 Q1036 A3060 626.7@CAELT@HR37 CI NOSIG=@CAELT@
ZPX0031 150255@CAELT@GG SLZZYMYT@CAELT@150255 SLVRYGYZ@CAELT@SABO SLVR 150300@CAELT@METAR SLVR 150300Z 34012KT 9999 FEW010 SCT200 27/23 Q1006 A2972 HR77@CAELT@NOSIG=@CAELT@
ZPX0032 150256@CAELT@GG SLLPZRZX@CAELT@150255 SLLPYGYZ@CAELT@SABO SLLP 150300@CAELT@METAR SLLP 150300Z VRB02KT 9999 NSC 07/M04 Q1036 A3062 627.2 HR47@CAELT@CI NOSIG=@CAELT@
ZPX0033 150257@CAELT@GG SLZZYMYT@CAELT@150257 SLCBYGYZ@CAELT@SABO SLCB 150300@CAELT@METAR SLCB 150300Z 14003KT 9999 NSC 19/05 Q1020 A3014 747.9 HR40 FU@CAELT@NOSIG=@CAELT@
ZPX0043 150355@CAELT@GG SLZZYMYT@CAELT@150355 SLVRYGYZ@CAELT@SABO SLVR 150400@CAELT@METAR SLVR 150400Z 35013G23KT 9999 FEW010 SCT200 27/23 Q1006 A2971@CAELT@HR79 NOSIG=@CAELT@
ZPX0044 150356@CAELT@GG SLLPZRZX@CAELT@150355 SLLPYGYZ@CAELT@SABO SLLP 150400@CAELT@METAR SLLP 150400Z VRB02KT 9999 NSC 05/M07 Q1036 A3062 627.1 HR42@CAELT@CI NOSIG=@CAELT@
ZPX0045 150357@CAELT@GG SLZZYMYT@CAELT@150357 SLCBYGYZ@CAELT@SABO SLCB 150400@CAELT@METAR SLCB 150400Z 08005KT 9999 NSC 19/05 Q1020 A3013 747.7 HR38 FU@CAELT@NOSIG=@CAELT@
ZPX0054 150454@CAELT@GG SLZZYMYT@CAELT@150455 SLVRYGYZ@CAELT@SABO SLVR 150500@CAELT@METAR SLVR 150500Z 36010G20KT 9999 NSC 27/23 Q1005 A2970 HR81 CI@CAELT@NOSIG=@CAELT@
ZPX0055 150455@CAELT@GG SLZZYMYT@CAELT@150455 SLCBYGYZ@CAELT@SABO SLCB 150500@CAELT@METAR SLCB 150500Z 00000KT 9999 NSC 18/03 Q1020 A3012 747.5 HR37 FU@CAELT@NOSIG=@CAELT@
ZPX0056 150456@CAELT@GG SLLPZRZX@CAELT@150455 SLLPYGYZ@CAELT@SABO SLLP 150500@CAELT@METAR SLLP 150500Z VRB02KT 9999 NSC 04/M02 Q1036 A3059 626.6 HR62@CAELT@CI NOSIG=@CAELT@
ZPX0063 150555@CAELT@GG SLZZYMYT@CAELT@150555 SLCBYGYZ@CAELT@SABO SLCB 150600@CAELT@METAR SLCB 150600Z 00000KT 9999 NSC 15/05 Q1019 A3012 747.4 HR51 FU@CAELT@NOSIG=@CAELT@
ZPX0064 150556@CAELT@GG SLLPZRZX@CAELT@150555 SLLPYGYZ@CAELT@SABO SLLP 150600@CAELT@METAR SLLP 150600Z VRB02KT 9999 NSC 04/M09 Q1035 A3057 626.1 HR36@CAELT@CI NOSIG=@CAELT@
ZPX0065 150558@CAELT@GG SLZZYMYT@CAELT@150558 SLVRYGYZ@CAELT@SABO SLVR 150600@CAELT@METAR SLVR 150600Z 35011G21KT 9999 NSC 26/23 Q1005 A2970 HR82 CI@CAELT@NOSIG=@CAELT@
ZPX0072 150655@CAELT@GG SLZZYMYT@CAELT@150655 SLCBYGYZ@CAELT@SABO SLCB 150700@CAELT@METAR SLCB 150700Z 00000KT 9999 NSC 16/04 Q1019 A3012 747.4 HR46 FU@CAELT@NOSIG=@CAELT@
ZPX0073 150655@CAELT@GG SLLPZRZX@CAELT@150655 SLLPYGYZ@CAELT@SABO SLLP 150700@CAELT@METAR SLLP 150700Z 08004KT 9999 FEW010 01/M08 Q1034 A3056 625.9 HR50@CAELT@CI NOSIG=@CAELT@
ZPX0074 150658@CAELT@GG SLZZYMYT@CAELT@150659 SLVRYGYZ@CAELT@SABO SLVR 150700@CAELT@METAR SLVR 150700Z 33010KT 9999 NSC 26/23 Q1006 A2973 HR81 NOSIG =@CAELT@
ZPX0081 150754@CAELT@GG SLZZYMYT@CAELT@150755 SLVRYGYZ@CAELT@SABO SLVR 150800@CAELT@METAR SLVR 150800Z 33008KT 9999 NSC 26/23 Q1007 A2975 HR84 NOSIG =@CAELT@
ZPX0082 150755@CAELT@GG SLZZYMYT@CAELT@150755 SLCBYGYZ@CAELT@SABO SLCB 150800@CAELT@METAR SLCB 150800Z 00000KT 9999 NSC 15/05 Q1020 A3012 747.5 HR52 FU@CAELT@NOSIG=@CAELT@
ZPX0083 150756@CAELT@GG SLLPZRZX@CAELT@150755 SLLPYGYZ@CAELT@SABO SLLP 150800@CAELT@METAR SLLP 150800Z 07006KT 9999 FEW010 01/M01 Q1035 A3056 626.0@CAELT@HR85 CI NOSIG=@CAELT@
ZPX0091 150856@CAELT@GG SLZZYMYT@CAELT@150857 SLVRYGYZ@CAELT@SABO SLVR 150900@CAELT@METAR SLVR 150900Z 35009KT 9999 FEW008 SCT200 25/23 Q1008 A2978 HR86@CAELT@NOSIG =@CAELT@
ZPX0092 150857@CAELT@GG SLZZYMYT@CAELT@150857 SLTRYGYZ@CAELT@SABO SLTR 150900@CAELT@METAR SLTR 150900Z 32005KT 9999 NSC 24/22 Q1006 A2974 988.5 HR88@CAELT@CI NOSIG=@CAELT@
ZPX0093 150857@CAELT@GG SLLPZRZX@CAELT@150857 SLLPYGYZ@CAELT@SABO SLLP 150900@CAELT@METAR SLLP 150900Z 07006KT 9999 FEW010 00/M01 Q1035 A3056 626.0@CAELT@HR88 CI NOSIG=@CAELT@
ZPX0094 150858@CAELT@GG SLZZYMYT@CAELT@150857 SLCBYGYZ@CAELT@SABO SLCB 150900@CAELT@METAR SLCB 150900Z 29004KT 9999 NSC 14/05 Q1020 A3014 748.1 HR54 FU@CAELT@CI NOSIG=@CAELT@
ZPX0095 150858@CAELT@GG SLZZYMYT@CAELT@150858 SLTRYGYS@CAELT@SABO SLTR 150900@CAELT@METAR SLTR 150900Z 32005KT 9999 NSC 24/22 Q1006 A2974 988.5 HR88@CAELT@CI NOSIG=@CAELT@METAR SLRI 150900Z 00000KT 8000 SCT020 24/24 Q1008 A2979 HR98 FU CI=@CAELT@
ZPX0107 150951@CAELT@GG SLZZYMYT@CAELT@150951 SLCAYGYS@CAELT@SABO SLCA 151000@CAELT@METAR SLCA 151000Z 00000KT 9999 BKN033 BKN070 25/19 Q1012 A2977 HR69@CAELT@RWY NML=@CAELT@
ZPX0108 150954@CAELT@GG SLZZYMYT@CAELT@150955 SLVRYGYZ@CAELT@SABO SLVR 151000@CAELT@METAR SLVR 151000Z 36010KT 9999 FEW020 SCT200 24/23 Q1008 A2979 HR90@CAELT@NOSIG =@CAELT@
ZPX0109 150954@CAELT@GG SLZZYMYT@CAELT@150955 SLLPYFYA@CAELT@SABO SLRY 151000@CAELT@METAR SLRY 151000Z 00000KT 9999 NSC 20/20 Q1006@CAELT@A2973 HR98 CI RWY NML=@CAELT@
ZPX0110 150955@CAELT@GG SLZZYMYT@CAELT@150955 SLLPYGYZ@CAELT@SABO SLLP 151000@CAELT@METAR SLLP 151000Z 06004KT 9999 FEW010 M01/M04 Q1035 A3058 626.3@CAELT@HR83 P91// AC CI NOSIG=@CAELT@
ZPX0111 150955@CAELT@GG SLZZYMYT@CAELT@150955 SLCBYGYZ@CAELT@SABO SLCB 151000@CAELT@METAR SLCB 151000Z 21003KT 8000 NSC 12/06 Q1021 A3016 748.6 HR66 FU@CAELT@CI NOSIG=@CAELT@
ZPX0112 150956@CAELT@GG SLZZYMYT@CAELT@150955 SLSAYGYS@CAELT@SABO SLSA 151000@CAELT@METAR SLSA 151000Z 00000KT 9999 NSC 24/23 Q1006 A2973 HR96 CI=@CAELT@
ZPX0113 150956@CAELT@GG SLZZYMYT@CAELT@150955 SLSAYGYS@CAELT@SABO SLSA 151000@CAELT@METAR SLSA 151000Z 00000KT 9999 NSC 24/23 Q1006 A2973 HR96 CI=@CAELT@
ZPX0114 150956@CAELT@GG SLZZYMYT@CAELT@150956 SLTRYGYZ@CAELT@SABO SLTR 151000@CAELT@METAR SLTR 151000Z 31005KT 9999 NSC 24/22 Q1007 A2975 989.1 HR89@CAELT@CI NOSIG=@CAELT@
ZPX0116 150957@CAELT@GG SLZZYMYT@CAELT@150956 SLSBYSYX@CAELT@SABO SLSB 151000@CAELT@METAR SLSB 151000Z 00000KT 9999 NSC 22/22 Q1006 A2971 HR98 AC RWY NML=@CAELT@
ZPX0117 150957@CAELT@GG SLZZYMYT@CAELT@150956 SLRQYSYX@CAELT@SABO SLRQ 151000@CAELT@METAR SLRQ 151000Z 00000KT 9999 NSC 23/23 Q1006 A2972 982.5 HR98 CI=@CAELT@
ZPX0118 150957@CAELT@GG SLZZYMYT@CAELT@150955 SLETYMYC@CAELT@SABO SLET 151000@CAELT@METAR SLET 151000Z 32011G22KT 9999 FEW008 SCT025 25/22 Q1008 A2977@CAELT@HR86 NOSIG=@CAELT@
ZPX0119 150957@CAELT@GG SLZZYMYT@CAELT@150956 SLRBYGYS@CAELT@SABO SLRB 151000@CAELT@METAR SLRB 151000Z 00000KT 9999 NSC 26/23 Q1011 A2985 HR85 RWY NML=@CAELT@
ZPX0121 150958@CAELT@GG SLZZYMYT@CAELT@150958 SLVRYGYS@CAELT@SABO SLVR 151000@CAELT@METAR SLVR 151000Z 36010KT 9999 FEW020 SCT200 24/23 Q1008 A2979 HR90@CAELT@NOSIG=@CAELT@METAR SLET 151000Z 32011G22KT 9999 FEW008 SCT025 25/22 Q1008 A2977@CAELT@HR86 NOSIG=@CAELT@METAR SLCP 151000Z 00000KT 9999 NSC 23/23 Q1013 A2991 HR96 RWY NML=METAR SLSI 151000Z 00000KT 9999 NSC 25/23 Q1010 A2983 HR88 RWY NML=METAR SLRB 151000Z 00000KT 9999 NSC 26/23 Q1011 A2985 HR85 RWY NML=METAR SLCA 151000Z 00000KT 9999 BKN033 BKN070 25/19 Q1012 A2977 HR69RWY NML=
ZPX0123 151000@CAELT@GG SLZZYMYT@CAELT@150959 SLTRYGYS@CAELT@SABO SLTR 151000@CAELT@METAR SLTR 151000Z 31005KT 9999 NSC 24/22 Q1007 A2975 989.1 HR89@CAELT@CI NOSIG=@CAELT@METAR SLGM 151000Z 00000KT 9999 NSC 24/23 Q1009 A2979 HR96 CI=@CAELT@METAR SLRI 151000Z 00000KT 8000 FEW006 SCT020 24/23 Q1009 A2982 HR97@CAELT@FU AC/CI=METAR SLJO 151000Z 00000KT 9999 FEW020 BKN200 24/23 Q1007 A2976HR94 RWY NML=METAR SLRA 151000Z 00000KT 9999 FEW020 24/24 Q1007 A2976 HR95CI RWY NML=METAR SLMG 151000Z 00000KT 8000 NSC 24/23 Q1008 A2977 HR93 CIMETAR SLBU 151000Z NIL=METAR SLSA 151000Z 00000KT 9999 NSC 24/23 Q1006 A2973 HR96 CI=METAR SLSR 151000Z 32006KT 9999 NSC 24/22 Q1005 A2970 HR88 CIRWY NML=METAR SLSM 151000Z 00000KT 9999 NSC 23/23 Q1006 A2973 HR97 CI
ZPX0124 151001@CAELT@GG SLZZYMYT@CAELT@151000 SLLPYFYA@CAELT@SABO SLLP 151000@CAELT@METAR SLLP 151000Z 06004KT 9999 FEW010 M01/M04 Q1035 A3058@CAELT@626.3 HR83 P91// AC CI NOSIG=@CAELT@METAR SLRY 151000Z 00000KT 9999 NSC 20/20 Q1006@CAELT@A2973 HR98 CI RWY NML=@CAELT@METAR SLRQ 151000Z 00000KT 9999 NSC 23/23 Q1006 A2972 982.5HR98 CI=METAR SLSB 151000Z 00000KT 9999 NSC 22/22 Q1006 A2971 HR98AC RWY NML=
ZPX0134 151053@CAELT@GG SLZZYMYT@CAELT@151053 SLCAYGYS@CAELT@SABO SLCA 151100@CAELT@METAR SLCA 151100Z 00000KT 9999 BKN033 OVC070 24/19 Q1014 A2994 HR72@CAELT@RWY NML=@CAELT@
ZPX0135 151054@CAELT@GG SLZZYMYT@CAELT@151054 SLVRYGYZ@CAELT@SABO SLVR 151100@CAELT@METAR SLVR 151100Z 34009KT 9999 SCT023 SCT200 25/23 Q1010 A2982 HR85@CAELT@NOSIG =@CAELT@
ZPX0136 151054@CAELT@GG SLZZYMYT@CAELT@151055 SLLPYFYA@CAELT@SABO SLRY 151100@CAELT@METAR SLRY 151100Z 00000KT 9999 NSC 21/21 Q1006 A2973 HR97 CI@CAELT@RWY NML=@CAELT@
ZPX0137 151055@CAELT@GG SLZZYMYT@CAELT@151055 SLSAYGYS@CAELT@SABO SLSA 151100@CAELT@METAR SLSA 151100Z 33005KT 9999 NSC 25/24 Q1007 A2976 HR92 CI=@CAELT@
ZPX0138 151055@CAELT@GG SLZZYMYT@CAELT@151055 SLSAYGYS@CAELT@SABO SLSA 151100@CAELT@METAR SLSA 151100Z 33005KT 9999 NSC 25/24 Q1007 A2976 HR92 CI=@CAELT@
ZPX0139 151055@CAELT@GG SLZZYMYT@CAELT@151056 SLTRYGYZ@CAELT@SABO SLTR 151100@CAELT@METAR SLTR 151100Z 33006KT 9999 NSC 26/23 Q1008 A2979 990.4 HR86@CAELT@CI NOSIG=@CAELT@
ZPX0140 151055@CAELT@GG SLZZYMYT@CAELT@151055 SLLPYGYZ@CAELT@SABO SLLP 151100@CAELT@METAR SLLP 151100Z VRB02KT 9999 FEW010 SCT200 07/M04 Q1036 A3062@CAELT@627.2 HR45 P90// AC NOSIG=@CAELT@
ZPX0143 151056@CAELT@GG SLZZYMYT@CAELT@151056 SLRBYGYS@CAELT@SABO SLRB 151100@CAELT@METAR SLRB 151100Z 00000KT 9999 NSC 27/24 Q1012 A2988 HR82 RWY NML=@CAELT@
ZPX0146 151057@CAELT@GG SLZZYMYT@CAELT@151056 SLTRYGYS@CAELT@SABO SLTR 151100@CAELT@METAR SLTR 151100Z 33006KT 9999 NSC 26/23 Q1008 A2979 990.4 HR86@CAELT@CI NOSIG=@CAELT@METAR SLGM 151100Z 00000KT 9999 BKN080 25/24 Q1010 A2982 HR92 CI=@CAELT@METAR SLRI 151100Z 00000KT 8000 FEW015 SCT200 26/23 Q1010 A2985 HR80@CAELT@METAR SLJO 151100Z 00000KT 9999 NSC 25/24 Q1008 A2978 HR92 CIRWY NML=METAR SLRA 151100Z 00000KT 9999 FEW020 26/23 Q1008 A2977 HR88CI RWY NML=METAR SLMG 151100Z 00000KT 8000 NSC 26/24 Q1009 A2980 HR89 FUMETAR SLBU 151100Z NIL=METAR SLSA 151100Z 33005KT 9999 NSC 25/24 Q1007 A2976 HR92 CI=METAR SLSR 151100Z 32008KT 9999 NSC 25/22 Q1006 A2973 HR82 CIMETAR SLSM 151100Z 00000KT 9999 NSC 24/24 Q1007 A2975 HR97 CI
ZPX0147 151057@CAELT@GG SLZZYMYT@CAELT@151056 SLSBYSYX@CAELT@SABO SLSB 151100@CAELT@METAR SLSB 151100Z 00000KT 9999 NSC 23/22 Q1007 A2976 HR96 RWY NML=@CAELT@
ZPX0148 151058@CAELT@GG SLZZYMYT@CAELT@151057 SLCBYGYZ@CAELT@SABO SLCB 151100@CAELT@METAR SLCB 151100Z VRB02KT 9999 NSC 17/07 Q1023 A3021 749.8 HR51 FU@CAELT@CI NOSIG=@CAELT@
ZPX0154 151100@CAELT@GG SLZZYMYT@CAELT@151100 SLVRYGYS@CAELT@SABO SLVR 151100@CAELT@METAR SLVR 151100Z 34009KT 9999 SCT023 SCT200 25/23 Q1010 A2982 HR85@CAELT@NOSIG =@CAELT@METAR SLET 151100Z 31012KT 9999 FEW008 SCT070 25/23 Q1010 A2982 HR86@CAELT@NOSIG=@CAELT@METAR SLAS 151100Z NIL=METAR SLJV 151100Z 36005KT 9999 NSC 25/23 Q1010 A2983 HR86 RWY NML=METAR SLCP 151100Z 00000KT 9999 NSC 24/23 Q1014 A2994 HR94 RWY NML=METAR SLSI 151100Z 00000KT 9999 NSC 26/23 Q1011 A2985 HR84 RWY NML=METAR SLTI 151100Z 00000KT 9999 NSC 28/22 Q1014 A2994 HR76 RWY NML=METAR SLJE 151100Z 00000KT 9999 SCT015 BKN200 28/22 Q1012 A2988 HR70FU RWY NML=METAR SLRB 151100Z 00000KT 9999 NSC 27/24 Q1012 A2988 HR82 RWY NML=METAR SLCA 151100Z 00000KT 9999 BKN033 OVC070 24/19 Q1014 A2994 HR72RWY NML=
ZPX0155 151101@CAELT@GG SLZZYMYT@CAELT@151100 SLRQYSYX@CAELT@SABO SLRQ 151100@CAELT@METAR SLRQ 151100Z 00000KT 9999 NSC 23/23 Q1008 A2977 HR98 CI=@CAELT@
ZPX0160 151105@CAELT@GG SLZZYMYT@CAELT@151104 SLLPYFYA@CAELT@SABO SLLP 151100@CAELT@METAR SLLP 151100Z VRB02KT 9999 FEW010 SCT200 07/M04 Q1036 A3062@CAELT@627.2 HR45 P90// AC NOSIG=@CAELT@METAR SLRY 151100Z 00000KT 9999 NSC 21/21 Q1006 A2973 HR97 CI@CAELT@RWY NML=@CAELT@METAR SLRQ 151100Z 00000KT 9999 NSC 23/23 Q1008 A2977 HR98 CI=METAR SLSB 151100Z 00000KT 9999 NSC 23/22 Q1007 A2976 HR96
ZPX0164 151113@CAELT@GG SLZZYMYT@CAELT@151113 SLVRYGYS@CAELT@SABO SLVR 151100 RRA@CAELT@METAR SLVR 151100Z 34009KT 9999 SCT023 SCT200 25/23 Q1010 A2982 HR85@CAELT@NOSIG =@CAELT@METAR SLET 151100Z 31012KT 9999 FEW008 SCT070 25/23 Q1010 A2982 HR86@CAELT@NOSIG=@CAELT@METAR RTD SLAS 151100Z 00000KT 9999 NSC 23/22 Q1010 A2983 HR94 RWYNML=METAR SLJV 151100Z 36005KT 9999 NSC 25/23 Q1010 A2983 HR86 RWY NML=METAR SLCP 151100Z 00000KT 9999 NSC 24/23 Q1014 A2994 HR94 RWY NML=METAR SLSI 151100Z 00000KT 9999 NSC 26/23 Q1011 A2985 HR84 RWY NML=METAR SLTI 151100Z 00000KT 9999 NSC 28/22 Q1014 A2994 HR76 RWY NML=METAR SLJE 151100Z 00000KT 9999 SCT015 BKN200 28/22 Q1012 A2988 HR70FU RWY NML=METAR SLRB 151100Z 00000KT 9999 NSC 27/24 Q1012 A2988 HR82 RWY NML=METAR SLCA 151100Z 00000KT 9999 BKN033 OVC070 24/19 Q1014 A2994 HR72RWY NML=
ZPX0174 151154@CAELT@GG SLZZYMYT@CAELT@151153 SLETYMYC@CAELT@SABO SLET 151200Z@CAELT@METAR SLET 151200Z 30010KT 9999 FEW010 SCT015 27/23 Q1010 A2985 HR 78@CAELT@NOSIG=@CAELT@
ZPX0175 151155@CAELT@GG SLZZYMYT@CAELT@151155 SLSBYSYX@CAELT@SABO SLSB 151200@CAELT@METAR SLSB 151200Z 32003KT 9999 NSC 26/23 Q1008 A2977 HR86 RWY NML=@CAELT@
ZPX0176 151155@CAELT@GG SLZZYMYT@CAELT@151154 SLSAYGYS@CAELT@SABO SLSA 151200@CAELT@METAR SLSA 151200Z 33010KT 9999 NSC 27/24 Q1008 A2979 HR84 CI=@CAELT@
ZPX0177 151155@CAELT@GG SLZZYMYT@CAELT@151156 SLVRYGYZ@CAELT@SABO SLVR 151200@CAELT@METAR SLVR 151200Z 34013KT 9999 SCT017 SCT070 28/23 Q1011 A2986 HR75@CAELT@NOSIG =@CAELT@
ZPX0178 151155@CAELT@GG SLZZYMYT@CAELT@151155 SLLPYGYZ@CAELT@SABO SLLP 151200@CAELT@METAR SLLP 151200Z 13007KT 9999 FEW013 BKN200 12/M01 Q1037 A3065@CAELT@627.8 HR40 P90// HZ SW/W AC NOSIG=@CAELT@
ZPX0179 151156@CAELT@GG SLZZYMYT@CAELT@151155 SLLPYFYA@CAELT@SABO SLRY 151200@CAELT@METAR SLRY 151200Z 00000KT 9999 NSC 26/23 Q1007 A2976 HR83@CAELT@RWY NML=@CAELT@
ZPX0180 151156@CAELT@GG SLZZYMYT@CAELT@151156 SLCAYGYS@CAELT@SABO SLCA 151200@CAELT@METAR SLCA 151200Z 18004KT 9999 BKN033 OVC070 23/19 Q1015 A2997 HR75@CAELT@RWY NML=@CAELT@
ZPX0181 151156@CAELT@GG SLZZYMYT@CAELT@151156 SLRBYGYS@CAELT@SABO SLRB 151200@CAELT@METAR SLRB 151200Z 36015KT 9999 NSC 30/23 Q1013 A2991 HR66 RWY NML=@CAELT@
ZPX0182 151156@CAELT@GG SLZZYMYT@CAELT@151156 SLTRYGYZ@CAELT@SABO SLTR 151200@CAELT@METAR SLTR 151200Z 31008KT 9999 NSC 28/23 Q1010 A2983 991.5 HR71@CAELT@CI NOSIG=@CAELT@
ZPX0183 151157@CAELT@GG SLZZYMYT@CAELT@151156 SLRQYSYX@CAELT@SABO SLRQ 151200@CAELT@METAR SLRQ 151200Z 00000KT 9999 NSC 26/23 Q1009 A2980 HR86 CI=@CAELT@
ZPX0185 151158@CAELT@GG SLZZYMYT@CAELT@151157 SLCBYGYZ@CAELT@SABO SLCB 151200@CAELT@METAR SLCB 151200Z 24003KT 9999 NSC 21/07 Q1023 A3023 750.5 HR40 FU@CAELT@CI NOSIG=@CAELT@
ZPX0186 151158@CAELT@GG SLZZYMYT@CAELT@151158 SLVRYGYS@CAELT@SABO SLVR 151200@CAELT@METAR SLVR 151200Z 34013KT 9999 SCT017 SCT070 28/23 Q1011 A2986 HR75@CAELT@NOSIG=@CAELT@METAR SLET 151200Z 30010KT 9999 FEW010 SCT015 27/23 Q1010 A2985 HR78@CAELT@METAR SLAS 151200Z 34006KT 9999 NSC 27/23 Q1012 A2989 HR79 RWY NML=@CAELT@METAR SLJV 151200Z 36005KT 9999 SCT013 27/23 Q1011 A2985 HR77 RWY NMLMETAR SLCP 151200Z 00000KT 9999 FEW020 26/23 Q1015 A2997 HR87 RWY NMLMETAR SLSI 151200Z 33006KT 9999 NSC 28/23 Q1012 A2988 HR74 RWY NML=METAR SLTI 151200Z 36005KT 9999 SCT020 29/22 Q1015 A2997 HR67 RWY NMLMETAR SLJE 151200Z 36005KT 9999 FEW015 BKN200 31/24 Q1013 A2991 HR65FU RWY NML=METAR SLVG 151200Z 00000KT 9999 BKN017 19/15 Q1023 A3021 HR74 RWY NMLMETAR SLRB 151200Z 36015KT 9999 NSC 30/23 Q1013 A2991 HR66 RWY NML=METAR SLCA 151200Z 18004KT 9999 BKN033 OVC070 23/19 Q1015 A2997 HR75RWY NML=
ZPX0187 151159@CAELT@GG SLZZYMYT@CAELT@151159 SLCBYGYS@CAELT@SABO SLCB 151200@CAELT@METAR SLCB 151200Z 24003KT 9999 NSC 21/07 Q1023 A3023 750.5 HR40 FU@CAELT@CI NOSIG=@CAELT@METAR SLAL 151200Z 34007KT 9999 FEW020 15/09 Q1029 A3039 703.7 HR68=@CAELT@
ZPX0190 151201@CAELT@GG SLZZYMYT@CAELT@151200 SLLPYFYA@CAELT@SABO SLLP 151200@CAELT@METAR SLLP 151200Z 13007KT 9999 FEW013 BKN200 12/M01 Q1037@CAELT@A3065 627.8 HR40 P90// HZ SW/W AC NOSIG=@CAELT@METAR SLRY 151200Z 00000KT 9999 NSC 26/23 Q1007 A2976 HR83@CAELT@RWY NML=@CAELT@METAR SLRQ 151200Z 00000KT 9999 NSC 26/23 Q1009 A2980 HR86 CI=METAR SLSB 151200Z 32003KT 9999 NSC 26/23 Q1008 A2977 HR86
ZPX0192 151203@CAELT@GG SLZZYMYT@CAELT@151200 SLTRYGYS@CAELT@SABO SLTR 151200@CAELT@METAR SLTR 151200Z 31008KT 9999 NSC 28/23 Q1010 A2983 991.5 HR71@CAELT@CI NOSIG=@CAELT@METAR SLGM 151200Z 36006KT 9999 NSC 27/24 Q1011 A2985 HR85 CI=@CAELT@METAR SLRI 151200Z 33007KT 7000 NSC 27/24 Q1011 A2988 HR82 FU CI=@CAELT@METAR SLJO 151200Z 36004KT 9999 NSC 28/24 Q1009 A2982 HR82 CIRWY NML=METAR SLRA 151200Z 34006KT 9999 FEW020 28/24 Q1010 A2983 HR80CI RWY NML=METAR SLMG 151200Z 32008KT 9999 NSC 28/24 Q1010 A2984 HR79 CIMETAR SLBU 151200Z NIL=METAR SLSA 151200Z 33010KT 9999 NSC 27/24 Q1008 A2979 HR84 CI=METAR SLSR 151200Z 32015KT 9999 NSC 27/22 Q1007 A2976 HR76 CIMETAR SLSM 151200Z 36010KT 9999 NSC 27/23 Q1008 A2979 HR80 CI
ZPX0204 151252@CAELT@GG SLZZYMYT@CAELT@151250 SLETYMYC@CAELT@SABO SLET 151300Z@CAELT@METAR SLET 151300Z 32015KT 9999 SCT013 BKN016 28/23 Q1012 A2989 HR72@CAELT@NOSIG=@CAELT@
ZPX0205 151253@CAELT@GG SLZZYMYT@CAELT@151254 SLSAYGYS@CAELT@SABO SLSA 151300@CAELT@METAR SLSA 151300Z 32010KT 9999 NSC 30/24 Q1009 A2982 HR70 CI=@CAELT@
ZPX0206 151255@CAELT@GG SLZZYMYT@CAELT@151256 SLVRYGYZ@CAELT@SABO SLVR 151300@CAELT@METAR SLVR 151300Z 32010G20KT 9999 FEW015 BKN020 29/24 Q1012 A2989@CAELT@HR71 NOSIG=@CAELT@
ZPX0207 151255@CAELT@GG SLZZYMYT@CAELT@151255 SLLPYGYZ@CAELT@SABO SLLP 151300@CAELT@METAR SLLP 151300Z 13008KT 080V150 9999 NSC 14/M05 Q1038 A3066@CAELT@628.2 HR26 HZ SW/W CI NOSIG=@CAELT@
ZPX0208 151255@CAELT@GG SLZZYMYT@CAELT@151255 SLSBYSYX@CAELT@SABO SLSB 151300@CAELT@METAR SLSB 151300Z 31010KT 9999 NSC 28/23 Q1008 A2978 HR73 RWY NML=@CAELT@
ZPX0209 151256@CAELT@GG SLZZYMYT@CAELT@151256 SLTRYGYZ@CAELT@SABO SLTR 151300@CAELT@METAR SLTR 151300Z 32008KT 9999 FEW020 30/23 Q1011 A2986 992.7 HR69@CAELT@CI NOSIG=@CAELT@
ZPX0210 151257@CAELT@GG SLZZYMYT@CAELT@151257 SLCAYGYS@CAELT@SABO SLCA 151300@CAELT@METAR SLCA 151300Z 18004KT 9999 BKN027 OVC070 23/18 Q1017 A3003 HR73@CAELT@RWY NML=@CAELT@
ZPX0211 151257@CAELT@GG SLZZYMYT@CAELT@151257 SLLPYFYA@CAELT@SABO SLRY 151300@CAELT@METAR SLRY 151300Z 34010KT 9999 NSC 30/20 Q1008 A2979@CAELT@HR55 RWY NML=@CAELT@
ZPX0213 151258@CAELT@GG SLZZYMYT@CAELT@151257 SLCBYGYZ@CAELT@SABO SLCB 151300@CAELT@METAR SLCB 151300Z 26003KT 9999 FEW036 24/05 Q1024 A3025 750.9 HR30@CAELT@FU CI NOSIG=@CAELT@
ZPX0214 151258@CAELT@GG SLZZYMYT@CAELT@151258 SLTRYGYS@CAELT@SABO SLTR 151300@CAELT@METAR SLTR 151300Z 32008KT 9999 FEW020 30/23 Q1011 A2986 992.7 HR69@CAELT@CI NOSIG=@CAELT@METAR SLGM 151300Z 36008KT 9999 FEW017 SCT200 30/24 Q1011 A2988@CAELT@HR73=@CAELT@METAR SLRI 151300Z 36006KT 8000 FEW015 BKN200 29/25 Q1012 A2990 HR76METAR SLJO 151300Z 36010KT 9999 FEW015 30/24 Q1010 A2985 HR74 CIRWY NML=METAR SLRA 151300Z 33010KT 9999 FEW020 30/24 Q1010 A2984 HR68 CIMETAR SLMG 151300Z 32008KT 9999 FEW017 BKN200 30/24 Q1011 A2985HR69 RWY NML=METAR SLBU 151300Z NIL=METAR SLSA 151300Z 32010KT 9999 NSC 30/24 Q1009 A2982 HR70 CI=METAR SLSR 151300Z 32015G25KT 9999 NSC 29/22 Q1009 A2980 HR67CI RWY NML=METAR SLSM 151300Z 36010KT 9999 NSC 29/23 Q1010 A2984 HR72 CI
ZPX0215 151259@CAELT@GG SLZZYMYT@CAELT@151258 SLCBYGYS@CAELT@SABO SLCB 151300@CAELT@METAR SLCB 151300Z 26003KT 9999 FEW036 24/05 Q1024 A3025 750.9 HR30@CAELT@FU CI NOSIG=@CAELT@METAR SLAL 151300Z 01014KT 9999 SCT020 17/08 Q1030 A3041 704.2 HR57=@CAELT@
ZPX0217 151300@CAELT@GG SLZZYMYT@CAELT@151259 SLRQYSYX@CAELT@SABO SLRQ 151300@CAELT@METAR SLRQ 151300Z 00000KT 9999 NSC 28/22 Q1009 A2982 HR73 CI=@CAELT@
ZPX0218 151300@CAELT@GG SLZZYMYT@CAELT@151259 SLRBYGYS@CAELT@SABO SLRB 151300@CAELT@METAR SLRB 151300Z 36015KT 9999 NSC 31/23 Q1013 A2991 HR64 RWY NML=@CAELT@
ZPX0219 151301@CAELT@GG SLZZYMYT@CAELT@151300 SLVRYGYS@CAELT@SABO SLVR 151300@CAELT@METAR SLVR 151300Z 32010G20KT 9999 FEW015 BKN020 29/24 Q1012 A2989@CAELT@HR71 NOSIG=@CAELT@METAR SLET 151300Z 32015KT 9999 SCT013 BKN016 28/23 Q1012 A2989 HR72@CAELT@NOSIG=@CAELT@METAR SLAS 151300Z NIL=METAR SLJV 151300Z 36005KT 9999 SCT015 30/22 Q1012 A2988 HR62 RWY NMLMETAR SLCP 151300Z 33010KT 9999 BKN020 28/23 Q1016 A3000 HR75 RWY NMLMETAR SLSI 151300Z 33006KT 9999 SCT017 30/23 Q1013 A2991 HR63 RWY NMLMETAR SLTI 151300Z 36008KT 9999 SCT020 FEW030CB 31/22 Q1016 A3000HR59 CB/SH N RWY NML=METAR SLJE 151300Z 36008KT 9999 FEW017 BKN200 33/24 Q1015 A2997 HR60FU RWY NML=METAR SLVG 151300Z 17005KT 9999 BKN023 22/15 Q1024 A3024 HR64 RWY NMLMETAR SLRB 151300Z 36015KT 9999 NSC 31/23 Q1013 A2991 HR64 RWY NML=METAR SLCA 151300Z 18004KT 9999 BKN027 OVC070 23/18 Q1017 A3003 HR73RWY NML=
ZPX0220 151302@CAELT@GG SLZZYMYT@CAELT@151301 SLLPYFYA@CAELT@SABO SLLP 151300@CAELT@METAR SLLP 151300Z 13008KT 080V150 9999 NSC 14/M05 Q1038 A3066@CAELT@628.2 HR26 HZ SW/W CI NOSIG=@CAELT@METAR SLRY 151300Z 34010KT 9999 NSC 30/20 Q1008 A2979@CAELT@HR55 RWY NML=@CAELT@METAR SLRQ 151300Z 00000KT 9999 NSC 28/22 Q1009 A2982 HR73 CI=METAR SLSB 151300Z 31010KT 9999 NSC 28/23 Q1008 A2978 HR73RWY NML=
ZPX0225 151314@CAELT@GG SLZZYMYT@CAELT@151314 SLCOYGYZ@CAELT@SABO SLCO 151300 RRA@CAELT@METAR RTD SLCO 151300Z 32006KT 9999 FEW025 29/23 Q1011 A2988 984.5@CAELT@HR72 CI=@CAELT@
ZPX0226 151316@CAELT@GG SLZZYMYT@CAELT@151316 SLLPYFYA@CAELT@SABO SLLP 151300 RRA@CAELT@METAR SLLP 151300Z 13008KT 080V150 9999 NSC 14/M05 Q1038 A3066@CAELT@628.2 HR26 HZ SW/W CI NOSIG=@CAELT@METAR RTD SLCO 151300Z 32006KT 9999 FEW025 29/23 Q1011 A2988 984.5@CAELT@HR72 CI=@CAELT@METAR SLRY 151300Z 34010KT 9999 NSC 30/20 Q1008 A2979HR55 RWY NML=METAR SLRQ 151300Z 00000KT 9999 NSC 28/22 Q1009 A2982 HR73 CI=METAR SLSB 151300Z 31010KT 9999 NSC 28/23 Q1008 A2978 HR73RWY NML=
ZPX0238 151349@CAELT@GG SLZZYMYT@CAELT@151350 SLRBYGYS@CAELT@SABO SLRB 151400@CAELT@METAR SLRB 151400Z 36015KT 9999 FEW020 BKN200 33/24 Q1014 A2994 HR57@CAELT@RWY NML=@CAELT@
ZPX0239 151353@CAELT@GG SLZZYMYT@CAELT@151347 SLETYMYC@CAELT@SABO SLET 151400@CAELT@METAR SLET 151400Z 30013KT 9999 FEW013 BKN020 29/22 Q1012 A2990 HR65@CAELT@AC NOSIG=@CAELT@
ZPX0240 151353@CAELT@GG SLZZYMYT@CAELT@151353 SLCAYGYS@CAELT@SABO SLCA 151400@CAELT@METAR SLCA 151400Z 18004KT 9999 BKN030 OVC070 23/18 Q1017 A3003 HR73@CAELT@RWY NML=@CAELT@
ZPX0241 151354@CAELT@GG SLZZYMYT@CAELT@151355 SLRQYSYX@CAELT@SABO SLRQ 151400@CAELT@METAR SLRQ 151400Z 36008KT 9999 NSC 29/24 Q1010 A2983 HR73=@CAELT@
ZPX0242 151354@CAELT@GG SLZZYMYT@CAELT@151355 SLLPYFYA@CAELT@SABO SLRY 151400@CAELT@METAR SLRY 151400Z 34018KT 9999 NSC 32/20 Q1009 A2981 HR49@CAELT@RWY NML=@CAELT@
ZPX0243 151354@CAELT@GG SLZZYMYT@CAELT@151355 SLCOYGYZ@CAELT@SABO SLCO 151400@CAELT@METAR SLCO 151400Z 34006KT 9999 SCT025 30/24 Q1012 A2989 984.8 HR69@CAELT@
ZPX0244 151354@CAELT@GG SLZZYMYT@CAELT@151355 SLSBYSYX@CAELT@SABO SLSB 151400@CAELT@METAR SLSB 151400Z 33012KT 9999 NSC 31/22 Q1010 A2985 HR69 RWY NML=@CAELT@
ZPX0245 151355@CAELT@GG SLZZYMYT@CAELT@151355 SLVRYGYZ@CAELT@SABO SLVR 151400@CAELT@METAR SLVR 151400Z 32012G22KT 9999 FEW015 BKN020 31/24 Q1012 A2990@CAELT@HR66 NOSIG=@CAELT@
ZPX0246 151356@CAELT@GG SLZZYMYT@CAELT@151356 SLLPYGYZ@CAELT@SABO SLLP 151400@CAELT@METAR SLLP 151400Z 14009KT 090V170 9999 FEW017 15/M07 Q1038 A3065@CAELT@628.0 HR21 P2380 CI NOSIG=@CAELT@
ZPX0247 151356@CAELT@GG SLZZYMYT@CAELT@151356 SLTRYGYZ@CAELT@SABO SLTR 151400@CAELT@METAR SLTR 151400Z 31012KT 9999 FEW020 31/24 Q1011 A2987 993.1 HR66@CAELT@NOSIG=@CAELT@
ZPX0249 151357@CAELT@GG SLZZYMYT@CAELT@151356 SLSAYGYS@CAELT@SABO SLSA 151400@CAELT@METAR SLSA 151400Z 34012KT 9999 SCT017 BKN200 31/24 Q1010 A2984 HR68=@CAELT@
ZPX0250 151357@CAELT@GG SLZZYMYT@CAELT@151357 SLVRYGYS@CAELT@SABO SLVR 151400@CAELT@METAR SLVR 151400Z 32012G22KT 9999 FEW015 BKN020 31/24 Q1012 A2990@CAELT@HR66 NOSIG=@CAELT@METAR SLET 151400Z 30013KT 9999 FEW013 BKN020 29/22 Q1012 A2990 HR65@CAELT@AC NOSIG=@CAELT@METAR SLAS 151400Z 35015KT 9999 NSC 32/23 Q1013 A2991 HR60 RWY NML=METAR SLJV 151400Z 36008KT 9999 SCT017 32/22 Q1013 A2991 HR55 RWY NMLMETAR SLCP 151400Z 31012KT 9999 BKN020 29/22 Q1016 A3000 HR67 RWY NMLMETAR SLSI 151400Z 33010KT 9999 SCT017 32/23 Q1013 A2991 HR57 RWY NMLMETAR SLTI 151400Z 36006KT 9999 SCT020 FEW030CB 30/22 Q1016 A3000HR63 CB NE RWY NML=METAR SLJE 151400Z 32012KT 9999 SCT017 35/23 Q1015 A2997 HR52 RWY NMLMETAR SLVG 151400Z 16004KT 9999 BKN027 24/15 Q1024 A3024 HR53 RWY NMLMETAR SLRB 151400Z 36015KT 9999 FEW020 BKN200 33/24 Q1014 A2994 HR57RWY NML=METAR SLCA 151400Z 18004KT 9999 BKN030 OVC070 23/18 Q1017 A3003 HR73
ZPX0251 151358@CAELT@GG SLZZYMYT@CAELT@151357 SLCBYGYS@CAELT@SABO SLCB 151400@CAELT@METAR SLCB 151400Z 16003KT 9999 FEW036 25/04 Q1023 A3023 750.4 HR25@CAELT@FU CI NOSIG=@CAELT@METAR SLAL 151400Z 34012KT 9999 BKN023 18/09 Q1030 A3041 704.3 HR58=@CAELT@
ZPX0254 151359@CAELT@GG SLZZYMYT@CAELT@151358 SLTRYGYS@CAELT@SABO SLTR 151400@CAELT@METAR SLTR 151400Z 31012KT 9999 FEW020 31/24 Q1011 A2987 993.1 HR66@CAELT@NOSIG=@CAELT@METAR SLGM 151400Z 36010KT 9999 SCT017 35/24 Q1012 A2988 HR67=@CAELT@METAR SLRI 151400Z 36004KT 9999 SCT017 BKN200 31/25 Q1013 A2992 HR68=@CAELT@METAR SLJO 151400Z 35010KT 9999 FEW017 32/25 Q1011 A2986 HR66RWY NML=METAR SLRA 151400Z 36010KT 9999 FEW020 33/24 Q1011 A2986 HR57CI RWY NML=METAR SLMG 151400Z 32006KT 9999 SCT017 31/24 Q1011 A2986 HR64METAR SLBU 151400Z NIL=METAR SLSA 151400Z 34012KT 9999 SCT017 BKN200 31/24 Q1010 A2984 HR68=METAR SLSR 151400Z 32015G25KT 9999 FEW017 SCT200 31/22 Q1009A2982 HR59 RWY NML=METAR SLSM 151400Z 34014KT 9999 NSC 31/23 Q1010 A2984 HR63
ZPX0257 151400@CAELT@GG SLZZYMYT@CAELT@151400 SLLPYFYA@CAELT@SABO SLLP 151400@CAELT@METAR SLLP 151400Z 14009KT 090V170 9999 FEW017 15/M07 Q1038@CAELT@A3065 628.0 HR21 P2380 CI NOSIG=@CAELT@METAR SLCO 151400Z 34006KT 9999 SCT025 30/24 Q1012 A2989@CAELT@984.8 HR69 CI=@CAELT@METAR SLRY 151400Z 34018KT 9999 NSC 32/20 Q1009 A2981 HR49RWY NML=METAR SLRQ 151400Z 36008KT 9999 NSC 29/24 Q1010 A2983 HR73=METAR SLSB 151400Z 33012KT 9999 NSC 31/22 Q1010 A2985 HR69
ZPX0277 151454@CAELT@GG SLZZYMYT@CAELT@151454 SLRBYGYS@CAELT@SABO SLRB 151500@CAELT@METAR SLRB 151500Z 36015KT 9999 SCT020 33/24 Q1013 A2991 HR57 RWY NML=@CAELT@
ZPX0278 151455@CAELT@GG SLZZYMYT@CAELT@151454 SLCAYGYS@CAELT@SABO SLCA 151500@CAELT@METAR SLCA 151500Z 18004KT 9999 BKN033 BKN070 24/18 Q1017 A3003 HR68@CAELT@RWY NML=@CAELT@
ZPX0279 151455@CAELT@GG SLZZYMYT@CAELT@151454 SLSAYGYS@CAELT@SABO SLSA 151500@CAELT@METAR SLSA 151500Z 31010KT 9999 BKN017 32/24 Q1010 A2984 HR64=@CAELT@
ZPX0280 151455@CAELT@GG SLZZYMYT@CAELT@151455 SLCOYGYZ@CAELT@SABO SLCO 151500@CAELT@METAR SLCO 151500Z 32005KT 9999 BKN025 31/24 Q1011 A2988 984.5 HR66@CAELT@
ZPX0281 151455@CAELT@GG SLZZYMYT@CAELT@151456 SLVRYGYZ@CAELT@SABO SLVR 151500@CAELT@METAR SLVR 151500Z 32014G24KT 9999 FEW015 SCT020 33/23 Q1012 A2989@CAELT@HR56 AC NOSIG=@CAELT@
ZPX0282 151455@CAELT@GG SLZZYMYT@CAELT@151455 SLLPYGYZ@CAELT@SABO SLLP 151500@CAELT@METAR SLLP 151500Z 13010KT 100V170 9999 FEW017 18/M07 Q1037 A3063@CAELT@627.5 HR19 P93// CI NOSIG=@CAELT@
ZPX0283 151455@CAELT@GG SLZZYMYT@CAELT@151433 SLETYMYC@CAELT@SABO SLET 151500@CAELT@METAR SLET 151500Z 28010KT 9999 FEW015 BKN020 30/21 Q1012 A2989 HR57@CAELT@AC NOSIG=@CAELT@
ZPX0284 151456@CAELT@GG SLZZYMYT@CAELT@151455 SLSBYSYX@CAELT@SABO SLSB 151500@CAELT@METAR SLSB 151500Z 33010G20KT 9999 NSC 33/22 Q1009 A2982 HR54 RWY NML=@CAELT@
ZPX0285 151456@CAELT@GG SLZZYMYT@CAELT@151455 SLLPYFYA@CAELT@SABO SLRY 151500@CAELT@METAR SLRY 151500Z 34018KT 9999 NSC 34/21 Q1009 A2982@CAELT@HR47 RWY NML=@CAELT@
ZPX0286 151456@CAELT@GG SLZZYMYT@CAELT@151455 SLRQYSYX@CAELT@SABO SLRQ 151500@CAELT@METAR SLRQ 151500Z 36006KT 9999 FEW020 33/25 Q1009 A2981 HR61=@CAELT@
ZPX0288 151456@CAELT@GG SLZZYMYT@CAELT@151456 SLTRYGYZ@CAELT@SABO SLTR 151500@CAELT@METAR SLTR 151500Z 32014KT 9999 SCT020 32/24 Q1011 A2986 992.8 HR62@CAELT@NOSIG=@CAELT@
ZPX0289 151458@CAELT@GG SLZZYMYT@CAELT@151456 SLCBYGYZ@CAELT@SABO SLCB 151500@CAELT@METAR SLCB 151500Z 25006KT 9999 FEW036 FEW040TCU 28/03 Q1022 A3020@CAELT@749.6 HR21 TCU/NW FU CI NOSIG=@CAELT@
ZPX0290 151458@CAELT@GG SLZZYMYT@CAELT@151457 SLTRYGYS@CAELT@SABO SLTR 151500@CAELT@METAR SLTR 151500Z 32014KT 9999 SCT020 32/24 Q1011 A2986 992.8 HR62@CAELT@NOSIG=@CAELT@METAR SLGM 151500Z 36010KT 9999 SCT017 32/24 Q1011 A2988 HR61=@CAELT@METAR SLRI 151500Z 36008KT 9999 SCT017 32/24 Q1012 A2990 HR63=@CAELT@METAR SLJO 151500Z 34012KT 9999 SCT017 32/24 Q1011 A2986 HR63RWY NML=METAR SLRA 151500Z 34012KT 9999 FEW020 33/24 Q1010 A2985 HR59METAR SLMG 151500Z 32006KT 9999 SCT017 33/24 Q1011 A2987 HR59METAR SLBU 151500Z NIL=METAR SLSA 151500Z 31010KT 9999 BKN017 32/24 Q1010 A2984 HR64=METAR SLSR 151500Z 32015G25KT 9999 FEW017 SCT200 32/21 Q1010A2983 HR54 RWY NML=METAR SLSM 151500Z 34014KT 9999 SCT017 31/23 Q1010 A2984 HR63
ZPX0292 151459@CAELT@GG SLZZYMYT@CAELT@151459 SLVRYGYS@CAELT@SABO SLVR 151500@CAELT@METAR SLVR 151500Z 32014G24KT 9999 FEW015 SCT020 33/23 Q1012 A2989@CAELT@HR56 AC NOSIG=@CAELT@METAR SLET 151500Z 28010KT 9999 FEW015 BKN020 30/21 Q1012 A2989 HR57@CAELT@AC NOSIG=@CAELT@METAR SLAS 151500Z 35018KT 9999 FEW020 33/23 Q1012 A2989 HR57 RWY NMLMETAR SLJV 151500Z 34010KT 9999 SCT017 33/21 Q1012 A2988 HR51 RWY NMLMETAR SLCP 151500Z 31012KT 9999 BKN020 31/22 Q1016 A3000 HR61 RWY NMLMETAR SLSI 151500Z 33015KT 9999 SCT017 33/23 Q1012 A2988 HR53 RWY NMLMETAR SLTI 151500Z 36006KT 9999 SCT020 31/23 Q1015 A2997 HR60 RWY NMLMETAR SLJE 151500Z 32012KT 9999 BKN017 36/23 Q1014 A2994 HR47 RWY NMLMETAR SLVG 151500Z 00000KT 9999 BKN027 FEW030CB 23/14 Q1024 A3024HR55 CB ON STN/E RWY NML=METAR SLRB 151500Z 36015KT 9999 SCT020 33/24 Q1013 A2991 HR57 RWY NMLMETAR SLCA 151500Z 18004KT 9999 BKN033 BKN070 24/18 Q1017 A3003 HR68RWY NML=
ZPX0293 151459@CAELT@GG SLZZYMYT@CAELT@151500 SLLPYFYA@CAELT@SABO SLLP 151500@CAELT@METAR SLLP 151500Z 13010KT 100V170 9999 FEW017 18/M07 Q1037@CAELT@A3063 627.5 HR19 P93// CI NOSIG=@CAELT@METAR SLCO 151500Z 32005KT 9999 BKN025 31/24 Q1011 A2988 984.5@CAELT@HR66 CI=@CAELT@METAR SLRY 151500Z 34018KT 9999 NSC 34/21 Q1009 A2982HR47 RWY NML=METAR SLRQ 151500Z 36006KT 9999 FEW020 33/25 Q1009 A2981 HR61=METAR SLSB 151500Z 33010G20KT 9999 NSC 33/22 Q1009 A2982 HR54RWY NML=
ZPX0299 151501@CAELT@GG SLZZYMYT@CAELT@151500 SLCBYGYS@CAELT@SABO SLCB 151500@CAELT@METAR SLCB 151500Z 25006KT 9999 FEW036 FEW040TCU 28/03 Q1022 A3020@CAELT@749.6 HR21 TCU/NW FU CI NOSIG=@CAELT@METAR SLAL 151500Z 02016KT 9999 BKN023 20/08 Q1029 A3039 703.8 HR50=@CAELT@
ZPX0317 151552@CAELT@GG SLZZYMYT@CAELT@151551 SLRBYGYS@CAELT@SABO SLRB 151600@CAELT@METAR SLRB 151600Z 36015KT 9999 SCT020 34/23 Q1012 A2988 HR53 RWY NML=@CAELT@
ZPX0318 151552@CAELT@GG SLZZYMYT@CAELT@151550 SLETYMYC@CAELT@SABO SLET 151600Z@CAELT@METAR SLET 151600Z 32010KT 9999 BKN017 FEW027CB BKN200 32/20 Q1012@CAELT@A2989 HR49 CB SH S TEMPO SHRA=@CAELT@
ZPX0319 151554@CAELT@GG SLZZYMYT@CAELT@151554 SLSAYGYS@CAELT@SABO SLSA 151600@CAELT@METAR SLSA 151600Z 32010KT 9999 BKN017 33/24 Q1009 A2981 HR61=@CAELT@
ZPX0320 151554@CAELT@GG SLZZYMYT@CAELT@151554 SLSAYGYS@CAELT@SABO SLSA 151600@CAELT@METAR SLSA 151600Z 32010KT 9999 BKN017 33/24 Q1009 A2981 HR61=@CAELT@
ZPX0321 151554@CAELT@GG SLZZYMYT@CAELT@151555 SLSBYSYX@CAELT@SABO SLSB 151600@CAELT@METAR SLSB 151600Z 30012KT 9999 NSC 34/22 Q1009 A2979 HR49 CU RWY NML=@CAELT@
ZPX0322 151555@CAELT@GG SLZZYMYT@CAELT@151555 SLCOYGYZ@CAELT@SABO SLCO 151600@CAELT@METAR SLCO 151600Z 35009KT 9999 BKN025 33/24 Q1011 A2986 983.8 HR59@CAELT@
ZPX0323 151555@CAELT@GG SLZZYMYT@CAELT@151555 SLLPYFYA@CAELT@SABO SLRY 151600@CAELT@METAR SLRY 151600Z 34015G25KT 9999 NSC 35/20 Q1009 A2981@CAELT@HR43 RWY NML=@CAELT@
ZPX0324 151555@CAELT@GG SLZZYMYT@CAELT@151555 SLLPYGYZ@CAELT@SABO SLLP 151600@CAELT@METAR SLLP 151600Z 07015KT 040V100 9999 FEW020 19/M06 Q1036 A3062@CAELT@627.2 HR18 P93// NOSIG=@CAELT@
ZPX0325 151556@CAELT@GG SLZZYMYT@CAELT@151556 SLVRYGYZ@CAELT@SABO SLVR 151600@CAELT@METAR SLVR 151600Z 31012G22KT 9999 BKN020 FEW030CB 34/23 Q1011 A2987@CAELT@HR54 CB SW NOSIG=@CAELT@
ZPX0326 151556@CAELT@GG SLZZYMYT@CAELT@151556 SLRQYSYX@CAELT@SABO SLRQ 151600@CAELT@METAR SLRQ 151600Z 36004KT 9999 FEW020 35/24 Q1009 A2979 HR52=@CAELT@
ZPX0327 151557@CAELT@GG SLZZYMYT@CAELT@151557 SLTRYGYZ@CAELT@SABO SLTR 151600@CAELT@METAR SLTR 151600Z 32012KT 9999 SCT020 33/24 Q1010 A2985 992.4 HR59@CAELT@NOSIG=@CAELT@
ZPX0328 151558@CAELT@GG SLZZYMYT@CAELT@151556 SLCBYGYZ@CAELT@SABO SLCB 151600@CAELT@METAR SLCB 151600Z 01010KT 9999 SCT036 FEW040CB 29/04 Q1021 A3017 748@CAELT@.9 HR20 CB N/NW FU CI NOSIG=@CAELT@
ZPX0329 151558@CAELT@GG SLZZYMYT@CAELT@151558 SLTRYGYS@CAELT@SABO SLTR 151600@CAELT@METAR SLTR 151600Z 32012KT 9999 SCT020 33/24 Q1010 A2985 992.4 HR59@CAELT@NOSIG=@CAELT@METAR SLGM 151600Z NIL=@CAELT@METAR SLRI 151600Z 36008KT 9999 BKN017 33/23 Q1011 A2988 HR55=@CAELT@METAR SLJO 151600Z 34012KT 9999 SCT017 34/24 Q1010 A2985 HR56RWY NML=METAR SLRA 151600Z 35010KT 9999 FEW020 35/22 Q1010 A2984 HR48METAR SLMG 151600Z 34010KT 9999 SCT017 33/24 Q1011 A2985 HR55METAR SLBU 151600Z NIL=METAR SLSA 151600Z 32010KT 9999 BKN017 33/24 Q1009 A2981 HR61=METAR SLSR 151600Z 32015KT 9999 SCT017 33/22 Q1009 A2981 HR54METAR SLSM 151600Z 34014KT 9999 BKN017 33/24 Q1010 A2983 HR59
ZPX0330 151558@CAELT@GG SLZZYMYT@CAELT@151558 SLCAYGYS@CAELT@SABO SLCA 151600@CAELT@METAR SLCA 151600Z 00000KT 9999 BKN033 BKN070 25/17 Q1017 A3003 HR62@CAELT@RWY NML=@CAELT@
ZPX0331 151559@CAELT@GG SLZZYMYT@CAELT@151559 SLVRYGYS@CAELT@SABO SLVR 151600@CAELT@METAR SLVR 151600Z 31012G22KT 9999 BKN020 FEW030CB 34/23 Q1011 A2987@CAELT@HR54 CB SW NOSIG=@CAELT@METAR SLET 151600Z 32010KT 9999 BKN017 FEW027CB BKN200 32/20 Q1012@CAELT@A2989 HR49 CB/SH S TEMPO SHRA=@CAELT@METAR SLAS 151600Z 34016KT 9999 SCT020 35/22 Q1008 A2977 HR48 RWY NMLMETAR SLJV 151600Z 34010KT 9999 SCT020 33/21 Q1011 A2985 HR50 RWY NMLMETAR SLCP 151600Z 31005KT 9999 BKN020 32/22 Q1015 A2997 HR56 RWY NMLMETAR SLSI 151600Z 34015KT 9999 SCT017 35/22 Q1011 A2985 HR47 RWY NMLMETAR SLTI 151600Z 00000KT 9999 SCT020 FEW030CB 36/22 Q1013 A2991HR42 CB SW RWY NML=METAR SLJE 151600Z 32012KT 9999 BKN017 39/23 Q1013 A2991 HR40 RWY NMLMETAR SLVG 151600Z 36012KT 9999 SCT027 FEW030CB 23/15 Q1023 A3021HR55 CB E/S/SW SH E RWY NML=METAR SLRB 151600Z 36015KT 9999 SCT020 34/23 Q1012 A2988 HR53 RWY NMLMETAR SLCA 151600Z 00000KT 9999 BKN033 BKN070 25/17 Q1017 A3003 HR62RWY NML=
ZPX0335 151601@CAELT@GG SLZZYMYT@CAELT@151600 SLLPYFYA@CAELT@SABO SLLP 151600@CAELT@METAR SLLP 151600Z 07015KT 040V100 9999 FEW020 19/M06 Q1036@CAELT@A3062 627.2 HR18 P93// NOSIG=@CAELT@METAR SLCO 151600Z 35009KT 9999 BKN025 33/24 Q1011 A2986@CAELT@983.8 HR59 AC=@CAELT@METAR SLRY 151600Z 34015G25KT 9999 NSC 35/20 Q1009 A2981HR43 RWY NML=METAR SLRQ 151600Z 36004KT 9999 FEW020 35/24 Q1009 A2979 HR52=METAR SLSB 151600Z 30012KT 9999 NSC 34/22 Q1009 A2979 HR49CU RWY NML=
ZPX0339 151613@CAELT@GG SLZZYMYT@CAELT@151608 SLCBYGYS@CAELT@SABO SLCB 151600@CAELT@METAR SLCB 151600Z 01010KT 9999 SCT036 FEW040CB 29/04 Q1021 A3017 748@CAELT@.9 HR20 CB N/NW FU CI NOSIG=@CAELT@METAR SLAL 151600Z 03012KT 9999 BKN023 20/06 Q1028 A3037 703.3 HR40=@CAELT@
ZPX0355 151652@CAELT@GG SLZZYMYT@CAELT@151652 SLRBYGYS@CAELT@SABO SLRB 151700@CAELT@METAR SLRB 151700Z 36015KT 9999 SCT020 35/23 Q1011 A2985 HR49 RWY NML=@CAELT@
ZPX0356 151654@CAELT@GG SLZZYMYT@CAELT@151653 SLCAYGYS@CAELT@SABO SLCA 151700@CAELT@METAR SLCA 151700Z 00000KT 9999 BKN036 BKN070 27/17 Q1016 A3000 HR57@CAELT@RWY NML=@CAELT@
ZPX0357 151654@CAELT@GG SLZZYMYT@CAELT@151655 SLLPYFYA@CAELT@SABO SLRY 151700@CAELT@METAR SLRY 151700Z 34015G25KT 9999 FEW020 35/20 Q1008 A2979@CAELT@HR42 RWY NML=@CAELT@
ZPX0358 151654@CAELT@GG SLZZYMYT@CAELT@151655 SLSBYSYX@CAELT@SABO SLSB 151700@CAELT@METAR SLSB 151700Z 32010G20KT 9999 FEW020 35/22 Q1007 A2976 HR48 RWY@CAELT@NML=@CAELT@
ZPX0359 151655@CAELT@GG SLZZYMYT@CAELT@151656 SLVRYGYZ@CAELT@SABO SLVR 151700@CAELT@METAR SLVR 151700Z 29015KT 9999 BKN020 FEW030CB 34/23 Q1010 A2984@CAELT@HR53 CB SW NOSIG=@CAELT@
ZPX0360 151655@CAELT@GG SLZZYMYT@CAELT@151655 SLLPYGYZ@CAELT@SABO SLLP 151700@CAELT@METAR SLLP 151700Z 10014G24KT 9999 FEW023 FEW025CB 21/M11 Q1035@CAELT@A3059 626.6 HR11 P94// CB/SH/NW AC/CI NOSIG=@CAELT@
ZPX0361 151655@CAELT@GG SLZZYMYT@CAELT@151655 SLRQYSYX@CAELT@SABO SLRQ 151700@CAELT@METAR SLRQ 151700Z 36004KT 9999 FEW020 36/24 Q1008 A2978 984.5 HR50=@CAELT@
ZPX0362 151655@CAELT@GG SLZZYMYT@CAELT@151654 SLETYMYC@CAELT@SABO SLET 151700Z@CAELT@METAR SLET 151700Z 23018KT 9999 BKN020 FEW027CB 33/20 Q1010 A2985@CAELT@HR47 CB S NOSIG=@CAELT@
ZPX0363 151656@CAELT@GG SLZZYMYT@CAELT@151656 SLVRYGYS@CAELT@SABO SLVR 151700@CAELT@METAR SLVR 151700Z 29015KT 9999 BKN020 FEW030CB 34/23 Q1010 A2984@CAELT@HR53 CB SW NOSIG=@CAELT@METAR SLET 151700Z 23018KT 9999 BKN020 FEW027CB 33/20 Q1010 A2985@CAELT@HR47 CB S NOSIG=@CAELT@METAR SLAS 151700Z NIL=METAR SLJV 151700Z 34008KT 9999 BKN020 34/22 Q1010 A2983 HR48 RWY NMLMETAR SLCP 151700Z 30005KT 9999 BKN020 32/21 Q1014 A2994 HR53 RWY NMLMETAR SLSI 151700Z 36015KT 9999 SCT017 37/22 Q1010 A2983 HR43 RWY NMLMETAR SLTI 151700Z 00000KT 9999 SCT020 FEW030CB 37/22 Q1012 A2988HR42 CB SE RWY NML=METAR SLJE 151700Z 32012KT 9999 BKN017 39/22 Q1012 A2988 HR38 RWY NMLMETAR SLVG 151700Z 36010KT 9999 TS SCT027 FEW030CB BKN200 23/15 Q1023A3021 HR55 CB N/E/S/SW TS S RWY NML=METAR SLRB 151700Z 36015KT 9999 SCT020 35/23 Q1011 A2985 HR49 RWY NMLMETAR SLCA 151700Z 00000KT 9999 BKN036 BKN070 27/17 Q1016 A3000 HR57RWY NML=
ZPX0364 151656@CAELT@GG SLZZYMYT@CAELT@151656 SLCOYGYZ@CAELT@SABO SLCO 151700@CAELT@METAR SLCO 151700Z 31008KT 9999 BKN025 34/25 Q1010 A2983 982.7 HR60@CAELT@
ZPX0365 151656@CAELT@GG SLZZYMYT@CAELT@151656 SLTRYGYZ@CAELT@SABO SLTR 151700@CAELT@METAR SLTR 151700Z 29014KT 9999 FEW020 34/23 Q1009 A2981 991.1 HR54@CAELT@NOSIG=@CAELT@
ZPX0366 151656@CAELT@GG SLZZYMYT@CAELT@151655 SLSAYGYS@CAELT@SABO SLSA 151700@CAELT@METAR SLSA 151700Z 32010KT 9999 BKN017 33/24 Q1008 A2979 HR57=@CAELT@
ZPX0367 151659@CAELT@GG SLZZYMYT@CAELT@151658 SLCBYGYZ@CAELT@SABO SLCB 151700@CAELT@METAR SLCB 151700Z 35012G22KT 9999 SCT036 FEW040CB SCT200 29/03 Q1021@CAELT@A3015 748.3 HR18 CB NE/SE/S/W/NW SH W/NW FU AC NOSIG=@CAELT@
ZPX0368 151659@CAELT@GG SLZZYMYT@CAELT@151658 SLTRYGYS@CAELT@SABO SLTR 151700@CAELT@METAR SLTR 151700Z 29014KT 9999 FEW020 34/23 Q1009 A2981 991.1 HR54@CAELT@NOSIG=@CAELT@METAR SLGM 151700Z NIL=@CAELT@METAR SLRI 151700Z 34006KT 8000 VCSH BKN017 FEW020CB 34/23@CAELT@Q1010 A2984 HR54 CB/SH NE/E/S=METAR SLJO 151700Z 34014KT 9999 SCT017 35/24 Q1010 A2983 HR53RWY NML=METAR SLRA 151700Z 36012KT 9999 FEW020 35/22 Q1009 A2982 HR47METAR SLMG 151700Z 34010KT 9999 SCT017 34/23 Q1009 A2982 HR52METAR SLBU 151700Z NIL=METAR SLSA 151700Z 32010KT 9999 BKN017 33/24 Q1008 A2979 HR57=METAR SLSR 151700Z 32015KT 9999 SCT017 33/23 Q1008 A2979 HR53METAR SLSM 151700Z 34012KT 9999 BKN017 34/24 Q1009 A2982 HR59
ZPX0369 151659@CAELT@GG SLZZYMYT@CAELT@151700 SLLPYFYA@CAELT@SABO SLLP 151700@CAELT@METAR SLLP 151700Z 10014G24KT 9999 FEW023 FEW025CB 21/M11@CAELT@Q1035 A3059 626.6 HR11 P94// CB/SH/NW AC/CI NOSIG=@CAELT@METAR SLCO 151700Z 31008KT 9999 BKN025 34/25 Q1010 A2983@CAELT@982.7 HR60 AC=@CAELT@METAR SLRY 151700Z 34015G25KT 9999 FEW020 35/20 Q1008 A2979HR42 RWY NML=METAR SLRQ 151700Z 36004KT 9999 FEW020 36/24 Q1008 A2978984.5 HR50=METAR SLSB 151700Z 32010G20KT 9999 FEW020 35/22 Q1007 A2976HR48 RWY NML=
ZPX0371 151701@CAELT@GG SLZZYMYT@CAELT@151700 SLTJYGYZ@CAELT@SABO SLTJ 151700@CAELT@METAR SLTJ 151700Z 14010KT 9999 SCT027 SCT070 23/12 Q1018 A3008 813.7@CAELT@HR58=@CAELT@
ZPX0373 151703@CAELT@GG SLZZYMYT@CAELT@151702 SLCBYGYS@CAELT@SABO SLCB 151700@CAELT@METAR SLCB 151700Z 35012G22KT 9999 SCT036 FEW040CB SCT200 29/03 Q1021@CAELT@A3015 748.3 HR18 CB NE/SE/S/W/NW SH W/NW FU AC NOSIG=@CAELT@METAR SLAL 151700Z 01010KT 9999 BKN023 21/05 Q1027 A3034 702.6 HR38=@CAELT@METAR SLTJ 151700Z 14010KT 9999 SCT027 SCT070 23/12 Q1018 A3008 813.7@CAELT@HR58=
ZPX0391 151754@CAELT@GG SLZZYMYT@CAELT@151755 SLSBYSYX@CAELT@SABO SLSB 151800@CAELT@METAR SLSB 151800Z 33010G20KT 9999 FEW020 35/22 Q1006 A2973 HR48 RWY@CAELT@NML=@CAELT@
ZPX0392 151754@CAELT@GG SLZZYMYT@CAELT@151752 SLETYMYC@CAELT@SABO SLET 151800@CAELT@METAR SLET 151800Z 16008KT 9999 FEW015 BKN020 30/21 Q1009 A2981 HR57@CAELT@NOSIG=@CAELT@
ZPX0393 151755@CAELT@GG SLZZYMYT@CAELT@151754 SLSAYGYS@CAELT@SABO SLSA 151800@CAELT@METAR SLSA 151800Z 31010KT 9999 BKN017 34/23 Q1007 A2974 HR53=@CAELT@
ZPX0394 151755@CAELT@GG SLZZYMYT@CAELT@151755 SLLPYGYZ@CAELT@SABO SLLP 151800@CAELT@METAR SLLP 151800Z 09013G23KT 9999 SCT023 FEW025CB SCT200 20/M05@CAELT@Q1035 A3057 626.1 HR18 P94// CB/SH/NW AC NOSIG=@CAELT@
ZPX0395 151755@CAELT@GG SLZZYMYT@CAELT@151755 SLRQYSYX@CAELT@SABO SLRQ 151800@CAELT@METAR SLRQ 151800Z 36010KT 9999 FEW020 36/24 Q1007 2974 HR49=@CAELT@
ZPX0396 151755@CAELT@GG SLZZYMYT@CAELT@151756 SLVRYGYZ@CAELT@SABO SLVR 151800@CAELT@METAR SLVR 151800Z 29012G22KT 9999 BKN020 FEW030CB 35/24 Q1008 A2979@CAELT@HR54 CB SW NOSIG=@CAELT@
ZPX0397 151756@CAELT@GG SLZZYMYT@CAELT@151755 SLTJYGYZ@CAELT@SABO SLTJ 151800@CAELT@METAR SLTJ 151800Z 13008KT 9999 SCT027 BKN070 24/14 Q1017 A3003 812.5@CAELT@HR54=@CAELT@
ZPX0398 151756@CAELT@GG SLZZYMYT@CAELT@151755 SLLPYFYA@CAELT@SABO SLRY 151800@CAELT@METAR SLRY 151800Z 34015G25KT 9999 FEW025 36/20 Q1007 A2976@CAELT@HR38 RWY NML=@CAELT@
ZPX0399 151756@CAELT@GG SLZZYMYT@CAELT@151756 SLTRYGYZ@CAELT@SABO SLTR 151800@CAELT@METAR SLTR 151800Z 31010KT 9999 FEW020 34/23 Q1007 A2976 989.3 HR54@CAELT@NOSIG=@CAELT@
ZPX0400 151756@CAELT@GG SLZZYMYT@CAELT@151755 SLRBYGYS@CAELT@SABO SLRB 151800@CAELT@METAR SLRB 151800Z 36015KT 9999 SCT020 36/22 Q1009 A2980 HR45 RWY NML=@CAELT@
ZPX0401 151756@CAELT@GG SLZZYMYT@CAELT@151756 SLCAYGYS@CAELT@SABO SLCA 151800@CAELT@METAR SLCA 151800Z 00000KT 9999 BKN036 BKN070 29/17 Q1013 A2991 HR49@CAELT@RWY NML=@CAELT@
ZPX0402 151757@CAELT@GG SLZZYMYT@CAELT@151757 SLVRYGYS@CAELT@SABO SLVR 151800@CAELT@METAR SLVR 151800Z 29012G22KT 9999 BKN020 FEW030CB 35/24 Q1008 A2979@CAELT@HR54 CB SW NOSIG=@CAELT@METAR SLET 151800Z 16008KT 9999 FEW015 BKN020 30/21 Q1009 A2981 HR57@CAELT@NOSIG=@CAELT@METAR SLAS 151800Z 34016KT 9999 SCT020 35/22 Q1008 A2977 HR48 RWY NMLMETAR SLJV 151800Z 34005KT 9999 BKN020 35/21 Q1009 A2980 HR47 RWY NMLMETAR SLCP 151800Z 30005KT 9999 BKN020 32/21 Q1012 A2988 HR52 RWY NMLMETAR SLSI 151800Z 33012KT 9999 SCT017 36/23 Q1008 A2977 HR46 RWY NMLMETAR SLTI 151800Z 26015KT 6000 TS VCSH BKN020 FEW030CB 34/23 Q1012A2988 HR51 CB/TS/SH SW/W/NW RWY NML=METAR SLJE 151800Z 32012KT 9999 BKN017 40/22 Q1010 A2983 HR37 RWY NMLMETAR SLVG 151800Z 36012KT 9999 SCT027 FEW030CB BKN200 25/15 Q1022A3018 HR50 CB S/SW RETS RWY NML=METAR SLRB 151800Z 36015KT 9999 SCT020 36/22 Q1009 A2980 HR45 RWY NMLMETAR SLCA 151800Z 00000KT 9999 BKN036 BKN070 29/17 Q1013 A2991 HR49RWY NML=
ZPX0403 151757@CAELT@GG SLZZYMYT@CAELT@151757 SLCOYGYZ@CAELT@SABO SLCO 151800@CAELT@METAR SLCO 151800Z 29008KT 9999 BKN025 35/25 Q1008 A2979 981.4 HR57@CAELT@
ZPX0404 151758@CAELT@GG SLZZYMYT@CAELT@151757 SLCBYGYZ@CAELT@SABO SLCB 151800@CAELT@METAR SLCB 151800Z 32018G32KT 9999 FEW036 FEW040CB SCT200 28/03 Q1019@CAELT@A3011 747.3 HR19 CB SH/NE/SE/S/W AC BECMG 29012KT=@CAELT@
ZPX0408 151800@CAELT@GG SLZZYMYT@CAELT@151800 SLTRYGYS@CAELT@SABO SLTR 151800@CAELT@METAR SLTR 151800Z 31010KT 9999 FEW020 34/23 Q1007 A2976 989.3 HR54@CAELT@NOSIG=@CAELT@METAR SLGM 151800Z NIL=@CAELT@METAR SLRI 151800Z 34010KT 9999 SCT017 FEW020CB 35/23 Q1008 A2979@CAELT@HR51 CB N/NE/E AC/CI=METAR SLJO 151800Z NIL=METAR SLRA 151800Z 34014KT 9999 FEW020 36/23 Q1008 A2977 HR48RWY NML=METAR SLMG 151800Z 34008KT 9999 SCT017 36/23 Q1008 A2977 HR48METAR SLBU 151800Z NIL=METAR SLSA 151800Z 31010KT 9999 BKN017 34/23 Q1007 A2974 HR53=METAR SLSR 151800Z 32015KT 9999 SCT017 34/23 Q1006 A2972 HR52METAR SLSM 151800Z 33012KT 9999 SCT017 34/24 Q1008 A2977 HR55RW NML=
ZPX0409 151800@CAELT@GG SLZZYMYT@CAELT@151800 SLLPYFYA@CAELT@SABO SLLP 151800@CAELT@METAR SLLP 151800Z 09013G23KT 9999 SCT023 FEW025CB SCT200 20/M05@CAELT@Q1035 A3057 626.1 HR18 P94// CB/SH/NW AC NOSIG=@CAELT@METAR SLCO 151800Z 29008KT 9999 BKN025 35/25 Q1008 A2979@CAELT@981.4 HR57 AC=@CAELT@METAR SLRY 151800Z 34015G25KT 9999 FEW025 36/20 Q1007 A2976HR38 RWY NML=METAR SLRQ 151800Z 36010KT 9999 FEW020 36/24 Q1007 2974 HR49=METAR SLSB 151800Z 33010G20KT 9999 FEW020 35/22 Q1006 A2973HR48 RWY NML=
ZPX0412 151808@CAELT@GG SLZZYMYT@CAELT@151804 SLCBYGYS@CAELT@SABO SLCB 151800@CAELT@METAR SLCB 151800Z 32018G32KT 9999 FEW036 FEW040CB SCT200 28/03 Q1019@CAELT@A3011 747.3 HR19 CB SH/NE/SE/S/W AC BECMG 29012KT=@CAELT@METAR SLAL 151800Z 01018KT 9999 SCT023 FEW033CB 22/08 Q1025 A3029@CAELT@HR44 CB/SW AC=@CAELT@METAR SLTJ 151800Z 13008KT 9999 SCT027 BKN070 24/14 Q1017 A3003 812.5HR54=
ZPX0427 151853@CAELT@GG SLZZYMYT@CAELT@151852 SLRBYGYS@CAELT@SABO SLRB 151900@CAELT@METAR SLRB 151900Z 36010KT 9999 SCT020 37/22 Q1007 A2974 HR44 RWY NML=@CAELT@
ZPX0430 151854@CAELT@GG SLZZYMYT@CAELT@151855 SLVRYGYZ@CAELT@SABO SLVR 151900@CAELT@METAR SLVR 151900Z 30015KT 9999 BKN020 FEW030CB 33/23 Q1007 A2975@CAELT@HR56 CB SW CI NOSIG=@CAELT@
ZPX0431 151854@CAELT@GG SLZZYMYT@CAELT@151854 SLCAYGYS@CAELT@SABO SLCA 151900@CAELT@METAR SLCA 151900Z 00000KT 9999 BKN036 BKN070 29/16 Q1012 A2988 HR47@CAELT@RWY NML=@CAELT@
ZPX0432 151854@CAELT@GG SLZZYMYT@CAELT@151855 SLRQYSYX@CAELT@SABO SLRQ 151900@CAELT@METAR SLRQ 151900Z 35006KT 9999 FEW020 36/24 Q1005 A2970 HR51=@CAELT@
ZPX0433 151855@CAELT@GG SLZZYMYT@CAELT@151855 SLSBYSYX@CAELT@SABO SLSB 151900@CAELT@METAR SLSB 151900Z 32010KT 9999 FEW020 35/22 Q1005 A2969 HR48 RWY NML=@CAELT@
ZPX0434 151855@CAELT@GG SLZZYMYT@CAELT@151855 SLLPYGYZ@CAELT@SABO SLLP 151900@CAELT@METAR SLLP 151900Z 04015G26KT 9999 SCT023 FEW025CB SCT200 18/M05@CAELT@Q1034 A3055 625.6 HR21 P1784 CB/SH NE/SW/W AC NOSIG=@CAELT@
ZPX0435 151855@CAELT@GG SLZZYMYT@CAELT@151854 SLSAYGYS@CAELT@SABO SLSA 151900@CAELT@METAR SLSA 151900Z 30010KT 9999 SCT017 35/24 Q1006 A2971 HR54=@CAELT@
ZPX0436 151856@CAELT@GG SLZZYMYT@CAELT@151856 SLTRYGYZ@CAELT@SABO SLTR 151900@CAELT@METAR SLTR 151900Z 32014KT 9999 FEW020 FEW023CB 35/23 Q1006 A2972@CAELT@988.0 HR50 CB NE NOSIG=@CAELT@
ZPX0437 151856@CAELT@GG SLZZYMYT@CAELT@151855 SLTJYGYZ@CAELT@SABO SLTJ 151900@CAELT@METAR SLTJ 151900Z 15006KT 9999 BKN027 BKN070 21/14 Q1015 A3000 811.5@CAELT@HR62=@CAELT@
ZPX0438 151856@CAELT@GG SLZZYMYT@CAELT@151855 SLETYMYC@CAELT@SABO SLET 151900@CAELT@METAR SLET 151900Z 18005KT 9999 FEW015 SCT020 31/21 Q1007 A2976 HR54@CAELT@NOSIG=@CAELT@
ZPX0440 151856@CAELT@GG SLZZYMYT@CAELT@151857 SLTRYGYS@CAELT@SABO SLTR 151900@CAELT@METAR SLTR 151900Z 32014KT 9999 FEW020 FEW023CB 35/23 Q1006 A2972@CAELT@988.0 HR50 CB NE NOSIG=@CAELT@METAR SLGM 151900Z NIL=@CAELT@METAR SLRI 151900Z 00000KT 8000 TS VCSH BKN017 FEW020CB 34/22 Q1007@CAELT@A2975 HR50 CB/SH N/NE/E/SE TS/E CI=METAR SLJO 151900Z NIL=METAR SLRA 151900Z 35008KT 9999 FEW020 FEW023CB 35/24 Q1006 A2973HR53 CB SE RWY NML=METAR SLMG 151900Z 32006KT 9999 SCT017 36/23 Q1007 A2976 HR48RWY NML=METAR SLBU 151900Z NIL=METAR SLSA 151900Z 30010KT 9999 SCT017 35/24 Q1006 A2971 HR54=METAR SLSR 151900Z 32015KT 9999 SCT017 34/23 Q1005 A2968 HR52METAR SLSM 151900Z 33010KT 9999 SCT017 34/24 Q1006 A2971 HR53
ZPX0441 151857@CAELT@GG SLZZYMYT@CAELT@151857 SLLPYFYA@CAELT@SABO SLRY 151900@CAELT@METAR SLRY 151900Z 34015G25KT 9999 FEW025 36/20 Q1006 A2971@CAELT@HR40 RWY NML=@CAELT@
ZPX0444 151858@CAELT@GG SLZZYMYT@CAELT@151858 SLCBYGYZ@CAELT@SABO SLCB 151900@CAELT@METAR SLCB 151900Z 02004KT 9999 FEW036 FEW040CB SCT200 28/01 Q1019@CAELT@A3009 746.8 HR17 CB DIST/E/SE/SW AC NOSIG=@CAELT@
ZPX0445 151858@CAELT@GG SLZZYMYT@CAELT@151858 SLVRYGYS@CAELT@SABO SLVR 151900@CAELT@METAR SLVR 151900Z 30015KT 9999 BKN020 FEW030CB 33/23 Q1007 A2975@CAELT@HR56 CB SW CI NOSIG=@CAELT@METAR SLET 151900Z 18005KT 9999 FEW015 SCT020 31/21 Q1007 A2976 HR54@CAELT@NOSIG=@CAELT@METAR SLAS 151900Z 34015KT 9999 SCT020 35/22 Q1007 A2974 HR47 RWY NMLMETAR SLCP 151900Z 33005KT 9999 BKN020 33/22 Q1011 A2985 HR52 RWY NMLMETAR SLSI 151900Z 36006KT 9999 SCT017 37/22 Q1006 A2971 HR43 RWY NMLMETAR SLRB 151900Z 36010KT 9999 SCT020 37/22 Q1007 A2974 HR44 RWY NMLMETAR SLCA 151900Z 00000KT 9999 BKN036 BKN070 29/16 Q1012 A2988 HR47RWY NML=
ZPX0447 151900@CAELT@GG SLZZYMYT@CAELT@151900 SLLPYFYA@CAELT@SABO SLLP 151900@CAELT@METAR SLLP 151900Z 04015G26KT 9999 SCT023 FEW025CB SCT200 18/M05@CAELT@Q1034 A3055 625.6 HR21 P1784 CB/SH NE/SW/W AC NOSIG=@CAELT@METAR SLRY 151900Z 34015G25KT 9999 FEW025 36/20 Q1006 A2971@CAELT@HR40 RWY NML=@CAELT@METAR SLRQ 151900Z 35006KT 9999 FEW020 36/24 Q1005 A2970 HR51=METAR SLSB 151900Z 32010KT 9999 FEW020 35/22 Q1005 A2969 HR48 RWY NML=
ZPX0450 151901@CAELT@GG SLZZYMYT@CAELT@151900 SLCBYGYS@CAELT@SABO SLCB 151900@CAELT@METAR SLCB 151900Z 02004KT 9999 FEW036 FEW040CB SCT200 28/01 Q1019@CAELT@A3009 746.8 HR17 CB DIST/E/SE/SW AC NOSIG=@CAELT@METAR SLAL 151900Z 35014KT 9999 SCT023 FEW033CB 22/08 Q1024 A3024 700@CAELT@.2 HR42 CB/NW AC=@CAELT@METAR SLTJ 151900Z 15006KT 9999 BKN027 BKN070 21/14 Q1015 A3000 811.5HR62=
ZPX0475 151954@CAELT@GG SLZZYMYT@CAELT@151954 SLSAYGYS@CAELT@SABO SLSA 152000@CAELT@METAR SLSA 152000Z 30008KT 9999 SCT017 34/23 Q1006 A2971 HR51=@CAELT@
ZPX0476 151954@CAELT@GG SLZZYMYT@CAELT@151955 SLLPYFYA@CAELT@SABO SLRY 152000@CAELT@METAR SLRY 152000Z 34015G25KT 9999 FEW025 37/21 Q1005 A2969@CAELT@HR40 RWY NML=@CAELT@
ZPX0479 151954@CAELT@GG SLZZYMYT@CAELT@151953 SLETYMYC@CAELT@SABO SLET 152000Z@CAELT@METAR SLET 152000Z 14003KT 9999 BKN020 31/21 Q1006 A2973 HR55 NOSIG=@CAELT@
ZPX0481 151955@CAELT@GG SLZZYMYT@CAELT@151955 SLLPYGYZ@CAELT@SABO SLLP 152000@CAELT@METAR SLLP 152000Z 24010KT 210V300 9999 SCT023 FEW025CB SCT200@CAELT@17/M05 Q1033 A3053 625.2 HR22 P94// CB/SH S/SW AC NOSIG=@CAELT@
ZPX0482 151955@CAELT@GG SLZZYMYT@CAELT@151955 SLTJYGYZ@CAELT@SABO SLTJ 152000@CAELT@METAR SLTJ 152000Z 15010KT 9999 BKN027 BKN070 20/14 Q1015 A2998 810.9@CAELT@HR68=@CAELT@
ZPX0483 151955@CAELT@GG SLZZYMYT@CAELT@151955 SLRQYSYX@CAELT@SABO SLRQ 152000@CAELT@METAR SLRQ 152000Z 33006KT 9999 FEW020 37/25 Q1004 A2966 HR51=@CAELT@
ZPX0484 151955@CAELT@GG SLZZYMYT@CAELT@151955 SLCAYGYS@CAELT@SABO SLCA 152000@CAELT@METAR SLCA 152000Z 00000KT 9999 BKN036 OVC070 28/17 Q1011 A2985 HR52@CAELT@RWY NML=@CAELT@
ZPX0485 151955@CAELT@GG SLZZYMYT@CAELT@151955 SLSBYSYX@CAELT@SABO SLSB 152000@CAELT@METAR SLSB 152000Z 31010KT 9999 FEW020 36/22 Q1003 A2964 HR45 RWY NML=@CAELT@
ZPX0486 151956@CAELT@GG SLZZYMYT@CAELT@151956 SLCBYGYZ@CAELT@SABO SLCB 152000@CAELT@METAR SLCB 152000Z 10005KT 020V170 9999 FEW036 SCT200 27/00 Q1018@CAELT@A3007 746.1 HR17 FU AC NOSIG=@CAELT@
ZPX0487 151956@CAELT@GG SLZZYMYT@CAELT@151955 SLRBYGYS@CAELT@SABO SLRB 152000@CAELT@METAR SLRB 152000Z 36006KT 9999 SCT020 37/22 Q1007 A2974 HR44 RWY NML=@CAELT@
ZPX0488 151957@CAELT@GG SLZZYMYT@CAELT@151956 SLTRYGYZ@CAELT@SABO SLTR 152000@CAELT@METAR SLTR 152000Z 30012KT 9999 FEW020 35/23 Q1005 A2968 986.7 HR50@CAELT@CI NOSIG=@CAELT@
ZPX0489 151959@CAELT@GG SLZZYMYT@CAELT@151958 SLVRYGYZ@CAELT@SABO SLVR 152000@CAELT@METAR SLVR 152000Z 30015KT 9999 BKN020 34/23 Q1006 A2971 HR55 CI@CAELT@NOSIG=@CAELT@
ZPX0491 151959@CAELT@GG SLZZYMYT@CAELT@151959 SLVRYGYS@CAELT@SABO SLVR 152000@CAELT@METAR SLVR 152000Z 30015KT 9999 BKN020 34/23 Q1006 A2971 HR55 CI@CAELT@NOSIG=@CAELT@METAR SLET 152000Z 14003KT 9999 BKN020 31/21 Q1006 A2973 HR55 NOSIG=@CAELT@METAR SLAS 152000Z 34015KT 9999 FEW020 35/22 Q1006 A2971 HR46 RWY NML@CAELT@METAR SLCP 152000Z 33006KT 9999 SCT020 33/21 Q1010 A2983 HR48 RWY NMLMETAR SLSI 152000Z 36006KT 4000 TS VCSH SCT017 FEW025CB BKN200 28/23Q1006 A2971 HR72 CB/TS/SH NE/N/NW RWY NML=METAR SLRB 152000Z 36006KT 9999 SCT020 37/22 Q1007 A2974 HR44 RWY NMLMETAR SLCA 152000Z 00000KT 9999 BKN036 OVC070 28/17 Q1011 A2985 HR52RWY NML=
ZPX0493 152000@CAELT@GG SLZZYMYT@CAELT@152000 SLCBYGYS@CAELT@SABO SLCB 152000@CAELT@METAR SLCB 152000Z 10005KT 020V170 9999 FEW036 SCT200 27/00 Q1018@CAELT@A3007 746.1 HR17 FU AC NOSIG=@CAELT@METAR SLAL 152000Z 02014KT 9999 SCT023 FEW033CB SCT200 21/06 Q1033@CAELT@A3022 699.8 HR40 CB/DIST/S/SW/NW=@CAELT@METAR SLTJ 152000Z 15010KT 9999 BKN027 BKN070 20/14 Q1015 A2998 810.9HR68=
ZPX0494 152000@CAELT@GG SLZZYMYT@CAELT@152000 SLTRYGYS@CAELT@SABO SLTR 152000@CAELT@METAR SLTR 152000Z 30012KT 9999 FEW020 35/23 Q1005 A2968 986.7 HR50@CAELT@CI NOSIG=@CAELT@METAR SLGM 152000Z NIL=@CAELT@METAR SLRI 152000Z 36010KT 8000 VCSH BKN017 FEW020CB 32/25 Q1006@CAELT@A2973 HR64 CB/SH N/NE/E/S AC/CI=METAR SLJO 152000Z NIL=METAR SLRA 152000Z 34010KT 7000 TS VCSH FEW020 FEW023CB 33/23 Q1006A2971 HR55 CI CB/SH SE/NW TS NW RWY NML=METAR SLMG 152000Z 32008KT 9999 SCT017 FEW023CB 36/22 Q1007 A2974HR45 CB S/SW RWY NML=METAR SLBU 152000Z NIL=METAR SLSA 152000Z 30008KT 9999 SCT017 34/23 Q1006 A2971 HR51=METAR SLSR 152000Z 32015KT 9999 FEW017 35/23 Q1003 A2964 HR50RWY NML=METAR SLSM 152000Z 33010KT 9999 SCT017 34/23 Q1005 A2968 HR52
ZPX0495 152001@CAELT@GG SLZZYMYT@CAELT@152000 SLLPYFYA@CAELT@SABO SLLP 152000@CAELT@METAR SLLP 152000Z 24010KT 210V300 9999 SCT023 FEW025CB SCT200@CAELT@17/M05 Q1033 A3053 625.2 HR22 P94// CB/SH S/SW AC NOSIG=@CAELT@METAR SLRY 152000Z 34015G25KT 9999 FEW025 37/21 Q1005 A2969@CAELT@HR40 RWY NML=@CAELT@METAR SLRQ 152000Z 33006KT 9999 FEW020 37/25 Q1004 A2966 HR51=METAR SLSB 152000Z 31010KT 9999 FEW020 36/22 Q1003 A2964HR45 RWY NML=
ZPX0518 152053@CAELT@GG SLZZYMYT@CAELT@152052 SLETYMYC@CAELT@SABO SLET 152100ZFAV@CAELT@METAR SLET 152100Z 13003KT 9999 SCT020 31/21 Q1005 A2970 HR 56 NOSIG=@CAELT@
ZPX0519 152053@CAELT@GG SLZZYMYT@CAELT@152053 SLCAYGYS@CAELT@SABO SLCA 152100@CAELT@METAR SLCA 152100Z 18004KT 9999 BKN036 OVC070 27/16 Q1011 A2985 HR54@CAELT@RWY NML=@CAELT@
ZPX0520 152053@CAELT@GG SLZZYMYT@CAELT@152053 SLRBYGYS@CAELT@SABO SLRB 152100@CAELT@METAR SLRB 152100Z 36005KT 9999 SCT020 35/23 Q1007 A2974 HR49 RWY NML=@CAELT@
ZPX0522 152055@CAELT@GG SLZZYMYT@CAELT@152054 SLSAYGYS@CAELT@SABO SLSA 152100@CAELT@METAR SLSA 152100Z 30006KT 9999 FEW017 34/23 Q1004 A2967 HR51=@CAELT@
ZPX0523 152055@CAELT@GG SLZZYMYT@CAELT@152056 SLVRYGYZ@CAELT@SABO SLVR 152100@CAELT@METAR SLVR 152100Z 30010KT 9999 SCT020 SCT200 33/22 Q1005 A2970 HR52@CAELT@NOSIG=@CAELT@
ZPX0524 152055@CAELT@GG SLZZYMYT@CAELT@152055 SLLPYGYZ@CAELT@SABO SLLP 152100@CAELT@METAR SLLP 152100Z 15005KT 110V200 9999 FEW020 FEW023CB BKN200@CAELT@16/M05 Q1033 A3051 624.8 HR23 P3483 CB/SH SE/SW AC NOSIG=@CAELT@
ZPX0526 152056@CAELT@GG SLZZYMYT@CAELT@152055 SLSBYSYX@CAELT@SABO SLSB 152100@CAELT@METAR SLSB 152100Z 30008KT 9999 FEW020 35/22 Q1003 A2963 HR46 RWY NML=@CAELT@
ZPX0527 152056@CAELT@GG SLZZYMYT@CAELT@152055 SLRQYSYX@CAELT@SABO SLRQ 152000@CAELT@METAR SLRQ 152000Z 35006KT 9999 FEW020 35/24 Q1003 A2964 HR53=@CAELT@
ZPX0528 152056@CAELT@GG SLZZYMYT@CAELT@152056 SLTRYGYZ@CAELT@SABO SLTR 152100@CAELT@METAR SLTR 152100Z 28008KT 9999 FEW020 35/23 Q1004 A2967 986.3 HR50@CAELT@CI NOSIG=@CAELT@
ZPX0529 152057@CAELT@GG SLZZYMYT@CAELT@152056 SLCBYGYZ@CAELT@SABO SLCB 152100@CAELT@METAR SLCB 152100Z 26006KT 9999 FEW036 SCT200 27/01 Q1017 A3004 745.4@CAELT@HR18 FU NOSIG=@CAELT@
ZPX0530 152057@CAELT@GG SLZZYMYT@CAELT@152057 SLLPYFYA@CAELT@SABO SLRY 152100@CAELT@METAR SLRY 152100Z 34016KT 9999 NSC 35/20 Q1004 A2967@CAELT@HR42 RWY NML@CAELT@
ZPX0531 152057@CAELT@GG SLZZYMYT@CAELT@152056 SLTJYGYZ@CAELT@SABO SLTJ 152100@CAELT@METAR SLTJ 152100Z 15010KT 9999 BKN027 BKN070 18/13 Q1015 A2998 811.0@CAELT@HR72=@CAELT@
ZPX0532 152058@CAELT@GG SLZZYMYT@CAELT@152057 SLTRYGYS@CAELT@SABO SLTR 152100@CAELT@METAR SLTR 152100Z 28008KT 9999 FEW020 35/23 Q1004 A2967 986.3 HR50@CAELT@CI NOSIG=@CAELT@METAR SLGM 152100Z NIL=@CAELT@METAR SLRI 152100Z 00000KT 9999 BKN017 FEW020CB 28/23 Q1006 A2972@CAELT@HR76 CB/E AC/CI=METAR SLJO 152100Z NIL=METAR SLRA 152100Z 09003KT 8000 TS VCSH FEW020 FEW023CB SCT200 29/26Q1005 A2970 HR85 RERA CB/SH N/NE/E/SE/S TS N/NE RWY HUM OPR=METAR SLMG 152100Z 32008KT 8000 VCSH SCT017 FEW023CB BKN200 35/23Q1006 A2973 HR51 CB/SH S/SW RWY NML=METAR SLBU 152100Z NIL=METAR SLSA 152100Z 30006KT 9999 FEW017 34/23 Q1004 A2967 HR51=METAR SLSR 152100Z 32012KT 9999 FEW017 34/23 Q1003 A2963 HR50RWY NML=METAR SLSM 152100Z 33010KT 9999 FEW017 34/23 Q1003 A2965 HR53
ZPX0534 152059@CAELT@GG SLZZYMYT@CAELT@152100 SLLPYFYA@CAELT@SABO SLLP 152100@CAELT@METAR SLLP 152100Z 15005KT 110V200 9999 FEW020 FEW023CB BKN200@CAELT@16/M05 Q1033 A3051 624.8 HR23 P3483 CB/SH SE/SW AC NOSIG=@CAELT@METAR SLRY 152100Z 34016KT 9999 NSC 35/20 Q1004 A2967@CAELT@HR42 RWY NML=@CAELT@METAR SLRQ 152000Z 35006KT 9999 FEW020 35/24 Q1003 A2964 HR53=METAR SLSB 152100Z 30008KT 9999 FEW020 35/22 Q1003 A2963 HR46RWY NML=
ZPX0535 152059@CAELT@GG SLZZYMYT@CAELT@152057 SLTRYGYS@CAELT@SABO SLTR 152100@CAELT@METAR SLTR 152100Z 28008KT 9999 FEW020 35/23 Q1004 A2967 986.3 HR50@CAELT@CI NOSIG=@CAELT@METAR SLGM 152100Z NIL=@CAELT@METAR SLRI 152100Z 00000KT 9999 BKN017 FEW020CB 28/23 Q1006 A2972@CAELT@HR76 CB/E AC/CI=METAR SLJO 152100Z NIL=METAR SLRA 152100Z 09003KT 8000 TS VCSH FEW020 FEW023CB SCT200 29/26Q1005 A2970 HR85 RERA CB/SH N/NE/E/SE/S TS N/NE RWY HUM OPR=METAR SLMG 152100Z 32008KT 8000 VCSH SCT017 FEW023CB BKN200 35/23Q1006 A2973 HR51 CB/SH S/SW RWY NML=METAR SLBU 152100Z NIL=METAR SLSA 152100Z 30006KT 9999 FEW017 34/23 Q1004 A2967 HR51=METAR SLSR 152100Z 32012KT 9999 FEW017 34/23 Q1003 A2963 HR50RWY NML=METAR SLSM 152100Z 33010KT 9999 FEW017 34/23 Q1003 A2965 HR53
ZPX0537 152100@CAELT@GG SLZZYMYT@CAELT@152100 SLCBYGYS@CAELT@SABO SLCB 152100@CAELT@METAR SLCB 152100Z 26006KT 9999 FEW036 SCT200 27/01 Q1017 A3004 745.4@CAELT@HR18 FU NOSIG=@CAELT@METAR SLAL 152100Z 02015G25KT 9999 SCT023 FEW033CB SCT200 19/10 Q1023@CAELT@A3022 699.7 HR56 CB/N/SE/S/SW/NW=@CAELT@METAR SLTJ 152100Z 15010KT 9999 BKN027 BKN070 18/13 Q1015 A2998 811.0HR72=
ZPX0540 152103@CAELT@GG SLZZYMYT@CAELT@152100 SLVRYGYU@CAELT@SABO SLVR 152100@CAELT@METAR SLVR 152100Z 30010KT 9999 SCT020 SCT200 33/22 Q1005 A2970 HR52@CAELT@NOSIG=@CAELT@METAR SLET 152100Z 13003KT 9999 SCT020 31/21 Q1005 A2970 HR56 NOSIG=@CAELT@METAR SLAS 152100Z 34015KT 9999 FEW020 34/22 Q1005 A2968 HR50 RWY NML@CAELT@METAR SLCP 152100Z 36012KT 9999 SCT020 30/22 Q1010 A2983 HR60 RWY NMLMETAR SLSI 152100Z 33006KT 9999 TS SCT017 FEW025CB BKN200 28/23 Q1005A2968 HR72 CB/TS NE/N RWY NML=METAR SLRB 152100Z 36005KT 9999 SCT020 35/23 Q1007 A2974 HR49 RWY NMLMETAR SLCA 152100Z 18004KT 9999 BKN036 OVC070 27/16 Q1011 A2985 HR54RWY NML=
ZPX0560 152152@CAELT@GG SLZZYMYT@CAELT@152148 SLETYMYC@CAELT@SABO SLET 152200@CAELT@METAR SLET 152200Z14003KT 9999 FEW017 30/21 Q1006 A2972 HR59 CI NOSIG=@CAELT@
ZPX0561 152153@CAELT@GG SLZZYMYT@CAELT@152153 SLCAYGYS@CAELT@SABO SLCA 152200@CAELT@METAR SLCA 152200Z 00000KT 9999 BKN036 OVC070 26/16 Q1011 A2985 HR55@CAELT@SH SW/W/NW RWY NML=@CAELT@
ZPX0562 152154@CAELT@GG SLZZYMYT@CAELT@152155 SLSBYSYX@CAELT@SABO SLSB 152200@CAELT@METAR SLSB 152200Z 30006KT 9999 FEW020 34/22 Q1003 A2962 HR48 RWY NML=@CAELT@
ZPX0564 152154@CAELT@GG SLZZYMYT@CAELT@152155 SLVRYGYZ@CAELT@SABO SLVR 152200@CAELT@METAR SLVR 152200Z 29005KT 9999 FEW020 SCT200 31/22 Q1006 A2972 HR58@CAELT@NOSIG=@CAELT@
ZPX0565 152154@CAELT@GG SLZZYMYT@CAELT@152154 SLSAYGYS@CAELT@SABO SLSA 152200@CAELT@METAR SLSA 152200Z 30005KT 9999 FEW017 33/23 Q1004 A2967 HR56=@CAELT@
ZPX0566 152155@CAELT@GG SLZZYMYT@CAELT@152155 SLLPYFYA@CAELT@SABO SLRY 152200@CAELT@METAR SLRY 152200Z 34012KT 9999 NSC 34/21 Q1003 A2964@CAELT@HR47 RWY NML@CAELT@
ZPX0567 152155@CAELT@GG SLZZYMYT@CAELT@152155 SLRQYSYX@CAELT@SABO SLRQ 152200@CAELT@METAR SLRQ 152200Z 00000KT 9999 NSC 33/24 Q1003 A2963 HR61=@CAELT@
ZPX0568 152155@CAELT@GG SLZZYMYT@CAELT@152155 SLLPYGYZ@CAELT@SABO SLLP 152200@CAELT@METAR SLLP 152200Z 09004KT 9999 FEW017 FEW020CB BKN200 15/M07@CAELT@Q1033 A3053 625.1 HR21 P3483 CB/SH/NW AC NOSIG=@CAELT@
ZPX0569 152156@CAELT@GG SLZZYMYT@CAELT@152154 SLRBYGYS@CAELT@SABO SLRB 152200@CAELT@METAR SLRB 152200Z 00000KT 9999 FEW020 34/23 Q1007 A2974 HR54 RWY NML=@CAELT@
ZPX0570 152156@CAELT@GG SLZZYMYT@CAELT@152156 SLTRYGYZ@CAELT@SABO SLTR 152200@CAELT@METAR SLTR 152200Z 32006KT 9999 FEW020 SCT200 34/23 Q1004 A2967@CAELT@986.3 HR53 NOSIG=@CAELT@
ZPX0571 152156@CAELT@GG SLZZYMYT@CAELT@152155 SLTJYGYZ@CAELT@SABO SLTJ 152200@CAELT@METAR SLTJ 152200Z 15008KT 9999 BKN027 OVC070 18/14 Q1016 A3000 811.6@CAELT@HR76=@CAELT@
ZPX0572 152156@CAELT@GG SLZZYMYT@CAELT@152155 SLCBYGYZ@CAELT@SABO SLCB 152200@CAELT@METAR SLCB 152200Z 16010KT 9999 FEW040 26/02 Q1017 A3005 745.6 HR21@CAELT@FU CI NOSIG=@CAELT@
ZPX0574 152157@CAELT@GG SLZZYMYT@CAELT@152157 SLVRYGYU@CAELT@SABO SLVR 152200@CAELT@METAR SLVR 152200Z 29005KT 9999 FEW020 SCT200 31/22 Q1006 A2972 HR58@CAELT@NOSIG=@CAELT@METAR SLET 152200Z 14003KT 9999 FEW017 30/21 Q1006 A2972 HR59 CI@CAELT@METAR SLAS 152200Z 34012KT 9999 NSC 33/22 Q1005 A2968 HR53 RWY NML=@CAELT@METAR SLCP 152200Z 36008KT 9999 SCT020 26/22 Q1010 A2983 HR76 RWY NMLMETAR SLSI 152200Z 35005KT 9999 SCT017 BKN200 28/23 Q1006 A2971 HR72RETS RWY NML=METAR SLRB 152200Z 00000KT 9999 FEW020 34/23 Q1007 A2974 HR54 RWY NMLMETAR SLCA 152200Z 00000KT 9999 BKN036 OVC070 26/16 Q1011 A2985 HR55SH SW/W/NW RWY NML=
ZPX0575 152157@CAELT@GG SLZZYMYT@CAELT@152158 SLCBYGYS@CAELT@SABO SLCB 152200@CAELT@METAR SLCB 152200Z 16010KT 9999 FEW040 26/02 Q1017 A3005 745.6 HR21@CAELT@FU CI NOSIG=@CAELT@METAR SLAL 152200Z 02018KT 9999 SCT020 FEW030CB SCT200 17/10 Q1024@CAELT@A3025 700.5 HR64 CB/SE/S/SW=@CAELT@METAR SLTJ 152200Z 15008KT 9999 BKN027 OVC070 18/14 Q1016 A3000811.6 HR76=
ZPX0577 152200@CAELT@GG SLZZYMYT@CAELT@152200 SLLPYFYA@CAELT@SABO SLLP 152200@CAELT@METAR SLLP 152200Z 09004KT 9999 FEW017 FEW020CB BKN200 15/M07@CAELT@Q1033 A3053 625.1 HR21 P3483 CB/SH/NW AC NOSIG=@CAELT@METAR SLRY 152200Z 34012KT 9999 NSC 34/21 Q1003 A2964@CAELT@HR47 RWY NML=@CAELT@METAR SLRQ 152200Z 00000KT 9999 NSC 33/24 Q1003 A2963 HR61=METAR SLSB 152200Z 30006KT 9999 FEW020 34/22 Q1003 A2962HR48 RWY NML=
ZPX0578 152202@CAELT@GG SLZZYMYT@CAELT@152201 SLTRYGYS@CAELT@SABO SLTR 152200@CAELT@METAR SLTR 152200Z 32006KT 9999 FEW020 SCT200 34/23 Q1004 A2967@CAELT@986.3 HR53 NOSIG=@CAELT@METAR SLGM 152200Z NIL=@CAELT@METAR SLRI 152200Z 06007KT 9999 BKN017 FEW020CB BKN200 29/24 Q1009@CAELT@A2973 HR75 CB/SE AC=METAR SLJO 152200Z NIL=METAR SLRA 152200Z 08004KT 8000 TS VCSH FEW020 FEW023CB BKN200 32/24Q1005 A2969 HR64 CB/SH E/SE/S TS E RWY HUMP=METAR SLMG 152200Z 16006KT 6000 TS VCSH SCT017 FEW023CB BKN20030/24 Q1006 A2973 HR68 CB/TS/SH SE/S RWY NML=METAR SLBU 152200Z NIL=METAR SLSA 152200Z 30005KT 9999 FEW017 33/23 Q1004 A2967 HR56=METAR SLSR 152200Z 32010KT 9999 FEW017 34/23 Q1002 A2960 HR51RWY NML=METAR SLSM 152200Z 36006KT 9999 NSC 33/23 Q1003 A2964 HR55
ZPX0592 152250@CAELT@GG SLZZYMYT@CAELT@152250 SLRBYGYS@CAELT@SABO SLRB 152300@CAELT@METAR SLRB 152300Z 00000KT 9999 FEW027CB 32/24 Q1007 A2974 HR63 CB N/@CAELT@NE/NW RWY NML=@CAELT@
ZPX0593 152251@CAELT@GG SLZZYMYT@CAELT@152250 SLRBYGYS@CAELT@SABO SLRB 152300@CAELT@METAR SLRB 152300Z 00000KT 9999 FEW027CB 32/24 Q1007 A2974 HR63 CB N/@CAELT@NE/NW RWY NML=@CAELT@
ZPX0594 152252@CAELT@GG SLZZYMYT@CAELT@152251 SLSAYGYS@CAELT@SABO SLSA 152300@CAELT@METAR SLSA 152300Z 34004KT 9999 FEW017 FEW023CB 31/23 Q1005 A2968@CAELT@HR66 CB NE=@CAELT@
ZPX0595 152254@CAELT@GG SLZZYMYT@CAELT@152255 SLSBYSYX@CAELT@SABO SLSB 152300@CAELT@METAR SLSB 152300Z 00000KT 9999 NSC 32/22 Q1004 A2967 HR56 RWY NML=@CAELT@
ZPX0596 152254@CAELT@GG SLZZYMYT@CAELT@152255 SLVRYGYZ@CAELT@SABO SLVR 152300@CAELT@METAR SLVR 152300Z 26004KT 9999 FEW023 SCT200 29/22 Q1006 A2973 HR69@CAELT@NOSIG=@CAELT@
ZPX0597 152255@CAELT@GG SLLPZRZX@CAELT@152255 SLLPYGYZ@CAELT@SABO SLLP 152300@CAELT@METAR SLLP 152300Z 08007KT 9999 FEW015 SCT200 13/M03 Q1033 A3053@CAELT@625.1 HR31 AC NOSIG=@CAELT@
ZPX0598 152255@CAELT@GG SLZZYMYT@CAELT@152255 SLCAYGYS@CAELT@SABO SLCA 152300@CAELT@METAR SLCA 152300Z 18003KT 9999 BKN036 OVC070 25/17 Q1013 A2991 HR61@CAELT@RWY NML=@CAELT@
ZPX0599 152256@CAELT@GG SLZZYMYT@CAELT@152256 SLTRYGYZ@CAELT@SABO SLTR 152300@CAELT@METAR SLTR 152300Z 00000KT 9999 FEW023CB SCT200 32/23 Q1005 A2969@CAELT@986.9 HR59 CB NE NOSIG=@CAELT@
ZPX0600 152256@CAELT@GG SLZZYMYT@CAELT@152257 SLVRYGYU@CAELT@SABO SLVR 152300@CAELT@METAR SLVR 152300Z 26004KT 9999 FEW023 SCT200 29/22 Q1006 A2973 HR69@CAELT@NOSIG=@CAELT@METAR SLSI 152300Z 00000KT 9999 SCT017 26/23 Q1006 A2971 HR84 RWY NML@CAELT@METAR SLRB 152300Z 00000KT 9999 FEW027CB 32/24 Q1007 A2974 HR63 CB N/@CAELT@NE/NW RWY NML=METAR SLCA 152300Z 18003KT 9999 BKN036 OVC070 25/17 Q1013 A2991 HR61RWY NML=
ZPX0601 152257@CAELT@GG SLZZYMYT@CAELT@152256 SLCBYGYZ@CAELT@SABO SLCB 152300@CAELT@METAR SLCB 152300Z 14008KT 090V230 9999 FEW036 24/02 Q1018 A3006 746.@CAELT@0 HR22 FU CI NOSIG=@CAELT@
ZPX0602 152257@CAELT@GG SLZZYMYT@CAELT@152257 SLTRYGYS@CAELT@SABO SLTR 152300@CAELT@METAR SLTR 152300Z 00000KT 9999 FEW023CB SCT200 32/23 Q1005 A2969@CAELT@986.9 HR59 CB NE NOSIG=@CAELT@METAR SLRI 152300Z 06005KT 9999 BKN015 FEW020CB BKN200 26/23 Q1007@CAELT@A2975 HR83 CB E/SE AC=@CAELT@METAR SLSA 152300Z 34004KT 9999 FEW017 FEW023CB 31/23 Q1005 A2968HR66 CB NE=
ZPX0604 152300@CAELT@GG SLZZYMYT@CAELT@152300 SLLPYFYA@CAELT@SABO SLLP 152300@CAELT@METAR SLLP 152300Z 08007KT 9999 FEW015 SCT200 13/M03 Q1033 A3053@CAELT@625.1 HR31 AC NOSIG=@CAELT@METAR SLSB 152300Z 00000KT 9999 NSC 32/22 Q1004 A2967 HR56 RWY NML=@CAELT@
ZPX0623 152355@CAELT@GG SLLPZRZX@CAELT@152355 SLLPYGYZ@CAELT@SABO SLLP 160000@CAELT@METAR SLLP 160000Z 10006KT 9999 FEW015 SCT200 09/M02 Q1034 A3055@CAELT@625.6 HR45 NOSIG=@CAELT@
