
ZPX0003 140002@CAELT@GG SLZZYMYT@CAELT@140001 SLCBYGYS@CAELT@SABO SLCB 140000@CAELT@METAR SLCB 140000Z 16004KT 9999 FEW036 BKN200 21/05 Q1019 A3011 747.1@CAELT@HR35 FU AC NOSIG=@CAELT@METAR SLTJ 140000Z 13005KT 9999 FEW033 FEW036CB BKN200 22/14 Q1017@CAELT@A3004 812.6 HR61 CB LT NE/W=@CAELT@
ZPX0018 140054@CAELT@GG SLZZYMYT@CAELT@140055 SLVRYGYZ@CAELT@SABO SLVR 140100@CAELT@METAR SLVR 140100Z 32008KT 9999 FEW017 SCT070 25/23 Q1008 A2979 HR87@CAELT@CI NOSIG=@CAELT@
ZPX0021 140056@CAELT@GG SLLPZRZX@CAELT@140056 SLLPYGYZ@CAELT@SABO SLLP 140100@CAELT@METAR SLLP 140100Z 09007KT 9999 FEW010 SCT200 10/M04 Q1035 A3059@CAELT@626.5 HR37 AC NOSIG=@CAELT@
ZPX0022 140058@CAELT@GG SLZZYMYT@CAELT@140057 SLCBYGYZ@CAELT@SABO SLCB 140100@CAELT@METAR SLCB 140100Z 00000KT 9999 FEW036 BKN200 20/07 Q1021 A3016 748.5@CAELT@HR42 FU NOSIG=@CAELT@
ZPX0030 140154@CAELT@GG SLZZYMYT@CAELT@140154 SLVRYGYZ@CAELT@SABO SLVR 140200@CAELT@METAR SLVR 140200Z 34008KT 9999 FEW017 SCT070 24/23 Q1008 A2979 HR94@CAELT@CI NOSIG=@CAELT@
ZPX0031 140156@CAELT@GG SLLPZRZX@CAELT@140156 SLLPYGYZ@CAELT@SABO SLLP 140200@CAELT@METAR SLLP 140200Z VRB02KT 9999 FEW010 SCT200 09/03 Q1037 A3064@CAELT@627.7 HR64 AC NOSIG=@CAELT@
ZPX0033 140200@CAELT@GG SLZZYMYT@CAELT@140155 SLCBYGYZ@CAELT@SABO SLCB 140200@CAELT@METAR SLCB 140200Z 00000KT 9999 FEW036 BKN200 19/07 Q1022 A3019 749.4@CAELT@HR47 FU AC NOSIG=@CAELT@
ZPX0040 140255@CAELT@GG SLZZYMYT@CAELT@140256 SLVRYGYZ@CAELT@SABO SLVR 140300@CAELT@METAR SLVR 140300Z 33006KT 9999 SCT017 OVC070 25/23 Q1010 A2983 HR92@CAELT@NOSIG=@CAELT@
ZPX0041 140256@CAELT@GG SLLPZRZX@CAELT@140256 SLLPYGYZ@CAELT@SABO SLLP 140300@CAELT@METAR SLLP 140300Z 02005KT 9999 FEW012 SCT200 09/M02 Q1037 A3065@CAELT@627.8 HR45 NOSIG=@CAELT@
ZPX0042 140256@CAELT@GG SLZZYMYT@CAELT@140255 SLCBYGYZ@CAELT@SABO SLCB 140300@CAELT@METAR SLCB 140300Z 07005KT 9999 NSC 19/07 Q1023 A3022 750.0 HR47 FU@CAELT@CI NOSIG=@CAELT@
ZPX0059 140354@CAELT@GG SLZZYMYT@CAELT@140354 SLVRYGYZ@CAELT@SABO SLVR 140400@CAELT@METAR SLVR 140400Z 34008KT 9999 BKN017 OVC070 25/23 Q1010 A2983 HR92@CAELT@NOSIG=@CAELT@
ZPX0060 140356@CAELT@GG SLLPZRZX@CAELT@140356 SLLPYGYZ@CAELT@SABO SLLP 140400@CAELT@METAR SLLP 140400Z 09004KT 9999 FEW012 06/04 Q1037 A3064 627.7@CAELT@HR86 CI NOSIG=@CAELT@
ZPX0061 140357@CAELT@GG SLZZYMYT@CAELT@140356 SLCBYGYZ@CAELT@SABO SLCB 140400@CAELT@METAR SLCB 140400Z 35003KT 9999 NSC 18/08 Q1023 A3023 750.4 HR51 FU@CAELT@CI NOSIG=@CAELT@
ZPX0072 140454@CAELT@GG SLZZYMYT@CAELT@140454 SLVRYGYZ@CAELT@SABO SLVR 140500@CAELT@METAR SLVR 140500Z 30005KT 9999 BKN017 OVC070 24/23 Q1011 A2985 HR93@CAELT@NOSIG=@CAELT@
ZPX0073 140456@CAELT@GG SLLPZRZX@CAELT@140456 SLLPYGYZ@CAELT@SABO SLLP 140500@CAELT@METAR SLLP 140500Z 10007KT 4000E VCFG FEW003 07/05 Q1037 A3063@CAELT@627.5 HR89 VCFG NE/E CI NOSIG=@CAELT@
ZPX0075 140500@CAELT@GG SLZZYMYT@CAELT@140455 SLCBYGYZ@CAELT@SABO SLCB 140500@CAELT@METAR SLCB 140500Z 34004KT 9999 NSC 18/08 Q1023 A3022 750.2 HR50 FU@CAELT@CI NOSIG=@CAELT@
ZPX0083 140555@CAELT@GG SLZZYMYT@CAELT@140556 SLVRYGYZ@CAELT@SABO SLVR 140600@CAELT@METAR SLVR 140600Z 32005KT 9999 BKN017 FEW030CB OVC070 24/23 Q1010@CAELT@A2984 HR92 CB/LT SE/S/SW TEMPO 5000 RA=@CAELT@
ZPX0085 140556@CAELT@GG SLLPZRZX@CAELT@140556 SLLPYGYZ@CAELT@SABO SLLP 140600@CAELT@METAR SLLP 140600Z 06007KT 4000E VCFG FEW003 SCT200 06/05 Q1036@CAELT@A3061 627.1 HR95 VCFG NE/E/SE NOSIG=@CAELT@
ZPX0096 140654@CAELT@GG SLZZYMYT@CAELT@140654 SLVRYGYZ@CAELT@SABO SLVR 140700@CAELT@METAR SLVR 140700Z 24008KT 9999 TS BKN017 FEW030CB OVC070 24/24 Q1010@CAELT@A2984 HR95 CB/TS/LT ON STN SE/S/SW TEMPO 5000 TSRA=@CAELT@
ZPX0098 140656@CAELT@GG SLZZYMYT@CAELT@140655 SLLPYGYZ@CAELT@SABO SLLP 140700@CAELT@METAR SLLP 140700Z 09007KT 4000E VCFG FEW003 SCT010 FEW017CB 06/06@CAELT@Q1036 A3061 627.0 HR97 VCFG NE/E/SE/S CB/LT N AC/CI NOSIG=@CAELT@
ZPX0101 140706@CAELT@GG SLZZYMYT@CAELT@140658 SLCBYGYZ@CAELT@SABO SLCB 140700@CAELT@METAR SLCB 140700Z 13004KT 9999 NSC 17/08 Q1023 A3021 749.8 HR55 FU@CAELT@CI NOSIG=@CAELT@
ZPX0108 140755@CAELT@GG SLZZYMYT@CAELT@140755 SLVRYGYZ@CAELT@SABO SLVR 140800@CAELT@METAR SLVR 140800Z 19012KT 7000 -TSRA SCT017 FEW030CB OVC070 21/20@CAELT@Q1012 A2990 HR92 CB/TS/LT ON STN S/SW/NW NOSIG=@CAELT@
ZPX0109 140756@CAELT@GG SLLPZRZX@CAELT@140755 SLLPYGYZ@CAELT@SABO SLLP 140800@CAELT@METAR SLLP 140800Z 09009KT 4000E VCFG FEW003 SCT010 FEW017CB 07/06@CAELT@Q1035 A3059 626.6 HR92 VCFG N/NE/E/SE/S CB/LT NW AC/CI NOSIG=@CAELT@
ZPX0110 140758@CAELT@GG SLZZYMYT@CAELT@140755 SLCBYGYZ@CAELT@SABO SLCB 140800@CAELT@METAR SLCB 140800Z 00000KT 9999 FEW036 BKN200 15/09 Q1023 A3021 749.9@CAELT@HR66 FU AC NOSIG=@CAELT@
ZPX0121 140854@CAELT@GG SLZZYMYT@CAELT@140846 SLPSYGYS@CAELT@SABO SLPS 091400@CAELT@METAR SLPS 091400Z 00000KT 9999 BKN070 18/13 Q1006 A2971 HR76/@CAELT@
ZPX0122 140854@CAELT@GG SLZZYMYT@CAELT@140855 SLVRYGYZ@CAELT@SABO SLVR 140900@CAELT@METAR SLVR 140900Z 18010KT 7000 -TSRA SCT017 FEW030CB OVC070 21/20@CAELT@Q1013 A2991 HR94 CB/TS/LT ON STN N/S/NW NOSIG=@CAELT@
ZPX0123 140856@CAELT@GG SLLPZRZX@CAELT@140855 SLLPYGYZ@CAELT@SABO SLLP 140900@CAELT@METAR SLLP 140900Z 10007KT 4000E VCFG FEW003 SCT008 FEW017CB 07/06@CAELT@Q1035 A3059 626.5 HR93 VCFG NE/E/SE/S CB/LT NW AC/CI NOSIG=@CAELT@
ZPX0124 140857@CAELT@GG SLZZYMYT@CAELT@140856 SLTRYGYZ@CAELT@SABO SLTR 140900@CAELT@METAR SLTR 140900Z 01006KT 9999 SCT080 25/23 Q1009 A2980 990.6@CAELT@HR88 NOSIG=@CAELT@
ZPX0125 140857@CAELT@GG SLZZYMYT@CAELT@140857 SLTRYGYS@CAELT@SABO SLTR 140900@CAELT@METAR SLTR 140900Z 01006KT 9999 SCT080 25/23 Q1009 A2980 990.6@CAELT@HR88 NOSIG=@CAELT@METAR SLRI 140900Z 00000KT 9999 NSC 23/23 Q1011 A2986 HR94=@CAELT@
ZPX0126 140858@CAELT@GG SLZZYMYT@CAELT@140856 SLPSYGYS@CAELT@SABO SLPS 140900@CAELT@METAR SLPS 140900Z 00000KT 9999 BKN070 18/13 Q1006 A2971 HR76/@CAELT@
ZPX0128 140900@CAELT@GG SLZZYMYT@CAELT@140859 SLCBYGYZ@CAELT@SABO SLCB 140900@CAELT@METAR SLCB 140900Z 26004KT 9999 FEW033 FEW036CB BKN200 14/08 Q1023@CAELT@A3021 749.9 HR69 CB/LT DIST N/NE FU AC NOSIG=@CAELT@
ZPX0135 140915@CAELT@GG SLZZYMYT@CAELT@140913 SLETYMYC@CAELT@SABO SLET 140900@CAELT@METAR SLET 140900Z 14010KT 3000 -TSRA BKN007 BKN015 FEW027CB OVC070@CAELT@21/20 Q1013 A2992 HR96 CB/TS/SW/NW/N NOSIG=@CAELT@
ZPX0146 140952@CAELT@GG SLZZYMYT@CAELT@140952 SLETYMYC@CAELT@SABO SLET 141000@CAELT@METAR SLET 141000Z 14015KT 3000 -TSRA BKN007 BKN015 FEW027CB OVC070@CAELT@21/21 Q1013 A2992 HR98 CB/TS/ON STN/SW/NW/N NOSIG=@CAELT@
ZPX0147 140953@CAELT@GG SLZZYMYT@CAELT@140953 SLCAYGYS@CAELT@SABO SLCA 141000@CAELT@METAR SLCA 141000Z 00000KT 9999 BKN033 OVC070 20/17 Q1018 A3006 HR81@CAELT@RWY NML=@CAELT@
ZPX0148 140954@CAELT@GG SLZZYMYT@CAELT@140954 SLVRYGYZ@CAELT@SABO SLVR 141000@CAELT@METAR SLVR 141000Z 17014KT 5000 -TSRA BKN017 FEW030CB OVC070 21/20@CAELT@Q1013 A2993 HR96 CB/TS/LT ON STN N/W/NW NOSIG=@CAELT@
ZPX0149 140955@CAELT@GG SLZZYMYT@CAELT@140952 SLPSYGYS@CAELT@SABO SLPS 141000@CAELT@METAR SLPS 141000Z 18008KT 9999 BKN070 19/14 Q1007 A2974 HR75=@CAELT@
ZPX0151 140955@CAELT@GG SLZZYMYT@CAELT@140955 SLCOYGYZ@CAELT@SABO SLCO 141000@CAELT@METAR SLCO 141000Z 00000KT 9999 FEW040 BKN080 25/24 Q1011 A2985 983.6@CAELT@HR94=@CAELT@
ZPX0152 140955@CAELT@GG SLZZYMYT@CAELT@140954 SLSAYGYS@CAELT@SABO SLSA 141000@CAELT@METAR SLSA 141000Z 36004KT 9999 SCT080 24/24 Q1009 A2980 HR97=@CAELT@
ZPX0153 140955@CAELT@GG SLZZYMYT@CAELT@140954 SLUYYGYS@CAELT@SABO SLUY 141000@CAELT@METAR SLUY 141000Z 02003KT 9999 FEW080 BKN200 04/M07 Q1032@CAELT@A3048 657.1 HR45=@CAELT@
ZPX0154 140955@CAELT@GG SLZZYMYT@CAELT@140955 SLTRYGYZ@CAELT@SABO SLTR 141000@CAELT@METAR SLTR 141000Z 36003KT 9999 SCT080 SCT200 25/23 Q1009 A2982@CAELT@991.2 HR89 NOSIG=@CAELT@
ZPX0155 140955@CAELT@GG SLZZYMYT@CAELT@140954 SLRBYGYS@CAELT@SABO SLRB 141000@CAELT@METAR SLRB 141000Z 00000KT 9999 OVC006 22/21 Q1017 A3003 HR90 RWY NML=@CAELT@
ZPX0156 140956@CAELT@GG SLZZYMYT@CAELT@140955 SLLPYGYZ@CAELT@SABO SLLP 141000@CAELT@METAR SLLP 141000Z 08006KT 4000E VCFG FEW003 FEW017CB BKN200 05/04@CAELT@Q1036 A3060 626.9 HR95 P4352 VCFG E/SE/S CB/NW AC NOSIG=@CAELT@
ZPX0157 140956@CAELT@GG SLZZYMYT@CAELT@140956 SLTRYGYS@CAELT@SABO SLTR 141000@CAELT@METAR SLTR 141000Z 36003KT 9999 SCT080 SCT200 25/23 Q1009 A2982 991.2@CAELT@HR89 NOSIG=@CAELT@METAR SLGM 141000Z 02004KT 9999 FEW017 25/23 Q1010 A2982 HR92=@CAELT@METAR SLRI 141000Z 00000KT 9999 SCT080 23/23 Q1011 A2986 HR94=@CAELT@METAR SLJO 141000Z 00000KT 9999 NSC 24/23 Q1009 A2981 HR95 CIRWY NML=METAR SLRA 141000Z 06003KT 9999 FEW080 SCT200 24/23 Q1009 A2982 HR94METAR SLMG 141000Z 00000KT 9999 FEW080 24/24 Q1009 A2981 HR98 CIMETAR SLBU 141000Z NIL=METAR SLSA 141000Z 36004KT 9999 SCT080 24/24 Q1009 A2980 HR97=METAR SLSR 141000Z 32006KT 9999 FEW020 SCT080 BKN200 25/24 Q1008A2977 HR95 RWY NML=METAR SLSM 141000Z 00000KT 9999 SCT080 24/23 Q1009 A2980 HR92
ZPX0158 140957@CAELT@GG SLZZYMYT@CAELT@140956 SLCBYGYZ@CAELT@SABO SLCB 141000@CAELT@METAR SLCB 141000Z 00000KT 9999 FEW033 FEW036CB BKN200 14/07 Q1023@CAELT@A3023 750.4 HR63 CB DIST NE FU AC NOSIG=@CAELT@
ZPX0159 140957@CAELT@GG SLZZYMYT@CAELT@140957 SLVRYFYC@CAELT@SABO SLVR 141000@CAELT@METAR SLVR 141000Z 17014KT 5000 -TSRA BKN017 FEW030CB OVC070 21/20@CAELT@Q1013 A2993 HR96 CB/TS/LT ON STN/N/W/NW NOSIG=@CAELT@METAR SLET 141000Z 14015KT 3000 -TSRA BKN007 BKN015 FEW027CB OVC070@CAELT@21/21 Q1013 A2992 HR98 CB/TS/ON STN/SW/NW/N NOSIG=@CAELT@METAR SLCP 141000Z 00000KT 9999 FEW015 OVC200 22/21 Q1014 A2994 HR97RWY NML=METAR SLSI 141000Z 00000KT 9999 BKN070 23/22 Q1012 A2988 HR92 RWY NMLMETAR SLRB 141000Z 00000KT 9999 OVC006 22/21 Q1017 A3003 HR90 RWY NMLMETAR SLPS 141000Z 18008KT 9999 BKN070 19/14 Q1007 A2974 HR75=METAR SLCA 141000Z 00000KT 9999 BKN033 OVC070 20/17 Q1018 A3006 HR81
ZPX0160 140958@CAELT@GG SLZZYMYT@CAELT@140958 SLLPYFYA@CAELT@SABO SLRY 141000@CAELT@METAR SLRY 141010Z 00000KT 9999 SCT015 BKN023 24/24 Q1007 A2976@CAELT@HR98 RERA RWY HUM OPR=@CAELT@
ZPX0161 140958@CAELT@GG SLZZYMYT@CAELT@140957 SLSBYSYX@CAELT@SABO SLSB 141000@CAELT@METAR SLSB 141000Z 00000KT 8000 VCSH SCT012 BKN080 24/24 Q1009 A2980@CAELT@HR98 RESH SH SE RWY NML=@CAELT@
ZPX0162 140959@CAELT@GG SLZZYMYT@CAELT@140958 SLCBYGYS@CAELT@SABO SLCB 141000@CAELT@METAR SLCB 141000Z 00000KT 9999 FEW033 FEW036CB BKN200 14/07 Q1023@CAELT@A3023 750.4 HR63 CB DIST NE FU AC NOSIG=@CAELT@METAR SLAL 141000Z 06008KT 9999 FEW005 SCT200 10/08 Q1029 A3038 703.5@CAELT@HR92 AC=@CAELT@
ZPX0164 141001@CAELT@GG SLZZYMYT@CAELT@140959 SLLPYFYA@CAELT@SABO SLLP 141000@CAELT@METAR SLLP 141000Z 08006KT 4000E VCFG FEW003 FEW017CB BKN200 05/04@CAELT@Q1036 A3060 626.9 HR95 P4352 VCFG E/SE/S CB/NW AC NOSIG=@CAELT@METAR SLCO 141000Z 00000KT 9999 FEW040 BKN080 25/24 Q1011 A2985@CAELT@983.6 HR94=@CAELT@METAR SLRY 141010Z 00000KT 9999 SCT015 BKN023 24/24 Q1007 A2976HR98 RERA RWY HUM OPR=METAR SLRQ 141000Z 00000KT 9999 BKN020 BKN070 25/25 Q1009 A2981985.2 HR98=METAR SLAP 141000Z 36008KT 9999 BKN020 19/17 Q1015 A2999 856.4HR89 AC=METAR SLSB 141000Z 00000KT 8000 VCSH SCT012 BKN080 24/24 Q1009A2980 HR98 RESH SH SE RWY NML=METAR SLUY 141000Z 02003KT 9999 FEW080 BKN200 04/M07 Q1032A3048 657.1 HR45=
ZPX0169 141022@CAELT@GG SLZZYMYT@CAELT@141020 SLCBYGYS@CAELT@SABO SLCB 141000 RRA@CAELT@METAR SLCB 141000Z 00000KT 9999 FEW033 FEW036CB BKN200 14/07 Q1023@CAELT@A3023 750.4 HR63 CB DIST NE FU AC NOSIG=@CAELT@METAR SLAL 141000Z 06008KT 9999 FEW005 SCT200 10/08 Q1029 A3038 703.5@CAELT@HR92 AC=@CAELT@METAR RTD SLVM 141000Z 00000KT 9999 FEW023 BKN070 18/18 Q1016 A3002HR98=
ZPX0181 141050@CAELT@GG SLZZYMYT@CAELT@141050 SLCAYGYS@CAELT@SABO SLCA 141100@CAELT@METAR SLCA 141100Z 18004KT 9999 BKN033 OVC070 21/16 Q1019 A3009 HR71@CAELT@RWY NML=@CAELT@
ZPX0182 141051@CAELT@GG SLZZYMYT@CAELT@141050 SLPSYGYS@CAELT@SABO SLPS 141100@CAELT@METAR SLPS 141100Z 180KT 9999 BKN070 19/14 Q1007 A2974 HR75=@CAELT@
ZPX0183 141053@CAELT@GG SLZZYMYT@CAELT@141052 SLRBYGYS@CAELT@SABO SLRB 141100@CAELT@METAR SLRB 141100Z 00000KT 9999 OVC006 21/20 Q1018 A3006 HR95 RERA@CAELT@RWY WET OPR=@CAELT@
ZPX0184 141053@CAELT@GG SLZZYMYT@CAELT@141052 SLETYMYC@CAELT@SABO SLET 141100@CAELT@METAR SLET 141100Z 16014G24KT 4000 -TSRA BKN008 BKN015 FEW027CB@CAELT@OVC070 21/21 Q1015 A2998 HR98 CB/TS/SE/SW/NW/N NOSIG=@CAELT@
ZPX0185 141054@CAELT@GG SLZZYMYT@CAELT@141055 SLCOYGYZ@CAELT@SABO SLCO 141100@CAELT@METAR SLCO 141100Z 02003KT 9999 FEW040 BKN080 25/24 Q1011 A2987 984.1@CAELT@HR92=@CAELT@
ZPX0186 141054@CAELT@GG SLZZYMYT@CAELT@141055 SLVRYGYZ@CAELT@SABO SLVR 141100@CAELT@METAR SLVR 141100Z 18012G24KT 4000 -TSRA BKN017 FEW030CB OVC070 20/19@CAELT@Q1015 A2999 HR94 CB/TS/LT N/W/NW NOSIG=@CAELT@
ZPX0187 141055@CAELT@GG SLZZYMYT@CAELT@141055 SLSAYGYS@CAELT@SABO SLSA 141100@CAELT@METAR SLSA 141100Z 33005KT 9999 SCT080 25/24 Q1010 A2983 HR94=@CAELT@
ZPX0188 141055@CAELT@GG SLZZYMYT@CAELT@141055 SLSBYSYX@CAELT@SABO SLSB 141100@CAELT@METAR SLSB 141100Z 00000KT 9999 SCT013 BKN080 25/24 Q1010 A2984 HR96@CAELT@RWY NML=@CAELT@
ZPX0189 141055@CAELT@GG SLZZYMYT@CAELT@141052 SLUYYGYS@CAELT@SABO SLUY 141100@CAELT@METAR SLUY 141100Z VRB02KT 9999 NSC 07/M05 Q1033 A3051@CAELT@657.7 HR43 CI/CC=@CAELT@
ZPX0191 141056@CAELT@GG SLZZYMYT@CAELT@141055 SLLPYGYZ@CAELT@SABO SLLP 141100@CAELT@METAR SLLP 141100Z 10006KT 4000E VCFG FEW003 FEW017CB BKN200 08/06@CAELT@Q1037 A3062 627.3 HR90 P4452 VCFG E/SE CB/DIST/N AC NOSIG=@CAELT@
ZPX0192 141056@CAELT@GG SLZZYMYT@CAELT@141056 SLORYGYZ@CAELT@SABO SLOR 141100@CAELT@METAR SLOR 141100Z 00000KT 9999 FEW015 BKN200 09/02 Q1033 A3052 655.0@CAELT@HR58 FU=@CAELT@
ZPX0193 141057@CAELT@GG SLZZYMYT@CAELT@141057 SLTRYGYZ@CAELT@SABO SLTR 141100@CAELT@METAR SLTR 141100Z 35006KT 9999 FEW080 BKN200 26/24 Q1010 A2985@CAELT@992.3 HR88 NOSIG=@CAELT@
ZPX0194 141058@CAELT@GG SLZZYMYT@CAELT@141056 SLTJYGYZ@CAELT@SABO SLTJ 141100@CAELT@METAR SLTJ 141100Z 32004KT 9999 SCT005 SCT070 BKN200 16/13 Q1021@CAELT@A3018 816.5 HR82=@CAELT@
ZPX0195 141058@CAELT@GG SLZZYMYT@CAELT@141058 SLCBYGYZ@CAELT@SABO SLCB 141100@CAELT@METAR SLCB 141100Z 00000KT 9999 FEW033 BKN200 16/08 Q1024 A3025 750.9@CAELT@HR58 AC FU NOSIG=@CAELT@
ZPX0196 141059@CAELT@GG SLZZYMYT@CAELT@141058 SLTRYGYS@CAELT@SABO SLTR 141100@CAELT@METAR SLTR 141100Z 35006KT 9999 FEW080 BKN200 26/24 Q1010 A2985@CAELT@992.3 HR88 NOSIG=@CAELT@METAR SLGM 141100Z 02004KT 9999 FEW080 25/23 Q1011 A2985 HR91=@CAELT@METAR SLRI 141100Z 00000KT 9999 SCT080 25/23 Q1011 A2988 HR90=@CAELT@METAR SLJO 141100Z 00000KT 9999 NSC 24/23 Q1009 A2982 HR94 CIRWY NML=METAR SLRA 141100Z 09004KT 9999 NSC 25/23 Q1010 A2984 HR88 AC/CIMETAR SLMG 141100Z 00000KT 9999 FEW080 24/23 Q1010 A2983 HR94 CIMETAR SLBU 141100Z NIL=METAR SLSA 141100Z 33005KT 9999 SCT080 25/24 Q1010 A2983 HR94=METAR SLSR 141100Z 32006KT 9999 FEW020 SCT080 BKN200 25/24 Q1008A2979 HR94 RWY NML=METAR SLSM 141100Z 00000KT 9999 BKN080 24/23 Q1010 A2983 HR92
ZPX0199 141101@CAELT@GG SLZZYMYT@CAELT@141100 SLCBYGYS@CAELT@SABO SLCB 141100@CAELT@METAR SLCB 141100Z 00000KT 9999 FEW033 BKN200 16/08 Q1024 A3025 750.9@CAELT@HR58 AC FU NOSIG=@CAELT@METAR SLAL 141100Z 07005KT 9999 FEW007 SCT200 11/08 Q1029 A3041 704.0@CAELT@HR81=@CAELT@METAR SLPO 141100Z 00000KT 9999 FEW013 BKN200 08/05 Q1036 A3059 636.8HR80=METAR SLVM 141100Z 00000KT 9999 FEW023 OVC070 19/18 Q1017 A3004 HR97=METAR SLTJ 141100Z 32004KT 9999 SCT005 SCT070 BKN200 16/13 Q1021A3018 816.5 HR82=
ZPX0201 141103@CAELT@GG SLZZYMYT@CAELT@141100 SLVRYFYC@CAELT@SABO SLVR 141100@CAELT@METAR SLVR 141100Z 18012G24KT 4000 -TSRA BKN017 FEW030CB OVC070 20/19@CAELT@Q1015 A2999 HR94 CB/TS/LT N/W/NW NOSIG=@CAELT@METAR SLET 141100Z 16014G24KT 4000 -TSRA BKN008 BKN015 FEW027CB@CAELT@OVC070 21/21 Q1015 A2998 HR98 CB/TS/SE/SW/NW/N NOSIG=@CAELT@METAR SLAS 141100Z 00000KT 9999 BKN015 FEW030CB OVC200 24/23 Q1014A2994 HR91 CB/SH SE/S/SW RWY NML=METAR SLJV 141100Z 00000KT 9999 BKN070 OVC200 23/22 Q1011 A2985 HR97RWY NML=METAR SLCP 141100Z 00000KT 9999 SCT070 OVC200 23/22 Q1015 A2997 HR96METAR SLSI 141100Z 00000KT 9999 BKN070 24/23 Q1013 A2991 HR90 RWY NMLMETAR SLTI 141100Z 36006KT 9999 SCT015 BKN070 OVC200 27/23 Q1016A3000 HR80 RWY NML=METAR SLJE 141100Z NIL=METAR SLVG 141100Z 17007KT 9999 OVC015 15/14 Q1025 A3027 HR90 RWY NMLMETAR SLRB 141100Z 00000KT 9999 OVC006 21/20 Q1018 A3006 HR95 RERARWY WET OPR=METAR SLPS 141100Z 180KT 9999 BKN070 19/14 Q1007 A2974 HR75=METAR SLCA 141100Z 18004KT 9999 BKN033 OVC070 21/16 Q1019 A3009 HR71
ZPX0206 141106@CAELT@GG SLZZYMYT@CAELT@141100 SLLPYFYA@CAELT@SABO SLLP 141100@CAELT@METAR SLLP 141100Z 10006KT 4000E VCFG FEW003 FEW017CB BKN200 08/06@CAELT@Q1037 A3062 627.3 HR90 P4452 VCFG E/SE CB/DIST/N AC NOSIG=@CAELT@METAR SLCO 141100Z 02003KT 9999 FEW040 BKN080 25/24 Q1011 A2987@CAELT@984.1 HR92=@CAELT@METAR SLRY 141100Z 00000KT 9999 FEW015 BKN025 24/24 Q1008 A2979HR98 RWY HUM OPR=METAR SLRQ 141100Z 00000KT 9999 FEW020 BKN070 25/25 Q1010 A2984986.2 HR97=METAR SLAP 141100Z 36010KT 9999 SCT020 20/18 Q1016 A3001 857.1HR87 AC=METAR SLSB 141100Z 00000KT 9999 SCT013 BKN080 25/24 Q1010 A2984HR96 RWY NML=METAR SLOR 141100Z 00000KT 9999 FEW015 BKN200 09/02 Q1033 A3052655.0 HR58 FU=METAR SLUY 141100Z VRB02KT 9999 NSC 07/M05 Q1033 A3051657.7 HR43 CI/CC=
ZPX0207 141106@CAELT@GG SLZZYMYT@CAELT@141106 SLCBYGYS@CAELT@SABO SLCB 141100 RRB@CAELT@METAR SLCB 141100Z 00000KT 9999 FEW033 BKN200 16/08 Q1024 A3025 750.9@CAELT@HR58 AC FU NOSIG=@CAELT@METAR SLAL 141100Z 07005KT 9999 FEW007 SCT200 11/08 Q1029 A3041 704.0@CAELT@HR81=@CAELT@METAR SLPO 141100Z 00000KT 9999 FEW013 BKN200 08/05 Q1036 A3059 636.8HR80=METAR SLVM 141100Z 00000KT 9999 FEW023 OVC070 19/18 Q1017 A3004 HR97=METAR SLTJ 141100Z 32004KT 9999 SCT005 SCT070 BKN200 16/13 Q1021A3018 816.5 HR82=METAR RTD SLYA 141100Z 00000KT 9999 SCT023 19/17 Q1016 A3003 941.3HR84=
ZPX0210 141112@CAELT@GG SLZZYMYT@CAELT@141111 SLVRYFYC@CAELT@SABO SLJE 141100 RRA@CAELT@METAR RTD SLJE 141100Z 00000KT 4000 -RA OVC008 24/23 Q1015 A2997 HR91@CAELT@RWY WET OPR=@CAELT@
ZPX0211 141112@CAELT@GG SLZZYMYT@CAELT@141112 SLVRYFYC@CAELT@SABO SLVR 141100 RRA@CAELT@METAR SLVR 141100Z 18012G24KT 4000 -TSRA BKN017 FEW030CB OVC070 20/19@CAELT@Q1015 A2999 HR94 CB/TS/LT N/W/NW NOSIG=@CAELT@METAR SLET 141100Z 16014G24KT 4000 -TSRA BKN008 BKN015 FEW027CB@CAELT@OVC070 21/21 Q1015 A2998 HR98 CB/TS/SE/SW/NW/N NOSIG=@CAELT@METAR SLAS 141100Z 00000KT 9999 BKN015 FEW030CB OVC200 24/23 Q1014A2994 HR91 CB/SH SE/S/SW RWY NML=METAR SLJV 141100Z 00000KT 9999 BKN070 OVC200 23/22 Q1011 A2985 HR97RWY NML=METAR SLCP 141100Z 00000KT 9999 SCT070 OVC200 23/22 Q1015 A2997 HR96METAR SLSI 141100Z 00000KT 9999 BKN070 24/23 Q1013 A2991 HR90 RWY NMLMETAR SLTI 141100Z 36006KT 9999 SCT015 BKN070 OVC200 27/23 Q1016A3000 HR80 RWY NML=METAR RTD SLJE 141100Z 00000KT 4000 -RA OVC008 24/23 Q1015 A2997 HR91RWY WET OPR=METAR SLVG 141100Z 17007KT 9999 OVC015 15/14 Q1025 A3027 HR90 RWY NMLMETAR SLRB 141100Z 00000KT 9999 OVC006 21/20 Q1018 A3006 HR95 RERAMETAR SLPS 141100Z 180KT 9999 BKN070 19/14 Q1007 A2974 HR75=METAR SLCA 141100Z 18004KT 9999 BKN033 OVC070 21/16 Q1019 A3009 HR71
ZPX0228 141153@CAELT@GG SLZZYMYT@CAELT@141154 SLVRYGYZ@CAELT@SABO SLVR 141200@CAELT@METAR SLVR 141200Z 17011G22KT 4000 -TSRA BKN017 FEW030CB OVC070 20/19@CAELT@Q1016 A3001 HR93 CB/TS NW NOSIG=@CAELT@
ZPX0229 141154@CAELT@GG SLZZYMYT@CAELT@141155 SLSBYSYX@CAELT@SABO SLSB 141200@CAELT@METAR SLSB 141200Z 00000KT 9999 FEW015 BKN080 26/24 Q1010 A2985 HR91@CAELT@RWY NML=@CAELT@
ZPX0230 141154@CAELT@GG SLZZYMYT@CAELT@141146 SLPSYGYS@CAELT@SABO SLPS 141200@CAELT@METAR SLPS 141200Z 24008KT 9999 BKN070 25/22 Q1010 A2983 HR80=@CAELT@
ZPX0231 141155@CAELT@GG SLZZYMYT@CAELT@141155 SLCOYGYZ@CAELT@SABO SLCO 141200@CAELT@METAR SLCO 141200Z 35008KT 9999 SCT080 27/24 Q1011 A2988 984.4 HR84=@CAELT@
ZPX0232 141155@CAELT@GG SLZZYMYT@CAELT@141154 SLSAYGYS@CAELT@SABO SLSA 141200@CAELT@METAR SLSA 141200Z 34005KT 9999 SCT080 28/25 Q1010 A2985 HR81=@CAELT@
ZPX0233 141155@CAELT@GG SLZZYMYT@CAELT@141154 SLUYYGYS@CAELT@SABO SLUY 141200@CAELT@METAR SLUY 141200Z 00000KT 9999 FEW012 BKN200 10/M06 Q1033@CAELT@A3052 658.0 HR31=@CAELT@
ZPX0235 141156@CAELT@GG SLZZYMYT@CAELT@141155 SLORYGYZ@CAELT@SABO SLOR 141200@CAELT@METAR SLOR 141200Z 36004KT 9999 FEW017 BKN200 14/03 Q1034 A3053 655.2@CAELT@HR49=@CAELT@
ZPX0237 141156@CAELT@GG SLZZYMYT@CAELT@141157 SLLPYFYA@CAELT@SABO SLRY 141200@CAELT@METAR SLRY 141200Z 00000KT 9999 FEW06 BKN070 25/24 Q1010@CAELT@A2983 HR92 SH/NW RWY HUM OPR=@CAELT@
ZPX0238 141156@CAELT@GG SLZZYMYT@CAELT@141156 SLCAYGYS@CAELT@SABO SLCA 141200@CAELT@METAR SLCA 141200Z 18004KT 9999 BKN027 OVC070 20/16 Q1020 A3012 HR78@CAELT@RWY NML=@CAELT@
ZPX0239 141157@CAELT@GG SLZZYMYT@CAELT@141110 SLETYMYC@CAELT@SABO SLET 141200@CAELT@METAR SLET 141200Z 16012G23KT 3000 -TSRA BKN008 BKN017 FEW030CB@CAELT@OVC070 20/19 Q1015 A2999 HR96 CB/TS SW/W/NW/N NOSIG=@CAELT@
ZPX0240 141157@CAELT@GG SLZZYMYT@CAELT@141156 SLTJYGYZ@CAELT@SABO SLTJ 141200@CAELT@METAR SLTJ 141200Z 00000KT 9999 SCT010 BKN070 18/13 Q1021 A3017 816.4@CAELT@HR75 CI=@CAELT@
ZPX0241 141157@CAELT@GG SLZZYMYT@CAELT@141156 SLTRYGYZ@CAELT@SABO SLTR 141200@CAELT@METAR SLTR 141200Z 35006KT 9999 FEW020 BKN200 27/24 Q1011 A2987@CAELT@993.0 HR80 AC NOSIG=@CAELT@
ZPX0243 141157@CAELT@GG SLZZYMYT@CAELT@141155 SLLPYGYZ@CAELT@SABO SLLP 141200@CAELT@METAR SLLP 141200Z 11005KT 6000 FEW006 BKN200 11/05 Q1037 A3063 627.4@CAELT@HR70 P4352 VIS/RED/SC E/SE HZ SW/W AC NOSIG=@CAELT@
ZPX0244 141157@CAELT@GG SLZZYMYT@CAELT@141156 SLRBYGYS@CAELT@SABO SLRB 141200@CAELT@METAR SLRB 141200Z 00000KT 4000 -RA OVC006 21/20 Q1017 A3003 HR95 RWY@CAELT@WET OPR=@CAELT@
ZPX0246 141159@CAELT@GG SLZZYMYT@CAELT@141158 SLVRYFYC@CAELT@SABO SLVR 141200@CAELT@METAR SLVR 141200Z 17011G22KT 4000 -TSRA BKN017 FEW030CB OVC070 20/19@CAELT@Q1016 A3001 HR93 CB/TS NW NOSIG=@CAELT@METAR SLET 141200Z 16012G23KT 3000 -TSRA BKN008 BKN017 FEW030CB@CAELT@OVC070 20/19 Q1015 A2999 HR96 CB/TS SW/W/NW/N NOSIG=@CAELT@METAR SLAS 141200Z 18006KT 9999 BKN015 FEW030CB OVC200 25/22 Q1015A2997 HR88 CB/SH SE/S/SW RWY NML=METAR SLJV 141200Z 19005KT 9999 SCT012 BKN070 OVC200 23/23 Q1013A2991 HR95 RWY NML=METAR SLCP 141200Z 00000KT 9999 BKN015 OVC200 24/23 Q1016 A3000 HR92RWY NML=METAR SLSI 141200Z 00000KT 9999 OVC070 24/22 Q1013 A2991 HR87 RWY NMLMETAR SLTI 141200Z 36006KT 9999 BKN017 OVC200 27/23 Q1017 A3003 HR79METAR SLJE 141200Z 18008KT 4000 -RA OVC008 24/23 Q1016 A3000 HR91 RWYWET OPR=METAR SLVG 141200Z 18006KT 3000 -DZ OVC015 15/14 Q1025 A3027 HR95 RWYNML=METAR SLRB 141200Z 00000KT 4000 -RA OVC006 21/20 Q1017 A3003 HR95 RWYMETAR SLPS 141200Z 24008KT 9999 BKN070 25/22 Q1010 A2983 HR80=METAR SLCA 141200Z 18004KT 9999 BKN027 OVC070 20/16 Q1020 A3012 HR78
ZPX0247 141159@CAELT@GG SLZZYMYT@CAELT@141157 SLCBYGYZ@CAELT@SABO SLCB 141200@CAELT@METAR SLCB 141200Z 19005KT 9999 FEW033 BKN200 19/08 Q1024 A3027 751.3@CAELT@HR51 AC FU NOSIG=@CAELT@
ZPX0248 141159@CAELT@GG SLZZYMYT@CAELT@141159 SLTRYGYS@CAELT@SABO SLTR 141200@CAELT@METAR SLTR 141200Z 35006KT 9999 FEW020 BKN200 27/24 Q1011 A2987@CAELT@993.0 HR80 AC NOSIG=@CAELT@METAR SLGM 141200Z 02006KT 9999 FEW017 FEW020CB BKN080 27/24 Q1012@CAELT@A2988 HR86 CB N=@CAELT@METAR SLRI 141200Z 00000KT 9999 NSC 26/23 Q1012 A2990 HR88=METAR SLJO 141200Z 34006KT 9999 FEW017 SCT080 BKN200 26/24 Q1011A2986 HR88 RWY NML=METAR SLRA 141200Z 06006KT 9999 NSC 27/24 Q1011 A2986 HR85 AC/CIRWY NML=METAR SLMG 141200Z 32004KT 9999 NSC 27/24 Q1011 A2988 HR82 CIMETAR SLBU 141200Z 36004KT 9999 SCT080 BKN200 28/24 Q1011 A2987 HR83METAR SLSA 141200Z 34005KT 9999 SCT080 28/25 Q1010 A2985 HR81=METAR SLSR 141200Z 32008KT 9999 FEW020 FEW023CB SCT080 26/24 Q1009A2981 HR89 CB SW/W RWY NML=METAR SLSM 141200Z 00000KT 9999 FEW080 BKN200 26/24 Q1010 A2984 HR90
ZPX0251 141201@CAELT@GG SLZZYMYT@CAELT@141200 SLLPYFYA@CAELT@SABO SLLP 141200@CAELT@METAR SLLP 141200Z 11005KT 6000 FEW006 BKN200 11/05 Q1037 A3063 627.4@CAELT@HR70 P4352 VIS/RED/SC E/SE HZ SW/W AC NOSIG=@CAELT@METAR SLCO 141200Z 35008KT 9999 SCT080 27/24 Q1011 A2988 984.4 HR84=@CAELT@METAR SLRY 141200Z 00000KT 9999 FEW016 BKN070 25/24 Q1010@CAELT@A2983 HR92 SH/NW RWY HUM OPR=METAR SLRQ 141200Z 00000KT 9999 FEW020 BKN070 26/25 Q1010 A2985 986.7HR92=METAR SLAP 141200Z 36010KT 9999 SCT020 OVC070 21/18 Q1016 A3002 857.4HR87=METAR SLSB 141200Z 00000KT 9999 FEW015 BKN080 26/24 Q1010 A2985 HR91RWY NML=METAR SLOR 141200Z 36004KT 9999 FEW017 BKN200 14/03 Q1034 A3053 655.2HR49=METAR SLUY 141200Z 00000KT 9999 FEW012 BKN200 10/M06 Q1033A3052 658.0 HR31=
ZPX0252 141201@CAELT@GG SLZZYMYT@CAELT@141201 SLCBYGYS@CAELT@SABO SLCB 141200@CAELT@METAR SLCB 141200Z 19005KT 9999 FEW033 BKN200 19/08 Q1024 A3027 751.3@CAELT@HR51 AC FU NOSIG=@CAELT@METAR SLAL 141200Z 07006KT 9999 SCT008 BKN200 12/09 Q1030 A3042 704.4@CAELT@HR85=@CAELT@METAR SLPO 141200Z 00000KT 9999 FEW015 BKN200 10/04 Q1036 A3060 637.0HR70=METAR SLAG 141200Z NIL=METAR SLVM 141200Z 00000KT 9999 OVC070 20/18 Q1018 A3006 HR89=METAR SLTJ 141200Z 00000KT 9999 SCT010 BKN070 18/13 Q1021 A3017 816.4HR75 CI=METAR SLYA 141200Z 00000KT 9999 SCT025 BKN070 22/17 Q1017 A3004 941.8HR72=METAR SLBJ 141200Z NIL=METAR SLHI 141200Z NIL=
ZPX0279 141253@CAELT@GG SLZZYMYT@CAELT@141236 SLPSYGYS@CAELT@SABO SLPS 141300@CAELT@METAR SLPS 141300Z 24008KT 9999 BKN070 26/22 Q1010 A2983 HR83=@CAELT@
ZPX0280 141254@CAELT@GG SLZZYMYT@CAELT@141255 SLSBYSYX@CAELT@SABO SLSB 141300@CAELT@METAR SLSB 141300Z 32005KT 9999 BKN080 28/25 Q1011 A2986 HR83 RWY NML=@CAELT@
ZPX0281 141254@CAELT@GG SLZZYMYT@CAELT@141254 SLSAYGYS@CAELT@SABO SLSA 141300@CAELT@METAR SLSA 141300Z 33008KT 9999 FEW017 BKN080 30/24 Q1011 A2986 HR71=@CAELT@
ZPX0282 141255@CAELT@GG SLZZYMYT@CAELT@141255 SLORYGYZ@CAELT@SABO SLOR 141300@CAELT@METAR SLOR 141300Z 36003KT 9999 FEW017 BKN200 16/04 Q1033 A3053 655.1@CAELT@HR44=@CAELT@
ZPX0284 141256@CAELT@GG SLZZYMYT@CAELT@141255 SLVRYGYZ@CAELT@SABO SLVR 141300@CAELT@METAR SLVR 141300Z 18010KT 4000 -RA BKN017 FEW030CB OVC070 20/19@CAELT@Q1015 A2999 HR95 CB/NW RETS NOSIG=@CAELT@
ZPX0285 141256@CAELT@GG SLZZYMYT@CAELT@141254 SLUYYGYS@CAELT@SABO SLUY 141300@CAELT@METAR SLUY 141300Z 35004KT 9999 FEW015 BKN200 13/M09 Q1033@CAELT@A3052 658.0 HR20=@CAELT@
ZPX0286 141256@CAELT@GG SLZZYMYT@CAELT@141255 SLCBYGYZ@CAELT@SABO SLCB 141300@CAELT@METAR SLCB 141300Z 21003KT 9999 FEW033 BKN200 22/08 Q1024 A3027 751.3@CAELT@HR42 AC FU NOSIG=@CAELT@
ZPX0288 141258@CAELT@GG SLZZYMYT@CAELT@141256 SLTJYGYZ@CAELT@SABO SLTJ 141300@CAELT@METAR SLTJ 141300Z 13006KT 9999 SCT025 BKN070 19/14 Q1021 A3018 816.5@CAELT@HR77=@CAELT@
ZPX0289 141258@CAELT@GG SLZZYMYT@CAELT@141255 SLCOYGYZ@CAELT@SABO SLCO 141300@CAELT@METAR SLCO 141300Z 32010KT 9999 FEW080 28/24 Q1012 A2990 985.0 HR78@CAELT@
ZPX0290 141258@CAELT@GG SLZZYMYT@CAELT@141246 SLETYMYC@CAELT@SABO SLET 141300@CAELT@METAR SLET 141300Z 16012KT 4000 -TSRA BKN008 BKN017 FEW030CB OVC070@CAELT@20/19 Q1015 A3000 HR94 CB SW/NW/N TS SW NOSIG=@CAELT@
ZPX0291 141258@CAELT@GG SLZZYMYT@CAELT@141258 SLLPYGYZ@CAELT@SABO SLLP 141300@CAELT@METAR SLLP 141300Z 10008KT 070V140 9999 FEW015 BKN200 12/06 Q1037@CAELT@A3063 627.5 HR70 P94// AC NOSIG=@CAELT@
ZPX0292 141258@CAELT@GG SLZZYMYT@CAELT@141258 SLTRYGYZ@CAELT@SABO SLTR 141300@CAELT@METAR SLTR 141300Z 34010KT 9999 FEW020 SCT080 BKN200 29/24@CAELT@Q1012 A2989 993.7 HR73 NOSIG=@CAELT@
ZPX0293 141259@CAELT@GG SLZZYMYT@CAELT@141259 SLTRYGYS@CAELT@SABO SLTR 141300@CAELT@METAR SLTR 141300Z 34010KT 9999 FEW020 SCT080 BKN200 29/24 Q1012@CAELT@A2989 993.7 HR73 NOSIG=@CAELT@METAR SLGM 141300Z 02006KT 9999 FEW017 FEW020CB BKN080 28/24 Q1012@CAELT@A2989 HR79 CB N=@CAELT@METAR SLRI 141300Z 32004KT 9999 BKN080 26/24 Q1013 A2993 HR86=METAR SLJO 141300Z 34010KT 9999 FEW017 BKN200 29/24 Q1011 A2987 HR76RWY NML=METAR SLRA 141300Z 03008KT 9999 NSC 29/24 Q1011 A2987 HR75 AC/CIMETAR SLMG 141300Z 32004KT 9999 FEW080 SCT200 29/24 Q1011 A2988 HR76METAR SLBU 141300Z 36006KT 9999 SCT080 BKN200 30/25 Q1012 A2989 HR75METAR SLSA 141300Z 33008KT 9999 FEW017 BKN080 30/24 Q1011 A2986 HR71=METAR SLSR 141300Z 32010KT 9999 FEW020 FEW023CB BKN080 27/24 Q1009A2982 HR86 CB SW/W RWY NML=METAR SLSM 141300Z 00000KT 9999 SCT080 BKN200 29/23 Q1011 A2987 HR70
ZPX0294 141259@CAELT@GG SLZZYMYT@CAELT@141258 SLCBYGYS@CAELT@SABO SLCB 141300@CAELT@METAR SLCB 141300Z 21003KT 9999 FEW033 BKN200 22/08 Q1024 A3027 751.3@CAELT@HR42 AC FU NOSIG=@CAELT@METAR SLAL 141300Z 09007KT 9999 BKN012 BKN200 13/09 Q1030 A3043 704.6@CAELT@HR78=@CAELT@METAR SLPO 141300Z 00000KT 9999 FEW015 BKN200 11/04 Q1036 A3061 637.1HR62=METAR SLAG 141300Z NIL=METAR SLVM 141300Z 00000KT 9999 OVC070 21/17 Q1018 A3007 HR76=METAR SLTJ 141300Z 13006KT 9999 SCT025 BKN070 19/14 Q1021 A3018 816.5HR77=METAR SLYA 141300Z 21005KT 9999 SCT025 BKN070 22/17 Q1017 A3005 942.0HR73=METAR SLBJ 141300Z NIL=METAR SLHI 141300Z NIL=
ZPX0295 141300@CAELT@GG SLZZYMYT@CAELT@141259 SLVRYFYC@CAELT@SABO SLVR 141300@CAELT@METAR SLVR 141300Z 18010KT 4000 -RA BKN017 FEW030CB OVC070 20/19@CAELT@Q1015 A2999 HR95 CB/NW RETS NOSIG=@CAELT@METAR SLET 141300Z 16012KT 4000 -TSRA BKN008 BKN017 FEW030CB OVC070@CAELT@20/19 Q1015 A3000 HR94 CB SW/NW/N TS SW NOSIG=@CAELT@METAR SLAS 141300Z 18010KT 8000 VCSH BKN013 FEW030CB 24/23Q1016 A3000 HR91 CB/SH/SE/S/SW RWY NML=METAR SLJV 141300Z 19008KT 5000 -DZ OVC006 21/20 Q1014 A2994 HR96RWY HUM OPR=METAR SLCP 141300Z 00000KT 9999 BKN015 OVC200 24/23 Q1016 A3000HR92 RWY NML=METAR SLSI 141300Z 36006KT 9999 OVC070 26/23 Q1014 A2994 HR82 RWY NMLMETAR SLTI 141300Z 35006KT 9999 BKN017 BKN200 30/23 Q1017 A3003HR68 RWY NML=METAR SLJE 141300Z 00000KT 5000 -RA OVC008 24/23 Q1017 A3003 HR91RWY WET OPR=METAR SLVG 141300Z 18009KT 4000 VCSH BNK015 OVC070 14/13 Q1025 A3027HR90 SH/E/SE/S REDZ RWY NML=METAR SLRB 141300Z 00000KT 4000 -RA OVC006 21/20 Q1018 A3006 HR95METAR SLPS 141300Z 24008KT 9999 BKN070 26/22 Q1010 A2983 HR83=METAR SLCA 141300Z 18004KT 9999 BKN027 OVC070 20/16 Q1020 A3012HR78 RWY NML=
ZPX0297 141302@CAELT@GG SLZZYMYT@CAELT@141302 SLLPYFYA@CAELT@SABO SLLP 141300@CAELT@METAR SLLP 141300Z 10008KT 070V140 9999 FEW015 BKN200 12/06 Q1037@CAELT@A3063 627.5 HR70 P94// AC NOSIG=@CAELT@METAR SLCO 141300Z 32010KT 9999 FEW080 28/24 Q1012 A2990 985.0 HR78@CAELT@METAR SLRY 141300Z 32004KT 9999 FEW016 BK070 26/24 Q1010 Q2984@CAELT@HR88 RWY HUM OPR=METAR SLRQ 141300Z 00000KT 9999 SCT020 BKN070 27/24 Q1011 A2986 987.2HR87=METAR SLAP 141300Z 36015KT 9999 SCT020 OVC070 21/17 Q1017 A3004 858.0HR78=METAR SLSB 141300Z 32005KT 9999 BKN080 28/25 Q1011 A2986 HR83 RWY NMLMETAR SLUY 141300Z 35004KT 9999 FEW015 BKN200 13/M09 Q1033A3052 658.0 HR20=METAR SLOR 141300Z 36003KT 9999 FEW017 BKN200 16/04 Q1033 A3053 655.1HR44=
ZPX0299 141303@CAELT@GG SLZZYMYT@CAELT@141302 SLCAYGYS@CAELT@SABO SLCA 141300 RRA@CAELT@METAR RTD SLCA 141300Z 18004KT 9999 BKN027 OVC070 20/16 Q1020 A3012@CAELT@HR78 RWY NML=@CAELT@
ZPX0329 141350@CAELT@GG SLZZYMYT@CAELT@141350 SLRBYGYS@CAELT@SABO SLRB 141400@CAELT@METAR SLRB 141400Z 00000KT 5000 -RA OVC006 21/20 Q1018 A3006 HR95 RWY@CAELT@WET OPR=@CAELT@
ZPX0330 141351@CAELT@GG SLZZYMYT@CAELT@141350 SLPSYGYS@CAELT@SABO SLPS 141400@CAELT@METAR SLPS 141400Z 24008KT 9999 BKN017 BKN070 27/22 Q1012 A2989 HR77=@CAELT@
ZPX0331 141354@CAELT@GG SLZZYMYT@CAELT@141352 SLETYMYC@CAELT@SABO SLET 141400@CAELT@METAR SLET 141400Z 19004KT 7000 -RA SCT008 BKN015 FEW030CB OVC070 20/@CAELT@19 Q1016 A3002 HR97 CB NW/N N0SIG=@CAELT@
ZPX0333 141355@CAELT@GG SLZZYMYT@CAELT@141355 SLSBYSYX@CAELT@SABO SLSB 141400@CAELT@METAR SLSB 141400Z 31008KT 9999 FEW015 BKN080 30/24 Q1011 A2987 HR73@CAELT@RWY NML=@CAELT@
ZPX0334 141355@CAELT@GG SLZZYMYT@CAELT@141354 SLSAYGYS@CAELT@SABO SLSA 141400@CAELT@METAR SLSA 141400Z 34010KT 9999 FEW017 BKN080 31/24 Q1011 A2987 HR69=@CAELT@
ZPX0335 141355@CAELT@GG SLZZYMYT@CAELT@141355 SLVRYGYZ@CAELT@SABO SLVR 141400@CAELT@METAR SLVR 141400Z 24008KT 6000 -RA SCT007 BKN017 FEW030CB OVC070 20/@CAELT@19 Q1016 A3000 HR93 CB/NW NOSIG=@CAELT@
ZPX0336 141356@CAELT@GG SLZZYMYT@CAELT@141355 SLTJYGYZ@CAELT@SABO SLTJ 141400@CAELT@METAR SLTJ 141400Z 13005KT 9999 SCT025 BKN070 22/15 Q1021 A3016 816.0@CAELT@HR64=@CAELT@
ZPX0337 141356@CAELT@GG SLZZYMYT@CAELT@141355 SLORYGYZ@CAELT@SABO SLOR 141400@CAELT@METAR SLOR 141400Z 34006KT 9999 FEW020 BKN200 17/04 Q1033 A3052 654.8@CAELT@HR41=@CAELT@
ZPX0338 141356@CAELT@GG SLZZYMYT@CAELT@141355 SLUYYGYS@CAELT@SABO SLUY 141400@CAELT@METAR SLUY 141400Z 00000KT 9999 FEW017 BKN200 14/M06 Q1033@CAELT@A3051 657.8 HR24=@CAELT@
ZPX0341 141357@CAELT@GG SLZZYMYT@CAELT@141356 SLTRYGYZ@CAELT@SABO SLTR 141400@CAELT@METAR SLTR 141400Z 33012KT 9999 FEW020 SCT080 BKN200 30/24@CAELT@Q1012 A2989 993.7 HR70 NOSIG=@CAELT@
ZPX0345 141358@CAELT@GG SLZZYMYT@CAELT@141358 SLCAYGYS@CAELT@SABO SLCA 141400@CAELT@METAR SLCA 141400Z 18004KT 9999 SCT027 OVC070 21/17 Q1019 A3009 HR75@CAELT@RWY NML=@CAELT@
ZPX0346 141358@CAELT@GG SLZZYMYT@CAELT@141358 SLLPYGYZ@CAELT@SABO SLLP 141400@CAELT@METAR SLLP 141400Z 12006KT 9999 SCT017 FEW020CB BKN200 15/06 Q1037@CAELT@A3064 627.7 HR56 P94// CB/N AC NOSIG=@CAELT@
ZPX0347 141359@CAELT@GG SLZZYMYT@CAELT@141359 SLTRYGYS@CAELT@SABO SLTR 141400@CAELT@METAR SLTR 141400Z 33012KT 9999 FEW020 SCT080 BKN200 30/24 Q1012@CAELT@A2989 993.7 HR70 NOSIG=@CAELT@METAR SLGM 141400Z 33004KT 9999 FEW020 FEW023CB BKN080 28/24 Q1012@CAELT@A2991 HR78 CB N=@CAELT@METAR SLRI 141400Z 32006KT 9999 SCT015 BKN080 29/25 Q1013 A2994 HR79=METAR SLJO 141400Z 32010KT 9999 FEW017 BKN200 31/24 Q1011 A2987 HR68RWY NML=METAR SLRA 141400Z 35010KT 9999 FEW020 SCT200 31/24 Q1011 A2987 HR68AC RWY NML=METAR SLMG 141400Z 32006KT 9999 SCT080 BKN200 31/25 Q1011 A2988 HR71METAR SLBU 141400Z 36006KT 9999 SCT080 BKN200 32/26 Q1012 A2989 HR73METAR SLSA 141400Z 34010KT 9999 FEW017 BKN080 31/24 Q1011 A2987 HR69=METAR SLSR 141400Z 32015KT 9999 FEW020 FEW023CB BKN080 28/24 Q1010A2984 HR83 CB SW/W RWY NML=METAR SLSM 141400Z 33006KT 9999 FEW017 SCT080 BKN200 29/25 Q1011A2987 HR76 RWY NML=
ZPX0348 141359@CAELT@GG SLZZYMYT@CAELT@141358 SLVRYFYC@CAELT@SABO SLVR 141400@CAELT@METAR SLVR 141400Z 24008KT 6000 -RA SCT007 BKN017 FEW030CB OVC070@CAELT@20/19 Q1016 A3000 HR93 CB/NW NOSIG=@CAELT@METAR SLET 141400Z 19004KT 7000 -RA SCT008 BKN015 FEW030CB OVC070@CAELT@20/19 Q1016 A3002 HR97 CB NW/N N0SIG=@CAELT@METAR SLAS 141400Z 18010KT 8000 -RA BKN013 FEW030 22/21 Q1015 A2997HR91 CB/SH/S/W/NW RWY NML=METAR SLJV 141400Z 19005KT 4000 -RA OVC006 20/20 Q1014 A2994 HR100REDZ RWY WET OPR=METAR SLCP 141400Z 21005KT 9999 BKN015 OVC200 25/23 A1017 A3003HR88 RWY NML=METAR SLSI 141400Z 36006NT 9999 FEW017 BKN070 27/23 Q1014 A2988HR75 RWY NMLMETAR SLTI 141400Z 00000KT 9999 BKN017 BKN200 31/23 Q1016 A3000HR65 RWY NML=METAR SLJE 141400Z 00000KT 5000 -RA OVC008 23/22 Q1017 A3003 HR92RWY WET OPR=METAR SLVG 141400Z 18007KT 4000 VCSH BKN015 OVC070 15/13 Q1026A3030 HR85 SH/N/E/SE/S RWY NML=METAR SLRB 141400Z 00000KT 4000 -RA OVC006 21/20 Q1018 A3006 HR95METAR SLPS 141400Z 24008KT 9999 BKN017 BKN070 27/22 Q1012 A2989 HR77=METAR SLCA 141400Z 18004KT 9999 SCT027 OVC070 21/17 Q1019 A3009HR75 RWY NML=
ZPX0350 141401@CAELT@GG SLZZYMYT@CAELT@141359 SLCOYGYZ@CAELT@SABO SLCO 141400@CAELT@METAR SLCO 141400Z 31010KT 9999 FEW025 BKN080 30/25 Q1013 A2992 985.6@CAELT@HR73 CI=@CAELT@
ZPX0357 141404@CAELT@GG SLZZYMYT@CAELT@141402 SLCBYGYS@CAELT@SABO SLCB 141400@CAELT@METAR SLCB 141400Z 01004KT 9999 FEW033 BKN200 23/08 Q1024 A3025 751.0@CAELT@HR38 AC FU NOSIG=@CAELT@METAR SLAL 141400Z 000000KT 99999 SCT015 BKN200 13/02 Q1030 3041 704.@CAELT@2 HR71=@CAELT@METAR SLPO 141400Z 00000KT 9999 SCT017 BKN200 13/03 Q1036 A3060 636.9HR51=METAR SLAG 141400Z NIL=METAR SLVM 141400Z 00000KT 9999 OVC070 23/18 Q1017 A3004 HR73=METAR SLTJ 141400Z 13005KT 9999 SCT025 BKN070 22/15 Q1021 A3016 816.0HR64=METAR SLYA 141400Z 00000KT 9999 SCT025 24/17 Q1017 A3004 941.8 HR64METAR SLBJ 141400Z NIL=METAR SLHI 141400Z NIL=
ZPX0371 141415@CAELT@GG SLZZYMYT@CAELT@141405 SLLPYFYA@CAELT@SABO SLLP 141400@CAELT@METAR SLLP 141400Z 12006KT 9999 SCT017 FEW020CB BKN200 15/06 Q1037@CAELT@A3064 627.7 HR56 P94// CB/N AC NOSIG=@CAELT@METAR SLCO 141400Z 31010KT 9999 FEW025 BKN080 30/25 Q1013 A2992 985.6@CAELT@HR73 CI=@CAELT@METAR SLRY 32006KT 9999 VCSH FEW016 OVC070 26/23 Q1010 A2985HR85 SH N/N RWY NML=METAR SLRQ 141400Z 35008KT 9999 SCT020 BKN070 27/24 Q1012 A2989 987.9HR85=METAR SLSB 141400Z 31008KT 9999 FEW015 BKN080 30/24 Q1011 A2987 HR73RWY NML=METAR SLOR 141400Z 34006KT 9999 FEW020 BKN200 17/04 Q1033 A3052 654.8HR41=METAR SLUY 141400Z 00000KT 9999 FEW017 BKN200 14/M06 Q1033A3051 657.8 HR24=
ZPX0373 141420@CAELT@GG SLZZYMYT@CAELT@141413 SLLPYFYA@CAELT@SABO SLLP 141400 RRA@CAELT@METAR SLLP 141400Z 12006KT 9999 SCT017 FEW020CB BKN200 15/06 Q1037@CAELT@A3064 627.7 HR56 P94// CB/N AC NOSIG=@CAELT@METAR SLCO 141400Z 31010KT 9999 FEW025 BKN080 30/25 Q1013 A2992 985.6@CAELT@HR73 CI=@CAELT@METAR SLRY 32006KT 9999 VCSH FEW016 OVC070 26/23 Q1010 A2985HR85 SH N/N RWY NML=METAR SLRQ 141400Z 35008KT 9999 SCT020 BKN070 27/24 Q1012 A2989 987.9HR85=METAR SLAP 141400Z 36015KT 9999 SCT020 BKN070 23/18 Q1017 A3004 858.0HR71=METAR SLSB 141400Z 31008KT 9999 FEW015 BKN080 30/24 Q1011 A2987 HR73RWY NML=METAR SLOR 141400Z 34006KT 9999 FEW020 BKN200 17/04 Q1033 A3052 654.8HR41=METAR SLUY 141400Z 00000KT 9999 FEW017 BKN200 14/M06 Q1033A3051 657.8 HR24=
ZPX0392 141453@CAELT@GG SLZZYMYT@CAELT@141453 SLCAYGYS@CAELT@SABO SLCA 141500@CAELT@METAR SLCA 141500Z 00000KT 9999 SCT030 BKN070 23/16 Q1019 A3009 HR64@CAELT@RWY NML=@CAELT@
ZPX0393 141454@CAELT@GG SLZZYMYT@CAELT@141442 SLPSYGYS@CAELT@SABO SLPS 141500@CAELT@METAR SLPS 141500Z 24010KT 9999 BKN017 BKN070 27/21 Q1012 A2989 HR77=@CAELT@
ZPX0394 141454@CAELT@GG SLZZYMYT@CAELT@141452 SLETYMYC@CAELT@SABO SLET 141500@CAELT@METAR SLET 141500Z 17004KT 6000 -RA SCT008 BKN015 FEW030CB OVC070 20/@CAELT@19 Q1016 A3002 HR95 CB NW/N NOSIG=@CAELT@
ZPX0396 141455@CAELT@GG SLZZYMYT@CAELT@141455 SLCOYGYZ@CAELT@SABO SLCO 141500@CAELT@METAR SLCO 141500Z 31010KT 9999 SCT020 SCT080 31/24 Q1012 A2991 985.3@CAELT@HR68 CI=@CAELT@
ZPX0397 141455@CAELT@GG SLZZYMYT@CAELT@141454 SLSAYGYS@CAELT@SABO SLSA 141500@CAELT@METAR SLSA 141500Z 34012KT 9999 SCT017 BKN200 31/24 Q1011 A2987 HR63=@CAELT@
ZPX0398 141455@CAELT@GG SLZZYMYT@CAELT@141451 SLUYYGYS@CAELT@SABO SLUY 141500@CAELT@METAR SLUY 141500Z 00000KT 9999 FEW017 BKN200 17/M06 Q1032@CAELT@A3049 657.3 HR20=@CAELT@
ZPX0399 141455@CAELT@GG SLZZYMYT@CAELT@141454 SLORYGYZ@CAELT@SABO SLOR 141500@CAELT@METAR SLOR 141500Z 00000KT 9999 FEW020 BKN200 20/04 Q1032 A3050 654.4@CAELT@HR36=@CAELT@
ZPX0400 141455@CAELT@GG SLZZYMYT@CAELT@141455 SLSBYSYX@CAELT@SABO SLSB 141500@CAELT@METAR SLSB 141500Z 33010KT 9999 SCT015 BKN080 29/25 Q1011 A2987 HR78@CAELT@RWY NML=@CAELT@
ZPX0401 141456@CAELT@GG SLZZYMYT@CAELT@141455 SLLPYGYZ@CAELT@SABO SLLP 141500@CAELT@METAR SLLP 141500Z 11008KT 060V140 9999 SCT017 FEW020CB BKN200 15/04@CAELT@Q1037 A3062 627.3 HR49 P0784 CB/SH N AC NOSIG=@CAELT@
ZPX0402 141456@CAELT@GG SLZZYMYT@CAELT@141455 SLVRYGYZ@CAELT@SABO SLVR 141500@CAELT@METAR SLVR 141500Z 23006KT 4000 -RA FEW008 BKN017 FEW030CB OVC070 20/@CAELT@19 Q1017 A3003 HR93 CB/NW NOSIG=@CAELT@
ZPX0404 141457@CAELT@GG SLZZYMYT@CAELT@141456 SLORYGYZ@CAELT@SABO SLOR 141500@CAELT@METAR SLOR 141500Z 00000KT 9999 FEW020 BKN200 20/04 Q1032 A3050 654.4@CAELT@HR36=@CAELT@
ZPX0405 141457@CAELT@GG SLZZYMYT@CAELT@141456 SLTRYGYZ@CAELT@SABO SLTR 141500@CAELT@METAR SLTR 141500Z 33012KT 9999 FEW020 SCT080 BKN200 31/24 Q1011@CAELT@A2988 993.4 HR69 NOSIG=@CAELT@
ZPX0407 141457@CAELT@GG SLZZYMYT@CAELT@141456 SLRBYGYS@CAELT@SABO SLRB 141500@CAELT@METAR SLRB 141500Z 00000KT 5000 -RA OVC006 21/20 Q1018 A3006 HR95 RWY@CAELT@WET OPR=@CAELT@
ZPX0408 141458@CAELT@GG SLZZYMYT@CAELT@141456 SLTJYGYZ@CAELT@SABO SLTJ 141500@CAELT@METAR SLTJ 141500Z 13004KT 9999 SCT030 BKN070 23/15 Q1019 A3012 814.9@CAELT@HR59=@CAELT@
ZPX0409 141459@CAELT@GG SLZZYMYT@CAELT@141459 SLCBYGYZ@CAELT@SABO SLCB 141500@CAELT@METAR SLCB 141500Z 13005KT 9999 FEW033 BKN200 25/08 Q1023 A3022 750.2@CAELT@HR34 AC FU NOSIG=@CAELT@
ZPX0410 141459@CAELT@GG SLZZYMYT@CAELT@141458 SLVRYFYC@CAELT@SABO SLVR 141500@CAELT@METAR SLVR 141500Z 23006KT 4000 -RA FEW008 BKN017 FEW030CB OVC070@CAELT@20/19 Q1017 A3003 HR93 CB/NW NOSIG=@CAELT@METAR SLET 141500Z 17004KT 6000 -RA SCT008 BKN015 FEW030CB OVC070@CAELT@20/19 Q1016 A3002 HR95 CB NW/N NOSIG=@CAELT@METAR SLAS 141500Z 18012KT 9999 BKN013 FEW030CB 23/21 Q1015 A2997HR88 CB/SH/S/W/NW RERA RWY NML=METAR SLJV 141500Z 19008KT 9999 OVC008 21/20 Q1014 A2994 HR97RERA RWY WET OPR=METAR SLCP 141500Z 18012KT 9999 OVC015 23/20 Q1017 A3003 HR84 RWY NMLMETAR SLSI 141500Z 33008KT 9999 SCT017 OVC070 28/22 Q1013 A2991HR70 RWY NMLMETAR SLTI 141500Z 00000KT 9999 BKN017 BKN200 33/24 Q1016 A3000 HR59RWY NML=METAR SLJE 141500Z 18005KT 9999 OVC008 22/21 Q1017 A3003 HR95METAR SLVG 141500Z 18007KT 4000 VCSH OVC015 15/13 Q1026 A3030 HR85SH/N/E/S RWY NML=METAR SLRB 141500Z 00000KT 5000 -RA OVC006 21/20 Q1018 A3006 HR95RWY WET OPR=METAR SLPS 141500Z 24010KT 9999 BKN017 BKN070 27/21 Q1012 A2989 HR77=METAR SLCA 141500Z 00000KT 9999 SCT030 BKN070 23/16 Q1019 A3009 HR64
ZPX0412 141500@CAELT@GG SLZZYMYT@CAELT@141500 SLTRYGYS@CAELT@SABO SLTR 141500@CAELT@METAR SLTR 141500Z 33012KT 9999 FEW020 SCT080 BKN200 31/24 Q1011@CAELT@A2988 993.4 HR69 NOSIG=@CAELT@METAR SLGM 141500Z 34004KT 9999 SCT020 FEW023CB BKN080 29/25 Q1012@CAELT@A2991 HR76 CB NE=@CAELT@METAR SLRI 141500Z 32004KT 9999 SCT017 FEW020CB BKN080 30/23 Q1013A2993 HR68 CB N=METAR SLJO 141500Z 32010KT 9999 SCT017 BKN200 32/25 Q1011 A2986 HR67RWY NML=METAR SLRA 141500Z 36010KT 9999 FEW020 BKN200 32/24 Q1011 A2986 HR63AC RWY NML=METAR SLMG 141500Z 32008KT 9999 SCT017 BKN200 31/24 Q1011 A2988 HR67METAR SLBU 141500Z 36008KT 9999 SCT017 BKN200 33/25 Q1011 A2988 HR65METAR SLSA 141500Z 34012KT 9999 SCT017 BKN200 31/24 Q1011 A2987 HR63=METAR SLSR 141500Z 32015G25KT 9999 FEW017 FEW023CB BKN080 28/24 Q1010A2983 HR79 CB NE RWY NML=METAR SLSM 141500Z 33010KT 9999 SCT017 BKN200 30/24 Q1011 A2987 HR70
ZPX0414 141503@CAELT@GG SLZZYMYT@CAELT@141501 SLCBYGYS@CAELT@SABO SLCB 141500@CAELT@METAR SLCB 141500Z 13005KT 9999 FEW033 BKN200 25/08 Q1023 A3022 750.2@CAELT@HR34 AC FU NOSIG=@CAELT@METAR SLAL 141500Z 01014KT 9999 BKN017 BKN200 11/09 Q1029 A3040 703.8@CAELT@HR66=@CAELT@METAR SLPO 141500Z 06005KT 9999 SCT017 BKN200 15/03 Q1035 A3057 636.3HR47=METAR SLAG 141500Z NIL=METAR SLVM 141500Z 00000KT 9999 BKN070 23/18 Q1016 A3000 HR72 CI=METAR SLTJ 141500Z 13004KT 9999 SCT030 BKN070 23/15 Q1019 A3012 814.9HR59=METAR SLYA 141500Z 00000KT 9999 FEW025 25/17 Q1015 A3000 940.3 HR62METAR SLBJ 141500Z NIL=METAR SLHI 141500Z NIL=
ZPX0415 141504@CAELT@GG SLZZYMYT@CAELT@141500 SLLPYFYA@CAELT@SABO SLLP 141500@CAELT@METAR SLLP 141500Z 11008KT 060V140 9999 SCT017 FEW020CB BKN200 15/04@CAELT@Q1037 A3062 627.3 HR49 P0784 CB/SH N AC NOSIG=@CAELT@METAR SLCO 141500Z 31010KT 9999 SCT020 SCT080 31/24 Q1012 A2991 985.3@CAELT@HR68 CI=@CAELT@METAR SLRY 32004KT 9999 FEW016 BKN070 26/24 Q1010A2985 HR85 RWY NML=METAR SLRQ 141500Z 35006KT 9999 SCT012 BKN070 28/25 Q1010 A2985 986.7HR80=METAR SLAP 141500Z 36015KT 9999 SCT025 OVC070 23/17 Q1017 A3003 857.7HR70=METAR SLSB 141500Z 33010KT 9999 SCT015 BKN080 29/25 Q1011 A2987 HR78RWY NML=METAR SLOR 141500Z 00000KT 9999 FEW020 BKN200 20/04 Q1032 A3050 654.4HR36=METAR SLUY 141500Z 00000KT 9999 FEW017 BKN200 17/M06 Q1032A3049 657.3 HR20=
ZPX0440 141550@CAELT@GG SLZZYMYT@CAELT@141550 SLCAYGYS@CAELT@SABO SLCA 141600@CAELT@METAR SLCA 141600Z 36003KT 9999 BKN033 BKN070 24/16 Q1018 A3006 HR60@CAELT@RWY NML=@CAELT@
ZPX0441 141551@CAELT@GG SLZZYMYT@CAELT@141550 SLRBYGYS@CAELT@SABO SLRB 141600@CAELT@METAR SLRB 141600Z 00000KT 9999 OVC006 21/20 Q1017 A3003 HR95 RERA@CAELT@RWY WET OPR=@CAELT@
ZPX0442 141553@CAELT@GG SLZZYMYT@CAELT@141550 SLPSYGYS@CAELT@SABO SLPS 141600@CAELT@METAR SLPS 141600Z 24008KT 9999 BKN017 BKN070 28/21 Q1012 A2989 HR70=@CAELT@
ZPX0443 141555@CAELT@GG SLZZYMYT@CAELT@141555 SLVRYGYZ@CAELT@SABO SLVR 141600@CAELT@METAR SLVR 141600Z 20006KT 4000 -RA FEW008 BKN017 FEW030CB OVC070 20/@CAELT@19 Q1016 A3001 HR93 CB/NW NOSIG=@CAELT@
ZPX0444 141555@CAELT@GG SLZZYMYT@CAELT@141554 SLSAYGYS@CAELT@SABO SLSA 141600@CAELT@METAR SLSA 141600Z 34012KT 9999 SCT017 BKN200 32/23 Q1011 A2986 HR59=@CAELT@
ZPX0445 141555@CAELT@GG SLZZYMYT@CAELT@141555 SLSBYSYX@CAELT@SABO SLSB 141600@CAELT@METAR SLSB 141600Z 29012KT 9999 SCT017 OVC080 29/24 Q1010 A2985 HR77@CAELT@RWY NML=@CAELT@
ZPX0447 141555@CAELT@GG SLZZYMYT@CAELT@141555 SLCOYGYZ@CAELT@SABO SLCO 141600@CAELT@METAR SLCO 141600Z 32006KT 9999 BKN023 32/24 Q1012 A2989 984.9 HR64@CAELT@AC/CI=@CAELT@
ZPX0448 141556@CAELT@GG SLZZYMYT@CAELT@141554 SLUYYGYS@CAELT@SABO SLUY 141600@CAELT@METAR SLUY 141600Z 32015KT 9999 FEW017 BKN200 17/M11 Q1031@CAELT@A3046 656.5 HR14=@CAELT@
ZPX0449 141556@CAELT@GG SLZZYMYT@CAELT@141556 SLCBYGYZ@CAELT@SABO SLCB 141600@CAELT@METAR SLCB 141600Z 24005KT 9999 FEW033 FEW036TCU BKN200 27/07 Q1021@CAELT@A3017 748.9 HR28 TCU/N AC FU NOSIG=@CAELT@
ZPX0450 141557@CAELT@GG SLZZYMYT@CAELT@141556 SLAGYSYX@CAELT@SABO SLAG 141600@CAELT@METAR SLAG 141600Z 00000KT 9999 SCT012 OVC070 23/16 Q1019 A3011 891.4@CAELT@HR65=@CAELT@
ZPX0451 141558@CAELT@GG SLZZYMYT@CAELT@141557 SLLPYGYZ@CAELT@SABO SLLP 141600@CAELT@METAR SLLP 141600Z 08005KT 9999 SCT017 FEW020CB BKN200 15/05 Q1036@CAELT@A3061 626.9 HR51 P4754 CB/SH N/NE AC NOSIG=@CAELT@
ZPX0452 141558@CAELT@GG SLZZYMYT@CAELT@141557 SLTJYGYZ@CAELT@SABO SLTJ 141600@CAELT@METAR SLTJ 141600Z 15005KT 9999 SCT030 SCT070 23/14 Q1018 A3009 814.0@CAELT@HR58=@CAELT@
ZPX0453 141558@CAELT@GG SLZZYMYT@CAELT@141557 SLETYMYC@CAELT@SABO SLET 141600@CAELT@METAR SLET 141600Z 16003KT 8000 -RA FEW008 BKN017 FEW030CB OVC070 20/@CAELT@19 Q1015 A3000 HR96 CB NW NOSIG=@CAELT@
ZPX0454 141558@CAELT@GG SLZZYMYT@CAELT@141558 SLTRYGYZ@CAELT@SABO SLTR 141600@CAELT@METAR SLTR 141600Z 36012KT 8000 VCSH FEW020 FEW020CB SCT080 BKN200 31@CAELT@/24 Q1011 A2986 992.8 HR68 CB/SH N/SE/S TEMPO SHRA=@CAELT@
ZPX0457 141600@CAELT@GG SLZZYMYT@CAELT@141559 SLVRYFYC@CAELT@SABO SLVR 141600@CAELT@METAR SLVR 141600Z 20006KT 4000 -RA FEW008 BKN017 FEW030CB OVC070@CAELT@20/19 Q1016 A3001 HR93 CB/NW NOSIG=@CAELT@METAR SLET 141600Z 16003KT 8000 -RA FEW008 BKN017 FEW030CB OVC070@CAELT@20/19 Q1015 A30.00 HR96 CB NW NOSIG=@CAELT@METAR SLCP 141600Z 18012KT 9999 OVC015 23/20 Q1017 A3003 HR84 RWY NMLMETAR SLSI 141600Z 27008KT 9999 SCT017 OVC070 24/22 Q1013 A2991HR86 RESH RWY HUM OPS=METAR SLRB 141600Z 00000KT 9999 OVC006 21/20 Q1017 A3003 HR95 RERARWY WET OPR=METAR SLPS 141600Z 24008KT 9999 BKN017 BKN070 28/21 Q1012 A2989 HR70=METAR SLCA 141600Z 36003KT 9999 BKN033 BKN070 24/16 Q1018 A3006 HR60RWY NML=
ZPX0458 141600@CAELT@GG SLZZYMYT@CAELT@141600 SLTRYGYS@CAELT@SABO SLTR 141600@CAELT@METAR SLTR 141600Z 36012KT 8000 VCSH FEW020 FEW020CB SCT080 BKN200@CAELT@31/24 Q1011 A2986 992.8 HR68 CB/SH N/SE/S TEMPO SHRA=@CAELT@METAR SLGM 141600Z 34004KT 9999 SCT020 FEW023CB BKN080 31/25 Q1012@CAELT@A2988 HR72 CB NE=@CAELT@METAR SLRI 141600Z 36006KT 7000 VCSH SCT015 FEW020CB BKN080 29/25Q1012 A2991 HR79 RESHRA CB/SH N/NE/E=METAR SLJO 141600Z 32010KT 9999 SCT017 BKN200 32/24 Q1010 A2985 HR63SH NE RWY NML=METAR SLRA 141600Z 34012KT 9999 FEW020 BKN200 33/24 Q1010 A2985 HR59AC RWY NML=METAR SLMG 141600Z 32008KT 9999 SCT017 BKN200 32/24 Q1011 A2987 HR64METAR SLBU 141600Z 36008KT 9999 SCT017 BKN200 32/25 Q1011 A2986 HR71RWY NML=METAR SLSA 141600Z 34012KT 9999 SCT017 BKN200 32/23 Q1011 A2986 HR59=METAR SLSR 141600Z 32015G25KT 9999 FEW017 FEW023CB BKN080 29/24 Q1009A2981 HR76 CB NE RWY NML=METAR SLSM 141600Z NIL=
ZPX0459 141601@CAELT@GG SLZZYMYT@CAELT@141600 SLCBYGYS@CAELT@SABO SLCB 141600@CAELT@METAR SLCB 141600Z 24005KT 9999 FEW033 FEW036TCU BKN200 27/07 Q1021@CAELT@A3017 748.9 HR28 TCU/N AC FU NOSIG=@CAELT@METAR SLAL 141600Z 01016KT 9999 BKN020 BKN200 16/08 Q1028 A3036 703.0@CAELT@HR58=@CAELT@METAR SLPO 141600Z 06007KT 9999 SCT020 BKN200 15/03 Q1034 A3054 635.6HR45=METAR SLAG 141600Z 00000KT 9999 SCT012 OVC070 23/16 Q1019 A3011 891.4HR65=METAR SLVM 141600Z 00000KT 9999 BKN070 24/18 Q1014 A2997 HR69 CI=METAR SLTJ 141600Z 15005KT 9999 SCT030 SCT070 23/14 Q1018 A3009 814.0METAR SLYA 141600Z 00000KT 9999 FEW025 25/17 Q1015 A2997 939.6 HR60METAR SLBJ 141600Z NIL=METAR SLHI 141600Z NIL=
ZPX0463 141604@CAELT@GG SLZZYMYT@CAELT@141604 SLTRYGYZ@CAELT@SABO SLTR 141600 CCA@CAELT@METAR COR SLTR 141600Z 36012KT 8000 VCSH FEW020 FEW023CB SCT080@CAELT@BKN200 31/24 Q1011 A2986 992.8 HR68 CB/SH N/SE/S TEMPO SHRA=@CAELT@
ZPX0465 141607@CAELT@GG SLZZYMYT@CAELT@141604 SLLPYFYA@CAELT@SABO SLLP 141600@CAELT@METAR SLLP 141600Z 08005KT 9999 SCT017 FEW020CB BKN200 15/05 Q1036@CAELT@A3061 626.9 HR51 P4754 CB/SH N/NE AC NOSIG=@CAELT@METAR SLCO 141600Z 32006KT 9999 BKN023 32/24 Q1012 A2989 984.9 HR64@CAELT@AC/CI=@CAELT@METAR SLRY 141600Z 35004KT 9999 FEW016 BKN070 27/24 Q1010 A2984 HR84RWY NML=METAR SLRQ 141600Z 35007KT 9999 SCT013 BKN070 30/26 Q1010 A2985 986.6HR770METAR SLAP 141600Z 36015G25KT 9999 FEW025 BKN070 24/17 Q1017 A3006858.5 HR65=METAR SLSB 141600Z 29012KT 9999 SCT017 OVC080 29/24 Q1010 A2985 HR77METAR SLOR 141600Z NIL=METAR SLUY 141600Z 32015KT 9999 FEW017 BKN200 17/M11 Q1031A3046 656.5 HR14=
ZPX0468 141613@CAELT@GG SLZZYMYT@CAELT@141612 SLLPYFYA@CAELT@SABO SLLP 141600 CCA@CAELT@METAR SLLP 141600Z 08005KT 9999 SCT017 FEW020CB BKN200 15/05 Q1036@CAELT@A3061 626.9 HR51 P4754 CB/SH N/NE AC NOSIG=@CAELT@METAR SLCO 141600Z 32006KT 9999 BKN023 32/24 Q1012 A2989 984.9 HR64@CAELT@AC/CI=@CAELT@METAR SLRY 141600Z 35004KT 9999 FEW016 BKN070 27/24 Q1010 A2984 HR84RWY NML=METAR COR SLRQ 141600Z 35007KT 9999 SCT013 BKN070 30/26 Q1010 A2985986.6 HR77=METAR SLAP 141600Z 36015G25KT 9999 FEW025 BKN070 24/17 Q1017 A3006858.5 HR65=METAR SLSB 141600Z 29012KT 9999 SCT017 OVC080 29/24 Q1010 A2985 HR77METAR SLOR 141600Z NIL=METAR SLUY 141600Z 32015KT 9999 FEW017 BKN200 17/M11 Q1031A3046 656.5 HR14=
ZPX0486 141650@CAELT@GG SLZZYMYT@CAELT@141650 SLCAYGYS@CAELT@SABO SLCA 141700@CAELT@METAR SLCA 141700Z 36004KT 9999 BKN036 BKN070 26/16 Q1017 A3003 HR57@CAELT@RWY NML=@CAELT@
ZPX0489 141654@CAELT@GG SLZZYMYT@CAELT@141650 SLPSYGYS@CAELT@SABO SLPS 141700@CAELT@METAR SLPS 141700Z 24008KT 9999 SCT017 BKN200 30/22 Q1011 A2986 HR65=@CAELT@
ZPX0490 141654@CAELT@GG SLZZYMYT@CAELT@141654 SLSAYGYS@CAELT@SABO SLSA 141700@CAELT@METAR SLSA 141700Z 32012KT 9999 SCT017 BKN200 32/23 Q1010 A2983 HR58=@CAELT@
ZPX0492 141655@CAELT@GG SLZZYMYT@CAELT@141655 SLCOYGYZ@CAELT@SABO SLCO 141700@CAELT@METAR SLCO 141700Z 32010KT 7000 VCSH SCT023 FEW025CB 32/24 Q1010@CAELT@A2985 983.5 HR64 CB/SH/NW AC/CI=@CAELT@
ZPX0493 141655@CAELT@GG SLZZYMYT@CAELT@141654 SLRBYGYS@CAELT@SABO SLRB 141700@CAELT@METAR SLRB 141700Z 36004KT 9999 SCT012 FEW023CB BKN200 22/21 Q1013@CAELT@A2991 HR90 CB N/NE RWY WET OPR=@CAELT@
ZPX0494 141656@CAELT@GG SLZZYMYT@CAELT@141655 SLSBYSYX@CAELT@SABO SLSB 141700@CAELT@METAR SLSB 141700Z 30008KT 9999 SCT017 OVC080 29/24 Q1010 A2983 HR76@CAELT@RWY NML=@CAELT@
ZPX0495 141656@CAELT@GG SLZZYMYT@CAELT@141655 SLVRYGYZ@CAELT@SABO SLVR 141700@CAELT@METAR SLVR 141700Z 16004KT 5000 -RA BKN020 OVC070 20/19 Q1015 A2998@CAELT@HR96 NOSIG=@CAELT@
ZPX0496 141656@CAELT@GG SLZZYMYT@CAELT@141656 SLUYYGYS@CAELT@SABO SLUY 141700@CAELT@METAR SLUY 141700Z 33011KT 9999 FEW017 BKN200 17/M10 Q1031@CAELT@A3045 656.3 HR15=@CAELT@
ZPX0497 141656@CAELT@GG SLZZYMYT@CAELT@141657 SLUYYGYS@CAELT@SABO SLUY 141700@CAELT@METAR SLUY 141700Z 33011KT 9999 FEW017 BKN200 17/M10 Q1031@CAELT@A3045 656.3 HR15=@CAELT@
ZPX0498 141656@CAELT@GG SLZZYMYT@CAELT@141656 SLAGYSYX@CAELT@SABO SLAG 141700@CAELT@METAR SLAG 141700Z VRB02KT 9999 SCT012 BKN070 23/16 Q1018 A3008 890.5@CAELT@HR64=@CAELT@
ZPX0499 141657@CAELT@GG SLZZYMYT@CAELT@141652 SLETYMYC@CAELT@SABO SLET 141700@CAELT@METAR SLET 141700Z 00000KT 8000 -RA FEW008 BKN017 OVC070 20/19 Q1015@CAELT@A2998 HR95 NOSIG=@CAELT@
ZPX0500 141657@CAELT@GG SLZZYMYT@CAELT@141656 SLCBYGYZ@CAELT@SABO SLCB 141700@CAELT@METAR SLCB 141700Z 35006KT 9999 FEW033 FEW036CB BKN200 27/06 Q1020@CAELT@A3013 747.7 HR26 CB/N AC FU NOSIG=@CAELT@
ZPX0501 141657@CAELT@GG SLZZYMYT@CAELT@141656 SLTJYGYZ@CAELT@SABO SLTJ 141700@CAELT@METAR SLTJ 141700Z 14006KT 9999 SCT030 BKN200 23/13 Q1017 A3006 813.2@CAELT@HR52 AC=@CAELT@
ZPX0503 141658@CAELT@GG SLZZYMYT@CAELT@141657 SLTRYGYZ@CAELT@SABO SLTR 141700@CAELT@METAR SLTR 141700Z 30008KT 5000 VCSH FEW020 FEW023CB BKN200 31/24@CAELT@Q1010 A2984 992.0 HR66 AC CB/SH NE/E/SE/S/SW TEMPO TSRA=@CAELT@
ZPX0504 141658@CAELT@GG SLZZYMYT@CAELT@141658 SLUYYGYS@CAELT@SABO SLUY 141700@CAELT@METAR SLUY 141700Z 33011KT 9999 FEW017 BKN200 17/M10 Q1031@CAELT@A3045 656.3 HR15=@CAELT@
ZPX0505 141659@CAELT@GG SLZZYMYT@CAELT@141658 SLLPYGYZ@CAELT@SABO SLLP 141700@CAELT@METAR SLLP 141700Z 01010KT 340V040 8000 -TSRA SCT017 FEW020CB SCT070@CAELT@BKN200 11/05 Q1035 A3059 626.6 HR64 P0784 CB/ON/STN/N/S/SW NOSIG=@CAELT@
ZPX0506 141659@CAELT@GG SLZZYMYT@CAELT@141659 SLVRYFYC@CAELT@SABO SLVR 141700@CAELT@METAR SLVR 141700Z 16004KT 5000 -RA BKN020 OVC070 20/19 Q1015 A2998@CAELT@HR96 NOSIG=@CAELT@METAR SLET 141700Z 00000KT 8000 -RA FEW008 BKN017 OVC070 20/19 Q1015@CAELT@A2998 HR95 NOSIG=@CAELT@METAR SLCP 141700Z 19008KT 9999 SCT015 OVC200 25/19 Q1016 A3000 HR71RWY NML=METAR SLSI 141700Z 00000KT 5000 -TSRA BKN015 FEW027CB OVC070 24/23Q1014 A2994 HR90 CB/TS N/NE/NW RWY WET OPR=METAR SLRB 141700Z 36004KT 9999 SCT012 FEW023CB BKN200 22/21 Q1013A2991 HR90 CB N/NE RWY WET OPR=METAR SLPS 141700Z 24008KT 9999 SCT017 BKN200 30/22 Q1011 A2986 HR65=METAR SLCA 141700Z 36004KT 9999 BKN036 BKN070 26/16 Q1017 A3003 HR57
ZPX0508 141700@CAELT@GG SLZZYMYT@CAELT@141659 SLLPYFYA@CAELT@SABO SLLP 141700@CAELT@METAR SLLP 141700Z 01010KT 340V040 8000 -TSRA SCT017 FEW020CB SCT070@CAELT@BKN200 11/05 Q1035 A3059 626.6 HR64 P0784 CB/ON/STN/N/S/SW NOSIG=@CAELT@METAR SLCO 141700Z 32010KT 7000 VCSH SCT023 FEW025CB 32/24 Q1010@CAELT@A2985 983.5 HR64 CB/SH/NW AC/CI=@CAELT@METAR SLRY 141700Z 32010KT 9999 FEW016 BKN070 29/23 Q1009A2982 HR71 RWY NML=METAR SLRQ 141700Z 33010KT 9999 SCT015 SCT080 32/24 Q1009 A2981 985.5HR63 CI=METAR SLAP 141700Z 36015KT 9999 FEW025 BKN070 25/17 Q1016 A3000 856.9HR62=METAR SLSB 141700Z 30008KT 9999 SCT017 OVC080 29/24 Q1010 A2983 HR76RWY NML=METAR SLUY 141700Z 33011KT 9999 FEW017 BKN200 17/M10 Q1031A3045 656.3 HR15=
ZPX0509 141700@CAELT@GG SLZZYMYT@CAELT@141659 SLCBYGYS@CAELT@SABO SLCB 141700@CAELT@METAR SLCB 141700Z 35006KT 9999 FEW033 FEW036CB BKN200 27/06 Q1020@CAELT@A3013 747.7 HR26 CB/N AC FU NOSIG=@CAELT@METAR SLAL 141700Z 01018KT 9999 SCT020 FEW030CB BKN200 16/10 Q1027@CAELT@A3034 702.4 HR67 CB SW/N=@CAELT@METAR SLPO 141700Z 07010KT 9999 SCT020 BKN200 16/03 Q1033 A3051 634.7HR42=METAR SLAG 141700Z VRB02KT 9999 SCT012 BKN070 23/16 Q1018 A3008 890.5HR64=METAR SLVM 141700Z 36008KT 9999 SCT070 25/19 Q1013 A2994 HR68 CI=METAR SLTJ 141700Z 14006KT 9999 SCT030 BKN200 23/13 Q1017 A3006 813.2HR52 AC=METAR SLYA 171700Z 21008KT 9999 FEW025 26/17 Q1013 A2992 938.0 HR58METAR SLBJ 141700Z NIL=METAR SLHI 141700Z NIL=
ZPX0510 141700@CAELT@GG SLZZYMYT@CAELT@141700 SLTRYGYS@CAELT@SABO SLTR 141700@CAELT@METAR SLTR 141700Z 30008KT 5000 VCSH FEW020 FEW023CB BKN200 31/24@CAELT@Q1010 A2984 992.0 HR66 AC CB/SH NE/E/SE/S/SW TEMPO TSRA=@CAELT@METAR SLGM 141700Z 34006KT 9999 SCT020 FEW023CB BKN080 32/25 Q1010@CAELT@A2983 HR67 CB NE=@CAELT@METAR SLRI 141700Z 00000KT 8000 VCSH SCT017 FEW020CB BKN080 30/25Q1011 A2987 HR74 CB/SH N/NE/NW=METAR SLJO 141700Z 32010KT 8000 VCSH SCT017 FEW023CB BKN200 33/24Q1010 A2985 HR62 CB/SH E/SE RWY NML=METAR SLRA 141700Z 35010KT 9999 FEW020 FEW023CB BKN200 33/24 Q1010A2985 HR58 CB E/S RWY NML=METAR SLMG 141700Z 32010KT 9999 SCT017 FEW023CB BKN200 32/24 Q1010A2985 HR60 CB W RWY NML=METAR SLBU 141700Z 00000KT 6000 VCSH SCT017 BKN200 30/25 Q1010 A2984HR75 SH SW/NW RWY NML=METAR SLSR 141700Z 32015G25KT 9999 SCT017 FEW023CB 31/24 Q1008 A2977HR70 CB N/NE/E=METAR SLSA 141700Z 32012KT 9999 SCT017 BKN200 32/23 Q1010 A2983 HR58=METAR SLSM 141700Z 33012KT 6000 VCSH BKN015 FEW023CB OVC070 31/24Q1010 A2983 HR67 CB/SH N/NE/E/NW RWY NML=
ZPX0541 141739@CAELT@GG SLZZYMYT@CAELT@141739 SLLPYGYZ@CAELT@SABO SLLP 141800@CAELT@METAR SLLP 141800Z 34006KT 300V050 9999 SCT017 FEW020CB SCT070 BKN200@CAELT@12/02 Q1035 A3057 626.2 HR50 P4754 CB/SH N/NE/S RETS NOSIG=@CAELT@
ZPX0553 141753@CAELT@GG SLZZYMYT@CAELT@141753 SLCAYGYS@CAELT@SABO SLCA 141800@CAELT@METAR SLCA 141800Z 36004KT 9999 BKN036 BKN070 27/16 Q1016 A3000 HR51@CAELT@RWY NML=@CAELT@
ZPX0554 141754@CAELT@GG SLZZYMYT@CAELT@141752 SLETYMYC@CAELT@SABO SLET 141800@CAELT@METAR SLET 141800Z 24003KT 9999 FEW010 SCT017 OVC070 21/19 Q1013@CAELT@A2994 HR91 NOSIG=@CAELT@
ZPX0556 141754@CAELT@GG SLZZYMYT@CAELT@141751 SLPSYGYS@CAELT@SABO SLPS 141800@CAELT@METAR SLPS 141800Z 24008KT 9999 SCT017 BKN200 30/22 Q1011 A2986 HR65=@CAELT@
ZPX0557 141756@CAELT@GG SLZZYMYT@CAELT@141755 SLSAYGYS@CAELT@SABO SLSA 141800@CAELT@METAR SLSA 141800Z 33014KT 8000 VCSH SCT017 FEW023CB BKN200 33/23@CAELT@Q1008 A2977 HR55 CB/SH S/SW=@CAELT@
ZPX0558 141756@CAELT@GG SLZZYMYT@CAELT@141755 SLTJYGYZ@CAELT@SABO SLTJ 141800@CAELT@METAR SLTJ 141800Z 13007KT 9999 SCT030 BKN200 24/13 Q1016 A3002 812.2@CAELT@HR51 AC=@CAELT@
ZPX0559 141756@CAELT@GG SLZZYMYT@CAELT@141755 SLAGYSYX@CAELT@SABO SLAG 141800@CAELT@METAR SLAG 141800Z 23003KT 9999 SCT015 SCT070 BKN200 25/16 Q1017@CAELT@A3003 889.2 HR60=@CAELT@
ZPX0560 141756@CAELT@GG SLZZYMYT@CAELT@141755 SLSBYSYX@CAELT@SABO SLSB 141800@CAELT@METAR SLSB 141800Z 32010G20KT 9999 SCT017 BKN080 30/24 Q1008 A2978@CAELT@HR68 RWY NML=@CAELT@
ZPX0561 141756@CAELT@GG SLZZYMYT@CAELT@141756 SLVRYGYZ@CAELT@SABO SLVR 141800@CAELT@METAR SLVR 141800Z 22007KT 8000 -RA BKN023 BKN070 20/19 Q1013 A2992@CAELT@HR93 NOSIG=@CAELT@
ZPX0562 141756@CAELT@GG SLZZYMYT@CAELT@141756 SLCOYGYZ@CAELT@SABO SLCO 141800@CAELT@METAR SLCO 141800Z 30005KT 9999 SCT023 33/24 Q1009 A2979 981.6 HR62@CAELT@AC/CI=@CAELT@
ZPX0563 141758@CAELT@GG SLZZYMYT@CAELT@141756 SLTRYGYZ@CAELT@SABO SLTR 141800@CAELT@METAR SLTR 141800Z 14016KT 6000 -TSRA BKN006 FEW020CB BKN070 23/21@CAELT@Q1010 A2984 992.1 HR89 CB N/SE/S/SW/W TS SW TEMPO 2000=@CAELT@
ZPX0564 141758@CAELT@GG SLZZYMYT@CAELT@141758 SLLPYGYZ@CAELT@SABO SLLP 141800@CAELT@METAR SLLP 141800Z 06004KT 020V120 9999 SCT017 FEW020CB SCT070 BKN200@CAELT@14/02 Q1035 A3057 626.0 HR45 P1784 CB/SH NE/SE/S NOSIG=@CAELT@
ZPX0566 141759@CAELT@GG SLZZYMYT@CAELT@141758 SLTRYGYS@CAELT@SABO SLTR 141800@CAELT@METAR SLTR 141800Z 14016KT 6000 -TSRA BKN006 FEW020CB BKN070 23/21@CAELT@Q1010 A2984 992.1 HR89 CB N/SE/S/SW/W TS SW TEMPO 2000=@CAELT@METAR SLGM 141800Z 02010KT 8000 VCSH SCT020 FEW023CB BKN200 32/25@CAELT@Q1009 A2979 HR65 CB/SH N/NE=@CAELT@METAR SLRI 141800Z 05008KT 8000 VCSH SCT017 FEW020CB BKN200 32/24Q1009 A2981 HR63 CB/SH N/NW AC=METAR SLJO 141800Z NIL=METAR SLRA 141800Z 36012KT 8000 VCSH FEW020 FEW023CB BKN200 33/24Q1009 A2980 HR57 CB/SH SE/S RWY NML=METAR SLMG 141800Z 32010KT 8000 VCSH SCT017 FEW023CB BKN200 32/25Q1009 A2982 HR65 CB/SH S/NW RWY NML=METAR SLBU 141800Z 00000KT 5000 VCSH SCT017 FEW023CB BKN200 27/24Q1009 A2981 HR83 CB/SH NE/E RWY NML=METAR SLSA 141800Z 33014KT 8000 VCSH SCT017 FEW023CB BKN200 33/23Q1008 A2977 HR55 CB/SH S/SW=METAR SLSR 141800Z 32015G25KT 7000 VCSH SCT017 FEW023CB BKN200 31/24Q1007 A2976 HR64 CB/SH N/NE/E RWY NML=METAR SLSM 141800Z 36004KT 6000 TS VCSH BKN015 FEW023CB OVC070 26/25Q1010 A2983 HR90 CB/SH N/NE/E/SE TS NE/E RWY NML=
ZPX0567 141759@CAELT@GG SLZZYMYT@CAELT@141759 SLLPYFYA@CAELT@SABO SLLP 141800@CAELT@METAR SLLP 141800Z 06004KT 020V120 9999 SCT017 FEW020CB SCT070 BKN200@CAELT@14/02 Q1035 A3057 626.0 HR45 P1784 CB/SH NE/SE/S NOSIG=@CAELT@METAR SLCO 141800Z 30005KT 9999 SCT023 33/24 Q1009 A2979 981.6 HR62@CAELT@AC/CI=@CAELT@METAR SLRY 141800Z 32012KT 9999 FEW017 SCT080 BKN200 31/24 Q1008A2979HR65 RWY NML=METAR SLRQ 141800Z 33011KT 9999 SCT017 SCT200 33/24 Q1008 A2977 984.0HR60 AC=METAR SLAP 141800Z 36015G25KT 9999 FEW025 BKN070 26/17 Q1015 A2998856.3 HR56=METAR SLSB 141800Z 32010G20KT 9999 SCT017 BKN080 30/24 Q1008 A2978HR68 RWY NML=
ZPX0568 141759@CAELT@GG SLZZYMYT@CAELT@141757 SLRBYGYS@CAELT@SABO SLRB 141800@CAELT@METAR SLRB 141800Z 36004KT 9999 FEW023CB BKN200 27/23 Q1012 A2988@CAELT@HR77 CB N/NE RWY WET OPR=@CAELT@
ZPX0570 141800@CAELT@GG SLZZYMYT@CAELT@141800 SLVRYFYC@CAELT@SABO SLVR 141800@CAELT@METAR SLVR 141800Z 22007KT 8000 -RA BKN023 BKN070 20/19 Q1013 A2992@CAELT@HR93 NOSIG=@CAELT@METAR SLET 141800Z 24003KT 9999 FEW010 SCT017 OVC070 21/19 Q1013@CAELT@A2994 HR91 NOSIG=@CAELT@METAR SLAS 141800Z 18015KT 9999 BKN015 OVC070 24/21 Q1014 A2994HR86 RETS RWY NML=METAR SLJV 141800Z 19005KT 9999 OVC010 21/20 Q1012 A2988 HR95RWY WET OPR=METAR SLCP 141800Z 18005KT 9999 BKN015 OVC200 26/21 Q1016 A3000HR74 RWY NML=METAR SLSI 141800Z 00000KT 5000 -TSRA BKN015 FEW027CB OVC070 23/22Q1012 A2988 HR96 CB/TS N/NW RWY WET OPR=METAR SLTI 141800Z 00000KT 6000 VCSH BKN017 FEW030CB OVC200 29/24Q1012 A2988 HR75 CB/SH/E/SE/S RWY NML=METAR SLJE 141800Z 00000KT 9999 OVC010 26/22 Q1014 A2994 HR79RWY HUM OPR=METAR SLVG 141800Z 18005KT 5000 VCSH BKN015 OVC070 15/14 Q1024A3024 HR90 SH/N/E/SE RWY NML=METAR SLRB 141800Z 36004KT 9999 FEW023CB BKN200 27/23 Q1012 A2988HR77 CB N/NE RWY WET OPR=METAR SLPS 141800Z 24008KT 9999 SCT017 BKN200 30/22 Q1011 A2986 HR65=METAR SLCA 141800Z 36004KT 9999 BKN036 BKN070 27/16 Q1016 A3000HR51 RWY NML=
ZPX0571 141801@CAELT@GG SLZZYMYT@CAELT@141800 SLCBYGYZ@CAELT@SABO SLCB 141800@CAELT@METAR SLCB 141800Z 32010G20KT 9999 SCT033 FEW036CB SCT080 BKN200 29/@CAELT@06 Q1018 A3007 746.5 HR21 CB/SH W/NW FU NOSIG=@CAELT@
ZPX0572 141802@CAELT@GG SLZZYMYT@CAELT@141801 SLCBYGYS@CAELT@SABO SLCB 141800@CAELT@METAR SLCB 141800Z 32010G20KT 9999 SCT033 FEW036CB SCT080 BKN200 29/@CAELT@06 Q1018 A3007 746.5 HR21 CB/SH W/NW FU NOSIG=@CAELT@METAR SLAL 141800Z 02018KT 9999 SCT020 FEW030CB SCT200 16/09 Q1026@CAELT@A3032 701.9 HR67 CB/NE/S/SW=@CAELT@METAR SLPO 141800Z NIL=METAR SLAG 141800Z 23003KT 9999 SCT015 SCT070 BKN200 25/16 Q1017A3003 889.2 HR60=METAR SLVM 141800Z NIL=METAR SLTJ 141800Z 13007KT 9999 SCT030 BKN200 24/13 Q1016 A3002 812.2HR51 AC=METAR SLYA 141800Z 21008KT 9999 FEW025 SCT200 26/17 Q1012 A2989 937.0HR57=METAR SLBJ 141800Z NIL=METAR SLHI 141800Z NIL=
ZPX0574 141804@CAELT@GG SLZZYMYT@CAELT@141803 SLTRYGYS@CAELT@SABO SLTR 141800 CCA@CAELT@METAR SLTR 141800Z 14016KT 6000 -TSRA BKN006 FEW020CB BKN070 23/21@CAELT@Q1010 A2984 992.1 HR89 CB N/SE/S/SW/W TS SW TEMPO 2000=@CAELT@METAR COR SLGM 141800Z 02010KT 5000 VCSH SCT020 FEW023CB BKN200@CAELT@32/25 Q1009 A2979 HR65 CB/SH N/NE=@CAELT@METAR SLRI 141800Z 05008KT 8000 VCSH SCT017 FEW020CB BKN200 32/24Q1009 A2981 HR63 CB/SH N/NW AC=METAR SLJO 141800Z NIL=METAR SLRA 141800Z 36012KT 8000 VCSH FEW020 FEW023CB BKN200 33/24Q1009 A2980 HR57 CB/SH SE/S RWY NML=METAR SLMG 141800Z 32010KT 8000 VCSH SCT017 FEW023CB BKN200 32/25Q1009 A2982 HR65 CB/SH S/NW RWY NML=METAR SLBU 141800Z 00000KT 5000 VCSH SCT017 FEW023CB BKN200 27/24Q1009 A2981 HR83 CB/SH NE/E RWY NML=METAR SLSA 141800Z 33014KT 8000 VCSH SCT017 FEW023CB BKN200 33/23Q1008 A2977 HR55 CB/SH S/SW=METAR SLSR 141800Z 32015G25KT 7000 VCSH SCT017 FEW023CB BKN200 31/24Q1007 A2976 HR64 CB/SH N/NE/E RWY NML=METAR SLSM 141800Z 36004KT 6000 TS VCSH BKN015 FEW023CB OVC070 26/25Q1010 A2983 HR90 CB/SH N/NE/E/SE TS NE/E RWY NML=
ZPX0590 141852@CAELT@GG SLZZYMYT@CAELT@141852 SLETYMYC@CAELT@SABO SLET 141900@CAELT@METAR SLET 141900Z 18005KT 9999 FEW010 SCT017 OVC070 21/19 Q1011@CAELT@A2986 HR90 NOSIG=@CAELT@
ZPX0591 141852@CAELT@GG SLZZYMYT@CAELT@141851 SLRBYGYS@CAELT@SABO SLRB 141900@CAELT@METAR SLRB 141900Z 36004KT 9999 FEW025CB BKN200 28/23 Q1012 A2988@CAELT@HR75 CB N/NE RWY WET OPR=@CAELT@
ZPX0592 141853@CAELT@GG SLZZYMYT@CAELT@141853 SLCAYGYS@CAELT@SABO SLCA 141900@CAELT@METAR SLCA 141900Z 36005KT 9999 BKN036 27/16 Q1014 A2994 HR48 AC RWY@CAELT@NML=@CAELT@
ZPX0593 141854@CAELT@GG SLZZYMYT@CAELT@141855 SLSBYSYX@CAELT@SABO SLSB 141900@CAELT@METAR SLSB 141900Z 31010G20KT 9999 FEW020 BKN080 32/25 Q1007 A2974@CAELT@HR67 RWY NML=@CAELT@
ZPX0597 141855@CAELT@GG SLZZYMYT@CAELT@141855 SLVRYGYZ@CAELT@SABO SLVR 141900@CAELT@METAR SLVR 141900Z 21007KT 9999 SCT025 BKN070 BKN200 21/19 Q1011@CAELT@A2985 HR87 NOSIG=@CAELT@
ZPX0598 141855@CAELT@GG SLZZYMYT@CAELT@141855 SLSAYGYS@CAELT@SABO SLSA 141900@CAELT@METAR SLSA 141900Z 32015KT 7000 VCSH SCT017 FEW023CB BKN200 34/23@CAELT@Q1007 A2974 HR53 CB/SH SE/S/SW=@CAELT@
ZPX0600 141856@CAELT@GG SLZZYMYT@CAELT@141855 SLLPYGYZ@CAELT@SABO SLLP 141900@CAELT@METAR SLLP 141900Z 11006KT 080V170 9999 -SHRA SCT017 FEW020CB SCT070@CAELT@BKN200 12/01 Q1034 A3055 625.7 HR49 P6784 CB/SH N/E/S RETS NOSIG=@CAELT@
ZPX0601 141857@CAELT@GG SLZZYMYT@CAELT@141856 SLCOYGYZ@CAELT@SABO SLCO 141900@CAELT@METAR SLCO 141900Z 27007KT 9999 BKN023 33/24 Q1007 A2976 980.3 HR57@CAELT@AC/CI=@CAELT@
ZPX0602 141857@CAELT@GG SLZZYMYT@CAELT@141856 SLTJYGYZ@CAELT@SABO SLTJ 141900@CAELT@METAR SLTJ 141900Z 15008KT 9999 TS SCT030 FEW036CB BKN200 24/14 Q1015@CAELT@A2999 811.3 HR53 CB TS SH/W=@CAELT@
ZPX0604 141857@CAELT@GG SLZZYMYT@CAELT@141855 SLTRYGYZ@CAELT@SABO SLTR 141900@CAELT@METAR SLTR 141900Z 20005KT 8000 -TSRA BKN004 FEW020CB BKN070 22/22@CAELT@Q1010 A2985 992.2 HR97 CB N/SW/W TS N TEMPO 2000=@CAELT@
ZPX0605 141858@CAELT@GG SLZZYMYT@CAELT@141850 SLPSYGYS@CAELT@SABO SLPS 141900@CAELT@METAR SLPS 141900Z 24006KT 9999 BKN017 BKN200 31/24 Q1009 A2980 HR67=@CAELT@
ZPX0607 141859@CAELT@GG SLZZYMYT@CAELT@141858 SLVRYFYC@CAELT@SABO SLVR 141900@CAELT@METAR SLVR 141900Z 21007KT 9999 SCT025 BKN070 BKN200 21/19 Q1011@CAELT@A2985 HR87 NOSIG=@CAELT@METAR SLET 141900Z 18005KT 9999 FEW010 SCT017 OVC070 21/19 Q1011@CAELT@A2986 HR90 NOSIG=@CAELT@METAR SLAS 141900Z 18010KT 9999 SCT017 FEW030CB OVC200 25/22Q1013 A2992 HR80 CB/SH/N/NE/E RWY NML=METAR SLJV 141900Z 19005KT 9999 OVC013 22/21 Q1011 A2985 HR93RWY HUM OPR=METAR SLCP 141900Z 36006KT 9999 BKN015 OVC200 24/21 Q1015 A2997 HR84RWY NML=METAR SLSI 141900Z 00000KT 9999 BKN015 OVC070 24/23 Q1011 A2985HR92 RETS RWY WET OPR=METAR SLTI 141900Z 03010KT 4000 VCSH BKN017 FEW030CB OVC200 25/24Q1012 A2988 HR92 CB/SH/NE/E/SE RESH RWY HUM OPR=METAR SLJE 141900Z 00000KT 9999 OVC010 26/22 Q1013 A2991 HR81METAR SLVG 141900Z 17004KT 9999 BKN017 BKN070 18/14 Q1022 A3018HR73 RWY NML=METAR SLRB 141900Z 36004KT 9999 FEW025CB BKN200 28/23 Q1012 A2988HR75 CB N/NE RWY WET OPR=METAR SLPS 141900Z 24006KT 9999 BKN017 BKN200 31/24 Q1009 A2980 HR67=METAR SLCA 141900Z 36005KT 9999 BKN036 27/16 Q1014 A2994 HR48AC RWY NML=
ZPX0608 141859@CAELT@GG SLZZYMYT@CAELT@141859 SLTRYGYS@CAELT@SABO SLTR 141900@CAELT@METAR SLTR 141900Z 20005KT 8000 -TSRA BKN004 FEW020CB BKN070 22/22@CAELT@Q1010 A2985 992.2 HR97 CB N/SW/W TS N TEMPO 2000=@CAELT@METAR SLGM 141900Z 35018KT 5000 VCSH BKN020 FEW023CB BKN200 26/25@CAELT@Q1008 A2977 HR95 RERA CB/SH N/NE/SE/NW=@CAELT@METAR SLRI 141900Z 36012KT 7000 VCSH SCT017 FEW020CB BKN200 29/25Q1009 A2979 HR79 RESHRA CB/SH N/NE/E/NW=METAR SLJO 141900Z NIL=METAR SLRA 141900Z 33010KT 8000 VCSH FEW020 FEW023CB BKN200 33/24Q1007 A2975 HR57 CB/SH E RWY NML=METAR SLMG 141900Z 09004KT 7000 TS VCSH SCT017 FEW023CB BKN20026/24 Q1008 A2979 HR86 RESHRA CB SE/W TS/SH SE RWY HUM OPR=METAR SLBU 141900Z 00000KT 6000 VCSH SCT017 FEW023CB BKN200 24/24Q1008 A2978 HR98 RESHRA CB/SH SE/S/SW RWY WET OPT C210=METAR SLSA 141900Z 32015KT 7000 VCSH SCT017 FEW023CB BKN200 34/23Q1007 A2974 HR53 CB/SH SE/S/SW=METAR SLSR 141900Z 32015G25KT 7000 VCSH SCT017 FEW023CB BKN20031/24 Q1006 A2972 HR65 CB/SH N/NE/E/NW RWY NML=METAR SLSM 141900Z 14010KT 6000 TS VCSH BKN015 FEW023CB OVC07022/22 Q1010 A2983 HR97 RERA CB N/NE/W/NW TS W RWY WET OPR C206=
ZPX0611 141900@CAELT@GG SLZZYMYT@CAELT@141858 SLORYGYZ@CAELT@SABO SLOR 141900@CAELT@METAR SLOR 141900Z 21010KT 9999 FEW025 BKN200 24/06 Q1031 A3045 653.3@CAELT@HR30=@CAELT@
ZPX0612 141900@CAELT@GG SLZZYMYT@CAELT@141859 SLORYGYZ@CAELT@SABO SLOR 141900@CAELT@METAR SLOR 141900Z 21010KT 9999 FEW025 BKN200 24/06 Q1031 A3045 653.3@CAELT@HR30=@CAELT@
ZPX0614 141902@CAELT@GG SLZZYMYT@CAELT@141901 SLCBYGYZ@CAELT@SABO SLCB 141900@CAELT@METAR SLCB 141900Z 36012KT 9999 TS SCT033 FEW036CB BKN080 BKN200@CAELT@25/06 Q1018 A3008 746.4 HR29 CB ON STN/NW/SE/S TS/SE/S TEMPO TSRA=@CAELT@
ZPX0615 141902@CAELT@GG SLZZYMYT@CAELT@141902 SLCBYGYS@CAELT@SABO SLCB 141900@CAELT@METAR SLCB 141900Z 36012KT 9999 TS SCT033 FEW036CB BKN080 BKN200@CAELT@25/06 Q1018 A3008 746.4 HR29 CB ON STN/NW/SE/S TS/SE/S TEMPO TSRA=@CAELT@METAR SLAL 141900Z 01018KT 9999 FEW020 FEW030CB BKN200 15/09 Q1025@CAELT@A3027 700.9 HR66 CB/NE/SE/S/SW=@CAELT@METAR SLPO 141900Z NIL=METAR SLAG 141900Z NIL=METAR SLVM 141900Z NIL=METAR SLTJ 141900Z 15008KT 9999 TS SCT030 FEW036CB BKN200 24/14 Q1015A2999 811.3 HR53 CB TS SH/W=METAR SLYA 141900Z NIL=METAR SLBJ 141900Z NIL=METAR SLHI 141900Z NIL=
ZPX0618 141907@CAELT@GG SLZZYMYT@CAELT@141907 SLLPYFYA@CAELT@SABO SLLP 141900@CAELT@METAR SLLP 141900Z 11006KT 080V170 9999 -SHRA SCT017 FEW020CB SCT070@CAELT@BKN200 12/01 Q1034 A3055 625.7 HR49 P6784 CB/SH N/E/S RETS NOSIG=@CAELT@METAR SLCO 141900Z 27007KT 9999 BKN023 33/24 Q1007 A2976 980.3 HR57@CAELT@AC/CI=@CAELT@METAR SLRY 141900Z 32014KT 9999 FEW017 BKN200 32/23 Q1007 A2974HR57 RWY NML=METAR SLRQ 141900Z 33009KT 9999 FEW020 SCT200 33/24 Q1006 A2972 982.5HR60=METAR SLSB 141900Z 31010G20KT 9999 FEW020 BKN080 32/25 Q1007 A2974HR67 RWY NML=
ZPX0636 141952@CAELT@GG SLZZYMYT@CAELT@141950 SLPSYGYS@CAELT@SABO SLPS 142000@CAELT@METAR SLPS 142000Z 00000KT 9999 BKN017 BKN200 31/24 Q1009 A2980 HR67=@CAELT@
ZPX0637 141954@CAELT@GG SLZZYMYT@CAELT@141955 SLSBYSYX@CAELT@SABO SLSB 142000@CAELT@METAR SLSB 142000Z 34008KT 9999 SCT017 BKN080 31/24 Q1007 A2974 HR67@CAELT@SH NE SE RWY NML=@CAELT@
ZPX0638 141955@CAELT@GG SLZZYMYT@CAELT@141954 SLTJYGYZ@CAELT@SABO SLTJ 142000@CAELT@METAR SLTJ 142000Z 13006KT 9999 SCT030 FEW036CB BKN200 24/14 Q1015@CAELT@A2998 811.0 HR57 CB/SW RETS=@CAELT@
ZPX0639 141955@CAELT@GG SLZZYMYT@CAELT@141955 SLVRYGYZ@CAELT@SABO SLVR 142000@CAELT@METAR SLVR 142000Z VRB02KT 9999 SCT025 BKN070 BKN200 22/19 Q1011@CAELT@A2985 HR85 NOSIG=@CAELT@
ZPX0640 141955@CAELT@GG SLZZYMYT@CAELT@141954 SLSAYGYS@CAELT@SABO SLSA 142000@CAELT@METAR SLSA 142000Z 32010KT 7000 VCSH SCT017 FEW023CB BKN200 34/23@CAELT@Q1006 A2972 HR53 CB/SH SE/S/SW=@CAELT@
ZPX0641 141956@CAELT@GG SLZZYMYT@CAELT@141954 SLRBYGYS@CAELT@SABO SLRB 142000@CAELT@METAR SLRB 142000Z 00000KT 9999 FEW025CB BKN200 28/22 Q1011 A2985@CAELT@HR74 CB N/NE/NW RWY WET OPR=@CAELT@
ZPX0642 141956@CAELT@GG SLZZYMYT@CAELT@141955 SLLPYGYZ@CAELT@SABO SLLP 142000@CAELT@METAR SLLP 142000Z 03004KT 9999 FEW017 SCT070 BKN200 16/01 Q1033@CAELT@A3052 625.0 HR35 P3483 NOSIG=@CAELT@
ZPX0643 141956@CAELT@GG SLZZYMYT@CAELT@141955 SLCOYGYZ@CAELT@SABO SLCO 142000@CAELT@METAR SLCO 142000Z 30013KT 9999 BKN023 FEW025CB 32/25 Q1007 A2974 979@CAELT@.7 HR66 CB/SH/SW CI=@CAELT@
ZPX0645 141957@CAELT@GG SLZZYMYT@CAELT@141956 SLTRYGYZ@CAELT@SABO SLTR 142000@CAELT@METAR SLTR 142000Z 14006KT 1000 +TSRA BKN004 FEW020CB OVC070 22/22@CAELT@Q1010 A2984 991.9 HR98 CB N/SE/SW/W TS N/SE TEMPO 3000=@CAELT@
ZPX0646 141957@CAELT@GG SLZZYMYT@CAELT@141953 SLETYMYC@CAELT@SABO SLET 142000@CAELT@METAR SLET 142000Z 00000KT 9999 FEW023 BKN070 OVC200 22/20 Q1010@CAELT@A2985 HR87 NOSIG=@CAELT@
ZPX0647 141958@CAELT@GG SLZZYMYT@CAELT@141957 SLTRYGYS@CAELT@SABO SLTR 142000@CAELT@METAR SLTR 142000Z 14006KT 1000 +TSRA BKN004 FEW020CB OVC070 22/22@CAELT@Q1010 A2984 991.9 HR98 CB N/SE/SW/W TS N/SE TEMPO 3000=@CAELT@METAR SLGM 142000Z 27008KT 7000 TS VCSH BKN015 FEW020CB BKN200@CAELT@26/23 Q1007 A2975 HR84 CB/SH E/SE/S/SW TS SE=@CAELT@METAR SLRI 142000Z 02008KT 9999 SCT017 FEW020CB BKN200 28/24 Q1008A2977 HR78 CB E/S AC=METAR SLJO 142000Z NIL=METAR SLRA 142000Z 32006KT 8000 VCSH FEW020 FEW023CB BKN200 32/22Q1007 A2975 HR56 AC CB/SH N/E/SE/S RWY NML=METAR SLMG 142000Z 00000KT 8000 VCSH FEW017 FEW023CB BKN200 28/25Q1008 A2978 HR84 RETS CBNE/SE/W SH SE RWY HUM OPR=METAR SLBU 142000Z 00000KT 8000 VCSH SCT017 FEW023CB OVC200 24/24Q1007 A HR97 CB/SH N/S/SW RWY OPR C210=METAR SLSA 142000Z 32010KT 7000 VCSH SCT017 FEW023CB BKN200 34/23Q1006 A2972 HR53 CB/SH SE/S/SW=METAR SLSR 142000Z 32010KT 9999 SCT017 FEW020CB BKN200 31/23 Q1006A2971 HR64 CB NE/E RWY NML=METAR SLSM 142000Z 14010KT 1000 +TSRA BKN008 FEW023CB OVC070 22/22Q1011 A2985 HR100 CB E/SE/S/W TS S RWY WET INOP=
ZPX0648 141959@CAELT@GG SLZZYMYT@CAELT@141958 SLORYGYZ@CAELT@SABO SLOR 142000@CAELT@METAR SLOR 142000Z 27009KT 9999 FEW025 BKN200 24/07 Q1030 A3044 653.1@CAELT@HR35 PO=@CAELT@
ZPX0649 141959@CAELT@GG SLZZYMYT@CAELT@141958 SLORYGYZ@CAELT@SABO SLOR 142000@CAELT@METAR SLOR 142000Z 27009KT 9999 FEW025 BKN200 24/07 Q1030 A3044 653.1@CAELT@HR35 PO=@CAELT@
ZPX0650 141959@CAELT@GG SLZZYMYT@CAELT@141959 SLVRYFYC@CAELT@SABO SLVR 142000@CAELT@METAR SLVR 142000Z VRB02KT 9999 SCT025 BKN070 BKN200 22/19 Q1011@CAELT@A2985 HR85 NOSIG=@CAELT@METAR SLET 142000Z 00000KT 9999 FEW023 BKN070 OVC200 22/20 Q1010@CAELT@A2985 HR87 NOSIG=@CAELT@METAR SLAS 142000Z 36004KT 9999 BKN017 FEW030CB OVC200 26/22Q1013 A2992 HR80 CB/SH/N RWY NML=METAR SLJV 142000Z 09005KT 9999 OVC013 22/21 Q1011 A2985 HR94RWY HUM OPR=METAR SLCP 142000Z 00000KT 9999 BKN015 OVC200 23/20 Q1014 A2994 HR84RWY NML=METAR SLSI 142000Z 00000KT 9999 BKN015 OVC070 24/23 Q1009 A2980 HR91RWY WET OPR=METAR SLTI 142000Z 00000KT 4000 TS VCSH BKN012 FEW030CB 25/24 Q1014A2994 HR92 CB/TS/SH/NW/N/NE/S RWY HUM OPR=METAR SLJE 142000Z 00000KT 9999 SCT012 BKN200 27/22 Q1013 A2991 HR75METAR SLVG 142000Z 00000KT 9999 SCT017 BKN070 19/13 Q1022 A3018HR65 RWY NML=METAR SLRB 142000Z 00000KT 9999 FEW025CB BKN200 28/22 Q1011 A2985HR74 CB N/NE/NW RWY WET OPR=METAR SLPS 142000Z 00000KT 9999 BKN017 BKN200 31/24 Q1009 A2980 HR67=METAR SLCA 142000Z 36006KT 9999 BKN036 28/16 Q1013 A2991 HR44 RWY NML
ZPX0653 142000@CAELT@GG SLZZYMYT@CAELT@141959 SLCBYGYZ@CAELT@SABO SLCB 142000@CAELT@METAR SLCB 142000Z 35013KT 9999 SCT033 FEW036CB BKN080 BKN200 25/05@CAELT@Q1018 A3007 746.1 HR27 CB SE/S/SW RETS NOSIG=@CAELT@
ZPX0660 142006@CAELT@GG SLZZYMYT@CAELT@142005 SLLPYFYA@CAELT@SABO SLLP 142000@CAELT@METAR SLLP 142000Z 03004KT 9999 FEW017 SCT070 BKN200 16/01 Q1033@CAELT@A3052 625.0 HR35 P3483 NOSIG=@CAELT@METAR SLCO 142000Z 30013KT 9999 BKN023 FEW025CB 32/25 Q1007 A2974 979@CAELT@.7 HR66 CB/SH/SW CI=@CAELT@METAR SLRY 142000Z 32015G25KT 9999 FEW017 BKN200 32/23 Q1006A2972 HR7 RWY NML=METAR SLRQ 142000Z 33011KT 9999 FEW020 SCT200 33/23 Q1005 A2970 981.8HR55=METAR SLSB 142000Z 34008KT 9999 SCT017 BKN080 31/24 Q1007 A2974 HR67SH NE SE RWY NML=
ZPX0661 142007@CAELT@GG SLZZYMYT@CAELT@142001 SLCBYGYS@CAELT@SABO SLCB 142000@CAELT@METAR SLCB 142000Z 35013KT 9999 SCT033 FEW036CB BKN080 BKN200 25/05@CAELT@Q1018 A3007 746.1 HR27 CB SE/S/SW RETS NOSIG=@CAELT@METAR SLAL 142000Z 02014KT 9999 FEW017 FEW030CB BKN200 15/09 Q1025@CAELT@A3027 700.9 HR69 CB/SE/SW AC=@CAELT@METAR SLPO 142000Z NIL=METAR SLAG 142000Z NIL=METAR SLVM 142000Z NIL=METAR SLTJ 142000Z 13006KT 9999 SCT030 FEW036CB BKN200 24/14 Q1015A2998 811.0 HR57 CB/SW RETS=METAR SLYA 142000Z NIL=METAR SLBJ 142000Z NIL=METAR SLHI 142000Z NIL=
ZPX0682 142051@CAELT@GG SLZZYMYT@CAELT@142050 SLPSYGYS@CAELT@SABO SLPS 142100@CAELT@METAR SLPS 142100Z 24005KT 9999 BKN017 BKN200 32/24 Q1008 A2977 HR67=@CAELT@
ZPX0685 142054@CAELT@GG SLZZYMYT@CAELT@142053 SLORYGYZ@CAELT@SABO SLOR 142100@CAELT@METAR SLOR 142100Z 21006KT 9999 FEW025 BKN200 22/07 Q1030 A3042 652.5@CAELT@HR38=@CAELT@
ZPX0686 142055@CAELT@GG SLZZYMYT@CAELT@142055 SLTRYGYZ@CAELT@SABO SLTR 142100@CAELT@METAR SLTR 142100Z 16007KT 5000 -TSRA BKN004 FEW020CB OVC070 22/21@CAELT@Q1010 A2983 991.5 HR98 CB N/NE/W/NW TS NE TEMPO 3000=@CAELT@
ZPX0688 142056@CAELT@GG SLZZYMYT@CAELT@142056 SLVRYGYZ@CAELT@SABO SLVR 142100@CAELT@METAR SLVR 142100Z 05003KT 9999 SCT025 BKN070 BKN200 22/19 Q1010@CAELT@A2984 HR84 NOSIG=@CAELT@
ZPX0689 142056@CAELT@GG SLZZYMYT@CAELT@142055 SLTJYGYZ@CAELT@SABO SLTJ 142100@CAELT@METAR SLTJ 142100Z 10006KT 9999 SCT030 BKN200 24/13 Q1014 A2997 810.6@CAELT@HR50 AC=@CAELT@
ZPX0690 142056@CAELT@GG SLZZYMYT@CAELT@142055 SLSAYGYS@CAELT@SABO SLSA 142100@CAELT@METAR SLSA 142100Z 17015G25KT 3000 -TSRA SCT007 BKN015 FEW023CB@CAELT@BKN070 24/24 Q1007 A2975 HR97 CB NE/E/SE/S TS S=@CAELT@
ZPX0691 142056@CAELT@GG SLZZYMYT@CAELT@142055 SLSBYSYX@CAELT@SABO SLSB 142100@CAELT@METAR SLSB 142100Z VRB02KT 8000 VCSH SCT015 BKN080 30/25 Q1007 A2974@CAELT@HR71 SH SE S RWY NML=@CAELT@
ZPX0692 142057@CAELT@GG SLZZYMYT@CAELT@142056 SLCOYGYZ@CAELT@SABO SLCO 142100@CAELT@METAR SLCO 142100Z 30006KT 9999 FEW023 32/25 Q1006 A2972 979.1 HR66@CAELT@
ZPX0693 142057@CAELT@GG SLZZYMYT@CAELT@142051 SLETYMYC@CAELT@SABO SLET 142100@CAELT@METAR SLET 142100Z 00000KT 9999 FEW025 SCT070 BKN200 25/20 Q1010@CAELT@A2982 HR74 NOSIG=@CAELT@
ZPX0695 142057@CAELT@GG SLZZYMYT@CAELT@142056 SLRBYGYS@CAELT@SABO SLRB 142100@CAELT@METAR SLRB 142100Z 00000KT 9999 FEW015 BKN200 27/23 Q1011 A2985 HR77@CAELT@RWY WET OPR=@CAELT@
ZPX0697 142057@CAELT@GG SLZZYMYT@CAELT@142056 SLLPYGYZ@CAELT@SABO SLLP 142100@CAELT@METAR SLLP 142100Z 08009KT 030V120 9999 FEW017 BKN200 16/00 Q1032@CAELT@A3049 624.3 HR34 P93// AC NOSIG=@CAELT@
ZPX0701 142058@CAELT@GG SLZZYMYT@CAELT@142057 SLCBYGYZ@CAELT@SABO SLCB 142100@CAELT@METAR SLCB 142100Z 09009KT 9999 SCT033 FEW036CB SCT080 BKN200 24/06@CAELT@Q1018 A3007 746.2 HR32 CB NE/E NOSIG=@CAELT@
ZPX0704 142100@CAELT@GG SLZZYMYT@CAELT@142100 SLCAYGYS@CAELT@SABO SLCA 142100@CAELT@METAR SLCA 142100Z 36004KT 9999 BKN036 28/16 Q1012 A2988 HR69 RWY NML@CAELT@
ZPX0705 142102@CAELT@GG SLZZYMYT@CAELT@142100 SLTRYGYS@CAELT@SABO SLTR 142100@CAELT@METAR SLTR 142100Z 16007KT 5000 -TSRA BKN004 FEW020CB OVC070 22/21@CAELT@Q1010 A2983 991.5 HR98 CB N/NE/W/NW TS NE TEMPO 3000=@CAELT@METAR SLGM 142100Z 02006KT 7000 VCSH SCT015 FEW020CB BKN200 26/23@CAELT@Q1007 A2974 HR83 RETS CB/SH E/SE/S/SW=@CAELT@METAR SLRI 142100Z 36007KT 9999 SCT017 FEW020CB BKN080 BKN200 27/24Q1008 A2978 HR84 CB DIST/SE=METAR SLJO 142100Z NIL=METAR SLRA 142100Z 09003KT 8000 VCSH FEW020 FEW023CB SCT080 BKN20032/24 Q1007 A2974 HR62 CB/SH NE/SE/S RWY NML=METAR SLMG 142100Z 00000KT 8000 VCSH FEW017 FEW023CB BKN200 28/25Q1008 A2977 HR84 CB/SH NE/E/NW RWY HUM OPR=METAR SLBU 142100Z 00000KT 9999 FEW017 FEW023CB OVC200 25/24 Q1006A2972 HR95 CB SW RWY HUM OPR=METAR SLSA 142100Z 17015G25KT 3000 -TSRA SCT007 BKN015 FEW023CBBKN070 24/24 Q1007 A2975 HR97 CB NE/E/SE/S TS S=METAR SLSR 142100Z 32006KT 9999 FEW017 FEW023CB BKN200 30/24 Q1005A2969 HR68 CB/N/NE/E RWY NML=METAR SLSM 142100Z 15008KT 4000 -TSRA BKN008 FEW023CB OVC070 21/21Q1010 A2983 HR100 CB N/NE/E/NW TS N/NE RWY WET INOP=
ZPX0706 142102@CAELT@GG SLZZYMYT@CAELT@142102 SLVRYFYC@CAELT@SABO SLVR 142100@CAELT@METAR SLVR 142100Z 05003KT 9999 SCT025 BKN070 BKN200 22/19 Q1010@CAELT@A2984 HR84 NOSIG=@CAELT@METAR SLET 142100Z 00000KT 9999 FEW025 SCT070 BKN200 25/20 Q1010@CAELT@A2982 HR74 NOSIG=@CAELT@METAR SLAS 142100Z 36005KT 9999 BKN017 FEW030CB OVC200 25/22 Q1013A2992 HR84 CB/SH/N/NE RWY NML=METAR SLJV 142100Z 00000KT 9999 SCT015 OVC200 23/22 Q1009 A2980HR92 RWY NML=METAR SLCP 142100Z 00000KT 9999 BKN015 OVC200 24/20 Q1011 A2985 HR77RWY NML=METAR SLSI 142100Z 19006KT 9999 SCT015 BKN070 26/22 Q1009 A2980 HR78RWY HUM OPR =METAR SLTI 142100Z 00000KT 9999 TS BKN015 FEW030CB OVC070 24/23 Q1013A2991 HR96 CB/TS/NE/E RERA RWY WET OPR=METAR SLJE 142100Z 00000KT 9999 FEW012 BKN200 26/21 Q1011 A2985HR73 RWY NML=METAR SLVG 142100Z 00000KT 9999 SCT017 BKN070 19/13 Q1022 A3018 HR65METAR SLRB 142100Z 00000KT 9999 FEW015 BKN200 27/23 Q1011 A2985 HR77RWY WET OPR=METAR SLPS 142100Z 24005KT 9999 BKN017 BKN200 32/24 Q1008 A2977 HR67=METAR SLCA 142100Z 36004KT 9999 BKN036 28/16 Q1012 A2988 HR69 RWY NML
ZPX0708 142103@CAELT@GG SLZZYMYT@CAELT@142102 SLLPYFYA@CAELT@SABO SLLP 142100@CAELT@METAR SLLP 142100Z 08009KT 030V120 9999 FEW017 BKN200 16/00 Q1032@CAELT@A3049 624.3 HR34 P93// AC NOSIG=@CAELT@METAR SLCO 142100Z 30006KT 9999 FEW023 32/25 Q1006 A2972 979.1 HR66@CAELT@METAR SLRY 142100Z 32014KT 9999 FEW020 BKN200 31/23 Q1006 A2972@CAELT@HR61 RWY NML=METAR SLRQ 142100Z 36005KT 9999 FEW020 FEW027CB BKN200 32/25 Q1005A2970 HR65 CB/DIST/E/SE=METAR SLSB 142100Z VRB02KT 8000 VCSH SCT015 BKN080 30/25 Q1007 A2974HR71 SH SE S RWY NML=METAR SLOR 142100Z 21006KT 9999 FEW025 BKN200 22/07 Q1030 A3042 652.5HR38=
ZPX0709 142104@CAELT@GG SLZZYMYT@CAELT@142101 SLCBYGYS@CAELT@SABO SLCB 142100@CAELT@METAR SLCB 142100Z 09009KT 9999 SCT033 FEW036CB SCT080 BKN200 24/06@CAELT@Q1018 A3007 746.2 HR32 CB NE/E NOSIG=@CAELT@METAR SLAL 142100Z 02018KT 9999 BKN017 FEW030CB SCT200 15/09 Q1024@CAELT@A3026 700.7 HR68 CB/SW=@CAELT@METAR SLPO 142100Z NIL=METAR SLAG 142100Z NIL=METAR SLVM 142100Z NIL=METAR SLTJ 142100Z 10006KT 9999 SCT030 BKN200 24/13 Q1014 A2997 810.6HR50 AC=METAR SLYA 142100Z NIL=METAR SLBJ 142100Z NIL=METAR SLHI 142100Z NIL=
ZPX0728 142152@CAELT@GG SLZZYMYT@CAELT@142152 SLETYMYC@CAELT@SABO SLET 142200@CAELT@METAR SLET 142200Z 30004KT 9999 SCT070 BKN200 23/20 Q1009 A2980 HR81@CAELT@NOSIG=@CAELT@
ZPX0729 142153@CAELT@GG SLZZYMYT@CAELT@142150 SLPSYGYS@CAELT@SABO SLPS 142200@CAELT@METAR SLPS 142200Z 24005KT 9999 SCT017 BKN200 29/23 Q1008 A2977 HR70=@CAELT@
ZPX0730 142154@CAELT@GG SLZZYMYT@CAELT@142154 SLCBYGYZ@CAELT@SABO SLCB 142200@CAELT@METAR SLCB 142200Z 16008KT 9999 FEW033 FEW036CB BKN200 23/06 Q1018@CAELT@A3008 746.4 HR33 CB/E AC FU NOSIG=@CAELT@
ZPX0731 142155@CAELT@GG SLZZYMYT@CAELT@142155 SLVRYGYZ@CAELT@SABO SLVR 142200@CAELT@METAR SLVR 142200Z 03003KT 9999 FEW025 SCT070 BKN200 22/20 Q1009@CAELT@A2980 HR87 NOSIG=@CAELT@
ZPX0732 142155@CAELT@GG SLZZYMYT@CAELT@142155 SLCOYGYZ@CAELT@SABO SLCO 142200@CAELT@METAR SLCO 142200Z 31006KT 9999 FEW023 SCT200 31/25 Q1006 A2972 979.3@CAELT@HR67=@CAELT@
ZPX0733 142156@CAELT@GG SLZZYMYT@CAELT@142155 SLORYGYZ@CAELT@SABO SLOR 142200@CAELT@METAR SLOR 142200Z 19012KT 9999 FEW025 BKN200 21/06 Q1029 A3040 652.2@CAELT@HR37=@CAELT@
ZPX0734 142157@CAELT@GG SLZZYMYT@CAELT@142155 SLSAYGYS@CAELT@SABO SLSA 142200@CAELT@METAR SLSA 142200Z 16007KT 5000 -TSRA SCT007 BKN015 FEW023CB OVC070@CAELT@24/23 Q1008 A2977 HR96 CB N/NE/W/NW TS N/NE=@CAELT@
ZPX0735 142157@CAELT@GG SLZZYMYT@CAELT@142155 SLLPYGYZ@CAELT@SABO SLLP 142200@CAELT@METAR SLLP 142200Z 08013KT 9999 FEW017 BKN200 13/03 Q1032 A3048 624.1@CAELT@HR49 P90// NOSIG=@CAELT@
ZPX0736 142158@CAELT@GG SLZZYMYT@CAELT@142157 SLTJYGYZ@CAELT@SABO SLTJ 142200@CAELT@METAR SLTJ 142200Z 06006KT 9999 FEW030 BKN200 23/13 Q1014 A2996 810.4@CAELT@HR53=@CAELT@
ZPX0737 142158@CAELT@GG SLZZYMYT@CAELT@142157 SLCAYGYS@CAELT@SABO SLCA 142200@CAELT@METAR SLCA 142200Z 36005KT 9999 SCT036 28/15 Q1012 A2983 HR46 RWY NML@CAELT@
ZPX0738 142158@CAELT@GG SLZZYMYT@CAELT@142157 SLSBYSYX@CAELT@SABO SLSB 142200@CAELT@METAR SLSB 142200Z 12010G20KT 8000 VCSH BKN012 BKN080 23/20 Q1009@CAELT@A2980 HR82 SH E SE S RWY NML=@CAELT@
ZPX0740 142159@CAELT@GG SLZZYMYT@CAELT@142158 SLTRYGYS@CAELT@SABO SLTR 142200@CAELT@METAR SLTR 142200Z 14008KT 9999 -RA FEW004 FEW020CB OVC070 22/22@CAELT@Q1009 A2981 990.9 HR98 CB S/SW NOSIG=@CAELT@METAR SLGM 142200Z 00000KT 7000 VCSH ST015 FEW020CB BKN200 27/23@CAELT@Q1008 A2977 HR82 CB/SH NE/SE/SW=@CAELT@METAR SLRI 142200Z 03004KT 9999 SCT015 FEW020CB SCT080 BKN20027/24 Q1009 A2980 HR86 CB E/SE=METAR SLJO 142200Z NIL=METAR SLRA 142200Z 00000KT 8000 VCSH FEW020 FEW023CB SCT080 OVC20031/25 Q1007 A2975 HR70 CB/SH S/SW RWY NML=METAR SLMG 142200Z 14010KT 8000 VCSH FEW020 FEW023CB OVC200 27/24Q1008 A2979 HR85 CB/SH N/NE RWY NML=METAR SLBU 142200Z NIL=METAR SLSA 142200Z 16007KT 5000 -TSRA SCT007 BKN015 FEW023CB OVC07024/23 Q1008 A2977 HR96 CB N/NE/W/NW TS N/NE=METAR SLSR 142200Z 32006KT 9999 FEW017 FEW023CB BKN200 30/23 Q1005A2968 HR70 CB N/NE/E RWY NML=METAR SLSM 142200Z 15006KT 4000 TSRA BKN008 FEW023CB OVC070 21/21Q1009 A2982 HR100 CB/TS N/NE RWY WET INOP=
ZPX0742 142200@CAELT@GG SLZZYMYT@CAELT@142200 SLVRYFYC@CAELT@SABO SLVR 142200@CAELT@METAR SLVR 142200Z 03003KT 9999 FEW025 SCT070 BKN200 22/20 Q1009@CAELT@A2980 HR87 NOSIG=@CAELT@METAR SLET 142200Z 30004KT 9999 SCT070 BKN200 23/20 Q1009 A2980@CAELT@HR81 NOSIG=@CAELT@METAR SLAS 142200Z 00000KT 9999 SCT017 OVC200 25/23 Q1010 A2983HR87 RWY NML=METAR SLJV 142200Z 00000KT 9999 OVC070 23/22 Q1007 A2974 HR92 RWY NMLMETAR SLCP 142200Z 00000KT 9999 OVC017 24/21 Q1011 A2985 HR84 RWY NMLMETAR SLSI 142200Z 00000KT 9999 SCT015 BKN070 24/21 Q1009 A2980 HR83RWY HUM OPR=METAR SLTI 142200Z 00000KT 9999 SCT020 BKN070 BKN200 24/24Q1012 A2988 HR97 RETS RWY WET OPR=METAR SLJE 142200Z 00000KT 9999 FEW012 BKN070 BKN200 25/22 Q1011A2985 HR81 RWY NML=METAR SLRB 142200Z NIL=METAR SLPS 142200Z 24005KT 9999 SCT017 BKN200 29/23 Q1008 A2977 HR70=METAR SLCA 142200Z 36005KT 9999 SCT036 28/15 Q1012 A2983 HR46 RWY NML
ZPX0743 142201@CAELT@GG SLZZYMYT@CAELT@142200 SLRBYGYS@CAELT@SABO SLRB 142200 RTD@CAELT@METAR SLRB 142200Z 00000KT 9999 SCT015 BKN200 27/23 Q1011 A2985 HR79@CAELT@RWY WET OPR=@CAELT@
ZPX0744 142201@CAELT@GG SLZZYMYT@CAELT@142200 SLCBYGYS@CAELT@SABO SLCB 142200@CAELT@METAR SLCB 142200Z 16008KT 9999 FEW033 FEW036CB BKN200 23/06 Q1018@CAELT@A3008 746.4 HR33 CB/E AC FU NOSIG=@CAELT@METAR SLAL 142200Z 03010KT 9999 BKN017 FEW030CB SCT200 13/09 Q1025@CAELT@A3029 701.4 HR78 CB/NE/SE AC=@CAELT@METAR SLTJ 142200Z 06006KT 9999 FEW030 BKN200 23/13 Q1014 A2996 810.4HR53=
ZPX0745 142202@CAELT@GG SLZZYMYT@CAELT@142201 SLLPYFYA@CAELT@SABO SLLP 142200@CAELT@METAR SLLP 142200Z 08013KT 9999 FEW017 BKN200 13/03 Q1032 A3048 624.1@CAELT@HR49 P90// NOSIG=@CAELT@METAR SLCO 142200Z 31006KT 9999 FEW023 SCT200 31/25 Q1006 A2972 979.3@CAELT@HR67=@CAELT@METAR SLRY 142200Z 36005KT 9999 FEW020 BKN200 30/23 Q1006 A2971HR67 RWY NML=METAR SLRQ 142200Z 07005KT 9999 FEW020 FEW027CB BKN200 31/25 Q1006A2973 HR68 CB/DIST/NE/SE=METAR SLSB 142200Z 12010G20KT 8000 VCSH BKN012 BKN080 23/20 Q1009A2980 HR82 SH E SE S RWY NML=METAR SLOR 142200Z 19012KT 9999 FEW025 BKN200 21/06 Q1029 A3040 652.2HR37=
ZPX0764 142252@CAELT@GG SLZZYMYT@CAELT@142252 SLCAYGYS@CAELT@SABO SLCA 142300@CAELT@METAR SLCA 142300Z 36003KT 9999 FEW036 27/16 Q1011 A2985 HR51 RWY NML@CAELT@
ZPX0765 142253@CAELT@GG SLZZYMYT@CAELT@142252 SLRBYGYS@CAELT@SABO SLRB 142300@CAELT@METAR SLRB 142300Z 00000KT 9999 SCT015 BKN200 26/23 Q1011 A2985 HR84@CAELT@RWY WET OPR=@CAELT@
ZPX0766 142255@CAELT@GG SLZZYMYT@CAELT@142245 SLETYMYC@CAELT@SABO SLET 142300@CAELT@METAR SLET 142300Z 30004KT 9999 FEW015 FEW025TCU BKN200 21/20 Q1009@CAELT@A2981 HR90 TCU E NOSIG=@CAELT@
ZPX0767 142255@CAELT@GG SLZZYMYT@CAELT@142254 SLSAYGYS@CAELT@SABO SLSA 142300@CAELT@METAR SLSA 142300Z 15010KT 7000 -TSRA FEW007 SCT017 FEW023CB OVC070@CAELT@23/23 Q1008 A2977 HR98 CB N/NE/E TS E=@CAELT@
ZPX0768 142255@CAELT@GG SLZZYMYT@CAELT@142254 SLSAYGYS@CAELT@SABO SLSA 142300@CAELT@METAR SLSA 142300Z 15010KT 7000 -TSRA FEW007 SCT017 FEW023CB OVC070@CAELT@23/23 Q1008 A2977 HR98 CB N/NE/E TS E=@CAELT@
ZPX0769 142256@CAELT@GG SLZZYMYT@CAELT@142254 SLCOYGYZ@CAELT@SABO SLCO 142300@CAELT@METAR SLCO 142300Z 32009KT 8000 VCSH FEW023 FEW025CB SCT200 31/25@CAELT@Q1007 A2975 980.1 HR68 CB/SH/NE/E AC=@CAELT@
ZPX0771 142256@CAELT@GG SLLPZRZX@CAELT@142255 SLLPYGYZ@CAELT@SABO SLLP 142300@CAELT@METAR SLLP 142300Z 09010KT 9999 FEW015 BKN200 10/03 Q1032 A3050 624.5@CAELT@HR62 NOSIG=@CAELT@
ZPX0772 142256@CAELT@GG SLZZYMYT@CAELT@142255 SLSBYSYX@CAELT@SABO SLSB 142300@CAELT@METAR SLSB 142300Z 14009KT 8000 -RA BKN008 OVC080 22/21 Q1011 A2986@CAELT@HR90 RWY NML=@CAELT@
ZPX0774 142257@CAELT@GG SLZZYMYT@CAELT@142256 SLTRYGYZ@CAELT@SABO SLTR 142300@CAELT@METAR SLTR 142300Z 15005KT 9999 -RA FEW017 FEW020CB OVC070 22/22@CAELT@Q1009 A2981 991.0 HR98 CB NW NOSIG=@CAELT@
ZPX0776 142257@CAELT@GG SLZZYMYT@CAELT@142257 SLTRYGYS@CAELT@SABO SLTR 142300@CAELT@METAR SLTR 142300Z 15005KT 9999 -RA FEW017 FEW020CB OVC070 22/22@CAELT@Q1009 A2981 991.0 HR98 CB NW NOSIG=@CAELT@METAR SLGM 142300Z NIL=@CAELT@METAR SLRI 142300Z 00000KT 9999 SCT015 FEW020CB BKN200 27/24 Q1009@CAELT@A2981 HR85 CB/LT SW AC=METAR SLMG 142300Z 09008KT 8000 TS VCSH FEW020 FEW023CB OVC20025/23 Q1009 A2980 HR89 CB/TS/SH N/NW RWY NML=METAR SLSA 142300Z 15010KT 7000 -TSRA FEW007 SCT017 FEW023CB OVC07023/23 Q1008 A2977 HR98 CB N/NE/E TS E=
ZPX0777 142257@CAELT@GG SLZZYMYT@CAELT@142257 SLVRYGYZ@CAELT@SABO SLVR 142300@CAELT@METAR SLVR 142300Z 36004KT 9999 SCT007 SCT015 BKN200 21/19 Q1009@CAELT@A2982 HR93 AC NOSIG=@CAELT@
ZPX0778 142258@CAELT@GG SLZZYMYT@CAELT@142258 SLCBYGYZ@CAELT@SABO SLCB 142300@CAELT@METAR SLCB 142300Z 16010KT 9999 FEW033 SCT080 BKN200 21/06 Q1019@CAELT@A3011 747.2 HR39 NOSIG=@CAELT@
ZPX0779 142258@CAELT@GG SLZZYMYT@CAELT@142257 SLTJYGYZ@CAELT@SABO SLTJ 142300@CAELT@METAR SLTJ 142300Z 06005KT 9999 FEW030 BKN200 22/13 Q1015 A2998 811.0@CAELT@HR56 AC=@CAELT@
ZPX0780 142300@CAELT@GG SLZZYMYT@CAELT@142259 SLCBYGYS@CAELT@SABO SLCB 142300@CAELT@METAR SLCB 142300Z 16010KT 9999 FEW033 SCT080 BKN200 21/06 Q1019@CAELT@A3011 747.2 HR39 NOSIG=@CAELT@METAR SLAL 142300Z 01016KT 9999 BKN015 FEW030CB SCT200 11/09 Q1025@CAELT@A3029 701.3 HR89 CB/N/SW/NW AC=@CAELT@METAR SLTJ 142300Z 06005KT 9999 FEW030 BKN200 22/13 Q1015 A2998811.0 HR56 AC=
ZPX0782 142302@CAELT@GG SLZZYMYT@CAELT@142301 SLVRYFYC@CAELT@SABO SLVR 142300@CAELT@METAR SLVR 142300Z 36004KT 9999 SCT007 SCT015 BKN200 21/19 Q1009@CAELT@A2982 HR93 AC NOSIG=@CAELT@METAR SLET 142300Z 30004KT 9999 FEW015 FEW025TCU BKN200 21/20 Q1009@CAELT@A2981 HR90 TCU E NOSIG=@CAELT@METAR SLSI 142300Z 00000KT 9999 SCT015 OVC070 23 / 21 Q1009 A2980HR88 RWY HUM OPR=METAR SLRB 142300Z 00000KT 9999 SCT015 BKN200 26/23 Q1011 A2985 HR84RWY WET OPR=METAR SLCA 142300Z 36003KT 9999 FEW036 27/16 Q1011 A2985 HR51 RWY NML
ZPX0785 142306@CAELT@GG SLZZYMYT@CAELT@142306 SLLPYFYA@CAELT@SABO SLLP 142300@CAELT@METAR SLLP 142300Z 09010KT 9999 FEW015 BKN200 10/03 Q1032 A3050 624.5@CAELT@HR62 NOSIG=@CAELT@METAR SLCO 142300Z 32009KT 8000 VCSH FEW023 FEW025CB SCT200 31/25@CAELT@Q1007 A2975 980.1 HR68 CB/SH/NE/E AC=@CAELT@METAR SLSB 142300Z 14009KT 8000 -RA BKN008 OVC080 22/21 Q1011 A2986HR90 RWY NML=
ZPX0796 142355@CAELT@GG SLZZYMYT@CAELT@142355 SLVRYGYZ@CAELT@SABO SLVR 150000@CAELT@METAR SLVR 150000Z 35003KT 9999 FEW007 SCT015 BKN200 20/19 Q1010@CAELT@A2983 HR93 NOSIG=@CAELT@
ZPX0797 142357@CAELT@GG SLZZYMYT@CAELT@142356 SLTJYGYZ@CAELT@SABO SLTJ 150000@CAELT@METAR SLTJ 150000Z 00000KT 9999 FEW030 SCT200 21/13 Q1015 A2999 811.2@CAELT@HR60=@CAELT@
ZPX0798 142357@CAELT@GG SLZZYMYT@CAELT@142355 SLCBYGYZ@CAELT@SABO SLCB 150000@CAELT@METAR SLCB 150000Z 12012KT 9999 FEW033 SCT080 20/06 Q1020 A3014 748.0@CAELT@HR42 CI NOSIG=@CAELT@
ZPX0799 142357@CAELT@GG SLLPZRZX@CAELT@142356 SLLPYGYZ@CAELT@SABO SLLP 150000@CAELT@METAR SLLP 150000Z 13006KT 9999 FEW015 FEW017CB BKN200 09/04 Q1034@CAELT@A3056 625.8 HR70 CB/LT N/NE AC NOSIG=@CAELT@
