
ZPX0008 250054@CAELT@GG SLZZYMYT@CAELT@250054 SLCBYGYZ@CAELT@SABO SLCB 250100@CAELT@METAR SLCB 250100Z 16004KT 9999 NSC 18/03 Q1026 A3031 752.5 HR35 FU@CAELT@NOSIG=@CAELT@
ZPX0009 250055@CAELT@GG SLZZYMYT@CAELT@250056 SLVRYGYZ@CAELT@SABO SLVR 250100@CAELT@METAR SLVR 250100Z 31004KT 8000 NSC 26/20 Q1011 A2988 HR69 FU NOSIG=@CAELT@
ZPX0010 250056@CAELT@GG SLLPZRZX@CAELT@250055 SLLPYGYZ@CAELT@SABO SLLP 250100@CAELT@METAR SLLP 250100Z 08005KT 9999 NSC 03/M10 Q1040 A3073 629.7@CAELT@HR38 NOSIG=@CAELT@
ZPX0020 250154@CAELT@GG SLZZYMYT@CAELT@250154 SLCBYGYZ@CAELT@SABO SLCB 250200@CAELT@METAR SLCB 250200Z 10004KT 9999 NSC 18/04 Q1027 A3033 753.0 HR41 FU@CAELT@NOSIG=@CAELT@
ZPX0021 250156@CAELT@GG SLLPZRZX@CAELT@250155 SLLPYGYZ@CAELT@SABO SLLP 250200@CAELT@METAR SLLP 250200Z 08003KT 9999 NSC 01/M07 Q1041 A3075 630.1@CAELT@HR57 NOSIG=@CAELT@
ZPX0022 250156@CAELT@GG SLZZYMYT@CAELT@250156 SLVRYGYZ@CAELT@SABO SLVR 250200@CAELT@METAR SLVR 250200Z 32006KT 8000 NSC 26/20 Q1012 A2989 HR71 FU NOSIG=@CAELT@
ZPX0031 250255@CAELT@GG SLZZYMYT@CAELT@250254 SLCBYGYZ@CAELT@SABO SLCB 250300@CAELT@METAR SLCB 250300Z 11005KT 9999 NSC 17/05 Q1027 A3033 753.1 HR43 FU@CAELT@NOSIG=@CAELT@
ZPX0032 250255@CAELT@GG SLLPZRZX@CAELT@250255 SLLPYGYZ@CAELT@SABO SLLP 250300@CAELT@METAR SLLP 250300Z 08004KT 9999 NSC M01/M07 Q1041 A3075 630.1@CAELT@HR66 NOSIG=@CAELT@
ZPX0033 250257@CAELT@GG SLZZYMYT@CAELT@250257 SLVRYGYZ@CAELT@SABO SLVR 250300@CAELT@METAR SLVR 250300Z 32005KT 8000 NSC 25/20 Q1012 A2990 HR75 FU NOSIG=@CAELT@
ZPX0043 250354@CAELT@GG SLZZYMYT@CAELT@250355 SLVRYGYZ@CAELT@SABO SLVR 250400@CAELT@METAR SLVR 250400Z 32005KT 8000 NSC 25/21 Q1012 A2990 HR78 FU NOSIG=@CAELT@
ZPX0044 250355@CAELT@GG SLLPZRZX@CAELT@250355 SLLPYGYZ@CAELT@SABO SLLP 250400@CAELT@METAR SLLP 250400Z 08004KT 9999 NSC M02/M05 Q1041 A3074 629.9@CAELT@HR77 NOSIG=@CAELT@
ZPX0051 250454@CAELT@GG SLZZYMYT@CAELT@250454 SLCBYGYZ@CAELT@SABO SLCB 250500@CAELT@METAR SLCB 250500Z 13004KT 9999 NSC 14/05 Q1026 A3033 752.9 HR55 FU@CAELT@NOSIG=@CAELT@
ZPX0052 250455@CAELT@GG SLZZYMYT@CAELT@250456 SLVRYGYZ@CAELT@SABO SLVR 250500@CAELT@METAR SLVR 250500Z 31006KT 8000 NSC 24/21 Q1012 A2990 HR81 FU NOSIG=@CAELT@
ZPX0053 250457@CAELT@GG SLLPZRZX@CAELT@250455 SLLPYGYZ@CAELT@SABO SLLP 250500@CAELT@METAR SLLP 250500Z 08005KT 9999 NSC M03/M06 Q1040 A3072 629.5@CAELT@HR80 NOSIG=@CAELT@
ZPX0060 250554@CAELT@GG SLZZYMYT@CAELT@250554 SLCBYGYZ@CAELT@SABO SLCB 250600@CAELT@METAR SLCB 250600Z 15004KT 9999 NSC 12/04 Q1026 A3032 752.7 HR57 FU@CAELT@NOSIG=@CAELT@
ZPX0061 250555@CAELT@GG SLZZYMYT@CAELT@250555 SLVRYGYZ@CAELT@SABO SLVR 250600@CAELT@METAR SLVR 250600Z 32005KT 8000 NSC 24/21 Q1012 A2989 HR81 FU NOSIG=@CAELT@
ZPX0062 250556@CAELT@GG SLLPZRZX@CAELT@250556 SLLPYGYZ@CAELT@SABO SLLP 250600@CAELT@METAR SLLP 250600Z 07005KT 9999 NSC M03/M05 Q1039 A3071 629.2@CAELT@HR83 NOSIG=@CAELT@
ZPX0069 250653@CAELT@GG SLZZYMYT@CAELT@250654 SLVRYGYZ@CAELT@SABO SLVR 250700@CAELT@METAR SLVR 250700Z 33005KT 8000 NSC 24/21 Q1011 A2986 HR83 FU NOSIG=@CAELT@
ZPX0070 250654@CAELT@GG SLZZYMYT@CAELT@250654 SLCBYGYZ@CAELT@SABO SLCB 250700@CAELT@METAR SLCB 250700Z 20004KT 9999 NSC 10/05 Q1026 A3031 752.6 HR70 FU@CAELT@NOSIG=@CAELT@
ZPX0071 250656@CAELT@GG SLLPZRZX@CAELT@250655 SLLPYGYZ@CAELT@SABO SLLP 250700@CAELT@METAR SLLP 250700Z VRB02KT 9999 NSC 00/M07 Q1039 A3071 629.4 HR60@CAELT@NOSIG=@CAELT@
ZPX0080 250753@CAELT@GG SLZZYMYT@CAELT@250753 SLCBYGYZ@CAELT@SABO SLCB 250800@CAELT@METAR SLCB 250800Z 00000KT 9999 NSC 10/04 Q1026 A3032 752.8 HR67 FU@CAELT@NOSIG=@CAELT@
ZPX0081 250754@CAELT@GG SLZZYMYT@CAELT@250754 SLVRYGYZ@CAELT@SABO SLVR 250800@CAELT@METAR SLVR 250800Z 32006KT 8000 NSC 23/21 Q1011 A2985 HR84 FU NOSIG=@CAELT@
ZPX0082 250756@CAELT@GG SLLPZRZX@CAELT@250755 SLLPYGYZ@CAELT@SABO SLLP 250800@CAELT@METAR SLLP 250800Z VRB02KT 9999 NSC M02/M06 Q1040 A3071 629.5 HR76@CAELT@NOSIG=@CAELT@
ZPX0092 250854@CAELT@GG SLZZYMYT@CAELT@250854 SLCBYGYZ@CAELT@SABO SLCB 250900@CAELT@METAR SLCB 250900Z 00000KT 9999 NSC 09/03 Q1027 A3034 753.2 HR71 FU@CAELT@NOSIG=@CAELT@
ZPX0094 250856@CAELT@GG SLLPZRZX@CAELT@250855 SLLPYGYZ@CAELT@SABO SLLP 250900@CAELT@METAR SLLP 250900Z VRB02KT 9999 NSC M01/M14 Q1040 A3072 629.6 HR37@CAELT@NOSIG=@CAELT@
ZPX0108 250951@CAELT@GG SLZZYMYT@CAELT@250951 SLCAYGYS@CAELT@SABO SLCA 251000@CAELT@METAR SLCA 251000Z 36005KT 9999 NSC 20/14 Q1012 A2988 HR69 FU RWY NML@CAELT@
ZPX0109 250953@CAELT@GG SLZZYMYT@CAELT@250953 SLPSYGYS@CAELT@SABO SLPS 251000@CAELT@METAR SLPS 251000Z 09004KT 9999 NSC 24/21 Q1012 A2989 HR88=@CAELT@
ZPX0110 250953@CAELT@GG SLZZYMYT@CAELT@250953 SLRBYGYS@CAELT@SABO SLRB 251000@CAELT@METAR SLRB 251000Z 00000KT 8000 NSC 25/19 Q1014 A2994 HR70 FU RWY NML=@CAELT@
ZPX0111 250954@CAELT@GG SLZZYMYT@CAELT@250955 SLVRYGYZ@CAELT@SABO SLVR 251000@CAELT@METAR SLVR 251000Z 36004KT 6000 NSC 21/20 Q1011 A2987 HR90 FU NOSIG=@CAELT@
ZPX0113 250955@CAELT@GG SLZZYMYT@CAELT@250955 SLCBYGYZ@CAELT@SABO SLCB 251000@CAELT@METAR SLCB 251000Z 00000KT 9999 NSC 08/03 Q1028 A3036 753.8 HR71 FU@CAELT@NOSIG=@CAELT@
ZPX0114 250955@CAELT@GG SLZZYMYT@CAELT@250955 SLCOYGYZ@CAELT@SABO SLCO 251000@CAELT@METAR SLCO 251000Z 24003KT 5000 FU NSC 24/22 Q1012 A2990 985.0 HR86@CAELT@
ZPX0115 250955@CAELT@GG SLZZYMYT@CAELT@250955 SLSBYSYX@CAELT@SABO SLSB 251000@CAELT@METAR SLSB 251000Z 00000KT 6000 NSC 21/21 Q1011 A2987 HR98 FU RWY NML=@CAELT@
ZPX0116 250955@CAELT@GG SLZZYMYT@CAELT@250954 SLSAYGYS@CAELT@SABO SLSA 251000@CAELT@METAR SLSA 251000Z 00000KT 5000 FU NSC 24/22 Q1011 A2986 HR90 CI=@CAELT@
ZPX0117 250955@CAELT@GG SLZZYMYT@CAELT@250955 SLLPYGYZ@CAELT@SABO SLLP 251000@CAELT@METAR SLLP 251000Z VRB02KT 9999 NSC M03/M11 Q1040 A3072 629.7 HR54@CAELT@NOSIG=@CAELT@
ZPX0118 250956@CAELT@GG SLZZYMYT@CAELT@250954 SLRYYSYX@CAELT@SABO SLRY 251000@CAELT@METAR SLRY 251000Z 00000KT 7000 NSC 20/20 Q1008 A2979 HR100 FU RWY@CAELT@NML=@CAELT@
ZPX0119 250958@CAELT@GG SLZZYMYT@CAELT@250957 SLTRYGYZ@CAELT@SABO SLTR 251000@CAELT@METAR SLTR 251000Z 00000KT 3000 FU FEW080 SCT200 23/21 Q1011 A2986@CAELT@992.8 HR88 NOSIG=@CAELT@
ZPX0121 251000@CAELT@GG SLZZYMYT@CAELT@251000 SLVRYGYU@CAELT@SABO SLVR 251000@CAELT@METAR SLVR 251000Z 36004KT 6000 NSC 21/20 Q1011 A2987 HR90 FU NOSIG=@CAELT@METAR SLET 251000Z NIL=@CAELT@METAR SLRB 251000Z 00000KT 8000 NSC 25/19 Q1014 A2994 HR70 FU RWY NML@CAELT@METAR SLPS 251000Z 09004KT 9999 NSC 24/21 Q1012 A2989 HR88=@CAELT@METAR SLCA 251000Z 36005KT 9999 NSC 20/14 Q1012 A2988 HR69 FU RWY NML
ZPX0122 251000@CAELT@GG SLZZYMYT@CAELT@251001 SLVRYGYS@CAELT@SABO SLVR 251000@CAELT@METAR SLVR 251000Z 36004KT 6000 NSC 21/20 Q1011 A2987 HR90 FU NOSIG=@CAELT@METAR SLET 251000Z NIL=@CAELT@METAR SLAS 251000Z 00000KT 3000 FU NSC 23/20 Q1013 A2991 HR84 RWY NML@CAELT@METAR SLJV 251000Z 00000KT 5000 FU NSC 20/18 Q1012 A2988 HR88 RWY NML@CAELT@METAR SLCP 251000Z 00000KT 4000 FU NSC 23/21 Q1016 A3000 HR87 RWY NMLMETAR SLSI 251000Z 00000KT 5000 FU NSC 23/19 Q1013 A2991 HR78 RWY NMLMETAR SLTI 251000Z 00000KT 7000 NSC 23/20 Q1015 A2997 HR82 FU RWY NMLMETAR SLJE 251000Z 00000KT 4000 FU NSC 23/20 Q1015 A2997 HR84 RWY NMLMETAR SLVG 251000Z 00000KT 9999 NSC 12/11 Q1025 A3027 HR 94 RWY NML=METAR SLRB 251000Z 00000KT 8000 NSC 25/19 Q1014 A2994 HR70 FU RWY NMLMETAR SLPS 251000Z 09004KT 9999 NSC 24/21 Q1012 A2989 HR88=METAR SLCA 251000Z 36005KT 9999 NSC 20/14 Q1012 A2988 HR69 FU RWY NML=
ZPX0123 251000@CAELT@GG SLZZYMYT@CAELT@250959 SLRQYSYX@CAELT@SABO SLRQ 251000@CAELT@METAR SLRQ 251000Z 00000KT 6000 NSC 21/21 Q1010 A2983 986.1 HR100 FU=@CAELT@
ZPX0124 251002@CAELT@GG SLZZYMYT@CAELT@251000 SLLPYFYA@CAELT@SABO SLLP 251000@CAELT@METAR SLLP 251000Z VRB02KT 9999 NSC M03/M11 Q1040 A3072 629.7 HR54@CAELT@NOSIG=@CAELT@METAR SLCO 251000Z 24003KT 5000 FU NSC 24/22 Q1012 A2990 985.0 HR86@CAELT@METAR SLRY 251000Z 00000KT 7000 NSC 20/20 Q1008 A2979 HR100 FU RWY@CAELT@NML=METAR SLRQ 251000Z 00000KT 6000 NSC 21/21 Q1010 A2983 986.1 HR100 FU=METAR SLSB 251000Z 00000KT 6000 NSC 21/21 Q1011 A2987 HR98 FU RWY NML
ZPX0126 251004@CAELT@GG SLZZYMYT@CAELT@251004 SLUYYGYS@CAELT@SABO SLUY 251000 RRA@CAELT@METAR RTD SLUY 251000Z 04009KT 9999 NSC 04/M08 Q1036 A3061 660.1@CAELT@HR41=@CAELT@
ZPX0127 251005@CAELT@GG SLZZYMYT@CAELT@251005 SLLPYFYA@CAELT@SABO SLLP 251000 RRA@CAELT@METAR SLLP 251000Z VRB02KT 9999 NSC M03/M11 Q1040 A3072 629.7 HR54@CAELT@NOSIG=@CAELT@METAR SLCO 251000Z 24003KT 5000 FU NSC 24/22 Q1012 A2990 985.0 HR86@CAELT@METAR SLRY 251000Z 00000KT 7000 NSC 20/20 Q1008 A2979 HR100 FU RWY@CAELT@NML=METAR SLRQ 251000Z 00000KT 6000 NSC 21/21 Q1010 A2983 986.1 HR100 FU=METAR SLSB 251000Z 00000KT 6000 NSC 21/21 Q1011 A2987 HR98 FU RWY NMLMETAR RTD SLUY 251000Z 04009KT 9999 NSC 04/M08 Q1036 A3061 660.1HR41=
ZPX0128 251007@CAELT@GG SLZZYMYT@CAELT@251000 SLTRYGYS@CAELT@SABO SLTR 251000@CAELT@METAR SLTR 251000Z 00000KT 3000 FU FEW080 SCT200 23/21 Q1011 A2986@CAELT@992.8 HR88 NOSIG=@CAELT@METAR SLGM 251000Z 32004KT 1000 FU NSC 22/22 Q1011 A2985 HR98=@CAELT@METAR SLRI 251000Z 00000KT 2000 FU SCT080 BKN200 23/22 Q1012@CAELT@A2990 HR94=METAR SLJO 251000Z 00000KT 5000 FU NSC 24/21 Q1011 A2986 HR84CI RWY NML=METAR SLRA 251000Z 00000KT 5000 FU NSC 24/22 Q1011 A2986 HR84AC/CI RWY NML=METAR SLMG 251000Z 00000KT 6000 NSC 24/22 Q1011 A2986 HR87 FU CIRWY NML=METAR SLBU 251000Z NIL=METAR SLSA 251000Z 00000KT 5000 FU NSC 24/22 Q1011 A2986 HR90 CI=METAR SLSR 251000Z 00000KT 8000 NSC 25/22 Q1009 A2980 HR84 FUMETAR SLSM 251000Z 00000KT 3000 FU FEW020 21/21 Q1011 A2985 HR97
ZPX0129 251009@CAELT@GG SLZZYMYT@CAELT@251008 SLETYMYC@CAELT@SABO SLET 251000@CAELT@METAR SLET 251000Z 31008KT 7000 NSC 25/21 Q1011 A2986 HR76 FU NOSIG=@CAELT@
ZPX0130 251012@CAELT@GG SLZZYMYT@CAELT@251012 SLVRYGYU@CAELT@SABO SLVR 251000 RRA@CAELT@METAR SLVR 251000Z 36004KT 6000 NSC 21/20 Q1011 A2987 HR90 FU NOSIG=@CAELT@METAR RTD SLET 251000Z 31008KT 7000 NSC 25/21 Q1011 A2986 HR76 FU@CAELT@NOSIG=@CAELT@METAR SLAS 251000Z 00000KT 3000 FU NSC 23/20 Q1013 A2991 HR84 RWY NML@CAELT@METAR SLJV 251000Z 00000KT 5000 FU NSC 20/18 Q1012 A2988 HR88 RWY NMLMETAR SLCP 251000Z 00000KT 4000 FU NSC 23/21 Q1016 A3000 HR87 RWY NMLMETAR SLSI 251000Z 00000KT 5000 FU NSC 23/19 Q1013 A2991 HR78 RWY NMLMETAR SLTI 251000Z 00000KT 7000 NSC 23/20 Q1015 A2997 HR82 FU RWY NMLMETAR SLJE 251000Z 00000KT 4000 FU NSC 23/20 Q1015 A2997 HR84 RWY NMLMETAR SLVG 251000Z 00000KT 9999 NSC 12/11 Q1025 A3027 HR 94 RWY NML=METAR SLRB 251000Z 00000KT 8000 NSC 25/19 Q1014 A2994 HR70 FU RWY NMLMETAR SLPS 251000Z 09004KT 9999 NSC 24/21 Q1012 A2989 HR88=METAR SLCA 251000Z 36005KT 9999 NSC 20/14 Q1012 A2988 HR69 FU RWY NML
ZPX0147 251051@CAELT@GG SLZZYMYT@CAELT@251051 SLPSYGYS@CAELT@SABO SLPS 251100@CAELT@METAR SLPS 251100Z 09005KT 9999 NSC 26/22 Q1012 A2989 HR79=@CAELT@
ZPX0148 251054@CAELT@GG SLZZYMYT@CAELT@251054 SLSBYSYX@CAELT@SABO SLSB 251100@CAELT@METAR SLSB 251100Z 00000KT 5000 FU NSC 22/22 Q1011 A2988 HR98 RWY NML=@CAELT@
ZPX0149 251054@CAELT@GG SLZZYMYT@CAELT@251054 SLRBYGYS@CAELT@SABO SLRB 251100@CAELT@METAR SLRB 251100Z 36004KT 8000 NSC 27/20 Q1014 A2994 HR65 FU RWY NML=@CAELT@
ZPX0150 251054@CAELT@GG SLZZYMYT@CAELT@251052 SLETYMYC@CAELT@SABO SLET 251100@CAELT@METAR SLET 251100Z 32012KT 7000 NSC 256/20 Q1011 A2997 HR71 FU NOSIG=@CAELT@
ZPX0151 251055@CAELT@GG SLZZYMYT@CAELT@251055 SLORYGYZ@CAELT@SABO SLOR 251100@CAELT@METAR SLOR 251100Z 02003KT 8000 NSC 00/M07 Q1039 A3069 658.9 HR58 VIS@CAELT@RED FU N/NE/E/S=@CAELT@
ZPX0152 251055@CAELT@GG SLZZYMYT@CAELT@251054 SLCAYGYS@CAELT@SABO SLCA 251100@CAELT@METAR SLCA 251100Z 36005KT 9999 NSC 22/15 Q1012 A2988 HR66 FU RWY NML@CAELT@
ZPX0153 251055@CAELT@GG SLZZYMYT@CAELT@251055 SLTRYGYZ@CAELT@SABO SLTR 251100@CAELT@METAR SLTR 251100Z 00000KT 3000 FU NSC 24/21 Q1011 A2988@CAELT@993.3 HR87 CI NOSIG=@CAELT@
ZPX0154 251055@CAELT@GG SLZZYMYT@CAELT@251053 SLRYYSYX@CAELT@SABO SLRY 251100@CAELT@METAR SLRY 251100Z 00000KT 8000 NSC 20/20 Q1008 A2979 HR100 FU RWY@CAELT@NML=@CAELT@
ZPX0155 251055@CAELT@GG SLZZYMYT@CAELT@251055 SLRQYSYX@CAELT@SABO SLRQ 251100@CAELT@METAR SLRQ 251100Z 00000KT 7000 NSC 23/22 Q1011 A2988 987.6 HR96 FU=@CAELT@
ZPX0156 251056@CAELT@GG SLZZYMYT@CAELT@251055 SLCBYGYZ@CAELT@SABO SLCB 251100@CAELT@METAR SLCB 251100Z 00000KT 9999 NSC 11/06 Q1029 A3039 754.6 HR70 FU@CAELT@NOSIG=@CAELT@
ZPX0157 251056@CAELT@GG SLZZYMYT@CAELT@251055 SLLPYGYZ@CAELT@SABO SLLP 251100@CAELT@METAR SLLP 251100Z 04003KT 9999 NSC M03/M08 Q1040 A3074 630.1 HR68 HZ@CAELT@W/NW NOSIG=@CAELT@
ZPX0158 251056@CAELT@GG SLZZYMYT@CAELT@251057 SLVRYGYZ@CAELT@SABO SLVR 251100@CAELT@METAR SLVR 251100Z 36006KT 5000 FU NSC 23/21 Q1011 A2988 HR85 NOSIG=@CAELT@
ZPX0159 251056@CAELT@GG SLZZYMYT@CAELT@251055 SLETYMYC@CAELT@SABO SLET 251100 CCA@CAELT@METAR SLET 251100 32012KT 7000 NSC 26/20 Q1011 A2987 HR71 NOSIG=@CAELT@COR 26/20@CAELT@
ZPX0160 251056@CAELT@GG SLZZYMYT@CAELT@251055 SLSAYGYS@CAELT@SABO SLSA 251100@CAELT@METAR SLSA 251100Z 00000KT 3000 FU NSC 24/22 Q1011 A2988 HR87 CI=@CAELT@
ZPX0161 251056@CAELT@GG SLZZYMYT@CAELT@251055 SLSAYGYS@CAELT@SABO SLSA 251100@CAELT@METAR SLSA 251100Z 00000KT 3000 FU NSC 24/22 Q1011 A2988 HR87 CI=@CAELT@
ZPX0162 251056@CAELT@GG SLZZYMYT@CAELT@251055 SLAGYSYX@CAELT@SABO SLAG 251100@CAELT@METAR SLAG 251100Z 00000KT 7000 FU NSC 15/12 Q1013 A2993 886.1 HR79=@CAELT@
ZPX0163 251057@CAELT@GG SLZZYMYT@CAELT@251057 SLUYYGYS@CAELT@SABO SLUY 251100@CAELT@METAR SLUY 251100Z 02005KT 9999 NSC 04/M09 Q1037 A3063 660.5@CAELT@HR38=@CAELT@
ZPX0165 251058@CAELT@GG SLZZYMYT@CAELT@251056 SLCOYGYZ@CAELT@SABO SLCO 251100@CAELT@METAR SLCO 251100Z 00000KT 1800 FU NSC 24/22 Q1013 A2992 985.8 HR89=@CAELT@
ZPX0166 251058@CAELT@GG SLZZYMYT@CAELT@251058 SLTRYGYS@CAELT@SABO SLTR 251100@CAELT@METAR SLTR 251100Z 00000KT 3000 FU NSC 24/21 Q1011 A2988@CAELT@993.3 HR87 CI NOSIG=@CAELT@METAR SLGM 251100Z 26004KT 1600 FU NSC 23/22 Q1012 A2988 HR96=@CAELT@METAR SLRI 251100Z 00000KT 2000 FU SCT080 BKN200 24/23 Q1013@CAELT@A2992 HR91=METAR SLJO 251100Z 00000KT 5000 FU NSC 25/21 Q1011 A2988 HR81CI RWY NML=METAR SLRA 251100Z 00000KT 5000 FU NSC 25/22 Q1011 A2987 HR84AC/CI RWY NML=METAR SLMG 251100Z 00000KT 6000 NSC 24/22 Q1011 A2988 HR88 FUMETAR SLBU 251100Z NIL=METAR SLSA 251100Z 00000KT 3000 FU NSC 24/22 Q1011 A2988 HR87 CI=METAR SLSR 251100Z 00000KT 8000 NSC 25/22 Q1009 A2981 HR84 FUMETAR SLSM 251100Z 00000KT 3000 FU NSC 21/21 Q1011 A2986 HR98RWY NML=
ZPX0167 251100@CAELT@GG SLZZYMYT@CAELT@251101 SLVRYGYS@CAELT@SABO SLVR 251100@CAELT@METAR SLVR 251100Z 36006KT 5000 FU NSC 23/21 Q1011 A2988 HR85 NOSIG=@CAELT@METAR SLET 251100Z 32012KT 7000 NSC 26/20 Q1011 A2987 HR71 NOSIG=@CAELT@METAR SLAS 251100Z 00000KT 3000 FU NSC 23/20 Q1014 A2994 HR82 RWY NML@CAELT@METAR SLJV 251100Z 00000KT 5000 FU NSC 23/20 Q0012 A2988 HR80 RWY NML@CAELT@METAR SLCP 251100Z 00000KT 5000 FU NSC 24/21 Q1016 A3000 HR86 RWY NMLMETAR SLSI 251100Z 00000KT 5000 FU NSC 24/20 Q1013 A2991 HR76 RWY NMLMETAR SLTI 251100Z 00000KT 9000 NSC 26/19 Q1015 A2997 HR66 FU RWY NMLMETAR SLJE 251100Z 00000KT 4000 FU 24/20 Q1015 A2997 HR83 RWY NML=METAR SLVG 251100Z 00000KT 9999 NSC 13/11 Q1025 A3027 HR89 RWY NML=METAR SLRB 251100Z 36004KT 8000 NSC 27/20 Q1014 A2994 HR65 FU RWY NMLMETAR SLPS 251100Z 09005KT 9999 NSC 26/22 Q1012 A2989 HR79=METAR SLCA 251100Z 36005KT 9999 NSC 22/15 Q1012 A2988 HR66 FU RWY NML=
ZPX0168 251100@CAELT@GG SLZZYMYT@CAELT@251059 SLLPYFYA@CAELT@SABO SLLP 251100@CAELT@METAR SLLP 251100Z 04003KT 9999 NSC M03/M08 Q1040 A3074 630.1@CAELT@HR68 HZ W/NW NOSIG=@CAELT@METAR SLCO 251100Z 00000KT 1800 FU NSC 24/22 Q1013 A2992@CAELT@985.8 HR89=@CAELT@METAR SLRY 251100Z 00000KT 8000 NSC 20/20 Q1008 A2979 HR100FU RWY NML=METAR SLRQ 251100Z 00000KT 7000 NSC 23/22 Q1011 A2988 987.6HR96 FU=METAR SLSB 251100Z 00000KT 5000 FU NSC 22/22 Q1011 A2988HR98 RWY NML=METAR SLOR 251100Z 02003KT 8000 NSC 00/M07 Q1039 A3069 658.9HR58 VIS RED FU N/NE/E/S=METAR SLUY 251100Z 02005KT 9999 NSC 04/M09 Q1037 A3063 660.5HR38=
ZPX0177 251112@CAELT@GG SLZZYMYT@CAELT@251105 SLCBYGYS@CAELT@SABO SLCB 251100@CAELT@METAR SLCB 251100Z 00000KT 9999 NSC 11/06 Q1029 A3039 754.6 HR70 FU@CAELT@NOSIG=@CAELT@METAR SLAL 251100Z 00000KT 9999 NSC 09/02 Q1031 A3045 704.9 HR64=@CAELT@METAR SLAG 251100Z 00000KT 7000 FU NSC 15/12 Q1013 A2993 886.1 HR79=@CAELT@METAR SLVM 251100Z 36005KT 9999 NSC 20/15 Q1006 A2971 HR72 FU=METAR SLYA 251100Z 00000KT 9999 NSC 19/18 Q1007 A2974 932.3 HR96 FU=
ZPX0200 251151@CAELT@GG SLZZYMYT@CAELT@251151 SLRBYGYS@CAELT@SABO SLRB 251200@CAELT@METAR SLRB 251200Z 36004KT 8000 NSC 30/23 Q1015 A2997 HR66 FU RWY NML=@CAELT@
ZPX0201 251151@CAELT@GG SLZZYMYT@CAELT@251151 SLVRYGYZ@CAELT@SABO SLVR 251200@CAELT@METAR SLVR 251200Z 35010KT 5000 FU NSC 26/22 Q1012 A2990 HR78 NOSIG=@CAELT@
ZPX0202 251151@CAELT@GG SLZZYMYT@CAELT@251151 SLPSYGYS@CAELT@SABO SLPS 251200@CAELT@METAR SLPS 251200Z 09009KT 9999 NSC 28/23 Q1013 A2992 HR73=@CAELT@
ZPX0203 251153@CAELT@GG SLZZYMYT@CAELT@251113 SLETYMYC@CAELT@SABO SLET 251200@CAELT@METAR SLET 251200Z 32014KT 7000 NSC 27/20 Q1012 A2989 HR66 FU NOSIG=@CAELT@
ZPX0204 251153@CAELT@GG SLZZYMYT@CAELT@251153 SLCAYGYS@CAELT@SABO SLCA 251200@CAELT@METAR SLCA 251200Z 36007KT 9999 NSC 25/14 Q1012 A2988 HR52 FU RWY NML@CAELT@
ZPX0205 251154@CAELT@GG SLZZYMYT@CAELT@251154 SLSBYSYX@CAELT@SABO SLSB 251200@CAELT@METAR SLSB 251200Z 00000KT 5000 FU NSC 25/22 Q1012 A2989 HR85 RWY NML=@CAELT@
ZPX0206 251155@CAELT@GG SLZZYMYT@CAELT@251155 SLAGYSYX@CAELT@SABO SLAG 251200@CAELT@METAR SLAG 251200Z 02007KT 9999 NSC 25/12 Q1013 A2994 886.3 HR43 FU=@CAELT@
ZPX0207 251155@CAELT@GG SLZZYMYT@CAELT@251155 SLCOYGYZ@CAELT@SABO SLCO 251200@CAELT@METAR SLCO 251200Z 35003KT 1300 FU NSC 25/23 Q1014 A2995 986.8 HR86=@CAELT@
ZPX0208 251155@CAELT@GG SLZZYMYT@CAELT@251155 SLORYGYZ@CAELT@SABO SLOR 251200@CAELT@METAR SLOR 251200Z 36006KT 8000 NSC 05/M05 Q1039 A3070 659.0 HR49 VIS@CAELT@RED FU N/NE/E/S=@CAELT@
ZPX0209 251156@CAELT@GG SLZZYMYT@CAELT@251156 SLCBYGYZ@CAELT@SABO SLCB 251200@CAELT@METAR SLCB 251200Z 00000KT 9999 NSC 15/05 Q1029 A3040 754.9 HR51 FU@CAELT@NOSIG=@CAELT@
ZPX0211 251156@CAELT@GG SLZZYMYT@CAELT@251156 SLUYYGYS@CAELT@SABO SLUY 251200@CAELT@METAR SLUY 251200Z 00000KT 9999 NSC 08/M07 Q1037 A3065 661.0@CAELT@HR33 HZ E/SE=@CAELT@
ZPX0212 251156@CAELT@GG SLZZYMYT@CAELT@251154 SLRYYSYX@CAELT@SABO SLRY 251200@CAELT@METAR SLRY 251200Z 00000KT 8000 NSC 24/23 Q1009 A2979 HR92 FU RWY NML@CAELT@
ZPX0213 251157@CAELT@GG SLZZYMYT@CAELT@251155 SLSAYGYS@CAELT@SABO SLSA 251200@CAELT@METAR SLSA 251200Z 34005KT 5000 FU NSC 26/23 Q1012 A2991 HR83 CI=@CAELT@
ZPX0214 251157@CAELT@GG SLZZYMYT@CAELT@251158 SLVRYGYS@CAELT@SABO SLVR 251200@CAELT@METAR SLVR 251200Z 35010KT 5000 FU NSC 26/22 Q1012 A2990 HR78 NOSIG=@CAELT@METAR SLET 251200Z 32014KT 7000 NSC 27/20 Q1012 A2989 HR66 FU NOSIG=@CAELT@METAR SLAS 251200Z 00000KT 3000 FU NSC 26/21 Q1014 A2994 HR75 RWY NML@CAELT@METAR SLJV 251200Z 00000KT 5000 FU NSC 25/19 Q1012 A2988 HR70 RWY NML@CAELT@METAR SLCP 251200Z 00000KT 5000 FU NSC 25/21 Q1016 A3000 HR80 RWY NMLMETAR SLSI 251200Z 00000KT 5000 FU NSC 26/21 Q1013 A2991 HR72 RWY NMLMETAR SLTI 251200Z 00000KT 9999 NSC 29/20 Q1016 A3000 HR58 FU RWY NMLMETAR SLJE 251200Z 00000KT 4000 FU NSC 29/21 Q1016 A3000 HR63 RWY NMLMETAR SLVG 251200Z 00000KT 9999 NSC 16/13 Q1025 A3027 HR81 RWY NML=METAR SLRB 251200Z 36004KT 8000 NSC 30/23 Q1015 A2997 HR66 FU RWY NMLMETAR SLPS 251200Z 09009KT 9999 NSC 28/23 Q1013 A2992 HR73=METAR SLCA 251200Z 36007KT 9999 NSC 25/14 Q1012 A2988 HR52 FU RWY NML
ZPX0216 251157@CAELT@GG SLZZYMYT@CAELT@251155 SLLPYGYZ@CAELT@SABO SLLP 251200@CAELT@METAR SLLP 251200Z 28004KT 9999 NSC 04/M06 Q1041 A3075 630.4 HR48@CAELT@HZ SW/W/NW NOSIG=@CAELT@
ZPX0217 251157@CAELT@GG SLZZYMYT@CAELT@251156 SLRQYSYX@CAELT@SABO SLRQ 251200@CAELT@METAR SLRQ 251200Z 00000KT 8000 NSC 25/24 Q1012 A2989 988.2 HR94 FU=@CAELT@
ZPX0219 251157@CAELT@GG SLZZYMYT@CAELT@251156 SLTJYGYZ@CAELT@SABO SLTJ 251200@CAELT@METAR SLTJ 251200Z 00000KT 9999 NSC 16/06 Q1018 A3008 813.7 HR53 FU=@CAELT@
ZPX0220 251157@CAELT@GG SLZZYMYT@CAELT@251157 SLTRYGYZ@CAELT@SABO SLTR 251200@CAELT@METAR SLTR 251200Z 32004KT 5000 FU NSC 26/22 Q1012 A2991 994.2@CAELT@HR80 CI NOSIG=@CAELT@
ZPX0221 251159@CAELT@GG SLZZYMYT@CAELT@251158 SLTRYGYS@CAELT@SABO SLTR 251200@CAELT@METAR SLTR 251200Z 32004KT 5000 FU NSC 26/22 Q1012 A2991 994.2@CAELT@HR80 CI NOSIG=@CAELT@METAR SLGM 251200Z 36006KT 3000 FU NSC 25/23 Q1013 A2991 HR90=@CAELT@METAR SLRI 251200Z 34006KT 2000 FU NSC 25/23 Q1014 A2994 HR87 CI=@CAELT@METAR SLJO 251200Z 00000KT 5000 FU NSC 26/21 Q1013 A2990 HR72 CIRWY NML=METAR SLRA 251200Z 35004KT 5000 FU NSC 26/22 Q1012 A2989 HR78 CIMETAR SLMG 251200Z 30004KT 2000 FU NSC 25/22 Q1012 A2989 HR82 CIMETAR SLBU 251200Z NIL=METAR SLSA 251200Z 34005KT 5000 FU NSC 26/23 Q1012 A2991 HR83 CI=METAR SLSR 251200Z 35006KT 8000 NSC 27/22 Q1010 A2984 HR77 FUCI RWY NML=METAR SLSM 251200Z 00000KT 5000 FU NSC 25/23 Q1012 A2988 HR89
ZPX0223 251159@CAELT@GG SLZZYMYT@CAELT@251158 SLLPYFYA@CAELT@SABO SLLP 251200@CAELT@METAR SLLP 251200Z 28004KT 9999 NSC 04/M06 Q1041 A3075 630.4 HR48@CAELT@HZ SW/W/NW NOSIG=@CAELT@METAR SLCO 251200Z 35003KT 1300 FU NSC 25/23 Q1014 A2995 986.8 HR86=@CAELT@METAR SLRY 251200Z 00000KT 8000 NSC 24/23 Q1009 A2979 HR92 FU@CAELT@RWY NML=METAR SLSB 251200Z 00000KT 5000 FU NSC 25/22 Q1012 A2989 HR85 RWY NMLMETAR SLRQ 251200Z 00000KT 8000 NSC 25/24 Q1012 A2989 988.2 HR94METAR SLOR 251200Z 36006KT 8000 NSC 05/M05 Q1039 A3070 659.0 HR49VIS RED FU N/NE/E/S=METAR SLUY 251200Z 00000KT 9999 NSC 08/M07 Q1037 A3065 661.0HR33 HZ E/SE=
ZPX0225 251200@CAELT@GG SLZZYMYT@CAELT@251200 SLCBYGYS@CAELT@SABO SLCB 251200@CAELT@METAR SLCB 251200Z 00000KT 9999 NSC 15/05 Q1029 A3040 754.9 HR51 FU@CAELT@NOSIG=@CAELT@METAR SLAL 251200Z 00000KT 9999 NSC 13/M00 Q1032 A3050 706.1 HR41=@CAELT@METAR SLAG 251200Z 02007KT 9999 NSC 25/12 Q1013 A2994 886.3 HR43 FU=@CAELT@METAR SLVM 251200Z 00000KT 9999 NSC 27/17 Q1006 A2973 HR53 FU=METAR SLTJ 251200Z 00000KT 9999 NSC 16/06 Q1018 A3008 813.7 HR53 FU=METAR SLYA 251200Z 00000KT 9999 NSC 26/18 Q1008 A2977 933.0 HR61 FU=
ZPX0258 251251@CAELT@GG SLZZYMYT@CAELT@251251 SLRBYGYS@CAELT@SABO SLRB 251300@CAELT@METAR SLRB 251300Z 36004KT 8000 NSC 31/24 Q1015 A2997 HR64 FU RWY NML=@CAELT@
ZPX0259 251252@CAELT@GG SLZZYMYT@CAELT@251252 SLPSYGYS@CAELT@SABO SLPS 251300@CAELT@METAR SLPS 251300Z 09009KT 9999 NSC 31/23 Q1013 A2992 HR64=@CAELT@
ZPX0260 251253@CAELT@GG SLZZYMYT@CAELT@251253 SLVRYGYZ@CAELT@SABO SLVR 251300@CAELT@METAR SLVR 251300Z 34011KT 6000 NSC 30/23 Q1013 A2992 HR65 FU NOSIG=@CAELT@
ZPX0262 251254@CAELT@GG SLZZYMYT@CAELT@251254 SLCAYGYS@CAELT@SABO SLCA 251300@CAELT@METAR SLCA 251300Z 36012KT 9999 NSC 29/11 Q1012 A2988 HR33 FU RWY NML@CAELT@
ZPX0263 251255@CAELT@GG SLZZYMYT@CAELT@251256 SLUYYGYS@CAELT@SABO SLUY 251300@CAELT@METAR SLUY 251300Z 33007KT 9999 NSC 12/M08 Q1038 A3067 661.4@CAELT@HR24=@CAELT@
ZPX0265 251255@CAELT@GG SLZZYMYT@CAELT@251255 SLORYGYZ@CAELT@SABO SLOR 251300@CAELT@METAR SLOR 251300Z 35006KT 9999 NSC 10/M03 Q1039 A3070 659.1 HR40 FU=@CAELT@
ZPX0266 251255@CAELT@GG SLZZYMYT@CAELT@251255 SLLPYGYZ@CAELT@SABO SLLP 251300@CAELT@METAR SLLP 251300Z 26005KT 9999 NSC 07/M07 Q1042 A3077 630.6 HR35@CAELT@HZ SW/W/NW NOSIG=@CAELT@
ZPX0267 251256@CAELT@GG SLZZYMYT@CAELT@251254 SLRYYSYX@CAELT@SABO SLRY 251300@CAELT@METAR SLRY 251300Z 00000KT 8000 NSC 28/23 Q1009 A2981 HR74 FU RWY NML@CAELT@
ZPX0268 251256@CAELT@GG SLZZYMYT@CAELT@251254 SLSAYGYS@CAELT@SABO SLSA 251300@CAELT@METAR SLSA 251300Z 34006KT 5000 FU NSC 29/22 Q1013 A2992 HR66 CI=@CAELT@
ZPX0270 251256@CAELT@GG SLZZYMYT@CAELT@251255 SLCOYGYZ@CAELT@SABO SLCO 251300@CAELT@METAR SLCO 251300Z 29006KT 2500 FU NSC 27/23 Q1015 A2998 987.6 HR78=@CAELT@
ZPX0271 251256@CAELT@GG SLZZYMYT@CAELT@251255 SLCBYGYZ@CAELT@SABO SLCB 251300@CAELT@METAR SLCB 251300Z 13003KT 9999 NSC 20/03 Q1029 A3040 754.8 HR34 FU@CAELT@NOSIG=@CAELT@
ZPX0273 251257@CAELT@GG SLZZYMYT@CAELT@251257 SLTRYGYZ@CAELT@SABO SLTR 251300@CAELT@METAR SLTR 251300Z 32008KT 5000 FU NSC 29/23 Q1012 A2991@CAELT@994.4 HR69 CI NOSIG=@CAELT@
ZPX0274 251257@CAELT@GG SLZZYMYT@CAELT@251256 SLTJYGYZ@CAELT@SABO SLTJ 251300@CAELT@METAR SLTJ 251300Z 00000KT 9999 NSC 22/06 Q1018 A3007 813.4 HR36 FU=@CAELT@
ZPX0275 251257@CAELT@GG SLZZYMYT@CAELT@251256 SLSBYSYX@CAELT@SABO SLSB 251300@CAELT@METAR SLSB 251300Z 00000KT 5000 FU NSC 27/23 Q1012 A2990 HR74 RWY NML=@CAELT@
ZPX0276 251257@CAELT@GG SLZZYMYT@CAELT@251248 SLETYMYC@CAELT@SABO SLET 251300@CAELT@METAR SLET 251300Z 3101426KT 6000 NSC 30/21 Q1012 A2990 HR59 FU NOSIG=@CAELT@
ZPX0277 251258@CAELT@GG SLZZYMYT@CAELT@251257 SLVRYGYS@CAELT@SABO SLVR 251300@CAELT@METAR SLVR 251300Z 34011KT 6000 NSC 30/23 Q1013 A2992 HR65 FU NOSIG=@CAELT@METAR SLET 251300Z 31014G26KT 6000 NSC 30/21 Q1012 A2990 HR59 FU@CAELT@NOSIG=@CAELT@METAR SLAS 251300Z 34004KT 3500 FU NSC 30/21 Q1015 A2997 HR59 RWY NML@CAELT@METAR SLJV 251300Z 00000KT 5000 FU NSC 27/20 Q1012 A2988 HR66 RWY NMLMETAR SLCP 251300Z 00000KT 6000 NSC 29/21 Q1017 A3003 HR62 FU RWY NMLMETAR SLSI 251300Z 36006KT 5000 FU NSC 30/22 Q1013 A2991 HR62 RWY NMLMETAR SLTI 251300Z 00000KT 9999 NSC 34/21 Q1016 A3000 HR46 FU RWY NMLMETAR SLJE 251300Z 00000KT 4000 FU NSC 33/22 Q1016 A3000 HR55 RWY NMLMETAR SLVG 251300Z 34006KT 9999 NSC 20/11 Q1025 A3027 HR51 RWY NML=METAR SLRB 251300Z 36004KT 8000 NSC 31/24 Q1015 A2997 HR64 FU RWY NMLMETAR SLPS 251300Z 09009KT 9999 NSC 31/23 Q1013 A2992 HR64=METAR SLCA 251300Z 36012KT 9999 NSC 29/11 Q1012 A2988 HR33 FU RWY NML=
ZPX0279 251259@CAELT@GG SLZZYMYT@CAELT@251258 SLRQYSYX@CAELT@SABO SLRQ 251300@CAELT@METAR SLRQ 251300Z 00000KT 8000 NSC 27/25 Q1013 A2991 988.8 HR84 FU=@CAELT@
ZPX0280 251259@CAELT@GG SLZZYMYT@CAELT@251259 SLAGYSYX@CAELT@SABO SLAG 251300@CAELT@METAR SLAG 251300Z 03008KT 9999 NSC 28/11 Q1013 A2994 886.4 HR34 FU=@CAELT@
ZPX0281 251259@CAELT@GG SLZZYMYT@CAELT@251259 SLTRYGYS@CAELT@SABO SLTR 251300@CAELT@METAR SLTR 251300Z 32008KT 5000 FU NSC 29/23 Q1012 A2991@CAELT@994.4 HR69 CI NOSIG=@CAELT@METAR SLGM 251300Z 36006KT 3000 FU NSC 27/23 Q1013 A2993 HR79=@CAELT@METAR SLRI 251300Z 35008KT 3000 FU NSC 28/23 Q1014 A2996 HR77=@CAELT@METAR SLJO 251300Z 36004KT 5000 FU NSC 29/22 Q1012 A2991 HR66 CIRWY NML=METAR SLRA 251300Z 34004KT 5000 FU NSC 30/22 Q1012 A2990 HR65 CIMETAR SLMG 251300Z 32004KT 3000 FU NSC 30/22 Q1012 A2991 HR62 CIMETAR SLBU 251300Z NIL=METAR SLSA 251300Z 34006KT 5000 FU NSC 29/22 Q1013 A2992 HR66 CI=METAR SLSR 251300Z 35006KT 8000 NSC 27/22 Q1010 A2984 HR73 FU CIMETAR SLSM 251300Z 00000KT 5000 FU NSC 29/23 Q1012 A2991 HR72 CI
ZPX0284 251301@CAELT@GG SLZZYMYT@CAELT@251300 SLCBYGYS@CAELT@SABO SLCB 251300@CAELT@METAR SLCB 251300Z 13003KT 9999 NSC 20/03 Q1029 A3040 754.8 HR34 FU@CAELT@NOSIG=@CAELT@METAR SLAL 251300Z 22005KT 9999 NSC 16/M03 Q1033 A3050 706.3 HR30=@CAELT@METAR SLAG 251300Z 03008KT 9999 NSC 28/11 Q1013 A2994 886.4 HR34 FU=@CAELT@METAR SLVM 251300Z 36005KT 9999 NSC 32/19 Q1006 A2973 HR47 FU=METAR SLTJ 251300Z 00000KT 9999 NSC 22/06 Q1018 A3007 813.4 HR36 FU=METAR SLYA 251300Z 00000KT 9999 NSC 31/19 Q1008 A2977 933.1 HR48 FU=
ZPX0286 251302@CAELT@GG SLZZYMYT@CAELT@251300 SLLPYFYA@CAELT@SABO SLLP 251300@CAELT@METAR SLLP 251300Z 26005KT 9999 NSC 07/M07 Q1042 A3077 630.6 HR35@CAELT@HZ SW/W/NW NOSIG=@CAELT@METAR SLCO 251300Z 29006KT 2500 FU NSC 27/23 Q1015 A2998 987.6 HR78=@CAELT@METAR SLRY 251300Z 00000KT 8000 NSC 28/23 Q1009 A2981 HR74 FU@CAELT@RWY NML=METAR SLRQ 251300Z 00000KT 8000 NSC 27/25 Q1013 A2991 988.8 HR84 FU=METAR SLSB 251300Z 00000KT 5000 FU NSC 27/23 Q1012 A2990 HR74 RWY NMLMETAR SLOR 251300Z 35006KT 9999 NSC 10/M03 Q1039 A3070 659.1 HR40METAR SLUY 251300Z 33007KT 9999 NSC 12/M08 Q1038 A3067 661.4HR24=
ZPX0314 251349@CAELT@GG SLZZYMYT@CAELT@251350 SLRBYGYS@CAELT@SABO SLRB 251400@CAELT@METAR SLRB 251400Z 36005KT 8000 NSC 32/24 Q1015 A2997 HR61 FU RWY NML=@CAELT@
ZPX0315 251351@CAELT@GG SLZZYMYT@CAELT@251351 SLPSYGYS@CAELT@SABO SLPS 251400@CAELT@METAR SLPS 251400Z 09013KT 9999 NSC 34/24 Q1013 A2992 HR59=@CAELT@
ZPX0316 251351@CAELT@GG SLZZYMYT@CAELT@251351 SLCAYGYS@CAELT@SABO SLCA 251400@CAELT@METAR SLCA 251400Z 36015KT 9999 NSC 32/12 Q1012 A2988 HR31 FU RWY NML@CAELT@
ZPX0318 251354@CAELT@GG SLZZYMYT@CAELT@251355 SLORYGYZ@CAELT@SABO SLOR 251400@CAELT@METAR SLOR 251400Z 33003KT 9999 NSC 12/M03 Q1039 A3070 659.0 HR35@CAELT@
ZPX0319 251354@CAELT@GG SLZZYMYT@CAELT@251355 SLVRYGYZ@CAELT@SABO SLVR 251400@CAELT@METAR SLVR 251400Z 33012G22KT 7000 NSC 33/23 Q1012 A2989 HR56 FU@CAELT@NOSIG=@CAELT@
ZPX0320 251354@CAELT@GG SLZZYMYT@CAELT@251354 SLSBYSYX@CAELT@SABO SLSB 251400@CAELT@METAR SLSB 251400Z 33008KT 6000 NSC 32/23 Q1012 A2990 HR59 FU RWY NML=@CAELT@
ZPX0321 251355@CAELT@GG SLZZYMYT@CAELT@251354 SLSAYGYS@CAELT@SABO SLSA 251400@CAELT@METAR SLSA 251400Z 32008KT 5000 FU NSC 32/22 Q1012 A2991 HR55 CI=@CAELT@
ZPX0322 251355@CAELT@GG SLZZYMYT@CAELT@251350 SLETYMYC@CAELT@SABO SLET 251400@CAELT@METAR SLET 251400Z 31015G27KT 6000 NSC 31/21 Q1012 A2989 HR54 FU@CAELT@NOSIG=@CAELT@
ZPX0323 251355@CAELT@GG SLZZYMYT@CAELT@251355 SLAGYSYX@CAELT@SABO SLAG 251400@CAELT@METAR SLAG 251400Z 02010KT 9999 NSC 30/10 Q1013 A2992 885.6 HR29 FU=@CAELT@
ZPX0326 251356@CAELT@GG SLZZYMYT@CAELT@251355 SLTJYGYZ@CAELT@SABO SLTJ 251400@CAELT@METAR SLTJ 251400Z 13004KT 9999 NSC 26/05 Q1017 A3005 812.8 HR26 FU=@CAELT@
ZPX0327 251356@CAELT@GG SLZZYMYT@CAELT@251356 SLCBYGYZ@CAELT@SABO SLCB 251400@CAELT@METAR SLCB 251400Z 12003KT 9999 NSC 22/00 Q1028 A3038 754.3 HR22 FU@CAELT@NOSIG=@CAELT@
ZPX0328 251356@CAELT@GG SLZZYMYT@CAELT@251355 SLCOYGYZ@CAELT@SABO SLCO 251400@CAELT@METAR SLCO 251400Z 31006KT 5000 FU NSC 30/24 Q1014 A2997 987.4 HR72=@CAELT@
ZPX0329 251356@CAELT@GG SLZZYMYT@CAELT@251355 SLRQYSYX@CAELT@SABO SLRQ 251400@CAELT@METAR SLRQ 251400Z 00000KT 8000 NSC 32/25 Q1013 A2991 988.8 HR68 FU=@CAELT@
ZPX0330 251357@CAELT@GG SLZZYMYT@CAELT@251357 SLUYYGYS@CAELT@SABO SLUY 251400@CAELT@METAR SLUY 251400Z 31011KT 9999 NSC 13/M05 Q1038 A3066 661.3@CAELT@HR26=@CAELT@
ZPX0332 251357@CAELT@GG SLZZYMYT@CAELT@251355 SLRYYSYX@CAELT@SABO SLRY 251400@CAELT@METAR SLRY 251400Z 34006KT 8000 NSC 31/23 Q1009 A2982 HR63 FU RWY NML@CAELT@
ZPX0333 251358@CAELT@GG SLZZYMYT@CAELT@251357 SLCBYGYS@CAELT@SABO SLCB 251400@CAELT@METAR SLCB 251400Z 12003KT 9999 NSC 22/00 Q1028 A3038 754.3 HR22 FU@CAELT@NOSIG=@CAELT@METAR SLAL 251400Z 00000KT 9999 NSC 18/M07 Q1033 A3050 706.2 HR18=@CAELT@METAR SLAG 251400Z 02010KT 9999 NSC 30/10 Q1013 A2992 885.6 HR29 FU=@CAELT@METAR SLVM 251400Z 00000KT 9999 NSC 36/20 Q1006 A2971 HR41 FU=METAR SLTJ 251400Z 13004KT 9999 NSC 26/05 Q1017 A3005 812.8 HR26 FU=METAR SLYA 251400Z 00000KT 9999 NSC 33/19 Q1008 A2977 933.0 HR42 FU=
ZPX0334 251358@CAELT@GG SLZZYMYT@CAELT@251358 SLVRYGYS@CAELT@SABO SLVR 251400@CAELT@METAR SLVR 251400Z 33012G22KT 7000 NSC 33/23 Q1012 A2989 HR56 FU@CAELT@NOSIG=@CAELT@METAR SLET 251400Z 31015G27KT 6000 NSC 31/21 Q1012 A2989 HR54 FU@CAELT@METAR SLAS 251400Z 33005KT 4000 FU NSC 33/21 Q1015 A2997 HR49 RWY NML@CAELT@METAR SLJV 251400Z 36010KT 5000 FU NSC 28/20 Q1012 A2988 HR60 RWY NMLMETAR SLCP 251400Z 00000KT 6000 NSC 32/21 Q1017 A3003 HR52 FU RWY NMLMETAR SLSI 251400Z 33006KT 6000 NSC 31/21 Q1013 A2991 HR58 FU RWY NMLMETAR SLTI 251400Z 00000KT 9999 NSC 37/21 Q1016 A3000 HR37 FU RWY NMLMETAR SLJE 251400Z 35006KT 3000 FU NSC 35/23 Q1016 A3000 HR52 RWY NMLMETAR SLVG 251400Z 34007KT 9999 NSC 23/11 Q1025 A3027 HR39 RWY NML=METAR SLRB 251400Z 36005KT 8000 NSC 32/24 Q1015 A2997 HR61 FU RWY NMLMETAR SLPS 251400Z 09013KT 9999 NSC 34/24 Q1013 A2992 HR59=METAR SLCA 251400Z 36015KT 9999 NSC 32/12 Q1012 A2988 HR31 FU RWY NML=
ZPX0335 251359@CAELT@GG SLZZYMYT@CAELT@251358 SLTRYGYZ@CAELT@SABO SLTR 251400@CAELT@METAR SLTR 251400Z 32012KT 5000 FU NSC 32/23 Q1012 A2991@CAELT@994.3 HR59 CI NOSIG=@CAELT@
ZPX0336 251359@CAELT@GG SLZZYMYT@CAELT@251358 SLLPYGYZ@CAELT@SABO SLLP 251400@CAELT@METAR SLLP 251400Z 27004KT 9999 NSC 09/M12 Q1041 A3076 630.4 HR22@CAELT@FU NOSIG=@CAELT@
ZPX0340 251400@CAELT@GG SLZZYMYT@CAELT@251400 SLTRYGYS@CAELT@SABO SLTR 251400@CAELT@METAR SLTR 251400Z 32012KT 5000 FU NSC 32/23 Q1012 A2991@CAELT@994.3 HR59 CI NOSIG=@CAELT@METAR SLGM 251400Z 36006KT 5000 FU NSC 30/23 Q1014 A2994 HR66=@CAELT@METAR SLRI 251400Z 35008KT 5000 FU NSC 30/23 Q1014 A2996 HR66=@CAELT@METAR SLJO 251400Z 36005KT 7000 FU NSC 32/22 Q1012 A2991 HR53 CIRWY NML=METAR SLRA 251400Z 36005KT 5000 FU NSC 33/22 Q1012 A2991 HR54 CIMETAR SLMG 251400Z 32006KT 3000 FU NSC 33/22 Q1012 A2991 HR53 CIMETAR SLBU 251400Z NIL=METAR SLSA 251400Z 32008KT 5000 FU NSC 32/22 Q1012 A2991 HR55 CI=METAR SLSR 251400Z 35012KT 8000 NSC 30/22 Q1010 A2985 HR64 FUCI RWY NML=METAR SLSM 251400Z 00000KT 5000 FU NSC 31/24 Q1012 A2990 HR64
ZPX0342 251403@CAELT@GG SLZZYMYT@CAELT@251400 SLLPYFYA@CAELT@SABO SLLP 251400@CAELT@METAR SLLP 251400Z 27004KT 9999 NSC 09/M12 Q1041 A3076 630.4 HR22@CAELT@FU NOSIG=@CAELT@METAR SLCO 251400Z 31006KT 5000 FU NSC 30/24 Q1014 A2997 987.4 HR72=@CAELT@METAR SLRY 251400Z 34006KT 8000 NSC 31/23 Q1009 A2982 HR63 FU@CAELT@RWY NML=METAR SLRQ 251400Z 00000KT 8000 NSC 32/25 Q1013 A2991 988.8 HR68METAR SLSB 251400Z 33008KT 6000 NSC 32/23 Q1012 A2990 HR59 FU RWY NMLMETAR SLOR 251400Z 33003KT 9999 NSC 12/M03 Q1039 A3070 659.0 HR35METAR SLUY 251400Z 31011KT 9999 NSC 13/M05 Q1038 A3066 661.3HR26=
ZPX0349 251413@CAELT@GG SLZZYMYT@CAELT@251412 SLTRYGYS@CAELT@SABO SLTR 251400 CCA@CAELT@METAR SLTR 251400Z 32012KT 5000 FU NSC 32/23 Q1012 A2991@CAELT@994.3 HR59 CI NOSIG=@CAELT@METAR SLGM 251400Z 36006KT 5000 FU NSC 30/23 Q1014 A2994 HR66=@CAELT@METAR SLRI 251400Z 35008KT 5000 FU NSC 30/23 Q1014 A2996 HR66=@CAELT@METAR COR SLJO 251400Z 36005KT 5000 FU NSC 32/22 Q1012 A2991 HR53 CIRWY NML=METAR SLRA 251400Z 36005KT 5000 FU NSC 33/22 Q1012 A2991 HR54 CIMETAR SLMG 251400Z 32006KT 3000 FU NSC 33/22 Q1012 A2991 HR53 CIMETAR SLBU 251400Z NIL=METAR SLSA 251400Z 32008KT 5000 FU NSC 32/22 Q1012 A2991 HR55 CI=METAR SLSR 251400Z 35012KT 8000 NSC 30/22 Q1010 A2985 HR64 FUCI RWY NML=METAR SLSM 251400Z 00000KT 5000 FU NSC 31/24 Q1012 A2990 HR64
ZPX0377 251451@CAELT@GG SLZZYMYT@CAELT@251451 SLPSYGYS@CAELT@SABO SLPS 251500@CAELT@METAR SLPS 251500Z 09015KT 9999 NSC 36/23 Q1013 A2992 HR50=@CAELT@
ZPX0379 251452@CAELT@GG SLZZYMYT@CAELT@251451 SLCAYGYS@CAELT@SABO SLCA 251500@CAELT@METAR SLCA 251500Z 36010KT 9999 NSC 35/11 Q1011 A2985 HR25 FU RWY NML@CAELT@
ZPX0381 251454@CAELT@GG SLZZYMYT@CAELT@251454 SLSBYSYX@CAELT@SABO SLSB 251500@CAELT@METAR SLSB 251500Z 32010KT 6000 NSC 33/22 Q1012 A2989 HR52 FU RWY NML=@CAELT@
ZPX0382 251454@CAELT@GG SLZZYMYT@CAELT@251455 SLORYGYZ@CAELT@SABO SLOR 251500@CAELT@METAR SLOR 251500Z 03004KT 9999 NSC 15/M01 Q1039 A3069 658.8 HR33=@CAELT@
ZPX0383 251455@CAELT@GG SLZZYMYT@CAELT@251453 SLRYYSYX@CAELT@SABO SLRY 251500@CAELT@METAR SLRY 251500Z 34006KT 8000 NSC 33/23 Q1009 A2982 HR56 FU RWY NML@CAELT@
ZPX0384 251455@CAELT@GG SLZZYMYT@CAELT@251455 SLRQYSYX@CAELT@SABO SLRQ 251500@CAELT@METAR SLRQ 251500Z 00000KT 8000 NSC 33/26 Q1012 A2989 988.0 HR67 FU=@CAELT@
ZPX0386 251455@CAELT@GG SLZZYMYT@CAELT@251455 SLAGYSYX@CAELT@SABO SLAG 251500@CAELT@METAR SLAG 251500Z 02010KT 9999 NSC 33/09 Q1012 A2989 884.9 HR23 FU=@CAELT@
ZPX0387 251455@CAELT@GG SLZZYMYT@CAELT@251455 SLTJYGYZ@CAELT@SABO SLTJ 251500@CAELT@METAR SLTJ 251500Z 09004KT 9999 NSC 30/06 Q1016 A3002 812.0 HR22 FU=@CAELT@
ZPX0388 251456@CAELT@GG SLZZYMYT@CAELT@251455 SLUYYGYS@CAELT@SABO SLUY 251500@CAELT@METAR SLUY 251500Z 31012KT 9999 NSC 14/M07 Q1038 A3065 661.1@CAELT@HR32=@CAELT@
ZPX0390 251456@CAELT@GG SLZZYMYT@CAELT@251414 SLETYMYC@CAELT@SABO SLET 251500@CAELT@METAR SLET 251500Z 31017G29KT 7000 NSC 33/20 Q1011 A2988 HR48 FU@CAELT@NOSIG=@CAELT@
ZPX0391 251456@CAELT@GG SLZZYMYT@CAELT@251454 SLSAYGYS@CAELT@SABO SLSA 251500@CAELT@METAR SLSA 251500Z 34010KT 5000 FU NSC 34/21 Q1012 A2989 HR46 CI=@CAELT@
ZPX0392 251456@CAELT@GG SLZZYMYT@CAELT@251455 SLLPYGYZ@CAELT@SABO SLLP 251500@CAELT@METAR SLLP 251500Z 17005KT 9999 NSC 13/M11 Q1041 A3075 630.2 HR19@CAELT@FU NOSIG=@CAELT@
ZPX0393 251456@CAELT@GG SLZZYMYT@CAELT@251456 SLCBYGYZ@CAELT@SABO SLCB 251500@CAELT@METAR SLCB 251500Z 33003KT 9999 NSC 25/M02 Q1027 A3035 753.5 HR17 FU@CAELT@NOSIG=@CAELT@
ZPX0394 251456@CAELT@GG SLZZYMYT@CAELT@251456 SLRBYGYS@CAELT@SABO SLRB 251500@CAELT@METAR SLRB 251500Z 36005KT 8000 NSC 33/24 Q1014 A2994 HR57 FU RWY NML=@CAELT@
ZPX0395 251456@CAELT@GG SLZZYMYT@CAELT@251457 SLVRYGYZ@CAELT@SABO SLVR 251500@CAELT@METAR SLVR 251500Z 33013G24KT 7000 NSC 35/23 Q1011 A2988 HR48 FU@CAELT@NOSIG=@CAELT@
ZPX0396 251457@CAELT@GG SLZZYMYT@CAELT@251456 SLTRYGYZ@CAELT@SABO SLTR 251500@CAELT@METAR SLTR 251500Z 31012KT 5000 FU NSC 33/24 Q1012 A2990@CAELT@993.9 HR57 CI NOSIG=@CAELT@
ZPX0398 251459@CAELT@GG SLZZYMYT@CAELT@251457 SLCOYGYZ@CAELT@SABO SLCO 251500@CAELT@METAR SLCO 251500Z 27004KT 7000 NSC 33/24 Q1014 A2994 986.5 HR59 FU=@CAELT@
ZPX0399 251459@CAELT@GG SLZZYMYT@CAELT@251458 SLVRYGYS@CAELT@SABO SLVR 251500@CAELT@METAR SLVR 251500Z 33013G24KT 7000 NSC 35/23 Q1011 A2988 HR48 FU@CAELT@NOSIG=@CAELT@METAR SLET 251500Z 31017G29KT 7000 NSC 33/20 Q1011 A2988 HR48 FU@CAELT@METAR SLAS 251500Z 33005KT 4000 FU NSC 35/21 Q1014 A2994 HR43 RWY NML@CAELT@METAR SLJV 251500Z 36014KT 5000 FU NSC 34/22 Q1012 A2988 HR48 RWY NMLMETAR SLCP 251500Z 33005KT 6000 NSC 33/21 Q1017 A3003 HR48 FU RWY NMLMETAR SLSI 251500Z 36006KT 6000 NSC 33/22 Q1013 A2991 HR52 FU RWY NMLMETAR SLTI 251500Z 00000KT 9999 NSC 38/20 Q1015 A2997 HR37 FU RWY NMLMETAR SLJE 251500Z 35006KT 3000 FU NSC 36/24 Q1015 A2997 HR50 RWY NMLMETAR SLVG 251500Z 34010KT 9999 NSC 26/08 Q1024 A3024 HR26 RWY NML=METAR SLRB 251500Z 36005KT 8000 NSC 33/24 Q1014 A2994 HR57 FU RWY NMLMETAR SLPS 251500Z 09015KT 9999 NSC 36/23 Q1013 A2992 HR50=METAR SLCA 251500Z 36010KT 9999 NSC 35/11 Q1011 A2985 HR25 FU RWY NML=
ZPX0401 251500@CAELT@GG SLZZYMYT@CAELT@251459 SLTRYGYS@CAELT@SABO SLTR 251500@CAELT@METAR SLTR 251500Z 31012KT 5000 FU NSC 33/24 Q1012 A2990@CAELT@993.9 HR57 CI NOSIG=@CAELT@METAR SLGM 251500Z 36006KT 5000 FU NSC 31/24 Q1014 A2994 HR65=@CAELT@METAR SLRI 251500Z 35010KT 5000 FU NSC 32/23 Q1014 A2996 HR62=@CAELT@METAR SLJO 251500Z 36006KT 5000 FU NSC 34/21 Q1012 A2991 HR47 CIRWY NML=METAR SLRA 251500Z 34006KT 5000 FU NSC 35/23 Q1012 A2990 HR50 CIMETAR SLMG 251500Z 30004KT 3000 FU NSC 34/22 Q1012 A2991 HR48CI RWY NML=METAR SLBU 251500Z NIL=METAR SLSA 251500Z 34010KT 5000 FU NSC 34/21 Q1012 A2989 HR46 CI=METAR SLSR 251500Z 35012KT 8000 NSC 32/22 Q1010 A2984 HR56FU CI RWY NML=METAR SLSM 251500Z 33005KT 8000 NSC 32/23 Q1012 A2989 HR59FU RWY NML=
ZPX0402 251500@CAELT@GG SLZZYMYT@CAELT@251459 SLLPYFYA@CAELT@SABO SLLP 251500@CAELT@METAR SLLP 251500Z 17005KT 9999 NSC 13/M11 Q1041 A3075 630.2 HR19@CAELT@FU NOSIG=@CAELT@METAR SLCO 251500Z 27004KT 7000 NSC 33/24 Q1014 A2994 986.5 HR59@CAELT@METAR SLRY 251500Z 34006KT 8000 NSC 33/23 Q1009 A2982 HR56 FU@CAELT@RWY NML=METAR SLRQ 251500Z 00000KT 8000 NSC 33/26 Q1012 A2989 988.0 HR67METAR SLSB 251500Z 32010KT 6000 NSC 33/22 Q1012 A2989 HR52 FU RWY NMLMETAR SLOR 251500Z 03004KT 9999 NSC 15/M01 Q1039 A3069 658.8 HR33=METAR SLUY 251500Z 31012KT 9999 NSC 14/M07 Q1038 A3065 661.1HR32=
ZPX0409 251507@CAELT@GG SLZZYMYT@CAELT@251504 SLCBYGYS@CAELT@SABO SLCB 251500@CAELT@METAR SLCB 251500Z 33003KT 9999 NSC 25/M02 Q1027 A3035 753.5 HR17 FU@CAELT@NOSIG=@CAELT@METAR SLAL 251500Z 26007KT 9999 NSC 20/M06 Q1032 A3048 705.8 HR17=@CAELT@METAR SLAG 251500Z 02010KT 9999 NSC 33/09 Q1012 A2989 884.9 HR23 FU=@CAELT@METAR SLVM 251500Z 00000KT 9999 NSC 38/19 Q1005 A2969 HR35 FU=METAR SLTJ 251500Z 09004KT 9999 NSC 30/06 Q1016 A3002 812.0 HR22 FU=METAR SLYA 251500Z 00000KT 9999 NSC 36/19 Q1007 A2974 932.2 HR37 FU=
ZPX0440 251550@CAELT@GG SLZZYMYT@CAELT@251551 SLVRYGYZ@CAELT@SABO SLVR 251600@CAELT@METAR SLVR 251600Z 33013G25KT 7000 NSC 36/22 Q1011 A2988 HR45 FU@CAELT@NOSIG=@CAELT@
ZPX0441 251551@CAELT@GG SLZZYMYT@CAELT@251551 SLPSYGYS@CAELT@SABO SLPS 251600@CAELT@METAR SLPS 251600Z 09010KT 9999 NSC 37/22 Q1012 A2989 HR44=@CAELT@
ZPX0443 251555@CAELT@GG SLZZYMYT@CAELT@251555 SLORYGYZ@CAELT@SABO SLOR 251600@CAELT@METAR SLOR 251600Z 27005KT 9999 NSC 18/M02 Q1038 A3066 658.2 HR24=@CAELT@
ZPX0444 251555@CAELT@GG SLZZYMYT@CAELT@251554 SLRYYSYX@CAELT@SABO SLRY 251600@CAELT@METAR SLRY 251600Z 34006KT 8000 NSC 33/23 Q1008 A2979 HR55 FU RWY NML@CAELT@
ZPX0445 251555@CAELT@GG SLZZYMYT@CAELT@251554 SLSAYGYS@CAELT@SABO SLSA 251600@CAELT@METAR SLSA 251600Z 34010KT 5000 FU FEW020 36/21 Q1011 A2988 HR43=@CAELT@
ZPX0446 251555@CAELT@GG SLZZYMYT@CAELT@251555 SLRQYSYX@CAELT@SABO SLRQ 251600@CAELT@METAR SLRQ 251600Z 36004KT 8000 FEW017 35/26 Q1011 A2987 987.5 HR59@CAELT@
ZPX0447 251555@CAELT@GG SLZZYMYT@CAELT@251555 SLRBYGYS@CAELT@SABO SLRB 8251600@CAELT@METAR SLRB 251600Z 36012KT 8000 NSC 35/23 Q1013 A2991 HR49 FU RWY NML=@CAELT@
ZPX0448 251555@CAELT@GG SLZZYMYT@CAELT@251555 SLAGYSYX@CAELT@SABO SLAG 251600@CAELT@METAR SLAG 251600Z 36005KT 9999 NSC 37/11 Q1011 A2986 883.8 HR20 FU=@CAELT@
ZPX0449 251555@CAELT@GG SLZZYMYT@CAELT@251553 SLETYMYC@CAELT@SABO SLET 251600@CAELT@METAR SLET 251600Z 31017G29KT 7000 NSC 34/20 Q1011 A2985 HR44 FU@CAELT@NOSIG=@CAELT@
ZPX0450 251555@CAELT@GG SLZZYMYT@CAELT@251556 SLUYYGYS@CAELT@SABO SLUY 251600@CAELT@METAR SLUY 251600Z 29010KT 9999 NSC 16/M08 Q1037 A3064 660.7@CAELT@HR18=@CAELT@
ZPX0451 251556@CAELT@GG SLZZYMYT@CAELT@251555 SLLPYGYZ@CAELT@SABO SLLP 251600@CAELT@METAR SLLP 251600Z 13009KT 9999 FEW020 14/M10 Q1040 A3073 629.7@CAELT@HR18 P90// FU NOSIG=@CAELT@
ZPX0452 251556@CAELT@GG SLZZYMYT@CAELT@251556 SLCAYGYS@CAELT@SABO SLCA 251600@CAELT@METAR SLCA 251600Z 36010KT 9999 NSC 36/11 Q1009 A2980 HR23 FU RWY NML@CAELT@
ZPX0453 251557@CAELT@GG SLZZYMYT@CAELT@251556 SLTJYGYZ@CAELT@SABO SLTJ 251600@CAELT@METAR SLTJ 251600Z 13005KT 9999 NSC 33/04 Q1015 A2998 810.9 HR16 FU=@CAELT@
ZPX0455 251557@CAELT@GG SLZZYMYT@CAELT@251556 SLSBYSYX@CAELT@SABO SLSB 251600@CAELT@METAR SLSB 251600Z 35012KT 6000 NSC 35/24 Q1011 A2987 HR53 FU RWY NML=@CAELT@
ZPX0456 251557@CAELT@GG SLZZYMYT@CAELT@251556 SLCOYGYZ@CAELT@SABO SLCO 251600@CAELT@METAR SLCO 251600Z 32004KT 7000 FEW033 34/24 Q1013 A2992 985.8 HR56@CAELT@
ZPX0457 251558@CAELT@GG SLZZYMYT@CAELT@251557 SLCBYGYZ@CAELT@SABO SLCB 251600@CAELT@METAR SLCB 251600Z 27006KT 9999 NSC 26/01 Q1026 A3031 752.5 HR20 FU@CAELT@NOSIG=@CAELT@
ZPX0458 251558@CAELT@GG SLZZYMYT@CAELT@251557 SLTRYGYZ@CAELT@SABO SLTR 251600@CAELT@METAR SLTR 251600Z 32012KT 6000 NSC 34/23 Q1011 A2988 993.2@CAELT@HR53 FU CI NOSIG=@CAELT@
ZPX0459 251558@CAELT@GG SLZZYMYT@CAELT@251558 SLVRYGYS@CAELT@SABO SLVR 251600@CAELT@METAR SLVR 251600Z 33013G25KT 7000 NSC 36/22 Q1011 A2988 HR45 FU@CAELT@NOSIG=@CAELT@METAR SLET 251600Z 31017G29KT 7000 NSC 34/20 Q1011 A2985 HR44 FU@CAELT@METAR SLAS 251600Z 33005KT 4000 FU NSC 37/23 Q1013 A2991 HR44 RWY NML@CAELT@METAR SLJV 251600Z 36014KT 5000 FU NSC 35/22 Q1012 A2988 HR46 RWY NMLMETAR SLCP 251600Z 33005KT 6000 NSC 34/20 Q1015 A2997 HR44 FU RWY NMLMETAR SLSI 251600Z 36008KT 6000 NSC 36/22 Q1012 A2988 HR45 FU RWY NMLMETAR SLTI 251600Z 36010KT 9999 NSC 40/20 Q1014 A2994 HR32 FU RWY NMLMETAR SLJE 251600Z 35008KT 4000 FU FEW020 38/25 Q1014 A2994 HR48 RWYNML=METAR SLVG 251600Z 36012KT 9999 NSC 29/09 Q1023 A3021 HR24 RWY NML=METAR SLRB 251600Z 36012KT 8000 NSC 35/23 Q1013 A2991 HR49 FU RWY NMLMETAR SLPS 251600Z 09010KT 9999 NSC 37/22 Q1012 A2989 HR44=METAR SLCA 251600Z 36010KT 9999 NSC 36/11 Q1009 A2980 HR23 FU RWY NML=
ZPX0460 251559@CAELT@GG SLZZYMYT@CAELT@251559 SLTRYGYS@CAELT@SABO SLTR 251600@CAELT@METAR SLTR 251600Z 32012KT 6000 NSC 34/23 Q1011 A2988 993.2@CAELT@HR53 FU CI NOSIG=@CAELT@METAR SLGM 251600Z 36006KT 5000 FU FEW017 33/24 Q1013 A2991 HR59=@CAELT@METAR SLRI 251600Z 16008KT 5000 FU 33/23 Q1013 A2994 HR56=@CAELT@METAR SLJO 251600Z 35006KT 5000 FU NSC 35/22 Q1012 A2990 HR45CI RWY NML=METAR SLRA 251600Z 36004KT 5000 FU FEW023 BKN200 36/21 Q1012A2989 HR42 RWY NML=METAR SLMG 251600Z 30004KT 3000 FU NSC 34/22 Q1012 A2990 HR48METAR SLBU 251600Z NIL=METAR SLSA 251600Z 34010KT 5000 FU FEW020 36/21 Q1011 A2988 HR43=METAR SLSR 251600Z 35012KT 8000 NSC 33/22 Q1009 A2981 HR50 FUMETAR SLSM 251600Z 33010KT 8000 NSC 35/21 Q1011 A2987 HR44 FURWY NML=
ZPX0461 251559@CAELT@GG SLZZYMYT@CAELT@251559 SLCBYGYS@CAELT@SABO SLCB 251600@CAELT@METAR SLCB 251600Z 27006KT 9999 NSC 26/01 Q1026 A3031 752.5 HR20 FU@CAELT@NOSIG=@CAELT@METAR SLAL 251600Z 32007KT 9999 NSC 22/M08 Q1031 A3046 705.2 HR14=@CAELT@METAR SLAG 251600Z 36005KT 9999 NSC 37/11 Q1011 A2986 883.8 HR20 FU=@CAELT@METAR SLVM 251600Z 36010KT 9999 NSC 40/20 Q1004 A2965 HR32 FU=METAR SLTJ 251600Z 13005KT 9999 NSC 33/04 Q1015 A2998 810.9 HR16 FU=METAR SLYA 251600Z 06006KT 9999 NSC 37/19 Q1006 A2972 931.5 HR36 FU=
ZPX0463 251602@CAELT@GG SLZZYMYT@CAELT@251600 SLLPYFYA@CAELT@SABO SLLP 251600@CAELT@METAR SLLP 251600Z 13009KT 9999 FEW020 14/M10 Q1040 A3073 629.7@CAELT@HR18 P90// FU NOSIG=@CAELT@METAR SLCO 251600Z 32004KT 7000 FEW033 34/24 Q1013 A2992 985.8 HR56@CAELT@METAR SLRY 251600Z 34006KT 8000 NSC 33/23 Q1008 A2979 HR55 FU@CAELT@RWY NML=METAR SLRQ 251600Z 36004KT 8000 FEW017 35/26 Q1011 A2987 987.5 HR59METAR SLSB 251600Z 35012KT 6000 NSC 35/24 Q1011 A2987 HR53 FU RWY NMLMETAR SLOR 251600Z 27005KT 9999 NSC 18/M02 Q1038 A3066 658.2 HR24=METAR SLUY 251600Z 29010KT 9999 NSC 16/M08 Q1037 A3064 660.7HR18=
ZPX0481 251618@CAELT@GG SLZZYMYT@CAELT@251611 SLLPYFYA@CAELT@SABO SLLP 251600 RRA@CAELT@METAR SLLP 251600Z 13009KT 9999 FEW020 14/M10 Q1040 A3073 629.7@CAELT@HR18 P90// FU NOSIG=@CAELT@METAR SLCO 251600Z 32004KT 7000 FEW033 34/24 Q1013 A2992 985.8 HR56@CAELT@METAR SLRY 251600Z 34006KT 8000 NSC 33/23 Q1008 A2979 HR55 FU@CAELT@RWY NML=METAR SLRQ 251600Z 36004KT 8000 FEW017 35/26 Q1011 A2987 987.5 HR59METAR RTD SLAP 251600Z 00000KT 9999 NSC 30/22 Q1019 A3011 861.3 HR61=METAR SLSB 251600Z 35012KT 6000 NSC 35/24 Q1011 A2987 HR53 FU RWY NMLMETAR SLOR 251600Z 27005KT 9999 NSC 18/M02 Q1038 A3066 658.2 HR24=METAR SLUY 251600Z 29010KT 9999 NSC 16/M08 Q1037 A3064 660.7HR18=
ZPX0498 251651@CAELT@GG SLZZYMYT@CAELT@251651 SLPSYGYS@CAELT@SABO SLPS 251700@CAELT@METAR SLPS 251700Z 09013KT 9999 FEW020 39/23 Q1010 A2983 HR42=@CAELT@
ZPX0499 251653@CAELT@GG SLZZYMYT@CAELT@251653 SLVRYGYZ@CAELT@SABO SLVR 251700@CAELT@METAR SLVR 251700Z 33013G25KT 7000 NSC 36/22 Q1010 A2982 HR44 FU@CAELT@NOSIG=@CAELT@
ZPX0500 251653@CAELT@GG SLZZYMYT@CAELT@251654 SLORYGYZ@CAELT@SABO SLOR 251700@CAELT@METAR SLOR 251700Z 31003KT 9999 NSC 21/M02 Q1037 A3063 657.4 HR22=@CAELT@
ZPX0501 251655@CAELT@GG SLZZYMYT@CAELT@251655 SLUYYGYS@CAELT@SABO SLUY 251700@CAELT@METAR SLUY 251700Z 30011KT 9999 NSC 17/M09 Q1037 A3060 659.8@CAELT@HR16=@CAELT@
ZPX0502 251655@CAELT@GG SLZZYMYT@CAELT@251655 SLTRYGYZ@CAELT@SABO SLTR 251700@CAELT@METAR SLTR 251700Z 32012KT 6000 NSC 36/24 Q1010 A2985 992.3@CAELT@HR49 FU CI NOSIG=@CAELT@
ZPX0503 251655@CAELT@GG SLZZYMYT@CAELT@251653 SLRYYSYX@CAELT@SABO SLRY 251700@CAELT@METAR SLRY 251700Z 34010KT 8000 NSC 35/23 Q1008 A2979 HR50 FU RWY NML@CAELT@
ZPX0504 251655@CAELT@GG SLZZYMYT@CAELT@251655 SLSBYSYX@CAELT@SABO SLSB 251700@CAELT@METAR SLSB 251700Z 34010KT 6000 NSC 36/23 Q1010 A2985 HR49 FU RWY NML=@CAELT@
ZPX0506 251655@CAELT@GG SLZZYMYT@CAELT@251655 SLRBYGYS@CAELT@SABO SLRB 251700@CAELT@METAR SLRB 251700Z 36010KT 8000 NSC 38/22 Q1012 A2988 HR40 FU RWY NML=@CAELT@
ZPX0507 251655@CAELT@GG SLZZYMYT@CAELT@251655 SLTJYGYZ@CAELT@SABO SLTJ 251700@CAELT@METAR SLTJ 251700Z 13003KT 9999 NSC 36/03 Q1013 A2994 809.7 HR12 FU=@CAELT@
ZPX0508 251656@CAELT@GG SLZZYMYT@CAELT@251655 SLCBYGYZ@CAELT@SABO SLCB 251700@CAELT@METAR SLCB 251700Z 22003KT 9999 NSC 27/01 Q1025 A3027 751.5 HR17 FU@CAELT@NOSIG=@CAELT@
ZPX0510 251656@CAELT@GG SLZZYMYT@CAELT@251651 SLETYMYC@CAELT@SABO SLET 251700@CAELT@METAR SLET 251700Z 31018G30KT 8000 NSC 35/20 Q1009 A2982 HR41 FU@CAELT@NOSIG=@CAELT@
ZPX0511 251656@CAELT@GG SLZZYMYT@CAELT@251655 SLAGYSYX@CAELT@SABO SLAG 251700@CAELT@METAR SLAG 251700Z 09012KT 9999 NSC 38/11 Q1009 A2982 882.8 HR19 FU=@CAELT@
ZPX0512 251656@CAELT@GG SLZZYMYT@CAELT@251655 SLRQYSYX@CAELT@SABO SLRQ 251700@CAELT@METAR SLRQ 251700Z 00000KT 8000 FEW017 35/26 Q1010 A2983 986.1 HR59@CAELT@
ZPX0513 251657@CAELT@GG SLZZYMYT@CAELT@251657 SLCAYGYS@CAELT@SABO SLCA 251700@CAELT@METAR SLCA 251700Z 36010KT 9999 NSC 39/10 Q1008 A2977 HR19 FU RWY NML@CAELT@
ZPX0514 251657@CAELT@GG SLZZYMYT@CAELT@251656 SLLPYGYZ@CAELT@SABO SLLP 251700@CAELT@METAR SLLP 251700Z 12010KT 070V180 9999 FEW023 17/M09 Q1039 A3069@CAELT@628.7 HR16 P1380 FU NOSIG=@CAELT@
ZPX0515 251658@CAELT@GG SLZZYMYT@CAELT@251657 SLVRYGYS@CAELT@SABO SLVR 251700@CAELT@METAR SLVR 251700Z 33013G25KT 7000 NSC 36/22 Q1010 A2982 HR44 FU@CAELT@NOSIG=@CAELT@METAR SLET 251700Z 31018G30KT 8000 NSC 35/20 Q1009 A2982 HR41 FU@CAELT@METAR SLAS 251700Z 33005KT 4000 FU NSC 38/23 Q1012 A2988 HR42 RWY NML@CAELT@METAR SLJV 251700Z 36014KT 5000 FU NSC 35/22 Q1011 A2985 HR45 RWY NMLMETAR SLCP 251700Z 33005KT 7000 FEW017 35/20 Q1014 A2994 HR41 FU RWYNML=METAR SLSI 251700Z 33008KT 6000 FEW020 37/23 Q1011 A2985 HR45 FU RWYMETAR SLTI 251700Z 36010KT 9999 NSC 41/20 Q1013 A2991 HR29 FU RWY NMLMETAR SLJE 251700Z 35008KT 4000 FU SCT020 39/25 Q1012 A2988 HR46 RWYMETAR SLVG 251700Z 02014KT 9999 NSC 29/11 Q1022 A3018 HR28 RWY NML=METAR SLRB 251700Z 36010KT 8000 NSC 38/22 Q1012 A2988 HR40 FU RWY NMLMETAR SLPS 251700Z 09013KT 9999 FEW020 39/23 Q1010 A2983 HR42=METAR SLCA 251700Z 36010KT 9999 NSC 39/10 Q1008 A2977 HR19 FU RWY NML=
ZPX0516 251659@CAELT@GG SLZZYMYT@CAELT@251657 SLCOYGYZ@CAELT@SABO SLCO 251700@CAELT@METAR SLCO 251700Z 27005KT 8000 SCT033 35/24 Q1011 A2988 984.3 HR51@CAELT@
ZPX0517 251700@CAELT@GG SLZZYMYT@CAELT@251659 SLCBYGYS@CAELT@SABO SLCB 251700@CAELT@METAR SLCB 251700Z 22003KT 9999 NSC 27/01 Q1025 A3027 751.5 HR17 FU@CAELT@NOSIG=@CAELT@METAR SLAL 251700Z 30003KT 9999 NSC 24/M03 Q1030 A3042 704.3 HR17=@CAELT@METAR SLAG 251700Z 09012KT 9999 NSC 38/11 Q1009 A2982 882.8 HR19 FU=@CAELT@METAR SLVM 251700Z 36015G27KT 9999 NSC 42/20 Q1002 A2961 HR29 FU=METAR SLTJ 251700Z 13003KT 9999 NSC 36/03 Q1013 A2994 809.7 HR12 FU=METAR SLYA 251700Z 06008KT 9999 NSC 37/19 Q1005 A2969 930.5 HR35 FU=
ZPX0519 251701@CAELT@GG SLZZYMYT@CAELT@251700 SLTRYGYS@CAELT@SABO SLTR 251700@CAELT@METAR SLTR 251700Z 32012KT 6000 NSC 36/24 Q1010 A2985 992.3 HR49@CAELT@FU CI NOSIG=@CAELT@METAR SLGM 251700Z 02008KT 5000 FU SCT017 BKN200 35/24 Q1011 A2988@CAELT@HR554 AC=@CAELT@METAR SLRI 251700Z 36008KT 5000 FU SCT017 35/23 Q1012 A2990 HR52=METAR SLJO 251700Z 35005KT 8000 FU FEW020 SCT200 36/21 Q1011 A2988HR41RWY NML=METAR SLRA 251700Z 36006KT 5000 FU FEW023CB BKN200 38/21 Q1011A2986 HR37 RWY NML=METAR SLMG 251700Z 34006KT 3000 FU SCT020 37/22 Q1011 A2988 HR43METAR SLBU 251700Z NIL=METAR SLSA 251700Z 32010KT 5000 FU SCT020 36/21 Q1011 A2986 HR41=METAR SLSR 251700Z 35012KT 8000 NSC 34/22 Q1009 A2980 HR50 FUCI RWY NML=METAR SLSM 251700Z 33008KT 8000 NSC 35/23 Q1010 A2984 HR47 FU
ZPX0520 251701@CAELT@GG SLZZYMYT@CAELT@251700 SLLPYFYA@CAELT@SABO SLLP 251700@CAELT@METAR SLLP 251700Z 12010KT 070V180 9999 FEW023 17/M09 Q1039 A3069@CAELT@628.7 HR16 P1380 FU NOSIG=@CAELT@METAR SLCO 251700Z 27005KT 8000 SCT033 35/24 Q1011 A2988 984.3 HR51@CAELT@METAR SLRY 251700Z 34010KT 8000 NSC 35/23 Q1008 A2979 HR50 FU RWY NML@CAELT@METAR SLRQ 251700Z 00000KT 8000 FEW017 35/26 Q1010 A2983 986.1 HR59METAR SLAP 251700Z 00000KT 9999 NSC 32/21 Q1018 A3006 858.6 HR54=METAR SLSB 251700Z 34010KT 6000 NSC 36/23 Q1010 A2985 HR49 FU RWY NMLMETAR SLOR 251700Z 31003KT 9999 NSC 21/M02 Q1037 A3063 657.4 HR22=METAR SLUY 251700Z 30011KT 9999 NSC 17/M09 Q1037 A3060 659.8HR16=
ZPX0547 251753@CAELT@GG SLZZYMYT@CAELT@251754 SLORYGYZ@CAELT@SABO SLOR 251800@CAELT@METAR SLOR 251800Z 33006KT 9999 FEW025 22/M02 Q1035 A3058 656.2 HR22=@CAELT@
ZPX0549 251754@CAELT@GG SLZZYMYT@CAELT@251755 SLRQYSYX@CAELT@SABO SLRQ 251800@CAELT@METAR SLRQ 251800Z 36005KT 8000 FEW017 36/27 Q1009 A2979 984.9 HR61@CAELT@FU=@CAELT@
ZPX0552 251755@CAELT@GG SLZZYMYT@CAELT@251755 SLAGYSYX@CAELT@SABO SLAG 251800@CAELT@METAR SLAG 251800Z 09010KT 9999 NSC 39/10 Q1008 A2978 881.5 HR18 FU=@CAELT@
ZPX0553 251756@CAELT@GG SLZZYMYT@CAELT@251756 SLTRYGYZ@CAELT@SABO SLTR 251800@CAELT@METAR SLTR 251800Z 33011KT 7000 NSC 36/24 Q1009 A2981 991.1@CAELT@HR48 FU CI NOSIG=@CAELT@
ZPX0554 251757@CAELT@GG SLZZYMYT@CAELT@251757 SLVRYGYZ@CAELT@SABO SLVR 251800@CAELT@METAR SLVR 251800Z 33013G25KT 7000 FEW020 37/21 Q1008 A2979 HR42 FU@CAELT@NOSIG=@CAELT@
ZPX0555 251757@CAELT@GG SLZZYMYT@CAELT@251756 SLLPYGYZ@CAELT@SABO SLLP 251800@CAELT@METAR SLLP 251800Z 10012G22KT 050V140 9999 FEW025 18/M10 Q1037 A3065@CAELT@627.9 HR14 P7380 FU NOSIG=@CAELT@
ZPX0556 251757@CAELT@GG SLZZYMYT@CAELT@251757 SLCAYGYS@CAELT@SABO SLCA 251800@CAELT@METAR SLCA 251800Z 36010KT 9999 NSC 40/11 Q1007 A2974 HR18 FU RWY NML@CAELT@
ZPX0557 251757@CAELT@GG SLZZYMYT@CAELT@251756 SLCOYGYZ@CAELT@SABO SLCO 251800@CAELT@METAR SLCO 251800Z 29005KT 8000 SCT033 36/24 Q1010 A2984 983.0 HR48@CAELT@
ZPX0558 251757@CAELT@GG SLZZYMYT@CAELT@251728 SLETYMYC@CAELT@SABO SLET 251800@CAELT@METAR SLET 251800Z 31017G2KT 8000 FEW020 35/20 1008 A2978 HR41 FU@CAELT@NOSIG=@CAELT@
ZPX0559 251757@CAELT@GG SLZZYMYT@CAELT@251757 SLCBYGYZ@CAELT@SABO SLCB 251800@CAELT@METAR SLCB 251800Z 27006KT 9999 FEW036 29/M01 Q1023 A3021 749.9 HR15@CAELT@FU NOSIG=@CAELT@
ZPX0560 251757@CAELT@GG SLZZYMYT@CAELT@251756 SLTJYGYZ@CAELT@SABO SLTJ 251800@CAELT@METAR SLTJ 251800Z 36007KT 9999 NSC 37/M05 Q1012 A2989 808.4 HR06=@CAELT@
ZPX0562 251758@CAELT@GG SLZZYMYT@CAELT@251757 SLVRYGYS@CAELT@SABO SLVR 251800@CAELT@METAR SLVR 251800Z 33013G25KT 7000 FEW020 37/21 Q1008 A2979 HR42 FU@CAELT@NOSIG=@CAELT@METAR SLET 251800Z 31017G29KT 8000 FEW020 35/20 Q1008 A2978 HR41@CAELT@METAR SLJV 251800Z 36014KT 5000 FU NSC 37/20 Q1010 A2983 HR39 RWY NML@CAELT@METAR SLCP 251800Z 33010KT 7000 SCT017 36/19 Q1014 A2994 HR38 FU RWYNML=METAR SLSI 251800Z 36008KT 6000 FEW020 37/24 Q1010 A2983 HR43 FU RWYMETAR SLCA 251800Z 36010KT 9999 NSC 40/11 Q1007 A2974 HR18 FU RWY NML=
ZPX0563 251759@CAELT@GG SLZZYMYT@CAELT@251758 SLVRYGYS@CAELT@SABO SLVR 251800 CCA@CAELT@METAR SLVR 251800Z 33013G25KT 7000 FEW020 37/21 Q1008 A2979 HR42 FU@CAELT@NOSIG=@CAELT@METAR COR SLET 251800Z 31017G29KT 8000 FEW020 35/20 Q1008 A2978 HR41@CAELT@FU NOSIG=@CAELT@METAR SLJV 251800Z 36014KT 5000 FU NSC 37/20 Q1010 A2983 HR39 RWY NMLMETAR SLCP 251800Z 33010KT 7000 SCT017 36/19 Q1014 A2994 HR38 FU RWYNML=METAR SLSI 251800Z 36008KT 6000 FEW020 37/24 Q1010 A2983 HR43 FU RWYMETAR SLCA 251800Z 36010KT 9999 NSC 40/11 Q1007 A2974 HR18 FU RWY NML=
ZPX0564 251759@CAELT@GG SLZZYMYT@CAELT@251759 SLCBYGYS@CAELT@SABO SLCB 251800@CAELT@METAR SLCB 251800Z 27006KT 9999 FEW036 29/M01 Q1023 A3021 749.9 HR15@CAELT@FU NOSIG=@CAELT@METAR SLAL 251800Z 02006KT 9999 NSC 24/M08 Q1028 A3038 703.5 HR11=@CAELT@METAR SLAG 251800Z 09010KT 9999 NSC 39/10 Q1008 A2978 881.5 HR18 FU=@CAELT@METAR SLVM 251800Z 36015G25KT 9999 NSC 42/20 Q1001 A2957 HR29 FU=METAR SLTJ 251800Z 36007KT 9999 NSC 37/M05 Q1012 A2989 808.4 HR06=METAR SLYA 251800Z 06008KT 9999 NSC 39/20 Q1004 A2966 929.6 HR34 FU=
ZPX0567 251802@CAELT@GG SLZZYMYT@CAELT@251800 SLTRYGYS@CAELT@SABO SLTR 251800@CAELT@METAR SLTR 251800Z 33011KT 7000 NSC 36/24 Q1009 A2981 991.1 HR48@CAELT@FU CI NOSIG=@CAELT@METAR SLGM 251800Z 36006KT 5000 FU SCT017 BKN200 35/24 Q1010 A2985@CAELT@HR53 AC=@CAELT@METAR SLRI 251800Z 08012KT 7000 SCT017 34/23 Q1011 A2987 HR50 FU=METAR SLJO 251800Z NIL=METAR SLRA 251800Z NIL=METAR SLMG 251800Z NIL=METAR SLBU 251800Z NIL=METAR SLSA 251800Z 30010KT 5000 FU SCT020 FEW023CB BKN200 36/21 Q1009A2980 HR40CB N=METAR SLSR 251800Z NIL=METAR SLSM 251800Z NIL=
ZPX0569 251805@CAELT@GG SLZZYMYT@CAELT@251805 SLLPYFYA@CAELT@SABO SLLP 251800@CAELT@METAR SLLP 251800Z 10012G22KT 050V140 9999 FEW025 18/M10 Q1037 A3065@CAELT@627.9 HR14 P7380 FU NOSIG=@CAELT@METAR SLCO 251800Z 29005KT 8000 SCT033 36/24 Q1010 A2984 983.0 HR48@CAELT@METAR SLRQ 251800Z 36005KT 8000 FEW017 36/27 Q1009 A2979 984.9 HR61@CAELT@FU=METAR SLAP 251800Z 36005KT 9999 NSC 32/21 Q1017 A3003 857.8 HR51=METAR SLOR 251800Z 33006KT 9999 FEW025 22/M02 Q1035 A3058 656.2 HR22=
ZPX0593 251853@CAELT@GG SLZZYMYT@CAELT@251854 SLVRYGYZ@CAELT@SABO SLVR 251900@CAELT@METAR SLVR 251900Z 33013G26KT 7000 NSC 37/21 Q1007 A2976 HR42 FU@CAELT@NOSIG=@CAELT@
ZPX0594 251855@CAELT@GG SLZZYMYT@CAELT@251855 SLAGYSYX@CAELT@SABO SLAG 251900@CAELT@METAR SLAG 251900Z 07012KT 9999 NSC 39/09 Q1007 A2976 880.9 HR16 FU=@CAELT@
ZPX0595 251855@CAELT@GG SLZZYMYT@CAELT@251855 SLRQYSYX@CAELT@SABO SLRQ 251900@CAELT@METAR SLRQ 251900Z 06008KT 8000 FEW017 36/27 Q1008 A2976 983.9 HR59@CAELT@
ZPX0596 251855@CAELT@GG SLZZYMYT@CAELT@251855 SLCOYGYZ@CAELT@SABO SLCO 251900@CAELT@METAR SLCO 251900Z 29003KT 8000 SCT033 37/24 Q1009 A2981 982.0 HR48@CAELT@
ZPX0597 251856@CAELT@GG SLZZYMYT@CAELT@251855 SLTJYGYZ@CAELT@SABO SLTJ 251900@CAELT@METAR SLTJ 251900Z 08007KT 9999 NSC 37/05 Q1011 A2986 807.6 HR13 FU=@CAELT@
ZPX0599 251856@CAELT@GG SLZZYMYT@CAELT@251854 SLETYMYC@CAELT@SABO SLET 251900@CAELT@METAR SLET 251900Z 31019G32KT 8000 FEW020 35/19 Q1007 A2976 HR38 FU@CAELT@NOSIG=@CAELT@
ZPX0600 251856@CAELT@GG SLZZYMYT@CAELT@251855 SLLPYGYZ@CAELT@SABO SLLP 251900@CAELT@METAR SLLP 251900Z 10013G23KT 030V170 9999 FEW025 18/M10 Q1037 A3062@CAELT@627.3 HR14 P7380 FU NOSIG=@CAELT@
ZPX0601 251857@CAELT@GG SLZZYMYT@CAELT@251856 SLTRYGYZ@CAELT@SABO SLTR 251900@CAELT@METAR SLTR 251900Z 32012KT 7000 FEW025 SCT200 37/23 Q1008 A2978@CAELT@989.9 HR46 FU NOSIG=@CAELT@
ZPX0602 251857@CAELT@GG SLZZYMYT@CAELT@251856 SLVRYGYS@CAELT@SABO SLVR 251900@CAELT@METAR SLVR 251900Z 33013G26KT 7000 NSC 37/21 Q1007 A2976 HR42 FU@CAELT@NOSIG=@CAELT@METAR SLET 251900Z 31019G32KT 8000 FEW020 35/19 Q1007 A2976 HR38 FU@CAELT@METAR SLJV 251900Z 36014KT 5000 FU NSC 37/20 Q1009 A2980 HR38 RWY NML@CAELT@METAR SLCP 251900Z 33005KT 7000 SCT017 36/20 Q1012 A2988 HR41 FU RWYNML=
ZPX0603 251857@CAELT@GG SLZZYMYT@CAELT@251857 SLCBYGYZ@CAELT@SABO SLCB 251900@CAELT@METAR SLCB 251900Z 25007KT 9999 FEW036 30/00 Q1021 A3017 748.8 HR14@CAELT@FU NOSIG=@CAELT@
ZPX0606 251859@CAELT@GG SLZZYMYT@CAELT@251859 SLTRYGYS@CAELT@SABO SLTR 251900@CAELT@METAR SLTR 251900Z 32012KT 7000 FEW025 SCT200 37/23 Q1008 A2978@CAELT@989.9 HR46 FU NOSIG=@CAELT@METAR SLGM 251900Z 33006KT 5000 FU SCT017 FEW020CB BKN200 35/24@CAELT@Q1009 A2981 HR52 AC CB N=@CAELT@METAR SLRI 251900Z 32012KT 8000 SCT017 36/21 Q1010 A2983 HR44 FU=METAR SLJO 251900Z NIL=METAR SLRA 251900Z NIL=METAR SLMG 251900Z NIL=METAR SLBU 251900Z NIL=METAR SLSA 251900Z 34010KT 5000 FU SCT020 FEW023CB BKN200 36/21Q1008 A2978 HR42 CB N=METAR SLSR 251900Z NIL=METAR SLSM 251900Z NIL=
ZPX0608 251901@CAELT@GG SLZZYMYT@CAELT@251900 SLCBYGYS@CAELT@SABO SLCB 251900@CAELT@METAR SLCB 251900Z 25007KT 9999 FEW036 30/00 Q1021 A3017 748.8 HR14@CAELT@FU NOSIG=@CAELT@METAR SLAL 251900Z 27012KT 9999 NSC 24/M08 Q1027 A3035 702.8 HR11=@CAELT@METAR SLAG 251900Z 07012KT 9999 NSC 39/09 Q1007 A2976 880.9 HR16 FU=@CAELT@METAR SLVM 251900Z 36012G25KT 9999 NSC 43/21 Q0999 2952 HR29 FU=METAR SLTJ 251900Z 08007KT 9999 NSC 37/05 Q1011 A2986 807.6 HR13 FU=
ZPX0611 251904@CAELT@GG SLZZYMYT@CAELT@251904 SLCAYGYS@CAELT@SABO SLCA 251900@CAELT@METAR SLCA 251900Z 36010KT 9999 NSC 41/11 Q1006 A2971 HR17 FU RWY NML@CAELT@
ZPX0615 251905@CAELT@GG SLZZYMYT@CAELT@251901 SLLPYFYA@CAELT@SABO SLLP 251900@CAELT@METAR SLLP 251900Z 10013G23KT 030V170 9999 FEW025 18/M10 Q1037 A3062@CAELT@627.3 HR14 P7380 FU NOSIG=@CAELT@METAR SLCO 251900Z 29003KT 8000 SCT033 37/24 Q1009 A2981 982.0 HR48@CAELT@METAR SLRQ 251900Z 06008KT 8000 FEW017 36/27 Q1008 A2976 983.9 HR59@CAELT@
ZPX0616 251906@CAELT@GG SLZZYMYT@CAELT@251905 SLVRYGYS@CAELT@SABO SLVR 251900 RRA@CAELT@METAR SLVR 251900Z 33013G26KT 7000 NSC 37/21 Q1007 A2976 HR42 FU@CAELT@NOSIG=@CAELT@METAR SLET 251900Z 31019G32KT 8000 FEW020 35/19 Q1007 A2976 HR38 FU@CAELT@METAR SLJV 251900Z 36014KT 5000 FU NSC 37/20 Q1009 A2980 HR38 RWY NML@CAELT@METAR SLCP 251900Z 33005KT 7000 SCT017 36/20 Q1012 A2988 HR41 FU RWYNML=METAR RTD SLCA 251900Z 36010KT 9999 NSC 41/11 Q1006 A2971 HR17 FU RWY
ZPX0643 251954@CAELT@GG SLZZYMYT@CAELT@251955 SLRQYSYX@CAELT@SABO SLRQ 252000@CAELT@METAR SLRQ 252000Z 36007KT 8000 FEW017 36/26 Q1007 A2974 983.1 HR55@CAELT@
ZPX0644 251955@CAELT@GG SLZZYMYT@CAELT@251955 SLVRYGYZ@CAELT@SABO SLVR 252000@CAELT@METAR SLVR 252000Z 33012G23KT 7000 NSC 36/22 Q1007 A2975 HR45 FU@CAELT@NOSIG=@CAELT@
ZPX0645 251955@CAELT@GG SLZZYMYT@CAELT@251955 SLCOYGYZ@CAELT@SABO SLCO 252000@CAELT@METAR SLCO 252000Z 32006KT 8000 SCT033 37/24 Q1008 A2977 980.9 HR47@CAELT@
ZPX0646 251956@CAELT@GG SLZZYMYT@CAELT@251956 SLCBYGYZ@CAELT@SABO SLCB 252000@CAELT@METAR SLCB 252000Z 11006KT 9999 FEW040 30/00 Q1020 A3014 748.1 HR14@CAELT@FU NOSIG=@CAELT@
ZPX0647 251956@CAELT@GG SLZZYMYT@CAELT@251955 SLAGYSYX@CAELT@SABO SLAG 252000@CAELT@METAR SLAG 252000Z 07012KT 9999 NSC 39/09 Q1007 A2974 880.3 HR17 FU=@CAELT@
ZPX0648 251956@CAELT@GG SLZZYMYT@CAELT@251953 SLETYMYC@CAELT@SABO SLET 232000@CAELT@METAR SLET 232000Z 32016G28KT 8000 NSC 34/19 Q1007 A2975 HR40 FU@CAELT@NOSIG=@CAELT@
ZPX0649 251957@CAELT@GG SLZZYMYT@CAELT@251956 SLTJYGYZ@CAELT@SABO SLTJ 252000@CAELT@METAR SLTJ 252000Z 10011KT 9999 NSC 35/07 Q1010 A2984 806.9 HR18 FU=@CAELT@
ZPX0650 251957@CAELT@GG SLZZYMYT@CAELT@251957 SLTRYGYZ@CAELT@SABO SLTR 252000@CAELT@METAR SLTR 252000Z 34011KT 7000 FEW025 37/23 Q1007 A2975@CAELT@988.9 HR46 FU CI NOSIG=@CAELT@
ZPX0651 251957@CAELT@GG SLZZYMYT@CAELT@251957 SLVRYGYS@CAELT@SABO SLVR 252000@CAELT@METAR SLVR 252000Z 33012G23KT 7000 NSC 36/22 Q1007 A2975 HR45 FU@CAELT@NOSIG=@CAELT@METAR SLET 252000Z 32016G28KT 8000 NSC 34/19 Q1007 A2975 HR40 FU@CAELT@METAR SLJV 252000Z 36014KT 5000 FU NSC 36/20 Q1008 A2977 HR40 RWY NML@CAELT@METAR SLCP 252000Z 00000KT 7000 SCT017 35/21 Q1012 A2988 HR44 FU RWYNML=
ZPX0652 251958@CAELT@GG SLZZYMYT@CAELT@251957 SLLPYGYZ@CAELT@SABO SLLP 252000@CAELT@METAR SLLP 252000Z 12015KT 080V150 9999 FEW025 17/M08 Q1036 A3060@CAELT@626.9 HR17 P93// FU NOSIG=@CAELT@
ZPX0653 251958@CAELT@GG SLZZYMYT@CAELT@251958 SLCBYGYS@CAELT@SABO SLCB 252000@CAELT@METAR SLCB 252000Z 11006KT 9999 FEW040 30/00 Q1020 A3014 748.1 HR14@CAELT@FU NOSIG=@CAELT@METAR SLAL 252000Z 01011KT 9999 NSC 23/M07 Q1027 A3033 702.4 HR13=@CAELT@METAR SLAG 252000Z 07012KT 9999 NSC 39/09 Q1007 A2974 880.3 HR17 FU=@CAELT@METAR SLVM 252000Z 05012G27KT 9999 NSC 43/22 Q0999 A2950 HR31 FU=METAR SLTJ 252000Z 10011KT 9999 NSC 35/07 Q1010 A2984 806.9 HR18 FU=
ZPX0656 252002@CAELT@GG SLZZYMYT@CAELT@252000 SLTRYGYS@CAELT@SABO SLTR 252000@CAELT@METAR SLTR 252000Z 34011KT 7000 FEW025 37/23 Q1007 A2975 988.9@CAELT@HR46 FU CI NOSIG=@CAELT@METAR SLGM 252000Z 36008KT 5000 FU FEW017 FEW020CB SCT080 BKN200@CAELT@35/24 Q1007 A2975 HR52 CB NE=@CAELT@METAR SLRI 252000Z 34010KT 8000 SCT017 36/21 Q1008 A2976 HR44 FU=METAR SLJO 252000Z NIL=METAR SLRA 252000Z NIL=METAR SLMG 252000Z NIL=METAR SLBU 252000Z NIL=METAR SLSA 252000Z 34007KT 5000 FU SCT020 BKN200 37/20 Q1007 A2976HR39=METAR SLSR 252000Z NIL=METAR SLSM 252000Z NIL=
ZPX0658 252002@CAELT@GG SLZZYMYT@CAELT@252000 SLLPYFYA@CAELT@SABO SLLP 252000@CAELT@METAR SLLP 252000Z 12015KT 080V150 9999 FEW025 17/M08 Q1036 A3060@CAELT@626.9 HR17 P93// FU NOSIG=@CAELT@METAR SLCO 252000Z 32006KT 8000 SCT033 37/24 Q1008 A2977 980.9 HR47@CAELT@METAR SLRQ 252000Z 36007KT 8000 FEW017 36/26 Q1007 A2974 983.1 HR55@CAELT@
ZPX0688 252052@CAELT@GG SLZZYMYT@CAELT@252052 SLVRYGYZ@CAELT@SABO SLVR 252100@CAELT@METAR SLVR 252100Z 33011G21KT 7000 NSC 35/22 Q1007 A2975 HR48 FU@CAELT@NOSIG=@CAELT@
ZPX0690 252054@CAELT@GG SLZZYMYT@CAELT@252040 SLETYMYC@CAELT@SABO SLET 252100@CAELT@METAR SLET 252100Z 31015G27KT 7000 NSC 33/20 Q1006 A2973 HR45 FU@CAELT@NOSIG=@CAELT@
ZPX0691 252054@CAELT@GG SLZZYMYT@CAELT@252055 SLRQYSYX@CAELT@SABO SLRQ 252100@CAELT@METAR SLRQ 252100Z 36004KT 8000 NSC 36/23 Q1006 A2973 982.6 HR58 FU=@CAELT@
ZPX0693 252055@CAELT@GG SLZZYMYT@CAELT@252055 SLCOYGYZ@CAELT@SABO SLCO 252100@CAELT@METAR SLCO 252100Z 32004KT 8000 SCT033 36/24 Q1007 A2976 980.6 HR51@CAELT@
ZPX0694 252055@CAELT@GG SLZZYMYT@CAELT@252055 SLAGYSYX@CAELT@SABO SLAG 252100@CAELT@METAR SLAG 252100Z 09010KT 6000 FU NSC 37/12 Q1007 A2974 880.2 HR22=@CAELT@
ZPX0696 252056@CAELT@GG SLZZYMYT@CAELT@252056 SLCBYGYZ@CAELT@SABO SLCB 252100@CAELT@METAR SLCB 252100Z 02010KT 9999 FEW040 28/02 Q1020 A3014 748.0 HR19@CAELT@FU NOSIG=@CAELT@
ZPX0697 252056@CAELT@GG SLZZYMYT@CAELT@252055 SLLPYGYZ@CAELT@SABO SLLP 252100@CAELT@METAR SLLP 252100Z 14012KT 090V170 9999 FEW025 16/M06 Q1036 A3060@CAELT@626.9 HR21 P1380 FU NOSIG=@CAELT@
ZPX0699 252058@CAELT@GG SLZZYMYT@CAELT@252058 SLTRYGYZ@CAELT@SABO SLTR 252100@CAELT@METAR SLTR 252100Z 31008KT 7000 NSC 36/23 Q1006 A2974@CAELT@988.5 HR47 FU NOSIG=@CAELT@
ZPX0704 252101@CAELT@GG SLZZYMYT@CAELT@252100 SLVRYGYS@CAELT@SABO SLVR 252100@CAELT@METAR SLVR 252100Z 33011G21KT 7000 NSC 35/22 Q1007 A2975 HR48 FU@CAELT@NOSIG=@CAELT@METAR SLET 252100Z 31015G27KT 7000 NSC 33/20 Q1006 A2973 HR45 FU@CAELT@METAR SLJV 252100Z 36014KT 5000 FU NSC 35/20 Q1008 A2977 HR42 RWY NML@CAELT@METAR SLCP 252100Z 00000KT 7000 NSC 34/20 Q1012 A2988 HR45 FU RWY NML=
ZPX0705 252102@CAELT@GG SLZZYMYT@CAELT@252100 SLTRYGYS@CAELT@SABO SLTR 252100@CAELT@METAR SLTR 252100Z 31008KT 7000 NSC 36/23 Q1006 A2974 988.5 HR47@CAELT@FU NOSIG=@CAELT@METAR SLGM 252100Z 32006KT 5000 FU FEW017 FEW020CB BKN080 BKN200@CAELT@34/23 Q1007 A2975 HR54 CB N/NE=@CAELT@METAR SLRI 252100Z 30005KT 8000 FEW017 SCT200 32/23 Q1008 A2978 HR58FU AC=METAR SLJO 252100Z NIL=METAR SLRA 252100Z NIL=METAR SLMG 252100Z NIL=METAR SLBU 252100Z NIL=METAR SLSA 252100Z 34006KT 5000 FEW020 BKN200 36/20 Q1007 A2974 HR38=METAR SLSR 252100Z NIL=METAR SLSM 252100Z NIL=
ZPX0706 252102@CAELT@GG SLZZYMYT@CAELT@252100 SLCBYGYS@CAELT@SABO SLCB 252100@CAELT@METAR SLCB 252100Z 02010KT 9999 FEW040 28/02 Q1020 A3014 748.0 HR19@CAELT@FU NOSIG=@CAELT@METAR SLAL 252100Z 02008KT 9999 NSC 22/M09 Q1027 A3032 702.1 HR11=@CAELT@METAR SLAG 252100Z 09010KT 6000 FU NSC 37/12 Q1007 A2974 880.2 HR22=@CAELT@METAR SLVM 252100Z 36015G28KT 9999 NSC 42/21 Q0999 A2950 HR32 FU=
ZPX0709 252106@CAELT@GG SLZZYMYT@CAELT@252100 SLLPYFYA@CAELT@SABO SLLP 252100@CAELT@METAR SLLP 252100Z 14012KT 090V170 9999 FEW025 16/M06 Q1036 A3060@CAELT@626.9 HR21 P1380 FU NOSIG=@CAELT@METAR SLCO 252100Z 32004KT 8000 SCT033 36/24 Q1007 A2976 980.6 HR51@CAELT@METAR SLRQ 252100Z 36004KT 8000 NSC 36/23 Q1006 A2973 982.6 HR58 FU=@CAELT@
ZPX0717 252153@CAELT@GG SLZZYMYT@CAELT@252153 SLVRYGYZ@CAELT@SABO SLVR 252200@CAELT@METAR SLVR 252200Z 33005KT 8000 NSC 32/22 Q1007 A2975 HR57 FU NOSIG=@CAELT@
ZPX0718 252153@CAELT@GG SLZZYMYT@CAELT@252149 SLETYMYC@CAELT@SABO SLET 252200@CAELT@METAR SLET 252200Z 31014KT 7000 NSC 32/20 Q1006 A2973 HR49 FU NOSIG=@CAELT@
ZPX0719 252154@CAELT@GG SLZZYMYT@CAELT@252155 SLRQYSYX@CAELT@SABO SLRQ 252200@CAELT@METAR SLRQ 252200Z 00000KT 8000 NSC 33/27 Q1007 A2973 982.6 HR69 FU=@CAELT@
ZPX0720 252157@CAELT@GG SLZZYMYT@CAELT@252156 SLLPYGYZ@CAELT@SABO SLLP 252200@CAELT@METAR SLLP 252200Z 11011KT 080V150 9999 FEW023 14/M06 Q1036 A3060@CAELT@626.9 HR25 P90// FU NOSIG=@CAELT@
ZPX0721 252158@CAELT@GG SLZZYMYT@CAELT@252156 SLCOYGYZ@CAELT@SABO SLCO 252200@CAELT@METAR SLCO 252200Z 15003KT 8000 SCT033 35/24 Q1007 A2976 980.4 HR53@CAELT@
ZPX0722 252158@CAELT@GG SLZZYMYT@CAELT@252157 SLVRYGYS@CAELT@SABO SLVR 252200@CAELT@METAR SLVR 252200Z 33005KT 8000 NSC 32/22 Q1007 A2975 HR57 FU NOSIG=@CAELT@METAR SLET 252200Z 31014KT 7000 NSC 32/20 Q1006 A2973 HR49 FU NOSIG=@CAELT@METAR SLCP 252200Z 00000KT 7000 NSC 32/21 Q1012 A2988 HR48 FU RWY NML@CAELT@
ZPX0723 252158@CAELT@GG SLZZYMYT@CAELT@252158 SLTRYGYZ@CAELT@SABO SLTR 252200@CAELT@METAR SLTR 252200Z 32004KT 7000 NSC 34/23 Q1006 A2973 988.4@CAELT@HR54 FU NOSIG=@CAELT@
ZPX0724 252158@CAELT@GG SLZZYMYT@CAELT@252156 SLCBYGYZ@CAELT@SABO SLCB 252200@CAELT@METAR SLCB 252200Z 03010KT 9999 FEW040 25/02 Q1021 A3015 748.3 HR21@CAELT@FU NOSIG=@CAELT@
ZPX0727 252200@CAELT@GG SLZZYMYT@CAELT@252200 SLCBYGYS@CAELT@SABO SLCB 252200@CAELT@METAR SLCB 252200Z 03010KT 9999 FEW040 25/02 Q1021 A3015 748.3 HR21@CAELT@FU NOSIG=@CAELT@METAR SLVM 252200Z 36020G33KT 9999 NSC 39/21 Q0999 A2951 HR35 FU=@CAELT@
ZPX0728 252200@CAELT@GG SLZZYMYT@CAELT@252159 SLTRYGYS@CAELT@SABO SLTR 252200@CAELT@METAR SLTR 252200Z 32004KT 7000 NSC 34/23 Q1006 A2973 988.4 HR54 FU@CAELT@NOSIG=@CAELT@METAR SLGM 252200Z 36004KT 5000 FEW017 FEW020CB BKN080 BKN200 32/24@CAELT@Q1007 A2974 HR62 CB N/NE=@CAELT@METAR SLRI 252200Z 36005KT 8000 FEW017 SCT200 32/22 Q1008 A2978 HR55FU AC=METAR SLJO 252200Z NIL=METAR SLRA 252200Z NIL=METAR SLMG 252200Z NIL=METAR SLBU 252200Z NIL=METAR SLSA 252200Z 34004KT 5000 FU NSC 35/21 Q1007 A2974 HR44 CIRWY NML=METAR SLSR 252200Z NIL=METAR SLSM 252200Z NIL=
ZPX0730 252205@CAELT@GG SLZZYMYT@CAELT@252201 SLLPYFYA@CAELT@SABO SLLP 252200@CAELT@METAR SLLP 252200Z 11011KT 080V150 9999 FEW023 14/M06 Q1036 A3060@CAELT@626.9 HR25 P90// FU NOSIG=@CAELT@METAR SLCO 252200Z 15003KT 8000 SCT033 35/24 Q1007 A2976 980.4 HR53@CAELT@METAR SLRQ 252200Z 00000KT 8000 NSC 33/27 Q1007 A2973 982.6 HR69 FU=@CAELT@
ZPX0736 252255@CAELT@GG SLZZYMYT@CAELT@252255 SLVRYGYZ@CAELT@SABO SLVR 252300@CAELT@METAR SLVR 252300Z 35005KT 8000 NSC 28/20 Q1007 A2976 HR62 FU NOSIG=@CAELT@
ZPX0737 252256@CAELT@GG SLLPZRZX@CAELT@252255 SLLPYGYZ@CAELT@SABO SLLP 252300@CAELT@METAR SLLP 252300Z 12011KT 9999 FEW020 11/M08 Q1036 A3061 627.1@CAELT@HR25 NOSIG=@CAELT@
ZPX0738 252257@CAELT@GG SLZZYMYT@CAELT@252256 SLCBYGYZ@CAELT@SABO SLCB 252300@CAELT@METAR SLCB 252300Z 09010KT 050V150 9999 FEW036 22/04 Q1021 A3018 749.@CAELT@0 HR30 FU NOSIG=@CAELT@
ZPX0739 252300@CAELT@GG SLZZYMYT@CAELT@252258 SLCOYGYZ@CAELT@SABO SLCO 252300@CAELT@METAR SLCO 252300Z 00000KT 6000 SCT033 33/25 Q1008 A2977 980.7 HR61@CAELT@
ZPX0742 252304@CAELT@GG SLZZYMYT@CAELT@252301 SLLPYFYA@CAELT@SABO SLLP 252300@CAELT@METAR SLLP 252300Z 12011KT 9999 FEW020 11/M08 Q1036 A3061 627.1@CAELT@HR25 NOSIG=@CAELT@METAR SLCO 252300Z 00000KT 6000 SCT033 33/25 Q1008 A2977 980.7 HR61@CAELT@
ZPX0753 252351@CAELT@GG SLZZYMYT@CAELT@252352 SLVRYGYZ@CAELT@SABO SLVR 260000@CAELT@METAR SLVR 260000Z 33007KT 8000 NSC 29/22 Q1007 A2976 HR64 FU NOSIG=@CAELT@
