
ZPX0009 250053@CAELT@GG SLZZYMYT@CAELT@250054 SLVRYGYZ@CAELT@SABO SLVR 250100@CAELT@METAR SLVR 250100Z 34003KT 8000 NSC 28/23 Q1006 A2972 HR71 CI FU@CAELT@NOSIG=@CAELT@
ZPX0010 250054@CAELT@GG SLZZYMYT@CAELT@250054 SLCBYGYZ@CAELT@SABO SLCB 250100@CAELT@METAR SLCB 250100Z 14006KT 9999 FEW033 SCT200 22/06 Q1020 A3015 748.2@CAELT@HR35 AC FU NOSIG=@CAELT@
ZPX0011 250056@CAELT@GG SLLPZRZX@CAELT@250055 SLLPYGYZ@CAELT@SABO SLLP 250100@CAELT@METAR SLLP 250100Z VRB02KT 9999 FEW013 SCT200 10/M03 Q1036 A3061 627.@CAELT@0 HR40 AC NOSIG=@CAELT@
ZPX0018 250154@CAELT@GG SLZZYMYT@CAELT@250155 SLVRYGYZ@CAELT@SABO SLVR 250200@CAELT@METAR SLVR 250200Z 32005KT 8000 NSC 28/23 Q1007 A2975 HR71 CI FU@CAELT@NOSIG=@CAELT@
ZPX0019 250154@CAELT@GG SLZZYMYT@CAELT@250154 SLCBYGYZ@CAELT@SABO SLCB 250200@CAELT@METAR SLCB 250200Z 22003KT 9999 FEW033 SCT200 20/07 Q1021 A3018 749.0@CAELT@HR43 AC FU NOSIG=@CAELT@
ZPX0020 250156@CAELT@GG SLLPZRZX@CAELT@250155 SLLPYGYZ@CAELT@SABO SLLP 250200@CAELT@METAR SLLP 250200Z 06002KT 9999 FEW013 06/M01 Q1037 A3063 627.4 HR59@CAELT@AC/CI NOSIG=@CAELT@
ZPX0027 250254@CAELT@GG SLZZYMYT@CAELT@250254 SLCBYGYZ@CAELT@SABO SLCB 250300@CAELT@METAR SLCB 250300Z 13010KT 9999 FEW033 SCT080 BKN200 20/07 Q1022@CAELT@A3020 749.6 HR42 FU NOSIG=@CAELT@
ZPX0028 250256@CAELT@GG SLLPZRZX@CAELT@250255 SLLPYGYZ@CAELT@SABO SLLP 250300@CAELT@METAR SLLP 250300Z 28003KT 9999 FEW013 07/03 Q1037 A3064 627.6 HR76@CAELT@CI NOSIG=@CAELT@
ZPX0029 250257@CAELT@GG SLZZYMYT@CAELT@250258 SLVRYGYZ@CAELT@SABO SLVR 250300@CAELT@METAR SLVR 250300Z 32004KT 8000 NSC 27/23 Q1007 A2975 HR77 CI FU@CAELT@NOSIG=@CAELT@
ZPX0036 250354@CAELT@GG SLZZYMYT@CAELT@250354 SLCBYGYZ@CAELT@SABO SLCB 250400@CAELT@METAR SLCB 250400Z 13014KT 9999 FEW033 FEW036CB BKN080 20/09 Q1022@CAELT@A3020 749.6 HR47 CB/LT NW/N/NE FU CI NOSIG=@CAELT@
ZPX0037 250354@CAELT@GG SLZZYMYT@CAELT@250355 SLVRYGYZ@CAELT@SABO SLVR 250400@CAELT@METAR SLVR 250400Z 32007KT 8000 NSC 27/22 Q1006 A2971 HR73 CI FU@CAELT@NOSIG=@CAELT@
ZPX0038 250356@CAELT@GG SLLPZRZX@CAELT@250355 SLLPYGYZ@CAELT@SABO SLLP 250400@CAELT@METAR SLLP 250400Z 01004KT 9999 FEW013 FEW017CB 07/00 Q1037 A3064 627@CAELT@.6 HR58 CB/LT N/NE AC/CI NOSIG=@CAELT@
ZPX0045 250454@CAELT@GG SLZZYMYT@CAELT@250454 SLCBYGYZ@CAELT@SABO SLCB 250500@CAELT@METAR SLCB 250500Z 13013KT 9999 FEW033 SCT036CB BKN080 20/09 Q1022@CAELT@A3019 749.3 HR50 CB/LT SE/SW/NW/N/NE FU CI NOSIG=@CAELT@
ZPX0046 250455@CAELT@GG SLZZYMYT@CAELT@250456 SLVRYGYZ@CAELT@SABO SLVR 250500@CAELT@METAR SLVR 250500Z 33006KT 8000 NSC 27/23 Q1006 A2971 HR76 CI FU@CAELT@NOSIG=@CAELT@
ZPX0047 250456@CAELT@GG SLLPZRZX@CAELT@250455 SLLPYGYZ@CAELT@SABO SLLP 250500@CAELT@METAR SLLP 250500Z 03003KT 9999 FEW013 FEW017CB SCT200 06/M01 Q1036@CAELT@A3062 627.2 HR59 CB/LT N/NE AC NOSIG=@CAELT@
ZPX0057 250554@CAELT@GG SLZZYMYT@CAELT@250554 SLCBYGYZ@CAELT@SABO SLCB 250600@CAELT@METAR SLCB 250600Z 12006KT 9999 FEW033 FEW036CB SCT080 19/08 Q1022@CAELT@A3018 749.1 HR48 CB/LT SW/W/NW/N FU CI NOSIG=@CAELT@
ZPX0058 250555@CAELT@GG SLZZYMYT@CAELT@250556 SLVRYGYZ@CAELT@SABO SLVR 250600@CAELT@METAR SLVR 250600Z 34003KT 8000 NSC 26/23 Q1006 A2971 HR80 CI FU@CAELT@NOSIG=@CAELT@
ZPX0059 250556@CAELT@GG SLLPZRZX@CAELT@250555 SLLPYGYZ@CAELT@SABO SLLP 250600@CAELT@METAR SLLP 250600Z 02004KT 340V050 9999 FEW013 FEW017CB SCT200 07/M01@CAELT@Q1036 A3061 627.0 HR55 CB/LT N/NE AC NOSIG=@CAELT@
ZPX0066 250652@CAELT@GG SLZZYMYT@CAELT@250653 SLVRYGYZ@CAELT@SABO SLVR 250700@CAELT@METAR SLVR 250700Z 35005KT 8000 NSC 25/22 Q1005 A2970 HR82 FU CI@CAELT@NOSIG=@CAELT@
ZPX0067 250653@CAELT@GG SLZZYMYT@CAELT@250654 SLCBYGYZ@CAELT@SABO SLCB 250700@CAELT@METAR SLCB 250700Z 31007KT 9999 FEW033 FEW036CB SCT080 18/10 Q1022@CAELT@A3019 749.3 HR59 CB/LT SW/W/NW FU CI NOSIG=@CAELT@
ZPX0068 250656@CAELT@GG SLLPZRZX@CAELT@250656 SLLPYGYZ@CAELT@SABO SLLP 250700@CAELT@METAR SLLP 250700Z VRB02KT 9999 FEW004 FEW017CB BKN200 04/02 Q1035@CAELT@A3059 626.6 HR84 CB/LT N/NE AC NOSIG=@CAELT@
ZPX0075 250751@CAELT@GG SLZZYMYT@CAELT@250751 SLVRYGYZ@CAELT@SABO SLVR 250800@CAELT@METAR SLVR 250800Z 36004KT 8000 NSC 25/22 Q1006 A2973 HR83 FU CI@CAELT@NOSIG=@CAELT@
ZPX0076 250755@CAELT@GG SLZZYMYT@CAELT@250754 SLCBYGYZ@CAELT@SABO SLCB 250800@CAELT@METAR SLCB 250800Z 10003KT 9999 FEW030 BKN080 BKN200 18/11 Q1022@CAELT@A3020 749.5 HR64 FU NOSIG=@CAELT@
ZPX0077 250755@CAELT@GG SLLPZRZX@CAELT@250755 SLLPYGYZ@CAELT@SABO SLLP 250800@CAELT@METAR SLLP 250800Z VRB02KT 4000E VCFG FEW003 FEW017CB BKN200 04/03@CAELT@Q1035 A3059 626.5 HR90 VCFG NE/E/SE CB/LT N AC NOSIG=@CAELT@
ZPX0084 250850@CAELT@GG SLZZYMYT@CAELT@250851 SLVRYGYZ@CAELT@SABO SLVR 250900@CAELT@METAR SLVR 250900Z 35005KT 8000 NSC 24/21 Q1006 A2973 HR85 FU CI@CAELT@NOSIG=@CAELT@
ZPX0085 250856@CAELT@GG SLZZYMYT@CAELT@250855 SLCBYGYZ@CAELT@SABO SLCB 250900@CAELT@METAR SLCB 250900Z 00000KT 9999 FEW030 BKN070 BKN200 18/09 Q1023@CAELT@A3022 750.0 HR56 FU NOSIG=@CAELT@
ZPX0086 250856@CAELT@GG SLZZYMYT@CAELT@250856 SLTRYGYZ@CAELT@SABO SLTR 250900@CAELT@METAR SLTR 250900Z 33004KT 5000 FU FEW080 SCT200 27/23 Q1007 A2976@CAELT@989.3 HR78 NOSIG=@CAELT@
ZPX0087 250858@CAELT@GG SLLPZRZX@CAELT@250858 SLLPYGYZ@CAELT@SABO SLLP 250900@CAELT@METAR SLLP 250900Z VRB02KT 4000E VCFG FEW003 BKN200 04/03 Q1036 A3061@CAELT@627.0 HR92 VCFG NE/E/SE AC NOSIG=@CAELT@
ZPX0088 250859@CAELT@GG SLZZYMYT@CAELT@250858 SLTRYGYS@CAELT@SABO SLTR 250900@CAELT@METAR SLTR 250900Z 33004KT 5000 FU FEW080 SCT200 27/23 Q1007 A2976@CAELT@989.3 HR78 NOSIG=@CAELT@METAR SLRI 250900Z 36008KT 9999 SCT020 24/23 Q1009 A2983 HR96=@CAELT@
ZPX0096 250949@CAELT@GG SLZZYMYT@CAELT@242247 SLCAYGYS@CAELT@SABO SLCA 242300@CAELT@METAR SLCA 242300Z 00000KT 7000 TS VCSH BKN033 FEW040CB OVC070 24/20@CAELT@Q1009 A2980 HR75 CB/TS /SH S/SW FU RWY NML=@CAELT@
ZPX0097 250951@CAELT@GG SLZZYMYT@CAELT@250952 SLVRYGYZ@CAELT@SABO SLVR 251000@CAELT@METAR SLVR 251000Z 36008KT 5000 FU NSC 26/21 Q1007 A2976 HR77 FU@CAELT@NOSIG=@CAELT@
ZPX0098 250953@CAELT@GG SLZZYMYT@CAELT@250952 SLRYYSYX@CAELT@SABO SLRY 251000@CAELT@METAR SLRY 251000Z 00000KT 9999 NSC 22/22 Q1005 A2970 HR97 FU CI RWY@CAELT@NML=@CAELT@
ZPX0099 250954@CAELT@GG SLZZYMYT@CAELT@250953 SLRBYGYS@CAELT@SABO SLRB 251000@CAELT@METAR SLRB 251000Z 36004KT 8000 NSC 24/21 Q1010 A2983 HR85 FU CI RWY@CAELT@NML=@CAELT@
ZPX0100 250954@CAELT@GG SLZZYMYT@CAELT@250954 SLCBYGYZ@CAELT@SABO SLCB 251000@CAELT@METAR SLCB 251000Z 21003KT 9999 FEW030 BKN200 16/12 Q1023 A3023 750.4@CAELT@HR73 AC FU NOSIG=@CAELT@
ZPX0101 250954@CAELT@GG SLZZYMYT@CAELT@250954 SLCAYGYS@CAELT@SABO SLCA 251000@CAELT@METAR SLCA 251000Z 00000KT 9999 NSC 20/19 Q1011 A2985 HR91 FU RWY NML@CAELT@
ZPX0102 250954@CAELT@GG SLZZYMYT@CAELT@250955 SLRQYSYX@CAELT@SABO SLRQ 251000@CAELT@METAR SLRQ 251000Z 00000KT 9999 NSC 24/23 Q1007 A2975 HR94 FU CI=@CAELT@
ZPX0103 250956@CAELT@GG SLZZYMYT@CAELT@250955 SLSAYGYS@CAELT@SABO SLSA 251000@CAELT@METAR SLSA 251000Z 00000KT 6000 SCT020 BKN200 25/23 Q1007 A2976@CAELT@HR90 FU=@CAELT@
ZPX0104 250956@CAELT@GG SLZZYMYT@CAELT@250955 SLSAYGYS@CAELT@SABO SLSA 251000@CAELT@METAR SLSA 251000Z 00000KT 6000 SCT020 BKN200 25/23 Q1007 A2976@CAELT@HR90 FU=@CAELT@
ZPX0105 250956@CAELT@GG SLZZYMYT@CAELT@250956 SLTRYGYZ@CAELT@SABO SLTR 251000@CAELT@METAR SLTR 251000Z 33004KT 5000 FU FEW017 SCT200 27/23 Q1008 A2978@CAELT@990.0 HR79 NOSIG=@CAELT@
ZPX0106 250956@CAELT@GG SLZZYMYT@CAELT@250955 SLSBYSYX@CAELT@SABO SLSB 251000@CAELT@METAR SLSB 251000Z 00000KT 7000 NSC 24/24 Q1006 A2973 HR97 FU CI@CAELT@RWY NML=@CAELT@
ZPX0107 250957@CAELT@GG SLZZYMYT@CAELT@250955 SLETYMYC@CAELT@SABO SLET 251000@CAELT@METAR SLET 25100Z 34009KT 3500 FU FEW070 BKN200 26/21 Q1007 A2975@CAELT@HR74 NOSIG=@CAELT@
ZPX0108 250958@CAELT@GG SLZZYMYT@CAELT@250957 SLLPYGYZ@CAELT@SABO SLLP 251000@CAELT@METAR SLLP 251000Z 09003KT 3000E VCFG FEW003 FEW017CB BKN200 03/02@CAELT@Q1037 A3062 627.3 HR93 VCFG NE/E/SE CB/NE AC NOSIG=@CAELT@
ZPX0110 251000@CAELT@GG SLZZYMYT@CAELT@251000 SLLPYGYZ@CAELT@SABO SLLP 251000 CCA@CAELT@METAR COR SLLP 251000Z 09003KT 3000E VCFG FEW003 FEW017CB BKN200 03/@CAELT@02 Q1037 A3062 627.3 HR93 P4452 VCFG NE/E/SE CB/NE AC NOSIG=@CAELT@
ZPX0111 251000@CAELT@GG SLZZYMYT@CAELT@251000 SLLPYFYA@CAELT@SABO SLLP 251000@CAELT@METAR SLLP 251000Z 09003KT 3000E VCFG FEW003 FEW017CB BKN200@CAELT@03/02 Q1037 A3062 627.3 HR93 VCFG NE/E/SE CB/NE AC NOSIG=@CAELT@METAR SLRY 251000Z 00000KT 9999 NSC 22/22 Q1005 A2970 HR97@CAELT@FU CI RWY NML=@CAELT@METAR SLRQ 251000Z 00000KT 9999 NSC 24/23 Q1007 A2975 HR94FU CI=METAR SLSB 251000Z 00000KT 7000 NSC 24/24 Q1006 A2973 HR97
ZPX0112 251001@CAELT@GG SLZZYMYT@CAELT@251000 SLTRYGYS@CAELT@SABO SLTR 251000@CAELT@METAR SLTR 251000Z 33004KT 5000 FU FEW017 SCT200 27/23 Q1008 A2978@CAELT@990.0 HR79 NOSIG=@CAELT@METAR SLGM 251000Z 02012KT 6000 BKN080 25/24 Q1010 A2983 HR92 FU=@CAELT@METAR SLRI 251000Z 36010KT 9999 SCT015 FEW020CB BKN080 26/24@CAELT@Q1010 A2984 HR91 CB S/SW=METAR SLJO 251000Z 36005KT 7000 FEW020 OVC200 26/23 Q1009 A2981 HR84FU RWY NML=METAR SLRA 251000Z 36008KT 8000 SCT020 BKN200 26/24 Q1007 A2975 HR86METAR SLMG 251000Z 00000KT 8000 NSC 25/23 Q1007 A2975 HR88 FU CIRWY NML=METAR SLBU 251000Z NIL=METAR SLSA 251000Z 00000KT 6000 SCT020 BKN200 25/23 Q1007 A2976HR90 FU=METAR SLSR 251000Z 34010KT 8000 NSC 25/24 Q1006 A2971 HR92 FU CIMETAR SLSM 251000Z 00000KT 8000 NSC 28/23 Q1008 A2977 HR98 FU CI
