
ZPX0011 080055@CAELT@GG SLZZYMYT@CAELT@080056 SLVRYGYZ@CAELT@SABO SLVR 080100@CAELT@METAR SLVR 080100Z 33008KT 9000 NSC 29/22 Q1011 A2987 HR65 FU NOSIG=@CAELT@
ZPX0012 080055@CAELT@GG SLLPZRZX@CAELT@080055 SLLPYGYZ@CAELT@SABO SLLP 080100@CAELT@METAR SLLP 080100Z 10010KT 9999 FEW013 SCT200 07/M01 Q1040 A3073@CAELT@629.7 HR57 NOSIG=@CAELT@
ZPX0013 080056@CAELT@GG SLZZYMYT@CAELT@080055 SLCBYGYZ@CAELT@SABO SLCB 080100@CAELT@METAR SLCB 080100Z 17004KT 9999 NSC 17/01 Q1027 A3034 753.4 HR35 FU@CAELT@CI NOSIG=@CAELT@
ZPX0021 080154@CAELT@GG SLZZYMYT@CAELT@080155 SLVRYGYZ@CAELT@SABO SLVR 080200@CAELT@METAR SLVR 080200Z 33008KT 9000 NSC 28/22 Q1012 A2989 HR68 FU NOSIG=@CAELT@
ZPX0022 080155@CAELT@GG SLLPZRZX@CAELT@080155 SLLPYGYZ@CAELT@SABO SLLP 080200@CAELT@METAR SLLP 080200Z 12005KT 9999 FEW012 SCT200 05/00 Q1041 A3075@CAELT@630.3 HR69 NOSIG=@CAELT@
ZPX0023 080157@CAELT@GG SLZZYMYT@CAELT@080157 SLCBYGYZ@CAELT@SABO SLCB 080200@CAELT@METAR SLCB 080200Z 26003KT 9999 NSC 15/02 Q1028 A3038 754.2 HR41 FU@CAELT@NOSIG=@CAELT@
