
ZPX0006 020006@CAELT@GG SLZZYMYT@CAELT@020004 SLCBYGYS@CAELT@SABO SLCB 020000@CAELT@METAR SLCB 020000Z 29003KT 9999 FEW033 BKN200 18/08 Q1022 A3020 749.6@CAELT@HR51 FU AC NOSIG=@CAELT@METAR SLAL 020000Z 34006KT 9999 FEW015 SCT200 12/08 Q1027 A3034 702.5@CAELT@HR73=@CAELT@METAR SLTJ 020000Z 30004KT 9999 FEW027 FEW030CB SCT070 BKN200 21/16Q1015 A2999 811.3 HR71 CB/SW/W=
ZPX0020 020055@CAELT@GG SLZZYMYT@CAELT@020055 SLVRYGYZ@CAELT@SABO SLVR 020100@CAELT@METAR SLVR 020100Z 01005KT 9999 NSC 23/21 Q1010 A2984 HR88 CI NOSIG=@CAELT@
ZPX0021 020058@CAELT@GG SLLPZRZX@CAELT@020057 SLLPYGYZ@CAELT@SABO SLLP 020100@CAELT@METAR SLLP 020100Z 25009KT 9999 SCT012 FEW017CB BKN200 09/06 Q1037@CAELT@A3064 627.6 HR83 CB/LT NE/SW AC BECMG 4000E VCFG FEW003=@CAELT@
ZPX0022 020059@CAELT@GG SLZZYMYT@CAELT@020057 SLCBYGYZ@CAELT@SABO SLCB 020100@CAELT@METAR SLCB 020100Z 33004KT 9999 FEW033 BKN200 18/06 Q1022 A3020 749.5@CAELT@HR46 FU AC NOSIG=@CAELT@
ZPX0029 020155@CAELT@GG SLZZYMYT@CAELT@020155 SLVRYGYZ@CAELT@SABO SLVR 020200@CAELT@METAR SLVR 020200Z 36005KT 9999 NSC 23/21 Q1010 A2985 HR88 CI NOSIG=@CAELT@
ZPX0030 020156@CAELT@GG SLLPZRZX@CAELT@020155 SLLPYGYZ@CAELT@SABO SLLP 020200@CAELT@METAR SLLP 020200Z 26005KT 8000 -SHRA FEW003 SCT012 FEW017CB BKN200@CAELT@08/05 Q1037 A3065 627.9 HR85 CB/LT SE/S/SW AC NOSIG=@CAELT@
ZPX0031 020157@CAELT@GG SLZZYMYT@CAELT@020156 SLCBYGYZ@CAELT@SABO SLCB 020200@CAELT@METAR SLCB 020200Z 00000KT 9999 FEW033 BKN200 17/08 Q1022 A3018 749.1@CAELT@HR56 FU AC NOSIG=@CAELT@
ZPX0047 020255@CAELT@GG SLZZYMYT@CAELT@020255 SLVRYGYZ@CAELT@SABO SLVR 020300@CAELT@METAR SLVR 020300Z 34006KT 9999 NSC 23/21 Q1011 A2985 HR89 CI NOSIG=@CAELT@
ZPX0048 020257@CAELT@GG SLZZYMYT@CAELT@020256 SLCBYGYZ@CAELT@SABO SLCB 020300@CAELT@METAR SLCB 020300Z 13003KT 9999 FEW033 BKN200 17/08 Q1022 A3019 749.2@CAELT@HR53 FU NOSIG=@CAELT@
ZPX0049 020257@CAELT@GG SLLPZRZX@CAELT@020256 SLLPYGYZ@CAELT@SABO SLLP 020300@CAELT@METAR SLLP 020300Z 27003KT 4000E VCFG FEW003 BKN200 07/05 Q1037@CAELT@A3063 627.5 HR90 VCFG NE/E AC NOSIG=@CAELT@
ZPX0056 020355@CAELT@GG SLZZYMYT@CAELT@020355 SLCBYGYZ@CAELT@SABO SLCB 020400@CAELT@METAR SLCB 020400Z 12005KT 9999 FEW033 BKN200 17/08 Q1022 A3020 749.5@CAELT@HR55 FU AC NOSIG=@CAELT@
ZPX0057 020355@CAELT@GG SLZZYMYT@CAELT@020356 SLVRYGYZ@CAELT@SABO SLVR 020400@CAELT@METAR SLVR 020400Z 33009KT 9999 SCT006 BKN200 23/21 Q1010 A2985 HR92@CAELT@NOSIG=@CAELT@
ZPX0058 020356@CAELT@GG SLLPZRZX@CAELT@020355 SLLPYGYZ@CAELT@SABO SLLP 020400@CAELT@METAR SLLP 020400Z VRB02KT 9999 FEW012 BKN200 07/04 Q1037 A3062@CAELT@627.3 HR82 AC NOSIG=@CAELT@
ZPX0066 020456@CAELT@GG SLZZYMYT@CAELT@020455 SLVRYGYZ@CAELT@SABO SLVR 020500@CAELT@METAR SLVR 020500Z 34008KT 9999 SCT006 BKN200 23/21 Q1010 A2982 HR93@CAELT@NOSIG=@CAELT@
ZPX0067 020456@CAELT@GG SLLPZRZX@CAELT@020455 SLLPYGYZ@CAELT@SABO SLLP 020500@CAELT@METAR SLLP 020500Z VRB02KT 9999 FEW012 BKN200 07/04 Q1035 A3059@CAELT@626.5 HR80 AC NOSIG=@CAELT@
ZPX0069 020502@CAELT@GG SLZZYMYT@CAELT@020458 SLCBYGYZ@CAELT@SABO SLCB 020500@CAELT@METAR SLCB 020500Z 00000KT 9999 FEW033 BKN200 15/09 Q1021 A3018 749.0@CAELT@HR65 FU NOSIG=@CAELT@
ZPX0075 020555@CAELT@GG SLZZYMYT@CAELT@020555 SLVRYGYZ@CAELT@SABO SLVR 020600@CAELT@METAR SLVR 020600Z 33010KT 9999 FEW006 BKN200 22/21 Q1009 A2981 HR93@CAELT@NOSIG=@CAELT@
ZPX0076 020556@CAELT@GG SLZZYMYT@CAELT@020554 SLCBYGYZ@CAELT@SABO SLCB 020600@CAELT@METAR SLCB 020600Z 00000KT 9999 FEW033 BKN200 14/08 Q1021 A3017 748.9@CAELT@HR66 FU NOSIG=@CAELT@
ZPX0077 020557@CAELT@GG SLLPZRZX@CAELT@020556 SLLPYGYZ@CAELT@SABO SLLP 020600@CAELT@METAR SLLP 020600Z VRB02KT 9999 FEW012 BKN200 06/04 Q1035 A3057@CAELT@626.1 HR84 AC NOSIG=@CAELT@
ZPX0084 020653@CAELT@GG SLZZYMYT@CAELT@020654 SLVRYGYZ@CAELT@SABO SLVR 020700@CAELT@METAR SLVR 020700Z 33010KT 9999 FEW007 BKN200 22/21 Q1008 A2979 HR92@CAELT@NOSIG=@CAELT@
ZPX0085 020656@CAELT@GG SLZZYMYT@CAELT@020655 SLCBYGYZ@CAELT@SABO SLCB 020700@CAELT@METAR SLCB 020700Z 00000KT 9999 FEW033 BKN200 13/08 Q1021 A3016 748.5@CAELT@HR68 FU NOSIG=@CAELT@
ZPX0086 020657@CAELT@GG SLLPZRZX@CAELT@020656 SLLPYGYZ@CAELT@SABO SLLP 020700@CAELT@METAR SLLP 020700Z VRB02KT 4000E VCFG FEW003 SCT012 BKN200 06/04@CAELT@Q1034 A3056 625.9 HR87 VCFG NE/E/SE AC NOSIG=@CAELT@
ZPX0093 020751@CAELT@GG SLZZYMYT@CAELT@020752 SLVRYGYZ@CAELT@SABO SLVR 020800@CAELT@METAR SLVR 020800Z 33010KT 9999 SCT007 BKN200 22/21 Q1008 A2979 HR92@CAELT@NOSIG=@CAELT@
ZPX0094 020756@CAELT@GG SLZZYMYT@CAELT@020755 SLCBYGYZ@CAELT@SABO SLCB 020800@CAELT@METAR SLCB 020800Z 00000KT 9999 FEW033 BKN200 13/06 Q1021 A3016 748.5@CAELT@HR61 FU NOSIG=@CAELT@
ZPX0095 020757@CAELT@GG SLLPZRZX@CAELT@020756 SLLPYGYZ@CAELT@SABO SLLP 020800@CAELT@METAR SLLP 020800Z 06004KT 3000E VCFG FEW002 SCT010 BKN200 07/06@CAELT@Q1034 A3055 625.7 HR95 VCFG NE/E/SE AC NOSIG=@CAELT@
ZPX0104 020852@CAELT@GG SLZZYMYT@CAELT@020852 SLVRYGYZ@CAELT@SABO SLVR 020900@CAELT@METAR SLVR 020900Z 33009KT 9999 SCT006 BKN200 22/21 Q1008 A2979 HR94@CAELT@NOSIG=@CAELT@
ZPX0105 020853@CAELT@GG SLZZYMYT@CAELT@020852 SLPSYGYS@CAELT@SABO SLPS 020900@CAELT@METAR SLPS 020900Z 00000KT 9999 FEW012 BKN070 24/24 Q1009 A2980 HR100@CAELT@
ZPX0107 020856@CAELT@GG SLZZYMYT@CAELT@020855 SLTRYGYZ@CAELT@SABO SLTR 020900@CAELT@METAR SLTR 020900Z 00000KT 3000 BR BKN005 BKN080 23/22 Q1009 A2980@CAELT@990.7 HR97 NOSIG=@CAELT@
ZPX0110 020857@CAELT@GG SLZZYMYT@CAELT@020856 SLCBYGYZ@CAELT@SABO SLCB 020900@CAELT@METAR SLCB 020900Z 09005KT 9999 NSC 12/05 Q1021 A3017 748.8 HR61 FU@CAELT@CI NOSIG=@CAELT@
ZPX0111 020857@CAELT@GG SLLPZRZX@CAELT@020856 SLLPYGYZ@CAELT@SABO SLLP 020900@CAELT@METAR SLLP 020900Z 09004KT 4000E VCFG FEW002 SCT010 BKN200 05/05@CAELT@Q1034 A3056 625.8 HR98 VCFG NE/E/SE/S AC NOSIG=@CAELT@
ZPX0112 020858@CAELT@GG SLZZYMYT@CAELT@020858 SLTRYGYS@CAELT@SABO SLTR 020900@CAELT@METAR SLTR 020900Z 00000KT 3000 BR BKN005 BKN080 23/22 Q1009 A2980@CAELT@990.7 HR97 NOSIG=@CAELT@METAR SLRI 020900Z 00000KT 9999 BKN004 BKN080 23/23 Q1010 A2983@CAELT@HR98=@CAELT@
ZPX0129 020952@CAELT@GG SLZZYMYT@CAELT@020951 SLPSYGYS@CAELT@SABO SLPS 021000@CAELT@METAR SLPS 021000Z 12003KT 8000 FEW015 SCT070 BKN200 23/23 Q1009@CAELT@A2980 HR100 BR=@CAELT@
ZPX0131 020952@CAELT@GG SLZZYMYT@CAELT@020952 SLETYMYC@CAELT@SABO SLET 021000@CAELT@METAR SLET 021000Z 33015KT 9999 BKN006 22/21 Q1008 A2977 HR93 NOSIG=@CAELT@
ZPX0132 020952@CAELT@GG SLZZYMYT@CAELT@020953 SLVRYGYZ@CAELT@SABO SLVR 021000@CAELT@METAR SLVR 021000Z 33011KT 9999 BKN007 BKN200 22/21 Q1008 A2979 HR94@CAELT@NOSIG=@CAELT@
ZPX0133 020954@CAELT@GG SLZZYMYT@CAELT@020954 SLSAYGYS@CAELT@SABO SLSA 021000@CAELT@METAR SLSA 021000Z 00000KT 9999 BKN080 24/23 Q1008 A2979 HR96=@CAELT@
ZPX0134 020954@CAELT@GG SLZZYMYT@CAELT@020954 SLSBYSYX@CAELT@SABO SLSB 021000@CAELT@METAR SLSB 021000Z 00000KT 0300 FG VV/// 22/22 Q1009 A2982 HR100@CAELT@RWY WET OPR C210=@CAELT@
ZPX0135 020955@CAELT@GG SLZZYMYT@CAELT@020953 SLRBYGYS@CAELT@SABO SLRB 021000@CAELT@METAR SLRB 021000Z 00000KT 9999 NSC 22/20 Q1010 A2983 HR88 CI RWY NML=@CAELT@
ZPX0136 020955@CAELT@GG SLZZYMYT@CAELT@020955 SLTRYGYZ@CAELT@SABO SLTR 021000@CAELT@METAR SLTR 021000Z 00000KT 1000 BR BKN005 OVC070 23/23 Q1009 A2982@CAELT@991.3 HR98 NOSIG=@CAELT@
ZPX0137 020956@CAELT@GG SLZZYMYT@CAELT@020956 SLLPYGYZ@CAELT@SABO SLLP 021000@CAELT@METAR SLLP 021000Z 10004KT 4000E VCFG FEW002 SCT200 06/05 Q1035@CAELT@A3057 626.2 HR97 PINV/ VCFG N/NE/E/SE AC NOSIG=@CAELT@
ZPX0138 020956@CAELT@GG SLZZYMYT@CAELT@020956 SLCOYSYX@CAELT@SABO SLCO 021000@CAELT@METAR SLCO 021000Z 00000KT 9999 SCT003 BKN030 BKN080 23/23 Q1010@CAELT@A2985 983.5 HR99=@CAELT@
ZPX0139 020956@CAELT@GG SLZZYMYT@CAELT@020956 SLRQYSYX@CAELT@SABO SLRQ 021000@CAELT@METAR SLRQ 021000Z 00000KT 9999 FEW080 BKN200 22/22 Q1009 A2980 985.0@CAELT@HR98 =@CAELT@
ZPX0140 020956@CAELT@GG SLZZYMYT@CAELT@020956 SLCAYGYS@CAELT@SABO SLCA 021000@CAELT@METAR SLCA 021000Z 00000KT 9999 NSC 19/17 Q1009 A2980 HR93 RWY NML=@CAELT@
ZPX0141 020957@CAELT@GG SLZZYMYT@CAELT@020956 SLCBYGYZ@CAELT@SABO SLCB 021000@CAELT@METAR SLCB 021000Z 26003KT 9999 NSC 11/06 Q1022 A3019 749.2 HR69 FU@CAELT@CI NOSIG=@CAELT@
ZPX0142 020958@CAELT@GG SLZZYMYT@CAELT@020958 SLVRYFYC@CAELT@SABO SLVR 021000@CAELT@METAR SLVR 021000Z 33011KT 9999 BKN007 BKN200 22/21 Q1008 A2979@CAELT@HR94 NOSIG=@CAELT@METAR SLET 021000Z 33015KT 9999 BKN006 22/21 Q1008 A2977 HR93 NOSIG=@CAELT@METAR SLCP 021000Z 00000KT 9999 NSC 20/20 Q1013 A2991 HR99 RWY NML=@CAELT@METAR SLSI 021000Z 00000KT 9999 NSC 22/22 Q1014 A2994 HR95CI RWY NML=METAR SLRB 021000Z 00000KT 9999 NSC 22/20 Q1010 A2983 HR88METAR SLPS 021000Z 12003KT 8000 FEW015 SCT070 BKN200 23/23 Q1009A2980 HR100 BR=METAR SLCA 021000Z 00000KT 9999 NSC 19/17 Q1009 A2980 HR93 RWY NML=
ZPX0144 021001@CAELT@GG SLZZYMYT@CAELT@020957 SLLPYFYA@CAELT@SABO SLRY 021000@CAELT@METAR SLRY 021000Z 00000KT 9999 SCT070 21/21 Q1007 A2976 HR98@CAELT@RWY HUM OPR=@CAELT@
ZPX0145 021002@CAELT@GG SLZZYMYT@CAELT@020958 SLLPYFYA@CAELT@SABO SLUY 021000@CAELT@METAR SLUY 021000Z 02003KT 9999 NSC 04/M04 Q1031 A3045 656.4@CAELT@HR57 CI=@CAELT@
ZPX0147 021004@CAELT@GG SLZZYMYT@CAELT@021000 SLTRYGYS@CAELT@SABO SLTR 021000@CAELT@METAR SLTR 021000Z 00000KT 1000 BR BKN005 OVC070 23/23 Q1009 A2982@CAELT@991.3 HR98 NOSIG=@CAELT@METAR SLGM 021000Z 00000KT 9999 FEW015 BKN080 24/23 Q1009 A2979 HR96=@CAELT@METAR SLRI 021000Z 00000KT 2000 BR BKN004 BKN080 23/23 Q1010@CAELT@A2985 HR98=METAR SLJO 021000Z 00000KT 5000 BR FEW080 SCT200 23/23 Q1008 A2978HR98 RWY HUM OPR=METAR SLRA 021000Z 00000KT 0500 FG BKN003 OVC070 23/23 Q1009 A2981HR100 RWY HUM OPR=METAR SLMG 021000Z NIL=METAR SLBU 021000Z NIL=METAR SLSA 021000Z 00000KT 9999 BKN080 24/23 Q1008 A2979 HR96=METAR SLSR 021000Z NIL=METAR SLSM 021000Z NIL=
ZPX0148 021004@CAELT@GG SLZZYMYT@CAELT@021001 SLLPYFYA@CAELT@SABO SLLP 021000@CAELT@METAR SLLP 021000Z 10004KT 4000E VCFG FEW002 SCT200 06/05 Q1035@CAELT@A3057 626.2 HR97 PINV/ VCFG N/NE/E/SE AC NOSIG=@CAELT@METAR SLCO 021000Z 00000KT 9999 SCT003 BKN030 BKN080 23/23 Q1010@CAELT@A2985 983.5 HR99=@CAELT@METAR SLRY 021000Z 00000KT 9999 SCT070 21/21 Q1007 A2976 HR98 RWYHUM OPR=METAR SLRQ 021000Z 00000KT 9999 FEW080 BKN200 22/22 Q1009 A2980985.0 HR98=METAR SLAP 021000Z 00000KT 9999 BKN020 OVC070 17/16 Q1016 A3001857.2 HR96=METAR SLSB 021000Z 00000KT 0300 FG VV/// 22/22 Q1009 A2982 HR100RWY WET OPR C210=METAR SLUY 021000Z 02003KT 9999 NSC 04/M04 Q1031 A3045 656.4 HR57
ZPX0149 021004@CAELT@GG SLZZYMYT@CAELT@021002 SLCBYGYS@CAELT@SABO SLCB 021000@CAELT@METAR SLCB 021000Z 26003KT 9999 NSC 11/06 Q1022 A3019 749.2 HR69 FU@CAELT@CI NOSIG=@CAELT@METAR SLAL 021000Z 00000KT 9999 FEW070 SCT200 09/07 Q1025 A3027 700.9@CAELT@HR84=@CAELT@
ZPX0150 021008@CAELT@GG SLZZYMYT@CAELT@021008 SLTRYGYS@CAELT@SABO SLTR 021000 RRA@CAELT@METAR SLTR 021000Z 00000KT 1000 BR BKN005 OVC070 23/23 Q1009 A2982@CAELT@991.3 HR98 NOSIG=@CAELT@METAR SLGM 021000Z 00000KT 9999 FEW015 BKN080 24/23 Q1009 A2979 HR96=@CAELT@METAR SLRI 021000Z 00000KT 2000 BR BKN004 BKN080 23/23 Q1010@CAELT@A2985 HR98=METAR SLJO 021000Z 00000KT 5000 BR FEW080 SCT200 23/23 Q1008 A2978HR98 RWY HUM OPR=METAR SLRA 021000Z 00000KT 0500 FG BKN003 OVC070 23/23 Q1009 A2981HR100 RWY HUM OPR=METAR SLMG 021000Z NIL=METAR SLBU 021000Z NIL=METAR SLSA 021000Z 00000KT 9999 BKN080 24/23 Q1008 A2979 HR96=METAR RTD SLSR 021000Z 00000KT 9999 BKN080 24/23 Q1008 A2977 HR93RWY HUM OPR=METAR RTD SLSM 021000Z 00000KT 1000 BR FEW005 SCT080 22/22 Q1009A2982 HR100 RWY NML=
ZPX0151 021010@CAELT@GG SLZZYMYT@CAELT@021009 SLTRYGYS@CAELT@SABO SLTR 021000@CAELT@METAR SLTR 021000Z 00000KT 1000 BR BKN005 OVC070 23/23 Q1009 A2982@CAELT@991.3 HR98 NOSIG=@CAELT@METAR SLGM 021000Z 00000KT 9999 FEW015 BKN080 24/23 Q1009 A2979 HR96=@CAELT@METAR SLRI 021000Z 00000KT 2000 BR BKN004 BKN080 23/23 Q1010@CAELT@A2985 HR98=METAR SLJO 021000Z 00000KT 5000 BR FEW080 SCT200 23/23 Q1008 A2978HR98 RWY HUM OPR=METAR SLRA 021000Z 00000KT 0500 FG BKN003 OVC070 23/23 Q1009 A2981HR100 RWY HUM OPR=METAR SLMG 021000Z NIL=METAR SLBU 021000Z NIL=METAR SLSA 021000Z 00000KT 9999 BKN080 24/23 Q1008 A2979 HR96=METAR SLSR 021000Z 00000KT 9999 BKN080 24/23 Q1008 A2977 HR93RWY HUM OPR=METAR SLSM 021000Z 00000KT 1000 BR FEW005 SCT080 22/22 Q1009A2982 HR100 RWY NML=
ZPX0153 021021@CAELT@GG SLZZYMYT@CAELT@021021 SLCBYGYS@CAELT@SABO SLCB 021000 CCA@CAELT@METAR SLCB 021000Z 26003KT 9999 NSC 11/06 Q1022 A3019 749.2 HR69 FU@CAELT@CI NOSIG=@CAELT@METAR SLAL 021000Z 00000KT 9999 FEW070 SCT200 09/07 Q1025 A3027 700.9@CAELT@HR84=@CAELT@METAR COR SLVM 021000Z 00000KT 0050 FG VV/// 20/20 Q1005 A2969 HR97=
ZPX0156 021025@CAELT@GG SLZZYMYT@CAELT@021024 SLTRYGYS@CAELT@SABO SLTR 021000 RRB@CAELT@METAR SLTR 021000Z 00000KT 1000 BR BKN005 OVC070 23/23 Q1009 A2982@CAELT@991.3 HR98 NOSIG=@CAELT@METAR SLGM 021000Z 00000KT 9999 FEW015 BKN080 24/23 Q1009 A2979 HR96=@CAELT@METAR SLRI 021000Z 00000KT 2000 BR BKN004 BKN080 23/23 Q1010@CAELT@A2985 HR98=METAR SLJO 021000Z 00000KT 5000 BR FEW080 SCT200 23/23 Q1008 A2978HR98 RWY HUM OPR=METAR SLRA 021000Z 00000KT 0500 FG BKN003 OVC070 23/23 Q1009 A2981HR100 RWY HUM OPR=METAR RTD SLMG 021000Z 00000KT 9999 BKN080 23/23 Q1008 A2978 HR97RWY HUM OPR=METAR SLBU 021000Z NIL=METAR SLSA 021000Z 00000KT 9999 BKN080 24/23 Q1008 A2979 HR96=METAR SLSR 021000Z 00000KT 9999 BKN080 24/23 Q1008 A2977 HR93METAR SLSM 021000Z 00000KT 1000 BR FEW005 SCT080 22/22 Q1009A2982 HR100 RWY NML=
ZPX0176 021052@CAELT@GG SLZZYMYT@CAELT@021052 SLCAYGYS@CAELT@SABO SLCA 021100@CAELT@METAR SLCA 021100Z 00000KT 9999 NSC 20/18 Q1009 A2980 HR89 RWY NML=@CAELT@
ZPX0178 021052@CAELT@GG SLZZYMYT@CAELT@021053 SLVRYGYZ@CAELT@SABO SLVR 021100@CAELT@METAR SLVR 021100Z 33011KT 9999 FEW008 BKN200 24/22 Q1009 A2980 HR89@CAELT@NOSIG=@CAELT@
ZPX0179 021052@CAELT@GG SLZZYMYT@CAELT@021052 SLETYMYC@CAELT@SABO SLET 021100@CAELT@METAR SLET 021100Z 33018KT 9999 SCT010 BKN200 23/21 Q1008 A2978 HR89@CAELT@NOSIG=@CAELT@
ZPX0181 021053@CAELT@GG SLZZYMYT@CAELT@021053 SLPSYGYS@CAELT@SABO SLPS 021100@CAELT@METAR SLPS 021100Z 12004KT 8000 FEW008 BKN200 24/23 Q1010 A2983 HR98@CAELT@
ZPX0182 021054@CAELT@GG SLZZYMYT@CAELT@021054 SLCBYGYZ@CAELT@SABO SLCB 021100@CAELT@METAR SLCB 021100Z 00000KT 9999 NSC 16/07 Q1022 A3020 749.7 HR53 FU@CAELT@CI NOSIG=@CAELT@
ZPX0184 021055@CAELT@GG SLZZYMYT@CAELT@021055 SLRQYSYX@CAELT@SABO SLRQ 021100@CAELT@METAR SLRQ 021100Z 00000KT 9999 SCT080 24/23 Q1009 A2982 985.6 HR98@CAELT@
ZPX0185 021055@CAELT@GG SLZZYMYT@CAELT@021055 SLSBYSYX@CAELT@SABO SLSB 021100@CAELT@METAR SLSB 021100Z 00000KT 0500 FG VV/// 22/22 Q1010 A2984 HR99@CAELT@RWY WET OPR C210=@CAELT@
ZPX0186 021055@CAELT@GG SLZZYMYT@CAELT@021053 SLRBYGYS@CAELT@SABO SLRB 021100@CAELT@METAR SLRB 021100Z 00000KT 9999 NSC 26/22 Q1011 A2985 HR78 CI RWY NML=@CAELT@
ZPX0187 021055@CAELT@GG SLZZYMYT@CAELT@021055 SLSAYGYS@CAELT@SABO SLSA 021100@CAELT@METAR SLSA 021100Z 00000KT 9999 SCT008 BKN080 25/24 Q1009 A2980 HR94=@CAELT@
ZPX0188 021055@CAELT@GG SLZZYMYT@CAELT@021055 SLTRYGYZ@CAELT@SABO SLTR 021100@CAELT@METAR SLTR 021100Z 00000KT 1000 BR BKN005 BKN070 23/23 Q1010 A2983@CAELT@991.7 HR98 NOSIG=@CAELT@
ZPX0189 021056@CAELT@GG SLZZYMYT@CAELT@021055 SLAGYSYX@CAELT@SABO SLAG 021100@CAELT@METAR SLAG 021100Z 00000KT 9999 NSC 20/17 Q1011 A2986 883.9 HR84 CI=@CAELT@
ZPX0190 021056@CAELT@GG SLZZYMYT@CAELT@021055 SLCOYSYX@CAELT@SABO SLCO 021100@CAELT@METAR SLCO 021100Z 00000KT 9999 FEW003 BKN080 24/24 Q1010 A2985 983.3@CAELT@HR98=@CAELT@
ZPX0191 021056@CAELT@GG SLZZYMYT@CAELT@021056 SLLPYGYZ@CAELT@SABO SLLP 021100@CAELT@METAR SLLP 021100Z 10005KT 4000E VCFG FEW002 SCT012 07/06 Q1035@CAELT@A3059 626.5 HR92 PINV/ VCFG N/NE/E/SE AC/CI NOSIG=@CAELT@
ZPX0192 021057@CAELT@GG SLZZYMYT@CAELT@021056 SLVRYFYC@CAELT@SABO SLVR 021100@CAELT@METAR SLVR 021100Z 33011KT 9999 FEW008 BKN200 24/22 Q1009@CAELT@A2980 HR89 NOSIG=@CAELT@METAR SLET 021100Z 33018KT 9999 SCT010 BKN200 23/21 Q1008@CAELT@A2978 HR89@CAELT@NOSIG=METAR SLAS 021100Z 00000KT 6000 SCT012 OVC200 23/23 Q1012 A2989HR98 BR RWY NML=METAR SLJV 021100Z 00000KT 9999 NSC 21/21 Q1010 A2983 HR97CI RWY NML=METAR SLCP 021100Z 00000KT 9999 NSC 21/20 Q1013 A2991 HR95METAR SLSI 021100Z 00000KT 9999 NSC 24/22 Q1013 A2991 HR86METAR SLTI 021100Z 00000KT 9999 NSC 28/24 Q1013 A2991 HR77 RWY NML=METAR SLJE 021100Z 00000KT 9999 NSC 24/22 Q1012 A2988 HR84METAR SLVG 021100Z 00000KT 9999 NSC 14/12 Q1021 A3015 HR90METAR SLRB 021100Z 00000KT 9999 NSC 26/22 Q1011 A2985 HR78METAR SLPS 021100Z 12004KT 8000 FEW008 BKN200 24/23 Q1010 A2983HR98 BR=METAR SLCA 021100Z 00000KT 9999 NSC 20/18 Q1009 A2980 HR89 RWY NML=
ZPX0193 021057@CAELT@GG SLZZYMYT@CAELT@021056 SLORYGYZ@CAELT@SABO SLOR 021100@CAELT@METAR SLOR 021100Z 00000KT 1500N FU FEW070 05/03 Q1033 A3052 655.0@CAELT@HR84 VIS RED N/NE/E/SE/S RESTO 5000 CI=@CAELT@
ZPX0194 021058@CAELT@GG SLZZYMYT@CAELT@021057 SLTJYGYZ@CAELT@SABO SLTJ 021100@CAELT@METAR SLTJ 021100Z 00000KT 9999 FEW015 18/16 Q1014 A2994 809.9 HR85@CAELT@
ZPX0195 021059@CAELT@GG SLZZYMYT@CAELT@021059 SLCBYGYS@CAELT@SABO SLCB 021100@CAELT@METAR SLCB 021100Z 00000KT 9999 NSC 16/07 Q1022 A3020 749.7 HR53 FU@CAELT@CI NOSIG=@CAELT@METAR SLAL 021100Z 00000KT 9999 NSC 13/08 Q1026 A3030 701.5 HR71 CI=@CAELT@METAR SLPO 021100Z 23004KT 9999 NSC 07/03 Q1034 A3053 635.3 HR76 CI=@CAELT@METAR SLAG 021100Z 00000KT 9999 NSC 20/17 Q1011 A2986 883.9 HR84 CI=METAR SLVM 021100Z 00000KT 1500 BCFG NSC 22/21 Q1006 A2971 HR97 CI FGN/NE/E=METAR SLTJ 021100Z 00000KT 9999 FEW015 18/16 Q1014 A2994 809.9 HR85
ZPX0197 021100@CAELT@GG SLZZYMYT@CAELT@021100 SLTRYGYS@CAELT@SABO SLTR 021100@CAELT@METAR SLTR 021100Z 00000KT 1000 BR BKN005 BKN070 23/23 Q1010 A2983@CAELT@991.7 HR98 NOSIG=@CAELT@METAR SLGM 021100Z 00000KT 9999 FEW015 BKN080 24/23 Q1010 A2982 HR94=@CAELT@METAR SLRI 021100Z 00000KT 2000 BR SCT004 BKN080 23/23 Q1011 A2988@CAELT@HR98=METAR SLJO 021100Z 00000KT 5000 BR FEW003 SCT200 23/23 Q1008 A2979HR98 AC RWY HUM OPR=METAR SLRA 021100Z 00000KT 0800 FG BKN003 OVC070 23/23 Q1009 A2981HR100 RWY HUM OPR=METAR SLMG 021100Z 00000KT 9999 FEW007 BKN080 24/23 Q1009 A2980 HR96RWY HUM OPR=METAR SLBU 021100Z NIL=METAR SLSA 021100Z 00000KT 9999 SCT008 BKN080 25/24 Q1009 A2980 HR94=METAR SLSR 021100Z 00000KT 9999 BKN080 24/23 Q1009 A2980 HR93METAR SLSM 021100Z 00000KT 1000 BR FEW005 SCT080 22/22 Q1010 A2983HR100 RWY NML=
ZPX0198 021101@CAELT@GG SLZZYMYT@CAELT@021101 SLCBYGYS@CAELT@ABO SLCB 021100@CAELT@METAR SLCB 021100Z 00000KT 9999 NSC 16/07 Q1022 A3020 749.7 HR53 FU@CAELT@CI NOSIG=@CAELT@METAR SLAL 021100Z 00000KT 9999 NSC 13/08 Q1026 A3030 701.5 HR71 CI=@CAELT@METAR SLPO 021100Z 23004KT 9999 NSC 07/03 Q1034 A3053 635.3 HR76 CI=@CAELT@METAR SLAG 021100Z 00000KT 9999 NSC 20/17 Q1011 A2986 883.9 HR84 CI=METAR SLVM 021100Z 00000KT 1500 BCFG NSC 22/21 Q1006 A2971 HR97 CI FGN/NE/E=METAR SLTJ 021100Z 00000KT 9999 FEW015 18/16 Q1014 A2994 809.9 HR85METAR SLYA 021100Z 00000KT 9999 NSC 25/23 Q1006 A2973 932.0 HR91 CI=
ZPX0199 021101@CAELT@GG SLZZYMYT@CAELT@021101 SLLPYFYA@CAELT@SABO SLUY 021100@CAELT@METAR SLUY 021100Z 01005KT 9999 NSC 08/00 Q1031 A3047 656.8 HR53@CAELT@
ZPX0201 021102@CAELT@GG SLZZYMYT@CAELT@021102 SLCBYGYS@CAELT@SABO SLCB 021100@CAELT@METAR SLCB 021100Z 00000KT 9999 NSC 16/07 Q1022 A3020 749.7 HR53 FU@CAELT@CI NOSIG=@CAELT@METAR SLAL 021100Z 00000KT 9999 NSC 13/08 Q1026 A3030 701.5 HR71 CI=@CAELT@METAR SLPO 021100Z 23004KT 9999 NSC 07/03 Q1034 A3053 635.3 HR76 CI=@CAELT@METAR SLAG 021100Z 00000KT 9999 NSC 20/17 Q1011 A2986 883.9 HR84 CI=METAR SLVM 021100Z 00000KT 1500 BCFG NSC 22/21 Q1006 A2971 HR97 CI FGN/NE/E=METAR SLTJ 021100Z 00000KT 9999 FEW015 18/16 Q1014 A2994 809.9 HR85METAR SLYA 021100Z 00000KT 9999 NSC 25/23 Q1006 A2973 932.0 HR91 CI=
ZPX0203 021103@CAELT@GG SLZZYMYT@CAELT@021102 SLLPYFYA@CAELT@SABO SLLP 021100@CAELT@METAR SLLP 021100Z 10005KT 4000E VCFG FEW002 SCT012 07/06 Q1035@CAELT@A3059 626.5 HR92 PINV/ VCFG N/NE/E/SE AC/CI NOSIG=@CAELT@METAR SLCO 021100Z 00000KT 9999 FEW003 BKN080 24/24 Q1010 A2985@CAELT@983.3 HR98=@CAELT@METAR SLRY 021100Z NIL=METAR SLRQ 021100Z 00000KT 9999 SCT080 24/23 Q1009 A2982 985.6HR98 CI=METAR SLAP 021100Z 00000KT 9999 FEW004 SCT020 BKN070 18/17 Q1016A3003 857.6 HR95=METAR SLSB 021100Z 00000KT 0500 FG VV/// 22/22 Q1010 A2984 HR99RWY WET OPR C210=METAR SLOR 021100Z 00000KT 1500N FU FEW070 05/03 Q1033 A3052 655.0HR84 VIS RED N/NE/E/SE/S RESTO 5000 CI=METAR SLUY 021100Z 01005KT 9999 NSC 08/00 Q1031 A3047 656.8 HR53
ZPX0209 021107@CAELT@GG SLZZYMYT@CAELT@021107 SLLPYFYA@CAELT@SABO SLRY 021100 RRA@CAELT@METAR RTD SLRY 021100Z 00000KT 9999 SCT070 22/22 Q1008 A2977 HR98@CAELT@RWY HUM OPR=@CAELT@
ZPX0210 021107@CAELT@GG SLZZYMYT@CAELT@021107 SLLPYFYA@CAELT@SABO SLLP 021100 RRA@CAELT@METAR SLLP 021100Z 10005KT 4000E VCFG FEW002 SCT012 07/06 Q1035@CAELT@A3059 626.5 HR92 PINV/ VCFG N/NE/E/SE AC/CI NOSIG=@CAELT@METAR SLCO 021100Z 00000KT 9999 FEW003 BKN080 24/24 Q1010 A2985@CAELT@983.3 HR98=@CAELT@METAR RTD SLRY 021100Z 00000KT 9999 SCT070 22/22 Q1008 A2977 HR98RWY HUM OPR=METAR SLRQ 021100Z 00000KT 9999 SCT080 24/23 Q1009 A2982 985.6HR98 CI=METAR SLAP 021100Z 00000KT 9999 FEW004 SCT020 BKN070 18/17 Q1016A3003 857.6 HR95=METAR SLSB 021100Z 00000KT 0500 FG VV/// 22/22 Q1010 A2984 HR99RWY WET OPR C210=METAR SLOR 021100Z 00000KT 1500N FU FEW070 05/03 Q1033 A3052 655.0HR84 VIS RED N/NE/E/SE/S RESTO 5000 CI=METAR SLUY 021100Z 01005KT 9999 NSC 08/00 Q1031 A3047 656.8 HR53
ZPX0243 021153@CAELT@GG SLZZYMYT@CAELT@021153 SLVRYGYZ@CAELT@SABO SLVR 021200@CAELT@METAR SLVR 021200Z 35012KT 9999 FEW010 BKN200 26/23 Q1010 A2982 HR85@CAELT@NOSIG=@CAELT@
ZPX0244 021153@CAELT@GG SLZZYMYT@CAELT@021152 SLPSYGYS@CAELT@SABO SLPS 021200@CAELT@METAR SLPS 021200Z 12004KT 9999 FEW015 BKN200 27/25 Q1011 A2986 HR92=@CAELT@
ZPX0245 021154@CAELT@GG SLZZYMYT@CAELT@021153 SLRBYGYS@CAELT@SABO SLRB 021200@CAELT@METAR SLRB 021200Z 00000KT 9999 NSC 29/22 Q1012 A2988 HR67 CI RWY NML=@CAELT@
ZPX0246 021154@CAELT@GG SLZZYMYT@CAELT@021154 SLSBYSYX@CAELT@SABO SLSB 021200@CAELT@METAR SLSB 021200Z 00000KT 9999 SCT010 BKN080 24/23 Q1011 A2986 HR93@CAELT@REFG RWY WET OPR C210=@CAELT@
ZPX0247 021155@CAELT@GG SLZZYMYT@CAELT@021155 SLORYGYZ@CAELT@SABO SLOR 021200@CAELT@METAR SLOR 021200Z 02003KT 9999 FEW017 10/03 Q1034 A3055 655.7 HR61@CAELT@FU AC=@CAELT@
ZPX0249 021155@CAELT@GG SLZZYMYT@CAELT@021154 SLTJYGYZ@CAELT@SABO SLTJ 021200@CAELT@METAR SLTJ 021200Z 00000KT 9999 FEW020 21/16 Q1014 A2995 810.1 HR78=@CAELT@
ZPX0250 021155@CAELT@GG SLZZYMYT@CAELT@021155 SLRQYSYX@CAELT@SABO SLRQ 021200@CAELT@METAR SLRQ 021200Z 00000KT 9999 BKN080 25/24 Q1010 A2985 986.7 HR96@CAELT@
ZPX0251 021155@CAELT@GG SLZZYMYT@CAELT@021104 SLETYMYC@CAELT@SABO SLET 021200@CAELT@METAR SLET 021200Z 31013G24KT 9999 SCT010 SCT200 25/21 Q1009 A2981@CAELT@HR82 NOSIG=@CAELT@
ZPX0252 021156@CAELT@GG SLZZYMYT@CAELT@021155 SLAGYSYX@CAELT@SABO SLAG 021200@CAELT@METAR SLAG 021200Z 00000KT 9999 NSC 23/18 Q1011 A2987 884.2 HR71 CI=@CAELT@
ZPX0253 021156@CAELT@GG SLZZYMYT@CAELT@021156 SLTRYGYZ@CAELT@SABO SLTR 021200@CAELT@METAR SLTR 021200Z 30003KT 8000 SCT005 SCT080 25/24 Q1010 A2985@CAELT@992.3 HR94 BR NOSIG=@CAELT@
ZPX0254 021157@CAELT@GG SLZZYMYT@CAELT@021156 SLSAYGYS@CAELT@SABO SLSA 021200@CAELT@METAR SLSA 021200Z 00000KT 9999 SCT015 BKN080 27/24 Q1010 A2983 HR84=@CAELT@
ZPX0256 021157@CAELT@GG SLZZYMYT@CAELT@021156 SLCAYGYS@CAELT@SABO SLCA 021200@CAELT@METAR SLCA 021200Z 00000KT 9999 NSC 25/18 Q1010 A2983 HR64 CS RWY NML@CAELT@
ZPX0258 021158@CAELT@GG SLZZYMYT@CAELT@021158 SLLPYGYZ@CAELT@SABO SLLP 021200@CAELT@METAR SLLP 021200Z 08004KT 6000 FEW003 SCT012 08/05 Q1036 A3061@CAELT@627.0 HR82 P92// VIS/RED ST/BJOS NE/E/SE AC/CI NOSIG=@CAELT@
ZPX0259 021158@CAELT@GG SLZZYMYT@CAELT@021157 SLCBYGYZ@CAELT@SABO SLCB 021200@CAELT@METAR SLCB 021200Z 12003KT 9999 FEW036 20/06 Q1023 A3022 750.0 HR39@CAELT@FU NOSIG=@CAELT@
ZPX0261 021159@CAELT@GG SLZZYMYT@CAELT@021159 SLVRYFYC@CAELT@SABO SLVR 021200@CAELT@METAR SLVR 021200Z 35012KT 9999 FEW010 BKN200 26/23 Q1010 A2982 HR85@CAELT@NOSIG=@CAELT@METAR SLET 021200Z 31013G24KT 9999 SCT010 SCT200 25/21 Q1009 A2981@CAELT@HR82 NOSIG=@CAELT@METAR SLAS 021200Z 00000KT 6000 BKN012 OVC200 25/24 Q1012 A2989 HR92BR RWY NML=METAR SLJV 021200Z 03005KT 9999 NSC 23/22 Q1010 A2983 HR95 CI RWY NMLMETAR SLCP 021200Z 00000KT 9999 NSC 23/21 Q1014 A2994 HR92 CI RWY NMLMETAR SLSI 021200Z 00000KT 9999 NSC 26/22 Q1012 A2988 HR75 RWY NML=METAR SLTI 021200Z 00000KT 9999 NSC 30/23 Q1014 A2994 HR67 RWY NML=METAR SLJE 021200Z 00000KT 9999 NSC 27/22 Q1013 A2991 HR76 CI RWY NMLMETAR SLVG 021200Z 00000KT 9999 NSC 16/13 Q1021 A3015 HR76 CI RWY NMLMETAR SLRB 021200Z 00000KT 9999 NSC 29/22 Q1012 A2988 HR67 CI RWY NMLMETAR SLPS 021200Z 12004KT 9999 FEW015 BKN200 27/25 Q1011 A2986 HR92=METAR SLCA 021200Z 00000KT 9999 NSC 25/18 Q1010 A2983 HR64 CS RWY NML
ZPX0263 021159@CAELT@GG SLZZYMYT@CAELT@021159 SLTRYGYS@CAELT@SABO SLTR 021200@CAELT@METAR SLTR 021200Z 30003KT 8000 SCT005 SCT080 25/24 Q1010 A2985@CAELT@992.3 HR94 BR NOSIG=@CAELT@METAR SLGM 021200Z 00000KT 9999 FEW020 FEW023CB BKN080 26/24 Q1010@CAELT@A2985 HR90 CB N=@CAELT@METAR SLRI 021200Z 00000KT 9999 BKN004 BKN080 24/23 Q1012 A2989 HR92=METAR SLJO 021200Z 00000KT 9999 FEW004 BKN080 24/23 Q1010 A2985 HR94RWY HUM OPR=METAR SLRA 021200Z 00000KT 9999 SCT008 BKN080 25/24 Q1010 A2984 HR96METAR SLMG 021200Z 32004KT 9999 SCT008 BKN080 24/23 Q1010 A2982 HR96METAR SLBU 021200Z 00000KT 9999 FEW020 BKN080 25/24 Q1010 A2984 HR90RWY NML=METAR SLSA 021200Z 00000KT 9999 SCT015 BKN080 27/24 Q1010 A2983 HR84=METAR SLSR 021200Z 00000KT 9999 FEW017 SCT080 24/23 Q1009 A2982 HR92
ZPX0266 021200@CAELT@GG SLZZYMYT@CAELT@021200 SLCBYGYS@CAELT@SABO SLCB 021200@CAELT@METAR SLCB 021200Z 12003KT 9999 FEW036 20/06 Q1023 A3022 750.0 HR39@CAELT@FU NOSIG=@CAELT@METAR SLAL 021200Z 00000KT 9999 NSC 15/08 Q1026 A3030 701.8 HR61 CI=@CAELT@METAR SLPO 021200Z 24008KT 9999 NSC 09/02 Q1034 A3053 635.4 HR62 CI=@CAELT@METAR SLAG 021200Z 00000KT 9999 NSC 23/18 Q1011 A2987 884.2 HR71 CI=METAR SLVM 021200Z 00000KT 9999 FEW010 24/21 Q1006 A2971 HR80 CI=METAR SLTJ 021200Z 00000KT 9999 FEW020 21/16 Q1014 A2995 810.1 HR78=METAR SLYA 021200Z 21008KT 9999 FEW018 SCT200 26/23 Q1007 A2974 932.3HR82=METAR SLBJ 021200Z NIL=METAR SLHI 021200Z NIL=
ZPX0270 021205@CAELT@GG SLZZYMYT@CAELT@021205 SLLPYFYA@CAELT@SABO SLLP 021200@CAELT@METAR SLLP 021200Z 08004KT 6000 FEW003 SCT012 08/05 Q1036 A3061@CAELT@627.0 HR82 P92// VIS/RED ST/BJOS NE/E/SE AC/CI NOSIG=@CAELT@METAR SLRY 021200Z 00000KT 9999 BKN070 25/23 Q1009 A2980 HR89@CAELT@RWY HUM OPR=@CAELT@METAR SLRQ 021200Z 00000KT 9999 BKN080 25/24 Q1010 A2985 986.7HR96 CI=METAR SLCO 021200Z 08003KT 9999 BKN003 BKN080 25/24 Q1011 A2987984.0 HR94=METAR SLAP 021200Z 00000KT 9999 SCT015 20/18 Q1017 A3004 858.1 HR87AC=METAR SLSB 021200Z 00000KT 9999 SCT010 BKN080 24/23 Q1011 A2986HR93 REFG RWY WET OPR C210=METAR SLOR 021200Z 02003KT 9999 FEW017 10/03 Q1034 A3055 655.7 HR61FU AC=METAR SLUY 021200Z 33010KT 9999 NSC 12/M00 Q1032 A3049 657,3 HR43=
ZPX0271 021206@CAELT@GG SLZZYMYT@CAELT@021159 SLTRYGYS@CAELT@SABO SLTR 021200@CAELT@METAR SLTR 021200Z 30003KT 8000 SCT005 SCT080 25/24 Q1010 A2985@CAELT@992.3 HR94 BR NOSIG=@CAELT@METAR SLGM 021200Z 00000KT 9999 FEW020 FEW023CB BKN080 26/24 Q1010@CAELT@A2985 HR90 CB N=@CAELT@METAR SLRI 021200Z 00000KT 9999 BKN004 BKN080 24/23 Q1012 A2989 HR92=METAR SLJO 021200Z 00000KT 9999 FEW004 BKN080 24/23 Q1010 A2985 HR94RWY HUM OPR=METAR SLRA 021200Z 00000KT 9999 SCT008 BKN080 25/24 Q1010 A2984 HR96METAR SLMG 021200Z 32004KT 9999 SCT008 BKN080 24/23 Q1010 A2982 HR96METAR SLBU 021200Z 00000KT 9999 FEW020 BKN080 25/24 Q1010 A2984 HR90RWY NML=METAR SLSA 021200Z 00000KT 9999 SCT015 BKN080 27/24 Q1010 A2983 HR84=METAR SLSR 021200Z 00000KT 9999 FEW017 SCT080 24/23 Q1009 A2982 HR92METAR SLSM 021200Z 00000KT 9999 FEW013 SCT080 25/24 Q1010 A2984 HR96
ZPX0299 021253@CAELT@GG SLZZYMYT@CAELT@021252 SLPSYGYS@CAELT@SABO SLPS 021300@CAELT@METAR SLPS 021300Z 12006KT 9999 NSC 29/26 Q1011 A2986 HR87 CI=@CAELT@
ZPX0300 021254@CAELT@GG SLZZYMYT@CAELT@021253 SLCAYGYS@CAELT@SABO SLCA 021300@CAELT@METAR SLCA 021300Z 12008KT 9999 NSC 28/17 Q1010 A2983 HR52 CS RWY NML@CAELT@
ZPX0301 021254@CAELT@GG SLZZYMYT@CAELT@021254 SLVRYGYZ@CAELT@SABO SLVR 021300@CAELT@METAR SLVR 021300Z 34012G23KT 9999 FEW017 SCT200 27/22 Q1010 A2983@CAELT@HR74 NOSIG=@CAELT@
ZPX0302 021254@CAELT@GG SLZZYMYT@CAELT@021253 SLRBYGYS@CAELT@SABO SLRB 021300@CAELT@METAR SLRB 021300Z 00000KT 9999 NSC 31/23 Q1012 A2988 HR60 CI RWY NML=@CAELT@
ZPX0303 021254@CAELT@GG SLZZYMYT@CAELT@021255 SLRQYSYX@CAELT@SABO SLRQ 021300@CAELT@METAR SLRQ 021300Z 00000KT 9999 FEW012 BKN080 25/25 Q1011 A2987 987.3@CAELT@HR95 CI=@CAELT@
ZPX0304 021254@CAELT@GG SLZZYMYT@CAELT@021254 SLSBYSYX@CAELT@SABO SLSB 021300@CAELT@METAR SLSB 021300Z 00000KT 9999 BKN080 27/24 Q1011 A2988 HR85@CAELT@RWY WET OPR C210=@CAELT@
ZPX0305 021255@CAELT@GG SLZZYMYT@CAELT@021255 SLTRYGYZ@CAELT@SABO SLTR 021300@CAELT@METAR SLTR 021300Z 30005KT 9999 FEW015 28/24 Q1011 A2986 992.7 HR78@CAELT@AC NOSIG=@CAELT@
ZPX0306 021255@CAELT@GG SLZZYMYT@CAELT@021255 SLAGYSYX@CAELT@SABO SLAG 021300@CAELT@METAR SLAG 021300Z 02008KT 9999 NSC 27/15 Q1011 A2986 883.8 HR48 CI=@CAELT@
ZPX0308 021255@CAELT@GG SLZZYMYT@CAELT@021255 SLORYGYZ@CAELT@SABO SLOR 021300@CAELT@METAR SLOR 021300Z 34003KT 9999 SCT017 12/03 Q1034 A3055 655.6 HR56@CAELT@
ZPX0309 021256@CAELT@GG SLZZYMYT@CAELT@021254 SLSAYGYS@CAELT@SABO SLSA 021300@CAELT@METAR SLSA 021300Z 34006KT 9999 BKN017 29/23 Q1010 A2984 HR71 AC=@CAELT@
ZPX0310 021256@CAELT@GG SLZZYMYT@CAELT@021255 SLTJYGYZ@CAELT@SABO SLTJ 021300@CAELT@METAR SLTJ 021300Z 15004KT 9999 FEW020 22/16 Q1014 A2995 810.0 HR71=@CAELT@
ZPX0311 021256@CAELT@GG SLZZYMYT@CAELT@021252 SLETYMYC@CAELT@SABO SLET 021300@CAELT@METAR SLET 021300Z 32013G24KT 9999 FEW015 SCT200 27/21 Q1009 A2981@CAELT@HR69 NOSIG=@CAELT@
ZPX0312 021256@CAELT@GG SLZZYMYT@CAELT@021256 SLCBYGYZ@CAELT@SABO SLCB 021300@CAELT@METAR SLCB 021300Z 00000KT 9999 FEW036 22/06 Q1022 A3020 749.7 HR35@CAELT@FU NOSIG=@CAELT@
ZPX0313 021257@CAELT@GG SLZZYMYT@CAELT@021255 SLLPYGYZ@CAELT@SABO SLLP 021300@CAELT@METAR SLLP 021300Z VRB02KT 8000 FEW006 SCT015 12/05 Q1037 A3063@CAELT@627.4 HR64 P94// VIS/RED SC/BAJOS NE/E/SE AC NOSIG=@CAELT@
ZPX0317 021259@CAELT@GG SLZZYMYT@CAELT@021259 SLCBYGYS@CAELT@SABO SLCB 021300@CAELT@METAR SLCB 021300Z 00000KT 9999 FEW036 22/06 Q1022 A3020 749.7 HR35@CAELT@FU NOSIG=@CAELT@METAR SLAL 021300Z 01007KT 9999 NSC 17/08 Q1026 A3032 702.0 HR57 CI=@CAELT@METAR SLPO 021300Z 00000KT 9999 NSC 13/03 Q1034 A3055 635.7 HR53 CI=@CAELT@METAR SLAG 021300Z 02008KT 9999 NSC 27/15 Q1011 A2986 883.8 HR48 CI=METAR SLVM 021300Z 00000KT 9999 FEW023 26/22 Q1006 A2972 HR78 CI=METAR SLTJ 021300Z 15004KT 9999 FEW020 22/16 Q1014 A2995 810.0 HR71=METAR SLYA 021300Z 21005KT 9999 FEW020 SCT200 28/23 Q1007 A2974 932.2HR73=METAR SLBJ 021300Z NIL=METAR SLHI 021300Z NIL=
ZPX0318 021259@CAELT@GG SLZZYMYT@CAELT@021259 SLLPYFYA@CAELT@SABO SLLP 021300@CAELT@METAR SLLP 021300Z VRB02KT 8000 FEW006 SCT015 12/05 Q1037 A3063@CAELT@627.4 HR64 P94// VIS/RED SC/BAJOS NE/E/SE AC NOSIG=@CAELT@METAR SLCO 021300Z 03003KT 9999 BKN005 BKN080 26/24 Q1012 A2990@CAELT@985.0 HR87=@CAELT@METAR SLRY 021300Z 00000KT 9999 BKN070 26/24 Q1010 A2984 HR86RWY HUM OPR=METAR SLRQ 021300Z 00000KT 9999 FEW012 BKN080 25/25 Q1011 A2987987.3 HR95 CI=METAR SLSB 021300Z 00000KT 9999 BKN080 27/24 Q1011 A2988 HR85RWY WET OPR C210=METAR SLAP 021300Z 36005KT 9999 SCT020 23/18 Q1018 A3006 858.7HR76 AC=METAR SLOR 021300Z 34003KT 9999 SCT017 12/03 Q1034 A3055 655.6HR56 CI=METAR SLUY 021300Z 33011KT 9999 FEW025 BKN200 14/M03 Q1032 A3049657.3 HR47=
ZPX0319 021300@CAELT@GG SLZZYMYT@CAELT@021255 SLRQYSYX@CAELT@SABO SLRQ 021300@CAELT@METAR SLRQ 021300Z 00000KT 9999 FEW012 BKN080 25/25 Q1011 A2987 987.3@CAELT@HR95 CI=@CAELT@
ZPX0320 021301@CAELT@GG SLZZYMYT@CAELT@021301 SLVRYFYC@CAELT@SABO SLVR 021300@CAELT@METAR SLVR 021300Z 34012G23KT 9999 FEW017 SCT200 27/22 Q1010 A2983@CAELT@HR74 NOSIG=@CAELT@METAR SLET 021300Z 32013G24KT 9999 FEW015 SCT200 27/21 Q1009 A2981@CAELT@HR69 NOSIG=@CAELT@METAR SLAS 021300Z 36006KT 9999 BKN015 27/23 Q1013 A2991 HR81 RWY NMLMETAR SLJV 021300Z 36005KT 9999 NSC 26/23 Q1010 A2983 HR85 CI RWY NMLMETAR SLCP 021300Z 00000KT 9999 SCT020 BKN200 25/22 Q1015 A2997 HR88RWY NML=METAR SLSI 021300Z 00000KT 9999 NSC 29/22 Q1012 A2988 HR67 RWY NML=METAR SLTI 021300Z 00000KT 9999 NSC 33/23 Q1014 A2994 HR56 RWY NML=METAR SLJE 021300Z 35005KT 9999 NSC 30/22 Q1013 A2991 HR64 CI RWY NMLMETAR SLVG 021300Z 36007KT 9999 NSC 20/12 Q1021 A3015 HR51 CI RWY NMLMETAR SLRB 021300Z 00000KT 9999 NSC 31/23 Q1012 A2988 HR60 CI RWY NMLMETAR SLPS 021300Z 12006KT 9999 NSC 29/26 Q1011 A2986 HR87 CI=METAR SLCA 021300Z 12008KT 9999 NSC 28/17 Q1010 A2983 HR52 CS RWY NML
ZPX0321 021301@CAELT@GG SLZZYMYT@CAELT@021259 SLTRYGYS@CAELT@SABO SLTR 021300@CAELT@METAR SLTR 021300Z 30005KT 9999 FEW015 28/24 Q1011 A2986 992.7 HR78@CAELT@AC NOSIG=@CAELT@METAR SLGM 021300Z 00000KT 9999 FEW020 BKN080 27/24 Q1011 A2987 HR85=@CAELT@METAR SLRI 021300Z 00000KT 9999 SCT010 BKN080 26/24 Q1012 A2990 HR88=@CAELT@METAR SLJO 021300Z 36003KT 9999 BKN080 27/24 Q1011 A2986 HR74 CIRWY HUM OPR=METAR SLRA 021300Z 00000KT 9999 SCT015 BKN080 26/24 Q1010 A2984 HR89METAR SLMG 021300Z 32004KT 9999 SCT012 BKN080 26/24 Q1010 A2984 HR89METAR SLBU 021300Z 32004KT 9999 FEW015 SCT080 28/24 Q1011 A2986 HR79RWY NML=METAR SLSA 021300Z 34006KT 9999 BKN017 29/23 Q1010 A2984 HR71 AC=METAR SLSR 021300Z 00000KT 9999 SCT017 27/24 Q1010 A2985 HR83METAR SLSM 021300Z 00000KT 9999 FEW015 27/25 Q1011 A2985 HR87 AC
ZPX0350 021342@CAELT@GG SLZZYMYT@CAELT@011853 SLUYYGYS@CAELT@SABO SLUY 011900@CAELT@METAR SLUY 011900Z 25010KT 9999 FEW033 FEW036CB SCT200 21/04@CAELT@Q1028 A3038 654.8 HR34 CB/SH N/NE/E AC=@CAELT@
ZPX0351 021342@CAELT@GG SLZZYMYT@CAELT@011855 SLUYYGYS@CAELT@SABO SLUY 011900@CAELT@METAR SLUY 011900Z 25010KT 9999 FEW033 FEW036CB SCT200 21/04@CAELT@Q1028 A3038 654.8 HR34 CB/SH N/NE/E AC=@CAELT@
ZPX0355 021352@CAELT@GG SLZZYMYT@CAELT@021352 SLETYMYC@CAELT@SABO SLET 021400@CAELT@METAR SLET 021400Z 33016G26KT 9999 FEW017 SCT200 28/20 Q1009 A2982@CAELT@HR63 NOSIG=@CAELT@
ZPX0357 021352@CAELT@GG SLZZYMYT@CAELT@021352 SLPSYGYS@CAELT@SABO SLPS 021400@CAELT@METAR SLPS 021400Z 12006KT 9999 FEW017 BKN200 31/26 Q1011 A2986 HR78=@CAELT@
ZPX0358 021353@CAELT@GG SLZZYMYT@CAELT@021354 SLVRYGYZ@CAELT@SABO SLVR 021400@CAELT@METAR SLVR 021400Z 34016G26KT 9999 FEW017 SCT200 29/21 Q1010 A2984@CAELT@HR64 NOSIG=@CAELT@
ZPX0359 021353@CAELT@GG SLZZYMYT@CAELT@021353 SLCAYGYS@CAELT@SABO SLCA 021400@CAELT@METAR SLCA 021400Z 09010KT 9999 NSC 30/17 Q1009 A2980 HR48 CS RWY NML@CAELT@
ZPX0360 021354@CAELT@GG SLZZYMYT@CAELT@021353 SLRBYGYS@CAELT@SABO SLRB 021400@CAELT@METAR SLRB 021400Z 35006KT 9999 NSC 32/22 Q1012 A2988 HR55 CI RWY NML=@CAELT@
ZPX0361 021354@CAELT@GG SLZZYMYT@CAELT@021354 SLSBYSYX@CAELT@SABO SLSB 021400@CAELT@METAR SLSB 021400Z 31003KT 9999 FEW020 SCT080 29/24 Q1011 A2988 HR76@CAELT@RWY WET OPR C210=@CAELT@
ZPX0363 021355@CAELT@GG SLZZYMYT@CAELT@021355 SLRQYSYX@CAELT@SABO SLRQ 021400@CAELT@METAR SLRQ 021400Z 00000KT 9999 FEW012 BKN080 28/24 Q1011 A2988 987.6@CAELT@HR80 CI=@CAELT@
ZPX0364 021355@CAELT@GG SLZZYMYT@CAELT@021355 SLCBYGYZ@CAELT@SABO SLCB 021400@CAELT@METAR SLCB 021400Z 18005KT 9999 FEW036 25/07 Q1022 A3019 749.2 HR32@CAELT@FU NOSIG=@CAELT@
ZPX0365 021355@CAELT@GG SLZZYMYT@CAELT@021355 SLTRYGYZ@CAELT@SABO SLTR 021400@CAELT@METAR SLTR 021400Z 34006KT 9999 FEW015 30/24 Q1011 A2986 992.8 HR70@CAELT@AC NOSIG=@CAELT@
ZPX0366 021356@CAELT@GG SLZZYMYT@CAELT@021355 SLSAYGYS@CAELT@SABO SLSA 021400@CAELT@METAR SLSA 021400Z 34006KT 9999 BKN017 30/24 Q1011 A2986 HR72 AC=@CAELT@
ZPX0367 021356@CAELT@GG SLZZYMYT@CAELT@021355 SLAGYSYX@CAELT@SABO SLAG 021400@CAELT@METAR SLAG 021400Z 02006KT 9999 NSC 29/15 Q1010 A2983 883.1 HR43 CI=@CAELT@
ZPX0369 021357@CAELT@GG SLZZYMYT@CAELT@021357 SLCOYSYX@CAELT@SABO SLCO 021400@CAELT@METAR SLCO 021400Z 03006KT 9999 BKN008 SCT080 27/24 Q1012 A2990 985.2@CAELT@HR83 CI=@CAELT@
ZPX0371 021358@CAELT@GG SLZZYMYT@CAELT@021357 SLLPYGYZ@CAELT@SABO SLLP 021400@CAELT@METAR SLLP 021400Z 12004KT 060V210 9999 FEW008 SCT017 12/07 Q1037@CAELT@A3063 627.4 HR71 P94// NOSIG=@CAELT@
ZPX0372 021358@CAELT@GG SLZZYMYT@CAELT@021357 SLTJYGYZ@CAELT@SABO SLTJ 021400@CAELT@METAR SLTJ 021400Z 16006KT 9999 NSC 24/16 Q1013 A2993 809.5 HR64 CI=@CAELT@
ZPX0373 021359@CAELT@GG SLZZYMYT@CAELT@021359 SLVRYFYC@CAELT@SABO SLVR 021400@CAELT@METAR SLVR 021400Z 34016G26KT 9999 FEW017 SCT200 29/21 Q1010 A2984@CAELT@HR64 NOSIG=@CAELT@METAR SLET 021400Z 33016G26KT 9999 FEW017 SCT200 28/20 Q1009 A2982@CAELT@HR63 NOSIG=@CAELT@METAR SLAS 021400Z 36006KT 9999 BKN015 29/24 Q1013 A2991 HR79 RWY NMLMETAR SLJV 021400Z 36005KT 9999 FEW017 28/22 Q1010 A2983 HR72 RWY NMLMETAR SLCP 021400Z 00000KT 9999 SCT020 BKN200 27/23 Q1015 A2997 HR79RWY NML=METAR SLSI 021400Z 36006KT 9999 NSC 31/22 Q1012 A2988 HR60 RWY NML=METAR SLTI 021400Z 00000KT 9999 SCT017 35/24 Q1014 A2994 HR51 RWY NMLMETAR SLJE 021400Z 35008KT 9999 NSC 32/22 Q1013 A2991 HR55 RWY NML=METAR SLVG 021400Z 35012KT 9999 NSC 23/11 Q1021 A3015 HR42 CI RWY NMLMETAR SLRB 021400Z 35006KT 9999 NSC 32/22 Q1012 A2988 HR55 CI RWY NMLMETAR SLPS 021400Z 12006KT 9999 FEW017 BKN200 31/26 Q1011 A2986 HR78=METAR SLCA 021400Z 09010KT 9999 NSC 30/17 Q1009 A2980 HR48 CS RWY NML
ZPX0374 021359@CAELT@GG SLZZYMYT@CAELT@021359 SLTRYGYS@CAELT@SABO SLTR 021400@CAELT@METAR SLTR 021400Z 34006KT 9999 FEW015 30/24 Q1011 A2986 992.8 HR70@CAELT@AC NOSIG=@CAELT@METAR SLGM 021400Z 36004KT 9999 FEW017 BKN080 29/22 Q1012 A2988 HR69=@CAELT@METAR SLRI 021400Z 32004KT 9999 SCT015 28/24 Q1012 A2991 HR80=@CAELT@METAR SLJO 021400Z 36008KT 9999 FEW015 SCT080 28/23 Q1011 A2986 HR73RWY HUM OPR=METAR SLRA 021400Z 35006KT 9999 FEW015 BKN080 29/24 Q1010 A2985 HR79RWY NML=METAR SLMG 021400Z 00000KT 9999 FEW015 BKN200 28/24 Q1010 A2985 HR80METAR SLBU 021400Z 32004KT 9999 SCT017 30/25 Q1011 A2987 HR74METAR SLSA 021400Z 34006KT 9999 BKN017 30/24 Q1011 A2986 HR72 AC=METAR SLSR 021400Z 00000KT 9999 SCT017 29/24 Q1011 A2986 HR73METAR SLSM 021400Z 00000KT 9999 SCT015 29/25 Q1011 A2986 HR83 AC
ZPX0375 021400@CAELT@GG SLZZYMYT@CAELT@021358 SLORYGYZ@CAELT@SABO SLOR 021400@CAELT@METAR SLOR 021400Z 30003KT 9999 SCT020 14/04 Q1034 A3055 655.5 HR51@CAELT@
ZPX0376 021400@CAELT@GG SLZZYMYT@CAELT@021359 SLCBYGYS@CAELT@SABO SLCB 021400@CAELT@METAR SLCB 021400Z 18005KT 9999 FEW036 25/07 Q1022 A3019 749.2 HR32@CAELT@FU NOSIG=@CAELT@METAR SLAL 021400Z 03003KT 9999 FEW017 SCT200 19/09 Q1026 A3031 701.8@CAELT@HR53=@CAELT@METAR SLPO 021400Z 00000KT 9999 FEW017 16/04 Q1034 A3054 635.5 HR47METAR SLAG 021400Z 02006KT 9999 NSC 29/15 Q1010 A2983 883.1 HR43 CI=METAR SLVM 021400Z 18005KT 9999 SCT025 28/23 Q1006 A2971 HR73 CI=METAR SLTJ 021400Z 16006KT 9999 NSC 24/16 Q1013 A2993 809.5 HR64 CI=METAR SLYA 021400Z 21006KT 9999 SCT020 31/24 Q1006 A2972 931.6 HR68=METAR SLBJ 021400Z NIL=METAR SLHI 021400Z NIL=
ZPX0378 021401@CAELT@GG SLZZYMYT@CAELT@021400 SLLPYFYA@CAELT@SABO SLLP 021400@CAELT@METAR SLLP 021400Z 12004KT 060V210 9999 FEW008 SCT017 12/07 Q1037@CAELT@A3063 627.4 HR71 P94// NOSIG=@CAELT@METAR SLCO 021400Z 03006KT 9999 BKN008 SCT080 27/24 Q1012 A2990@CAELT@985.2 HR83 CI=@CAELT@METAR SLRY 021400Z 00000KT 9999 FEW015 BKN080 27/24 Q1010 A2985HR79 RWY NML=METAR SLRQ 021400Z 00000KT 9999 FEW012 BKN080 28/24 Q1011 A2988987.6 HR80 CI=METAR SLAP 021400Z 00000KT 9999 SCT025 25/19 Q1017 A3006 858.5HR68 AC=METAR SLSB 021400Z 31003KT 9999 FEW020 SCT080 29/24 Q1011 A2988HR76 RWY WET OPR C210=METAR SLOR 021400Z 30003KT 9999 SCT020 14/04 Q1034 A3055 655.5HR51 CI=METAR SLUY 021400Z 33012KT 9999 FEW027 BKN200 16/02 Q1032 A3049657.3 HR30=
