
ZPX0001 040000@CAELT@GG SLZZYMYT@CAELT@040000 SLCBYGYZ@CAELT@SABO SLCB 040000@CAELT@METAR SLCB 040000Z 12006KT 9999 FEW033 FEW036CB SCT090 BKN200 21/05@CAELT@Q1023 A3023 750.4 HR34 CB/NW/N FU NOSIG=@CAELT@
ZPX0010 040052@CAELT@GG SLZZYMYT@CAELT@040053 SLVRYGYZ@CAELT@SABO SLVR 040100@CAELT@METAR SLVR 040100Z 28005KT 9000 FEW070 27/20 Q1011 A2986 HR68 FU@CAELT@NOSIG=@CAELT@
ZPX0011 040055@CAELT@GG SLLPZRZX@CAELT@040055 SLLPYGYZ@CAELT@SABO SLLP 040100@CAELT@METAR SLLP 040100Z 07012KT 9999 FEW015 FEW017CB SCT200 08/M01@CAELT@Q1039 A3068 628.6 HR52 CB/LT NE/E AC NOSIG=@CAELT@
ZPX0012 040057@CAELT@GG SLZZYMYT@CAELT@040057 SLCBYGYZ@CAELT@SABO SLCB 040100@CAELT@METAR SLCB 040100Z 13007KT 9999 FEW033 FEW036CB BKN090 BKN200 21/05@CAELT@Q1025 A3029 752.0 HR34 CB/NW/N FU NOSIG=@CAELT@
ZPX0020 040153@CAELT@GG SLZZYMYT@CAELT@040153 SLVRYGYZ@CAELT@SABO SLVR 040200@CAELT@METAR SLVR 040200Z 27005KT 8000 FEW070 SCT200 25/20 Q1011 A2988 HR74@CAELT@FU NOSIG=@CAELT@
ZPX0021 040156@CAELT@GG SLLPZRZX@CAELT@040155 SLLPYGYZ@CAELT@SABO SLLP 040200@CAELT@METAR SLLP 040200Z 07008KT 9999 SCT015 FEW017CB BKN200 08/M02@CAELT@Q1039 A3070 629.1 HR51 CB/LT E/SE AC NOSIG=@CAELT@
ZPX0022 040157@CAELT@GG SLZZYMYT@CAELT@040157 SLCBYGYZ@CAELT@SABO SLCB 040200@CAELT@METAR SLCB 040200Z 35012KT 9999 SCT033 BKN090 BKN200 19/05 Q1027@CAELT@A3035 753.5 HR39 SH/W/NW/N FU NOSIG=@CAELT@
ZPX0031 040251@CAELT@GG SLZZYMYT@CAELT@040252 SLVRYGYZ@CAELT@SABO SLVR 040300@CAELT@METAR SLVR 040300Z 27005KT 8000 FEW070 SCT200 25/20 Q1011 A2988 HR75@CAELT@FU NOSIG=@CAELT@
