
ZPX0014 070056@CAELT@GG SLZZYMYT@CAELT@070057 SLVRYGYZ@CAELT@SABO SLVR 070100@CAELT@METAR SLVR 070100Z 20003KT 9999 BKN070 23/17 Q1014 A2996 HR68 NOSIG=@CAELT@
ZPX0015 070057@CAELT@GG SLZZYMYT@CAELT@070056 SLCBYGYZ@CAELT@SABO SLCB 070100@CAELT@METAR SLCB 070100Z 30005KT 9999 FEW030 BKN070 BKN200 17/11 Q1024@CAELT@A3024 750.6 HR64 NOSIG=@CAELT@
ZPX0016 070058@CAELT@GG SLLPZRZX@CAELT@070056 SLLPYGYZ@CAELT@SABO SLLP 070100@CAELT@METAR SLLP 070100Z 08005KT 4000E VCFG FEW003 FEW017CB SCT070 BKN200@CAELT@08/07 Q1037 A3064 627.7 HR95 CB/LT SW/W VCFG NE/E/SE NOSIG=@CAELT@
ZPX0033 070156@CAELT@GG SLZZYMYT@CAELT@070156 SLVRYGYZ@CAELT@SABO SLVR 070200@CAELT@METAR SLVR 070200Z 20004KT 9999 BKN070 25/17 Q1015 A2998 HR61 NOSIG=@CAELT@
ZPX0034 070158@CAELT@GG SLLPZRZX@CAELT@070156 SLLPYGYZ@CAELT@SABO SLLP 070200@CAELT@METAR SLLP 070200Z VRB02KT 4000E VCFG FEW003 SCT012 FEW017CB@CAELT@BKN070 08/07 Q1038 A3067 628.3 HR96 CB/LT/SW VCFG NE/E/SE CI NOSIG=@CAELT@
ZPX0035 070159@CAELT@GG SLZZYMYT@CAELT@070158 SLCBYGYZ@CAELT@SABO SLCB 070200@CAELT@METAR SLCB 070200Z 06005KT 9999 FEW030 BKN070 BKN200 17/11 Q1025@CAELT@A3027 751.5 HR67 NOSIG=@CAELT@
ZPX0052 070255@CAELT@GG SLZZYMYT@CAELT@070256 SLVRYGYZ@CAELT@SABO SLVR 070300@CAELT@METAR SLVR 070300Z 16004KT 9999 SCT023 BKN070 25/17 Q1015 A2999 HR63@CAELT@NOSIG=@CAELT@
ZPX0053 070257@CAELT@GG SLZZYMYT@CAELT@070255 SLCBYGYZ@CAELT@SABO SLCB 070300@CAELT@METAR SLCB 070300Z 12010KT 9999 FEW030 BKN070 BKN200 17/10 Q1025@CAELT@A3028 751.8 HR61 NOSIG=@CAELT@
ZPX0055 070300@CAELT@GG SLLPZRZX@CAELT@070257 SLLPYGYZ@CAELT@SABO SLLP 070300@CAELT@METAR SLLP 070300Z 32007KT 260V340 4000E VCFG FEW003 SCT012 FEW017CB@CAELT@BKN200 07/06 Q1038 A3066 628.2 HR94 CB/LT/SW VCFG NE/E AC NOSIG=@CAELT@
ZPX0061 070355@CAELT@GG SLZZYMYT@CAELT@070356 SLVRYGYZ@CAELT@SABO SLVR 070400@CAELT@METAR SLVR 070400Z 18004KT 9999 SCT023 BKN070 25/17 Q1015 A2999 HR62@CAELT@NOSIG=@CAELT@
ZPX0062 070357@CAELT@GG SLLPZRZX@CAELT@070356 SLLPYGYZ@CAELT@SABO SLLP 070400@CAELT@METAR SLLP 070400Z 33010KT 290V350 9999 FEW012 BKN200 07/03 Q1038@CAELT@A3065 627.9 HR77 AC NOSIG=@CAELT@
ZPX0063 070359@CAELT@GG SLZZYMYT@CAELT@070357 SLCBYGYZ@CAELT@SABO SLCB 070400@CAELT@METAR SLCB 070400Z 11006KT 9999 FEW030 BKN070 BKN200 17/10 Q1025@CAELT@A3028 751.7 HR65 NOSIG=@CAELT@
ZPX0070 070455@CAELT@GG SLZZYMYT@CAELT@070455 SLVRYGYZ@CAELT@SABO SLVR 070500@CAELT@METAR SLVR 070500Z 18004KT 9999 SCT023 BKN070 24/17 Q1015 A2998 HR63@CAELT@NOSIG=@CAELT@
ZPX0072 070457@CAELT@GG SLZZYMYT@CAELT@070456 SLCBYGYZ@CAELT@SABO SLCB 070500@CAELT@METAR SLCB 070500Z 09007KT 9999 SCT027 BKN070 OVC200 17/11 Q1025@CAELT@A3028 751.6 HR66 NOSIG=@CAELT@
ZPX0073 070458@CAELT@GG SLLPZRZX@CAELT@070456 SLLPYGYZ@CAELT@SABO SLLP 070500@CAELT@METAR SLLP 070500Z 34007KT 310V020 4000E VCFG FEW003 BKN200 07/03@CAELT@Q1037 A3063 627.3 HR75 AC NOSIG=@CAELT@
ZPX0076 070503@CAELT@GG SLLPZRZX@CAELT@070501 SLLPYGYZ@CAELT@SABO SLLP 070500 CCA@CAELT@METAR COR LLP 070500Z 34007KT 310V020 4000E VCFG FEW003 BKN200 07/03@CAELT@Q1037 A3063 627.3 HR75 VCFG NE/E/SE AC NOSIG=@CAELT@
ZPX0077 070508@CAELT@GG SLLPZRZX@CAELT@070501 SLLPYGYZ@CAELT@SABO SLLP 070500 CCA@CAELT@METAR COR SLLP 070500Z 34007KT 310V020 4000E VCFG FEW003 BKN200 07/03@CAELT@Q1037 A3063 627.3 HR75 VCFG NE/E/SE AC NOSIG=@CAELT@
ZPX0082 070558@CAELT@GG SLZZYMYT@CAELT@070557 SLVRYGYU@CAELT@SABO SLVR 070600@CAELT@METAR SLVR 070600Z 19004KT 9999 SCT023 BKN070 23/17 Q1014 A2996@CAELT@HR68 NOSIG=@CAELT@
ZPX0083 070559@CAELT@GG SLZZYMYT@CAELT@070556 SLCBYGYZ@CAELT@SABO SLCB 070600@CAELT@METAR SLCB 070600Z 33007KT 8000 -RA BKN027 OVC070 14/13 Q1025 A3027@CAELT@751.5 HR92 NOSIG=@CAELT@
ZPX0084 070559@CAELT@GG SLLPZRZX@CAELT@070557 SLLPYGYZ@CAELT@SABO SLLP 070600@CAELT@METAR SLLP 070600Z 11004KT 4000E VCFG FEW003 BKN200 06/05 Q1036@CAELT@A3061 627.0 HR92 VCFG N/NE/E/SE NOSIG=@CAELT@
ZPX0093 070655@CAELT@GG SLZZYMYT@CAELT@070656 SLVRYGYZ@CAELT@SABO SLVR 070700@CAELT@METAR SLVR 070700Z 20004KT 9999 SCT023 BKN070 23/18 Q1014 A2996 HR71@CAELT@NOSIG=@CAELT@
ZPX0094 070657@CAELT@GG SLLPZRZX@CAELT@070656 SLLPYGYZ@CAELT@SABO SLLP 070700@CAELT@METAR SLLP 070700Z 08005KT 4000E VCFG FEW002 BKN200 06/05 Q1036 A3060@CAELT@626.8 HR94 VCFG NE/E/SE/S NOSIG=@CAELT@
ZPX0095 070659@CAELT@GG SLZZYMYT@CAELT@070657 SLCBYGYZ@CAELT@SABO SLCB 070700@CAELT@METAR SLCB 070700Z 31003KT 9999 -RA FEW012 SCT025 OVC070 14/13 Q1024@CAELT@A3027 751.3 HR96 NOSIG=@CAELT@
ZPX0102 070754@CAELT@GG SLZZYMYT@CAELT@070754 SLVRYGYZ@CAELT@SABO SLVR 070800@CAELT@METAR SLVR 070800Z 19003KT 9999 FEW023 BKN070 23/18 Q1014 A2997 HR71@CAELT@NOSIG=@CAELT@
ZPX0103 070757@CAELT@GG SLZZYMYT@CAELT@070755 SLLPYGYZ@CAELT@SABO SLLP 070800@CAELT@METAR SLLP 070800Z 07007KT 4000E VCFG FEW003 SCT010 BKN200 06/05@CAELT@Q1036 A3060 626.7 HR94 VCFG NE/E/SE/S NOSIG=@CAELT@
ZPX0104 070757@CAELT@GG SLZZYMYT@CAELT@070756 SLCBYGYZ@CAELT@SABO SLCB 070800@CAELT@METAR SLCB 070800Z 33003KT 8000 -RA FEW012 SCT025 OVC070 14/13 Q1024@CAELT@A3027 751.3 HR98 NOSIG=@CAELT@
ZPX0117 070853@CAELT@GG SLZZYMYT@CAELT@070854 SLVRYGYZ@CAELT@SABO SLVR 070900@CAELT@METAR SLVR 070900Z 15004KT 9999 FEW023 BKN070 23/18 Q1015 A2997 HR72@CAELT@NOSIG=@CAELT@
ZPX0118 070858@CAELT@GG SLLPZRZX@CAELT@070858 SLLPYGYZ@CAELT@SABO SLLP 070900@CAELT@METAR SLLP 070900Z 11006KT 4000E VCFG FEW003 SCT010 BKN200 06/05@CAELT@Q1036 A3061 627.0 HR94 VCFG NE/E/SE/S NOSIG=@CAELT@
ZPX0119 070859@CAELT@GG SLZZYMYT@CAELT@070856 SLTRYGYZ@CAELT@SABO SLTR 070900@CAELT@METAR SLTR 070900Z 00000KT 9999 BKN080 22/22 Q1012 A2991 994.2@CAELT@HR94 NOSIG=@CAELT@
ZPX0120 070859@CAELT@GG SLZZYMYT@CAELT@070857 SLCBYGYZ@CAELT@SABO SLCB 070900@CAELT@METAR SLCB 070900Z 09004KT 9999 FEW012 SCT025 BKN070 14/13 Q1024@CAELT@A3026 751.2 RERA HR97 NOSIG=@CAELT@
ZPX0122 070901@CAELT@GG SLZZYMYT@CAELT@070900 SLTRYGYS@CAELT@SABO SLTR 070900@CAELT@METAR SLTR 070900Z 00000KT 9999 BKN080 22/22 Q1012 A2991 994.2@CAELT@HR94 NOSIG=@CAELT@METAR SLRI 070900Z 18005KT 9999 BKN005 BKN070 22/22 Q1013 A2992@CAELT@HR100=@CAELT@
ZPX0139 070953@CAELT@GG SLZZYMYT@CAELT@070954 SLVRYGYZ@CAELT@SABO SLVR 071000@CAELT@METAR SLVR 071000Z 17003KT 9999 FEW025 BKN070 23/17 Q1015 A2999 HR70@CAELT@NOSIG=@CAELT@
ZPX0141 070955@CAELT@GG SLZZYMYT@CAELT@070955 SLRQYSYX@CAELT@SABO SLRQ 071000@CAELT@METAR SLRQ 071000Z 17004KT 9999 BKN030 23/21 Q1013 A2993 HR86=@CAELT@
ZPX0142 070955@CAELT@GG SLZZYMYT@CAELT@070955 SLSBYSYX@CAELT@SABO SLSB 071000@CAELT@METAR SLSB 071000Z 00000KT 9999 BKN080 22/22 Q1013 A2992 RWY WET OPR@CAELT@C210=@CAELT@
ZPX0143 070956@CAELT@GG SLZZYMYT@CAELT@070954 SLETYMYC@CAELT@SABO SLET 071000@CAELT@METAR SLET 071000Z 17003KT 9999 BKN070 23/16 Q1014 A2997 HR66@CAELT@NOSIG=@CAELT@
ZPX0144 070956@CAELT@GG SLZZYMYT@CAELT@070955 SLLPYGYZ@CAELT@SABO SLLP 071000@CAELT@METAR SLLP 071000Z 07004KT 4000E VCFG FEW003 SCT010 BKN070 06/05@CAELT@Q1037 A3062 627.3 HR93 P92// VCFG NE/E/SE/S NOSIG=@CAELT@
ZPX0145 070956@CAELT@GG SLZZYMYT@CAELT@070955 SLRBYGYS@CAELT@SABO SLRB 071000@CAELT@METAR SLRB 071000Z 00000KT 9999 BKN070 22/21 Q1017 A3003 HR95 RWY NML=@CAELT@
ZPX0146 070957@CAELT@GG SLZZYMYT@CAELT@070954 SLUYYGYS@CAELT@SABO SLUY 071000@CAELT@METAR SLUY 071000Z 01003KT 9999 FEW010 BKN200 03/M03 Q1032@CAELT@A3048 657.0 HR68 FU S/SW/W/NW RESTO HZ AC=@CAELT@
ZPX0147 070957@CAELT@GG SLZZYMYT@CAELT@070956 SLPSZTZX@CAELT@SABO SLPS 071000@CAELT@METAR SLPS 071000Z 00000KT 9999 OVC070 22/21 Q1013 A2992 HRI96=@CAELT@
ZPX0148 070958@CAELT@GG SLZZYMYT@CAELT@070957 SLCBYGYZ@CAELT@SABO SLCB 071000@CAELT@METAR SLCB 071000Z 22003KT 9999 FEW008 SCT025 BKN070 14/13 Q1025@CAELT@A3028 751.7 HR92 FU CI NOSIG=@CAELT@
ZPX0149 070958@CAELT@GG SLZZYMYT@CAELT@070956 SLTRYGYZ@CAELT@SABO SLTR 071000@CAELT@METAR SLTR 071000Z 00000KT 9999 BKN080 23/22 Q1013 A2993 995.0@CAELT@HR96 NOSIG=@CAELT@
ZPX0150 070959@CAELT@GG SLZZYMYT@CAELT@070958 SLCAYGYS@CAELT@SABO SLCA 071000@CAELT@METAR SLCA 071000Z 00000KT 9999 BKN080 20/16 Q1020 A3012 HR78 RWY NML@CAELT@
ZPX0151 070959@CAELT@GG SLZZYMYT@CAELT@070959 SLVRYFYC@CAELT@SABO SLVR 071000@CAELT@METAR SLVR 071000Z 17003KT 9999 FEW025 BKN070 23/17 Q1015 A2999 HR70@CAELT@NOSIG=@CAELT@METAR SLET 071000Z 17003KT 9999 BKN070 23/16 Q1014 A2997 HR66@CAELT@METAR SLCP 071000Z 00000KT 9999 OVC023 22/20 Q1017 A3003 HR89@CAELT@RWY NML=METAR SLSI 071000Z 00000KT 9999 SCT015 BKN070 23/20 Q1014 A2994HR86 RWY NML=METAR SLRB 071000Z 00000KT 9999 BKN070 22/21 Q1017 A3003 HR95METAR SLPS 071000Z 00000KT 9999 OVC070 22/21 Q1013 A2992 HR96=METAR SLCA 071000Z 00000KT 9999 BKN080 20/16 Q1020 A3012 HR78
ZPX0152 070959@CAELT@GG SLZZYMYT@CAELT@070959 SLCOYGYZ@CAELT@SABO SLCO 071000@CAELT@METAR SLCO 071000Z 15007KT 9999 BKN003 OVC070 22/21 Q1013 A2993 986.0@CAELT@HR95=@CAELT@
ZPX0154 071001@CAELT@GG SLZZYMYT@CAELT@071001 SLLPYFYA@CAELT@SABO SLLP 071000@CAELT@METAR SLLP 071000Z 07004KT 4000E VCFG FEW003 SCT010 BKN070 06/05@CAELT@Q1037 A3062 627.3 HR93 P92// VCFG NE/E/SE/S NOSIG=@CAELT@METAR SLCO 071000Z 15007KT 9999 BKN003 OVC070 22/21 Q1013 A2993 986.0@CAELT@HR95=@CAELT@METAR SLRQ 071000Z 17004KT 9999 BKN030 23/21 Q1013 A2993 HR86=METAR SLSB 071000Z 00000KT 9999 BKN080 22/22 Q1013 A2992 RWY WET OPRC210=METAR SLUY 071000Z 01003KT 9999 FEW010 BKN200 03/M03 Q1032A3048 657.0 HR68 FU S/SW/W/NW RESTO HZ AC=
ZPX0155 071003@CAELT@GG SLZZYMYT@CAELT@071000 SLTRYGYS@CAELT@SABO SLTR 071000@CAELT@METAR SLTR 071000Z 00000KT 9999 BKN080 23/22 Q1013 A2993 995.0@CAELT@HR96 NOSIG=@CAELT@METAR SLGM 071000Z 00000KT 5000 VCSH BKN005 OVC070 22/22 Q1012@CAELT@A2991 HR98 SH N/NE/NW=@CAELT@METAR SLRI 071000Z 18005KT 9999 BKN005 BKN200 22/22 Q1014 A2994HR100 AC=METAR SLJO 071000Z 00000KT 9999 SCT015 OVC070 22/22 Q1011 A2986HR97 RWY HUM OPR=METAR SLRA 071000Z 00000KT 8000 VCSH SCT020 FEW023CB BKN080 23/22Q1013 A2991 HR96 CI CB/SH SE/S RWY NML=METAR SLMG 071000Z 00000KT 8000 SCT020 OVC070 23/22 Q1011 A2987HR97 SH SW RWY NML=METAR SLBU 071000Z NIL=METAR SLSA 071000Z NIL=METAR SLSR 071000Z 00000KT 9999 FEW020 OVC070 21/20 Q1011 A2988HR96 RWY HUM OPR=METAR SLSM 071000Z 00000KT 9999 FEW015 BKN080 22/21 Q1013 A2992HR97 RWY NML=
ZPX0157 071003@CAELT@GG SLZZYMYT@CAELT@071000 SLCBYGYS@CAELT@SABO SLCB 071000@CAELT@METAR SLCB 071000Z 22003KT 9999 FEW008 SCT025 BKN070 14/13 Q1025@CAELT@A3028 751.7 HR92 FU CI NOSIG=@CAELT@METAR SLAL 071000Z 03010KT 6000 FEW002 OVC005 09/08 Q1028 A3036 702.8@CAELT@HR98 VCFG/N/NE/NW ST BAJOS/SE/S/SW/W=@CAELT@METAR SLVM 071000Z 00000KT 9999 SCT030 20/19 Q1016 A3001 HR90 FU CI=
ZPX0158 071004@CAELT@GG SLZZYMYT@CAELT@071002 SLCBYGYS@CAELT@SABO SLCB 071000 CCA@CAELT@METAR SLCB 071000Z 22003KT 9999 FEW008 SCT025 BKN070 14/13 Q1025@CAELT@A3028 751.7 HR92 FU CI NOSIG=@CAELT@METAR COR SLAL 071000Z 03010KT 6000 VCFG FEW002 OVC005 09/08 Q1028@CAELT@A3036 702.8 HR98 VCFG/N/NE/NW ST BAJOS/SE/S/SW/W=@CAELT@METAR SLVM 071000Z 00000KT 9999 SCT030 20/19 Q1016 A3001 HR90 FU CI=
ZPX0160 071006@CAELT@GG SLZZYMYT@CAELT@071005 SLLPYFYA@CAELT@SABO SLLP 071000@CAELT@METAR SLLP 071000Z 07004KT 4000E VCFG FEW003 SCT010 BKN070 06/05@CAELT@Q1037 A3062 627.3 HR93 P92// VCFG NE/E/SE/S NOSIG=@CAELT@METAR SLCO 071000Z 15007KT 9999 BKN003 OVC070 22/21 Q1013 A2993 986.0@CAELT@HR95=@CAELT@METAR SLRY 071000Z 00000KT 9999 BKN025 OVC080 21/21 Q1011 A2988 HR98RWY WET INOP=METAR SLRQ 071000Z 17004KT 9999 BKN030 23/21 Q1013 A2993 HR86=METAR SLSB 071000Z 00000KT 9999 BKN080 22/22 Q1013 A2992 RWY WET OPRC210=METAR SLUY 071000Z 01003KT 9999 FEW010 BKN200 03/M03 Q1032A3048 657.0 HR68 FU S/SW/W/NW RESTO HZ AC=
ZPX0161 071010@CAELT@GG SLZZYMYT@CAELT@071010 SLTRYGYS@CAELT@SABO SLTR 071000 CCA@CAELT@METAR SLTR 071000Z 00000KT 9999 BKN080 23/22 Q1013 A2993 995.0@CAELT@HR96 NOSIG=@CAELT@METAR SLGM 071000Z 00000KT 5000 VCSH BKN005 OVC070 22/22 Q1012@CAELT@A2991 HR98 SH N/NE/NW=@CAELT@METAR SLRI 071000Z 18005KT 9999 BKN005 BKN200 22/22 Q1014 A2994HR100 AC=METAR SLJO 071000Z 00000KT 9999 SCT015 OVC070 22/22 Q1011 A2986HR97 RWY HUM OPR=METAR SLRA 071000Z 00000KT 8000 VCSH SCT020 FEW023CB BKN080 23/22Q1013 A2991 HR96 CI CB/SH SE/S RWY NML=METAR COR SLMG 071000Z 00000KT 8000 VCSH SCT020 OVC070 23/22 Q1011A2987 HR97 SH SW RWY NML=METAR SLBU 071000Z NIL=METAR SLSA 071000Z NIL=METAR SLSR 071000Z 00000KT 9999 FEW020 OVC070 21/20 Q1011 A2988HR96 RWY HUM OPR=METAR SLSM 071000Z 00000KT 9999 FEW015 BKN080 22/21 Q1013 A2992HR97 RWY NML=
ZPX0186 071050@CAELT@GG SLZZYMYT@CAELT@071050 SLRBYGYS@CAELT@SABO SLRB 071100@CAELT@METAR SLRB 071100Z 00000KT 9999 BKN070 22/21 Q1017 A3003 HR95 RWY NML=@CAELT@
ZPX0187 071050@CAELT@GG SLZZYMYT@CAELT@071049 SLPSZTZX@CAELT@SABO SLPS 071100@CAELT@METAR SLPS 071100Z 00000KT 9999 OVC070 23/22 Q1013 A2992 HR96=@CAELT@
ZPX0190 071053@CAELT@GG SLZZYMYT@CAELT@071053 SLCAYGYS@CAELT@SABO SLCA 071100@CAELT@METAR SLCA 071100Z 00000KT 9999 OVC070 20/16 Q1020 A3012 HR78 RWY NML@CAELT@
ZPX0192 071054@CAELT@GG SLZZYMYT@CAELT@071055 SLSBYSYX@CAELT@SABO SLSB 071100@CAELT@METAR SLSB 071100Z VRB02KT 9999 BKN080 23/22 Q1014 A2995 HR94 RWY WET@CAELT@OPR C210=@CAELT@
ZPX0194 071055@CAELT@GG SLZZYMYT@CAELT@071052 SLETYMYC@CAELT@SABO SLET 071100@CAELT@METAR SLET 071100Z 18004KT 9999 BKN070 24/17 Q1015 A2998 HR65@CAELT@NOSIG=@CAELT@
ZPX0195 071056@CAELT@GG SLZZYMYT@CAELT@071055 SLCBYGYZ@CAELT@SABO SLCB 071100@CAELT@METAR SLCB 071100Z 14003KT 9999 FEW010 SCT027 BKN070 14/13 Q1025@CAELT@A3030 752.1 HR91 FU CI NOSIG=@CAELT@
ZPX0196 071056@CAELT@GG SLZZYMYT@CAELT@071055 SLTJYGYZ@CAELT@SABO SLTJ 071100@CAELT@METAR SLTJ 071100Z 00000KT 9999 OVC033 16/12 Q1023 A3023 817.0 HR77=@CAELT@
ZPX0197 071056@CAELT@GG SLZZYMYT@CAELT@071055 SLRQYSYX@CAELT@SABO SLRQ 071100@CAELT@METAR SLRQ 071100Z 00000KT 9999 SCT030 BKN080 24/21 Q1014 A2995 HR84=@CAELT@
ZPX0198 071056@CAELT@GG SLZZYMYT@CAELT@071056 SLVRYFYC@CAELT@SABO SLVR 071100@CAELT@METAR SLVR 071100Z 20003KT 9999 FEW025 BKN070 24/18 Q1015 A3000@CAELT@HR70 NOSIG=@CAELT@METAR SLET 071100Z 18004KT 9999 BKN070 24/17 Q1015 A29.98 HR65 NOSIG=@CAELT@METAR SLAS 071100Z 00000KT 9999 BKN030 23/21 Q1016 A3000 HR87 RWY NML@CAELT@METAR SLJV 071100Z 00000KT 9999 BKN070 22/20 Q1014 A2994 HR93 RWY NMLMETAR SLCP 071100Z 00000KT 9999 OVC023 23/20 Q1018 A3006 HR85 RWY NMLMETAR SLSI 071100Z 00000KT 9999 SCT015 BKN070 24/20 Q1014 A2994HR81 RWY NML=METAR SLTI 071100Z 00000KT 9999 NSC 26/21 Q1018 A3006 HR75 RWY NML=METAR SLJE 071100Z 00000KT 9999 OVC070 23/21 Q1017 A3003 HR85RWY NML=METAR SLVG 071100Z 00000KT 9999 FEW013 OVC070 13/11 Q1027A3033 HR89 RWY NML=METAR SLRB 071100Z 00000KT 9999 BKN070 22/21 Q1017 A3003 HR95METAR SLPS 071100Z 00000KT 9999 OVC070 23/22 Q1013 A2992 HR96=METAR SLCA 071100Z 00000KT 9999 OVC070 20/16 Q1020 A3012 HR78
ZPX0199 071057@CAELT@GG SLZZYMYT@CAELT@071055 SLAGYSYX@CAELT@SABO SLAG 071100@CAELT@METAR SLAG 071100Z VRB02KT 9999 STC012 OVC070 18/16 Q1020 A3012 891.9@CAELT@HR87=@CAELT@
ZPX0200 071057@CAELT@GG SLZZYMYT@CAELT@071056 SLTRYGYZ@CAELT@SABO SLTR 071100@CAELT@METAR SLTR 071100Z 19003KT 9999 BKN080 23/21 Q1014 A2996 996.0@CAELT@HR89 NOSIG=@CAELT@
ZPX0201 071057@CAELT@GG SLZZYMYT@CAELT@071057 SLORYGYZ@CAELT@SABO SLOR 071100@CAELT@METAR SLOR 071100Z 36005KT 9999 FEW017 SCT070 10/01 Q1033 A3053 655.1@CAELT@HR56 CI=@CAELT@
ZPX0202 071058@CAELT@GG SLZZYMYT@CAELT@071057 SLLPYGYZ@CAELT@SABO SLLP 071100@CAELT@METAR SLLP 071100Z 07004KT 3000E VCFG FEW003 SCT010 BKN070 07/06@CAELT@Q1037 A3065 627.9 HR91 P/INV VCFG N/NE/E/SE/S NOSIG=@CAELT@
ZPX0203 071058@CAELT@GG SLZZYMYT@CAELT@071057 SLUYYGYS@CAELT@SABO SLUY 071100@CAELT@METAR SLUY 071100Z 00000KT 9999 FEW010 BKN200 07/M00 Q1033@CAELT@A3051 657.8 HR62 AC=@CAELT@
ZPX0204 071059@CAELT@GG SLZZYMYT@CAELT@071058 SLCOYGYZ@CAELT@SABO SLCO 071100@CAELT@METAR SLCO 071100Z 15005KT 9999 SCT003 OVC070 22/22 Q1014 A2995 986.8@CAELT@HR95=@CAELT@
ZPX0206 071059@CAELT@GG SLZZYMYT@CAELT@071058 SLCBYGYS@CAELT@SABO SLCB 071100@CAELT@METAR SLCB 071100Z 14003KT 9999 FEW010 SCT027 BKN070 14/13 Q1025@CAELT@A3030 752.1 HR91 FU CI NOSIG=@CAELT@METAR SLAG 071100Z VRB02KT 9999 STC012 OVC070 18/16 Q1020 A3012 891.9@CAELT@HR87=@CAELT@METAR SLVM 071100Z 00000KT 9999 BKN070 21/19 Q1017 A3004 HR88 FU CI=METAR SLTJ 071100Z 00000KT 9999 OVC033 16/12 Q1023 A3023 817.0 HR77=
ZPX0208 071100@CAELT@GG SLZZYMYT@CAELT@071058 SLTRYGYS@CAELT@SABO SLTR 071100@CAELT@METAR SLTR 071100Z 19003KT 9999 BKN080 23/21 Q1014 A2996 996.0@CAELT@HR89 NOSIG=@CAELT@METAR SLGM 071100Z 00000KT 6000 VCSH BKN005 BKN070 22/22 Q1013@CAELT@A2994 HR96 SH NE/E=@CAELT@METAR SLRI 071100Z 18005KT 9999 SCT008 BKN070 22/21 Q1015 A2997HR98 CI=METAR SLJO 071100Z 00000KT 9999 FEW004 SCT020 BKN080 22/22 Q1012A2991 HR97 RWY HUM OPR=METAR SLRA 071100Z 12003KT 8000 VCSH SCT020 BKN080 23/22 Q1013A2993 HR94 CI SH S RWY NML=METAR SLMG 071100Z 00000KT 9999 FEW008 BKN080 23/22 Q1012 A2988HR96 RWY NML=METAR SLBU 071100Z NIL=METAR SLSA 071100Z NIL=METAR SLSR 071100Z 00000KT 9999 FEW020 OVC070 21/20 Q1012 A2990HR96 RWY HUM OPR=METAR SLSM 071100Z 00000KT 9999 BKN080 22/22 Q1014 A2995 HR97RWY NML=
ZPX0210 071100@CAELT@GG SLZZYMYT@CAELT@071101 SLAGYSYX@CAELT@SABO SLAG 071100 CCA@CAELT@METAR COR SLAG 071100Z VRB02KT 9999 SCT012 OVC070 18/16 Q1020 A3012@CAELT@891.9 HR87=@CAELT@
ZPX0213 071101@CAELT@GG SLZZYMYT@CAELT@071101 SLLPYFYA@CAELT@SABO SLLP 071100@CAELT@METAR SLLP 071100Z 07004KT 3000E VCFG FEW003 SCT010 BKN070 07/06@CAELT@Q1037 A3065 627.9 HR91 P/INV VCFG N/NE/E/SE/S NOSIG=@CAELT@METAR SLCO 071100Z 15005KT 9999 SCT003 OVC070 22/22 Q1014 A2995 986.8@CAELT@HR95=@CAELT@METAR SLRY 071100Z 00000KT 9999 BKN030 OVC080 21/21 Q1012A2989 HR97 RWY WET INOP=METAR SLRQ 071100Z 00000KT 9999 SCT030 BKN080 24/21 Q1014 A2995 HR84=METAR SLAP 071100Z 00000KT 9999 BKN020 OVC070 16/15 Q1016 A3000 856.9METAR SLSB 071100Z VRB02KT 9999 BKN080 23/22 Q1014 A2995 HR94 RWY WETOPR C210=METAR SLOR 071100Z 36005KT 9999 FEW017 SCT070 10/01 Q1033 A3053 655.1HR56 CI=METAR SLUY 071100Z 00000KT 9999 FEW010 BKN200 07/M00 Q1033A3051 657.8 HR62 AC=
ZPX0217 071103@CAELT@GG SLZZYMYT@CAELT@071103 SLCBYGYS@CAELT@SABO SLCB 071100@CAELT@METAR SLCB 071100Z 14003KT 9999 FEW010 SCT027 BKN070 14/13 Q1025@CAELT@A3030 752.1 HR91 FU CI NOSIG=@CAELT@METAR SLAL 071100Z 03005KT 5000 BR OVC005 09/09 Q1030 A3044 704.7@CAELT@HR98=@CAELT@METAR SLPO 071100Z 00000KT 9999 FEW002 BKN013 07/06 Q1037 A3064 637.9HR96 ST BAJOS N/NE/E/SE=METAR SLAG 071100Z VRB02KT 9999 STC012 OVC070 18/16 Q1020 A3012 891.9HR87=METAR SLVM 071100Z 00000KT 9999 BKN070 21/19 Q1017 A3004 HR88 FU CI=METAR SLTJ 071100Z 00000KT 9999 OVC033 16/12 Q1023 A3023 817.0 HR77=
ZPX0227 071109@CAELT@GG SLZZYMYT@CAELT@071107 SLTRYGYS@CAELT@SABO SLTR 071100 RRA@CAELT@METAR SLTR 071100Z 19003KT 9999 BKN080 23/21 Q1014 A2996 996.0@CAELT@HR89 NOSIG=@CAELT@METAR SLGM 071100Z 00000KT 6000 VCSH BKN005 BKN070 22/22 Q1013@CAELT@A2994 HR96 SH NE/E=@CAELT@METAR SLRI 071100Z 18005KT 9999 SCT008 BKN070 22/21 Q1015 A2997HR98 CI=METAR SLJO 071100Z 00000KT 9999 FEW004 SCT020 BKN080 22/22 Q1012A2991 HR97 RWY HUM OPR=METAR SLRA 071100Z 12003KT 8000 VCSH SCT020 BKN080 23/22 Q1013A2993 HR94 CI SH S RWY NML=METAR SLMG 071100Z 00000KT 9999 FEW008 BKN080 23/22 Q1012 A2988HR96 RWY NML=METAR SLBU 071100Z NIL=METAR RTD SLSA 071100Z 00000KT 9999 BKN080 BKN200 23/21 Q1013 A2994HR92=METAR SLSR 071100Z 00000KT 9999 FEW020 OVC070 21/20 Q1012 A2990HR96 RWY HUM OPR=METAR SLSM 071100Z 00000KT 9999 BKN080 22/22 Q1014 A2995 HR97RWY NML=
